{"type":"FeatureCollection","features":[{"type":"Feature","id":"Central and Western","properties":{"id":"Central and Western","name":"Central and Western","name_full":"中西区","name_ja":"中西区","center_lonlat":[114.1523,22.2742]},"geometry":{"type":"MultiPolygon","coordinates":[[[[114.1728,22.2523],[114.1739,22.2646],[114.1729,22.2877],[114.1563,22.2931],[114.1544,22.2931],[114.1438,22.2929],[114.1361,22.2892],[114.1309,22.2846],[114.1238,22.2813],[114.122,22.2797],[114.1209,22.2777],[114.1204,22.2739],[114.1225,22.2683],[114.1283,22.2678],[114.1353,22.2696],[114.1404,22.2693],[114.1462,22.2642],[114.1534,22.2556],[114.1549,22.2509],[114.1559,22.2503],[114.1609,22.2508],[114.1649,22.2525],[114.1672,22.2519],[114.1728,22.2523]]],[[[114.1164,22.2801],[114.1194,22.2807],[114.1206,22.282],[114.1188,22.2836],[114.1169,22.2835],[114.1158,22.2821],[114.1164,22.2801]]]]}},{"type":"Feature","id":"Wan Chai","properties":{"id":"Wan Chai","name":"Wan Chai","name_full":"湾仔区","name_ja":"湾仔区","center_lonlat":[114.1894,22.2665]},"geometry":{"type":"Polygon","coordinates":[[[114.1863,22.2864],[114.1819,22.2848],[114.1729,22.2877],[114.1739,22.2646],[114.1728,22.2523],[114.1916,22.2507],[114.2045,22.2523],[114.2053,22.2612],[114.2107,22.2621],[114.2145,22.264],[114.2163,22.2658],[114.2148,22.2689],[114.2127,22.2717],[114.2097,22.2684],[114.2066,22.2684],[114.2043,22.2706],[114.2009,22.2768],[114.1997,22.2773],[114.195,22.2758],[114.1934,22.2773],[114.1924,22.2771],[114.1907,22.2805],[114.1875,22.2795],[114.1863,22.2864]]]}},{"type":"Feature","id":"Eastern","properties":{"id":"Eastern","name":"Eastern","name_full":"东区","name_ja":"东区","center_lonlat":[114.2271,22.2703]},"geometry":{"type":"Polygon","coordinates":[[[114.2045,22.2523],[114.2096,22.2534],[114.2145,22.2525],[114.2185,22.2534],[114.2259,22.2509],[114.2324,22.2504],[114.2368,22.249],[114.2404,22.2502],[114.2482,22.2489],[114.2498,22.2481],[114.2557,22.2408],[114.2556,22.2422],[114.2569,22.2439],[114.2597,22.2453],[114.2616,22.2482],[114.2621,22.2533],[114.2615,22.257],[114.2631,22.2587],[114.2541,22.2672],[114.2495,22.2727],[114.2485,22.2758],[114.2495,22.2798],[114.225,22.2917],[114.2156,22.2963],[114.1967,22.2899],[114.1863,22.2864],[114.1875,22.2795],[114.1907,22.2805],[114.1924,22.2771],[114.1934,22.2773],[114.195,22.2758],[114.1997,22.2773],[114.2009,22.2768],[114.2043,22.2706],[114.2066,22.2684],[114.2097,22.2684],[114.2127,22.2717],[114.2148,22.2689],[114.2163,22.2658],[114.2145,22.264],[114.2107,22.2621],[114.2053,22.2612],[114.2045,22.2523]]]}},{"type":"Feature","id":"Southern","properties":{"id":"Southern","name":"Southern","name_full":"南区","name_ja":"南区","center_lonlat":[114.2071,22.233]},"geometry":{"type":"MultiPolygon","coordinates":[[[[114.1225,22.2683],[114.128,22.2624],[114.1385,22.2465],[114.1463,22.2424],[114.1535,22.2351],[114.1624,22.2306],[114.1661,22.226],[114.1708,22.2278],[114.1771,22.2258],[114.1793,22.2258],[114.1806,22.2272],[114.1843,22.2384],[114.186,22.2396],[114.1888,22.2391],[114.1947,22.2332],[114.1997,22.2328],[114.2013,22.2298],[114.2003,22.2267],[114.2008,22.2238],[114.2004,22.2227],[114.1964,22.2226],[114.1957,22.221],[114.203,22.2162],[114.2033,22.2143],[114.2009,22.2105],[114.2019,22.2072],[114.2073,22.2073],[114.211,22.2099],[114.2126,22.2097],[114.2153,22.1934],[114.2176,22.191],[114.2257,22.1917],[114.2294,22.1936],[114.2296,22.1963],[114.2259,22.2022],[114.2253,22.2057],[114.2258,22.2072],[114.2298,22.2103],[114.2383,22.2139],[114.2403,22.2131],[114.2454,22.205],[114.2469,22.2039],[114.2596,22.2023],[114.2623,22.2033],[114.2629,22.2019],[114.2647,22.2009],[114.266,22.2011],[114.2654,22.203],[114.2666,22.2058],[114.2646,22.2087],[114.2625,22.2091],[114.2616,22.2101],[114.2606,22.2188],[114.2579,22.2244],[114.2612,22.2246],[114.2623,22.2262],[114.2647,22.2262],[114.2652,22.2285],[114.261,22.2283],[114.2598,22.229],[114.2604,22.233],[114.2557,22.2408],[114.2498,22.2481],[114.2482,22.2489],[114.2404,22.2502],[114.2368,22.249],[114.2324,22.2504],[114.2259,22.2509],[114.2185,22.2534],[114.2145,22.2525],[114.2096,22.2534],[114.2045,22.2523],[114.1916,22.2507],[114.1728,22.2523],[114.1672,22.2519],[114.1649,22.2525],[114.1609,22.2508],[114.1559,22.2503],[114.1549,22.2509],[114.1534,22.2556],[114.1462,22.2642],[114.1404,22.2693],[114.1353,22.2696],[114.1283,22.2678],[114.1225,22.2683]]],[[[114.1894,22.2291],[114.1913,22.2306],[114.1932,22.2305],[114.1946,22.2316],[114.1947,22.2329],[114.1934,22.2336],[114.1916,22.2331],[114.1877,22.2338],[114.1867,22.2316],[114.1894,22.2291]]],[[[114.1899,22.2107],[114.193,22.212],[114.1931,22.2138],[114.19,22.215],[114.1881,22.2146],[114.1886,22.2121],[114.1899,22.2107]]],[[[114.2634,22.222],[114.2644,22.2228],[114.2638,22.2238],[114.2601,22.2237],[114.2607,22.2226],[114.2634,22.222]]]]}},{"type":"Feature","id":"Yau Tsim Mong","properties":{"id":"Yau Tsim Mong","name":"Yau Tsim Mong","name_full":"油尖旺区","name_ja":"油尖旺区","center_lonlat":[114.1722,22.3035]},"geometry":{"type":"Polygon","coordinates":[[[114.1544,22.3115],[114.1544,22.2931],[114.1563,22.2931],[114.1729,22.2877],[114.1819,22.2848],[114.1863,22.2864],[114.1967,22.2899],[114.1926,22.3002],[114.1861,22.3052],[114.1796,22.3136],[114.1778,22.3192],[114.1795,22.3238],[114.1687,22.3235],[114.163,22.3219],[114.1608,22.3234],[114.1572,22.3204],[114.1542,22.3199],[114.1544,22.3115]]]}},{"type":"Feature","id":"Sham Shui Po","properties":{"id":"Sham Shui Po","name":"Sham Shui Po","name_full":"深水埗区","name_ja":"深水埗区","center_lonlat":[114.157,22.329]},"geometry":{"type":"Polygon","coordinates":[[[114.1544,22.3115],[114.1542,22.3199],[114.1572,22.3204],[114.1608,22.3234],[114.163,22.3219],[114.1687,22.3235],[114.1795,22.3238],[114.1813,22.3268],[114.182,22.3299],[114.1778,22.3444],[114.1575,22.3434],[114.1524,22.3417],[114.1517,22.3406],[114.1508,22.3375],[114.1484,22.3386],[114.1429,22.339],[114.1384,22.3371],[114.1354,22.3369],[114.135,22.3353],[114.1368,22.3315],[114.1454,22.329],[114.1464,22.3279],[114.1457,22.3268],[114.1325,22.3195],[114.1316,22.3176],[114.1335,22.3151],[114.134,22.3114],[114.1354,22.3109],[114.1544,22.3115]]]}},{"type":"Feature","id":"Kowloon City","properties":{"id":"Kowloon City","name":"Kowloon City","name_full":"九龙城区","name_ja":"九龙城区","center_lonlat":[114.1978,22.3145]},"geometry":{"type":"Polygon","coordinates":[[[114.1843,22.346],[114.1801,22.3459],[114.1778,22.3444],[114.182,22.3299],[114.1813,22.3268],[114.1795,22.3238],[114.1778,22.3192],[114.1796,22.3136],[114.1861,22.3052],[114.1926,22.3002],[114.1967,22.2899],[114.2156,22.2963],[114.225,22.2917],[114.2236,22.3005],[114.2129,22.3099],[114.2152,22.3128],[114.2105,22.3175],[114.2065,22.3199],[114.207,22.3229],[114.2095,22.3254],[114.2082,22.3325],[114.2029,22.3309],[114.1995,22.3284],[114.1983,22.3285],[114.1971,22.3305],[114.1946,22.3311],[114.19,22.3362],[114.1896,22.3386],[114.187,22.3399],[114.1863,22.3433],[114.1843,22.346]]]}},{"type":"Feature","id":"Wong Tai Sin","properties":{"id":"Wong Tai Sin","name":"Wong Tai Sin","name_full":"黄大仙区","name_ja":"黄大仙区","center_lonlat":[114.2097,22.3416]},"geometry":{"type":"Polygon","coordinates":[[[114.2082,22.3325],[114.2113,22.3311],[114.216,22.3318],[114.2186,22.3297],[114.2323,22.3313],[114.2306,22.333],[114.2276,22.3452],[114.2271,22.3504],[114.2283,22.3546],[114.2125,22.3531],[114.2091,22.3543],[114.2061,22.3522],[114.2011,22.3534],[114.2018,22.3515],[114.2008,22.3502],[114.1908,22.3484],[114.1843,22.346],[114.1863,22.3433],[114.187,22.3399],[114.1896,22.3386],[114.19,22.3362],[114.1946,22.3311],[114.1971,22.3305],[114.1983,22.3285],[114.1995,22.3284],[114.2029,22.3309],[114.2082,22.3325]]]}},{"type":"Feature","id":"Kwun Tong","properties":{"id":"Kwun Tong","name":"Kwun Tong","name_full":"观塘区","name_ja":"观塘区","center_lonlat":[114.2308,22.3095]},"geometry":{"type":"Polygon","coordinates":[[[114.2082,22.3325],[114.2095,22.3254],[114.207,22.3229],[114.2065,22.3199],[114.2105,22.3175],[114.2152,22.3128],[114.2129,22.3099],[114.2236,22.3005],[114.225,22.2917],[114.2495,22.2798],[114.2498,22.2809],[114.2492,22.2826],[114.2462,22.2843],[114.2458,22.2858],[114.2493,22.2942],[114.2527,22.296],[114.2527,22.2975],[114.2499,22.3016],[114.2448,22.3065],[114.2452,22.3094],[114.2491,22.3167],[114.2481,22.317],[114.2454,22.3157],[114.2447,22.3212],[114.2438,22.3186],[114.2431,22.3184],[114.2414,22.3198],[114.239,22.3201],[114.2349,22.3315],[114.2323,22.3313],[114.2186,22.3297],[114.216,22.3318],[114.2113,22.3311],[114.2082,22.3325]]]}},{"type":"Feature","id":"Tsuen Wan","properties":{"id":"Tsuen Wan","name":"Tsuen Wan","name_full":"荃湾区","name_ja":"荃湾区","center_lonlat":[114.0868,22.3654]},"geometry":{"type":"Polygon","coordinates":[[[114.1493,22.3745],[114.154,22.3753],[114.1582,22.3771],[114.1632,22.3811],[114.166,22.3872],[114.1734,22.3881],[114.1742,22.3889],[114.174,22.3996],[114.172,22.4083],[114.1729,22.412],[114.154,22.4109],[114.1534,22.4111],[114.1527,22.4148],[114.1516,22.4154],[114.1469,22.4146],[114.1413,22.4155],[114.1302,22.4147],[114.1293,22.4138],[114.1278,22.4108],[114.1224,22.4096],[114.1139,22.4041],[114.1076,22.4041],[114.1061,22.4034],[114.0981,22.3962],[114.0962,22.396],[114.0927,22.3976],[114.09,22.3972],[114.078,22.3889],[114.0749,22.3889],[114.0721,22.386],[114.0708,22.383],[114.0711,22.3807],[114.055,22.3805],[114.0539,22.3792],[114.0549,22.3754],[114.0448,22.3773],[114.0411,22.3741],[114.0376,22.374],[114.0369,22.3731],[114.0373,22.3708],[114.0396,22.3696],[114.0412,22.3655],[114.0459,22.3636],[114.0396,22.3606],[114.0329,22.3556],[114.0316,22.3495],[114.026,22.3478],[114.0263,22.3451],[114.0227,22.3379],[114.0158,22.3321],[113.986,22.3155],[114.0607,22.3125],[114.0611,22.3146],[114.0701,22.3271],[114.0748,22.3292],[114.0826,22.3294],[114.0785,22.3581],[114.0883,22.3625],[114.115,22.3641],[114.1151,22.3572],[114.1181,22.3578],[114.1247,22.361],[114.1262,22.3626],[114.1286,22.3681],[114.1283,22.3699],[114.1266,22.372],[114.1268,22.3731],[114.1412,22.3785],[114.1436,22.3779],[114.1439,22.3749],[114.1448,22.3737],[114.1493,22.3745]]]}},{"type":"Feature","id":"Tuen Mun","properties":{"id":"Tuen Mun","name":"Tuen Mun","name_full":"屯门区","name_ja":"屯门区","center_lonlat":[113.9801,22.3884]},"geometry":{"type":"MultiPolygon","coordinates":[[[[114.0721,22.386],[114.0719,22.3904],[114.0623,22.3906],[114.0622,22.3968],[114.0646,22.3972],[114.0644,22.4001],[114.0576,22.4001],[114.0569,22.3961],[114.0143,22.3964],[114.0138,22.4064],[114.008,22.4071],[114.0084,22.4147],[113.996,22.4159],[113.9902,22.4197],[113.9927,22.4251],[113.9854,22.4236],[113.9715,22.4256],[113.9678,22.4276],[113.9558,22.4276],[113.9543,22.4267],[113.9501,22.419],[113.9447,22.4138],[113.9434,22.4142],[113.9416,22.4197],[113.931,22.4222],[113.9183,22.4182],[113.9052,22.4027],[113.9054,22.402],[113.9142,22.399],[113.9167,22.3953],[113.9199,22.3864],[113.9208,22.3809],[113.9206,22.3777],[113.9182,22.3733],[113.92,22.3679],[113.9414,22.3553],[113.9519,22.3551],[113.9571,22.3526],[113.9593,22.3533],[113.9564,22.3594],[113.9604,22.3626],[113.9702,22.3662],[113.9799,22.3661],[113.9998,22.3581],[114.0188,22.3548],[114.0232,22.3517],[114.026,22.3478],[114.0316,22.3495],[114.0329,22.3556],[114.0396,22.3606],[114.0459,22.3636],[114.0412,22.3655],[114.0396,22.3696],[114.0373,22.3708],[114.0369,22.3731],[114.0376,22.374],[114.0411,22.3741],[114.0448,22.3773],[114.0549,22.3754],[114.0539,22.3792],[114.055,22.3805],[114.0711,22.3807],[114.0708,22.383],[114.0721,22.386]]],[[[113.8867,22.3669],[113.8887,22.3681],[113.8886,22.3692],[113.8897,22.3706],[113.8884,22.3711],[113.8883,22.3722],[113.8896,22.3733],[113.889,22.3741],[113.8903,22.3768],[113.8886,22.3778],[113.8856,22.3781],[113.8846,22.3792],[113.8826,22.3793],[113.8817,22.3772],[113.8857,22.3749],[113.8862,22.3736],[113.8851,22.3678],[113.8867,22.3669]]],[[[113.9858,22.3307],[113.989,22.336],[113.9883,22.3379],[113.9858,22.3357],[113.9849,22.3315],[113.9858,22.3307]]],[[[113.9717,22.3258],[113.9742,22.3286],[113.9717,22.3294],[113.9715,22.3311],[113.9708,22.3313],[113.97,22.3306],[113.9696,22.3274],[113.9699,22.3264],[113.9717,22.3258]]],[[[113.8951,22.3391],[113.8967,22.3428],[113.8957,22.3438],[113.8933,22.3437],[113.8937,22.34],[113.8951,22.3391]]],[[[113.8917,22.3478],[113.8937,22.3496],[113.893,22.3509],[113.8903,22.3496],[113.8903,22.3485],[113.8917,22.3478]]]]}},{"type":"Feature","id":"Yuen Long","properties":{"id":"Yuen Long","name":"Yuen Long","name_full":"元朗区","name_ja":"元朗区","center_lonlat":[114.0472,22.446]},"geometry":{"type":"Polygon","coordinates":[[[114.1293,22.4138],[114.1297,22.4163],[114.1291,22.4181],[114.1198,22.4265],[114.1159,22.4327],[114.1149,22.4365],[114.116,22.4399],[114.129,22.4596],[114.1242,22.4602],[114.1186,22.4651],[114.1055,22.463],[114.0926,22.4598],[114.0927,22.4723],[114.0945,22.4769],[114.0947,22.4836],[114.0944,22.4852],[114.0906,22.4903],[114.0914,22.4938],[114.0895,22.5004],[114.0921,22.5059],[114.0901,22.5115],[114.0894,22.518],[114.0864,22.5149],[114.0816,22.5124],[114.077,22.5155],[114.0691,22.5138],[114.0641,22.51],[114.0614,22.5016],[114.0571,22.4996],[114.0547,22.4996],[114.046,22.5022],[114.0319,22.5041],[114.0292,22.5031],[114.0285,22.5008],[114.033,22.4934],[114.0301,22.4896],[114.0262,22.4877],[114.0271,22.4834],[114.025,22.4805],[114.0212,22.4806],[114.0162,22.4873],[114.0143,22.4886],[114.0043,22.4908],[114.001,22.4909],[113.9998,22.4902],[113.9987,22.4822],[113.986,22.4711],[113.9777,22.4568],[113.9754,22.4553],[113.9636,22.4514],[113.9577,22.448],[113.9533,22.4432],[113.9487,22.4349],[113.9422,22.4262],[113.931,22.4222],[113.9416,22.4197],[113.9434,22.4142],[113.9447,22.4138],[113.9501,22.419],[113.9543,22.4267],[113.9558,22.4276],[113.9678,22.4276],[113.9715,22.4256],[113.9854,22.4236],[113.9927,22.4251],[113.9902,22.4197],[113.996,22.4159],[114.0084,22.4147],[114.008,22.4071],[114.0138,22.4064],[114.0143,22.3964],[114.0569,22.3961],[114.0576,22.4001],[114.0644,22.4001],[114.0646,22.3972],[114.0622,22.3968],[114.0623,22.3906],[114.0719,22.3904],[114.0721,22.386],[114.0749,22.3889],[114.078,22.3889],[114.09,22.3972],[114.0927,22.3976],[114.0962,22.396],[114.0981,22.3962],[114.1061,22.4034],[114.1076,22.4041],[114.1139,22.4041],[114.1224,22.4096],[114.1278,22.4108],[114.1293,22.4138]]]}},{"type":"Feature","id":"North","properties":{"id":"North","name":"North","name_full":"北区","name_ja":"北区","center_lonlat":[114.1822,22.5108]},"geometry":{"type":"MultiPolygon","coordinates":[[[[114.342,22.5078],[114.3404,22.5091],[114.3369,22.5096],[114.3274,22.5044],[114.3134,22.5],[114.3086,22.4974],[114.2988,22.5037],[114.2981,22.5059],[114.2963,22.5064],[114.2936,22.5056],[114.2925,22.507],[114.29,22.5067],[114.2908,22.5083],[114.2893,22.509],[114.2832,22.5087],[114.2854,22.5149],[114.2869,22.5152],[114.2872,22.5177],[114.2917,22.522],[114.291,22.5228],[114.2879,22.522],[114.2876,22.5226],[114.2848,22.5204],[114.2836,22.5211],[114.2867,22.5257],[114.2858,22.5271],[114.2805,22.5265],[114.279,22.5277],[114.278,22.5274],[114.2789,22.5254],[114.2775,22.5236],[114.2726,22.5248],[114.2686,22.5241],[114.2691,22.5282],[114.2733,22.5314],[114.2733,22.5329],[114.2722,22.5346],[114.2693,22.5347],[114.2675,22.5383],[114.2645,22.5385],[114.2627,22.5429],[114.2653,22.5449],[114.2657,22.5462],[114.2619,22.5473],[114.2595,22.5472],[114.2588,22.5457],[114.255,22.5463],[114.254,22.5452],[114.2528,22.5456],[114.2517,22.5475],[114.2476,22.5476],[114.2455,22.5459],[114.2375,22.5323],[114.2332,22.532],[114.2321,22.528],[114.2293,22.5267],[114.226,22.5289],[114.2231,22.5256],[114.2204,22.5253],[114.2184,22.5238],[114.2152,22.5238],[114.2143,22.5254],[114.2157,22.5297],[114.2185,22.5314],[114.2238,22.5385],[114.2326,22.54],[114.2313,22.5408],[114.2305,22.543],[114.2308,22.5459],[114.229,22.548],[114.2263,22.549],[114.2233,22.5528],[114.2186,22.5517],[114.2153,22.5539],[114.2073,22.5535],[114.2052,22.5546],[114.2014,22.5543],[114.2005,22.5531],[114.1972,22.553],[114.1941,22.5516],[114.1931,22.5526],[114.1911,22.552],[114.1868,22.5527],[114.1859,22.5513],[114.1827,22.5528],[114.1823,22.5568],[114.1755,22.5569],[114.174,22.5584],[114.1723,22.5585],[114.1695,22.5563],[114.1682,22.5566],[114.1667,22.5591],[114.1644,22.5576],[114.1611,22.5526],[114.1569,22.5516],[114.1566,22.5486],[114.1551,22.548],[114.1546,22.5459],[114.1548,22.5445],[114.1558,22.5442],[114.1558,22.545],[114.1567,22.545],[114.1565,22.5437],[114.1535,22.5413],[114.1531,22.5391],[114.1497,22.5385],[114.1492,22.5393],[114.143,22.5408],[114.1394,22.5388],[114.1359,22.5392],[114.1334,22.5371],[114.1305,22.537],[114.1276,22.5354],[114.1251,22.5322],[114.1215,22.5311],[114.1207,22.5286],[114.1173,22.5269],[114.115,22.5277],[114.1148,22.5328],[114.1138,22.5338],[114.1122,22.5317],[114.1079,22.5323],[114.102,22.5312],[114.0972,22.5344],[114.0941,22.5336],[114.0904,22.5293],[114.0857,22.5284],[114.0836,22.5269],[114.0843,22.5251],[114.0903,22.521],[114.0894,22.518],[114.0901,22.5115],[114.0921,22.5059],[114.0895,22.5004],[114.0914,22.4938],[114.0906,22.4903],[114.0944,22.4852],[114.0947,22.4836],[114.0945,22.4769],[114.0927,22.4723],[114.0926,22.4598],[114.1055,22.463],[114.1186,22.4651],[114.1242,22.4602],[114.129,22.4596],[114.1358,22.4622],[114.1481,22.4703],[114.1534,22.472],[114.154,22.4748],[114.153,22.4775],[114.1606,22.4783],[114.1612,22.4743],[114.1644,22.4751],[114.1678,22.4745],[114.1711,22.4817],[114.1736,22.4845],[114.1774,22.4864],[114.1911,22.4874],[114.1957,22.4859],[114.2018,22.4858],[114.2055,22.4845],[114.2161,22.4845],[114.2205,22.4826],[114.2224,22.4856],[114.2266,22.4896],[114.2299,22.495],[114.2332,22.4972],[114.2364,22.5013],[114.2386,22.5058],[114.2413,22.5056],[114.2438,22.5026],[114.2476,22.5017],[114.2546,22.4945],[114.2618,22.494],[114.2805,22.4967],[114.2874,22.4964],[114.3041,22.4897],[114.3077,22.489],[114.3119,22.4897],[114.3197,22.4931],[114.3236,22.4979],[114.3323,22.5016],[114.342,22.5078]]],[[[114.3092,22.5288],[114.3108,22.5328],[114.3101,22.534],[114.3073,22.5338],[114.3033,22.5371],[114.3025,22.5404],[114.2993,22.5415],[114.2998,22.5442],[114.3005,22.545],[114.3036,22.5448],[114.3078,22.5414],[114.3088,22.5415],[114.3112,22.5438],[114.3131,22.544],[114.3135,22.5458],[114.3167,22.5442],[114.3201,22.5465],[114.3221,22.5467],[114.3223,22.5474],[114.3194,22.5485],[114.3178,22.5479],[114.3166,22.5488],[114.3122,22.5481],[114.3096,22.5494],[114.3087,22.5481],[114.2985,22.549],[114.2979,22.55],[114.2986,22.5517],[114.2952,22.5526],[114.2928,22.5498],[114.2957,22.5466],[114.2957,22.5456],[114.2914,22.5452],[114.291,22.5439],[114.2987,22.5367],[114.2973,22.5361],[114.297,22.5377],[114.2952,22.5363],[114.2921,22.5356],[114.2922,22.5342],[114.2902,22.5307],[114.2909,22.5298],[114.2936,22.5311],[114.2947,22.5306],[114.2981,22.5312],[114.2991,22.5306],[114.3032,22.5325],[114.3041,22.5337],[114.3049,22.5334],[114.3041,22.5296],[114.3092,22.5288]]],[[[114.3038,22.5014],[114.3079,22.5031],[114.3107,22.5067],[114.314,22.5051],[114.3155,22.5052],[114.317,22.5079],[114.3209,22.5087],[114.3244,22.5126],[114.3264,22.5134],[114.3264,22.5145],[114.324,22.5164],[114.3222,22.5158],[114.3215,22.5164],[114.3222,22.518],[114.3203,22.5209],[114.3137,22.5235],[114.313,22.5223],[114.3141,22.5206],[114.3143,22.5156],[114.3124,22.5122],[114.3105,22.5116],[114.3105,22.5103],[114.3088,22.5101],[114.3085,22.5093],[114.3095,22.5086],[114.309,22.5079],[114.3078,22.5079],[114.3066,22.5108],[114.3048,22.5106],[114.3041,22.5093],[114.3027,22.5104],[114.3014,22.5096],[114.3003,22.5097],[114.2999,22.5107],[114.2992,22.5104],[114.2999,22.508],[114.3024,22.5069],[114.3008,22.5037],[114.3038,22.5014]]],[[[114.324,22.5198],[114.3261,22.5219],[114.3254,22.5281],[114.3271,22.531],[114.3251,22.5353],[114.3229,22.5349],[114.3226,22.5291],[114.3212,22.5276],[114.3197,22.5277],[114.3171,22.5315],[114.3153,22.5327],[114.3133,22.5321],[114.3121,22.5294],[114.3131,22.5254],[114.316,22.5246],[114.324,22.5198]]],[[[114.3106,22.5341],[114.3145,22.5366],[114.3149,22.5384],[114.3141,22.5392],[114.312,22.5395],[114.3099,22.5382],[114.3096,22.5353],[114.3106,22.5341]]],[[[114.2916,22.516],[114.294,22.5165],[114.2939,22.5175],[114.2898,22.5184],[114.2902,22.5164],[114.2916,22.516]]],[[[114.2753,22.5467],[114.2761,22.5482],[114.2728,22.5513],[114.2722,22.5509],[114.2734,22.5484],[114.2748,22.548],[114.2753,22.5467]]],[[[114.2805,22.5289],[114.2824,22.5308],[114.2792,22.5323],[114.2796,22.5293],[114.2805,22.5289]]],[[[114.336,22.5367],[114.3366,22.5386],[114.336,22.5398],[114.3344,22.5399],[114.3338,22.5387],[114.336,22.5367]]],[[[114.2641,22.5417],[114.2658,22.5419],[114.2673,22.5434],[114.2667,22.5441],[114.2637,22.5432],[114.2633,22.542],[114.2641,22.5417]]]]}},{"type":"Feature","id":"Tai Po","properties":{"id":"Tai Po","name":"Tai Po","name_full":"大埔区","name_ja":"大埔区","center_lonlat":[114.2055,22.4588]},"geometry":{"type":"MultiPolygon","coordinates":[[[[114.342,22.5078],[114.3323,22.5016],[114.3236,22.4979],[114.3197,22.4931],[114.3119,22.4897],[114.3077,22.489],[114.3041,22.4897],[114.2874,22.4964],[114.2805,22.4967],[114.2618,22.494],[114.2546,22.4945],[114.2476,22.5017],[114.2438,22.5026],[114.2413,22.5056],[114.2386,22.5058],[114.2364,22.5013],[114.2332,22.4972],[114.2299,22.495],[114.2266,22.4896],[114.2224,22.4856],[114.2205,22.4826],[114.2161,22.4845],[114.2055,22.4845],[114.2018,22.4858],[114.1957,22.4859],[114.1911,22.4874],[114.1774,22.4864],[114.1736,22.4845],[114.1711,22.4817],[114.1678,22.4745],[114.1644,22.4751],[114.1612,22.4743],[114.1606,22.4783],[114.153,22.4775],[114.154,22.4748],[114.1534,22.472],[114.1481,22.4703],[114.1358,22.4622],[114.129,22.4596],[114.116,22.4399],[114.1149,22.4365],[114.1159,22.4327],[114.1198,22.4265],[114.1291,22.4181],[114.1297,22.4163],[114.1293,22.4138],[114.1302,22.4147],[114.1413,22.4155],[114.1469,22.4146],[114.1516,22.4154],[114.1527,22.4148],[114.1534,22.4111],[114.154,22.4109],[114.1729,22.412],[114.177,22.4124],[114.1781,22.4139],[114.1799,22.4142],[114.1804,22.4157],[114.1905,22.4164],[114.1916,22.4179],[114.2032,22.4189],[114.2071,22.4264],[114.2144,22.4316],[114.2053,22.4372],[114.2032,22.4404],[114.2046,22.4475],[114.2071,22.4511],[114.2089,22.4518],[114.2123,22.4511],[114.2129,22.4503],[114.212,22.4458],[114.2125,22.4452],[114.2214,22.444],[114.2262,22.4455],[114.2306,22.4456],[114.2347,22.4475],[114.238,22.4504],[114.2398,22.4542],[114.2387,22.4558],[114.2357,22.4564],[114.2334,22.4551],[114.2292,22.4489],[114.2277,22.4484],[114.2241,22.4492],[114.2219,22.4502],[114.2219,22.4511],[114.2226,22.453],[114.2248,22.4528],[114.2251,22.4538],[114.2217,22.455],[114.2209,22.4542],[114.2193,22.4557],[114.2148,22.457],[114.2156,22.4632],[114.2168,22.4646],[114.2197,22.4657],[114.2222,22.4644],[114.2254,22.4645],[114.2341,22.4666],[114.2345,22.4651],[114.237,22.4636],[114.246,22.454],[114.2477,22.4464],[114.2492,22.4454],[114.2532,22.4455],[114.2626,22.4498],[114.2657,22.4526],[114.2701,22.4589],[114.2797,22.4635],[114.282,22.4662],[114.2856,22.4667],[114.295,22.4706],[114.3019,22.4748],[114.3088,22.477],[114.3138,22.48],[114.3152,22.4819],[114.3152,22.4836],[114.3183,22.4843],[114.3215,22.4863],[114.3272,22.4917],[114.3308,22.4964],[114.341,22.5033],[114.3425,22.5055],[114.342,22.5078]]],[[[114.2557,22.4347],[114.2558,22.427],[114.2536,22.4221],[114.2554,22.4179],[114.2542,22.4059],[114.2548,22.4029],[114.258,22.3974],[114.258,22.3923],[114.26,22.3888],[114.2596,22.3832],[114.263,22.3863],[114.2659,22.3876],[114.2789,22.3891],[114.2812,22.3941],[114.2826,22.3952],[114.2883,22.3948],[114.2897,22.3954],[114.2924,22.4026],[114.2919,22.4069],[114.2925,22.4101],[114.2947,22.4119],[114.3045,22.4118],[114.3065,22.4126],[114.308,22.4152],[114.308,22.4227],[114.3093,22.4235],[114.3221,22.4218],[114.3278,22.417],[114.3354,22.414],[114.3382,22.414],[114.3455,22.4168],[114.3521,22.4114],[114.3597,22.408],[114.3607,22.4054],[114.3659,22.4074],[114.3679,22.4093],[114.3721,22.4196],[114.372,22.432],[114.3695,22.4371],[114.3692,22.4403],[114.3739,22.4411],[114.3734,22.4434],[114.3762,22.4478],[114.3754,22.4538],[114.3743,22.4554],[114.3713,22.4572],[114.3648,22.4598],[114.3638,22.459],[114.3639,22.4512],[114.3563,22.448],[114.3569,22.4423],[114.3586,22.4411],[114.3573,22.4365],[114.3557,22.4352],[114.3518,22.438],[114.3472,22.4377],[114.3474,22.4443],[114.3454,22.448],[114.3458,22.454],[114.3471,22.4559],[114.3523,22.4573],[114.3538,22.4599],[114.3511,22.4673],[114.3505,22.4722],[114.3479,22.477],[114.3461,22.4776],[114.3444,22.4769],[114.3432,22.4741],[114.3414,22.4723],[114.342,22.4661],[114.3394,22.4629],[114.3376,22.4625],[114.3367,22.4629],[114.3366,22.4645],[114.3376,22.4676],[114.3361,22.4713],[114.3346,22.472],[114.3305,22.4705],[114.3297,22.4713],[114.3289,22.4773],[114.3277,22.4785],[114.3257,22.4788],[114.3178,22.4752],[114.3153,22.472],[114.31,22.4685],[114.3036,22.4567],[114.2965,22.4565],[114.2947,22.4526],[114.2905,22.4519],[114.284,22.4466],[114.2805,22.442],[114.2802,22.4374],[114.2791,22.4358],[114.276,22.4354],[114.2704,22.4368],[114.2557,22.4347]]],[[[114.3661,22.4621],[114.3681,22.4631],[114.3693,22.4652],[114.3694,22.4682],[114.3719,22.47],[114.3723,22.4739],[114.3715,22.4753],[114.3688,22.477],[114.3698,22.4816],[114.3688,22.4827],[114.3645,22.4839],[114.3624,22.4829],[114.358,22.4782],[114.3606,22.4758],[114.3607,22.4735],[114.3617,22.4724],[114.363,22.4676],[114.3625,22.4638],[114.3644,22.4621],[114.3661,22.4621]]],[[[114.4425,22.5343],[114.4451,22.5351],[114.4466,22.5368],[114.4473,22.5385],[114.4466,22.5397],[114.4401,22.5407],[114.4365,22.5447],[114.4363,22.551],[114.4355,22.5519],[114.4299,22.5501],[114.4286,22.5483],[114.4281,22.5454],[114.4297,22.5398],[114.4311,22.5377],[114.4389,22.5344],[114.4425,22.5343]]],[[[114.3629,22.493],[114.3658,22.4937],[114.3671,22.4978],[114.3699,22.5008],[114.3704,22.5019],[114.3699,22.5025],[114.368,22.5018],[114.364,22.5024],[114.3614,22.5009],[114.361,22.4986],[114.3595,22.4977],[114.3629,22.493]]],[[[114.2245,22.458],[114.2257,22.4569],[114.2275,22.4574],[114.2273,22.4607],[114.2242,22.4597],[114.2245,22.458]]],[[[114.336,22.4738],[114.3368,22.4746],[114.337,22.4771],[114.3363,22.4781],[114.3353,22.4772],[114.3354,22.4751],[114.3347,22.4748],[114.336,22.4738]]]]}},{"type":"Feature","id":"Sai Kung","properties":{"id":"Sai Kung","name":"Sai Kung","name_full":"西贡区","name_ja":"西贡区","center_lonlat":[114.2564,22.3565]},"geometry":{"type":"MultiPolygon","coordinates":[[[[114.3739,22.4411],[114.3692,22.4403],[114.3695,22.4371],[114.372,22.432],[114.3721,22.4196],[114.3679,22.4093],[114.3659,22.4074],[114.3607,22.4054],[114.3597,22.408],[114.3521,22.4114],[114.3455,22.4168],[114.3382,22.414],[114.3354,22.414],[114.3278,22.417],[114.3221,22.4218],[114.3093,22.4235],[114.308,22.4227],[114.308,22.4152],[114.3065,22.4126],[114.3045,22.4118],[114.2947,22.4119],[114.2925,22.4101],[114.2919,22.4069],[114.2924,22.4026],[114.2897,22.3954],[114.2883,22.3948],[114.2826,22.3952],[114.2812,22.3941],[114.2789,22.3891],[114.2659,22.3876],[114.263,22.3863],[114.2596,22.3832],[114.2606,22.3786],[114.2517,22.3768],[114.2495,22.3701],[114.2386,22.3618],[114.2293,22.3596],[114.2286,22.3564],[114.2294,22.355],[114.2283,22.3546],[114.2271,22.3504],[114.2276,22.3452],[114.2306,22.333],[114.2323,22.3313],[114.2349,22.3315],[114.239,22.3201],[114.2414,22.3198],[114.2431,22.3184],[114.2438,22.3186],[114.2447,22.3212],[114.2454,22.3157],[114.2481,22.317],[114.2491,22.3167],[114.2452,22.3094],[114.2448,22.3065],[114.2499,22.3016],[114.2527,22.2975],[114.2527,22.296],[114.2493,22.2942],[114.2458,22.2858],[114.2462,22.2843],[114.2492,22.2826],[114.2498,22.2809],[114.2504,22.283],[114.2563,22.2897],[114.2615,22.2943],[114.265,22.2944],[114.2682,22.2919],[114.2707,22.2864],[114.2669,22.278],[114.2679,22.2708],[114.2718,22.2685],[114.2723,22.2665],[114.2768,22.2593],[114.2802,22.2587],[114.2826,22.2595],[114.2854,22.2645],[114.2872,22.2652],[114.2879,22.2676],[114.2927,22.267],[114.2953,22.2633],[114.3039,22.2568],[114.3058,22.2578],[114.3072,22.261],[114.3112,22.2615],[114.313,22.2642],[114.312,22.268],[114.3089,22.2709],[114.3088,22.278],[114.3074,22.2789],[114.304,22.2792],[114.3034,22.2806],[114.3046,22.2823],[114.3082,22.2839],[114.3108,22.2871],[114.3164,22.2897],[114.3174,22.2915],[114.3176,22.2959],[114.3155,22.3],[114.3113,22.3037],[114.3105,22.307],[114.3086,22.3089],[114.2998,22.309],[114.2971,22.3125],[114.2954,22.316],[114.295,22.319],[114.2937,22.3204],[114.2909,22.3217],[114.2846,22.3226],[114.2815,22.3242],[114.2784,22.3287],[114.2763,22.3364],[114.2745,22.3459],[114.2752,22.3467],[114.2811,22.3465],[114.2844,22.3524],[114.2842,22.3579],[114.2815,22.3599],[114.2802,22.3621],[114.2795,22.3676],[114.282,22.3781],[114.2839,22.3804],[114.2832,22.3867],[114.2851,22.3889],[114.2887,22.39],[114.2911,22.3894],[114.296,22.3846],[114.3012,22.3842],[114.3023,22.3813],[114.3034,22.381],[114.3058,22.3819],[114.3086,22.3811],[114.3154,22.3817],[114.3154,22.3834],[114.3142,22.3849],[114.3149,22.388],[114.3186,22.3892],[114.3215,22.3886],[114.3224,22.3858],[114.3238,22.3853],[114.3224,22.3809],[114.323,22.3788],[114.3268,22.3786],[114.3303,22.3761],[114.3376,22.3736],[114.3383,22.3726],[114.3383,22.3691],[114.3348,22.3614],[114.3369,22.3572],[114.3413,22.3538],[114.3405,22.3508],[114.3414,22.3486],[114.3455,22.3435],[114.3477,22.3432],[114.3501,22.3436],[114.3546,22.3479],[114.3559,22.3478],[114.3554,22.3452],[114.3583,22.3393],[114.3594,22.3337],[114.3613,22.3323],[114.3638,22.333],[114.3672,22.3393],[114.3657,22.342],[114.3655,22.3477],[114.3705,22.3461],[114.3727,22.3476],[114.3724,22.3498],[114.3759,22.3487],[114.3789,22.3501],[114.381,22.3538],[114.3845,22.3549],[114.3837,22.3563],[114.3813,22.3574],[114.3823,22.3594],[114.386,22.3605],[114.3871,22.3656],[114.3887,22.3653],[114.3912,22.3628],[114.3934,22.362],[114.3952,22.3623],[114.3966,22.3638],[114.3966,22.3676],[114.3946,22.3713],[114.3975,22.3753],[114.3964,22.3811],[114.3965,22.3853],[114.3936,22.3884],[114.3917,22.3894],[114.3897,22.3893],[114.386,22.394],[114.3809,22.397],[114.3805,22.3991],[114.3822,22.405],[114.3849,22.4066],[114.3848,22.4098],[114.3856,22.4114],[114.3902,22.4156],[114.3935,22.4162],[114.3959,22.4155],[114.4005,22.4095],[114.403,22.4079],[114.4092,22.4079],[114.4113,22.409],[114.4116,22.412],[114.4084,22.4177],[114.4054,22.4207],[114.4057,22.4236],[114.4042,22.4293],[114.4061,22.4331],[114.4058,22.434],[114.4017,22.4343],[114.4001,22.4366],[114.3979,22.4362],[114.3974,22.4388],[114.387,22.4353],[114.3852,22.4352],[114.3816,22.4366],[114.3764,22.4364],[114.3753,22.4374],[114.3739,22.4411]]],[[[114.3276,22.3393],[114.3297,22.3408],[114.33,22.3422],[114.3291,22.344],[114.3312,22.345],[114.3311,22.3468],[114.3327,22.3488],[114.3319,22.3515],[114.3331,22.3533],[114.3291,22.3569],[114.3248,22.3583],[114.3243,22.3614],[114.3261,22.3623],[114.3247,22.3669],[114.3225,22.3694],[114.3224,22.3762],[114.317,22.3782],[114.3149,22.3778],[114.3122,22.3786],[114.3104,22.3777],[114.3053,22.3779],[114.3051,22.3736],[114.3092,22.3699],[114.3088,22.368],[114.3069,22.3675],[114.3075,22.3662],[114.3066,22.3651],[114.3082,22.3638],[114.31,22.365],[114.3102,22.3638],[114.3088,22.3625],[114.3102,22.3601],[114.3097,22.3564],[114.3107,22.3546],[114.3075,22.3511],[114.3079,22.3479],[114.3113,22.343],[114.3139,22.3409],[114.3162,22.34],[114.3195,22.3416],[114.3223,22.3402],[114.3276,22.3393]]],[[[114.2957,22.2547],[114.2923,22.2516],[114.2906,22.2526],[114.2871,22.2507],[114.2846,22.2467],[114.2848,22.2417],[114.2878,22.2397],[114.2921,22.2387],[114.2912,22.2367],[114.2923,22.2347],[114.2943,22.235],[114.2953,22.2384],[114.2973,22.239],[114.3006,22.2384],[114.3016,22.2416],[114.301,22.2439],[114.3016,22.2447],[114.3034,22.2449],[114.3034,22.2475],[114.3016,22.248],[114.3007,22.25],[114.3027,22.2522],[114.3007,22.2543],[114.3013,22.256],[114.2999,22.2563],[114.2957,22.2547]]],[[[114.3319,22.3226],[114.3359,22.3256],[114.3365,22.3303],[114.333,22.3331],[114.3316,22.3371],[114.3303,22.3384],[114.327,22.3391],[114.3216,22.3377],[114.3202,22.3355],[114.3222,22.332],[114.3222,22.3299],[114.3236,22.3288],[114.3231,22.3271],[114.3249,22.3238],[114.3297,22.3239],[114.3319,22.3226]]],[[[114.3011,22.3502],[114.3031,22.3514],[114.3014,22.3596],[114.3029,22.3616],[114.3029,22.3632],[114.3,22.3658],[114.2985,22.3693],[114.2986,22.3703],[114.3015,22.37],[114.3013,22.3717],[114.2994,22.3732],[114.2983,22.3731],[114.2956,22.3715],[114.2947,22.3676],[114.2915,22.3645],[114.2958,22.3606],[114.297,22.3548],[114.2998,22.354],[114.2994,22.3508],[114.3011,22.3502]]],[[[114.3536,22.3096],[114.3544,22.3103],[114.3549,22.3134],[114.3572,22.3134],[114.3592,22.3152],[114.3593,22.3196],[114.3624,22.3216],[114.3625,22.3242],[114.3597,22.3245],[114.3583,22.3223],[114.3546,22.3228],[114.353,22.3211],[114.3503,22.3135],[114.3514,22.3105],[114.3536,22.3096]]],[[[114.3655,22.3144],[114.3666,22.311],[114.3696,22.3081],[114.3696,22.3052],[114.3706,22.3043],[114.3728,22.3041],[114.3731,22.3075],[114.3758,22.3078],[114.3759,22.3085],[114.3735,22.3109],[114.3746,22.313],[114.3729,22.3163],[114.3708,22.3176],[114.3715,22.3183],[114.3657,22.3178],[114.3655,22.3144]]],[[[114.3712,22.3254],[114.372,22.3269],[114.3736,22.3276],[114.3718,22.3297],[114.3717,22.3311],[114.3734,22.3343],[114.373,22.3363],[114.3709,22.3376],[114.3698,22.3373],[114.3692,22.3361],[114.367,22.3367],[114.3653,22.3356],[114.3646,22.3284],[114.3656,22.3268],[114.3672,22.3271],[114.3712,22.3254]]],[[[114.2975,22.3265],[114.2972,22.3245],[114.3004,22.32],[114.307,22.3192],[114.3063,22.321],[114.3072,22.322],[114.307,22.323],[114.3035,22.327],[114.3021,22.3273],[114.2992,22.3301],[114.2984,22.3296],[114.2975,22.3265]]],[[[114.3329,22.3625],[114.334,22.3633],[114.3349,22.3683],[114.3345,22.3709],[114.331,22.3733],[114.3276,22.3747],[114.326,22.3745],[114.3252,22.3737],[114.3255,22.3694],[114.327,22.368],[114.3286,22.368],[114.3298,22.371],[114.3302,22.3667],[114.3318,22.363],[114.3329,22.3625]]],[[[114.354,22.2504],[114.3547,22.2516],[114.3575,22.2511],[114.3572,22.2527],[114.3583,22.2539],[114.3573,22.2586],[114.3559,22.2585],[114.3552,22.2553],[114.3529,22.2556],[114.353,22.2515],[114.354,22.2504]]],[[[114.3519,22.2601],[114.3538,22.2611],[114.3563,22.2671],[114.3546,22.2686],[114.3534,22.2681],[114.3532,22.2665],[114.3508,22.2647],[114.3506,22.2608],[114.3519,22.2601]]],[[[114.3829,22.325],[114.383,22.3261],[114.3801,22.3281],[114.3785,22.3281],[114.3773,22.3296],[114.3761,22.3288],[114.3758,22.3274],[114.3773,22.3255],[114.3829,22.325]]],[[[114.3193,22.2711],[114.3209,22.2719],[114.3209,22.2734],[114.3203,22.2749],[114.3191,22.2752],[114.3168,22.2731],[114.3193,22.2711]]],[[[114.3204,22.3811],[114.3229,22.3831],[114.3232,22.3853],[114.321,22.3854],[114.3201,22.3845],[114.3197,22.3825],[114.3204,22.3811]]],[[[114.2869,22.3756],[114.2878,22.3774],[114.2859,22.3791],[114.2842,22.3793],[114.2844,22.3771],[114.2853,22.3773],[114.2857,22.3761],[114.2869,22.3756]]],[[[114.3389,22.3314],[114.3403,22.3315],[114.3396,22.3346],[114.3381,22.3342],[114.3376,22.3325],[114.3389,22.3314]]],[[[114.3754,22.3288],[114.3769,22.3296],[114.3769,22.3308],[114.3745,22.3322],[114.3741,22.3314],[114.3754,22.3288]]],[[[114.306,22.3697],[114.3073,22.3703],[114.3069,22.372],[114.3043,22.3728],[114.3048,22.3705],[114.306,22.3697]]],[[[114.2904,22.3706],[114.2913,22.3709],[114.2915,22.3724],[114.2932,22.374],[114.2893,22.3723],[114.2892,22.3711],[114.2904,22.3706]]]]}},{"type":"Feature","id":"Sha Tin","properties":{"id":"Sha Tin","name":"Sha Tin","name_full":"沙田区","name_ja":"沙田区","center_lonlat":[114.207,22.386]},"geometry":{"type":"Polygon","coordinates":[[[114.2144,22.4316],[114.2071,22.4264],[114.2032,22.4189],[114.1916,22.4179],[114.1905,22.4164],[114.1804,22.4157],[114.1799,22.4142],[114.1781,22.4139],[114.177,22.4124],[114.1729,22.412],[114.172,22.4083],[114.174,22.3996],[114.1742,22.3889],[114.1734,22.3881],[114.166,22.3872],[114.1632,22.3811],[114.1582,22.3771],[114.154,22.3753],[114.1493,22.3745],[114.1498,22.3723],[114.1478,22.3689],[114.1477,22.3652],[114.1496,22.3583],[114.1493,22.3567],[114.1467,22.353],[114.1466,22.3505],[114.1475,22.3449],[114.1517,22.3406],[114.1524,22.3417],[114.1575,22.3434],[114.1778,22.3444],[114.1801,22.3459],[114.1843,22.346],[114.1908,22.3484],[114.2008,22.3502],[114.2018,22.3515],[114.2011,22.3534],[114.2061,22.3522],[114.2091,22.3543],[114.2125,22.3531],[114.2283,22.3546],[114.2294,22.355],[114.2286,22.3564],[114.2293,22.3596],[114.2386,22.3618],[114.2495,22.3701],[114.2517,22.3768],[114.2606,22.3786],[114.2596,22.3832],[114.26,22.3888],[114.258,22.3923],[114.258,22.3974],[114.2548,22.4029],[114.2542,22.4059],[114.2554,22.4179],[114.2536,22.4221],[114.2558,22.427],[114.2557,22.4347],[114.2476,22.4358],[114.2429,22.4354],[114.2407,22.4338],[114.2407,22.4305],[114.2382,22.4282],[114.2273,22.4267],[114.22,22.4276],[114.2144,22.4316]]]}},{"type":"Feature","id":"Kwai Tsing","properties":{"id":"Kwai Tsing","name":"Kwai Tsing","name_full":"葵青区","name_ja":"葵青区","center_lonlat":[114.1187,22.3417]},"geometry":{"type":"Polygon","coordinates":[[[114.0826,22.3294],[114.0851,22.3289],[114.0942,22.3213],[114.0955,22.321],[114.1121,22.3217],[114.121,22.3209],[114.1292,22.3106],[114.1393,22.3063],[114.1439,22.3033],[114.146,22.3007],[114.1463,22.298],[114.1456,22.2953],[114.1438,22.2929],[114.1544,22.2931],[114.1544,22.3115],[114.1354,22.3109],[114.134,22.3114],[114.1335,22.3151],[114.1316,22.3176],[114.1325,22.3195],[114.1457,22.3268],[114.1464,22.3279],[114.1454,22.329],[114.1368,22.3315],[114.135,22.3353],[114.1354,22.3369],[114.1384,22.3371],[114.1429,22.339],[114.1484,22.3386],[114.1508,22.3375],[114.1517,22.3406],[114.1475,22.3449],[114.1466,22.3505],[114.1467,22.353],[114.1493,22.3567],[114.1496,22.3583],[114.1477,22.3652],[114.1478,22.3689],[114.1498,22.3723],[114.1493,22.3745],[114.1448,22.3737],[114.1439,22.3749],[114.1436,22.3779],[114.1412,22.3785],[114.1268,22.3731],[114.1266,22.372],[114.1283,22.3699],[114.1286,22.3681],[114.1262,22.3626],[114.1247,22.361],[114.1181,22.3578],[114.1151,22.3572],[114.115,22.3641],[114.0883,22.3625],[114.0785,22.3581],[114.0826,22.3294]]]}},{"type":"Feature","id":"Islands","properties":{"id":"Islands","name":"Islands","name_full":"离岛区","name_ja":"离岛区","center_lonlat":[113.9448,22.2602]},"geometry":{"type":"MultiPolygon","coordinates":[[[[114.0607,22.3125],[113.986,22.3155],[113.9553,22.2984],[113.9523,22.2988],[113.9498,22.3022],[113.9499,22.3045],[113.9525,22.3059],[113.9633,22.3058],[113.9685,22.3107],[113.9702,22.318],[113.9695,22.3212],[113.9654,22.3229],[113.9498,22.3213],[113.9416,22.3189],[113.9399,22.3214],[113.9383,22.3219],[113.8981,22.3088],[113.8969,22.3054],[113.8997,22.3031],[113.8954,22.2942],[113.8951,22.2922],[113.8977,22.2873],[113.8978,22.2836],[113.8971,22.282],[113.8905,22.2751],[113.8889,22.2708],[113.8803,22.2677],[113.8761,22.2675],[113.8742,22.2666],[113.8688,22.257],[113.8671,22.2586],[113.8637,22.2587],[113.8559,22.2544],[113.8556,22.2527],[113.8571,22.249],[113.864,22.2502],[113.8635,22.2452],[113.8627,22.2441],[113.8531,22.2409],[113.8525,22.2347],[113.8478,22.2337],[113.8435,22.2292],[113.843,22.2243],[113.8442,22.2165],[113.8472,22.2124],[113.8461,22.2093],[113.846,22.2059],[113.8476,22.2028],[113.8508,22.2003],[113.8488,22.1928],[113.8494,22.1912],[113.8574,22.1928],[113.861,22.1968],[113.8645,22.1987],[113.8667,22.1992],[113.8724,22.1982],[113.8767,22.1999],[113.8874,22.2069],[113.8903,22.2141],[113.895,22.2162],[113.8992,22.2158],[113.9,22.2117],[113.9102,22.2032],[113.9175,22.2028],[113.9356,22.205],[113.9378,22.208],[113.9382,22.2115],[113.9371,22.2146],[113.9376,22.2154],[113.9452,22.2171],[113.9478,22.2184],[113.9556,22.226],[113.9662,22.2268],[113.9757,22.2308],[113.9811,22.2302],[113.9789,22.2246],[113.979,22.2208],[113.9858,22.2112],[113.9917,22.2066],[113.9965,22.2063],[114.0033,22.2108],[114.0093,22.2119],[114.0111,22.2145],[114.0163,22.2171],[114.0176,22.2204],[114.0192,22.2212],[114.0216,22.2207],[114.0237,22.2227],[114.0265,22.2287],[114.0257,22.2299],[114.0181,22.2322],[114.0161,22.2352],[114.0105,22.2349],[114.0047,22.2394],[114.0049,22.2421],[114.007,22.2444],[114.0174,22.2488],[114.0179,22.2501],[114.0165,22.2534],[114.0088,22.2606],[114.0072,22.263],[114.0048,22.2643],[114.0046,22.2665],[114.0056,22.2682],[114.0082,22.2689],[114.0163,22.2632],[114.0206,22.262],[114.0292,22.2626],[114.0296,22.2669],[114.0276,22.2745],[114.0294,22.2761],[114.0287,22.2799],[114.0293,22.2827],[114.0289,22.2841],[114.027,22.2849],[114.027,22.2863],[114.0276,22.2873],[114.0311,22.2881],[114.0333,22.2895],[114.0342,22.2914],[114.0333,22.2957],[114.0341,22.2996],[114.0376,22.3025],[114.0459,22.3024],[114.055,22.3043],[114.0605,22.308],[114.0607,22.3125]]],[[[114.1425,22.2138],[114.1424,22.2161],[114.1403,22.2192],[114.1377,22.219],[114.1357,22.2162],[114.1333,22.2173],[114.1313,22.2198],[114.1321,22.2213],[114.131,22.224],[114.1259,22.2276],[114.1263,22.2304],[114.1279,22.232],[114.1285,22.234],[114.1274,22.2367],[114.1247,22.2371],[114.1232,22.2388],[114.1214,22.2365],[114.1181,22.2357],[114.1109,22.2322],[114.1105,22.2303],[114.1148,22.2282],[114.1129,22.225],[114.1155,22.2237],[114.1155,22.223],[114.112,22.2216],[114.1057,22.2169],[114.1054,22.215],[114.1073,22.2085],[114.1132,22.2082],[114.1192,22.2115],[114.1198,22.2161],[114.121,22.2163],[114.1231,22.2149],[114.1247,22.2116],[114.1238,22.2046],[114.1255,22.2016],[114.1245,22.19],[114.1184,22.1839],[114.1184,22.1802],[114.1204,22.1778],[114.1278,22.1767],[114.1312,22.1749],[114.1331,22.1752],[114.1364,22.1791],[114.1401,22.1753],[114.1416,22.1745],[114.1434,22.1748],[114.1438,22.1787],[114.1406,22.1849],[114.1406,22.1864],[114.1524,22.1779],[114.1547,22.1778],[114.1558,22.1791],[114.1553,22.1812],[114.1509,22.1884],[114.1489,22.1941],[114.1563,22.2008],[114.163,22.2004],[114.1664,22.2051],[114.1661,22.2067],[114.1641,22.2082],[114.1588,22.2077],[114.1573,22.2098],[114.1549,22.2097],[114.1518,22.2087],[114.1493,22.2068],[114.1447,22.2073],[114.1409,22.2066],[114.1379,22.2052],[114.134,22.2019],[114.1328,22.2051],[114.1402,22.2103],[114.1425,22.2138]]],[[[114.2581,22.1695],[114.2559,22.1665],[114.255,22.1621],[114.2559,22.1607],[114.2586,22.1616],[114.2579,22.16],[114.2571,22.1602],[114.2566,22.1593],[114.257,22.1586],[114.2619,22.1577],[114.2623,22.1569],[114.2596,22.1529],[114.26,22.1523],[114.2621,22.1524],[114.2653,22.1539],[114.2671,22.1565],[114.2668,22.1583],[114.2697,22.1611],[114.2708,22.161],[114.2705,22.1599],[114.2717,22.1589],[114.2793,22.1596],[114.2797,22.1603],[114.277,22.1671],[114.2788,22.1699],[114.2763,22.1744],[114.2728,22.1764],[114.2718,22.178],[114.2693,22.178],[114.2676,22.1752],[114.2637,22.1743],[114.2604,22.1725],[114.2581,22.1695]]],[[[114.0361,22.2071],[114.0348,22.2088],[114.0349,22.2113],[114.036,22.2125],[114.0412,22.2142],[114.0408,22.2153],[114.0376,22.2156],[114.041,22.2186],[114.0409,22.2199],[114.0393,22.2211],[114.0373,22.2197],[114.0331,22.2195],[114.0307,22.2181],[114.0302,22.2163],[114.0312,22.2152],[114.0311,22.2141],[114.029,22.2113],[114.0277,22.2116],[114.0268,22.2108],[114.0287,22.2084],[114.0318,22.2086],[114.033,22.2075],[114.0333,22.2051],[114.0318,22.2031],[114.0279,22.2025],[114.0261,22.1991],[114.0221,22.1983],[114.0232,22.195],[114.0263,22.1949],[114.0263,22.1932],[114.0274,22.1933],[114.0306,22.195],[114.0316,22.1966],[114.0333,22.1968],[114.0333,22.198],[114.0348,22.1996],[114.0373,22.1994],[114.0378,22.2004],[114.0412,22.1976],[114.0423,22.2],[114.044,22.2004],[114.0448,22.2024],[114.0461,22.2027],[114.0446,22.2056],[114.0417,22.2058],[114.0397,22.2048],[114.0361,22.2071]]],[[[114.042,22.256],[114.0331,22.2564],[114.0326,22.2545],[114.0316,22.2544],[114.0313,22.2533],[114.0328,22.251],[114.0366,22.2511],[114.0378,22.2503],[114.0399,22.2468],[114.0413,22.2475],[114.043,22.247],[114.0431,22.2449],[114.0455,22.2402],[114.0483,22.2384],[114.0502,22.2385],[114.0526,22.2436],[114.0494,22.2476],[114.0507,22.2533],[114.05,22.2546],[114.0478,22.2559],[114.042,22.256]]],[[[114.047,22.2769],[114.0498,22.2772],[114.0546,22.28],[114.0548,22.2812],[114.0521,22.2825],[114.0508,22.2845],[114.0481,22.2845],[114.0462,22.2829],[114.0455,22.284],[114.0503,22.2869],[114.0513,22.2885],[114.0496,22.2901],[114.038,22.2878],[114.0369,22.287],[114.0368,22.286],[114.0377,22.2855],[114.0399,22.2854],[114.0414,22.2819],[114.0429,22.2812],[114.0424,22.2784],[114.047,22.2769]]],[[[114.2495,22.1754],[114.2508,22.1764],[114.2508,22.1782],[114.2516,22.1785],[114.255,22.1773],[114.2557,22.1763],[114.2605,22.1785],[114.2621,22.1813],[114.2622,22.1832],[114.2608,22.1871],[114.2581,22.1876],[114.2483,22.1856],[114.2482,22.1787],[114.2491,22.1778],[114.2488,22.176],[114.2495,22.1754]]],[[[113.9079,22.1535],[113.9094,22.1537],[113.9112,22.1562],[113.9161,22.1557],[113.918,22.1572],[113.9201,22.1568],[113.9197,22.1599],[113.918,22.1603],[113.9182,22.1631],[113.921,22.1636],[113.9222,22.1647],[113.9218,22.1654],[113.9196,22.1666],[113.9186,22.1662],[113.9154,22.1671],[113.9141,22.1663],[113.9137,22.1643],[113.9152,22.1626],[113.9138,22.161],[113.9121,22.161],[113.9116,22.1598],[113.9105,22.1595],[113.9093,22.1607],[113.9054,22.1595],[113.9039,22.1577],[113.904,22.1567],[113.9079,22.1535]]],[[[113.995,22.1857],[113.9993,22.1882],[113.9998,22.1913],[113.9991,22.1923],[113.998,22.1925],[113.9972,22.1916],[113.9962,22.1923],[113.9965,22.1939],[113.9973,22.1943],[113.997,22.1963],[113.9958,22.197],[113.9957,22.1984],[113.9923,22.1993],[113.988,22.1948],[113.9873,22.1911],[113.9901,22.1889],[113.9922,22.1885],[113.995,22.1857]]],[[[113.9214,22.1745],[113.9221,22.1773],[113.9238,22.1765],[113.9238,22.1757],[113.9258,22.1765],[113.9245,22.1772],[113.9249,22.1783],[113.9223,22.1792],[113.9205,22.1809],[113.9189,22.1811],[113.9176,22.1802],[113.9132,22.1845],[113.9111,22.1848],[113.9103,22.1765],[113.9123,22.1762],[113.914,22.1781],[113.9163,22.1789],[113.9177,22.1785],[113.9182,22.1751],[113.9197,22.1764],[113.9214,22.1745]]],[[[114.0549,22.2542],[114.0598,22.2568],[114.0616,22.26],[114.0606,22.2624],[114.0547,22.2616],[114.052,22.2591],[114.0516,22.2568],[114.0522,22.2554],[114.0549,22.2542]]],[[[114.2921,22.1777],[114.294,22.1784],[114.2947,22.1842],[114.2921,22.1877],[114.2908,22.1865],[114.2906,22.1846],[114.2889,22.1848],[114.2872,22.1827],[114.2889,22.1785],[114.2921,22.1777]]],[[[114.081,22.2792],[114.085,22.2797],[114.0844,22.2822],[114.085,22.2824],[114.085,22.2845],[114.081,22.2836],[114.0792,22.2822],[114.0791,22.2801],[114.081,22.2792]]],[[[113.8418,22.2119],[113.8431,22.2123],[113.8436,22.2146],[113.8402,22.215],[113.8401,22.2133],[113.8418,22.2119]]],[[[114.1388,22.2202],[114.1407,22.2211],[114.1414,22.2224],[114.141,22.2235],[114.1398,22.2237],[114.1381,22.2226],[114.1382,22.2204],[114.1388,22.2202]]],[[[114.3095,22.1808],[114.3114,22.184],[114.3114,22.186],[114.31,22.1853],[114.3088,22.1814],[114.3095,22.1808]]],[[[114.0635,22.2848],[114.0658,22.2862],[114.0648,22.287],[114.0622,22.2869],[114.0618,22.2863],[114.0626,22.285],[114.0635,22.2848]]]]}}]}
