{"type":"FeatureCollection","features":[{"type":"Feature","id":"Huangpu","properties":{"id":"Huangpu","name":"Huangpu","name_full":"黄浦区","name_ja":"黄浦区","center_lonlat":[121.4835,31.2159]},"geometry":{"type":"Polygon","coordinates":[[[121.4577,31.2202],[121.4616,31.2102],[121.4623,31.2032],[121.4664,31.2044],[121.4696,31.1964],[121.4704,31.1913],[121.4749,31.1899],[121.476,31.1879],[121.4908,31.1915],[121.4946,31.1929],[121.4981,31.1956],[121.5084,31.2102],[121.5099,31.2145],[121.5094,31.2185],[121.5067,31.2231],[121.4957,31.233],[121.4935,31.2361],[121.4935,31.2402],[121.4948,31.2422],[121.4878,31.2442],[121.486,31.2441],[121.483,31.2419],[121.4789,31.2403],[121.4748,31.2414],[121.4696,31.2392],[121.463,31.2414],[121.4661,31.2349],[121.4675,31.2239],[121.4568,31.2239],[121.4577,31.2202]]]}},{"type":"Feature","id":"Xuhui","properties":{"id":"Xuhui","name":"Xuhui","name_full":"徐汇区","name_ja":"徐汇区","center_lonlat":[121.4394,31.1629]},"geometry":{"type":"Polygon","coordinates":[[[121.4577,31.2202],[121.4522,31.2174],[121.4395,31.2145],[121.4375,31.2115],[121.4352,31.2111],[121.4379,31.204],[121.4238,31.1973],[121.4216,31.1954],[121.422,31.1923],[121.4197,31.1908],[121.4126,31.1911],[121.4136,31.1868],[121.4153,31.1874],[121.4152,31.1834],[121.4001,31.1788],[121.3983,31.1799],[121.3981,31.1782],[121.3944,31.1779],[121.3954,31.1746],[121.3927,31.1731],[121.3941,31.1695],[121.3915,31.1687],[121.3946,31.1596],[121.4026,31.1622],[121.4046,31.1576],[121.3959,31.1559],[121.3969,31.1527],[121.4014,31.1538],[121.401,31.1552],[121.405,31.1567],[121.4113,31.1417],[121.4215,31.1271],[121.4364,31.129],[121.4388,31.1191],[121.4357,31.1135],[121.438,31.1121],[121.4415,31.1126],[121.4458,31.115],[121.4467,31.1143],[121.4508,31.1154],[121.4502,31.1128],[121.4524,31.1086],[121.4476,31.1074],[121.4463,31.1057],[121.4519,31.1038],[121.4526,31.1012],[121.4554,31.1008],[121.4629,31.102],[121.4632,31.1086],[121.4652,31.1121],[121.4693,31.1187],[121.4697,31.1249],[121.4687,31.1279],[121.4624,31.1345],[121.4575,31.1422],[121.4575,31.1465],[121.4684,31.1581],[121.4694,31.1623],[121.4649,31.1754],[121.4649,31.178],[121.4687,31.1841],[121.476,31.1879],[121.4749,31.1899],[121.4704,31.1913],[121.4696,31.1964],[121.4664,31.2044],[121.4623,31.2032],[121.4616,31.2102],[121.4577,31.2202]]]}},{"type":"Feature","id":"Changning","properties":{"id":"Changning","name":"Changning","name_full":"长宁区","name_ja":"长宁区","center_lonlat":[121.381,31.2074]},"geometry":{"type":"Polygon","coordinates":[[[121.4395,31.2145],[121.4362,31.2207],[121.4354,31.2251],[121.4343,31.2259],[121.429,31.2231],[121.4277,31.2242],[121.4275,31.2293],[121.4233,31.2281],[121.4199,31.2252],[121.4156,31.2286],[121.4149,31.2281],[121.416,31.2245],[121.4038,31.2206],[121.4005,31.2208],[121.3997,31.2187],[121.3887,31.2186],[121.3769,31.2207],[121.3732,31.2201],[121.3714,31.2225],[121.3667,31.2241],[121.3661,31.226],[121.3621,31.226],[121.3542,31.2371],[121.3529,31.2383],[121.3487,31.2394],[121.3501,31.2418],[121.3489,31.2439],[121.3473,31.2432],[121.3468,31.241],[121.3446,31.2436],[121.3456,31.2399],[121.3409,31.2399],[121.3384,31.2375],[121.3435,31.2343],[121.3454,31.2304],[121.3454,31.2279],[121.3416,31.2263],[121.341,31.2243],[121.3456,31.2235],[121.3431,31.2231],[121.3425,31.2178],[121.3394,31.2166],[121.34,31.2123],[121.3385,31.2122],[121.3389,31.1966],[121.3373,31.1958],[121.338,31.1926],[121.3318,31.1896],[121.3383,31.1801],[121.3414,31.1794],[121.3514,31.1835],[121.3533,31.1816],[121.357,31.1828],[121.3583,31.186],[121.3603,31.1853],[121.366,31.1856],[121.38,31.1901],[121.3914,31.1919],[121.4126,31.1911],[121.4197,31.1908],[121.422,31.1923],[121.4216,31.1954],[121.4238,31.1973],[121.4379,31.204],[121.4352,31.2111],[121.4375,31.2115],[121.4395,31.2145]]]}},{"type":"Feature","id":"Jing'an","properties":{"id":"Jing'an","name":"Jing'an","name_full":"静安区","name_ja":"静安区","center_lonlat":[121.4506,31.2709]},"geometry":{"type":"Polygon","coordinates":[[[121.4577,31.2202],[121.4568,31.2239],[121.4675,31.2239],[121.4661,31.2349],[121.463,31.2414],[121.4696,31.2392],[121.4748,31.2414],[121.4789,31.2403],[121.483,31.2419],[121.4812,31.248],[121.4796,31.2498],[121.4817,31.2507],[121.4796,31.2534],[121.4806,31.2552],[121.4805,31.2586],[121.4696,31.2678],[121.4646,31.2744],[121.4628,31.2754],[121.4615,31.2789],[121.4618,31.2847],[121.4601,31.2898],[121.4624,31.2927],[121.4645,31.298],[121.4635,31.306],[121.4677,31.3063],[121.4683,31.316],[121.4681,31.3203],[121.4654,31.3214],[121.4571,31.321],[121.4547,31.3192],[121.4479,31.3171],[121.4467,31.3198],[121.4368,31.3197],[121.4365,31.3209],[121.4336,31.3209],[121.4325,31.3187],[121.4346,31.3123],[121.4322,31.3117],[121.4317,31.3095],[121.4324,31.3059],[121.4313,31.3036],[121.4264,31.3032],[121.4269,31.2985],[121.42,31.2969],[121.4186,31.2923],[121.4197,31.2911],[121.4238,31.291],[121.4228,31.2843],[121.4244,31.2802],[121.4246,31.2719],[121.4253,31.2707],[121.4298,31.2749],[121.4324,31.2719],[121.443,31.2671],[121.451,31.2563],[121.4493,31.2529],[121.4515,31.252],[121.4504,31.2477],[121.4483,31.2452],[121.45,31.2433],[121.4352,31.2353],[121.431,31.2351],[121.4279,31.2311],[121.4275,31.2293],[121.4277,31.2242],[121.429,31.2231],[121.4343,31.2259],[121.4354,31.2251],[121.4362,31.2207],[121.4395,31.2145],[121.4522,31.2174],[121.4577,31.2202]]]}},{"type":"Feature","id":"Putuo","properties":{"id":"Putuo","name":"Putuo","name_full":"普陀区","name_ja":"普陀区","center_lonlat":[121.3921,31.2579]},"geometry":{"type":"Polygon","coordinates":[[[121.3542,31.2371],[121.3621,31.226],[121.3661,31.226],[121.3667,31.2241],[121.3714,31.2225],[121.3732,31.2201],[121.3769,31.2207],[121.3887,31.2186],[121.3997,31.2187],[121.4005,31.2208],[121.4038,31.2206],[121.416,31.2245],[121.4149,31.2281],[121.4156,31.2286],[121.4199,31.2252],[121.4233,31.2281],[121.4275,31.2293],[121.4279,31.2311],[121.431,31.2351],[121.4352,31.2353],[121.45,31.2433],[121.4483,31.2452],[121.4504,31.2477],[121.4515,31.252],[121.4493,31.2529],[121.451,31.2563],[121.443,31.2671],[121.4324,31.2719],[121.4298,31.2749],[121.4253,31.2707],[121.4195,31.2652],[121.4158,31.2659],[121.4153,31.2691],[121.4106,31.2704],[121.411,31.2732],[121.4054,31.2731],[121.4065,31.2769],[121.4046,31.2762],[121.4001,31.2781],[121.4045,31.2862],[121.4004,31.2861],[121.3984,31.2871],[121.3996,31.2889],[121.3979,31.2905],[121.3935,31.2913],[121.3948,31.2947],[121.3884,31.2953],[121.3848,31.2944],[121.3816,31.2927],[121.3815,31.2894],[121.3762,31.2906],[121.3748,31.2891],[121.3702,31.2903],[121.3697,31.2891],[121.3638,31.2913],[121.3638,31.292],[121.3586,31.2935],[121.3603,31.2947],[121.3635,31.3027],[121.3603,31.3027],[121.3548,31.2998],[121.353,31.3017],[121.3489,31.2992],[121.3497,31.2976],[121.3469,31.2963],[121.3469,31.2977],[121.3409,31.2974],[121.341,31.2937],[121.3387,31.2932],[121.3365,31.2949],[121.3322,31.293],[121.3328,31.2909],[121.3264,31.2889],[121.3273,31.2852],[121.329,31.2846],[121.3327,31.2861],[121.335,31.2797],[121.3361,31.28],[121.3362,31.2755],[121.3389,31.275],[121.3383,31.2728],[121.3435,31.2714],[121.3447,31.2739],[121.3573,31.2714],[121.3589,31.2688],[121.3613,31.2708],[121.3674,31.2696],[121.367,31.2667],[121.3622,31.2676],[121.3598,31.267],[121.3589,31.2636],[121.3618,31.2599],[121.366,31.2594],[121.3659,31.2577],[121.3746,31.2571],[121.3752,31.2595],[121.3775,31.2595],[121.3809,31.2578],[121.3757,31.2445],[121.3731,31.2457],[121.3723,31.2438],[121.3684,31.2474],[121.3667,31.2463],[121.3631,31.2401],[121.3607,31.2386],[121.3601,31.2405],[121.3561,31.2402],[121.3561,31.2378],[121.3542,31.2371]]]}},{"type":"Feature","id":"Hongkou","properties":{"id":"Hongkou","name":"Hongkou","name_full":"虹口区","name_ja":"虹口区","center_lonlat":[121.4854,31.2767]},"geometry":{"type":"Polygon","coordinates":[[[121.4854,31.3116],[121.4854,31.3146],[121.4683,31.316],[121.4677,31.3063],[121.4635,31.306],[121.4645,31.298],[121.4624,31.2927],[121.4601,31.2898],[121.4618,31.2847],[121.4615,31.2789],[121.4628,31.2754],[121.4646,31.2744],[121.4696,31.2678],[121.4805,31.2586],[121.4806,31.2552],[121.4796,31.2534],[121.4817,31.2507],[121.4796,31.2498],[121.4812,31.248],[121.483,31.2419],[121.486,31.2441],[121.4878,31.2442],[121.4948,31.2422],[121.5,31.245],[121.5069,31.2465],[121.5165,31.247],[121.516,31.2516],[121.5176,31.2519],[121.5146,31.2563],[121.5085,31.2626],[121.5063,31.2667],[121.5065,31.2706],[121.4999,31.2759],[121.4966,31.2764],[121.496,31.283],[121.4981,31.2863],[121.5027,31.2897],[121.5007,31.2955],[121.4902,31.2926],[121.4857,31.3035],[121.4854,31.3116]]]}},{"type":"Feature","id":"Yangpu","properties":{"id":"Yangpu","name":"Yangpu","name_full":"杨浦区","name_ja":"杨浦区","center_lonlat":[121.5293,31.2983]},"geometry":{"type":"Polygon","coordinates":[[[121.5165,31.247],[121.5276,31.2473],[121.5364,31.2496],[121.5415,31.2518],[121.5591,31.2642],[121.5685,31.2757],[121.5695,31.2796],[121.5691,31.2853],[121.5625,31.2998],[121.5618,31.3033],[121.5619,31.3212],[121.5605,31.3278],[121.5586,31.3313],[121.5558,31.3339],[121.5494,31.3378],[121.5255,31.3468],[121.5229,31.3429],[121.5203,31.344],[121.5176,31.3408],[121.5056,31.3457],[121.4936,31.3303],[121.4976,31.3281],[121.4989,31.3253],[121.4962,31.3233],[121.4967,31.3115],[121.4854,31.3116],[121.4857,31.3035],[121.4902,31.2926],[121.5007,31.2955],[121.5027,31.2897],[121.4981,31.2863],[121.496,31.283],[121.4966,31.2764],[121.4999,31.2759],[121.5065,31.2706],[121.5063,31.2667],[121.5085,31.2626],[121.5146,31.2563],[121.5176,31.2519],[121.516,31.2516],[121.5165,31.247]]]}},{"type":"Feature","id":"Minhang","properties":{"id":"Minhang","name":"Minhang","name_full":"闵行区","name_ja":"闵行区","center_lonlat":[121.419,31.0871]},"geometry":{"type":"Polygon","coordinates":[[[121.3587,30.9779],[121.3943,30.9882],[121.4093,30.9902],[121.424,30.9945],[121.4314,30.9992],[121.4368,31.0041],[121.4408,31.0058],[121.4483,31.0075],[121.4599,31.0074],[121.4656,31.0088],[121.4714,31.0119],[121.4764,31.0133],[121.4892,31.0149],[121.4929,31.0128],[121.4919,31.01],[121.4959,30.9983],[121.4989,30.9982],[121.4988,30.9994],[121.5031,31.0027],[121.5079,31.0047],[121.5104,31.0046],[121.517,31.0076],[121.5209,31.0044],[121.5221,31.0022],[121.5201,31.0026],[121.5203,30.9994],[121.5229,30.9998],[121.5286,30.9959],[121.532,30.9948],[121.5345,30.9958],[121.5378,30.9947],[121.5382,30.9931],[121.5433,30.9942],[121.5461,30.9931],[121.5495,30.9883],[121.5528,30.9889],[121.5533,30.993],[121.5562,30.9934],[121.5559,30.9952],[121.5615,30.9956],[121.5705,30.9983],[121.568,31.0009],[121.5707,31.0023],[121.5703,31.0046],[121.5715,31.0056],[121.5697,31.0106],[121.5682,31.0101],[121.5659,31.0119],[121.5698,31.0125],[121.571,31.0164],[121.5747,31.0186],[121.5748,31.021],[121.5723,31.0267],[121.5684,31.0253],[121.5691,31.0244],[121.5643,31.0212],[121.5603,31.0241],[121.5587,31.0203],[121.5565,31.0203],[121.5565,31.0187],[121.5541,31.0186],[121.5523,31.0209],[121.5528,31.0233],[121.5558,31.0229],[121.5584,31.0245],[121.5583,31.0295],[121.5595,31.0303],[121.5595,31.0414],[121.5621,31.0436],[121.5598,31.0448],[121.557,31.048],[121.5561,31.0476],[121.5547,31.0508],[121.5527,31.0493],[121.5505,31.0494],[121.5495,31.0479],[121.5478,31.0485],[121.5459,31.047],[121.5415,31.0464],[121.5423,31.0491],[121.5408,31.0525],[121.5433,31.054],[121.5433,31.0557],[121.5484,31.0569],[121.5472,31.0616],[121.5485,31.0636],[121.5511,31.0638],[121.5518,31.0656],[121.5568,31.0674],[121.5528,31.0695],[121.5556,31.0717],[121.559,31.0722],[121.5575,31.0734],[121.5627,31.0743],[121.5626,31.0751],[121.5676,31.0762],[121.5753,31.0801],[121.5727,31.0813],[121.5716,31.0801],[121.5698,31.0816],[121.5636,31.0825],[121.5616,31.0836],[121.557,31.0827],[121.5564,31.0811],[121.5536,31.0803],[121.5506,31.0828],[121.5485,31.0869],[121.5515,31.0881],[121.5516,31.0901],[121.5591,31.092],[121.5616,31.0936],[121.5619,31.0919],[121.5644,31.0919],[121.5673,31.0936],[121.5668,31.0966],[121.5633,31.099],[121.5621,31.1013],[121.5636,31.1019],[121.5611,31.1053],[121.5614,31.1062],[121.5579,31.1098],[121.5599,31.1119],[121.5567,31.1131],[121.5553,31.1149],[121.5533,31.1127],[121.5523,31.1139],[121.5492,31.1134],[121.5504,31.1116],[121.5477,31.1097],[121.5442,31.1115],[121.5423,31.1162],[121.5395,31.1156],[121.5379,31.114],[121.5353,31.118],[121.5323,31.1172],[121.5314,31.1184],[121.5253,31.1167],[121.5229,31.1152],[121.5214,31.1163],[121.5145,31.1153],[121.5137,31.118],[121.5113,31.1212],[121.5055,31.12],[121.5039,31.1183],[121.5053,31.1155],[121.5016,31.1147],[121.4985,31.1215],[121.4928,31.1187],[121.4903,31.1243],[121.486,31.1245],[121.4857,31.1219],[121.4819,31.1201],[121.4813,31.118],[121.4774,31.1173],[121.4814,31.1107],[121.4773,31.1109],[121.4741,31.1144],[121.474,31.1129],[121.4703,31.1109],[121.4652,31.1121],[121.4632,31.1086],[121.4629,31.102],[121.4554,31.1008],[121.4526,31.1012],[121.4519,31.1038],[121.4463,31.1057],[121.4476,31.1074],[121.4524,31.1086],[121.4502,31.1128],[121.4508,31.1154],[121.4467,31.1143],[121.4458,31.115],[121.4415,31.1126],[121.438,31.1121],[121.4357,31.1135],[121.4388,31.1191],[121.4364,31.129],[121.4215,31.1271],[121.4113,31.1417],[121.405,31.1567],[121.401,31.1552],[121.4014,31.1538],[121.3969,31.1527],[121.3959,31.1559],[121.4046,31.1576],[121.4026,31.1622],[121.3946,31.1596],[121.3915,31.1687],[121.3941,31.1695],[121.3927,31.1731],[121.3954,31.1746],[121.3944,31.1779],[121.3981,31.1782],[121.3983,31.1799],[121.4001,31.1788],[121.4152,31.1834],[121.4153,31.1874],[121.4136,31.1868],[121.4126,31.1911],[121.3914,31.1919],[121.38,31.1901],[121.366,31.1856],[121.3603,31.1853],[121.3583,31.186],[121.357,31.1828],[121.3533,31.1816],[121.3514,31.1835],[121.3414,31.1794],[121.3383,31.1801],[121.3318,31.1896],[121.338,31.1926],[121.3373,31.1958],[121.3389,31.1966],[121.3385,31.2122],[121.34,31.2123],[121.3394,31.2166],[121.3425,31.2178],[121.3431,31.2231],[121.3456,31.2235],[121.341,31.2243],[121.3416,31.2263],[121.3454,31.2279],[121.3454,31.2304],[121.3435,31.2343],[121.3384,31.2375],[121.3349,31.2359],[121.3339,31.232],[121.3154,31.2272],[121.303,31.2306],[121.2969,31.231],[121.2926,31.2328],[121.2885,31.2382],[121.2873,31.2433],[121.2837,31.2452],[121.2814,31.2482],[121.2842,31.2518],[121.2804,31.2519],[121.2753,31.2535],[121.2713,31.2523],[121.2644,31.2565],[121.264,31.2592],[121.2602,31.2583],[121.2544,31.2596],[121.2542,31.2587],[121.2473,31.2533],[121.2459,31.2488],[121.2417,31.2473],[121.2399,31.2411],[121.2414,31.2402],[121.2479,31.2409],[121.2497,31.2365],[121.2511,31.2382],[121.2528,31.237],[121.2542,31.2331],[121.2572,31.2307],[121.258,31.2269],[121.2566,31.2263],[121.2582,31.2228],[121.2575,31.2202],[121.2597,31.2181],[121.2612,31.2151],[121.2594,31.2128],[121.2638,31.2089],[121.2647,31.2067],[121.2631,31.2057],[121.2648,31.2033],[121.2667,31.2033],[121.2774,31.1936],[121.284,31.1944],[121.2873,31.1963],[121.2921,31.2006],[121.2924,31.2025],[121.2948,31.2031],[121.2975,31.2014],[121.3086,31.1884],[121.3163,31.1768],[121.318,31.1736],[121.3186,31.1703],[121.3239,31.1629],[121.3272,31.1569],[121.3288,31.1567],[121.3315,31.152],[121.3313,31.1498],[121.3337,31.1488],[121.3355,31.1439],[121.3367,31.1436],[121.3388,31.1402],[121.3368,31.139],[121.3421,31.1347],[121.3447,31.1303],[121.344,31.1295],[121.346,31.1262],[121.3449,31.1258],[121.3475,31.122],[121.3468,31.1217],[121.3496,31.1177],[121.3531,31.1176],[121.3507,31.1156],[121.3538,31.1115],[121.356,31.1125],[121.357,31.1105],[121.3522,31.1065],[121.3517,31.1077],[121.3485,31.1067],[121.3513,31.0993],[121.3584,31.1008],[121.3591,31.0989],[121.3628,31.0998],[121.372,31.0799],[121.3706,31.0784],[121.3688,31.0791],[121.3655,31.0779],[121.3643,31.0737],[121.3621,31.0726],[121.3644,31.0699],[121.3637,31.0684],[121.3573,31.0668],[121.3582,31.064],[121.3534,31.0613],[121.3434,31.0591],[121.3415,31.0628],[121.3353,31.0604],[121.3351,31.0456],[121.3337,31.0407],[121.3337,31.0157],[121.3331,31.0133],[121.3428,31.0148],[121.3443,31.0139],[121.3398,31.0103],[121.3382,31.0062],[121.3303,30.9969],[121.3275,30.9959],[121.3268,30.9945],[121.3258,30.9833],[121.3274,30.9807],[121.3296,30.9813],[121.3344,30.9807],[121.3438,30.9766],[121.3513,30.976],[121.3587,30.9779]]]}},{"type":"Feature","id":"Baoshan","properties":{"id":"Baoshan","name":"Baoshan","name_full":"宝山区","name_ja":"宝山区","center_lonlat":[121.4049,31.392]},"geometry":{"type":"Polygon","coordinates":[[[121.4253,31.2707],[121.4246,31.2719],[121.4244,31.2802],[121.4228,31.2843],[121.4238,31.291],[121.4197,31.2911],[121.4186,31.2923],[121.42,31.2969],[121.4269,31.2985],[121.4264,31.3032],[121.4313,31.3036],[121.4324,31.3059],[121.4317,31.3095],[121.4322,31.3117],[121.4346,31.3123],[121.4325,31.3187],[121.4336,31.3209],[121.4365,31.3209],[121.4368,31.3197],[121.4467,31.3198],[121.4479,31.3171],[121.4547,31.3192],[121.4571,31.321],[121.4654,31.3214],[121.4681,31.3203],[121.4683,31.316],[121.4854,31.3146],[121.4854,31.3116],[121.4967,31.3115],[121.4962,31.3233],[121.4989,31.3253],[121.4976,31.3281],[121.4936,31.3303],[121.5056,31.3457],[121.5176,31.3408],[121.5203,31.344],[121.5229,31.3429],[121.5255,31.3468],[121.5149,31.352],[121.5084,31.3573],[121.5038,31.3649],[121.5038,31.3737],[121.5124,31.3859],[121.5212,31.3948],[121.5074,31.4059],[121.5094,31.4083],[121.5166,31.4053],[121.5172,31.4063],[121.5108,31.41],[121.5024,31.4134],[121.5013,31.412],[121.5072,31.4097],[121.506,31.407],[121.4943,31.4179],[121.4813,31.4273],[121.4637,31.4383],[121.4343,31.4585],[121.4187,31.4707],[121.4043,31.4792],[121.404,31.4815],[121.4063,31.4854],[121.4054,31.4872],[121.3763,31.5011],[121.3623,31.5068],[121.3435,31.5121],[121.3295,31.5042],[121.3272,31.5042],[121.3231,31.5023],[121.3237,31.4996],[121.3199,31.4997],[121.32,31.503],[121.3219,31.5034],[121.3202,31.5059],[121.3167,31.5058],[121.3153,31.5013],[121.3119,31.5029],[121.3104,31.5059],[121.3055,31.5053],[121.3059,31.5034],[121.3026,31.5026],[121.2999,31.4998],[121.3009,31.4967],[121.3047,31.4958],[121.3065,31.4933],[121.3092,31.4925],[121.3103,31.4897],[121.3086,31.4886],[121.3102,31.4873],[121.3133,31.4806],[121.316,31.4812],[121.3188,31.4751],[121.3143,31.4725],[121.318,31.4685],[121.3206,31.4691],[121.3201,31.4667],[121.3173,31.4663],[121.3178,31.4601],[121.3205,31.4573],[121.3187,31.4569],[121.3198,31.4549],[121.3241,31.455],[121.3274,31.4488],[121.3261,31.448],[121.3283,31.4411],[121.3312,31.4397],[121.3337,31.4401],[121.3366,31.4323],[121.3366,31.4295],[121.3351,31.4292],[121.3364,31.425],[121.3366,31.4191],[121.3324,31.4169],[121.3341,31.4137],[121.3325,31.4131],[121.3331,31.4107],[121.3304,31.4103],[121.3285,31.412],[121.3143,31.4072],[121.3174,31.4037],[121.3156,31.4027],[121.3147,31.3984],[121.3174,31.3974],[121.3215,31.3976],[121.3231,31.3959],[121.3233,31.3933],[121.3204,31.3891],[121.3231,31.3885],[121.3266,31.3811],[121.3305,31.3811],[121.3313,31.3785],[121.3287,31.3773],[121.334,31.3726],[121.3333,31.3713],[121.336,31.3701],[121.335,31.367],[121.3376,31.3642],[121.3389,31.361],[121.3403,31.3605],[121.3414,31.3578],[121.3371,31.356],[121.3377,31.3534],[121.3346,31.3509],[121.3323,31.3513],[121.3325,31.3471],[121.3365,31.3468],[121.3375,31.3445],[121.3389,31.3448],[121.3424,31.3413],[121.3443,31.3419],[121.3463,31.3363],[121.3428,31.3361],[121.3417,31.3333],[121.3423,31.331],[121.3459,31.3251],[121.3475,31.3241],[121.3448,31.3233],[121.3456,31.3208],[121.3492,31.3213],[121.3478,31.3195],[121.3477,31.3167],[121.3435,31.3172],[121.3357,31.3033],[121.3313,31.3014],[121.3342,31.2961],[121.3359,31.297],[121.3365,31.2949],[121.3387,31.2932],[121.341,31.2937],[121.3409,31.2974],[121.3469,31.2977],[121.3469,31.2963],[121.3497,31.2976],[121.3489,31.2992],[121.353,31.3017],[121.3548,31.2998],[121.3603,31.3027],[121.3635,31.3027],[121.3603,31.2947],[121.3586,31.2935],[121.3638,31.292],[121.3638,31.2913],[121.3697,31.2891],[121.3702,31.2903],[121.3748,31.2891],[121.3762,31.2906],[121.3815,31.2894],[121.3816,31.2927],[121.3848,31.2944],[121.3884,31.2953],[121.3948,31.2947],[121.3935,31.2913],[121.3979,31.2905],[121.3996,31.2889],[121.3984,31.2871],[121.4004,31.2861],[121.4045,31.2862],[121.4001,31.2781],[121.4046,31.2762],[121.4065,31.2769],[121.4054,31.2731],[121.411,31.2732],[121.4106,31.2704],[121.4153,31.2691],[121.4158,31.2659],[121.4195,31.2652],[121.4253,31.2707]]]}},{"type":"Feature","id":"Jiading","properties":{"id":"Jiading","name":"Jiading","name_full":"嘉定区","name_ja":"嘉定区","center_lonlat":[121.2444,31.3581]},"geometry":{"type":"Polygon","coordinates":[[[121.1537,31.2766],[121.1539,31.2721],[121.1518,31.2676],[121.1555,31.2661],[121.1578,31.2705],[121.1611,31.2676],[121.1626,31.2692],[121.1677,31.2639],[121.168,31.2596],[121.1704,31.2591],[121.1689,31.2562],[121.1714,31.2549],[121.1743,31.2569],[121.1768,31.2546],[121.1788,31.2559],[121.1793,31.2534],[121.1815,31.2544],[121.1839,31.2522],[121.1864,31.2523],[121.1884,31.2548],[121.193,31.2536],[121.1934,31.2515],[121.1963,31.2512],[121.1961,31.2534],[121.1998,31.2552],[121.2031,31.2558],[121.2029,31.2571],[121.2064,31.2601],[121.2085,31.2575],[121.2098,31.258],[121.2098,31.2608],[121.2126,31.2598],[121.2142,31.2544],[121.2213,31.2563],[121.2202,31.2574],[121.2239,31.259],[121.2235,31.2605],[121.2292,31.2617],[121.2291,31.2627],[121.2377,31.2621],[121.2423,31.2594],[121.2466,31.2598],[121.2468,31.2584],[121.2542,31.2587],[121.2544,31.2596],[121.2602,31.2583],[121.264,31.2592],[121.2644,31.2565],[121.2713,31.2523],[121.2753,31.2535],[121.2804,31.2519],[121.2842,31.2518],[121.2814,31.2482],[121.2837,31.2452],[121.2873,31.2433],[121.2885,31.2382],[121.2926,31.2328],[121.2969,31.231],[121.303,31.2306],[121.3154,31.2272],[121.3339,31.232],[121.3349,31.2359],[121.3384,31.2375],[121.3409,31.2399],[121.3456,31.2399],[121.3446,31.2436],[121.3468,31.241],[121.3473,31.2432],[121.3489,31.2439],[121.3501,31.2418],[121.3487,31.2394],[121.3529,31.2383],[121.3542,31.2371],[121.3561,31.2378],[121.3561,31.2402],[121.3601,31.2405],[121.3607,31.2386],[121.3631,31.2401],[121.3667,31.2463],[121.3684,31.2474],[121.3723,31.2438],[121.3731,31.2457],[121.3757,31.2445],[121.3809,31.2578],[121.3775,31.2595],[121.3752,31.2595],[121.3746,31.2571],[121.3659,31.2577],[121.366,31.2594],[121.3618,31.2599],[121.3589,31.2636],[121.3598,31.267],[121.3622,31.2676],[121.367,31.2667],[121.3674,31.2696],[121.3613,31.2708],[121.3589,31.2688],[121.3573,31.2714],[121.3447,31.2739],[121.3435,31.2714],[121.3383,31.2728],[121.3389,31.275],[121.3362,31.2755],[121.3361,31.28],[121.335,31.2797],[121.3327,31.2861],[121.329,31.2846],[121.3273,31.2852],[121.3264,31.2889],[121.3328,31.2909],[121.3322,31.293],[121.3365,31.2949],[121.3359,31.297],[121.3342,31.2961],[121.3313,31.3014],[121.3357,31.3033],[121.3435,31.3172],[121.3477,31.3167],[121.3478,31.3195],[121.3492,31.3213],[121.3456,31.3208],[121.3448,31.3233],[121.3475,31.3241],[121.3459,31.3251],[121.3423,31.331],[121.3417,31.3333],[121.3428,31.3361],[121.3463,31.3363],[121.3443,31.3419],[121.3424,31.3413],[121.3389,31.3448],[121.3375,31.3445],[121.3365,31.3468],[121.3325,31.3471],[121.3323,31.3513],[121.3346,31.3509],[121.3377,31.3534],[121.3371,31.356],[121.3414,31.3578],[121.3403,31.3605],[121.3389,31.361],[121.3376,31.3642],[121.335,31.367],[121.336,31.3701],[121.3333,31.3713],[121.334,31.3726],[121.3287,31.3773],[121.3313,31.3785],[121.3305,31.3811],[121.3266,31.3811],[121.3231,31.3885],[121.3204,31.3891],[121.3233,31.3933],[121.3231,31.3959],[121.3215,31.3976],[121.3174,31.3974],[121.3147,31.3984],[121.3156,31.4027],[121.3174,31.4037],[121.3143,31.4072],[121.3285,31.412],[121.3304,31.4103],[121.3331,31.4107],[121.3325,31.4131],[121.3341,31.4137],[121.3324,31.4169],[121.3366,31.4191],[121.3364,31.425],[121.3351,31.4292],[121.3366,31.4295],[121.3366,31.4323],[121.3337,31.4401],[121.3312,31.4397],[121.3283,31.4411],[121.3261,31.448],[121.3274,31.4488],[121.3241,31.455],[121.3198,31.4549],[121.3187,31.4569],[121.3205,31.4573],[121.3178,31.4601],[121.3173,31.4663],[121.3201,31.4667],[121.3206,31.4691],[121.318,31.4685],[121.3143,31.4725],[121.3188,31.4751],[121.316,31.4812],[121.3133,31.4806],[121.3102,31.4873],[121.3086,31.4886],[121.3103,31.4897],[121.3092,31.4925],[121.3065,31.4933],[121.3047,31.4958],[121.3009,31.4967],[121.3005,31.4945],[121.2986,31.4937],[121.2986,31.4915],[121.2935,31.4898],[121.2906,31.4917],[121.2894,31.489],[121.2854,31.4907],[121.2837,31.4898],[121.2797,31.4904],[121.2803,31.4887],[121.2764,31.4867],[121.2762,31.4854],[121.272,31.4843],[121.2689,31.4875],[121.2673,31.4862],[121.2674,31.4834],[121.2652,31.4831],[121.2617,31.4808],[121.2615,31.4789],[121.2548,31.4776],[121.2556,31.4836],[121.2536,31.4831],[121.2534,31.4798],[121.2512,31.4796],[121.2497,31.4776],[121.2471,31.4771],[121.2458,31.4799],[121.2482,31.4819],[121.2444,31.4812],[121.2438,31.4873],[121.2411,31.4909],[121.2409,31.4937],[121.2372,31.492],[121.2347,31.4927],[121.2354,31.4881],[121.233,31.4879],[121.2287,31.4821],[121.2308,31.4811],[121.2304,31.4774],[121.2262,31.4777],[121.2254,31.476],[121.2207,31.4761],[121.2191,31.4752],[121.2136,31.4759],[121.215,31.4775],[121.2144,31.4791],[121.2064,31.475],[121.2034,31.4723],[121.2029,31.4694],[121.1951,31.4678],[121.1861,31.4608],[121.1855,31.4575],[121.1861,31.4544],[121.1808,31.4515],[121.175,31.4493],[121.1698,31.45],[121.1677,31.4483],[121.166,31.4502],[121.163,31.4489],[121.1609,31.4497],[121.1473,31.4439],[121.1466,31.439],[121.1478,31.4362],[121.1525,31.4336],[121.1627,31.4322],[121.1625,31.4296],[121.1643,31.4272],[121.162,31.428],[121.1614,31.4258],[121.1553,31.4257],[121.1512,31.4218],[121.1462,31.4211],[121.1462,31.4197],[121.1493,31.4191],[121.1489,31.4159],[121.1535,31.4137],[121.1555,31.4138],[121.1545,31.4116],[121.1589,31.4101],[121.1579,31.4079],[121.1531,31.4058],[121.1539,31.4037],[121.1505,31.4022],[121.1496,31.3994],[121.1527,31.3982],[121.1477,31.3973],[121.1495,31.3945],[121.1438,31.3923],[121.1471,31.3899],[121.149,31.3869],[121.1484,31.3854],[121.1414,31.3835],[121.141,31.3845],[121.1375,31.3828],[121.1384,31.3811],[121.1318,31.3788],[121.1312,31.3797],[121.1243,31.3767],[121.1233,31.3785],[121.1138,31.3744],[121.1152,31.3711],[121.1191,31.3706],[121.1202,31.3687],[121.1132,31.3669],[121.1129,31.3651],[121.1093,31.3647],[121.1089,31.3665],[121.107,31.3666],[121.1067,31.3645],[121.1083,31.3605],[121.1074,31.3548],[121.1084,31.354],[121.1083,31.3506],[121.1112,31.3515],[121.1118,31.3505],[121.1172,31.3517],[121.1202,31.3476],[121.1173,31.3471],[121.118,31.3434],[121.1239,31.3428],[121.1304,31.3442],[121.1301,31.3347],[121.1312,31.3321],[121.1326,31.332],[121.1333,31.3256],[121.1315,31.3254],[121.1316,31.3232],[121.1273,31.3193],[121.1271,31.3169],[121.1286,31.3143],[121.128,31.3119],[121.1298,31.3083],[121.1291,31.3075],[121.13,31.3026],[121.1338,31.3021],[121.1396,31.303],[121.1389,31.3056],[121.1438,31.3097],[121.1469,31.3059],[121.1508,31.299],[121.1489,31.2989],[121.1527,31.2941],[121.1513,31.2919],[121.1547,31.2901],[121.1564,31.2874],[121.1593,31.2877],[121.1613,31.284],[121.1594,31.2816],[121.1555,31.2808],[121.1555,31.2784],[121.1537,31.2766]]]}},{"type":"Feature","id":"Pudong","properties":{"id":"Pudong","name":"Pudong","name_full":"浦东新区","name_ja":"浦东新区","center_lonlat":[121.7423,31.0835]},"geometry":{"type":"MultiPolygon","coordinates":[[[[121.5705,30.9983],[121.5767,30.9995],[121.5829,30.9995],[121.5843,31.0008],[121.5947,31.0007],[121.5956,31.002],[121.6041,31.0011],[121.6147,31.0013],[121.6177,30.9957],[121.6206,30.9927],[121.6545,30.9933],[121.6695,30.9916],[121.6733,30.9898],[121.6746,30.9918],[121.6836,30.9898],[121.6881,30.9901],[121.693,30.9893],[121.7055,30.985],[121.7128,30.9809],[121.7319,30.9678],[121.7379,30.9606],[121.7369,30.9587],[121.74,30.9567],[121.7437,30.9566],[121.7479,30.9519],[121.7492,30.953],[121.752,30.9527],[121.7593,30.9492],[121.761,30.9476],[121.7609,30.9446],[121.7645,30.9418],[121.7617,30.9401],[121.7615,30.9384],[121.7643,30.9385],[121.7638,30.9369],[121.7664,30.9365],[121.768,30.9383],[121.7698,30.9353],[121.773,30.9339],[121.7734,30.9316],[121.7778,30.931],[121.7777,30.9267],[121.7811,30.9176],[121.7802,30.9118],[121.779,30.9101],[121.7783,30.9038],[121.7788,30.8946],[121.776,30.8864],[121.7767,30.881],[121.7731,30.8806],[121.7725,30.8757],[121.7716,30.8754],[121.7681,30.8633],[121.7693,30.8504],[121.7938,30.8169],[121.9045,30.8142],[121.9153,30.8129],[121.9246,30.8066],[121.9437,30.7771],[121.9697,30.7892],[121.9555,30.8171],[121.9543,30.8214],[121.9547,30.8258],[121.9854,30.8507],[121.994,30.8631],[121.997,30.8749],[121.9985,30.9],[121.9962,30.9355],[121.9909,30.9684],[121.9776,31.0161],[121.9627,31.0473],[121.9468,31.0659],[121.8895,31.1217],[121.884,31.1306],[121.8534,31.1553],[121.8098,31.1969],[121.7437,31.2832],[121.7291,31.2983],[121.7225,31.3035],[121.603,31.3727],[121.5937,31.3764],[121.538,31.3885],[121.5212,31.3948],[121.5124,31.3859],[121.5038,31.3737],[121.5038,31.3649],[121.5084,31.3573],[121.5149,31.352],[121.5255,31.3468],[121.5494,31.3378],[121.5558,31.3339],[121.5586,31.3313],[121.5605,31.3278],[121.5619,31.3212],[121.5618,31.3033],[121.5625,31.2998],[121.5691,31.2853],[121.5695,31.2796],[121.5685,31.2757],[121.5591,31.2642],[121.5415,31.2518],[121.5364,31.2496],[121.5276,31.2473],[121.5165,31.247],[121.5069,31.2465],[121.5,31.245],[121.4948,31.2422],[121.4935,31.2402],[121.4935,31.2361],[121.4957,31.233],[121.5067,31.2231],[121.5094,31.2185],[121.5099,31.2145],[121.5084,31.2102],[121.4981,31.1956],[121.4946,31.1929],[121.4908,31.1915],[121.476,31.1879],[121.4687,31.1841],[121.4649,31.178],[121.4649,31.1754],[121.4694,31.1623],[121.4684,31.1581],[121.4575,31.1465],[121.4575,31.1422],[121.4624,31.1345],[121.4687,31.1279],[121.4697,31.1249],[121.4693,31.1187],[121.4652,31.1121],[121.4703,31.1109],[121.474,31.1129],[121.4741,31.1144],[121.4773,31.1109],[121.4814,31.1107],[121.4774,31.1173],[121.4813,31.118],[121.4819,31.1201],[121.4857,31.1219],[121.486,31.1245],[121.4903,31.1243],[121.4928,31.1187],[121.4985,31.1215],[121.5016,31.1147],[121.5053,31.1155],[121.5039,31.1183],[121.5055,31.12],[121.5113,31.1212],[121.5137,31.118],[121.5145,31.1153],[121.5214,31.1163],[121.5229,31.1152],[121.5253,31.1167],[121.5314,31.1184],[121.5323,31.1172],[121.5353,31.118],[121.5379,31.114],[121.5395,31.1156],[121.5423,31.1162],[121.5442,31.1115],[121.5477,31.1097],[121.5504,31.1116],[121.5492,31.1134],[121.5523,31.1139],[121.5533,31.1127],[121.5553,31.1149],[121.5567,31.1131],[121.5599,31.1119],[121.5579,31.1098],[121.5614,31.1062],[121.5611,31.1053],[121.5636,31.1019],[121.5621,31.1013],[121.5633,31.099],[121.5668,31.0966],[121.5673,31.0936],[121.5644,31.0919],[121.5619,31.0919],[121.5616,31.0936],[121.5591,31.092],[121.5516,31.0901],[121.5515,31.0881],[121.5485,31.0869],[121.5506,31.0828],[121.5536,31.0803],[121.5564,31.0811],[121.557,31.0827],[121.5616,31.0836],[121.5636,31.0825],[121.5698,31.0816],[121.5716,31.0801],[121.5727,31.0813],[121.5753,31.0801],[121.5676,31.0762],[121.5626,31.0751],[121.5627,31.0743],[121.5575,31.0734],[121.559,31.0722],[121.5556,31.0717],[121.5528,31.0695],[121.5568,31.0674],[121.5518,31.0656],[121.5511,31.0638],[121.5485,31.0636],[121.5472,31.0616],[121.5484,31.0569],[121.5433,31.0557],[121.5433,31.054],[121.5408,31.0525],[121.5423,31.0491],[121.5415,31.0464],[121.5459,31.047],[121.5478,31.0485],[121.5495,31.0479],[121.5505,31.0494],[121.5527,31.0493],[121.5547,31.0508],[121.5561,31.0476],[121.557,31.048],[121.5598,31.0448],[121.5621,31.0436],[121.5595,31.0414],[121.5595,31.0303],[121.5583,31.0295],[121.5584,31.0245],[121.5558,31.0229],[121.5528,31.0233],[121.5523,31.0209],[121.5541,31.0186],[121.5565,31.0187],[121.5565,31.0203],[121.5587,31.0203],[121.5603,31.0241],[121.5643,31.0212],[121.5691,31.0244],[121.5684,31.0253],[121.5723,31.0267],[121.5748,31.021],[121.5747,31.0186],[121.571,31.0164],[121.5698,31.0125],[121.5659,31.0119],[121.5682,31.0101],[121.5697,31.0106],[121.5715,31.0056],[121.5703,31.0046],[121.5707,31.0023],[121.568,31.0009],[121.5705,30.9983]]],[[[121.9432,31.2155],[121.9418,31.2077],[121.9426,31.1985],[121.9448,31.1869],[121.948,31.1764],[121.9526,31.1672],[121.9596,31.1593],[121.9657,31.1575],[121.9708,31.1576],[121.9759,31.1588],[121.9957,31.1608],[121.9996,31.1651],[122.012,31.192],[122.0126,31.21],[122.011,31.2174],[122.0086,31.221],[121.9897,31.2245],[121.9807,31.2281],[121.9692,31.2303],[121.9573,31.2304],[121.951,31.2288],[121.9466,31.2244],[121.9432,31.2155]]],[[[121.8826,31.2409],[121.8809,31.2363],[121.8825,31.2256],[121.8893,31.215],[121.9016,31.2015],[121.9088,31.1953],[121.9139,31.1938],[121.9188,31.1943],[121.9224,31.1969],[121.9254,31.2054],[121.9275,31.224],[121.9267,31.2297],[121.9236,31.2339],[121.8974,31.2421],[121.8899,31.2426],[121.8826,31.2409]]]]}},{"type":"Feature","id":"Jinshan","properties":{"id":"Jinshan","name":"Jinshan","name_full":"金山区","name_ja":"金山区","center_lonlat":[121.2552,30.8189]},"geometry":{"type":"MultiPolygon","coordinates":[[[[120.9967,30.9503],[120.9968,30.9446],[120.9957,30.9443],[120.9975,30.9411],[121.0008,30.9377],[121.0,30.9347],[120.999,30.9095],[121.0046,30.9093],[121.0045,30.907],[121.0026,30.9049],[120.9987,30.9059],[120.9986,30.9034],[120.9957,30.9037],[120.9928,30.9022],[120.9927,30.8997],[120.9905,30.8958],[120.9929,30.8939],[120.9938,30.8897],[121.0085,30.8881],[121.0083,30.883],[121.0111,30.8822],[121.0175,30.8827],[121.0186,30.8807],[121.0215,30.8788],[121.0194,30.8767],[121.0219,30.8752],[121.0198,30.874],[121.0205,30.8719],[121.0178,30.8734],[121.0148,30.871],[121.0178,30.8694],[121.014,30.8644],[121.0163,30.8629],[121.0154,30.8605],[121.011,30.856],[121.015,30.8536],[121.0134,30.8517],[121.0101,30.8531],[121.008,30.8506],[121.0065,30.8505],[121.004,30.8461],[121.001,30.8456],[120.9999,30.8433],[120.9978,30.8441],[120.9957,30.8386],[120.9929,30.8384],[120.99,30.8347],[120.9891,30.8323],[120.9925,30.8316],[120.9892,30.8287],[120.9928,30.8257],[120.9909,30.8227],[120.9946,30.8215],[121.0005,30.8294],[121.0034,30.8263],[121.0109,30.8346],[121.0144,30.8358],[121.0149,30.834],[121.0301,30.8286],[121.0366,30.8184],[121.0379,30.8139],[121.045,30.8155],[121.0438,30.82],[121.0391,30.8186],[121.0377,30.8203],[121.0392,30.8209],[121.0403,30.8244],[121.0417,30.8254],[121.04,30.8272],[121.0435,30.8282],[121.0451,30.8259],[121.0489,30.8252],[121.0468,30.8311],[121.062,30.8378],[121.0602,30.8428],[121.0617,30.8434],[121.0605,30.8452],[121.067,30.8488],[121.0805,30.8487],[121.0977,30.8571],[121.0977,30.8549],[121.1023,30.8503],[121.1048,30.8493],[121.1109,30.8514],[121.1132,30.854],[121.1147,30.8515],[121.1201,30.8491],[121.1212,30.8502],[121.1235,30.8473],[121.1202,30.8433],[121.1198,30.8377],[121.1177,30.8353],[121.1206,30.8363],[121.13,30.8349],[121.1316,30.836],[121.1346,30.833],[121.1329,30.8316],[121.1343,30.8285],[121.1362,30.8279],[121.1374,30.83],[121.1374,30.825],[121.1324,30.8193],[121.1282,30.8102],[121.126,30.793],[121.1266,30.789],[121.1253,30.7882],[121.12,30.7886],[121.1172,30.7861],[121.1234,30.7789],[121.1275,30.7787],[121.1318,30.7773],[121.136,30.7773],[121.1387,30.7784],[121.1406,30.7769],[121.1441,30.7795],[121.1527,30.779],[121.1558,30.7772],[121.1607,30.7766],[121.1607,30.7732],[121.1634,30.7753],[121.169,30.776],[121.1708,30.7771],[121.171,30.7747],[121.1747,30.772],[121.18,30.7744],[121.1834,30.775],[121.1858,30.7767],[121.1864,30.779],[121.1895,30.779],[121.191,30.7811],[121.1918,30.7789],[121.197,30.7734],[121.2003,30.7736],[121.1992,30.7808],[121.2001,30.7833],[121.2055,30.7859],[121.2137,30.7859],[121.218,30.785],[121.2234,30.776],[121.2246,30.777],[121.2262,30.7751],[121.2269,30.7708],[121.2291,30.768],[121.2307,30.7637],[121.2323,30.7558],[121.2373,30.7527],[121.2564,30.7439],[121.2613,30.7382],[121.2668,30.7335],[121.2682,30.7349],[121.2715,30.7323],[121.2698,30.7307],[121.2715,30.7269],[121.2703,30.7259],[121.272,30.7233],[121.2701,30.7205],[121.2703,30.7169],[121.2671,30.715],[121.2684,30.7121],[121.2659,30.7095],[121.2667,30.7063],[121.268,30.7061],[121.2687,30.7021],[121.2707,30.7016],[121.2704,30.6981],[121.2716,30.6969],[121.2746,30.6774],[121.291,30.6783],[121.3267,30.6759],[121.3466,30.6756],[121.3543,30.677],[121.3619,30.6795],[121.407,30.7181],[121.4264,30.7303],[121.4788,30.7563],[121.4467,30.8056],[121.4454,30.8049],[121.4416,30.8068],[121.437,30.8181],[121.426,30.8187],[121.4205,30.8198],[121.4193,30.816],[121.4151,30.8158],[121.4155,30.8199],[121.4142,30.8218],[121.4124,30.8215],[121.4048,30.8231],[121.401,30.8274],[121.4007,30.8301],[121.4036,30.8299],[121.4042,30.8338],[121.3997,30.8342],[121.3974,30.8333],[121.397,30.828],[121.3921,30.8278],[121.3917,30.8299],[121.3876,30.8299],[121.3876,30.8328],[121.3838,30.8339],[121.3793,30.8401],[121.3791,30.8432],[121.3854,30.8432],[121.3837,30.8518],[121.3844,30.8562],[121.3835,30.8592],[121.384,30.8635],[121.3819,30.8638],[121.3819,30.8673],[121.3829,30.869],[121.3828,30.8745],[121.3815,30.8766],[121.3822,30.879],[121.3775,30.88],[121.3718,30.8837],[121.3702,30.8839],[121.3672,30.8867],[121.3633,30.887],[121.3612,30.893],[121.3605,30.8978],[121.3584,30.9006],[121.3567,30.9086],[121.3518,30.9132],[121.3506,30.9114],[121.3476,30.9131],[121.3438,30.9091],[121.3402,30.9086],[121.3366,30.9067],[121.3347,30.9077],[121.3311,30.9075],[121.3276,30.9101],[121.3259,30.909],[121.3215,30.909],[121.3201,30.9111],[121.3146,30.9091],[121.3138,30.9107],[121.3068,30.9102],[121.3065,30.9121],[121.3037,30.9121],[121.3034,30.9093],[121.3018,30.9085],[121.2985,30.9097],[121.2963,30.915],[121.2948,30.9149],[121.2949,30.9185],[121.2888,30.9169],[121.2887,30.9099],[121.2901,30.9098],[121.291,30.9027],[121.2902,30.9],[121.2887,30.9],[121.2884,30.8961],[121.2858,30.8954],[121.2853,30.8966],[121.2823,30.8966],[121.2821,30.8948],[121.2796,30.8945],[121.2791,30.8971],[121.2747,30.8961],[121.273,30.9004],[121.2704,30.9002],[121.269,30.9017],[121.2662,30.9017],[121.2669,30.9063],[121.2625,30.9068],[121.2621,30.9081],[121.259,30.9072],[121.2559,30.908],[121.2552,30.9096],[121.2466,30.9099],[121.2437,30.9179],[121.2455,30.9171],[121.2446,30.9203],[121.2429,30.9199],[121.2407,30.9251],[121.2382,30.9249],[121.2348,30.926],[121.2345,30.9286],[121.2273,30.9268],[121.223,30.9307],[121.2181,30.9277],[121.211,30.9213],[121.2075,30.9199],[121.1948,30.9173],[121.1878,30.9166],[121.1865,30.9154],[121.1713,30.9147],[121.1669,30.917],[121.1646,30.9199],[121.1582,30.9203],[121.1567,30.919],[121.1566,30.91],[121.1529,30.9102],[121.1498,30.9126],[121.1422,30.9156],[121.1432,30.9181],[121.1391,30.9196],[121.1374,30.9133],[121.1401,30.9103],[121.1397,30.9074],[121.141,30.905],[121.1413,30.9013],[121.1344,30.9018],[121.1317,30.8997],[121.1302,30.9026],[121.1235,30.9029],[121.1222,30.9011],[121.1182,30.9015],[121.1135,30.8974],[121.1111,30.8992],[121.1109,30.901],[121.1193,30.912],[121.1214,30.92],[121.1146,30.9217],[121.111,30.9217],[121.1051,30.9201],[121.1044,30.9228],[121.1004,30.9265],[121.0914,30.9162],[121.089,30.9153],[121.0891,30.912],[121.0938,30.9097],[121.0962,30.9103],[121.0988,30.9066],[121.0971,30.9032],[121.0943,30.9025],[121.0943,30.9048],[121.0917,30.9034],[121.0837,30.9053],[121.0818,30.9043],[121.0808,30.9059],[121.0724,30.9049],[121.0725,30.9032],[121.069,30.9021],[121.0679,30.9045],[121.053,30.9034],[121.0452,30.9019],[121.0423,30.8994],[121.0409,30.9007],[121.0403,30.9045],[121.0388,30.9021],[121.0344,30.9027],[121.0347,30.9062],[121.0253,30.9091],[121.0249,30.9116],[121.0259,30.9168],[121.0283,30.9226],[121.0287,30.9275],[121.0315,30.9361],[121.0319,30.9398],[121.0296,30.9419],[121.0299,30.9445],[121.028,30.9439],[121.0195,30.9412],[121.0169,30.9413],[121.0177,30.9392],[121.0153,30.9403],[121.0138,30.9442],[121.0116,30.9436],[121.0111,30.9472],[121.0133,30.9468],[121.0154,30.9482],[121.0102,30.9507],[121.0076,30.9476],[121.0027,30.947],[121.0021,30.951],[120.9967,30.9503]]],[[[121.4225,30.6915],[121.4195,30.6916],[121.4195,30.6899],[121.4254,30.6874],[121.4289,30.6891],[121.4266,30.6913],[121.4225,30.6915]]]]}},{"type":"Feature","id":"Songjiang","properties":{"id":"Songjiang","name":"Songjiang","name_full":"松江区","name_ja":"松江区","center_lonlat":[121.2202,31.0151]},"geometry":{"type":"Polygon","coordinates":[[[121.3239,31.1629],[121.3225,31.1624],[121.3209,31.1585],[121.3181,31.1576],[121.3162,31.1602],[121.2954,31.1539],[121.2871,31.1523],[121.2854,31.1535],[121.2831,31.1522],[121.2838,31.1508],[121.2803,31.1505],[121.2778,31.1523],[121.2787,31.1483],[121.2764,31.1459],[121.277,31.1442],[121.2793,31.1457],[121.2818,31.142],[121.2842,31.1426],[121.2875,31.14],[121.281,31.1333],[121.2657,31.1364],[121.2656,31.1348],[121.2636,31.1354],[121.2606,31.1323],[121.2616,31.1272],[121.258,31.1271],[121.258,31.1324],[121.247,31.1342],[121.2455,31.1308],[121.2393,31.13],[121.2453,31.1293],[121.2445,31.1254],[121.2398,31.1262],[121.2368,31.1257],[121.2358,31.119],[121.2339,31.1173],[121.2241,31.1151],[121.2213,31.1151],[121.2217,31.1199],[121.228,31.1391],[121.2206,31.1384],[121.2083,31.1357],[121.2062,31.1383],[121.2003,31.1378],[121.2016,31.1409],[121.1997,31.1396],[121.1947,31.1382],[121.182,31.1435],[121.1817,31.1318],[121.1799,31.1319],[121.1803,31.1274],[121.1818,31.127],[121.1818,31.1243],[121.1839,31.1243],[121.1838,31.1187],[121.1788,31.1171],[121.1764,31.119],[121.1743,31.1179],[121.1752,31.1152],[121.173,31.1141],[121.1745,31.1085],[121.1705,31.1091],[121.1706,31.1078],[121.1665,31.1083],[121.1668,31.1043],[121.1652,31.1043],[121.1655,31.1014],[121.1596,31.1005],[121.1544,31.1018],[121.1543,31.0989],[121.1568,31.0989],[121.1567,31.0932],[121.1554,31.0932],[121.1552,31.0905],[121.1535,31.0901],[121.1529,31.092],[121.1512,31.0917],[121.1495,31.0953],[121.1459,31.094],[121.1445,31.0975],[121.1419,31.0969],[121.1416,31.0987],[121.1358,31.0981],[121.1333,31.0991],[121.1319,31.102],[121.1307,31.1005],[121.1277,31.1033],[121.1255,31.1034],[121.121,31.1077],[121.1177,31.1089],[121.1161,31.111],[121.1144,31.1098],[121.1126,31.1119],[121.1088,31.1072],[121.1036,31.1026],[121.1038,31.1005],[121.1006,31.0984],[121.098,31.0993],[121.0999,31.0966],[121.0995,31.0942],[121.0976,31.0935],[121.1008,31.0887],[121.0994,31.0859],[121.1007,31.0809],[121.1029,31.0802],[121.1073,31.0821],[121.1126,31.0776],[121.1171,31.0756],[121.1184,31.0759],[121.1215,31.0702],[121.1222,31.0672],[121.1262,31.0666],[121.1264,31.0598],[121.1278,31.0598],[121.1259,31.0574],[121.1207,31.0573],[121.118,31.0584],[121.1182,31.0561],[121.1086,31.0566],[121.1084,31.0579],[121.1018,31.0573],[121.1011,31.0536],[121.0983,31.0566],[121.0946,31.0563],[121.093,31.0584],[121.0945,31.0619],[121.0929,31.0645],[121.0882,31.0647],[121.0859,31.0628],[121.0865,31.0612],[121.0844,31.0588],[121.081,31.0569],[121.0859,31.0502],[121.0872,31.0529],[121.0899,31.0519],[121.0903,31.0481],[121.0962,31.0448],[121.0931,31.0407],[121.0959,31.0405],[121.0978,31.0389],[121.1003,31.0334],[121.0999,31.0312],[121.097,31.0315],[121.0964,31.0264],[121.0912,31.0259],[121.0895,31.0279],[121.0855,31.0255],[121.093,31.0202],[121.1021,31.0118],[121.1042,31.008],[121.1041,30.9951],[121.1001,30.9949],[121.0992,30.9731],[121.0956,30.9742],[121.0958,30.9684],[121.0975,30.9656],[121.088,30.9642],[121.0882,30.9622],[121.0812,30.9623],[121.0807,30.9602],[121.0785,30.96],[121.0791,30.9583],[121.0766,30.9576],[121.0765,30.9558],[121.0653,30.9552],[121.0603,30.9565],[121.0595,30.9592],[121.0569,30.9619],[121.0573,30.9653],[121.0533,30.9644],[121.051,30.9694],[121.0474,30.969],[121.0467,30.9702],[121.0431,30.9694],[121.0459,30.9634],[121.0426,30.9604],[121.0435,30.9575],[121.0404,30.9565],[121.0363,30.9571],[121.0332,30.9471],[121.0279,30.9458],[121.028,30.9439],[121.0299,30.9445],[121.0296,30.9419],[121.0319,30.9398],[121.0315,30.9361],[121.0287,30.9275],[121.0283,30.9226],[121.0259,30.9168],[121.0249,30.9116],[121.0253,30.9091],[121.0347,30.9062],[121.0344,30.9027],[121.0388,30.9021],[121.0403,30.9045],[121.0409,30.9007],[121.0423,30.8994],[121.0452,30.9019],[121.053,30.9034],[121.0679,30.9045],[121.069,30.9021],[121.0725,30.9032],[121.0724,30.9049],[121.0808,30.9059],[121.0818,30.9043],[121.0837,30.9053],[121.0917,30.9034],[121.0943,30.9048],[121.0943,30.9025],[121.0971,30.9032],[121.0988,30.9066],[121.0962,30.9103],[121.0938,30.9097],[121.0891,30.912],[121.089,30.9153],[121.0914,30.9162],[121.1004,30.9265],[121.1044,30.9228],[121.1051,30.9201],[121.111,30.9217],[121.1146,30.9217],[121.1214,30.92],[121.1193,30.912],[121.1109,30.901],[121.1111,30.8992],[121.1135,30.8974],[121.1182,30.9015],[121.1222,30.9011],[121.1235,30.9029],[121.1302,30.9026],[121.1317,30.8997],[121.1344,30.9018],[121.1413,30.9013],[121.141,30.905],[121.1397,30.9074],[121.1401,30.9103],[121.1374,30.9133],[121.1391,30.9196],[121.1432,30.9181],[121.1422,30.9156],[121.1498,30.9126],[121.1529,30.9102],[121.1566,30.91],[121.1567,30.919],[121.1582,30.9203],[121.1646,30.9199],[121.1669,30.917],[121.1713,30.9147],[121.1865,30.9154],[121.1878,30.9166],[121.1948,30.9173],[121.2075,30.9199],[121.211,30.9213],[121.2181,30.9277],[121.223,30.9307],[121.2273,30.9268],[121.2345,30.9286],[121.2348,30.926],[121.2382,30.9249],[121.2407,30.9251],[121.2429,30.9199],[121.2446,30.9203],[121.2455,30.9171],[121.2437,30.9179],[121.2466,30.9099],[121.2552,30.9096],[121.2559,30.908],[121.259,30.9072],[121.2621,30.9081],[121.2625,30.9068],[121.2669,30.9063],[121.2662,30.9017],[121.269,30.9017],[121.2704,30.9002],[121.273,30.9004],[121.2747,30.8961],[121.2791,30.8971],[121.2796,30.8945],[121.2821,30.8948],[121.2823,30.8966],[121.2853,30.8966],[121.2858,30.8954],[121.2884,30.8961],[121.2887,30.9],[121.2902,30.9],[121.291,30.9027],[121.2901,30.9098],[121.2887,30.9099],[121.2888,30.9169],[121.2949,30.9185],[121.2948,30.9149],[121.2963,30.915],[121.2985,30.9097],[121.3018,30.9085],[121.3034,30.9093],[121.3037,30.9121],[121.3065,30.9121],[121.3068,30.9102],[121.3138,30.9107],[121.3146,30.9091],[121.3201,30.9111],[121.3215,30.909],[121.3259,30.909],[121.3276,30.9101],[121.3311,30.9075],[121.3347,30.9077],[121.3366,30.9067],[121.3402,30.9086],[121.3438,30.9091],[121.3476,30.9131],[121.3506,30.9114],[121.3518,30.9132],[121.3551,30.9163],[121.3561,30.9197],[121.3554,30.9214],[121.3522,30.9238],[121.3522,30.9282],[121.3512,30.9306],[121.3557,30.9321],[121.3547,30.9335],[121.3574,30.9336],[121.3593,30.9351],[121.3627,30.9348],[121.3611,30.944],[121.3639,30.9452],[121.3655,30.9472],[121.3625,30.9489],[121.3629,30.9595],[121.361,30.9656],[121.3614,30.9704],[121.36,30.9763],[121.3587,30.9779],[121.3513,30.976],[121.3438,30.9766],[121.3344,30.9807],[121.3296,30.9813],[121.3274,30.9807],[121.3258,30.9833],[121.3268,30.9945],[121.3275,30.9959],[121.3303,30.9969],[121.3382,31.0062],[121.3398,31.0103],[121.3443,31.0139],[121.3428,31.0148],[121.3331,31.0133],[121.3337,31.0157],[121.3337,31.0407],[121.3351,31.0456],[121.3353,31.0604],[121.3415,31.0628],[121.3434,31.0591],[121.3534,31.0613],[121.3582,31.064],[121.3573,31.0668],[121.3637,31.0684],[121.3644,31.0699],[121.3621,31.0726],[121.3643,31.0737],[121.3655,31.0779],[121.3688,31.0791],[121.3706,31.0784],[121.372,31.0799],[121.3628,31.0998],[121.3591,31.0989],[121.3584,31.1008],[121.3513,31.0993],[121.3485,31.1067],[121.3517,31.1077],[121.3522,31.1065],[121.357,31.1105],[121.356,31.1125],[121.3538,31.1115],[121.3507,31.1156],[121.3531,31.1176],[121.3496,31.1177],[121.3468,31.1217],[121.3475,31.122],[121.3449,31.1258],[121.346,31.1262],[121.344,31.1295],[121.3447,31.1303],[121.3421,31.1347],[121.3368,31.139],[121.3388,31.1402],[121.3367,31.1436],[121.3355,31.1439],[121.3337,31.1488],[121.3313,31.1498],[121.3315,31.152],[121.3288,31.1567],[121.3272,31.1569],[121.3239,31.1629]]]}},{"type":"Feature","id":"Qingpu","properties":{"id":"Qingpu","name":"Qingpu","name_full":"青浦区","name_ja":"青浦区","center_lonlat":[121.0851,31.1246]},"geometry":{"type":"Polygon","coordinates":[[[121.1537,31.2766],[121.1504,31.2754],[121.143,31.2755],[121.1429,31.2777],[121.1412,31.2767],[121.1376,31.2776],[121.138,31.2788],[121.1317,31.2814],[121.1311,31.2801],[121.1272,31.2812],[121.1243,31.2831],[121.125,31.2844],[121.1204,31.2862],[121.1193,31.2851],[121.115,31.2853],[121.1067,31.2767],[121.1038,31.2753],[121.1054,31.2737],[121.0988,31.2763],[121.0954,31.287],[121.0931,31.2882],[121.0901,31.2919],[121.0869,31.2917],[121.0873,31.2907],[121.0847,31.2876],[121.0814,31.2773],[121.0845,31.2757],[121.0822,31.2715],[121.0804,31.2702],[121.0687,31.2681],[121.0632,31.2679],[121.061,31.2465],[121.0577,31.2467],[121.0616,31.2452],[121.0643,31.2461],[121.0639,31.2384],[121.0612,31.2378],[121.0626,31.2347],[121.0646,31.233],[121.0674,31.2329],[121.0672,31.2309],[121.0646,31.2308],[121.0647,31.2273],[121.0628,31.227],[121.0626,31.2247],[121.0692,31.1965],[121.0666,31.1972],[121.0668,31.195],[121.0696,31.1953],[121.0701,31.1936],[121.0722,31.1932],[121.0726,31.1915],[121.0706,31.1913],[121.0704,31.1887],[121.0717,31.186],[121.0688,31.1849],[121.0695,31.1829],[121.075,31.1844],[121.0756,31.1829],[121.0712,31.1815],[121.0714,31.1795],[121.0742,31.1762],[121.0754,31.1734],[121.0725,31.1727],[121.0724,31.1696],[121.0755,31.1703],[121.0774,31.1645],[121.0731,31.1633],[121.0737,31.1617],[121.0768,31.1626],[121.076,31.1605],[121.077,31.1585],[121.0738,31.1571],[121.072,31.1535],[121.0678,31.1523],[121.0691,31.1487],[121.0657,31.1486],[121.0661,31.1509],[121.0641,31.1508],[121.0626,31.1531],[121.0574,31.1528],[121.0558,31.1507],[121.0503,31.1507],[121.0491,31.1546],[121.0454,31.154],[121.0453,31.1516],[121.0415,31.1498],[121.0415,31.1469],[121.0448,31.1455],[121.0418,31.1389],[121.0386,31.1369],[121.0363,31.1374],[121.0361,31.1403],[121.0331,31.1422],[121.0288,31.1412],[121.0284,31.1439],[121.0267,31.1438],[121.0257,31.1408],[121.0223,31.1405],[121.0228,31.1383],[121.0185,31.1341],[120.9913,31.1332],[120.9839,31.1317],[120.9526,31.1383],[120.9303,31.1414],[120.9169,31.1362],[120.9054,31.1342],[120.8992,31.1361],[120.8813,31.1347],[120.8764,31.1315],[120.8723,31.1272],[120.871,31.1238],[120.8706,31.1197],[120.866,31.1148],[120.8622,31.1125],[120.8602,31.1093],[120.8579,31.1085],[120.8568,31.1028],[120.8598,31.1003],[120.864,31.1003],[120.8657,31.0976],[120.8696,31.0972],[120.8698,31.0989],[120.8725,31.0989],[120.8732,31.1003],[120.8766,31.0999],[120.876,31.0979],[120.879,31.0984],[120.8781,31.0958],[120.8875,31.0941],[120.891,31.0943],[120.8912,31.0972],[120.8928,31.0965],[120.8922,31.0942],[120.8954,31.0907],[120.8967,31.0866],[120.8993,31.0869],[120.9021,31.0857],[120.9017,31.0841],[120.9047,31.0805],[120.9046,31.0785],[120.8996,31.0784],[120.8989,31.0705],[120.8946,31.0587],[120.8946,31.0539],[120.8954,31.0503],[120.8972,31.0482],[120.897,31.0456],[120.8997,31.0396],[120.902,31.0376],[120.9006,31.0204],[120.9014,31.0175],[120.9101,31.0169],[120.9099,31.0126],[120.911,31.0106],[120.9181,31.0128],[120.9262,31.0104],[120.927,31.0121],[120.9314,31.0118],[120.9338,31.01],[120.9381,31.009],[120.9401,31.01],[120.9357,31.0154],[120.9363,31.0171],[120.95,31.0176],[120.9512,31.024],[120.9487,31.0251],[120.9491,31.03],[120.9511,31.0291],[120.9522,31.0303],[120.9583,31.0286],[120.9605,31.0217],[120.9643,31.0208],[120.9648,31.0198],[120.9632,31.0166],[120.983,31.0161],[120.9839,31.0144],[120.9895,31.0144],[120.99,31.0105],[120.9919,31.0082],[120.9911,31.0075],[120.9921,31.0034],[120.992,30.9971],[120.9898,30.9967],[120.9905,30.9946],[120.9948,30.9953],[120.9946,30.9919],[120.9971,30.9892],[120.9993,30.9801],[121.0008,30.9805],[121.0024,30.9776],[121.0006,30.977],[121.0005,30.9739],[120.9974,30.9724],[120.9931,30.9721],[120.9914,30.9684],[120.9937,30.964],[120.9926,30.9628],[120.9948,30.9587],[120.9917,30.9582],[120.9925,30.955],[120.9948,30.9548],[120.9954,30.9504],[120.9967,30.9503],[121.0021,30.951],[121.0027,30.947],[121.0076,30.9476],[121.0102,30.9507],[121.0154,30.9482],[121.0133,30.9468],[121.0111,30.9472],[121.0116,30.9436],[121.0138,30.9442],[121.0153,30.9403],[121.0177,30.9392],[121.0169,30.9413],[121.0195,30.9412],[121.028,30.9439],[121.0279,30.9458],[121.0332,30.9471],[121.0363,30.9571],[121.0404,30.9565],[121.0435,30.9575],[121.0426,30.9604],[121.0459,30.9634],[121.0431,30.9694],[121.0467,30.9702],[121.0474,30.969],[121.051,30.9694],[121.0533,30.9644],[121.0573,30.9653],[121.0569,30.9619],[121.0595,30.9592],[121.0603,30.9565],[121.0653,30.9552],[121.0765,30.9558],[121.0766,30.9576],[121.0791,30.9583],[121.0785,30.96],[121.0807,30.9602],[121.0812,30.9623],[121.0882,30.9622],[121.088,30.9642],[121.0975,30.9656],[121.0958,30.9684],[121.0956,30.9742],[121.0992,30.9731],[121.1001,30.9949],[121.1041,30.9951],[121.1042,31.008],[121.1021,31.0118],[121.093,31.0202],[121.0855,31.0255],[121.0895,31.0279],[121.0912,31.0259],[121.0964,31.0264],[121.097,31.0315],[121.0999,31.0312],[121.1003,31.0334],[121.0978,31.0389],[121.0959,31.0405],[121.0931,31.0407],[121.0962,31.0448],[121.0903,31.0481],[121.0899,31.0519],[121.0872,31.0529],[121.0859,31.0502],[121.081,31.0569],[121.0844,31.0588],[121.0865,31.0612],[121.0859,31.0628],[121.0882,31.0647],[121.0929,31.0645],[121.0945,31.0619],[121.093,31.0584],[121.0946,31.0563],[121.0983,31.0566],[121.1011,31.0536],[121.1018,31.0573],[121.1084,31.0579],[121.1086,31.0566],[121.1182,31.0561],[121.118,31.0584],[121.1207,31.0573],[121.1259,31.0574],[121.1278,31.0598],[121.1264,31.0598],[121.1262,31.0666],[121.1222,31.0672],[121.1215,31.0702],[121.1184,31.0759],[121.1171,31.0756],[121.1126,31.0776],[121.1073,31.0821],[121.1029,31.0802],[121.1007,31.0809],[121.0994,31.0859],[121.1008,31.0887],[121.0976,31.0935],[121.0995,31.0942],[121.0999,31.0966],[121.098,31.0993],[121.1006,31.0984],[121.1038,31.1005],[121.1036,31.1026],[121.1088,31.1072],[121.1126,31.1119],[121.1144,31.1098],[121.1161,31.111],[121.1177,31.1089],[121.121,31.1077],[121.1255,31.1034],[121.1277,31.1033],[121.1307,31.1005],[121.1319,31.102],[121.1333,31.0991],[121.1358,31.0981],[121.1416,31.0987],[121.1419,31.0969],[121.1445,31.0975],[121.1459,31.094],[121.1495,31.0953],[121.1512,31.0917],[121.1529,31.092],[121.1535,31.0901],[121.1552,31.0905],[121.1554,31.0932],[121.1567,31.0932],[121.1568,31.0989],[121.1543,31.0989],[121.1544,31.1018],[121.1596,31.1005],[121.1655,31.1014],[121.1652,31.1043],[121.1668,31.1043],[121.1665,31.1083],[121.1706,31.1078],[121.1705,31.1091],[121.1745,31.1085],[121.173,31.1141],[121.1752,31.1152],[121.1743,31.1179],[121.1764,31.119],[121.1788,31.1171],[121.1838,31.1187],[121.1839,31.1243],[121.1818,31.1243],[121.1818,31.127],[121.1803,31.1274],[121.1799,31.1319],[121.1817,31.1318],[121.182,31.1435],[121.1947,31.1382],[121.1997,31.1396],[121.2016,31.1409],[121.2003,31.1378],[121.2062,31.1383],[121.2083,31.1357],[121.2206,31.1384],[121.228,31.1391],[121.2217,31.1199],[121.2213,31.1151],[121.2241,31.1151],[121.2339,31.1173],[121.2358,31.119],[121.2368,31.1257],[121.2398,31.1262],[121.2445,31.1254],[121.2453,31.1293],[121.2393,31.13],[121.2455,31.1308],[121.247,31.1342],[121.258,31.1324],[121.258,31.1271],[121.2616,31.1272],[121.2606,31.1323],[121.2636,31.1354],[121.2656,31.1348],[121.2657,31.1364],[121.281,31.1333],[121.2875,31.14],[121.2842,31.1426],[121.2818,31.142],[121.2793,31.1457],[121.277,31.1442],[121.2764,31.1459],[121.2787,31.1483],[121.2778,31.1523],[121.2803,31.1505],[121.2838,31.1508],[121.2831,31.1522],[121.2854,31.1535],[121.2871,31.1523],[121.2954,31.1539],[121.3162,31.1602],[121.3181,31.1576],[121.3209,31.1585],[121.3225,31.1624],[121.3239,31.1629],[121.3186,31.1703],[121.318,31.1736],[121.3163,31.1768],[121.3086,31.1884],[121.2975,31.2014],[121.2948,31.2031],[121.2924,31.2025],[121.2921,31.2006],[121.2873,31.1963],[121.284,31.1944],[121.2774,31.1936],[121.2667,31.2033],[121.2648,31.2033],[121.2631,31.2057],[121.2647,31.2067],[121.2638,31.2089],[121.2594,31.2128],[121.2612,31.2151],[121.2597,31.2181],[121.2575,31.2202],[121.2582,31.2228],[121.2566,31.2263],[121.258,31.2269],[121.2572,31.2307],[121.2542,31.2331],[121.2528,31.237],[121.2511,31.2382],[121.2497,31.2365],[121.2479,31.2409],[121.2414,31.2402],[121.2399,31.2411],[121.2417,31.2473],[121.2459,31.2488],[121.2473,31.2533],[121.2542,31.2587],[121.2468,31.2584],[121.2466,31.2598],[121.2423,31.2594],[121.2377,31.2621],[121.2291,31.2627],[121.2292,31.2617],[121.2235,31.2605],[121.2239,31.259],[121.2202,31.2574],[121.2213,31.2563],[121.2142,31.2544],[121.2126,31.2598],[121.2098,31.2608],[121.2098,31.258],[121.2085,31.2575],[121.2064,31.2601],[121.2029,31.2571],[121.2031,31.2558],[121.1998,31.2552],[121.1961,31.2534],[121.1963,31.2512],[121.1934,31.2515],[121.193,31.2536],[121.1884,31.2548],[121.1864,31.2523],[121.1839,31.2522],[121.1815,31.2544],[121.1793,31.2534],[121.1788,31.2559],[121.1768,31.2546],[121.1743,31.2569],[121.1714,31.2549],[121.1689,31.2562],[121.1704,31.2591],[121.168,31.2596],[121.1677,31.2639],[121.1626,31.2692],[121.1611,31.2676],[121.1578,31.2705],[121.1555,31.2661],[121.1518,31.2676],[121.1539,31.2721],[121.1537,31.2766]]]}},{"type":"Feature","id":"Fengxian","properties":{"id":"Fengxian","name":"Fengxian","name_full":"奉贤区","name_ja":"奉贤区","center_lonlat":[121.5625,30.898]},"geometry":{"type":"Polygon","coordinates":[[[121.5705,30.9983],[121.5615,30.9956],[121.5559,30.9952],[121.5562,30.9934],[121.5533,30.993],[121.5528,30.9889],[121.5495,30.9883],[121.5461,30.9931],[121.5433,30.9942],[121.5382,30.9931],[121.5378,30.9947],[121.5345,30.9958],[121.532,30.9948],[121.5286,30.9959],[121.5229,30.9998],[121.5203,30.9994],[121.5201,31.0026],[121.5221,31.0022],[121.5209,31.0044],[121.517,31.0076],[121.5104,31.0046],[121.5079,31.0047],[121.5031,31.0027],[121.4988,30.9994],[121.4989,30.9982],[121.4959,30.9983],[121.4919,31.01],[121.4929,31.0128],[121.4892,31.0149],[121.4764,31.0133],[121.4714,31.0119],[121.4656,31.0088],[121.4599,31.0074],[121.4483,31.0075],[121.4408,31.0058],[121.4368,31.0041],[121.4314,30.9992],[121.424,30.9945],[121.4093,30.9902],[121.3943,30.9882],[121.3587,30.9779],[121.36,30.9763],[121.3614,30.9704],[121.361,30.9656],[121.3629,30.9595],[121.3625,30.9489],[121.3655,30.9472],[121.3639,30.9452],[121.3611,30.944],[121.3627,30.9348],[121.3593,30.9351],[121.3574,30.9336],[121.3547,30.9335],[121.3557,30.9321],[121.3512,30.9306],[121.3522,30.9282],[121.3522,30.9238],[121.3554,30.9214],[121.3561,30.9197],[121.3551,30.9163],[121.3518,30.9132],[121.3567,30.9086],[121.3584,30.9006],[121.3605,30.8978],[121.3612,30.893],[121.3633,30.887],[121.3672,30.8867],[121.3702,30.8839],[121.3718,30.8837],[121.3775,30.88],[121.3822,30.879],[121.3815,30.8766],[121.3828,30.8745],[121.3829,30.869],[121.3819,30.8673],[121.3819,30.8638],[121.384,30.8635],[121.3835,30.8592],[121.3844,30.8562],[121.3837,30.8518],[121.3854,30.8432],[121.3791,30.8432],[121.3793,30.8401],[121.3838,30.8339],[121.3876,30.8328],[121.3876,30.8299],[121.3917,30.8299],[121.3921,30.8278],[121.397,30.828],[121.3974,30.8333],[121.3997,30.8342],[121.4042,30.8338],[121.4036,30.8299],[121.4007,30.8301],[121.401,30.8274],[121.4048,30.8231],[121.4124,30.8215],[121.4142,30.8218],[121.4155,30.8199],[121.4151,30.8158],[121.4193,30.816],[121.4205,30.8198],[121.426,30.8187],[121.437,30.8181],[121.4416,30.8068],[121.4454,30.8049],[121.4467,30.8056],[121.4788,30.7563],[121.5172,30.7754],[121.5528,30.7894],[121.6013,30.8051],[121.6484,30.8162],[121.6812,30.8184],[121.7938,30.8169],[121.7693,30.8504],[121.7681,30.8633],[121.7716,30.8754],[121.7725,30.8757],[121.7731,30.8806],[121.7767,30.881],[121.776,30.8864],[121.7788,30.8946],[121.7783,30.9038],[121.779,30.9101],[121.7802,30.9118],[121.7811,30.9176],[121.7777,30.9267],[121.7778,30.931],[121.7734,30.9316],[121.773,30.9339],[121.7698,30.9353],[121.768,30.9383],[121.7664,30.9365],[121.7638,30.9369],[121.7643,30.9385],[121.7615,30.9384],[121.7617,30.9401],[121.7645,30.9418],[121.7609,30.9446],[121.761,30.9476],[121.7593,30.9492],[121.752,30.9527],[121.7492,30.953],[121.7479,30.9519],[121.7437,30.9566],[121.74,30.9567],[121.7369,30.9587],[121.7379,30.9606],[121.7319,30.9678],[121.7128,30.9809],[121.7055,30.985],[121.693,30.9893],[121.6881,30.9901],[121.6836,30.9898],[121.6746,30.9918],[121.6733,30.9898],[121.6695,30.9916],[121.6545,30.9933],[121.6206,30.9927],[121.6177,30.9957],[121.6147,31.0013],[121.6041,31.0011],[121.5956,31.002],[121.5947,31.0007],[121.5843,31.0008],[121.5829,30.9995],[121.5767,30.9995],[121.5705,30.9983]]]}},{"type":"Feature","id":"Chongming","properties":{"id":"Chongming","name":"Chongming","name_full":"崇明区","name_ja":"崇明区","center_lonlat":[121.5687,31.6357]},"geometry":{"type":"MultiPolygon","coordinates":[[[[121.9752,31.617],[121.8178,31.652],[121.7153,31.6738],[121.6426,31.6975],[121.6333,31.6962],[121.6273,31.6978],[121.6118,31.7043],[121.6027,31.7069],[121.6009,31.707],[121.5997,31.7031],[121.5932,31.7054],[121.5923,31.7065],[121.5785,31.7105],[121.565,31.7167],[121.5514,31.7274],[121.5495,31.727],[121.5401,31.7333],[121.5394,31.7355],[121.5284,31.7383],[121.5267,31.7402],[121.513,31.7437],[121.4986,31.7533],[121.4877,31.7534],[121.4768,31.7561],[121.4641,31.7571],[121.4556,31.7593],[121.4454,31.7643],[121.4315,31.7693],[121.4209,31.7796],[121.4109,31.7956],[121.4163,31.7976],[121.4115,31.8063],[121.4055,31.8098],[121.385,31.8335],[121.3693,31.8433],[121.3231,31.8685],[121.3159,31.8715],[121.3104,31.8725],[121.3019,31.8727],[121.2912,31.871],[121.2813,31.869],[121.2656,31.8641],[121.2421,31.8534],[121.2253,31.847],[121.2003,31.8351],[121.1815,31.8204],[121.1492,31.7873],[121.1185,31.7591],[121.1421,31.7553],[121.1453,31.7539],[121.2891,31.6163],[121.3456,31.5717],[121.3722,31.5532],[121.3955,31.5854],[121.4035,31.59],[121.4148,31.5911],[121.4342,31.5903],[121.4712,31.5744],[121.5477,31.5311],[121.6088,31.5069],[121.6177,31.5037],[121.6258,31.5018],[121.6706,31.4942],[121.6829,31.4911],[121.7634,31.4582],[121.8192,31.4382],[121.8342,31.434],[121.8454,31.4319],[121.8578,31.43],[121.8906,31.4288],[121.9011,31.4301],[121.9181,31.4347],[121.9673,31.4567],[121.9818,31.4641],[121.9917,31.4768],[121.9957,31.4931],[121.9939,31.5119],[121.9882,31.5296],[121.9752,31.617]]],[[[121.8018,31.357],[121.8037,31.3284],[121.8066,31.3242],[121.8132,31.3162],[121.8226,31.3074],[121.832,31.3017],[121.8336,31.2997],[121.8406,31.2954],[121.8529,31.2924],[121.8567,31.2928],[121.8608,31.2949],[121.866,31.2949],[121.9008,31.2912],[121.9323,31.2831],[121.9758,31.28],[122.0164,31.2823],[122.072,31.2668],[122.0873,31.2575],[122.0978,31.2557],[122.1052,31.2621],[122.1227,31.3072],[122.122,31.3154],[122.1167,31.3212],[122.078,31.3235],[122.0411,31.3238],[122.0016,31.3292],[121.9517,31.3373],[121.8704,31.366],[121.8585,31.3694],[121.8456,31.3746],[121.8318,31.3755],[121.8284,31.3764],[121.8247,31.3786],[121.8174,31.3806],[121.8035,31.3812],[121.7939,31.3805],[121.7928,31.3776],[121.8006,31.364],[121.8018,31.357]]],[[[121.7789,31.3102],[121.7855,31.3111],[121.791,31.3084],[121.7967,31.3074],[121.7988,31.3104],[121.7959,31.33],[121.7965,31.3354],[121.796,31.3456],[121.793,31.3551],[121.7924,31.3633],[121.7909,31.3671],[121.7806,31.3802],[121.7741,31.387],[121.7694,31.3907],[121.7609,31.3952],[121.7422,31.4072],[121.7237,31.4124],[121.7083,31.4197],[121.6972,31.424],[121.6738,31.4277],[121.6063,31.4494],[121.5856,31.4547],[121.583,31.4563],[121.5758,31.4638],[121.5673,31.4835],[121.5624,31.4864],[121.5499,31.4897],[121.5169,31.4943],[121.5135,31.4934],[121.5094,31.4898],[121.5091,31.4854],[121.5101,31.4826],[121.5168,31.4773],[121.5295,31.4712],[121.5433,31.4624],[121.5723,31.4361],[121.6014,31.4219],[121.7279,31.3548],[121.7447,31.3437],[121.7512,31.3378],[121.7608,31.3203],[121.7643,31.3153],[121.771,31.3117],[121.7789,31.3102]]],[[[121.627,31.445],[121.634,31.4459],[121.6363,31.4499],[121.635,31.453],[121.6316,31.4568],[121.6137,31.4713],[121.6086,31.4744],[121.5953,31.4783],[121.5869,31.4795],[121.5771,31.4793],[121.5758,31.4782],[121.5761,31.4748],[121.5779,31.4725],[121.5863,31.4641],[121.5942,31.4586],[121.6169,31.4466],[121.627,31.445]]],[[[122.242,31.4191],[122.2436,31.4178],[122.2471,31.4193],[122.2454,31.4213],[122.242,31.4191]]]]}}]}
