{"type":"FeatureCollection","features":[{"type":"Feature","id":"Mitte","properties":{"id":"Mitte","name":"Mitte","name_full":"Mitte","name_ja":"Mitte","center_lonlat":[13.366,52.5329]},"geometry":{"type":"Polygon","coordinates":[[[13.4198,52.5255],[13.4265,52.5233],[13.4255,52.5228],[13.4292,52.5212],[13.4284,52.5196],[13.4269,52.5197],[13.4259,52.5184],[13.4268,52.518],[13.4228,52.5122],[13.4292,52.5089],[13.4272,52.5057],[13.424,52.505],[13.4194,52.5056],[13.4176,52.5042],[13.4149,52.5049],[13.4141,52.504],[13.4115,52.5049],[13.41,52.5069],[13.408,52.5062],[13.4053,52.5082],[13.4044,52.5078],[13.4002,52.5094],[13.3992,52.5081],[13.3961,52.5079],[13.3789,52.5069],[13.3776,52.508],[13.375,52.5034],[13.3736,52.5042],[13.3695,52.4989],[13.3625,52.4997],[13.3414,52.5049],[13.339,52.5051],[13.3386,52.5059],[13.3355,52.5058],[13.3338,52.5067],[13.3348,52.5087],[13.33,52.5101],[13.334,52.5117],[13.3306,52.5128],[13.3359,52.5133],[13.3361,52.5144],[13.3342,52.5168],[13.3318,52.5168],[13.3296,52.518],[13.3294,52.5217],[13.3272,52.5236],[13.3241,52.5247],[13.3211,52.5245],[13.3189,52.5231],[13.3183,52.5207],[13.3166,52.521],[13.3134,52.5303],[13.3167,52.5309],[13.3175,52.5324],[13.313,52.5319],[13.3114,52.5356],[13.3291,52.5382],[13.3271,52.5397],[13.3273,52.5414],[13.318,52.5482],[13.3015,52.5488],[13.3097,52.5577],[13.3247,52.5607],[13.3268,52.5624],[13.3319,52.5617],[13.3371,52.5645],[13.3491,52.5619],[13.3597,52.5619],[13.3601,52.5605],[13.3645,52.5612],[13.3651,52.5581],[13.3667,52.5582],[13.3708,52.5605],[13.3771,52.5607],[13.3786,52.5662],[13.3842,52.5677],[13.3884,52.5677],[13.3932,52.5646],[13.3964,52.5609],[13.3981,52.5528],[13.3968,52.5507],[13.3989,52.5509],[13.4035,52.5402],[13.4047,52.5402],[13.4075,52.5347],[13.4084,52.5343],[13.4064,52.5323],[13.4056,52.5297],[13.4154,52.5275],[13.4198,52.5255]]]}},{"type":"Feature","id":"Friedrichshain-Kreuzberg","properties":{"id":"Friedrichshain-Kreuzberg","name":"Friedrichshain-Kreuzberg","name_full":"Friedrichshain-Kreuzberg","name_ja":"Friedrichshain-Kreuzberg","center_lonlat":[13.4284,52.5038]},"geometry":{"type":"Polygon","coordinates":[[[13.4198,52.5255],[13.4236,52.5279],[13.4375,52.5295],[13.4387,52.5288],[13.4423,52.531],[13.4472,52.5264],[13.4522,52.5278],[13.4562,52.5225],[13.4553,52.5213],[13.4627,52.5199],[13.4721,52.5207],[13.4742,52.5191],[13.4765,52.5152],[13.4777,52.5147],[13.4759,52.5149],[13.4754,52.5134],[13.4763,52.5104],[13.474,52.5081],[13.4739,52.5081],[13.474,52.5081],[13.4704,52.5041],[13.4686,52.4997],[13.4731,52.499],[13.4837,52.4919],[13.4915,52.4883],[13.4907,52.4874],[13.4876,52.4878],[13.483,52.486],[13.4821,52.4874],[13.4806,52.4879],[13.4792,52.4879],[13.4786,52.487],[13.4761,52.49],[13.4642,52.4937],[13.4632,52.4942],[13.4634,52.4954],[13.4541,52.4976],[13.4506,52.4969],[13.4507,52.4969],[13.4506,52.4969],[13.4477,52.4947],[13.4451,52.4945],[13.4397,52.4899],[13.4204,52.4959],[13.4254,52.4881],[13.4237,52.4864],[13.4079,52.4889],[13.4085,52.4871],[13.4075,52.4861],[13.4044,52.485],[13.4015,52.485],[13.4004,52.4837],[13.3942,52.4839],[13.3943,52.4858],[13.3863,52.4858],[13.3863,52.4849],[13.3716,52.4849],[13.374,52.4852],[13.3742,52.4877],[13.3735,52.488],[13.3754,52.4894],[13.3764,52.4917],[13.3682,52.4933],[13.3695,52.4989],[13.3736,52.5042],[13.375,52.5034],[13.3776,52.508],[13.3789,52.5069],[13.3961,52.5079],[13.3992,52.5081],[13.4002,52.5094],[13.4044,52.5078],[13.4053,52.5082],[13.408,52.5062],[13.41,52.5069],[13.4115,52.5049],[13.4141,52.504],[13.4149,52.5049],[13.4176,52.5042],[13.4194,52.5056],[13.424,52.505],[13.4272,52.5057],[13.4292,52.5089],[13.4228,52.5122],[13.4268,52.518],[13.4259,52.5184],[13.4269,52.5197],[13.4284,52.5196],[13.4292,52.5212],[13.4255,52.5228],[13.4265,52.5233],[13.4198,52.5255]]]}},{"type":"Feature","id":"Pankow","properties":{"id":"Pankow","name":"Pankow","name_full":"Pankow","name_ja":"Pankow","center_lonlat":[13.4403,52.5973]},"geometry":{"type":"Polygon","coordinates":[[[13.367,52.6254],[13.3669,52.6259],[13.3695,52.626],[13.3707,52.6274],[13.3764,52.6284],[13.3758,52.629],[13.3767,52.6289],[13.377,52.6299],[13.3759,52.6316],[13.3787,52.6343],[13.3794,52.6339],[13.3829,52.6352],[13.3818,52.6363],[13.3851,52.6362],[13.3884,52.6374],[13.3883,52.6374],[13.3884,52.6374],[13.3897,52.6389],[13.3895,52.6388],[13.3897,52.6389],[13.3897,52.6393],[13.3895,52.6394],[13.3897,52.6393],[13.3905,52.64],[13.3896,52.6415],[13.3904,52.6415],[13.3902,52.6424],[13.3922,52.6436],[13.3916,52.6436],[13.3915,52.6436],[13.3916,52.6436],[13.3922,52.6436],[13.3917,52.6443],[13.3927,52.6453],[13.3926,52.6454],[13.3927,52.6453],[13.3945,52.6475],[13.3964,52.6474],[13.3979,52.6483],[13.4079,52.6427],[13.4123,52.6435],[13.4147,52.6424],[13.4143,52.6412],[13.4166,52.6394],[13.4244,52.6355],[13.4276,52.6375],[13.4327,52.6374],[13.4343,52.638],[13.4334,52.6415],[13.434,52.6443],[13.4398,52.6453],[13.4408,52.6493],[13.4494,52.65],[13.4521,52.6497],[13.4521,52.6487],[13.4597,52.6481],[13.4657,52.6512],[13.4699,52.6518],[13.4739,52.6541],[13.4743,52.6558],[13.4735,52.6565],[13.4624,52.6575],[13.4539,52.6619],[13.4508,52.6627],[13.4596,52.669],[13.4659,52.6671],[13.4755,52.675],[13.4772,52.6739],[13.4795,52.6755],[13.4801,52.6749],[13.4748,52.6688],[13.4757,52.6663],[13.4884,52.6705],[13.4854,52.6594],[13.4908,52.6548],[13.5047,52.6496],[13.5128,52.6454],[13.5193,52.6469],[13.5204,52.6449],[13.523,52.645],[13.5218,52.6388],[13.5178,52.6296],[13.5059,52.6257],[13.5055,52.62],[13.5047,52.6196],[13.5048,52.6196],[13.5055,52.6199],[13.5034,52.619],[13.5048,52.6196],[13.5047,52.6196],[13.5033,52.619],[13.4988,52.6113],[13.4967,52.605],[13.499,52.6052],[13.5052,52.5965],[13.4879,52.5895],[13.4855,52.5874],[13.4836,52.5841],[13.4804,52.5834],[13.4797,52.5812],[13.4805,52.5777],[13.4795,52.5727],[13.4828,52.5726],[13.4826,52.5716],[13.4876,52.5692],[13.4836,52.5661],[13.4842,52.566],[13.4837,52.5644],[13.4861,52.5642],[13.4854,52.5615],[13.4909,52.5601],[13.4953,52.5556],[13.4957,52.5539],[13.4944,52.5508],[13.4861,52.5524],[13.482,52.5495],[13.4793,52.5493],[13.4805,52.5481],[13.4796,52.5475],[13.467,52.5481],[13.4698,52.5405],[13.4673,52.5385],[13.4664,52.5367],[13.4687,52.5347],[13.4634,52.5326],[13.4607,52.5294],[13.4562,52.5283],[13.4588,52.5259],[13.4676,52.5237],[13.4721,52.5207],[13.4627,52.5199],[13.4553,52.5213],[13.4562,52.5225],[13.4522,52.5278],[13.4472,52.5264],[13.4423,52.531],[13.4387,52.5288],[13.4375,52.5295],[13.4236,52.5279],[13.4198,52.5255],[13.4154,52.5275],[13.4056,52.5297],[13.4064,52.5323],[13.4084,52.5343],[13.4075,52.5347],[13.4047,52.5402],[13.4035,52.5402],[13.3989,52.5509],[13.3968,52.5507],[13.3981,52.5528],[13.3964,52.5609],[13.3932,52.5646],[13.3884,52.5677],[13.3893,52.5682],[13.3878,52.5691],[13.3883,52.5695],[13.3843,52.5717],[13.3797,52.5725],[13.3761,52.5751],[13.3476,52.5901],[13.3606,52.5913],[13.3709,52.5998],[13.3762,52.6077],[13.3763,52.6111],[13.3752,52.6142],[13.367,52.6254]]]}},{"type":"Feature","id":"Charlottenburg-Wilmersdorf","properties":{"id":"Charlottenburg-Wilmersdorf","name":"Charlottenburg-Wilmersdorf","name_full":"Charlottenburg-Wilmersdorf","name_ja":"Charlottenburg-Wilmersdorf","center_lonlat":[13.2703,52.501]},"geometry":{"type":"Polygon","coordinates":[[[13.3414,52.5049],[13.337,52.5007],[13.339,52.4994],[13.3373,52.4961],[13.3371,52.4781],[13.3329,52.4774],[13.3204,52.4775],[13.3202,52.4705],[13.3203,52.4705],[13.3202,52.4705],[13.3203,52.47],[13.3202,52.47],[13.3203,52.47],[13.32,52.467],[13.3105,52.4669],[13.3092,52.4677],[13.3063,52.4674],[13.2891,52.4705],[13.2811,52.4688],[13.2643,52.467],[13.2616,52.4678],[13.2591,52.4665],[13.2526,52.4667],[13.2315,52.4708],[13.2115,52.4694],[13.2035,52.4705],[13.1992,52.4687],[13.1979,52.4691],[13.197,52.4712],[13.1882,52.4718],[13.1872,52.4787],[13.1902,52.4826],[13.1898,52.4843],[13.1871,52.4871],[13.1866,52.4893],[13.1895,52.4929],[13.1898,52.4975],[13.1952,52.4997],[13.1991,52.4999],[13.2097,52.5029],[13.2088,52.505],[13.2115,52.509],[13.2156,52.5092],[13.215,52.5095],[13.2164,52.5117],[13.2182,52.5132],[13.2195,52.514],[13.2209,52.5136],[13.2198,52.5158],[13.2194,52.5196],[13.2193,52.5196],[13.2194,52.5196],[13.2196,52.5223],[13.222,52.5262],[13.2273,52.5256],[13.24,52.5261],[13.2475,52.5243],[13.2471,52.5274],[13.2463,52.5277],[13.2467,52.5283],[13.2502,52.5271],[13.2587,52.5272],[13.2652,52.5288],[13.2744,52.5288],[13.2776,52.5301],[13.2808,52.5301],[13.2822,52.5341],[13.2763,52.5356],[13.2751,52.5378],[13.2723,52.5389],[13.2734,52.5429],[13.27,52.5485],[13.2703,52.5493],[13.3015,52.5488],[13.318,52.5482],[13.3273,52.5414],[13.3271,52.5397],[13.3291,52.5382],[13.3114,52.5356],[13.313,52.5319],[13.3175,52.5324],[13.3167,52.5309],[13.3134,52.5303],[13.3166,52.521],[13.3183,52.5207],[13.3189,52.5231],[13.3211,52.5245],[13.3241,52.5247],[13.3272,52.5236],[13.3294,52.5217],[13.3296,52.518],[13.3318,52.5168],[13.3342,52.5168],[13.3361,52.5144],[13.3359,52.5133],[13.3306,52.5128],[13.334,52.5117],[13.33,52.5101],[13.3348,52.5087],[13.3338,52.5067],[13.3355,52.5058],[13.3386,52.5059],[13.339,52.5051],[13.3414,52.5049]]]}},{"type":"Feature","id":"Spandau","properties":{"id":"Spandau","name":"Spandau","name_full":"Spandau","name_ja":"Spandau","center_lonlat":[13.1788,52.5258]},"geometry":{"type":"Polygon","coordinates":[[[13.2174,52.5875],[13.2152,52.5839],[13.2181,52.5815],[13.218,52.5785],[13.2189,52.5772],[13.2251,52.5731],[13.227,52.5678],[13.2287,52.5661],[13.2279,52.564],[13.2283,52.5631],[13.2389,52.557],[13.2542,52.5501],[13.2703,52.5493],[13.27,52.5485],[13.2734,52.5429],[13.2723,52.5389],[13.2751,52.5378],[13.2763,52.5356],[13.2822,52.5341],[13.2808,52.5301],[13.2776,52.5301],[13.2744,52.5288],[13.2652,52.5288],[13.2587,52.5272],[13.2502,52.5271],[13.2467,52.5283],[13.2463,52.5277],[13.2471,52.5274],[13.2475,52.5243],[13.24,52.5261],[13.2273,52.5256],[13.222,52.5262],[13.2196,52.5223],[13.2194,52.5196],[13.2193,52.5196],[13.2194,52.5196],[13.2198,52.5158],[13.2209,52.5136],[13.2195,52.514],[13.2182,52.5132],[13.2164,52.5117],[13.215,52.5095],[13.2156,52.5092],[13.2115,52.509],[13.2088,52.505],[13.2097,52.5029],[13.1991,52.4999],[13.1952,52.4997],[13.1898,52.4975],[13.1895,52.4929],[13.1866,52.4893],[13.1871,52.4871],[13.1898,52.4843],[13.1902,52.4826],[13.1872,52.4787],[13.1882,52.4718],[13.1853,52.4626],[13.1774,52.4559],[13.1708,52.4561],[13.1617,52.4521],[13.1545,52.4466],[13.1485,52.4434],[13.1333,52.4421],[13.1317,52.4411],[13.1241,52.4407],[13.1231,52.4396],[13.1199,52.4415],[13.119,52.444],[13.1154,52.4457],[13.1093,52.4506],[13.1117,52.4536],[13.1127,52.4577],[13.1125,52.4589],[13.1105,52.46],[13.1114,52.4633],[13.1106,52.4657],[13.114,52.4686],[13.1138,52.4698],[13.1164,52.4719],[13.1176,52.4746],[13.1177,52.4773],[13.1263,52.4787],[13.1283,52.4798],[13.1496,52.4963],[13.1688,52.5092],[13.1456,52.5175],[13.1444,52.5192],[13.1427,52.5198],[13.127,52.5175],[13.1174,52.5171],[13.1197,52.531],[13.1233,52.537],[13.1256,52.5435],[13.1251,52.5442],[13.1305,52.556],[13.1363,52.5527],[13.1442,52.5521],[13.1459,52.5529],[13.1473,52.5558],[13.1458,52.5606],[13.1471,52.5615],[13.1475,52.5644],[13.1499,52.5668],[13.1513,52.57],[13.1524,52.5705],[13.1535,52.5733],[13.1532,52.5789],[13.1496,52.5834],[13.1392,52.5804],[13.1325,52.5796],[13.1303,52.583],[13.128,52.5831],[13.1294,52.5859],[13.1284,52.586],[13.129,52.5873],[13.1327,52.5869],[13.1435,52.5897],[13.1493,52.5919],[13.1571,52.5976],[13.1644,52.5988],[13.1737,52.5953],[13.1834,52.5937],[13.1917,52.5902],[13.2003,52.5888],[13.2067,52.5866],[13.2073,52.5884],[13.2174,52.5875]]]}},{"type":"Feature","id":"Steglitz-Zehlendorf","properties":{"id":"Steglitz-Zehlendorf","name":"Steglitz-Zehlendorf","name_full":"Steglitz-Zehlendorf","name_ja":"Steglitz-Zehlendorf","center_lonlat":[13.2391,52.4348]},"geometry":{"type":"Polygon","coordinates":[[[13.3433,52.4117],[13.3185,52.4024],[13.3121,52.3991],[13.2959,52.4145],[13.297,52.415],[13.2968,52.4163],[13.2755,52.4051],[13.267,52.4043],[13.2571,52.4064],[13.2498,52.405],[13.2487,52.4084],[13.2487,52.4133],[13.246,52.4212],[13.2331,52.4203],[13.2251,52.4211],[13.2097,52.4168],[13.1972,52.4155],[13.1592,52.4028],[13.1593,52.3999],[13.1578,52.3963],[13.1712,52.3978],[13.1718,52.3956],[13.1688,52.3944],[13.1589,52.3939],[13.1457,52.3955],[13.1439,52.3961],[13.1432,52.3972],[13.1418,52.3971],[13.1347,52.3936],[13.1304,52.3904],[13.134,52.3887],[13.1332,52.3873],[13.1313,52.3872],[13.1267,52.3896],[13.1273,52.3916],[13.1312,52.3918],[13.1302,52.3905],[13.139,52.396],[13.1357,52.3962],[13.1351,52.3974],[13.1381,52.3979],[13.1335,52.3994],[13.1285,52.3969],[13.1248,52.3969],[13.1177,52.4021],[13.1118,52.404],[13.1083,52.4073],[13.1093,52.4082],[13.1064,52.4087],[13.1069,52.4095],[13.1106,52.4094],[13.1104,52.4104],[13.1118,52.4105],[13.1115,52.4114],[13.1101,52.4113],[13.1095,52.413],[13.1071,52.4132],[13.1072,52.41],[13.1063,52.4096],[13.101,52.4105],[13.1008,52.4138],[13.0964,52.4131],[13.099,52.411],[13.0974,52.4094],[13.0908,52.4116],[13.0883,52.4196],[13.0958,52.422],[13.0993,52.4253],[13.1046,52.424],[13.1054,52.4253],[13.1128,52.4292],[13.1121,52.4323],[13.1139,52.433],[13.1172,52.4362],[13.1221,52.4379],[13.1232,52.4387],[13.1231,52.4396],[13.1241,52.4407],[13.1317,52.4411],[13.1333,52.4421],[13.1485,52.4434],[13.1545,52.4466],[13.1617,52.4521],[13.1708,52.4561],[13.1774,52.4559],[13.1853,52.4626],[13.1882,52.4718],[13.197,52.4712],[13.1979,52.4691],[13.1992,52.4687],[13.2035,52.4705],[13.2115,52.4694],[13.2315,52.4708],[13.2526,52.4667],[13.2591,52.4665],[13.2616,52.4678],[13.2643,52.467],[13.2811,52.4688],[13.2891,52.4705],[13.3063,52.4674],[13.3092,52.4677],[13.3105,52.4669],[13.32,52.467],[13.3282,52.4643],[13.3294,52.4656],[13.3306,52.4652],[13.3348,52.4662],[13.3363,52.4674],[13.3388,52.4666],[13.3389,52.4656],[13.345,52.4617],[13.3477,52.4589],[13.349,52.4588],[13.3491,52.4568],[13.3529,52.4571],[13.3542,52.4556],[13.3561,52.4556],[13.3716,52.4291],[13.3679,52.4276],[13.3635,52.4215],[13.3427,52.4142],[13.3433,52.4117]]]}},{"type":"Feature","id":"Tempelhof-Schöneberg","properties":{"id":"Tempelhof-Schöneberg","name":"Tempelhof-Schöneberg","name_full":"Tempelhof-Schöneberg","name_ja":"Tempelhof-Schöneberg","center_lonlat":[13.3808,52.4412]},"geometry":{"type":"Polygon","coordinates":[[[13.32,52.467],[13.3203,52.47],[13.3202,52.47],[13.3203,52.47],[13.3202,52.4705],[13.3203,52.4705],[13.3202,52.4705],[13.3204,52.4775],[13.3329,52.4774],[13.3371,52.4781],[13.3373,52.4961],[13.339,52.4994],[13.337,52.5007],[13.3414,52.5049],[13.3625,52.4997],[13.3695,52.4989],[13.3682,52.4933],[13.3764,52.4917],[13.3754,52.4894],[13.3735,52.488],[13.3742,52.4877],[13.374,52.4852],[13.3716,52.4849],[13.3863,52.4849],[13.3863,52.4858],[13.3943,52.4858],[13.3942,52.4839],[13.4004,52.4837],[13.4015,52.485],[13.4044,52.485],[13.4075,52.4861],[13.4061,52.481],[13.4066,52.4782],[13.4109,52.4777],[13.4135,52.4787],[13.4169,52.4654],[13.4216,52.4658],[13.422,52.4615],[13.423,52.4613],[13.4232,52.4604],[13.4214,52.4607],[13.4206,52.4594],[13.4266,52.4567],[13.4212,52.4568],[13.4177,52.4522],[13.4168,52.4522],[13.4104,52.4361],[13.407,52.4304],[13.4058,52.4265],[13.4026,52.4222],[13.4055,52.4218],[13.4048,52.42],[13.4001,52.4188],[13.3995,52.418],[13.4025,52.4127],[13.4109,52.4133],[13.4196,52.4102],[13.4187,52.41],[13.4184,52.4071],[13.4275,52.3858],[13.4208,52.3761],[13.3884,52.3779],[13.3873,52.3886],[13.3704,52.3884],[13.372,52.3938],[13.3593,52.3985],[13.3444,52.4068],[13.3431,52.4077],[13.3433,52.4117],[13.3427,52.4142],[13.3635,52.4215],[13.3679,52.4276],[13.3716,52.4291],[13.3561,52.4556],[13.3542,52.4556],[13.3529,52.4571],[13.3491,52.4568],[13.349,52.4588],[13.3477,52.4589],[13.345,52.4617],[13.3389,52.4656],[13.3388,52.4666],[13.3363,52.4674],[13.3348,52.4662],[13.3306,52.4652],[13.3294,52.4656],[13.3282,52.4643],[13.32,52.467]]]}},{"type":"Feature","id":"Neukölln","properties":{"id":"Neukölln","name":"Neukölln","name_full":"Neukölln","name_ja":"Neukölln","center_lonlat":[13.455,52.4411]},"geometry":{"type":"Polygon","coordinates":[[[13.4075,52.4861],[13.4085,52.4871],[13.4079,52.4889],[13.4237,52.4864],[13.4254,52.4881],[13.4204,52.4959],[13.4397,52.4899],[13.4444,52.4875],[13.4468,52.489],[13.4561,52.4843],[13.4583,52.4857],[13.4706,52.4769],[13.4699,52.4731],[13.4785,52.465],[13.475,52.4588],[13.457,52.4592],[13.4639,52.4502],[13.5071,52.4291],[13.5127,52.4274],[13.5205,52.4266],[13.5184,52.4229],[13.5222,52.4183],[13.523,52.4154],[13.5223,52.4144],[13.5241,52.4136],[13.5232,52.4127],[13.5235,52.4117],[13.5218,52.4074],[13.517,52.4036],[13.516,52.4018],[13.4798,52.3959],[13.4776,52.4035],[13.468,52.42],[13.4635,52.4211],[13.4547,52.4195],[13.4319,52.4125],[13.4196,52.4102],[13.4109,52.4133],[13.4025,52.4127],[13.3995,52.418],[13.4001,52.4188],[13.4048,52.42],[13.4055,52.4218],[13.4026,52.4222],[13.4058,52.4265],[13.407,52.4304],[13.4104,52.4361],[13.4168,52.4522],[13.4177,52.4522],[13.4212,52.4568],[13.4266,52.4567],[13.4206,52.4594],[13.4214,52.4607],[13.4232,52.4604],[13.423,52.4613],[13.422,52.4615],[13.4216,52.4658],[13.4169,52.4654],[13.4135,52.4787],[13.4109,52.4777],[13.4066,52.4782],[13.4061,52.481],[13.4075,52.4861]]]}},{"type":"Feature","id":"Treptow-Köpenick","properties":{"id":"Treptow-Köpenick","name":"Treptow-Köpenick","name_full":"Treptow-Köpenick","name_ja":"Treptow-Köpenick","center_lonlat":[13.6114,52.4296]},"geometry":{"type":"Polygon","coordinates":[[[13.6885,52.3856],[13.6886,52.3856],[13.6885,52.3856],[13.688,52.3861],[13.6876,52.3852],[13.6868,52.3853],[13.6861,52.384],[13.6952,52.381],[13.6988,52.3815],[13.6972,52.3774],[13.7004,52.3775],[13.7,52.3756],[13.6928,52.3691],[13.6931,52.368],[13.6913,52.3678],[13.6922,52.3672],[13.69,52.3679],[13.6872,52.3673],[13.6843,52.369],[13.6811,52.3696],[13.6712,52.3665],[13.6666,52.3623],[13.6657,52.3596],[13.6662,52.3581],[13.6636,52.3574],[13.662,52.3542],[13.6571,52.3516],[13.6561,52.3478],[13.6511,52.3426],[13.6517,52.3395],[13.6477,52.3382],[13.6455,52.3388],[13.6445,52.3399],[13.6428,52.3399],[13.6372,52.3447],[13.6363,52.3468],[13.6367,52.3481],[13.6378,52.3482],[13.6381,52.3571],[13.6391,52.361],[13.6411,52.3631],[13.6461,52.3653],[13.6472,52.367],[13.6468,52.3702],[13.6421,52.3708],[13.6428,52.3726],[13.6427,52.3775],[13.6332,52.3762],[13.6285,52.3814],[13.6058,52.3736],[13.6068,52.3754],[13.6055,52.378],[13.6064,52.3791],[13.5994,52.3854],[13.5961,52.386],[13.5949,52.3872],[13.5953,52.3885],[13.5936,52.3902],[13.5942,52.3924],[13.5928,52.3938],[13.5642,52.3881],[13.5355,52.389],[13.5348,52.3908],[13.5352,52.3937],[13.5367,52.3972],[13.5363,52.3978],[13.5372,52.398],[13.5384,52.4006],[13.5297,52.3973],[13.5218,52.4006],[13.516,52.4018],[13.517,52.4036],[13.5218,52.4074],[13.5235,52.4117],[13.5232,52.4127],[13.5241,52.4136],[13.5223,52.4144],[13.523,52.4154],[13.5222,52.4183],[13.5184,52.4229],[13.5205,52.4266],[13.5127,52.4274],[13.5071,52.4291],[13.4639,52.4502],[13.457,52.4592],[13.475,52.4588],[13.4785,52.465],[13.4699,52.4731],[13.4706,52.4769],[13.4583,52.4857],[13.4561,52.4843],[13.4468,52.489],[13.4444,52.4875],[13.4397,52.4899],[13.4451,52.4945],[13.4477,52.4947],[13.4506,52.4969],[13.4507,52.4969],[13.4506,52.4969],[13.4541,52.4976],[13.4634,52.4954],[13.4632,52.4942],[13.4642,52.4937],[13.4761,52.49],[13.4786,52.487],[13.4792,52.4879],[13.4806,52.4879],[13.4821,52.4874],[13.483,52.486],[13.4876,52.4878],[13.4907,52.4874],[13.4927,52.4859],[13.4942,52.4831],[13.5019,52.4826],[13.5043,52.4781],[13.5078,52.4749],[13.5148,52.4757],[13.5203,52.4741],[13.5216,52.4752],[13.5308,52.4679],[13.5398,52.475],[13.5473,52.4734],[13.5526,52.4737],[13.559,52.4732],[13.5666,52.4737],[13.5739,52.4766],[13.574,52.4766],[13.5739,52.4766],[13.5751,52.4795],[13.5797,52.481],[13.5819,52.48],[13.5864,52.4811],[13.6019,52.4733],[13.6084,52.4729],[13.6082,52.4711],[13.6115,52.4706],[13.6151,52.4697],[13.6171,52.4712],[13.6212,52.4705],[13.621,52.4685],[13.622,52.468],[13.6214,52.4666],[13.6229,52.4665],[13.6234,52.4667],[13.6229,52.4688],[13.6252,52.4687],[13.6247,52.4691],[13.6253,52.4737],[13.6282,52.4735],[13.6432,52.4792],[13.6479,52.4788],[13.6615,52.474],[13.6672,52.4743],[13.6786,52.4693],[13.6828,52.4661],[13.6954,52.4642],[13.6975,52.4607],[13.6987,52.4565],[13.6983,52.4553],[13.7046,52.4548],[13.7052,52.4556],[13.7053,52.4599],[13.7034,52.4601],[13.7021,52.4644],[13.6991,52.4683],[13.7013,52.4682],[13.7114,52.4633],[13.716,52.4629],[13.7206,52.4568],[13.7291,52.4508],[13.7349,52.4507],[13.7378,52.4496],[13.7492,52.4487],[13.7533,52.4477],[13.7554,52.446],[13.7564,52.4462],[13.7544,52.4433],[13.7571,52.443],[13.7553,52.4384],[13.7609,52.4379],[13.76,52.4362],[13.7545,52.4367],[13.7563,52.4416],[13.7505,52.4415],[13.7441,52.4381],[13.7429,52.4329],[13.7314,52.4338],[13.7228,52.4371],[13.7306,52.4337],[13.7401,52.4325],[13.7389,52.4289],[13.7417,52.4282],[13.7408,52.4264],[13.7375,52.4266],[13.731,52.4205],[13.7314,52.4192],[13.7298,52.4163],[13.7341,52.4108],[13.7369,52.4097],[13.7387,52.4072],[13.7354,52.406],[13.7341,52.4035],[13.7343,52.4021],[13.7302,52.3996],[13.7273,52.4002],[13.7227,52.3982],[13.7158,52.3997],[13.7089,52.3954],[13.7026,52.3934],[13.7002,52.3911],[13.6988,52.3906],[13.699,52.3919],[13.6983,52.3917],[13.6973,52.3897],[13.6909,52.3856],[13.6885,52.3856]]]}},{"type":"Feature","id":"Marzahn-Hellersdorf","properties":{"id":"Marzahn-Hellersdorf","name":"Marzahn-Hellersdorf","name_full":"Marzahn-Hellersdorf","name_ja":"Marzahn-Hellersdorf","center_lonlat":[13.5787,52.5211]},"geometry":{"type":"Polygon","coordinates":[[[13.5314,52.5389],[13.5313,52.5389],[13.5314,52.5389],[13.5323,52.5393],[13.5282,52.5494],[13.5283,52.5494],[13.5282,52.5494],[13.5254,52.5553],[13.534,52.5604],[13.5411,52.566],[13.5456,52.5678],[13.5646,52.5722],[13.5665,52.5729],[13.5677,52.5745],[13.5686,52.5731],[13.5751,52.5738],[13.577,52.5729],[13.5779,52.5711],[13.5815,52.5711],[13.5834,52.5677],[13.5831,52.5658],[13.5844,52.5599],[13.5876,52.5556],[13.5878,52.5533],[13.5864,52.5498],[13.6187,52.5442],[13.6372,52.5423],[13.6376,52.5409],[13.6346,52.5379],[13.6275,52.5375],[13.6248,52.5381],[13.6257,52.534],[13.6248,52.5336],[13.6257,52.5302],[13.6569,52.5298],[13.6585,52.526],[13.6414,52.5179],[13.6364,52.5147],[13.6323,52.5107],[13.6289,52.5056],[13.6268,52.4991],[13.624,52.4942],[13.6297,52.493],[13.6149,52.4808],[13.6135,52.4756],[13.6165,52.4748],[13.6115,52.4706],[13.6082,52.4711],[13.6084,52.4729],[13.6019,52.4733],[13.5864,52.4811],[13.5819,52.48],[13.5797,52.481],[13.5751,52.4795],[13.5739,52.4766],[13.574,52.4766],[13.5739,52.4766],[13.5666,52.4737],[13.559,52.4732],[13.5526,52.4737],[13.552,52.4737],[13.5509,52.477],[13.5479,52.4798],[13.5479,52.4825],[13.5501,52.4855],[13.5448,52.4932],[13.5441,52.4962],[13.5421,52.4983],[13.5395,52.4985],[13.5352,52.5055],[13.5363,52.5064],[13.5362,52.51],[13.5379,52.5099],[13.5376,52.5118],[13.534,52.5136],[13.5186,52.5139],[13.5194,52.525],[13.5187,52.5327],[13.5169,52.5355],[13.5237,52.5364],[13.5314,52.5389]]]}},{"type":"Feature","id":"Lichtenberg","properties":{"id":"Lichtenberg","name":"Lichtenberg","name_full":"Lichtenberg","name_ja":"Lichtenberg","center_lonlat":[13.5097,52.5348]},"geometry":{"type":"Polygon","coordinates":[[[13.4907,52.4874],[13.4915,52.4883],[13.4837,52.4919],[13.4731,52.499],[13.4686,52.4997],[13.4704,52.5041],[13.474,52.5081],[13.4739,52.5081],[13.474,52.5081],[13.4763,52.5104],[13.4754,52.5134],[13.4759,52.5149],[13.4777,52.5147],[13.4765,52.5152],[13.4742,52.5191],[13.4721,52.5207],[13.4676,52.5237],[13.4588,52.5259],[13.4562,52.5283],[13.4607,52.5294],[13.4634,52.5326],[13.4687,52.5347],[13.4664,52.5367],[13.4673,52.5385],[13.4698,52.5405],[13.467,52.5481],[13.4796,52.5475],[13.4805,52.5481],[13.4793,52.5493],[13.482,52.5495],[13.4861,52.5524],[13.4944,52.5508],[13.4957,52.5539],[13.4953,52.5556],[13.4909,52.5601],[13.4854,52.5615],[13.4861,52.5642],[13.4837,52.5644],[13.4842,52.566],[13.4836,52.5661],[13.4876,52.5692],[13.4826,52.5716],[13.4828,52.5726],[13.4795,52.5727],[13.4805,52.5777],[13.4797,52.5812],[13.4804,52.5834],[13.4836,52.5841],[13.4855,52.5874],[13.4879,52.5895],[13.5052,52.5965],[13.5081,52.5922],[13.5229,52.5928],[13.5472,52.588],[13.5619,52.5804],[13.5677,52.5745],[13.5665,52.5729],[13.5646,52.5722],[13.5456,52.5678],[13.5411,52.566],[13.534,52.5604],[13.5254,52.5553],[13.5282,52.5494],[13.5283,52.5494],[13.5282,52.5494],[13.5323,52.5393],[13.5314,52.5389],[13.5313,52.5389],[13.5314,52.5389],[13.5237,52.5364],[13.5169,52.5355],[13.5187,52.5327],[13.5194,52.525],[13.5186,52.5139],[13.534,52.5136],[13.5376,52.5118],[13.5379,52.5099],[13.5362,52.51],[13.5363,52.5064],[13.5352,52.5055],[13.5395,52.4985],[13.5421,52.4983],[13.5441,52.4962],[13.5448,52.4932],[13.5501,52.4855],[13.5479,52.4825],[13.5479,52.4798],[13.5509,52.477],[13.552,52.4737],[13.5526,52.4737],[13.5473,52.4734],[13.5398,52.475],[13.5308,52.4679],[13.5216,52.4752],[13.5203,52.4741],[13.5148,52.4757],[13.5078,52.4749],[13.5043,52.4781],[13.5019,52.4826],[13.4942,52.4831],[13.4927,52.4859],[13.4907,52.4874]]]}},{"type":"Feature","id":"Reinickendorf","properties":{"id":"Reinickendorf","name":"Reinickendorf","name_full":"Reinickendorf","name_ja":"Reinickendorf","center_lonlat":[13.2914,52.5957]},"geometry":{"type":"Polygon","coordinates":[[[13.3884,52.5677],[13.3842,52.5677],[13.3786,52.5662],[13.3771,52.5607],[13.3708,52.5605],[13.3667,52.5582],[13.3651,52.5581],[13.3645,52.5612],[13.3601,52.5605],[13.3597,52.5619],[13.3491,52.5619],[13.3371,52.5645],[13.3319,52.5617],[13.3268,52.5624],[13.3247,52.5607],[13.3097,52.5577],[13.3015,52.5488],[13.2703,52.5493],[13.2542,52.5501],[13.2389,52.557],[13.2283,52.5631],[13.2279,52.564],[13.2287,52.5661],[13.227,52.5678],[13.2251,52.5731],[13.2189,52.5772],[13.218,52.5785],[13.2181,52.5815],[13.2152,52.5839],[13.2174,52.5875],[13.2193,52.5914],[13.2189,52.5924],[13.2082,52.599],[13.2023,52.6042],[13.2016,52.6065],[13.2069,52.6091],[13.2148,52.6193],[13.2168,52.6202],[13.2198,52.6244],[13.2205,52.6283],[13.2251,52.6284],[13.2298,52.6274],[13.2424,52.6283],[13.2459,52.6273],[13.2604,52.6277],[13.2642,52.6269],[13.2652,52.6345],[13.2624,52.6391],[13.2622,52.6407],[13.2702,52.6397],[13.2838,52.6411],[13.2851,52.6526],[13.282,52.6527],[13.2828,52.6607],[13.2945,52.6593],[13.3071,52.6596],[13.3101,52.6574],[13.3004,52.6535],[13.3082,52.644],[13.3092,52.6439],[13.3094,52.6428],[13.3082,52.6402],[13.3063,52.6396],[13.3071,52.6376],[13.3058,52.6374],[13.3095,52.6326],[13.3102,52.6306],[13.3097,52.6301],[13.3103,52.63],[13.3026,52.6272],[13.313,52.6282],[13.3285,52.6255],[13.3367,52.6226],[13.3386,52.6233],[13.3511,52.6239],[13.3515,52.6227],[13.3545,52.6236],[13.3577,52.623],[13.3597,52.6241],[13.367,52.6254],[13.3752,52.6142],[13.3763,52.6111],[13.3762,52.6077],[13.3709,52.5998],[13.3606,52.5913],[13.3476,52.5901],[13.3761,52.5751],[13.3797,52.5725],[13.3843,52.5717],[13.3883,52.5695],[13.3878,52.5691],[13.3893,52.5682],[13.3884,52.5677]]]}}]}
