{"type":"FeatureCollection","features":[{"type":"Feature","id":"Castro Pretorio","properties":{"id":"Castro Pretorio","name":"Castro Pretorio","name_full":"Castro Pretorio","name_ja":"Castro Pretorio","center_lonlat":[12.5018,41.9037]},"geometry":{"type":"Polygon","coordinates":[[[12.4907,41.9019],[12.4941,41.9043],[12.5015,41.9094],[12.5046,41.9081],[12.5083,41.9091],[12.5108,41.9041],[12.5071,41.9028],[12.5109,41.8967],[12.5008,41.9034],[12.4982,41.9018],[12.5016,41.8998],[12.4996,41.8976],[12.4907,41.9019]]]}},{"type":"Feature","id":"Monti","properties":{"id":"Monti","name":"Monti","name_full":"Monti","name_ja":"Monti","center_lonlat":[12.4957,41.8926]},"geometry":{"type":"Polygon","coordinates":[[[12.4907,41.9019],[12.4996,41.8976],[12.4993,41.8968],[12.5047,41.8872],[12.5089,41.8859],[12.5032,41.8833],[12.498,41.8825],[12.4966,41.8833],[12.4956,41.8853],[12.4996,41.8865],[12.503,41.8874],[12.4981,41.889],[12.4939,41.8903],[12.4918,41.8911],[12.4911,41.8906],[12.4833,41.8956],[12.487,41.8963],[12.4871,41.8996],[12.4907,41.9019]]]}},{"type":"Feature","id":"Esquilino","properties":{"id":"Esquilino","name":"Esquilino","name_full":"Esquilino","name_ja":"Esquilino","center_lonlat":[12.5076,41.8933]},"geometry":{"type":"Polygon","coordinates":[[[12.4996,41.8976],[12.5016,41.8998],[12.4982,41.9018],[12.5008,41.9034],[12.5109,41.8967],[12.5158,41.8929],[12.5148,41.8909],[12.5189,41.8891],[12.5178,41.8878],[12.5089,41.8859],[12.5047,41.8872],[12.4993,41.8968],[12.4996,41.8976]]]}},{"type":"Feature","id":"Sallustiano","properties":{"id":"Sallustiano","name":"Sallustiano","name_full":"Sallustiano","name_ja":"Sallustiano","center_lonlat":[12.4959,41.9075]},"geometry":{"type":"Polygon","coordinates":[[[12.5015,41.9094],[12.4941,41.9043],[12.4909,41.9059],[12.4924,41.9074],[12.492,41.908],[12.497,41.9093],[12.4984,41.9109],[12.5015,41.9094]]]}},{"type":"Feature","id":"Testaccio","properties":{"id":"Testaccio","name":"Testaccio","name_full":"Testaccio","name_ja":"Testaccio","center_lonlat":[12.4753,41.8775]},"geometry":{"type":"Polygon","coordinates":[[[12.4817,41.8765],[12.4747,41.8731],[12.4723,41.8729],[12.4704,41.8776],[12.4709,41.8793],[12.4759,41.883],[12.4792,41.8787],[12.4817,41.8765]]]}},{"type":"Feature","id":"Ludovisi","properties":{"id":"Ludovisi","name":"Ludovisi","name_full":"Ludovisi","name_ja":"Ludovisi","center_lonlat":[12.491,41.9082]},"geometry":{"type":"Polygon","coordinates":[[[12.4984,41.9109],[12.497,41.9093],[12.492,41.908],[12.4924,41.9074],[12.4909,41.9059],[12.4887,41.9041],[12.4875,41.9056],[12.4859,41.9051],[12.4862,41.9073],[12.4883,41.9094],[12.4921,41.9107],[12.4984,41.9109]]]}},{"type":"Feature","id":"Trevi","properties":{"id":"Trevi","name":"Trevi","name_full":"Trevi","name_ja":"Trevi","center_lonlat":[12.4863,41.9007]},"geometry":{"type":"Polygon","coordinates":[[[12.4941,41.9043],[12.4907,41.9019],[12.4871,41.8996],[12.487,41.8963],[12.4833,41.8956],[12.4822,41.8966],[12.4811,41.8994],[12.4808,41.9001],[12.4819,41.9003],[12.4813,41.9023],[12.488,41.9035],[12.4887,41.9041],[12.4909,41.9059],[12.4941,41.9043]]]}},{"type":"Feature","id":"Colonna","properties":{"id":"Colonna","name":"Colonna","name_full":"Colonna","name_ja":"Colonna","center_lonlat":[12.4812,41.9023]},"geometry":{"type":"Polygon","coordinates":[[[12.4859,41.9051],[12.4875,41.9056],[12.4887,41.9041],[12.488,41.9035],[12.4813,41.9023],[12.4819,41.9003],[12.4808,41.9001],[12.4811,41.8994],[12.4781,41.899],[12.4769,41.8991],[12.4766,41.9],[12.4766,41.901],[12.4763,41.9012],[12.4765,41.9012],[12.4769,41.9012],[12.478,41.9037],[12.483,41.9046],[12.4835,41.9038],[12.4857,41.904],[12.4859,41.9051]]]}},{"type":"Feature","id":"Campo Marzio","properties":{"id":"Campo Marzio","name":"Campo Marzio","name_full":"Campo Marzio","name_ja":"Campo Marzio","center_lonlat":[12.4793,41.9074]},"geometry":{"type":"Polygon","coordinates":[[[12.4883,41.9094],[12.4862,41.9073],[12.4859,41.9051],[12.4857,41.904],[12.4835,41.9038],[12.483,41.9046],[12.478,41.9037],[12.4769,41.9012],[12.4763,41.9012],[12.4743,41.9018],[12.4734,41.9029],[12.4753,41.9059],[12.4725,41.9109],[12.481,41.913],[12.4817,41.9104],[12.4846,41.9087],[12.4883,41.9094]]]}},{"type":"Feature","id":"Pigna","properties":{"id":"Pigna","name":"Pigna","name_full":"Pigna","name_ja":"Pigna","center_lonlat":[12.4791,41.897]},"geometry":{"type":"Polygon","coordinates":[[[12.4822,41.8966],[12.4824,41.8954],[12.4798,41.895],[12.4763,41.8949],[12.4765,41.8995],[12.4766,41.9],[12.4769,41.8991],[12.4781,41.899],[12.4811,41.8994],[12.4822,41.8966]]]}},{"type":"Feature","id":"Sant'Eustachio","properties":{"id":"Sant'Eustachio","name":"Sant'Eustachio","name_full":"Sant'Eustachio","name_ja":"Sant'Eustachio","center_lonlat":[12.4752,41.898]},"geometry":{"type":"Polygon","coordinates":[[[12.4766,41.9],[12.4765,41.8995],[12.4763,41.8949],[12.4764,41.894],[12.4749,41.8941],[12.4742,41.8943],[12.4742,41.8972],[12.474,41.8981],[12.4738,41.9003],[12.4737,41.9004],[12.4743,41.9018],[12.4763,41.9012],[12.4765,41.9012],[12.4766,41.901],[12.4766,41.9]]]}},{"type":"Feature","id":"Ponte","properties":{"id":"Ponte","name":"Ponte","name_full":"Ponte","name_ja":"Ponte","center_lonlat":[12.469,41.9002]},"geometry":{"type":"Polygon","coordinates":[[[12.4734,41.9029],[12.4743,41.9018],[12.4737,41.9004],[12.4726,41.9005],[12.4723,41.8992],[12.4686,41.8993],[12.4676,41.8977],[12.4659,41.8968],[12.4642,41.8993],[12.4643,41.9004],[12.4734,41.9029]]]}},{"type":"Feature","id":"Parione","properties":{"id":"Parione","name":"Parione","name_full":"Parione","name_ja":"Parione","center_lonlat":[12.4718,41.8977]},"geometry":{"type":"Polygon","coordinates":[[[12.4676,41.8977],[12.4686,41.8993],[12.4723,41.8992],[12.4726,41.9005],[12.4737,41.9004],[12.4738,41.9003],[12.474,41.8981],[12.4742,41.8972],[12.4742,41.8943],[12.4695,41.8972],[12.4684,41.8974],[12.4676,41.8977]]]}},{"type":"Feature","id":"Regola","properties":{"id":"Regola","name":"Regola","name_full":"Regola","name_ja":"Regola","center_lonlat":[12.4715,41.8945]},"geometry":{"type":"Polygon","coordinates":[[[12.4659,41.8968],[12.4676,41.8977],[12.4684,41.8974],[12.4695,41.8972],[12.4742,41.8943],[12.4749,41.8941],[12.4764,41.894],[12.4764,41.8937],[12.4762,41.8934],[12.4768,41.8932],[12.4765,41.8919],[12.4721,41.8921],[12.4659,41.8968]]]}},{"type":"Feature","id":"Sant'Angelo","properties":{"id":"Sant'Angelo","name":"Sant'Angelo","name_full":"Sant'Angelo","name_ja":"Sant'Angelo","center_lonlat":[12.4783,41.8933]},"geometry":{"type":"Polygon","coordinates":[[[12.4765,41.8919],[12.4768,41.8932],[12.4762,41.8934],[12.4764,41.8937],[12.4764,41.894],[12.4763,41.8949],[12.4798,41.895],[12.4808,41.8945],[12.4792,41.8935],[12.4805,41.8924],[12.4796,41.8913],[12.4787,41.8915],[12.4785,41.8914],[12.4765,41.8919]]]}},{"type":"Feature","id":"Campitelli","properties":{"id":"Campitelli","name":"Campitelli","name_full":"Campitelli","name_ja":"Campitelli","center_lonlat":[12.4857,41.8907]},"geometry":{"type":"Polygon","coordinates":[[[12.4911,41.8906],[12.4892,41.8848],[12.4832,41.8882],[12.4842,41.8905],[12.4833,41.8907],[12.4825,41.891],[12.4805,41.8924],[12.4792,41.8935],[12.4808,41.8945],[12.4798,41.895],[12.4824,41.8954],[12.4822,41.8966],[12.4833,41.8956],[12.4911,41.8906]]]}},{"type":"Feature","id":"Ripa","properties":{"id":"Ripa","name":"Ripa","name_full":"Ripa","name_ja":"Ripa","center_lonlat":[12.4818,41.885]},"geometry":{"type":"Polygon","coordinates":[[[12.4785,41.8914],[12.4787,41.8915],[12.4796,41.8913],[12.4805,41.8924],[12.4825,41.891],[12.4833,41.8907],[12.4842,41.8905],[12.4832,41.8882],[12.4892,41.8848],[12.4889,41.8844],[12.4837,41.8803],[12.4792,41.8787],[12.4759,41.883],[12.4798,41.8868],[12.4802,41.8889],[12.4785,41.8912],[12.4792,41.8895],[12.4743,41.8911],[12.4785,41.8914]]]}},{"type":"Feature","id":"Celio","properties":{"id":"Celio","name":"Celio","name_full":"Celio","name_ja":"Celio","center_lonlat":[12.4958,41.884]},"geometry":{"type":"Polygon","coordinates":[[[12.4911,41.8906],[12.4918,41.8911],[12.4939,41.8903],[12.4981,41.889],[12.503,41.8874],[12.4996,41.8865],[12.4956,41.8853],[12.4966,41.8833],[12.498,41.8825],[12.4987,41.8824],[12.5001,41.8794],[12.5026,41.8775],[12.5022,41.876],[12.5035,41.8748],[12.5015,41.8734],[12.5012,41.8744],[12.4998,41.8764],[12.4959,41.8799],[12.4889,41.8844],[12.4892,41.8848],[12.4911,41.8906]]]}},{"type":"Feature","id":"San Saba","properties":{"id":"San Saba","name":"San Saba","name_full":"San Saba","name_ja":"San Saba","center_lonlat":[12.4909,41.8782]},"geometry":{"type":"Polygon","coordinates":[[[12.5015,41.8734],[12.4927,41.8738],[12.4882,41.8777],[12.4855,41.8762],[12.4817,41.8765],[12.4792,41.8787],[12.4837,41.8803],[12.4889,41.8844],[12.4959,41.8799],[12.4998,41.8764],[12.5012,41.8744],[12.5015,41.8734]]]}},{"type":"Feature","id":"Trastevere","properties":{"id":"Trastevere","name":"Trastevere","name_full":"Trastevere","name_ja":"Trastevere","center_lonlat":[12.4669,41.8899]},"geometry":{"type":"Polygon","coordinates":[[[12.4626,41.8996],[12.4655,41.8958],[12.4718,41.8909],[12.4785,41.8891],[12.4785,41.8868],[12.4746,41.8837],[12.4722,41.8844],[12.4674,41.8835],[12.4658,41.8824],[12.4638,41.8826],[12.4613,41.8844],[12.4616,41.8884],[12.4603,41.889],[12.461,41.8898],[12.4607,41.891],[12.4579,41.8985],[12.4606,41.8999],[12.4626,41.8996]]]}},{"type":"Feature","id":"Prati","properties":{"id":"Prati","name":"Prati","name_full":"Prati","name_ja":"Prati","center_lonlat":[12.465,41.9085]},"geometry":{"type":"Polygon","coordinates":[[[12.4682,41.9027],[12.4687,41.9043],[12.4662,41.9055],[12.4638,41.904],[12.4588,41.9058],[12.4588,41.9064],[12.4567,41.9062],[12.4558,41.9064],[12.4549,41.9105],[12.47,41.9141],[12.4737,41.9059],[12.4729,41.904],[12.4682,41.9027]]]}},{"type":"Feature","id":"Borgo","properties":{"id":"Borgo","name":"Borgo","name_full":"Borgo","name_ja":"Borgo","center_lonlat":[12.4618,41.9026]},"geometry":{"type":"Polygon","coordinates":[[[12.4579,41.8985],[12.4565,41.9013],[12.4579,41.9012],[12.4586,41.9023],[12.4577,41.9036],[12.4578,41.906],[12.4567,41.9062],[12.4588,41.9064],[12.4588,41.9058],[12.4638,41.904],[12.4662,41.9055],[12.4687,41.9043],[12.4682,41.9027],[12.4651,41.9024],[12.4626,41.8996],[12.4606,41.8999],[12.4579,41.8985]]]}}]}
