{"type":"FeatureCollection","features":[{"type":"Feature","id":"Miyakojima","properties":{"id":"Miyakojima","code":27102,"name":"Miyakojima","name_full":"大阪市都島区","name_ja":"大阪市都島区","name_short_ja":"都島","center_lonlat":[135.5271,34.7125]},"geometry":{"type":"Polygon","coordinates":[[[135.5148,34.7206],[135.5216,34.7139],[135.5178,34.7072],[135.5226,34.6984],[135.5201,34.6919],[135.5348,34.6955],[135.5364,34.7081],[135.5409,34.7114],[135.5259,34.7334],[135.5182,34.7292],[135.5148,34.7206]]]}},{"type":"Feature","id":"Fukushima","properties":{"id":"Fukushima","code":27103,"name":"Fukushima","name_full":"大阪市福島区","name_ja":"大阪市福島区","name_short_ja":"福島","center_lonlat":[135.4744,34.6936]},"geometry":{"type":"Polygon","coordinates":[[[135.4721,34.6806],[135.4812,34.6846],[135.491,34.6937],[135.4744,34.707],[135.4739,34.7067],[135.4619,34.6997],[135.4625,34.6881],[135.4721,34.6806]]]}},{"type":"Feature","id":"Konohana","properties":{"id":"Konohana","code":27104,"name":"Konohana","name_full":"大阪市此花区","name_ja":"大阪市此花区","name_short_ja":"此花","center_lonlat":[135.4403,34.6773]},"geometry":{"type":"MultiPolygon","coordinates":[[[[135.4619,34.6997],[135.4393,34.6892],[135.4221,34.6833],[135.4167,34.6732],[135.4181,34.6595],[135.4263,34.6557],[135.4406,34.6632],[135.4494,34.673],[135.4619,34.6775],[135.4721,34.6806],[135.4625,34.6881],[135.4619,34.6997]]],[[[135.3796,34.6609],[135.3729,34.6521],[135.3789,34.6432],[135.3928,34.6418],[135.4045,34.6537],[135.3997,34.6569],[135.3796,34.6609]]],[[[135.4026,34.6732],[135.388,34.6678],[135.3879,34.6627],[135.4098,34.659],[135.4094,34.6688],[135.4026,34.6732]]],[[[135.3494,34.6201],[135.3586,34.6276],[135.3533,34.6324],[135.344,34.6227],[135.3494,34.6201]]]]}},{"type":"Feature","id":"Nishi","properties":{"id":"Nishi","code":27106,"name":"Nishi","name_full":"大阪市西区","name_ja":"大阪市西区","name_short_ja":"西区","center_lonlat":[135.4838,34.6775]},"geometry":{"type":"Polygon","coordinates":[[[135.4721,34.6806],[135.4619,34.6775],[135.4742,34.6669],[135.4805,34.6681],[135.4967,34.669],[135.4975,34.6929],[135.4812,34.6846],[135.4721,34.6806]]]}},{"type":"Feature","id":"Minato","properties":{"id":"Minato","code":27107,"name":"Minato","name_full":"大阪市港区","name_ja":"大阪市港区","name_short_ja":"港区","center_lonlat":[135.4509,34.6601]},"geometry":{"type":"Polygon","coordinates":[[[135.4263,34.6557],[135.4281,34.6512],[135.4441,34.6445],[135.4504,34.6459],[135.4563,34.648],[135.4641,34.6588],[135.4742,34.6669],[135.4619,34.6775],[135.4494,34.673],[135.4406,34.6632],[135.4263,34.6557]]]}},{"type":"Feature","id":"Taisho","properties":{"id":"Taisho","code":27108,"name":"Taisho","name_full":"大阪市大正区","name_ja":"大阪市大正区","name_short_ja":"大正","center_lonlat":[135.4662,34.6441]},"geometry":{"type":"Polygon","coordinates":[[[135.4742,34.6669],[135.4641,34.6588],[135.4563,34.648],[135.4504,34.6459],[135.4485,34.6265],[135.4541,34.6247],[135.4737,34.6295],[135.4789,34.6403],[135.4811,34.655],[135.4805,34.6681],[135.4742,34.6669]]]}},{"type":"Feature","id":"Tennoji","properties":{"id":"Tennoji","code":27109,"name":"Tennoji","name_full":"大阪市天王寺区","name_ja":"大阪市天王寺区","name_short_ja":"天王寺","center_lonlat":[135.5203,34.6598]},"geometry":{"type":"Polygon","coordinates":[[[135.5335,34.6748],[135.5215,34.6761],[135.519,34.6659],[135.5107,34.6625],[135.5066,34.648],[135.5084,34.6476],[135.5183,34.6451],[135.5245,34.6485],[135.5307,34.6655],[135.5335,34.6748]]]}},{"type":"Feature","id":"Naniwa","properties":{"id":"Naniwa","code":27111,"name":"Naniwa","name_full":"大阪市浪速区","name_ja":"大阪市浪速区","name_short_ja":"浪速","center_lonlat":[135.4951,34.6597]},"geometry":{"type":"Polygon","coordinates":[[[135.4805,34.6681],[135.4811,34.655],[135.4849,34.6564],[135.5066,34.648],[135.5107,34.6625],[135.501,34.6633],[135.4967,34.669],[135.4805,34.6681]]]}},{"type":"Feature","id":"Nishiyodogawa","properties":{"id":"Nishiyodogawa","code":27113,"name":"Nishiyodogawa","name_full":"大阪市西淀川区","name_ja":"大阪市西淀川区","name_short_ja":"西淀川","center_lonlat":[135.4418,34.7041]},"geometry":{"type":"Polygon","coordinates":[[[135.4739,34.7067],[135.4544,34.7271],[135.4456,34.7291],[135.4458,34.7181],[135.4296,34.7113],[135.4246,34.7059],[135.4073,34.6971],[135.4221,34.6833],[135.4393,34.6892],[135.4619,34.6997],[135.4739,34.7067]]]}},{"type":"Feature","id":"Higashiyodogawa","properties":{"id":"Higashiyodogawa","code":27114,"name":"Higashiyodogawa","name_full":"大阪市東淀川区","name_ja":"大阪市東淀川区","name_short_ja":"東淀川","center_lonlat":[135.5305,34.743]},"geometry":{"type":"Polygon","coordinates":[[[135.5259,34.7334],[135.537,34.7329],[135.5517,34.7369],[135.5564,34.7461],[135.5605,34.754],[135.5508,34.7572],[135.5488,34.7685],[135.5324,34.7594],[135.5316,34.7523],[135.5251,34.7478],[135.5158,34.7497],[135.5067,34.7447],[135.502,34.7311],[135.5039,34.7194],[135.5148,34.7206],[135.5182,34.7292],[135.5259,34.7334]]]}},{"type":"Feature","id":"Higashinari","properties":{"id":"Higashinari","code":27115,"name":"Higashinari","name_full":"大阪市東成区","name_ja":"大阪市東成区","name_short_ja":"東成","center_lonlat":[135.5472,34.6728]},"geometry":{"type":"Polygon","coordinates":[[[135.5307,34.6655],[135.5571,34.6643],[135.5622,34.6679],[135.5634,34.678],[135.5536,34.6807],[135.5342,34.6817],[135.5335,34.6748],[135.5307,34.6655]]]}},{"type":"Feature","id":"Ikuno","properties":{"id":"Ikuno","code":27116,"name":"Ikuno","name_full":"大阪市生野区","name_ja":"大阪市生野区","name_short_ja":"生野","center_lonlat":[135.5436,34.6521]},"geometry":{"type":"Polygon","coordinates":[[[135.5245,34.6485],[135.5295,34.6445],[135.5477,34.6364],[135.5611,34.6436],[135.5571,34.6643],[135.5307,34.6655],[135.5245,34.6485]]]}},{"type":"Feature","id":"Asahi","properties":{"id":"Asahi","code":27117,"name":"Asahi","name_full":"大阪市旭区","name_ja":"大阪市旭区","name_short_ja":"旭区","center_lonlat":[135.5474,34.7257]},"geometry":{"type":"Polygon","coordinates":[[[135.5409,34.7114],[135.5468,34.7153],[135.5603,34.715],[135.5676,34.7178],[135.5534,34.7331],[135.5603,34.7368],[135.5564,34.7461],[135.5517,34.7369],[135.537,34.7329],[135.5259,34.7334],[135.5409,34.7114]]]}},{"type":"Feature","id":"Joto","properties":{"id":"Joto","code":27118,"name":"Joto","name_full":"大阪市城東区","name_ja":"大阪市城東区","name_short_ja":"城東","center_lonlat":[135.5487,34.6964]},"geometry":{"type":"Polygon","coordinates":[[[135.5348,34.6955],[135.5342,34.6817],[135.5536,34.6807],[135.5634,34.678],[135.5656,34.6878],[135.5589,34.6877],[135.5603,34.715],[135.5468,34.7153],[135.5409,34.7114],[135.5364,34.7081],[135.5348,34.6955]]]}},{"type":"Feature","id":"Abeno","properties":{"id":"Abeno","code":27119,"name":"Abeno","name_full":"大阪市阿倍野区","name_ja":"大阪市阿倍野区","name_short_ja":"阿倍野","center_lonlat":[135.5135,34.6338]},"geometry":{"type":"Polygon","coordinates":[[[135.5084,34.6476],[135.4964,34.6237],[135.509,34.6223],[135.5162,34.6161],[135.5295,34.6445],[135.5245,34.6485],[135.5183,34.6451],[135.5084,34.6476]]]}},{"type":"Feature","id":"Sumiyoshi","properties":{"id":"Sumiyoshi","code":27120,"name":"Sumiyoshi","name_full":"大阪市住吉区","name_ja":"大阪市住吉区","name_short_ja":"住吉","center_lonlat":[135.5053,34.6055]},"geometry":{"type":"Polygon","coordinates":[[[135.4964,34.6237],[135.4928,34.6234],[135.487,34.596],[135.4953,34.5943],[135.5028,34.5862],[135.522,34.5943],[135.5225,34.5946],[135.5236,34.6095],[135.5162,34.6161],[135.509,34.6223],[135.4964,34.6237]]]}},{"type":"Feature","id":"Higashisumiyoshi","properties":{"id":"Higashisumiyoshi","code":27121,"name":"Higashisumiyoshi","name_full":"大阪市東住吉区","name_ja":"大阪市東住吉区","name_short_ja":"東住吉","center_lonlat":[135.5319,34.6192]},"geometry":{"type":"Polygon","coordinates":[[[135.5295,34.6445],[135.5162,34.6161],[135.5236,34.6095],[135.5225,34.5946],[135.5435,34.5994],[135.5409,34.6095],[135.5407,34.6253],[135.5477,34.6364],[135.5295,34.6445]]]}},{"type":"Feature","id":"Nishinari","properties":{"id":"Nishinari","code":27122,"name":"Nishinari","name_full":"大阪市西成区","name_ja":"大阪市西成区","name_short_ja":"西成","center_lonlat":[135.49,34.6386]},"geometry":{"type":"Polygon","coordinates":[[[135.4737,34.6295],[135.4823,34.6216],[135.4928,34.6234],[135.4964,34.6237],[135.5084,34.6476],[135.5066,34.648],[135.4849,34.6564],[135.4811,34.655],[135.4789,34.6403],[135.4737,34.6295]]]}},{"type":"Feature","id":"Yodogawa","properties":{"id":"Yodogawa","code":27123,"name":"Yodogawa","name_full":"大阪市淀川区","name_ja":"大阪市淀川区","name_short_ja":"淀川","center_lonlat":[135.4823,34.7288]},"geometry":{"type":"Polygon","coordinates":[[[135.4744,34.707],[135.4927,34.7179],[135.5039,34.7194],[135.502,34.7311],[135.5067,34.7447],[135.4952,34.7514],[135.4879,34.7498],[135.4811,34.7381],[135.467,34.7307],[135.4603,34.7331],[135.449,34.7341],[135.4456,34.7291],[135.4544,34.7271],[135.4739,34.7067],[135.4744,34.707]]]}},{"type":"Feature","id":"Tsurumi","properties":{"id":"Tsurumi","code":27124,"name":"Tsurumi","name_full":"大阪市鶴見区","name_ja":"大阪市鶴見区","name_short_ja":"鶴見","center_lonlat":[135.5755,34.7044]},"geometry":{"type":"Polygon","coordinates":[[[135.5603,34.715],[135.5589,34.6877],[135.5656,34.6878],[135.5795,34.6897],[135.5848,34.6986],[135.595,34.7035],[135.5994,34.7147],[135.5898,34.7137],[135.5843,34.7224],[135.5829,34.7174],[135.5676,34.7178],[135.5603,34.715]]]}},{"type":"Feature","id":"Suminoe","properties":{"id":"Suminoe","code":27125,"name":"Suminoe","name_full":"大阪市住之江区","name_ja":"大阪市住之江区","name_short_ja":"住之江","center_lonlat":[135.4651,34.6143]},"geometry":{"type":"MultiPolygon","coordinates":[[[[135.4485,34.6265],[135.4313,34.6218],[135.4376,34.6082],[135.4465,34.6083],[135.487,34.596],[135.4928,34.6234],[135.4823,34.6216],[135.4737,34.6295],[135.4541,34.6247],[135.4485,34.6265]]],[[[135.4169,34.6446],[135.3985,34.6382],[135.4104,34.6259],[135.4221,34.622],[135.4417,34.6292],[135.4393,34.6412],[135.4323,34.644],[135.4169,34.6446]]],[[[135.3897,34.6283],[135.3994,34.6207],[135.4027,34.6121],[135.4204,34.6129],[135.4184,34.6195],[135.3995,34.6207],[135.3897,34.6283]]]]}},{"type":"Feature","id":"Hirano","properties":{"id":"Hirano","code":27126,"name":"Hirano","name_full":"大阪市平野区","name_ja":"大阪市平野区","name_short_ja":"平野","center_lonlat":[135.5607,34.6156]},"geometry":{"type":"Polygon","coordinates":[[[135.5477,34.6364],[135.5407,34.6253],[135.5409,34.6095],[135.5435,34.5994],[135.5436,34.5952],[135.5672,34.5955],[135.5768,34.5931],[135.5869,34.6091],[135.5752,34.6182],[135.5747,34.6322],[135.5611,34.6436],[135.5477,34.6364]]]}},{"type":"Feature","id":"Kita","properties":{"id":"Kita","code":27127,"name":"Kita","name_full":"大阪市北区","name_ja":"大阪市北区","name_short_ja":"北区","center_lonlat":[135.5015,34.7052]},"geometry":{"type":"Polygon","coordinates":[[[135.5148,34.7206],[135.5039,34.7194],[135.4927,34.7179],[135.4744,34.707],[135.491,34.6937],[135.4812,34.6846],[135.4975,34.6929],[135.5201,34.6919],[135.5226,34.6984],[135.5178,34.7072],[135.5216,34.7139],[135.5148,34.7206]]]}},{"type":"Feature","id":"Chuo","properties":{"id":"Chuo","code":27128,"name":"Chuo","name_full":"大阪市中央区","name_ja":"大阪市中央区","name_short_ja":"中央","center_lonlat":[135.5139,34.68]},"geometry":{"type":"Polygon","coordinates":[[[135.5201,34.6919],[135.4975,34.6929],[135.4967,34.669],[135.501,34.6633],[135.5107,34.6625],[135.519,34.6659],[135.5215,34.6761],[135.5335,34.6748],[135.5342,34.6817],[135.5348,34.6955],[135.5201,34.6919]]]}},{"type":"Feature","id":"Sakai","properties":{"id":"Sakai","code":27141,"name":"Sakai","name_full":"堺市堺区","name_ja":"堺市堺区","name_short_ja":"堺区","center_lonlat":[135.4685,34.5818]},"geometry":{"type":"Polygon","coordinates":[[[135.487,34.596],[135.4465,34.6083],[135.4376,34.6082],[135.4466,34.6019],[135.4438,34.5977],[135.4235,34.6049],[135.4255,34.5933],[135.4494,34.587],[135.4533,34.5665],[135.4635,34.5604],[135.4666,34.5516],[135.482,34.5521],[135.4882,34.5569],[135.5028,34.5862],[135.4953,34.5943],[135.487,34.596]]]}},{"type":"Feature","id":"Sakai Naka","properties":{"id":"Sakai Naka","code":27142,"name":"Sakai Naka","name_full":"堺市中区","name_ja":"堺市中区","name_short_ja":"中区","center_lonlat":[135.5041,34.524]},"geometry":{"type":"Polygon","coordinates":[[[135.5082,34.5481],[135.4901,34.5423],[135.4833,34.5411],[135.4711,34.5228],[135.4858,34.5133],[135.5029,34.506],[135.5357,34.5032],[135.5343,34.508],[135.5326,34.5146],[135.5274,34.5248],[135.5092,34.5477],[135.5082,34.5481]]]}},{"type":"Feature","id":"Sakai Higashi","properties":{"id":"Sakai Higashi","code":27143,"name":"Sakai Higashi","name_full":"堺市東区","name_ja":"堺市東区","name_short_ja":"東区","center_lonlat":[135.5334,34.5355]},"geometry":{"type":"Polygon","coordinates":[[[135.5326,34.5146],[135.5407,34.5111],[135.5464,34.518],[135.5531,34.518],[135.555,34.528],[135.5423,34.5306],[135.5396,34.5496],[135.5467,34.5587],[135.5354,34.5578],[135.5286,34.5531],[135.5082,34.5481],[135.5092,34.5477],[135.5274,34.5248],[135.5326,34.5146]]]}},{"type":"Feature","id":"Sakai Nishi","properties":{"id":"Sakai Nishi","code":27144,"name":"Sakai Nishi","name_full":"堺市西区","name_ja":"堺市西区","name_short_ja":"西区","center_lonlat":[135.4498,34.549]},"geometry":{"type":"MultiPolygon","coordinates":[[[[135.4533,34.5665],[135.4453,34.5674],[135.4415,34.5829],[135.4262,34.5896],[135.4294,34.5707],[135.4208,34.5697],[135.4158,34.5937],[135.4021,34.5997],[135.4105,34.5607],[135.4305,34.5608],[135.4448,34.5572],[135.4377,34.5411],[135.4461,34.5369],[135.4482,34.5295],[135.4595,34.5199],[135.4547,34.5151],[135.4607,34.5121],[135.465,34.4997],[135.4811,34.5031],[135.4858,34.5133],[135.4711,34.5228],[135.4833,34.5411],[135.4901,34.5423],[135.482,34.5521],[135.4666,34.5516],[135.4635,34.5604],[135.4533,34.5665]]],[[[135.4364,34.5426],[135.441,34.5543],[135.4307,34.5538],[135.4262,34.5471],[135.4364,34.5426]]]]}},{"type":"Feature","id":"Sakai Minami","properties":{"id":"Sakai Minami","code":27145,"name":"Sakai Minami","name_full":"堺市南区","name_ja":"堺市南区","name_short_ja":"南区","center_lonlat":[135.5068,34.4757]},"geometry":{"type":"Polygon","coordinates":[[[135.4858,34.5133],[135.4811,34.5031],[135.465,34.4997],[135.4662,34.483],[135.4782,34.4709],[135.4785,34.4649],[135.4896,34.4603],[135.4973,34.4516],[135.5008,34.4337],[135.5196,34.4312],[135.522,34.4401],[135.5336,34.4486],[135.5454,34.4623],[135.5421,34.4665],[135.5353,34.4798],[135.535,34.4929],[135.5397,34.5011],[135.5343,34.508],[135.5357,34.5032],[135.5029,34.506],[135.4858,34.5133]]]}},{"type":"Feature","id":"Sakai Kita","properties":{"id":"Sakai Kita","code":27146,"name":"Sakai Kita","name_full":"堺市北区","name_ja":"堺市北区","name_short_ja":"北区","center_lonlat":[135.5126,34.5654]},"geometry":{"type":"Polygon","coordinates":[[[135.5028,34.5862],[135.4882,34.5569],[135.482,34.5521],[135.4901,34.5423],[135.5082,34.5481],[135.5286,34.5531],[135.5354,34.5578],[135.5467,34.5587],[135.5491,34.5599],[135.548,34.5659],[135.5373,34.5656],[135.5318,34.5766],[135.5224,34.5767],[135.522,34.5943],[135.5028,34.5862]]]}},{"type":"Feature","id":"Sakai Mihara","properties":{"id":"Sakai Mihara","code":27147,"name":"Sakai Mihara","name_full":"堺市美原区","name_ja":"堺市美原区","name_short_ja":"美原","center_lonlat":[135.5634,34.5368]},"geometry":{"type":"Polygon","coordinates":[[[135.555,34.528],[135.5629,34.5252],[135.5665,34.5135],[135.5821,34.5107],[135.5822,34.5188],[135.5872,34.5318],[135.5726,34.5484],[135.5672,34.56],[135.5532,34.5539],[135.5491,34.5599],[135.5467,34.5587],[135.5396,34.5496],[135.5423,34.5306],[135.555,34.528]]]}},{"type":"Feature","id":"Kishiwada","properties":{"id":"Kishiwada","code":27202,"name":"Kishiwada","name_full":"岸和田市","name_ja":"岸和田市","name_short_ja":"岸和田","center_lonlat":[135.4156,34.4278]},"geometry":{"type":"MultiPolygon","coordinates":[[[[135.4151,34.4735],[135.3947,34.4888],[135.3709,34.5004],[135.3703,34.4902],[135.3774,34.4865],[135.3743,34.4759],[135.3638,34.4776],[135.3594,34.4598],[135.3696,34.4513],[135.3812,34.4454],[135.3778,34.4381],[135.3851,34.4211],[135.3922,34.4199],[135.4052,34.4049],[135.4109,34.3879],[135.4166,34.3793],[135.4258,34.3759],[135.4343,34.3482],[135.4531,34.3499],[135.4544,34.3587],[135.4625,34.3821],[135.45,34.3907],[135.4544,34.4004],[135.4488,34.4324],[135.4423,34.4421],[135.4404,34.4623],[135.4296,34.4704],[135.4243,34.4663],[135.4151,34.4735]]],[[[135.3548,34.4887],[135.3491,34.4681],[135.3596,34.4737],[135.3529,34.4802],[135.3548,34.4887]]]]}},{"type":"Feature","id":"Toyonaka","properties":{"id":"Toyonaka","code":27203,"name":"Toyonaka","name_full":"豊中市","name_ja":"豊中市","name_short_ja":"豊中","center_lonlat":[135.4729,34.7821]},"geometry":{"type":"Polygon","coordinates":[[[135.4879,34.7498],[135.4885,34.767],[135.4999,34.7766],[135.492,34.7814],[135.4955,34.7957],[135.5049,34.8003],[135.5083,34.8106],[135.4977,34.8249],[135.4928,34.8175],[135.4758,34.8211],[135.4534,34.8072],[135.4481,34.8084],[135.4411,34.7919],[135.4462,34.7753],[135.4447,34.7685],[135.4594,34.752],[135.4603,34.7331],[135.467,34.7307],[135.4811,34.7381],[135.4879,34.7498]]]}},{"type":"Feature","id":"Ikeda","properties":{"id":"Ikeda","code":27204,"name":"Ikeda","name_full":"池田市","name_ja":"池田市","name_short_ja":"池田","center_lonlat":[135.4382,34.8349]},"geometry":{"type":"Polygon","coordinates":[[[135.4375,34.8771],[135.4301,34.8611],[135.4314,34.8564],[135.4186,34.8495],[135.4242,34.8382],[135.4238,34.8299],[135.416,34.8177],[135.4237,34.8021],[135.4291,34.8015],[135.4411,34.7919],[135.4481,34.8084],[135.4492,34.811],[135.4537,34.8428],[135.459,34.846],[135.4593,34.8612],[135.4375,34.8771]]]}},{"type":"Feature","id":"Suita","properties":{"id":"Suita","code":27205,"name":"Suita","name_full":"吹田市","name_ja":"吹田市","name_short_ja":"吹田","center_lonlat":[135.519,34.7852]},"geometry":{"type":"Polygon","coordinates":[[[135.5488,34.7685],[135.5368,34.7865],[135.5519,34.7936],[135.5532,34.8089],[135.53,34.8163],[135.524,34.8262],[135.5124,34.8267],[135.5057,34.8308],[135.4977,34.8249],[135.5083,34.8106],[135.5049,34.8003],[135.4955,34.7957],[135.492,34.7814],[135.4999,34.7766],[135.4885,34.767],[135.4879,34.7498],[135.4952,34.7514],[135.5067,34.7447],[135.5158,34.7497],[135.5251,34.7478],[135.5316,34.7523],[135.5324,34.7594],[135.5488,34.7685]]]}},{"type":"Feature","id":"Izumiotsu","properties":{"id":"Izumiotsu","code":27206,"name":"Izumiotsu","name_full":"泉大津市","name_ja":"泉大津市","name_short_ja":"泉大津","center_lonlat":[135.4033,34.5068]},"geometry":{"type":"MultiPolygon","coordinates":[[[[135.4189,34.5195],[135.4104,34.5229],[135.4065,34.517],[135.3875,34.5144],[135.3783,34.5319],[135.3672,34.517],[135.3778,34.5078],[135.3897,34.4989],[135.4024,34.4952],[135.4113,34.4822],[135.4153,34.4815],[135.4212,34.4898],[135.4292,34.4944],[135.4239,34.5007],[135.4339,34.5087],[135.4334,34.514],[135.4268,34.5127],[135.4189,34.5195]]],[[[135.4011,34.5274],[135.3938,34.5314],[135.3884,34.524],[135.395,34.5173],[135.4011,34.5274]]]]}},{"type":"Feature","id":"Takatsuki","properties":{"id":"Takatsuki","code":27207,"name":"Takatsuki","name_full":"高槻市","name_ja":"高槻市","name_short_ja":"高槻","center_lonlat":[135.6078,34.8805]},"geometry":{"type":"Polygon","coordinates":[[[135.6281,34.9337],[135.6152,34.9276],[135.6011,34.9297],[135.6108,34.9397],[135.6188,34.9588],[135.6133,34.9712],[135.6033,34.9711],[135.5892,34.9672],[135.5847,34.9751],[135.5709,34.9698],[135.5712,34.9639],[135.5786,34.9559],[135.5631,34.9537],[135.5618,34.9378],[135.5811,34.937],[135.5813,34.9225],[135.5731,34.9168],[135.5736,34.905],[135.5663,34.9007],[135.571,34.8808],[135.5626,34.8719],[135.5686,34.8687],[135.5667,34.8568],[135.5721,34.8486],[135.5823,34.8467],[135.5866,34.8237],[135.6063,34.8167],[135.5984,34.8123],[135.5976,34.7987],[135.5981,34.7858],[135.6023,34.7805],[135.6143,34.7915],[135.62,34.8058],[135.6403,34.8161],[135.6463,34.8298],[135.6474,34.8419],[135.6518,34.8493],[135.6652,34.8554],[135.6728,34.87],[135.6451,34.8823],[135.6414,34.8902],[135.6347,34.8923],[135.6302,34.9068],[135.6281,34.9337]]]}},{"type":"Feature","id":"Kaizuka","properties":{"id":"Kaizuka","code":27208,"name":"Kaizuka","name_full":"貝塚市","name_ja":"貝塚市","name_short_ja":"貝塚","center_lonlat":[135.3872,34.3977]},"geometry":{"type":"MultiPolygon","coordinates":[[[[135.3594,34.4598],[135.3535,34.4514],[135.3372,34.4458],[135.329,34.4343],[135.3375,34.4322],[135.3572,34.4183],[135.3767,34.4034],[135.3801,34.392],[135.3871,34.3846],[135.3834,34.3687],[135.3883,34.3554],[135.3923,34.3473],[135.4075,34.3471],[135.4092,34.3419],[135.4248,34.34],[135.4343,34.3482],[135.4258,34.3759],[135.4166,34.3793],[135.4109,34.3879],[135.4052,34.4049],[135.3922,34.4199],[135.3851,34.4211],[135.3778,34.4381],[135.3812,34.4454],[135.3696,34.4513],[135.3594,34.4598]]],[[[135.3391,34.4693],[135.3408,34.4669],[135.3281,34.4498],[135.333,34.4447],[135.3421,34.4508],[135.3472,34.4587],[135.3391,34.4693]]]]}},{"type":"Feature","id":"Moriguchi","properties":{"id":"Moriguchi","code":27209,"name":"Moriguchi","name_full":"守口市","name_ja":"守口市","name_short_ja":"守口","center_lonlat":[135.5762,34.7428]},"geometry":{"type":"Polygon","coordinates":[[[135.5564,34.7461],[135.5603,34.7368],[135.5534,34.7331],[135.5676,34.7178],[135.5829,34.7174],[135.5843,34.7224],[135.5817,34.7288],[135.5719,34.7376],[135.5811,34.7478],[135.5992,34.7451],[135.6063,34.7502],[135.587,34.7675],[135.5731,34.7576],[135.5605,34.754],[135.5564,34.7461]]]}},{"type":"Feature","id":"Hirakata","properties":{"id":"Hirakata","code":27210,"name":"Hirakata","name_full":"枚方市","name_ja":"枚方市","name_short_ja":"枚方","center_lonlat":[135.6823,34.8176]},"geometry":{"type":"Polygon","coordinates":[[[135.6143,34.7915],[135.63,34.7904],[135.6319,34.7854],[135.6487,34.7834],[135.653,34.7731],[135.6595,34.775],[135.6718,34.7787],[135.666,34.7974],[135.6794,34.8024],[135.7089,34.7975],[135.7167,34.7889],[135.712,34.7813],[135.7202,34.7746],[135.7278,34.7766],[135.7407,34.7884],[135.7466,34.8012],[135.7319,34.8227],[135.7243,34.8232],[135.7102,34.8466],[135.7023,34.8517],[135.6916,34.8533],[135.6911,34.8685],[135.6826,34.8722],[135.6799,34.8813],[135.6728,34.87],[135.6652,34.8554],[135.6518,34.8493],[135.6474,34.8419],[135.6463,34.8298],[135.6403,34.8161],[135.62,34.8058],[135.6143,34.7915]]]}},{"type":"Feature","id":"Ibaraki","properties":{"id":"Ibaraki","code":27211,"name":"Ibaraki","name_full":"茨木市","name_ja":"茨木市","name_short_ja":"茨木","center_lonlat":[135.5494,34.8564]},"geometry":{"type":"Polygon","coordinates":[[[135.5519,34.7936],[135.562,34.7915],[135.5683,34.7856],[135.5777,34.7844],[135.5976,34.7987],[135.5984,34.8123],[135.6063,34.8167],[135.5866,34.8237],[135.5823,34.8467],[135.5721,34.8486],[135.5667,34.8568],[135.5686,34.8687],[135.5626,34.8719],[135.571,34.8808],[135.5663,34.9007],[135.5736,34.905],[135.5731,34.9168],[135.5533,34.9155],[135.536,34.9209],[135.5254,34.9288],[135.5249,34.9203],[135.517,34.9114],[135.5113,34.9],[135.5028,34.896],[135.4959,34.8811],[135.4995,34.8775],[135.5033,34.87],[135.5117,34.8744],[135.5145,34.8601],[135.5228,34.852],[135.5262,34.8308],[135.524,34.8262],[135.53,34.8163],[135.5532,34.8089],[135.5519,34.7936]]]}},{"type":"Feature","id":"Yao","properties":{"id":"Yao","code":27212,"name":"Yao","name_full":"八尾市","name_ja":"八尾市","name_short_ja":"八尾","center_lonlat":[135.6171,34.6202]},"geometry":{"type":"Polygon","coordinates":[[[135.5768,34.5931],[135.5847,34.5884],[135.6012,34.5835],[135.6084,34.5887],[135.619,34.5929],[135.6252,34.5998],[135.641,34.5996],[135.6518,34.6068],[135.6568,34.6117],[135.6632,34.6295],[135.6643,34.6433],[135.6255,34.6447],[135.6255,34.6503],[135.5945,34.6506],[135.5959,34.6417],[135.5852,34.6393],[135.5889,34.6324],[135.5747,34.6322],[135.5752,34.6182],[135.5869,34.6091],[135.5768,34.5931]]]}},{"type":"Feature","id":"Izumisano","properties":{"id":"Izumisano","code":27213,"name":"Izumisano","name_full":"泉佐野市","name_ja":"泉佐野市","name_short_ja":"泉佐野","center_lonlat":[135.3416,34.3767]},"geometry":{"type":"MultiPolygon","coordinates":[[[[135.3883,34.3554],[135.3814,34.3561],[135.3794,34.3641],[135.3703,34.3645],[135.3556,34.3727],[135.343,34.3867],[135.3355,34.399],[135.339,34.4054],[135.3532,34.4066],[135.3572,34.4183],[135.3375,34.4322],[135.329,34.4343],[135.3249,34.4369],[135.3138,34.4266],[135.3095,34.4171],[135.2934,34.4141],[135.2888,34.4036],[135.3004,34.39],[135.2896,34.3834],[135.3056,34.3821],[135.3189,34.3703],[135.3235,34.3613],[135.322,34.3554],[135.3287,34.3418],[135.3391,34.341],[135.3389,34.335],[135.3462,34.3305],[135.359,34.333],[135.3617,34.3293],[135.3741,34.331],[135.3803,34.3284],[135.4054,34.3339],[135.4092,34.3419],[135.4075,34.3471],[135.3923,34.3473],[135.3883,34.3554]]],[[[135.2399,34.4385],[135.2524,34.4469],[135.2416,34.4552],[135.2293,34.446],[135.2399,34.4385]]],[[[135.252,34.4299],[135.2651,34.4378],[135.2518,34.4441],[135.2416,34.4373],[135.252,34.4299]]]]}},{"type":"Feature","id":"Tondabayashi","properties":{"id":"Tondabayashi","code":27214,"name":"Tondabayashi","name_full":"富田林市","name_ja":"富田林市","name_short_ja":"富田林","center_lonlat":[135.5944,34.489]},"geometry":{"type":"Polygon","coordinates":[[[135.5665,34.5135],[135.5603,34.5116],[135.5585,34.4898],[135.5598,34.4795],[135.5768,34.4749],[135.5826,34.4683],[135.5779,34.4548],[135.5945,34.4419],[135.6025,34.4392],[135.616,34.4518],[135.6168,34.4743],[135.613,34.4904],[135.6278,34.4902],[135.6277,34.4979],[135.6177,34.5071],[135.6204,34.5148],[135.6271,34.5255],[135.6122,34.5262],[135.5872,34.5318],[135.5822,34.5188],[135.5821,34.5107],[135.5665,34.5135]]]}},{"type":"Feature","id":"Neyagawa","properties":{"id":"Neyagawa","code":27215,"name":"Neyagawa","name_full":"寝屋川市","name_ja":"寝屋川市","name_short_ja":"寝屋川","center_lonlat":[135.6262,34.7661]},"geometry":{"type":"Polygon","coordinates":[[[135.6023,34.7805],[135.587,34.7675],[135.6063,34.7502],[135.6186,34.7443],[135.6234,34.7363],[135.6208,34.7291],[135.6319,34.7322],[135.6252,34.7342],[135.6305,34.7497],[135.6599,34.75],[135.658,34.7577],[135.6621,34.7667],[135.6595,34.775],[135.653,34.7731],[135.6487,34.7834],[135.6319,34.7854],[135.63,34.7904],[135.6143,34.7915],[135.6023,34.7805]]]}},{"type":"Feature","id":"Kawachinagano","properties":{"id":"Kawachinagano","code":27216,"name":"Kawachinagano","name_full":"河内長野市","name_ja":"河内長野市","name_short_ja":"河内長野","center_lonlat":[135.5672,34.4059]},"geometry":{"type":"Polygon","coordinates":[[[135.5196,34.4312],[135.5265,34.4249],[135.5254,34.4084],[135.5203,34.3987],[135.5197,34.3883],[135.5118,34.3816],[135.4908,34.3729],[135.4854,34.3628],[135.4887,34.3564],[135.5017,34.3502],[135.5049,34.3412],[135.512,34.3383],[135.5271,34.3512],[135.5415,34.3576],[135.5544,34.3594],[135.5634,34.3693],[135.5771,34.376],[135.595,34.3754],[135.5959,34.3792],[135.6133,34.3766],[135.6199,34.3845],[135.6319,34.383],[135.6547,34.3838],[135.6634,34.3965],[135.6515,34.4009],[135.6396,34.4181],[135.6259,34.4217],[135.6156,34.4305],[135.6105,34.4304],[135.6025,34.4392],[135.5945,34.4419],[135.5779,34.4548],[135.5826,34.4683],[135.5768,34.4749],[135.5598,34.4795],[135.5531,34.4719],[135.5421,34.4665],[135.5454,34.4623],[135.5336,34.4486],[135.522,34.4401],[135.5196,34.4312]]]}},{"type":"Feature","id":"Matsubara","properties":{"id":"Matsubara","code":27217,"name":"Matsubara","name_full":"松原市","name_ja":"松原市","name_short_ja":"松原","center_lonlat":[135.5513,34.5804]},"geometry":{"type":"Polygon","coordinates":[[[135.522,34.5943],[135.5224,34.5767],[135.5318,34.5766],[135.5373,34.5656],[135.548,34.5659],[135.5491,34.5599],[135.5532,34.5539],[135.5672,34.56],[135.5698,34.565],[135.5672,34.5767],[135.5812,34.5821],[135.5847,34.5884],[135.5768,34.5931],[135.5672,34.5955],[135.5436,34.5952],[135.5435,34.5994],[135.5225,34.5946],[135.522,34.5943]]]}},{"type":"Feature","id":"Daito","properties":{"id":"Daito","code":27218,"name":"Daito","name_full":"大東市","name_ja":"大東市","name_short_ja":"大東","center_lonlat":[135.6362,34.7134]},"geometry":{"type":"Polygon","coordinates":[[[135.595,34.7035],[135.6079,34.6982],[135.6178,34.701],[135.6528,34.7026],[135.6634,34.6989],[135.6731,34.7001],[135.6731,34.7018],[135.672,34.7163],[135.6569,34.7225],[135.6568,34.7278],[135.6468,34.7316],[135.6319,34.7322],[135.6208,34.7291],[135.6238,34.7216],[135.6135,34.7203],[135.5994,34.7147],[135.595,34.7035]]]}},{"type":"Feature","id":"Izumi","properties":{"id":"Izumi","code":27219,"name":"Izumi","name_full":"和泉市","name_ja":"和泉市","name_short_ja":"和泉","center_lonlat":[135.4715,34.4313]},"geometry":{"type":"Polygon","coordinates":[[[135.4547,34.5151],[135.4478,34.5113],[135.4334,34.514],[135.4339,34.5087],[135.4239,34.5007],[135.4292,34.4944],[135.4212,34.4898],[135.4153,34.4815],[135.4151,34.4735],[135.4243,34.4663],[135.4296,34.4704],[135.4404,34.4623],[135.4423,34.4421],[135.4488,34.4324],[135.4544,34.4004],[135.45,34.3907],[135.4625,34.3821],[135.4544,34.3587],[135.4531,34.3499],[135.4576,34.3473],[135.4777,34.3536],[135.4854,34.3628],[135.4908,34.3729],[135.5118,34.3816],[135.5197,34.3883],[135.5203,34.3987],[135.5254,34.4084],[135.5265,34.4249],[135.5196,34.4312],[135.5008,34.4337],[135.4973,34.4516],[135.4896,34.4603],[135.4785,34.4649],[135.4782,34.4709],[135.4662,34.483],[135.465,34.4997],[135.4607,34.5121],[135.4547,34.5151]]]}},{"type":"Feature","id":"Mino","properties":{"id":"Mino","code":27220,"name":"Mino","name_full":"箕面市","name_ja":"箕面市","name_short_ja":"箕面","center_lonlat":[135.4796,34.8554]},"geometry":{"type":"Polygon","coordinates":[[[135.4481,34.8084],[135.4534,34.8072],[135.4758,34.8211],[135.4928,34.8175],[135.4977,34.8249],[135.5057,34.8308],[135.5124,34.8267],[135.524,34.8262],[135.5262,34.8308],[135.5228,34.852],[135.5145,34.8601],[135.5117,34.8744],[135.5033,34.87],[135.4995,34.8775],[135.4938,34.8795],[135.482,34.8748],[135.4777,34.89],[135.486,34.8958],[135.4757,34.9036],[135.4734,34.9104],[135.4529,34.8948],[135.4451,34.8954],[135.4409,34.8905],[135.4375,34.8771],[135.4593,34.8612],[135.459,34.846],[135.4537,34.8428],[135.4492,34.811],[135.4481,34.8084]]]}},{"type":"Feature","id":"Kashiwara","properties":{"id":"Kashiwara","code":27221,"name":"Kashiwara","name_full":"柏原市","name_ja":"柏原市","name_short_ja":"柏原","center_lonlat":[135.6468,34.579]},"geometry":{"type":"Polygon","coordinates":[[[135.6084,34.5887],[135.6276,34.5777],[135.6216,34.5643],[135.622,34.5538],[135.6532,34.547],[135.6578,34.5613],[135.6734,34.5716],[135.6706,34.5762],[135.6818,34.5848],[135.6749,34.6017],[135.6612,34.6019],[135.6518,34.6068],[135.641,34.5996],[135.6252,34.5998],[135.619,34.5929],[135.6084,34.5887]]]}},{"type":"Feature","id":"Habikino","properties":{"id":"Habikino","code":27222,"name":"Habikino","name_full":"羽曳野市","name_ja":"羽曳野市","name_short_ja":"羽曳野","center_lonlat":[135.6069,34.5477]},"geometry":{"type":"Polygon","coordinates":[[[135.5872,34.5318],[135.6122,34.5262],[135.6271,34.5255],[135.65,34.5331],[135.6601,34.5411],[135.6532,34.547],[135.622,34.5538],[135.6216,34.5643],[135.6115,34.5658],[135.6011,34.5535],[135.5869,34.5712],[135.5812,34.5821],[135.5672,34.5767],[135.5698,34.565],[135.5672,34.56],[135.5726,34.5484],[135.5872,34.5318]]]}},{"type":"Feature","id":"Kadoma","properties":{"id":"Kadoma","code":27223,"name":"Kadoma","name_full":"門真市","name_ja":"門真市","name_short_ja":"門真","center_lonlat":[135.5996,34.7326]},"geometry":{"type":"Polygon","coordinates":[[[135.5994,34.7147],[135.6135,34.7203],[135.6238,34.7216],[135.6208,34.7291],[135.6234,34.7363],[135.6186,34.7443],[135.6063,34.7502],[135.5992,34.7451],[135.5811,34.7478],[135.5719,34.7376],[135.5817,34.7288],[135.5843,34.7224],[135.5898,34.7137],[135.5994,34.7147]]]}},{"type":"Feature","id":"Settsu","properties":{"id":"Settsu","code":27224,"name":"Settsu","name_full":"摂津市","name_ja":"摂津市","name_short_ja":"摂津","center_lonlat":[135.5688,34.7761]},"geometry":{"type":"Polygon","coordinates":[[[135.5605,34.754],[135.5731,34.7576],[135.587,34.7675],[135.6023,34.7805],[135.5981,34.7858],[135.5976,34.7987],[135.5777,34.7844],[135.5683,34.7856],[135.562,34.7915],[135.5519,34.7936],[135.5368,34.7865],[135.5488,34.7685],[135.5508,34.7572],[135.5605,34.754]]]}},{"type":"Feature","id":"Takaishi","properties":{"id":"Takaishi","code":27225,"name":"Takaishi","name_full":"高石市","name_ja":"高石市","name_short_ja":"高石","center_lonlat":[135.4394,34.5234]},"geometry":{"type":"MultiPolygon","coordinates":[[[[135.4377,34.5411],[135.4319,34.5323],[135.4189,34.5195],[135.4268,34.5127],[135.4334,34.514],[135.4478,34.5113],[135.4547,34.5151],[135.4595,34.5199],[135.4482,34.5295],[135.4461,34.5369],[135.4377,34.5411]]],[[[135.4364,34.5426],[135.4262,34.5471],[135.4202,34.538],[135.4053,34.5472],[135.3992,34.5365],[135.4046,34.5301],[135.4177,34.5242],[135.4307,34.534],[135.4364,34.5426]]]]}},{"type":"Feature","id":"Fujiidera","properties":{"id":"Fujiidera","code":27226,"name":"Fujiidera","name_full":"藤井寺市","name_ja":"藤井寺市","name_short_ja":"藤井寺","center_lonlat":[135.6038,34.5741]},"geometry":{"type":"Polygon","coordinates":[[[135.5847,34.5884],[135.5812,34.5821],[135.5869,34.5712],[135.6011,34.5535],[135.6115,34.5658],[135.6216,34.5643],[135.6276,34.5777],[135.6084,34.5887],[135.6012,34.5835],[135.5847,34.5884]]]}},{"type":"Feature","id":"Higashiosaka","properties":{"id":"Higashiosaka","code":27227,"name":"Higashiosaka","name_full":"東大阪市","name_ja":"東大阪市","name_short_ja":"東大阪","center_lonlat":[135.6172,34.6712]},"geometry":{"type":"Polygon","coordinates":[[[135.5571,34.6643],[135.5611,34.6436],[135.5747,34.6322],[135.5889,34.6324],[135.5852,34.6393],[135.5959,34.6417],[135.5945,34.6506],[135.6255,34.6503],[135.6255,34.6447],[135.6643,34.6433],[135.6643,34.65],[135.6712,34.6611],[135.6711,34.6669],[135.6787,34.6778],[135.6731,34.6901],[135.6731,34.7001],[135.6634,34.6989],[135.6528,34.7026],[135.6178,34.701],[135.6079,34.6982],[135.595,34.7035],[135.5848,34.6986],[135.5795,34.6897],[135.5656,34.6878],[135.5634,34.678],[135.5622,34.6679],[135.5571,34.6643]]]}},{"type":"Feature","id":"Sennan","properties":{"id":"Sennan","code":27228,"name":"Sennan","name_full":"泉南市","name_ja":"泉南市","name_short_ja":"泉南","center_lonlat":[135.2941,34.349]},"geometry":{"type":"MultiPolygon","coordinates":[[[[135.2896,34.3834],[135.2852,34.3838],[135.2798,34.3954],[135.2638,34.3811],[135.2507,34.377],[135.2496,34.3643],[135.2597,34.357],[135.2697,34.3368],[135.2826,34.3179],[135.2916,34.2995],[135.3026,34.3049],[135.304,34.3137],[135.3132,34.3141],[135.3242,34.3191],[135.3391,34.3294],[135.3389,34.335],[135.3391,34.341],[135.3287,34.3418],[135.322,34.3554],[135.3235,34.3613],[135.3189,34.3703],[135.3056,34.3821],[135.2896,34.3834]]],[[[135.2403,34.4229],[135.2305,34.4298],[135.2191,34.4222],[135.2277,34.4135],[135.2403,34.4229]]],[[[135.2289,34.4309],[135.218,34.4385],[135.2012,34.4281],[135.2062,34.4231],[135.2216,34.4335],[135.2289,34.4309]]]]}},{"type":"Feature","id":"Shijonawate","properties":{"id":"Shijonawate","code":27229,"name":"Shijonawate","name_full":"四條畷市","name_ja":"四條畷市","name_short_ja":"四條畷","center_lonlat":[135.6677,34.7325]},"geometry":{"type":"Polygon","coordinates":[[[135.6319,34.7322],[135.6468,34.7316],[135.6568,34.7278],[135.6569,34.7225],[135.672,34.7163],[135.6731,34.7018],[135.6831,34.7113],[135.7017,34.7217],[135.7027,34.7251],[135.6968,34.7439],[135.6848,34.7421],[135.6656,34.7463],[135.6599,34.75],[135.6305,34.7497],[135.6252,34.7342],[135.6319,34.7322]]]}},{"type":"Feature","id":"Katano","properties":{"id":"Katano","code":27230,"name":"Katano","name_full":"交野市","name_ja":"交野市","name_short_ja":"交野","center_lonlat":[135.6867,34.7717]},"geometry":{"type":"Polygon","coordinates":[[[135.6595,34.775],[135.6621,34.7667],[135.658,34.7577],[135.6599,34.75],[135.6656,34.7463],[135.6848,34.7421],[135.6968,34.7439],[135.7068,34.7486],[135.7102,34.7559],[135.7066,34.7723],[135.712,34.7813],[135.7167,34.7889],[135.7089,34.7975],[135.6794,34.8024],[135.666,34.7974],[135.6718,34.7787],[135.6595,34.775]]]}},{"type":"Feature","id":"Osakasayama","properties":{"id":"Osakasayama","code":27231,"name":"Osakasayama","name_full":"大阪狭山市","name_ja":"大阪狭山市","name_short_ja":"大阪狭山","center_lonlat":[135.549,34.4967]},"geometry":{"type":"Polygon","coordinates":[[[135.5343,34.508],[135.5397,34.5011],[135.535,34.4929],[135.5353,34.4798],[135.5421,34.4665],[135.5531,34.4719],[135.5598,34.4795],[135.5585,34.4898],[135.5603,34.5116],[135.5665,34.5135],[135.5629,34.5252],[135.555,34.528],[135.5531,34.518],[135.5464,34.518],[135.5407,34.5111],[135.5326,34.5146],[135.5343,34.508]]]}},{"type":"Feature","id":"Hannan","properties":{"id":"Hannan","code":27232,"name":"Hannan","name_full":"阪南市","name_ja":"阪南市","name_short_ja":"阪南","center_lonlat":[135.235,34.331]},"geometry":{"type":"Polygon","coordinates":[[[135.2507,34.377],[135.2256,34.3495],[135.216,34.344],[135.2028,34.3426],[135.1931,34.3381],[135.1916,34.3125],[135.208,34.3082],[135.225,34.3009],[135.2355,34.3036],[135.2466,34.3133],[135.2579,34.3157],[135.2727,34.3122],[135.2826,34.3179],[135.2697,34.3368],[135.2597,34.357],[135.2496,34.3643],[135.2507,34.377]]]}},{"type":"Feature","id":"Shimamoto","properties":{"id":"Shimamoto","code":27301,"name":"Shimamoto","name_full":"島本町","name_ja":"島本町","name_short_ja":"島本","center_lonlat":[135.6526,34.8993]},"geometry":{"type":"Polygon","coordinates":[[[135.6728,34.87],[135.6799,34.8813],[135.6827,34.8878],[135.6746,34.9002],[135.6485,34.9095],[135.6485,34.926],[135.6428,34.9307],[135.6281,34.9337],[135.6302,34.9068],[135.6347,34.8923],[135.6414,34.8902],[135.6451,34.8823],[135.6728,34.87]]]}},{"type":"Feature","id":"Toyono","properties":{"id":"Toyono","code":27321,"name":"Toyono","name_full":"豊能町","name_ja":"豊能町","name_short_ja":"豊能","center_lonlat":[135.4821,34.9141]},"geometry":{"type":"Polygon","coordinates":[[[135.5254,34.9288],[135.515,34.9369],[135.5147,34.9437],[135.504,34.9463],[135.4997,34.9413],[135.4904,34.9418],[135.4846,34.9474],[135.4798,34.9449],[135.4752,34.9307],[135.4671,34.9288],[135.4654,34.9196],[135.4567,34.9179],[135.4393,34.9205],[135.4191,34.9098],[135.4257,34.9067],[135.4311,34.8972],[135.4451,34.8954],[135.4529,34.8948],[135.4734,34.9104],[135.4757,34.9036],[135.486,34.8958],[135.4777,34.89],[135.482,34.8748],[135.4938,34.8795],[135.4995,34.8775],[135.4959,34.8811],[135.5028,34.896],[135.5113,34.9],[135.517,34.9114],[135.5249,34.9203],[135.5254,34.9288]]]}},{"type":"Feature","id":"Nose","properties":{"id":"Nose","code":27322,"name":"Nose","name_full":"能勢町","name_ja":"能勢町","name_short_ja":"能勢","center_lonlat":[135.4132,34.9809]},"geometry":{"type":"Polygon","coordinates":[[[135.4846,34.9474],[135.4819,34.9652],[135.4885,34.9666],[135.4832,34.9819],[135.4931,34.9877],[135.4819,34.9951],[135.4712,34.9948],[135.4599,35.0016],[135.452,35.0018],[135.4362,35.0084],[135.4228,35.0021],[135.4098,35.0115],[135.3816,35.0104],[135.3777,35.0206],[135.3817,35.0262],[135.38,35.0391],[135.3595,35.0501],[135.3379,35.0426],[135.3336,35.0352],[135.3398,35.0259],[135.3547,35.0246],[135.3558,35.0165],[135.3526,34.9904],[135.3595,34.9825],[135.3522,34.9795],[135.3451,34.9668],[135.3639,34.9562],[135.3819,34.9562],[135.3872,34.9466],[135.4158,34.9408],[135.4185,34.9339],[135.4416,34.9394],[135.4528,34.9297],[135.4671,34.9288],[135.4752,34.9307],[135.4798,34.9449],[135.4846,34.9474]]]}},{"type":"Feature","id":"Tadaoka","properties":{"id":"Tadaoka","code":27341,"name":"Tadaoka","name_full":"忠岡町","name_ja":"忠岡町","name_short_ja":"忠岡","center_lonlat":[135.3939,34.4925]},"geometry":{"type":"Polygon","coordinates":[[[135.4151,34.4735],[135.4153,34.4815],[135.4113,34.4822],[135.4024,34.4952],[135.3897,34.4989],[135.3778,34.5078],[135.3709,34.5004],[135.3947,34.4888],[135.4151,34.4735]]]}},{"type":"Feature","id":"Kumatori","properties":{"id":"Kumatori","code":27361,"name":"Kumatori","name_full":"熊取町","name_ja":"熊取町","name_short_ja":"熊取","center_lonlat":[135.364,34.3882]},"geometry":{"type":"Polygon","coordinates":[[[135.3572,34.4183],[135.3532,34.4066],[135.339,34.4054],[135.3355,34.399],[135.343,34.3867],[135.3556,34.3727],[135.3703,34.3645],[135.3794,34.3641],[135.3814,34.3561],[135.3883,34.3554],[135.3834,34.3687],[135.3871,34.3846],[135.3801,34.392],[135.3767,34.4034],[135.3572,34.4183]]]}},{"type":"Feature","id":"Tajiri","properties":{"id":"Tajiri","code":27362,"name":"Tajiri","name_full":"田尻町","name_ja":"田尻町","name_short_ja":"田尻","center_lonlat":[135.2349,34.4344]},"geometry":{"type":"MultiPolygon","coordinates":[[[[135.2416,34.4373],[135.2399,34.4385],[135.2293,34.446],[135.218,34.4385],[135.2289,34.4309],[135.2305,34.4298],[135.2403,34.4229],[135.252,34.4299],[135.2416,34.4373]]],[[[135.2888,34.4036],[135.2798,34.3954],[135.2852,34.3838],[135.2896,34.3834],[135.3004,34.39],[135.2888,34.4036]]]]}},{"type":"Feature","id":"Misaki","properties":{"id":"Misaki","code":27366,"name":"Misaki","name_full":"岬町","name_ja":"岬町","name_short_ja":"岬町","center_lonlat":[135.1525,34.3033]},"geometry":{"type":"Polygon","coordinates":[[[135.1931,34.3381],[135.1767,34.3379],[135.1638,34.3315],[135.1529,34.3311],[135.1413,34.3182],[135.1301,34.3205],[135.1306,34.3262],[135.1015,34.3193],[135.1064,34.3058],[135.0969,34.2971],[135.0987,34.289],[135.1091,34.2827],[135.1103,34.2738],[135.1321,34.2724],[135.1465,34.2836],[135.1574,34.2771],[135.1715,34.2806],[135.1807,34.2799],[135.1916,34.2865],[135.2027,34.2876],[135.208,34.3082],[135.1916,34.3125],[135.1931,34.3381]]]}},{"type":"Feature","id":"Taishi","properties":{"id":"Taishi","code":27381,"name":"Taishi","name_full":"太子町","name_ja":"太子町","name_short_ja":"太子","center_lonlat":[135.653,34.5181]},"geometry":{"type":"Polygon","coordinates":[[[135.6204,34.5148],[135.6294,34.5147],[135.6418,34.5039],[135.6554,34.4973],[135.6686,34.5053],[135.6753,34.5057],[135.6769,34.5255],[135.6679,34.531],[135.6601,34.5411],[135.65,34.5331],[135.6271,34.5255],[135.6204,34.5148]]]}},{"type":"Feature","id":"Kanan","properties":{"id":"Kanan","code":27382,"name":"Kanan","name_full":"河南町","name_ja":"河南町","name_short_ja":"河南","center_lonlat":[135.6494,34.4849]},"geometry":{"type":"Polygon","coordinates":[[[135.6168,34.4743],[135.6271,34.4763],[135.628,34.4675],[135.6355,34.4675],[135.6484,34.4556],[135.6545,34.4559],[135.6579,34.4667],[135.6752,34.4694],[135.6822,34.4652],[135.6848,34.4836],[135.679,34.4931],[135.6753,34.5057],[135.6686,34.5053],[135.6554,34.4973],[135.6418,34.5039],[135.6294,34.5147],[135.6204,34.5148],[135.6177,34.5071],[135.6277,34.4979],[135.6278,34.4902],[135.613,34.4904],[135.6168,34.4743]]]}},{"type":"Feature","id":"Chihayaakasaka","properties":{"id":"Chihayaakasaka","code":27383,"name":"Chihayaakasaka","name_full":"千早赤阪村","name_ja":"千早赤阪村","name_short_ja":"千早赤阪","center_lonlat":[135.6483,34.4387]},"geometry":{"type":"Polygon","coordinates":[[[135.6025,34.4392],[135.6105,34.4304],[135.6156,34.4305],[135.6259,34.4217],[135.6396,34.4181],[135.6515,34.4009],[135.6634,34.3965],[135.6756,34.3995],[135.6802,34.4089],[135.6694,34.4137],[135.6653,34.4242],[135.6786,34.4324],[135.687,34.4515],[135.6824,34.456],[135.6822,34.4652],[135.6752,34.4694],[135.6579,34.4667],[135.6545,34.4559],[135.6484,34.4556],[135.6355,34.4675],[135.628,34.4675],[135.6271,34.4763],[135.6168,34.4743],[135.616,34.4518],[135.6025,34.4392]]]}}]}
