{"type":"FeatureCollection","features":[{"type":"Feature","id":"Bishan","properties":{"id":"Bishan","name":"Bishan","name_full":"BISHAN","name_ja":"BISHAN","center_lonlat":[103.8405,1.3549]},"geometry":{"type":"Polygon","coordinates":[[[103.8569,1.3555],[103.8604,1.3434],[103.8448,1.3439],[103.8412,1.3451],[103.8365,1.342],[103.8359,1.3427],[103.8371,1.3435],[103.8368,1.3464],[103.8358,1.3463],[103.8338,1.3496],[103.8324,1.3498],[103.8299,1.3531],[103.8267,1.3542],[103.8235,1.3523],[103.8185,1.3549],[103.8207,1.3612],[103.8243,1.3618],[103.8251,1.3635],[103.8271,1.3627],[103.8283,1.3675],[103.8319,1.3677],[103.841,1.3646],[103.8476,1.3636],[103.8519,1.3607],[103.8551,1.3564],[103.8569,1.3555]]]}},{"type":"Feature","id":"Bukit Batok","properties":{"id":"Bukit Batok","name":"Bukit Batok","name_full":"BUKIT BATOK","name_ja":"BUKIT BATOK","center_lonlat":[103.7547,1.3556]},"geometry":{"type":"Polygon","coordinates":[[[103.7704,1.349],[103.767,1.3472],[103.7632,1.3467],[103.7642,1.345],[103.7671,1.3429],[103.7669,1.3422],[103.7651,1.3421],[103.7641,1.3394],[103.7645,1.3366],[103.7656,1.3358],[103.7656,1.3325],[103.7646,1.3328],[103.7494,1.3413],[103.7435,1.3445],[103.7373,1.346],[103.7383,1.3494],[103.7367,1.3537],[103.737,1.3566],[103.7443,1.3654],[103.7485,1.3691],[103.7517,1.3722],[103.7538,1.3763],[103.7612,1.3797],[103.7635,1.3711],[103.7677,1.3639],[103.7671,1.3614],[103.7675,1.3576],[103.7696,1.3533],[103.7704,1.349]]]}},{"type":"Feature","id":"Bukit Merah","properties":{"id":"Bukit Merah","name":"Bukit Merah","name_full":"BUKIT MERAH","name_ja":"BUKIT MERAH","center_lonlat":[103.8231,1.2755]},"geometry":{"type":"Polygon","coordinates":[[[103.8318,1.2922],[103.8334,1.2924],[103.8349,1.2896],[103.835,1.2873],[103.8353,1.2841],[103.8392,1.2808],[103.8414,1.2742],[103.8422,1.2726],[103.8457,1.2726],[103.8516,1.2693],[103.8516,1.2681],[103.8517,1.2641],[103.8517,1.2639],[103.8517,1.2641],[103.8507,1.263],[103.8521,1.2615],[103.8521,1.2614],[103.8521,1.2615],[103.8512,1.2607],[103.8457,1.2668],[103.8443,1.2655],[103.8467,1.2624],[103.846,1.2615],[103.8395,1.2676],[103.832,1.2674],[103.8241,1.2631],[103.8244,1.2602],[103.8304,1.2636],[103.8361,1.2639],[103.8425,1.2579],[103.8364,1.2548],[103.8313,1.2564],[103.8319,1.2572],[103.8313,1.2573],[103.8312,1.2571],[103.8313,1.2573],[103.8312,1.2574],[103.8311,1.2571],[103.8312,1.2574],[103.8305,1.2567],[103.8286,1.2568],[103.8285,1.2568],[103.8282,1.2568],[103.8278,1.257],[103.8282,1.2568],[103.8285,1.2568],[103.8286,1.2568],[103.8256,1.2583],[103.8241,1.2602],[103.824,1.2582],[103.8236,1.2584],[103.8237,1.2602],[103.8235,1.2585],[103.8232,1.2586],[103.8233,1.2606],[103.8234,1.2606],[103.8233,1.2606],[103.8233,1.2631],[103.8199,1.2631],[103.8199,1.2619],[103.8181,1.262],[103.8196,1.2622],[103.8196,1.2632],[103.8151,1.2644],[103.8132,1.2636],[103.8132,1.2629],[103.8103,1.2632],[103.8116,1.2649],[103.8129,1.2644],[103.813,1.2644],[103.8129,1.2644],[103.8131,1.2637],[103.813,1.2637],[103.8131,1.2637],[103.8149,1.2645],[103.8128,1.2664],[103.8112,1.2664],[103.8102,1.265],[103.8072,1.2659],[103.8051,1.2623],[103.7992,1.2682],[103.8016,1.2728],[103.8022,1.2727],[103.802,1.2753],[103.8031,1.2791],[103.8013,1.2835],[103.8027,1.2862],[103.809,1.2925],[103.8154,1.2915],[103.816,1.2941],[103.8168,1.2942],[103.8168,1.2943],[103.8168,1.2942],[103.8216,1.2936],[103.8244,1.2919],[103.8286,1.2927],[103.8318,1.2922]]]}},{"type":"Feature","id":"Bukit Panjang","properties":{"id":"Bukit Panjang","name":"Bukit Panjang","name_full":"BUKIT PANJANG","name_ja":"BUKIT PANJANG","center_lonlat":[103.7729,1.3669]},"geometry":{"type":"Polygon","coordinates":[[[103.7745,1.3903],[103.776,1.3798],[103.7806,1.3611],[103.7844,1.3557],[103.7894,1.3523],[103.7917,1.3493],[103.7894,1.3479],[103.7894,1.3491],[103.7877,1.3494],[103.7862,1.3486],[103.7883,1.3457],[103.7874,1.3447],[103.7819,1.3425],[103.7778,1.3419],[103.7762,1.3438],[103.7722,1.3462],[103.7704,1.349],[103.7696,1.3533],[103.7675,1.3576],[103.7671,1.3614],[103.7677,1.3639],[103.7635,1.3711],[103.7612,1.3797],[103.7551,1.3889],[103.765,1.3908],[103.7745,1.3903]]]}},{"type":"Feature","id":"Bukit Timah","properties":{"id":"Bukit Timah","name":"Bukit Timah","name_full":"BUKIT TIMAH","name_ja":"BUKIT TIMAH","center_lonlat":[103.7907,1.3299]},"geometry":{"type":"Polygon","coordinates":[[[103.8186,1.3358],[103.8141,1.3288],[103.8134,1.3233],[103.8116,1.3201],[103.8091,1.3188],[103.8049,1.3149],[103.8023,1.3072],[103.7998,1.3097],[103.799,1.308],[103.7944,1.3103],[103.794,1.3128],[103.7931,1.3134],[103.7911,1.3112],[103.7912,1.3103],[103.7901,1.3127],[103.7867,1.3158],[103.7848,1.315],[103.7858,1.3138],[103.7849,1.3113],[103.7848,1.3113],[103.7849,1.3113],[103.7787,1.3131],[103.7712,1.3187],[103.7711,1.3219],[103.7728,1.3245],[103.7756,1.3265],[103.7646,1.3328],[103.7656,1.3325],[103.7656,1.3358],[103.7645,1.3366],[103.7641,1.3394],[103.7651,1.3421],[103.7669,1.3422],[103.7671,1.3429],[103.7642,1.345],[103.7632,1.3467],[103.767,1.3472],[103.7704,1.349],[103.7722,1.3462],[103.7762,1.3438],[103.7778,1.3419],[103.7819,1.3425],[103.7874,1.3447],[103.7883,1.3457],[103.7862,1.3486],[103.7877,1.3494],[103.7894,1.3491],[103.7894,1.3479],[103.7917,1.3493],[103.7964,1.3489],[103.8042,1.3414],[103.8074,1.341],[103.8099,1.3417],[103.8099,1.3409],[103.8117,1.3405],[103.8124,1.3389],[103.8146,1.3384],[103.8167,1.3363],[103.8186,1.3358]]]}},{"type":"Feature","id":"Central Water Catchment","properties":{"id":"Central Water Catchment","name":"Central Water Catchment","name_full":"CENTRAL WATER CATCHMENT","name_ja":"CENTRAL WATER CATCHMENT","center_lonlat":[103.8012,1.3766]},"geometry":{"type":"Polygon","coordinates":[[[103.8188,1.3943],[103.818,1.3905],[103.8184,1.3886],[103.8167,1.3869],[103.8189,1.3867],[103.8195,1.3853],[103.8178,1.3802],[103.8207,1.3805],[103.8237,1.3787],[103.8257,1.3798],[103.8273,1.3791],[103.8278,1.3774],[103.8263,1.3763],[103.8263,1.3734],[103.8278,1.3724],[103.8273,1.3692],[103.8283,1.3675],[103.8271,1.3627],[103.8251,1.3635],[103.8243,1.3618],[103.8207,1.3612],[103.8185,1.3549],[103.8235,1.3523],[103.8267,1.3542],[103.8299,1.3531],[103.8324,1.3498],[103.8338,1.3496],[103.8358,1.3463],[103.8368,1.3464],[103.8371,1.3435],[103.8359,1.3427],[103.8365,1.342],[103.836,1.3417],[103.833,1.3404],[103.8248,1.3412],[103.8211,1.34],[103.8199,1.339],[103.8186,1.3358],[103.8167,1.3363],[103.8146,1.3384],[103.8124,1.3389],[103.8117,1.3405],[103.8099,1.3409],[103.8099,1.3417],[103.8074,1.341],[103.8042,1.3414],[103.7964,1.3489],[103.7917,1.3493],[103.7894,1.3523],[103.7844,1.3557],[103.7806,1.3611],[103.776,1.3798],[103.7745,1.3903],[103.7734,1.4028],[103.7717,1.41],[103.7832,1.4109],[103.8013,1.4161],[103.8032,1.4161],[103.8058,1.4144],[103.8091,1.4063],[103.8118,1.4028],[103.8141,1.3973],[103.8162,1.3952],[103.8188,1.3943]]]}},{"type":"Feature","id":"Changi","properties":{"id":"Changi","name":"Changi","name_full":"CHANGI","name_ja":"CHANGI","center_lonlat":[103.9978,1.3508]},"geometry":{"type":"Polygon","coordinates":[[[103.9986,1.3893],[103.9985,1.3892],[103.9986,1.3893],[104.0005,1.3868],[104.0061,1.3746],[104.0071,1.3736],[104.0089,1.3736],[104.0087,1.3726],[104.0068,1.3725],[104.0057,1.3695],[104.0101,1.3686],[104.0136,1.3701],[104.028,1.3637],[104.0336,1.3604],[104.033,1.3588],[104.0313,1.3576],[104.0322,1.3569],[104.0152,1.3157],[104.0107,1.3152],[104.0051,1.3114],[104.0022,1.3104],[103.9992,1.3108],[103.9913,1.3142],[103.9879,1.3132],[103.9879,1.3133],[103.9879,1.3132],[103.9839,1.312],[103.9852,1.3136],[103.9838,1.3167],[103.9848,1.319],[103.9805,1.3209],[103.9796,1.3222],[103.9847,1.3345],[103.9796,1.3364],[103.9709,1.3412],[103.9654,1.3495],[103.9643,1.3527],[103.9685,1.3543],[103.9702,1.3601],[103.9742,1.3629],[103.9758,1.3669],[103.98,1.3709],[103.9793,1.3723],[103.9749,1.374],[103.9786,1.3787],[103.9747,1.386],[103.9729,1.3877],[103.9738,1.3904],[103.9746,1.3908],[103.9747,1.3907],[103.9746,1.3908],[103.9765,1.3924],[103.9793,1.3927],[103.9793,1.3925],[103.9793,1.3927],[103.9827,1.3938],[103.9832,1.3932],[103.9878,1.3932],[103.9949,1.3915],[103.9986,1.3893]]]}},{"type":"Feature","id":"Changi Bay","properties":{"id":"Changi Bay","name":"Changi Bay","name_full":"CHANGI BAY","name_ja":"CHANGI BAY","center_lonlat":[104.0246,1.3238]},"geometry":{"type":"MultiPolygon","coordinates":[[[[104.0152,1.3157],[104.0322,1.3569],[104.0326,1.3559],[104.0228,1.3331],[104.0207,1.3264],[104.0214,1.3243],[104.0325,1.3246],[104.0327,1.318],[104.0336,1.3174],[104.0327,1.3162],[104.0291,1.3161],[104.029,1.3204],[104.0227,1.3202],[104.0228,1.3159],[104.0152,1.3157]]],[[[104.033,1.3588],[104.0336,1.3604],[104.0417,1.3545],[104.0431,1.3523],[104.0433,1.3488],[104.0418,1.349],[104.0427,1.3516],[104.0411,1.3544],[104.0379,1.3569],[104.033,1.3588]]]]}},{"type":"Feature","id":"Choa Chu Kang","properties":{"id":"Choa Chu Kang","name":"Choa Chu Kang","name_full":"CHOA CHU KANG","name_ja":"CHOA CHU KANG","center_lonlat":[103.7472,1.3856]},"geometry":{"type":"Polygon","coordinates":[[[103.7551,1.3889],[103.7612,1.3797],[103.7538,1.3763],[103.7517,1.3722],[103.7485,1.3691],[103.7454,1.3718],[103.738,1.374],[103.7327,1.3789],[103.7416,1.3866],[103.7402,1.3913],[103.7427,1.3961],[103.7436,1.4021],[103.746,1.4055],[103.7513,1.4049],[103.7526,1.4037],[103.752,1.3979],[103.7533,1.389],[103.7551,1.3889]]]}},{"type":"Feature","id":"Clementi","properties":{"id":"Clementi","name":"Clementi","name_full":"CLEMENTI","name_ja":"CLEMENTI","center_lonlat":[103.7607,1.3176]},"geometry":{"type":"Polygon","coordinates":[[[103.7573,1.2984],[103.7528,1.3076],[103.7477,1.3098],[103.7476,1.3137],[103.7522,1.3229],[103.75,1.3271],[103.7486,1.3395],[103.7494,1.3413],[103.7646,1.3328],[103.7756,1.3265],[103.7728,1.3245],[103.7711,1.3219],[103.7712,1.3187],[103.7723,1.3121],[103.7692,1.294],[103.7674,1.2916],[103.7667,1.2922],[103.7623,1.3013],[103.7587,1.2992],[103.7573,1.2984]]]}},{"type":"Feature","id":"Geylang","properties":{"id":"Geylang","name":"Geylang","name_full":"GEYLANG","name_ja":"GEYLANG","center_lonlat":[103.8896,1.3209]},"geometry":{"type":"Polygon","coordinates":[[[103.8838,1.3046],[103.881,1.3069],[103.876,1.3088],[103.8747,1.3162],[103.8759,1.3201],[103.8688,1.3278],[103.8688,1.3278],[103.8796,1.3315],[103.8889,1.3336],[103.8928,1.335],[103.8962,1.3378],[103.9055,1.3285],[103.9059,1.3268],[103.9049,1.3193],[103.9067,1.3133],[103.9015,1.3095],[103.8946,1.3096],[103.8897,1.3086],[103.8897,1.3063],[103.8845,1.3054],[103.8838,1.3046]]]}},{"type":"Feature","id":"Novena","properties":{"id":"Novena","name":"Novena","name_full":"NOVENA","name_ja":"NOVENA","center_lonlat":[103.8353,1.3269]},"geometry":{"type":"Polygon","coordinates":[[[103.836,1.3417],[103.8373,1.3393],[103.8372,1.3347],[103.8406,1.3288],[103.8427,1.3296],[103.8478,1.3298],[103.8566,1.3291],[103.8624,1.3304],[103.8612,1.3266],[103.8559,1.3212],[103.8463,1.3155],[103.8443,1.3106],[103.8395,1.3127],[103.8353,1.3174],[103.8227,1.3217],[103.8134,1.3233],[103.8141,1.3288],[103.8186,1.3358],[103.8199,1.339],[103.8211,1.34],[103.8248,1.3412],[103.833,1.3404],[103.836,1.3417]]]}},{"type":"Feature","id":"Pasir Ris","properties":{"id":"Pasir Ris","name":"Pasir Ris","name_full":"PASIR RIS","name_ja":"PASIR RIS","center_lonlat":[103.9484,1.3785]},"geometry":{"type":"Polygon","coordinates":[[[103.9729,1.3877],[103.9747,1.386],[103.9786,1.3787],[103.9749,1.374],[103.9793,1.3723],[103.98,1.3709],[103.9758,1.3669],[103.9742,1.3629],[103.9702,1.3601],[103.9685,1.3543],[103.9643,1.3527],[103.9622,1.3586],[103.9583,1.3632],[103.9546,1.3652],[103.9456,1.3675],[103.9411,1.371],[103.9319,1.3758],[103.9211,1.3794],[103.9175,1.3824],[103.9143,1.3859],[103.9167,1.3907],[103.9196,1.394],[103.9193,1.3938],[103.9198,1.3935],[103.9225,1.3958],[103.9221,1.3963],[103.9225,1.3958],[103.9246,1.3974],[103.924,1.3978],[103.9244,1.398],[103.925,1.3976],[103.9298,1.3993],[103.9296,1.4004],[103.9302,1.4006],[103.9301,1.3997],[103.9347,1.4011],[103.9387,1.3971],[103.9365,1.3947],[103.9364,1.393],[103.9406,1.3954],[103.9432,1.3926],[103.9428,1.3877],[103.9492,1.383],[103.9581,1.3813],[103.9648,1.3821],[103.9662,1.3806],[103.9675,1.3811],[103.9674,1.3832],[103.9729,1.3877]]]}},{"type":"Feature","id":"Paya Lebar","properties":{"id":"Paya Lebar","name":"Paya Lebar","name_full":"PAYA LEBAR","name_ja":"PAYA LEBAR","center_lonlat":[103.9147,1.3594]},"geometry":{"type":"Polygon","coordinates":[[[103.9319,1.3758],[103.9304,1.3721],[103.9309,1.3596],[103.925,1.3486],[103.9192,1.3457],[103.9159,1.3423],[103.913,1.3445],[103.9085,1.3411],[103.9076,1.3392],[103.9021,1.3387],[103.8979,1.3404],[103.8992,1.3435],[103.8984,1.3474],[103.8962,1.3468],[103.8938,1.3478],[103.8935,1.3488],[103.8957,1.354],[103.8972,1.3536],[103.8985,1.3562],[103.902,1.3572],[103.9064,1.3653],[103.91,1.3759],[103.9153,1.3797],[103.9175,1.3824],[103.9211,1.3794],[103.9319,1.3758]]]}},{"type":"Feature","id":"Seletar","properties":{"id":"Seletar","name":"Seletar","name_full":"SELETAR","name_ja":"SELETAR","center_lonlat":[103.8766,1.4143]},"geometry":{"type":"Polygon","coordinates":[[[103.8974,1.4149],[103.8972,1.4145],[103.8932,1.4151],[103.8929,1.4138],[103.8936,1.4139],[103.8949,1.4121],[103.8923,1.4085],[103.8929,1.4079],[103.8927,1.4076],[103.892,1.4082],[103.8869,1.4045],[103.886,1.4021],[103.8868,1.4016],[103.8868,1.4012],[103.8573,1.4005],[103.8556,1.4012],[103.8549,1.4025],[103.8551,1.4049],[103.8609,1.4098],[103.8619,1.4129],[103.8617,1.4177],[103.864,1.4219],[103.8672,1.4251],[103.8692,1.4268],[103.8702,1.429],[103.8736,1.4312],[103.8786,1.4318],[103.8881,1.4258],[103.8865,1.4236],[103.8873,1.4232],[103.8887,1.4254],[103.8969,1.4206],[103.8978,1.4179],[103.8965,1.4153],[103.8974,1.4149]],[[103.8737,1.4233],[103.8728,1.4235],[103.8746,1.4216],[103.8755,1.4187],[103.8771,1.4178],[103.878,1.4192],[103.8737,1.4233]],[[103.8838,1.4181],[103.887,1.4227],[103.8862,1.4231],[103.8828,1.4178],[103.8783,1.419],[103.8773,1.4175],[103.8782,1.4178],[103.8782,1.4169],[103.8786,1.4174],[103.8786,1.4165],[103.8805,1.4154],[103.8813,1.4165],[103.8846,1.4168],[103.8877,1.415],[103.8925,1.4139],[103.8929,1.4151],[103.8884,1.4157],[103.8836,1.4176],[103.8838,1.4181]]]}},{"type":"Feature","id":"Sembawang","properties":{"id":"Sembawang","name":"Sembawang","name_full":"SEMBAWANG","name_ja":"SEMBAWANG","center_lonlat":[103.8188,1.4557]},"geometry":{"type":"Polygon","coordinates":[[[103.8173,1.4708],[103.8173,1.4707],[103.8222,1.4686],[103.8186,1.465],[103.8194,1.4645],[103.8205,1.4661],[103.8228,1.4672],[103.8225,1.466],[103.8234,1.4657],[103.8217,1.4627],[103.8222,1.4624],[103.8243,1.4658],[103.8234,1.464],[103.8234,1.4639],[103.8234,1.464],[103.8226,1.461],[103.8275,1.4686],[103.8343,1.4647],[103.8319,1.4605],[103.8329,1.46],[103.8353,1.4642],[103.8369,1.4648],[103.8478,1.4605],[103.8331,1.4514],[103.8367,1.4456],[103.8304,1.4417],[103.8291,1.438],[103.8259,1.4354],[103.8236,1.4352],[103.8179,1.441],[103.8117,1.4443],[103.8063,1.4467],[103.804,1.4486],[103.8005,1.4567],[103.7976,1.4555],[103.7944,1.4582],[103.7918,1.462],[103.7949,1.4641],[103.7949,1.464],[103.7949,1.4641],[103.8016,1.4685],[103.8047,1.4696],[103.8086,1.4706],[103.8098,1.4698],[103.8173,1.4707],[103.8173,1.4708]]]}},{"type":"Feature","id":"Bedok","properties":{"id":"Bedok","name":"Bedok","name_full":"BEDOK","name_ja":"BEDOK","center_lonlat":[103.9284,1.3241]},"geometry":{"type":"Polygon","coordinates":[[[103.9636,1.3144],[103.9606,1.3138],[103.9557,1.3112],[103.9505,1.3108],[103.9412,1.3085],[103.9399,1.3073],[103.9336,1.3049],[103.9322,1.3056],[103.926,1.3032],[103.9259,1.3032],[103.926,1.3032],[103.9252,1.3036],[103.9215,1.3024],[103.9214,1.3024],[103.9215,1.3024],[103.9195,1.302],[103.9183,1.3075],[103.91,1.3055],[103.9067,1.3133],[103.9049,1.3193],[103.9059,1.3268],[103.9055,1.3285],[103.8962,1.3378],[103.8979,1.3404],[103.9021,1.3387],[103.9076,1.3392],[103.9085,1.3411],[103.913,1.3445],[103.9159,1.3423],[103.9192,1.3457],[103.925,1.3486],[103.9304,1.3447],[103.9386,1.3365],[103.949,1.3343],[103.9542,1.3266],[103.9604,1.3214],[103.9636,1.3144]]]}},{"type":"Feature","id":"Boon Lay","properties":{"id":"Boon Lay","name":"Boon Lay","name_full":"BOON LAY","name_ja":"BOON LAY","center_lonlat":[103.7022,1.3148]},"geometry":{"type":"Polygon","coordinates":[[[103.6816,1.3092],[103.6811,1.3106],[103.6895,1.3147],[103.6959,1.3152],[103.6965,1.3278],[103.7067,1.3278],[103.7211,1.3317],[103.7207,1.3286],[103.7192,1.3262],[103.7196,1.3236],[103.7203,1.3184],[103.7195,1.3143],[103.7098,1.3141],[103.7098,1.308],[103.7084,1.3076],[103.7084,1.3059],[103.7085,1.3059],[103.7084,1.3059],[103.7073,1.3029],[103.7078,1.3021],[103.7024,1.3018],[103.7023,1.304],[103.7002,1.3047],[103.7002,1.3048],[103.7002,1.3047],[103.6973,1.3076],[103.6953,1.308],[103.6994,1.3034],[103.6994,1.2995],[103.6962,1.2996],[103.6956,1.3005],[103.6944,1.3048],[103.6956,1.3066],[103.6951,1.3079],[103.6935,1.3051],[103.6938,1.3009],[103.6912,1.2999],[103.6839,1.2991],[103.6825,1.309],[103.6816,1.3092]]]}},{"type":"Feature","id":"Sengkang","properties":{"id":"Sengkang","name":"Sengkang","name_full":"SENGKANG","name_ja":"SENGKANG","center_lonlat":[103.8878,1.3911]},"geometry":{"type":"Polygon","coordinates":[[[103.9143,1.3859],[103.9175,1.3824],[103.9153,1.3797],[103.91,1.3759],[103.9085,1.3782],[103.9051,1.3804],[103.8967,1.3794],[103.8906,1.3804],[103.8837,1.3863],[103.8795,1.3886],[103.8731,1.3873],[103.8581,1.3911],[103.8577,1.3956],[103.8568,1.397],[103.8552,1.3977],[103.8524,1.3971],[103.8554,1.3994],[103.8556,1.4012],[103.8573,1.4005],[103.8868,1.4012],[103.8953,1.4001],[103.9013,1.3982],[103.9074,1.3939],[103.9143,1.3859]]]}},{"type":"Feature","id":"Serangoon","properties":{"id":"Serangoon","name":"Serangoon","name_full":"SERANGOON","name_ja":"SERANGOON","center_lonlat":[103.8678,1.3654]},"geometry":{"type":"Polygon","coordinates":[[[103.8851,1.3409],[103.8772,1.3443],[103.87,1.3427],[103.8656,1.3443],[103.8604,1.3434],[103.8569,1.3555],[103.8609,1.3683],[103.8584,1.3771],[103.8581,1.3911],[103.8731,1.3873],[103.8764,1.3846],[103.8769,1.3825],[103.8767,1.3714],[103.8733,1.3625],[103.8739,1.3593],[103.8781,1.3539],[103.8765,1.3524],[103.8791,1.3512],[103.8805,1.3469],[103.8851,1.3409]]]}},{"type":"Feature","id":"Ang Mo Kio","properties":{"id":"Ang Mo Kio","name":"Ang Mo Kio","name_full":"ANG MO KIO","name_ja":"ANG MO KIO","center_lonlat":[103.842,1.38]},"geometry":{"type":"Polygon","coordinates":[[[103.8581,1.3911],[103.8584,1.3771],[103.8609,1.3683],[103.8569,1.3555],[103.8551,1.3564],[103.8519,1.3607],[103.8476,1.3636],[103.841,1.3646],[103.8319,1.3677],[103.8283,1.3675],[103.8273,1.3692],[103.8278,1.3724],[103.8263,1.3734],[103.8263,1.3763],[103.8278,1.3774],[103.8273,1.3791],[103.8257,1.3798],[103.8237,1.3787],[103.8207,1.3805],[103.8178,1.3802],[103.8195,1.3853],[103.8189,1.3867],[103.8167,1.3869],[103.8184,1.3886],[103.818,1.3905],[103.8188,1.3943],[103.8274,1.3929],[103.842,1.3963],[103.8524,1.3971],[103.8552,1.3977],[103.8568,1.397],[103.8577,1.3956],[103.8581,1.3911]]]}},{"type":"Feature","id":"Tengah","properties":{"id":"Tengah","name":"Tengah","name_full":"TENGAH","name_ja":"TENGAH","center_lonlat":[103.7288,1.364]},"geometry":{"type":"Polygon","coordinates":[[[103.7373,1.346],[103.7321,1.3511],[103.7281,1.3536],[103.724,1.3553],[103.7179,1.3558],[103.7153,1.3568],[103.7062,1.3643],[103.7096,1.3667],[103.723,1.3708],[103.7327,1.3789],[103.738,1.374],[103.7454,1.3718],[103.7485,1.3691],[103.7443,1.3654],[103.737,1.3566],[103.7367,1.3537],[103.7383,1.3494],[103.7373,1.346]]]}},{"type":"Feature","id":"Toa Payoh","properties":{"id":"Toa Payoh","name":"Toa Payoh","name_full":"TOA PAYOH","name_ja":"TOA PAYOH","center_lonlat":[103.861,1.3367]},"geometry":{"type":"Polygon","coordinates":[[[103.8604,1.3434],[103.8656,1.3443],[103.87,1.3427],[103.8772,1.3443],[103.8851,1.3409],[103.8889,1.3336],[103.8796,1.3315],[103.8688,1.3278],[103.8624,1.3304],[103.8566,1.3291],[103.8478,1.3298],[103.8427,1.3296],[103.8406,1.3288],[103.8372,1.3347],[103.8373,1.3393],[103.836,1.3417],[103.8365,1.342],[103.8412,1.3451],[103.8448,1.3439],[103.8604,1.3434]]]}},{"type":"Feature","id":"Western Water Catchment","properties":{"id":"Western Water Catchment","name":"Western Water Catchment","name_full":"WESTERN WATER CATCHMENT","name_ja":"WESTERN WATER CATCHMENT","center_lonlat":[103.6898,1.3821]},"geometry":{"type":"Polygon","coordinates":[[[103.693,1.4337],[103.695,1.4315],[103.6958,1.4277],[103.6971,1.4261],[103.697,1.4243],[103.7001,1.4232],[103.6986,1.4186],[103.7016,1.4181],[103.701,1.4168],[103.7054,1.4122],[103.7134,1.413],[103.7156,1.4145],[103.7186,1.4111],[103.7281,1.4112],[103.7393,1.4223],[103.7421,1.414],[103.7418,1.4085],[103.7433,1.4065],[103.746,1.4055],[103.7436,1.4021],[103.7427,1.3961],[103.7402,1.3913],[103.7416,1.3866],[103.7327,1.3789],[103.723,1.3708],[103.7096,1.3667],[103.7062,1.3643],[103.6905,1.346],[103.6827,1.34],[103.6779,1.3384],[103.6749,1.331],[103.6677,1.328],[103.6654,1.3301],[103.6571,1.3336],[103.6514,1.3398],[103.6517,1.3435],[103.6499,1.3449],[103.647,1.3454],[103.6388,1.3531],[103.6404,1.3581],[103.6406,1.3576],[103.6438,1.3607],[103.6468,1.3677],[103.649,1.3707],[103.6493,1.3726],[103.6512,1.3733],[103.6512,1.3747],[103.6528,1.3731],[103.6527,1.3746],[103.6536,1.3748],[103.6572,1.3822],[103.657,1.3836],[103.658,1.3833],[103.6574,1.3842],[103.6591,1.3858],[103.6598,1.386],[103.6602,1.3851],[103.6598,1.387],[103.6615,1.3886],[103.6616,1.3906],[103.6628,1.3926],[103.6629,1.3973],[103.6621,1.3989],[103.6632,1.4003],[103.6633,1.4003],[103.6632,1.4003],[103.6629,1.4014],[103.6639,1.402],[103.6624,1.4054],[103.6643,1.4063],[103.6654,1.4091],[103.6681,1.4087],[103.6706,1.4117],[103.6706,1.4133],[103.6727,1.4138],[103.6715,1.416],[103.6719,1.4177],[103.6731,1.418],[103.6722,1.4192],[103.6737,1.4201],[103.6748,1.4192],[103.6749,1.4207],[103.6741,1.4205],[103.6735,1.422],[103.6742,1.4251],[103.676,1.4263],[103.6769,1.4261],[103.6765,1.4268],[103.678,1.4291],[103.679,1.4285],[103.6814,1.4291],[103.6833,1.4312],[103.6859,1.43],[103.6858,1.4315],[103.6878,1.4317],[103.6886,1.4331],[103.693,1.4337]]]}},{"type":"Feature","id":"Yishun","properties":{"id":"Yishun","name":"Yishun","name_full":"YISHUN","name_ja":"YISHUN","center_lonlat":[103.837,1.4151]},"geometry":{"type":"Polygon","coordinates":[[[103.8621,1.4246],[103.8638,1.4238],[103.8672,1.4251],[103.864,1.4219],[103.8617,1.4177],[103.8619,1.4129],[103.8609,1.4098],[103.8551,1.4049],[103.8549,1.4025],[103.8556,1.4012],[103.8554,1.3994],[103.8524,1.3971],[103.842,1.3963],[103.8274,1.3929],[103.8188,1.3943],[103.8162,1.3952],[103.8141,1.3973],[103.8118,1.4028],[103.8091,1.4063],[103.8058,1.4144],[103.8104,1.4154],[103.8153,1.4136],[103.8208,1.4143],[103.8231,1.4134],[103.8269,1.4285],[103.8259,1.4354],[103.8291,1.438],[103.8304,1.4417],[103.8367,1.4456],[103.8446,1.4393],[103.8468,1.4347],[103.8534,1.4285],[103.8621,1.4246]]]}},{"type":"Feature","id":"Downtown Core","properties":{"id":"Downtown Core","name":"Downtown Core","name_full":"DOWNTOWN CORE","name_ja":"DOWNTOWN CORE","center_lonlat":[103.8543,1.285]},"geometry":{"type":"Polygon","coordinates":[[[103.8645,1.294],[103.8645,1.2933],[103.8648,1.2889],[103.8618,1.2886],[103.8613,1.2835],[103.8584,1.278],[103.8525,1.2687],[103.8516,1.2693],[103.8457,1.2726],[103.8422,1.2726],[103.8414,1.2742],[103.8431,1.2746],[103.8433,1.2757],[103.8445,1.2755],[103.8452,1.2792],[103.8441,1.2806],[103.8448,1.2813],[103.8454,1.2802],[103.846,1.2807],[103.8476,1.2795],[103.8492,1.2818],[103.8485,1.2822],[103.8497,1.2838],[103.8472,1.2854],[103.8478,1.2864],[103.8495,1.2856],[103.8508,1.2863],[103.8483,1.2901],[103.8523,1.2964],[103.8559,1.3006],[103.8542,1.3031],[103.8562,1.3025],[103.8594,1.2998],[103.8611,1.2975],[103.8616,1.2948],[103.8629,1.2939],[103.8645,1.294]]]}},{"type":"Feature","id":"Marina East","properties":{"id":"Marina East","name":"Marina East","name_full":"MARINA EAST","name_ja":"MARINA EAST","center_lonlat":[103.8736,1.2886]},"geometry":{"type":"Polygon","coordinates":[[[103.8801,1.2838],[103.8801,1.2839],[103.8801,1.2838],[103.8759,1.2808],[103.8775,1.281],[103.8774,1.2805],[103.8755,1.2808],[103.8738,1.2822],[103.8725,1.2813],[103.8726,1.2815],[103.8726,1.2816],[103.8726,1.2815],[103.8731,1.2818],[103.873,1.2819],[103.8731,1.2818],[103.8736,1.2823],[103.8691,1.2877],[103.8665,1.2936],[103.8645,1.2933],[103.8645,1.294],[103.8777,1.2955],[103.8761,1.2941],[103.8754,1.2915],[103.881,1.2849],[103.8811,1.2848],[103.8801,1.2838]]]}},{"type":"Feature","id":"Newton","properties":{"id":"Newton","name":"Newton","name_full":"NEWTON","name_ja":"NEWTON","center_lonlat":[103.8379,1.3087]},"geometry":{"type":"Polygon","coordinates":[[[103.847,1.3081],[103.8466,1.3069],[103.8487,1.3054],[103.8484,1.3038],[103.8459,1.3048],[103.8454,1.3014],[103.8443,1.2996],[103.843,1.3],[103.8431,1.3012],[103.8413,1.3028],[103.8398,1.3033],[103.8392,1.3016],[103.8377,1.3023],[103.8372,1.3045],[103.8351,1.3042],[103.834,1.305],[103.8337,1.306],[103.8359,1.3068],[103.8349,1.3095],[103.8342,1.3098],[103.8332,1.308],[103.8317,1.308],[103.8313,1.3071],[103.8283,1.3082],[103.8278,1.3075],[103.8267,1.3091],[103.8278,1.3119],[103.8353,1.3174],[103.8395,1.3127],[103.8443,1.3106],[103.847,1.3081]]]}},{"type":"Feature","id":"Orchard","properties":{"id":"Orchard","name":"Orchard","name_full":"ORCHARD","name_ja":"ORCHARD","center_lonlat":[103.8335,1.3038]},"geometry":{"type":"Polygon","coordinates":[[[103.843,1.3],[103.8428,1.2994],[103.8416,1.2998],[103.8414,1.2991],[103.8379,1.2984],[103.8374,1.2997],[103.8348,1.3004],[103.8294,1.3046],[103.8234,1.3027],[103.8227,1.3051],[103.8249,1.3055],[103.8278,1.3075],[103.8283,1.3082],[103.8313,1.3071],[103.8317,1.308],[103.8332,1.308],[103.8342,1.3098],[103.8349,1.3095],[103.8359,1.3068],[103.8337,1.306],[103.834,1.305],[103.8351,1.3042],[103.8372,1.3045],[103.8377,1.3023],[103.8392,1.3016],[103.8398,1.3033],[103.8413,1.3028],[103.8431,1.3012],[103.843,1.3]]]}},{"type":"Feature","id":"Woodlands","properties":{"id":"Woodlands","name":"Woodlands","name_full":"WOODLANDS","name_ja":"WOODLANDS","center_lonlat":[103.7877,1.4407]},"geometry":{"type":"Polygon","coordinates":[[[103.7918,1.462],[103.7944,1.4582],[103.7976,1.4555],[103.8005,1.4567],[103.804,1.4486],[103.8063,1.4467],[103.8117,1.4443],[103.8107,1.4406],[103.795,1.4226],[103.7885,1.4258],[103.7825,1.4266],[103.7762,1.425],[103.7713,1.4215],[103.7709,1.4254],[103.7688,1.4319],[103.7684,1.4405],[103.7668,1.4406],[103.7644,1.4434],[103.767,1.4442],[103.7671,1.4442],[103.767,1.4442],[103.7675,1.4466],[103.7698,1.4492],[103.7692,1.4526],[103.7709,1.4485],[103.7834,1.4555],[103.7858,1.458],[103.7918,1.462]]]}},{"type":"Feature","id":"Marina South","properties":{"id":"Marina South","name":"Marina South","name_full":"MARINA SOUTH","name_ja":"MARINA SOUTH","center_lonlat":[103.8654,1.2793]},"geometry":{"type":"Polygon","coordinates":[[[103.8725,1.2813],[103.8716,1.28],[103.8718,1.2802],[103.8716,1.28],[103.8721,1.2778],[103.8716,1.2767],[103.8664,1.2728],[103.8584,1.278],[103.8613,1.2835],[103.8618,1.2886],[103.8618,1.286],[103.8671,1.284],[103.8705,1.2816],[103.8704,1.2817],[103.8705,1.2816],[103.8706,1.2817],[103.8705,1.2818],[103.8706,1.2817],[103.8714,1.2806],[103.8719,1.2809],[103.8718,1.281],[103.8719,1.2809],[103.8721,1.2811],[103.8722,1.2811],[103.8721,1.2811],[103.8722,1.2811],[103.8724,1.2813],[103.8723,1.2814],[103.8724,1.2813],[103.8725,1.2813]]]}},{"type":"Feature","id":"Museum","properties":{"id":"Museum","name":"Museum","name_full":"MUSEUM","name_ja":"MUSEUM","center_lonlat":[103.8468,1.2959]},"geometry":{"type":"Polygon","coordinates":[[[103.8523,1.2964],[103.8483,1.2901],[103.8421,1.2941],[103.8433,1.2967],[103.8414,1.2991],[103.8416,1.2998],[103.8428,1.2994],[103.843,1.3],[103.8443,1.2996],[103.8454,1.3014],[103.8464,1.3001],[103.8495,1.2996],[103.8495,1.2986],[103.8523,1.2964]]]}},{"type":"Feature","id":"Hougang","properties":{"id":"Hougang","name":"Hougang","name_full":"HOUGANG","name_ja":"HOUGANG","center_lonlat":[103.8898,1.3636]},"geometry":{"type":"Polygon","coordinates":[[[103.91,1.3759],[103.9064,1.3653],[103.902,1.3572],[103.8985,1.3562],[103.8972,1.3536],[103.8957,1.354],[103.8935,1.3488],[103.8938,1.3478],[103.8962,1.3468],[103.8984,1.3474],[103.8992,1.3435],[103.8979,1.3404],[103.8962,1.3378],[103.8928,1.335],[103.8889,1.3336],[103.8851,1.3409],[103.8805,1.3469],[103.8791,1.3512],[103.8765,1.3524],[103.8781,1.3539],[103.8739,1.3593],[103.8733,1.3625],[103.8767,1.3714],[103.8769,1.3825],[103.8764,1.3846],[103.8731,1.3873],[103.8795,1.3886],[103.8837,1.3863],[103.8906,1.3804],[103.8967,1.3794],[103.9051,1.3804],[103.9085,1.3782],[103.91,1.3759]]]}},{"type":"Feature","id":"Jurong East","properties":{"id":"Jurong East","name":"Jurong East","name_full":"JURONG EAST","name_ja":"JURONG EAST","center_lonlat":[103.7348,1.3205]},"geometry":{"type":"Polygon","coordinates":[[[103.7119,1.2974],[103.7113,1.2974],[103.7114,1.3072],[103.7109,1.3084],[103.7098,1.308],[103.7098,1.3078],[103.7098,1.308],[103.7098,1.3141],[103.7195,1.3143],[103.7203,1.3184],[103.7196,1.3236],[103.726,1.325],[103.7248,1.3282],[103.7251,1.3368],[103.7234,1.3401],[103.7216,1.3416],[103.7214,1.343],[103.7222,1.345],[103.7282,1.3444],[103.7281,1.3536],[103.7321,1.3511],[103.7373,1.346],[103.7435,1.3445],[103.7494,1.3413],[103.7486,1.3395],[103.75,1.3271],[103.7522,1.3229],[103.7476,1.3137],[103.7477,1.3098],[103.7528,1.3076],[103.7573,1.2984],[103.7554,1.2971],[103.749,1.2965],[103.7442,1.298],[103.7438,1.2988],[103.7448,1.3009],[103.7434,1.3013],[103.7409,1.2988],[103.7301,1.3016],[103.7275,1.3003],[103.7222,1.303],[103.7158,1.3084],[103.7122,1.3084],[103.7125,1.3065],[103.7154,1.3059],[103.7209,1.3012],[103.7204,1.2998],[103.7227,1.2996],[103.7119,1.2996],[103.7119,1.2974]]]}},{"type":"Feature","id":"Lim Chu Kang","properties":{"id":"Lim Chu Kang","name":"Lim Chu Kang","name_full":"LIM CHU KANG","name_ja":"LIM CHU KANG","center_lonlat":[103.7193,1.4306]},"geometry":{"type":"Polygon","coordinates":[[[103.7324,1.4469],[103.7322,1.4469],[103.7316,1.4464],[103.7312,1.4461],[103.7316,1.4464],[103.7322,1.4469],[103.7324,1.4469],[103.7325,1.4463],[103.7327,1.446],[103.7325,1.4463],[103.7379,1.4428],[103.7381,1.4421],[103.7365,1.4404],[103.737,1.4387],[103.7372,1.4374],[103.7385,1.4383],[103.7408,1.4383],[103.7434,1.4308],[103.7433,1.4264],[103.7393,1.4223],[103.7281,1.4112],[103.7186,1.4111],[103.7156,1.4145],[103.7134,1.413],[103.7054,1.4122],[103.701,1.4168],[103.7016,1.4181],[103.6986,1.4186],[103.7001,1.4232],[103.697,1.4243],[103.6971,1.4261],[103.6958,1.4277],[103.695,1.4315],[103.693,1.4337],[103.6961,1.435],[103.7001,1.4396],[103.7025,1.4409],[103.7065,1.4448],[103.7066,1.4459],[103.7076,1.4455],[103.71,1.4478],[103.71,1.4477],[103.71,1.4478],[103.7123,1.449],[103.7123,1.4489],[103.7123,1.449],[103.7194,1.4511],[103.7274,1.4512],[103.7305,1.4499],[103.7316,1.4485],[103.7311,1.449],[103.7306,1.4479],[103.732,1.4478],[103.7324,1.4469]]]}},{"type":"Feature","id":"Mandai","properties":{"id":"Mandai","name":"Mandai","name_full":"MANDAI","name_ja":"MANDAI","center_lonlat":[103.8025,1.4236]},"geometry":{"type":"Polygon","coordinates":[[[103.8259,1.4354],[103.8269,1.4285],[103.8231,1.4134],[103.8208,1.4143],[103.8153,1.4136],[103.8104,1.4154],[103.8058,1.4144],[103.8032,1.4161],[103.8013,1.4161],[103.7832,1.4109],[103.7717,1.41],[103.7713,1.4215],[103.7762,1.425],[103.7825,1.4266],[103.7885,1.4258],[103.795,1.4226],[103.8107,1.4406],[103.8117,1.4443],[103.8179,1.441],[103.8236,1.4352],[103.8259,1.4354]]]}},{"type":"Feature","id":"Marine Parade","properties":{"id":"Marine Parade","name":"Marine Parade","name_full":"MARINE PARADE","name_ja":"MARINE PARADE","center_lonlat":[103.8962,1.3002]},"geometry":{"type":"Polygon","coordinates":[[[103.9195,1.302],[103.8991,1.2956],[103.8949,1.2932],[103.8934,1.2936],[103.8902,1.2904],[103.8886,1.2908],[103.8854,1.2877],[103.884,1.288],[103.881,1.2849],[103.8811,1.2848],[103.881,1.2849],[103.8754,1.2915],[103.8761,1.2941],[103.8777,1.2955],[103.8853,1.2958],[103.8855,1.3013],[103.8838,1.3046],[103.8845,1.3054],[103.8897,1.3063],[103.8897,1.3086],[103.8946,1.3096],[103.9015,1.3095],[103.9067,1.3133],[103.91,1.3055],[103.9183,1.3075],[103.9195,1.302]]]}},{"type":"Feature","id":"North-Eastern Islands","properties":{"id":"North-Eastern Islands","name":"North-Eastern Islands","name_full":"NORTH-EASTERN ISLANDS","name_ja":"NORTH-EASTERN ISLANDS","center_lonlat":[104.0516,1.3989]},"geometry":{"type":"MultiPolygon","coordinates":[[[[104.0743,1.4238],[104.0743,1.4237],[104.0743,1.4238],[104.0816,1.4174],[104.0851,1.4101],[104.0837,1.4072],[104.0866,1.4063],[104.0884,1.4032],[104.0877,1.3962],[104.0795,1.3811],[104.0764,1.3724],[104.0746,1.3636],[104.0752,1.3555],[104.0842,1.3402],[104.0829,1.3377],[104.0806,1.3379],[104.0323,1.3789],[104.0203,1.3902],[104.0175,1.3949],[104.0155,1.4012],[104.0163,1.402],[104.0249,1.4018],[104.0277,1.4026],[104.0296,1.4047],[104.0284,1.4081],[104.0283,1.4081],[104.0284,1.4081],[104.0302,1.4114],[104.0281,1.4122],[104.0224,1.4086],[104.0135,1.4094],[104.0122,1.4108],[104.009,1.4198],[104.0092,1.4231],[104.0106,1.4258],[104.0211,1.4353],[104.0243,1.4371],[104.037,1.4406],[104.0435,1.4398],[104.0468,1.435],[104.0536,1.4338],[104.0548,1.4313],[104.0574,1.4318],[104.0636,1.4298],[104.0709,1.4265],[104.0743,1.4238]]],[[[103.9555,1.419],[103.9555,1.4189],[103.9555,1.419],[103.9555,1.4189],[103.9559,1.4177],[103.9614,1.4177],[103.9704,1.4197],[103.9742,1.4182],[103.9822,1.4176],[103.9857,1.4191],[103.9933,1.4195],[103.9973,1.4178],[104.0007,1.4123],[104.0029,1.4033],[104.0011,1.4028],[103.9964,1.4041],[103.9887,1.4041],[103.988,1.4027],[103.9873,1.404],[103.9873,1.4041],[103.9873,1.404],[103.9782,1.4042],[103.9748,1.4025],[103.9729,1.4035],[103.9725,1.403],[103.9724,1.4031],[103.9725,1.403],[103.9707,1.4021],[103.9697,1.4024],[103.9675,1.4009],[103.9584,1.3995],[103.9555,1.4029],[103.9549,1.4049],[103.9535,1.4058],[103.9504,1.4057],[103.9489,1.4099],[103.9341,1.4158],[103.9337,1.4172],[103.9302,1.4175],[103.9282,1.4192],[103.9286,1.4197],[103.9281,1.4195],[103.9275,1.4218],[103.9264,1.4224],[103.9264,1.4237],[103.9292,1.4243],[103.9305,1.4261],[103.9337,1.4281],[103.9429,1.4243],[103.9458,1.4239],[103.9481,1.4226],[103.9494,1.4204],[103.9524,1.419],[103.9555,1.419]]],[[[103.947,1.4076],[103.9496,1.4042],[103.9536,1.403],[103.9541,1.3986],[103.9488,1.4028],[103.944,1.4081],[103.947,1.4076]]]]}},{"type":"Feature","id":"Pioneer","properties":{"id":"Pioneer","name":"Pioneer","name_full":"PIONEER","name_ja":"PIONEER","center_lonlat":[103.6729,1.3126]},"geometry":{"type":"Polygon","coordinates":[[[103.6965,1.3278],[103.6959,1.3152],[103.6895,1.3147],[103.6811,1.3106],[103.6816,1.3092],[103.6807,1.3089],[103.6807,1.3078],[103.6819,1.298],[103.6791,1.2972],[103.6791,1.2971],[103.6791,1.2972],[103.6784,1.2966],[103.673,1.3026],[103.6725,1.3068],[103.6725,1.3069],[103.6725,1.3068],[103.6688,1.3063],[103.6693,1.3013],[103.6743,1.2953],[103.674,1.2956],[103.6743,1.2953],[103.6666,1.2887],[103.6647,1.2919],[103.6586,1.2949],[103.659,1.2958],[103.6577,1.2968],[103.6563,1.2961],[103.6559,1.2967],[103.6568,1.2975],[103.6538,1.301],[103.6518,1.2994],[103.6498,1.3017],[103.6559,1.3086],[103.6559,1.3085],[103.6559,1.3086],[103.6575,1.3101],[103.6571,1.3111],[103.6582,1.3123],[103.656,1.3147],[103.6677,1.328],[103.6749,1.331],[103.6795,1.3302],[103.6793,1.3278],[103.6965,1.3278]]]}},{"type":"Feature","id":"Punggol","properties":{"id":"Punggol","name":"Punggol","name_full":"PUNGGOL","name_ja":"PUNGGOL","center_lonlat":[103.9098,1.4055]},"geometry":{"type":"Polygon","coordinates":[[[103.9302,1.4006],[103.9296,1.4004],[103.9296,1.4016],[103.9279,1.4036],[103.9239,1.4044],[103.9232,1.4036],[103.9245,1.4029],[103.9246,1.4013],[103.9258,1.4004],[103.9238,1.3986],[103.9244,1.398],[103.924,1.3978],[103.9233,1.3983],[103.9216,1.397],[103.9221,1.3963],[103.9216,1.397],[103.919,1.3943],[103.9193,1.3938],[103.9196,1.394],[103.9167,1.3907],[103.9143,1.3859],[103.9074,1.3939],[103.9013,1.3982],[103.8953,1.4001],[103.8868,1.4012],[103.8868,1.4016],[103.8877,1.4015],[103.8882,1.4036],[103.8932,1.4072],[103.8933,1.4072],[103.8932,1.4072],[103.8927,1.4076],[103.8929,1.4079],[103.8935,1.4075],[103.8958,1.4094],[103.8959,1.4094],[103.8958,1.4094],[103.8978,1.4135],[103.899,1.4136],[103.8991,1.4136],[103.899,1.4136],[103.8978,1.4135],[103.8972,1.4145],[103.8974,1.4149],[103.8981,1.4147],[103.9001,1.4178],[103.9038,1.4202],[103.907,1.42],[103.908,1.4211],[103.9106,1.4215],[103.9126,1.4211],[103.914,1.4184],[103.9141,1.4162],[103.9163,1.4173],[103.9184,1.4154],[103.9191,1.4136],[103.9235,1.4112],[103.9309,1.4039],[103.9311,1.4025],[103.9298,1.4016],[103.9302,1.4006]],[[103.9236,1.4045],[103.922,1.4066],[103.9181,1.4091],[103.9151,1.4161],[103.9142,1.416],[103.9148,1.4126],[103.9171,1.4086],[103.9161,1.407],[103.9173,1.4084],[103.9213,1.4047],[103.9206,1.4035],[103.9214,1.4046],[103.9229,1.4038],[103.9236,1.4045]]]}},{"type":"Feature","id":"Queenstown","properties":{"id":"Queenstown","name":"Queenstown","name_full":"QUEENSTOWN","name_ja":"QUEENSTOWN","center_lonlat":[103.7846,1.2891]},"geometry":{"type":"Polygon","coordinates":[[[103.7849,1.3113],[103.7848,1.3113],[103.7849,1.3113],[103.7858,1.3138],[103.7848,1.315],[103.7867,1.3158],[103.7901,1.3127],[103.7912,1.3103],[103.7911,1.3112],[103.7931,1.3134],[103.794,1.3128],[103.7944,1.3103],[103.799,1.308],[103.7998,1.3097],[103.8023,1.3072],[103.8033,1.3065],[103.8048,1.3005],[103.8077,1.2997],[103.8084,1.3003],[103.8086,1.2984],[103.8105,1.2968],[103.8166,1.2968],[103.816,1.2941],[103.8154,1.2915],[103.809,1.2925],[103.8027,1.2862],[103.8013,1.2835],[103.8031,1.2791],[103.802,1.2753],[103.8022,1.2727],[103.8016,1.2728],[103.7992,1.2682],[103.7983,1.2666],[103.794,1.2692],[103.7855,1.255],[103.7786,1.2592],[103.7865,1.2729],[103.7769,1.2787],[103.7707,1.2682],[103.7502,1.2805],[103.753,1.2853],[103.7565,1.2859],[103.7691,1.2783],[103.7723,1.2837],[103.7607,1.2906],[103.7631,1.2945],[103.7623,1.295],[103.7623,1.2949],[103.7623,1.295],[103.7587,1.2992],[103.7623,1.3013],[103.7667,1.2922],[103.7674,1.2916],[103.7692,1.294],[103.7723,1.3121],[103.7712,1.3187],[103.7787,1.3131],[103.7849,1.3113]]]}},{"type":"Feature","id":"Southern Islands","properties":{"id":"Southern Islands","name":"Southern Islands","name_full":"SOUTHERN ISLANDS","name_ja":"SOUTHERN ISLANDS","center_lonlat":[103.8297,1.2497]},"geometry":{"type":"MultiPolygon","coordinates":[[[[103.8236,1.2567],[103.8235,1.2567],[103.8236,1.2567],[103.8236,1.2584],[103.824,1.2582],[103.824,1.2563],[103.8272,1.2546],[103.8323,1.2547],[103.8351,1.2532],[103.8372,1.2532],[103.8384,1.2541],[103.8416,1.2537],[103.8423,1.2522],[103.8465,1.2532],[103.8484,1.2521],[103.8437,1.2444],[103.8372,1.2387],[103.8364,1.2386],[103.8371,1.2394],[103.8351,1.2391],[103.8327,1.2378],[103.8298,1.2396],[103.8304,1.2406],[103.8287,1.2425],[103.8276,1.2429],[103.8271,1.242],[103.8272,1.242],[103.8271,1.242],[103.8235,1.2458],[103.8239,1.2475],[103.8213,1.2496],[103.82,1.2496],[103.8205,1.2492],[103.8199,1.2488],[103.819,1.2492],[103.816,1.2513],[103.816,1.2522],[103.813,1.2548],[103.8101,1.2563],[103.8106,1.2549],[103.8105,1.2548],[103.8106,1.2549],[103.8077,1.2584],[103.8076,1.2584],[103.8077,1.2584],[103.8067,1.2598],[103.8088,1.26],[103.8088,1.2601],[103.8088,1.26],[103.8147,1.2588],[103.8182,1.26],[103.8199,1.259],[103.8198,1.2593],[103.8199,1.259],[103.8212,1.2577],[103.8213,1.2584],[103.8231,1.2576],[103.8232,1.2586],[103.8235,1.2585],[103.8236,1.2567]]],[[[103.8511,1.2312],[103.851,1.231],[103.851,1.2309],[103.851,1.231],[103.8511,1.2312],[103.8583,1.2322],[103.8574,1.2294],[103.8552,1.2285],[103.854,1.2291],[103.8532,1.2273],[103.8539,1.2257],[103.8559,1.2259],[103.8563,1.2236],[103.8595,1.2201],[103.8581,1.2197],[103.8583,1.218],[103.857,1.2176],[103.8525,1.2227],[103.8513,1.2209],[103.8516,1.2197],[103.8515,1.2191],[103.8516,1.2197],[103.8508,1.2195],[103.8511,1.2175],[103.8516,1.2178],[103.8511,1.2153],[103.8522,1.2141],[103.8514,1.2134],[103.849,1.2152],[103.8432,1.2222],[103.8455,1.2235],[103.8484,1.2223],[103.8483,1.2215],[103.8495,1.2208],[103.8506,1.2211],[103.8498,1.2216],[103.8506,1.2211],[103.8512,1.2209],[103.8523,1.2227],[103.8524,1.2243],[103.8502,1.2258],[103.8511,1.2265],[103.852,1.226],[103.8521,1.2279],[103.8502,1.2278],[103.85,1.2291],[103.8482,1.2267],[103.8468,1.2265],[103.8468,1.2272],[103.8491,1.2282],[103.8494,1.2296],[103.8482,1.2309],[103.8478,1.2303],[103.8481,1.2302],[103.8478,1.2303],[103.8456,1.2324],[103.8486,1.2317],[103.8495,1.2297],[103.8517,1.2306],[103.8511,1.2312]]],[[[103.8554,1.2409],[103.8552,1.2395],[103.8542,1.2389],[103.8499,1.2405],[103.846,1.2377],[103.8447,1.2384],[103.8459,1.2405],[103.8493,1.2425],[103.8522,1.2456],[103.8542,1.2441],[103.8554,1.2409]]],[[[103.8406,1.2287],[103.8397,1.2275],[103.837,1.2292],[103.8353,1.2329],[103.8361,1.2349],[103.8377,1.2343],[103.8395,1.232],[103.8406,1.2287]]],[[[103.8613,1.2247],[103.8609,1.225],[103.8613,1.2247],[103.8628,1.2219],[103.8622,1.221],[103.8618,1.2208],[103.8614,1.2211],[103.8618,1.2208],[103.8622,1.221],[103.8626,1.2217],[103.8603,1.2225],[103.8602,1.2225],[103.8603,1.2225],[103.8606,1.222],[103.8602,1.2225],[103.8596,1.2234],[103.8605,1.2236],[103.8596,1.224],[103.8592,1.2234],[103.8581,1.2253],[103.8605,1.2243],[103.8613,1.2247]]]]}},{"type":"Feature","id":"Tuas","properties":{"id":"Tuas","name":"Tuas","name_full":"TUAS","name_ja":"TUAS","center_lonlat":[103.6328,1.2785]},"geometry":{"type":"Polygon","coordinates":[[[103.6677,1.328],[103.656,1.3147],[103.6582,1.3123],[103.6571,1.3111],[103.6562,1.3115],[103.6563,1.3116],[103.6562,1.3115],[103.6542,1.3093],[103.6541,1.3094],[103.6542,1.3093],[103.6498,1.3053],[103.6465,1.3082],[103.6465,1.3096],[103.6521,1.3153],[103.6496,1.3175],[103.6437,1.3115],[103.6398,1.3141],[103.6399,1.3141],[103.6398,1.3141],[103.6376,1.3162],[103.6345,1.3118],[103.638,1.3088],[103.645,1.3006],[103.6465,1.2917],[103.6502,1.2843],[103.6497,1.2816],[103.6481,1.2798],[103.6463,1.2791],[103.6404,1.2791],[103.6397,1.2698],[103.6434,1.2698],[103.6434,1.2609],[103.6173,1.2609],[103.6173,1.254],[103.6444,1.254],[103.6444,1.248],[103.6378,1.245],[103.6173,1.245],[103.6173,1.2382],[103.6498,1.2382],[103.6498,1.2292],[103.6173,1.2292],[103.6173,1.2216],[103.6569,1.2216],[103.6586,1.2172],[103.6481,1.2133],[103.6433,1.2107],[103.6093,1.219],[103.6069,1.2203],[103.6057,1.223],[103.6057,1.2437],[103.6124,1.2437],[103.6124,1.2464],[103.6088,1.2464],[103.6088,1.2529],[103.612,1.2529],[103.612,1.2557],[103.6097,1.2557],[103.6097,1.2602],[103.6057,1.2602],[103.6057,1.2616],[103.6115,1.2772],[103.6177,1.2807],[103.6201,1.2846],[103.6202,1.2881],[103.6182,1.2933],[103.6175,1.2934],[103.6178,1.2968],[103.618,1.2963],[103.6191,1.298],[103.6315,1.3312],[103.6348,1.3408],[103.6345,1.3423],[103.6365,1.3454],[103.6345,1.3465],[103.6344,1.3496],[103.6345,1.3497],[103.6344,1.3496],[103.6333,1.3508],[103.6346,1.3499],[103.6372,1.3517],[103.6382,1.3505],[103.6388,1.3531],[103.647,1.3454],[103.6499,1.3449],[103.6517,1.3435],[103.6514,1.3398],[103.6571,1.3336],[103.6654,1.3301],[103.6677,1.328]]]}},{"type":"Feature","id":"Jurong West","properties":{"id":"Jurong West","name":"Jurong West","name_full":"JURONG WEST","name_ja":"JURONG WEST","center_lonlat":[103.7049,1.3416]},"geometry":{"type":"Polygon","coordinates":[[[103.7196,1.3236],[103.7192,1.3262],[103.7207,1.3286],[103.7211,1.3317],[103.7067,1.3278],[103.6965,1.3278],[103.6793,1.3278],[103.6795,1.3302],[103.6749,1.331],[103.6779,1.3384],[103.6827,1.34],[103.6905,1.346],[103.7062,1.3643],[103.7153,1.3568],[103.7179,1.3558],[103.724,1.3553],[103.7281,1.3536],[103.7282,1.3444],[103.7222,1.345],[103.7214,1.343],[103.7216,1.3416],[103.7234,1.3401],[103.7251,1.3368],[103.7248,1.3282],[103.726,1.325],[103.7196,1.3236]]]}},{"type":"Feature","id":"Kallang","properties":{"id":"Kallang","name":"Kallang","name_full":"KALLANG","name_ja":"KALLANG","center_lonlat":[103.8665,1.3103]},"geometry":{"type":"Polygon","coordinates":[[[103.8688,1.3278],[103.8759,1.3201],[103.8747,1.3162],[103.876,1.3088],[103.881,1.3069],[103.8838,1.3046],[103.8855,1.3013],[103.8853,1.2958],[103.8777,1.2955],[103.8645,1.294],[103.8629,1.2939],[103.8616,1.2948],[103.8611,1.2975],[103.8594,1.2998],[103.8623,1.3016],[103.8596,1.3059],[103.8545,1.3106],[103.8554,1.3118],[103.8544,1.3136],[103.8531,1.312],[103.8525,1.3123],[103.8488,1.3066],[103.847,1.3081],[103.8443,1.3106],[103.8463,1.3155],[103.8559,1.3212],[103.8612,1.3266],[103.8624,1.3304],[103.8688,1.3278]]]}},{"type":"Feature","id":"Simpang","properties":{"id":"Simpang","name":"Simpang","name_full":"SIMPANG","name_ja":"SIMPANG","center_lonlat":[103.85,1.4442]},"geometry":{"type":"MultiPolygon","coordinates":[[[[103.8621,1.4246],[103.8534,1.4285],[103.8468,1.4347],[103.8446,1.4393],[103.8367,1.4456],[103.8331,1.4514],[103.8478,1.4605],[103.8584,1.4546],[103.8578,1.4536],[103.855,1.4525],[103.8587,1.4425],[103.8634,1.4364],[103.8628,1.436],[103.8636,1.4341],[103.8646,1.4346],[103.8654,1.4341],[103.8645,1.4318],[103.8578,1.4266],[103.8621,1.4246]]],[[[103.8724,1.44],[103.8724,1.4381],[103.8694,1.4357],[103.8675,1.4353],[103.8652,1.4363],[103.8617,1.4417],[103.8599,1.443],[103.8598,1.4458],[103.8576,1.4514],[103.8607,1.4528],[103.8621,1.4521],[103.8724,1.44]]]]}},{"type":"Feature","id":"Sungei Kadut","properties":{"id":"Sungei Kadut","name":"Sungei Kadut","name_full":"SUNGEI KADUT","name_ja":"SUNGEI KADUT","center_lonlat":[103.7575,1.4181]},"geometry":{"type":"Polygon","coordinates":[[[103.7644,1.4434],[103.7668,1.4406],[103.7684,1.4405],[103.7688,1.4319],[103.7709,1.4254],[103.7713,1.4215],[103.7717,1.41],[103.7734,1.4028],[103.7745,1.3903],[103.765,1.3908],[103.7551,1.3889],[103.7533,1.389],[103.752,1.3979],[103.7526,1.4037],[103.7513,1.4049],[103.746,1.4055],[103.7433,1.4065],[103.7418,1.4085],[103.7421,1.414],[103.7393,1.4223],[103.7433,1.4264],[103.7434,1.4308],[103.7408,1.4383],[103.7385,1.4383],[103.7372,1.4374],[103.737,1.4387],[103.7382,1.4411],[103.7387,1.4389],[103.7428,1.4393],[103.743,1.4387],[103.7429,1.4455],[103.7437,1.4463],[103.7578,1.4434],[103.7619,1.4444],[103.7644,1.4434]]]}},{"type":"Feature","id":"Tampines","properties":{"id":"Tampines","name":"Tampines","name_full":"TAMPINES","name_ja":"TAMPINES","center_lonlat":[103.9542,1.3437]},"geometry":{"type":"Polygon","coordinates":[[[103.9838,1.3167],[103.9791,1.3166],[103.9767,1.3154],[103.9766,1.3162],[103.9705,1.3159],[103.9647,1.3141],[103.9636,1.3144],[103.9604,1.3214],[103.9542,1.3266],[103.949,1.3343],[103.9386,1.3365],[103.9304,1.3447],[103.925,1.3486],[103.9309,1.3596],[103.9304,1.3721],[103.9319,1.3758],[103.9411,1.371],[103.9456,1.3675],[103.9546,1.3652],[103.9583,1.3632],[103.9622,1.3586],[103.9643,1.3527],[103.9654,1.3495],[103.9709,1.3412],[103.9796,1.3364],[103.9847,1.3345],[103.9796,1.3222],[103.9805,1.3209],[103.9848,1.319],[103.9838,1.3167]]]}},{"type":"Feature","id":"Western Islands","properties":{"id":"Western Islands","name":"Western Islands","name_full":"WESTERN ISLANDS","name_ja":"WESTERN ISLANDS","center_lonlat":[103.6917,1.2659]},"geometry":{"type":"MultiPolygon","coordinates":[[[[103.7113,1.2974],[103.7119,1.2974],[103.7118,1.2928],[103.7125,1.2916],[103.7175,1.2907],[103.7182,1.292],[103.7198,1.2915],[103.7189,1.29],[103.7214,1.2913],[103.7246,1.2896],[103.7265,1.2842],[103.7292,1.281],[103.7304,1.2809],[103.7319,1.2787],[103.7359,1.278],[103.7401,1.2738],[103.7401,1.273],[103.7372,1.2706],[103.7329,1.2692],[103.7316,1.2704],[103.7262,1.2717],[103.7236,1.2693],[103.727,1.2709],[103.7313,1.2699],[103.7331,1.2675],[103.7311,1.2633],[103.7228,1.259],[103.7178,1.263],[103.7108,1.2667],[103.7102,1.2693],[103.7087,1.2669],[103.7061,1.2684],[103.7048,1.2656],[103.7138,1.2603],[103.7141,1.259],[103.7061,1.2545],[103.6941,1.2503],[103.6904,1.2634],[103.685,1.2684],[103.6801,1.2631],[103.6859,1.2577],[103.6903,1.2424],[103.6904,1.2399],[103.6878,1.2367],[103.687,1.2376],[103.6826,1.2329],[103.6829,1.2317],[103.6742,1.2229],[103.6721,1.2228],[103.6696,1.2283],[103.6723,1.2236],[103.6761,1.2274],[103.6762,1.2289],[103.6729,1.2345],[103.6686,1.2351],[103.665,1.2426],[103.663,1.245],[103.6537,1.268],[103.6537,1.2729],[103.6588,1.2769],[103.6608,1.274],[103.6842,1.2896],[103.6882,1.2908],[103.6966,1.2912],[103.6969,1.2905],[103.6916,1.2848],[103.691,1.2826],[103.6842,1.2765],[103.6881,1.2728],[103.6921,1.2771],[103.6934,1.276],[103.6957,1.2769],[103.6954,1.2776],[103.6966,1.2775],[103.6956,1.2792],[103.6963,1.2808],[103.6957,1.2814],[103.704,1.2909],[103.7052,1.2909],[103.7064,1.2925],[103.7084,1.2927],[103.7118,1.2916],[103.7113,1.2974]]],[[[103.7611,1.2099],[103.7608,1.2099],[103.7611,1.2099],[103.7628,1.2103],[103.7624,1.2085],[103.7631,1.2083],[103.7618,1.2074],[103.7606,1.2078],[103.7618,1.2073],[103.7633,1.2079],[103.7627,1.2074],[103.7625,1.2072],[103.7627,1.2074],[103.7635,1.207],[103.7635,1.2069],[103.7632,1.2061],[103.7635,1.2069],[103.7635,1.207],[103.7664,1.2083],[103.7703,1.2076],[103.7753,1.2103],[103.7804,1.2104],[103.781,1.209],[103.7818,1.202],[103.7813,1.2],[103.7761,1.1964],[103.7753,1.1922],[103.7705,1.1885],[103.7665,1.189],[103.7605,1.1952],[103.7606,1.1965],[103.763,1.1992],[103.7638,1.2015],[103.7633,1.2039],[103.7628,1.2031],[103.7616,1.2041],[103.7627,1.2029],[103.7616,1.2019],[103.7609,1.203],[103.7597,1.201],[103.7584,1.2031],[103.7576,1.2061],[103.7592,1.212],[103.7589,1.2174],[103.76,1.213],[103.7615,1.2129],[103.7611,1.2099]]],[[[103.7235,1.2131],[103.7249,1.2127],[103.7236,1.2131],[103.7233,1.212],[103.7253,1.21],[103.7281,1.2108],[103.7286,1.2114],[103.7281,1.2117],[103.7293,1.2111],[103.7306,1.2079],[103.73,1.2094],[103.7291,1.2096],[103.7274,1.2079],[103.7316,1.2052],[103.7324,1.2054],[103.732,1.206],[103.7337,1.2035],[103.7318,1.2033],[103.7314,1.2047],[103.7297,1.2049],[103.7297,1.2031],[103.7309,1.2033],[103.7269,1.2025],[103.7232,1.2033],[103.7169,1.2025],[103.7071,1.2047],[103.7139,1.2112],[103.7219,1.2135],[103.7235,1.2131]]],[[[103.7507,1.2357],[103.7545,1.2343],[103.755,1.2354],[103.7574,1.2367],[103.7598,1.2312],[103.7636,1.2298],[103.7673,1.23],[103.7708,1.2274],[103.7689,1.225],[103.7617,1.2256],[103.7521,1.2299],[103.7427,1.2313],[103.7406,1.2324],[103.7397,1.2341],[103.7427,1.2364],[103.7455,1.2372],[103.7493,1.237],[103.7507,1.2357]]],[[[103.7618,1.2404],[103.7652,1.2396],[103.7695,1.2359],[103.7704,1.2342],[103.7714,1.2337],[103.7717,1.2343],[103.7744,1.2319],[103.7771,1.2287],[103.7768,1.2276],[103.7777,1.2272],[103.779,1.2241],[103.7733,1.2249],[103.7724,1.2279],[103.7708,1.2293],[103.7651,1.2312],[103.763,1.2311],[103.7607,1.2325],[103.7596,1.2388],[103.7601,1.2398],[103.7618,1.2404]]],[[[103.7278,1.1905],[103.7277,1.1905],[103.7278,1.1905],[103.7278,1.1904],[103.7278,1.1905],[103.7302,1.1911],[103.7317,1.1886],[103.731,1.1876],[103.7317,1.1879],[103.7318,1.1871],[103.7293,1.186],[103.7283,1.1883],[103.7289,1.1859],[103.7276,1.1872],[103.7273,1.1871],[103.7267,1.1869],[103.7273,1.1871],[103.7276,1.1872],[103.7287,1.1862],[103.7284,1.1834],[103.7254,1.1826],[103.7244,1.1832],[103.7219,1.1814],[103.7207,1.1817],[103.7191,1.1801],[103.719,1.183],[103.7174,1.1872],[103.7213,1.1876],[103.7223,1.1868],[103.7221,1.1882],[103.7233,1.1905],[103.7252,1.1919],[103.7292,1.192],[103.7296,1.1914],[103.7278,1.1905]]],[[[103.7368,1.1748],[103.7365,1.1744],[103.7366,1.174],[103.7365,1.1744],[103.7368,1.1748],[103.7377,1.1758],[103.74,1.1743],[103.7415,1.1744],[103.7405,1.1721],[103.7392,1.1727],[103.7386,1.1722],[103.7398,1.1719],[103.7392,1.1699],[103.7397,1.1674],[103.738,1.1664],[103.7352,1.1676],[103.7338,1.1672],[103.732,1.1694],[103.7314,1.1719],[103.7281,1.1734],[103.7295,1.1753],[103.7314,1.1763],[103.734,1.176],[103.7349,1.1748],[103.7367,1.1756],[103.7368,1.1748]]],[[[103.792,1.2077],[103.7919,1.2077],[103.792,1.2077],[103.7918,1.2106],[103.7926,1.2108],[103.797,1.2075],[103.8015,1.2008],[103.7984,1.2014],[103.7937,1.2043],[103.792,1.2077]]],[[[103.7474,1.2283],[103.7471,1.2283],[103.7475,1.2263],[103.7502,1.2258],[103.7494,1.2242],[103.7504,1.2235],[103.749,1.2229],[103.7469,1.2243],[103.748,1.2242],[103.7476,1.2254],[103.7467,1.225],[103.7471,1.2283],[103.7474,1.2283],[103.7484,1.2279],[103.7474,1.2283]]]]}},{"type":"Feature","id":"Tanglin","properties":{"id":"Tanglin","name":"Tanglin","name_full":"TANGLIN","name_ja":"TANGLIN","center_lonlat":[103.8176,1.3083]},"geometry":{"type":"Polygon","coordinates":[[[103.8303,1.2956],[103.8318,1.2922],[103.8286,1.2927],[103.8244,1.2919],[103.8216,1.2936],[103.8168,1.2942],[103.8168,1.2943],[103.8168,1.2942],[103.816,1.2941],[103.8166,1.2968],[103.8105,1.2968],[103.8086,1.2984],[103.8084,1.3003],[103.8077,1.2997],[103.8048,1.3005],[103.8033,1.3065],[103.8023,1.3072],[103.8049,1.3149],[103.8091,1.3188],[103.8116,1.3201],[103.8134,1.3233],[103.8227,1.3217],[103.8353,1.3174],[103.8278,1.3119],[103.8267,1.3091],[103.8278,1.3075],[103.8249,1.3055],[103.8227,1.3051],[103.8234,1.3027],[103.8237,1.3005],[103.8268,1.2991],[103.8299,1.2992],[103.8303,1.2956]]]}},{"type":"Feature","id":"Outram","properties":{"id":"Outram","name":"Outram","name_full":"OUTRAM","name_ja":"OUTRAM","center_lonlat":[103.8421,1.2828]},"geometry":{"type":"Polygon","coordinates":[[[103.8472,1.2854],[103.8497,1.2838],[103.8485,1.2822],[103.8492,1.2818],[103.8476,1.2795],[103.846,1.2807],[103.8454,1.2802],[103.8448,1.2813],[103.8441,1.2806],[103.8452,1.2792],[103.8445,1.2755],[103.8433,1.2757],[103.8431,1.2746],[103.8414,1.2742],[103.8392,1.2808],[103.8353,1.2841],[103.835,1.2873],[103.8364,1.2869],[103.837,1.288],[103.8401,1.2892],[103.8472,1.2854]]]}},{"type":"Feature","id":"River Valley","properties":{"id":"River Valley","name":"River Valley","name_full":"RIVER VALLEY","name_ja":"RIVER VALLEY","center_lonlat":[103.834,1.2979]},"geometry":{"type":"Polygon","coordinates":[[[103.8414,1.2991],[103.8433,1.2967],[103.8421,1.2941],[103.8409,1.2922],[103.8388,1.291],[103.8364,1.2927],[103.8358,1.2918],[103.8355,1.2925],[103.8341,1.2925],[103.8326,1.2952],[103.8329,1.2963],[103.8303,1.2956],[103.8299,1.2992],[103.8268,1.2991],[103.8237,1.3005],[103.8234,1.3027],[103.8294,1.3046],[103.8348,1.3004],[103.8374,1.2997],[103.8379,1.2984],[103.8414,1.2991]]]}},{"type":"Feature","id":"Rochor","properties":{"id":"Rochor","name":"Rochor","name_full":"ROCHOR","name_ja":"ROCHOR","center_lonlat":[103.8532,1.3042]},"geometry":{"type":"Polygon","coordinates":[[[103.8594,1.2998],[103.8562,1.3025],[103.8542,1.3031],[103.8559,1.3006],[103.8523,1.2964],[103.8495,1.2986],[103.8495,1.2996],[103.8464,1.3001],[103.8454,1.3014],[103.8459,1.3048],[103.8484,1.3038],[103.8487,1.3054],[103.8466,1.3069],[103.847,1.3081],[103.8488,1.3066],[103.8525,1.3123],[103.8531,1.312],[103.8544,1.3136],[103.8554,1.3118],[103.8545,1.3106],[103.8596,1.3059],[103.8623,1.3016],[103.8594,1.2998]]]}},{"type":"Feature","id":"Singapore River","properties":{"id":"Singapore River","name":"Singapore River","name_full":"SINGAPORE RIVER","name_ja":"SINGAPORE RIVER","center_lonlat":[103.8413,1.2901]},"geometry":{"type":"Polygon","coordinates":[[[103.8421,1.2941],[103.8483,1.2901],[103.8508,1.2863],[103.8495,1.2856],[103.8478,1.2864],[103.8472,1.2854],[103.8401,1.2892],[103.837,1.288],[103.8364,1.2869],[103.835,1.2873],[103.8349,1.2896],[103.8334,1.2924],[103.8318,1.2922],[103.8303,1.2956],[103.8329,1.2963],[103.8326,1.2952],[103.8341,1.2925],[103.8355,1.2925],[103.8358,1.2918],[103.8364,1.2927],[103.8388,1.291],[103.8409,1.2922],[103.8421,1.2941]]]}},{"type":"Feature","id":"Straits View","properties":{"id":"Straits View","name":"Straits View","name_full":"STRAITS VIEW","name_ja":"STRAITS VIEW","center_lonlat":[103.8588,1.2713]},"geometry":{"type":"Polygon","coordinates":[[[103.8516,1.2681],[103.8516,1.2693],[103.8525,1.2687],[103.8584,1.278],[103.8664,1.2728],[103.86,1.2678],[103.8617,1.2653],[103.8609,1.2647],[103.8591,1.2672],[103.8558,1.2656],[103.8526,1.2681],[103.8516,1.2681]]]}}]}
