{"type":"FeatureCollection","features":[{"type":"Feature","id":"Wenshan","properties":{"id":"Wenshan","name":"Wenshan","name_full":"文山區","name_ja":"文山區","center_lonlat":[121.5736,24.9887]},"geometry":{"type":"Polygon","coordinates":[[[121.578,25.0139],[121.5805,25.0122],[121.5901,25.0139],[121.5918,25.0149],[121.5934,25.0145],[121.5951,25.0155],[121.5972,25.0143],[121.5975,25.0131],[121.5958,25.0092],[121.5959,25.0046],[121.5979,25.0041],[121.6005,25.0011],[121.6005,24.9985],[121.5981,24.9945],[121.5993,24.9931],[121.599,24.9917],[121.6019,24.9904],[121.6018,24.9879],[121.5998,24.9864],[121.6006,24.9803],[121.5995,24.9781],[121.6005,24.9767],[121.6052,24.9744],[121.6115,24.9746],[121.6132,24.9734],[121.6141,24.9736],[121.6163,24.9716],[121.6196,24.9703],[121.62,24.9694],[121.6197,24.9672],[121.6181,24.9668],[121.6169,24.9675],[121.615,24.9662],[121.6137,24.9665],[121.6104,24.965],[121.6083,24.9631],[121.605,24.963],[121.6012,24.9609],[121.5984,24.9613],[121.5972,24.9605],[121.5948,24.9615],[121.5932,24.9643],[121.5919,24.964],[121.591,24.9647],[121.5887,24.9634],[121.5856,24.9632],[121.5845,24.9646],[121.5822,24.9648],[121.5786,24.9666],[121.5747,24.9669],[121.5743,24.9653],[121.5726,24.964],[121.5612,24.9647],[121.5585,24.9683],[121.5578,24.9715],[121.5561,24.9732],[121.5552,24.9766],[121.5537,24.9774],[121.553,24.9809],[121.5539,24.9849],[121.5526,24.9867],[121.5508,24.9872],[121.5509,24.9854],[121.5486,24.9836],[121.5454,24.9835],[121.5441,24.9852],[121.5448,24.987],[121.5443,24.9881],[121.5395,24.9877],[121.5368,24.9887],[121.5371,24.9923],[121.5354,24.9951],[121.5293,24.9882],[121.5267,24.9871],[121.5277,24.9912],[121.5326,25.0016],[121.5325,25.007],[121.5318,25.0087],[121.5371,25.0111],[121.5379,25.0089],[121.5416,25.0081],[121.5437,25.0086],[121.5447,25.0078],[121.5491,25.0098],[121.5529,25.0089],[121.5553,25.0116],[121.5583,25.0121],[121.5629,25.0081],[121.5659,25.0081],[121.5717,25.0117],[121.5723,25.0136],[121.5753,25.0132],[121.5761,25.0142],[121.578,25.0139]]]}},{"type":"Feature","id":"Nangang","properties":{"id":"Nangang","name":"Nangang","name_full":"南港區","name_ja":"南港區","center_lonlat":[121.6097,25.0361]},"geometry":{"type":"Polygon","coordinates":[[[121.6161,25.0639],[121.6205,25.0616],[121.6242,25.056],[121.6234,25.055],[121.6205,25.0567],[121.6208,25.0534],[121.6165,25.0509],[121.6162,25.0493],[121.6191,25.0435],[121.6219,25.0401],[121.6242,25.0396],[121.6247,25.0378],[121.6264,25.038],[121.6291,25.0369],[121.6302,25.0351],[121.6335,25.0358],[121.634,25.0349],[121.6374,25.034],[121.6398,25.0321],[121.6458,25.0295],[121.6468,25.028],[121.648,25.0287],[121.6502,25.0276],[121.6519,25.0282],[121.6551,25.0275],[121.6608,25.0305],[121.6644,25.0296],[121.6658,25.03],[121.6648,25.0278],[121.6649,25.0247],[121.6629,25.0229],[121.6574,25.0233],[121.6538,25.0245],[121.6501,25.0241],[121.6463,25.0217],[121.6449,25.0236],[121.6429,25.0246],[121.6407,25.0235],[121.6374,25.0241],[121.6356,25.0232],[121.6356,25.024],[121.632,25.0256],[121.6307,25.0245],[121.6289,25.0199],[121.6232,25.0173],[121.6206,25.0184],[121.6178,25.0183],[121.6162,25.0197],[121.6132,25.0192],[121.6103,25.0199],[121.6092,25.021],[121.6082,25.0195],[121.6041,25.0191],[121.6027,25.0152],[121.5972,25.0143],[121.5951,25.0155],[121.5934,25.0145],[121.5918,25.0149],[121.5901,25.0139],[121.5805,25.0122],[121.578,25.0139],[121.5802,25.0169],[121.5836,25.0189],[121.5867,25.0269],[121.592,25.0312],[121.5898,25.034],[121.5893,25.0372],[121.5871,25.0398],[121.5868,25.0415],[121.5841,25.0423],[121.5807,25.0453],[121.5801,25.0492],[121.58,25.0518],[121.5815,25.0533],[121.588,25.0555],[121.5937,25.0603],[121.5994,25.0588],[121.6047,25.0593],[121.6095,25.0606],[121.613,25.0645],[121.6161,25.0639]]]}},{"type":"Feature","id":"Shilin","properties":{"id":"Shilin","name":"Shilin","name_full":"士林區","name_ja":"士林區","center_lonlat":[121.5508,25.1256]},"geometry":{"type":"Polygon","coordinates":[[[121.5522,25.0925],[121.5458,25.0904],[121.5448,25.0905],[121.5439,25.0918],[121.5413,25.0922],[121.5373,25.091],[121.533,25.0878],[121.531,25.085],[121.5287,25.084],[121.5264,25.0804],[121.5245,25.0816],[121.524,25.0804],[121.5259,25.0745],[121.525,25.0742],[121.5222,25.0774],[121.5164,25.0802],[121.5125,25.0781],[121.5047,25.078],[121.5025,25.0832],[121.4998,25.0872],[121.4887,25.0972],[121.4811,25.1009],[121.4661,25.1017],[121.4601,25.1048],[121.457,25.1089],[121.4609,25.1162],[121.4668,25.1117],[121.4699,25.1107],[121.4737,25.1109],[121.488,25.1152],[121.491,25.1151],[121.4948,25.113],[121.4965,25.1102],[121.4973,25.0982],[121.5008,25.0966],[121.5082,25.0958],[121.5168,25.0993],[121.5183,25.1031],[121.5199,25.1042],[121.5212,25.1067],[121.5211,25.1089],[121.5225,25.1095],[121.5227,25.1109],[121.5252,25.1114],[121.5257,25.1123],[121.525,25.1161],[121.5235,25.1176],[121.5258,25.121],[121.5261,25.123],[121.5295,25.1243],[121.5298,25.1262],[121.5313,25.1274],[121.5311,25.1337],[121.5303,25.1342],[121.5311,25.137],[121.5333,25.1376],[121.5348,25.1392],[121.5391,25.1404],[121.54,25.1416],[121.5411,25.1412],[121.5422,25.1425],[121.5456,25.1415],[121.5479,25.1435],[121.5492,25.1464],[121.5499,25.1512],[121.553,25.1542],[121.555,25.1591],[121.5609,25.1631],[121.5608,25.1646],[121.5629,25.17],[121.5606,25.1743],[121.5607,25.1754],[121.5622,25.1776],[121.5652,25.1789],[121.5657,25.1813],[121.5677,25.1837],[121.5672,25.1854],[121.5679,25.1861],[121.5666,25.1885],[121.5704,25.1926],[121.5757,25.1953],[121.5788,25.1941],[121.5802,25.1954],[121.5828,25.195],[121.5834,25.1946],[121.5824,25.193],[121.5834,25.1921],[121.5837,25.1901],[121.5836,25.1888],[121.5827,25.1887],[121.5827,25.1876],[121.5815,25.1864],[121.5823,25.1838],[121.5806,25.1821],[121.5832,25.1769],[121.5815,25.1738],[121.5771,25.1701],[121.5768,25.167],[121.5788,25.1656],[121.583,25.1658],[121.5876,25.163],[121.5896,25.1637],[121.5917,25.1559],[121.5892,25.1524],[121.5932,25.1506],[121.5937,25.1481],[121.5957,25.1452],[121.5956,25.1435],[121.5983,25.1403],[121.604,25.1362],[121.6056,25.1367],[121.6045,25.1346],[121.6045,25.1309],[121.6078,25.1302],[121.6045,25.126],[121.6034,25.1255],[121.6017,25.1261],[121.6007,25.1218],[121.599,25.1203],[121.5975,25.1162],[121.5956,25.1141],[121.5936,25.1152],[121.5903,25.1136],[121.5899,25.1142],[121.5881,25.1139],[121.5852,25.1086],[121.5822,25.1069],[121.5806,25.1071],[121.579,25.1051],[121.5765,25.1069],[121.5735,25.1068],[121.5704,25.1055],[121.567,25.0991],[121.5622,25.098],[121.5587,25.0987],[121.5577,25.0964],[121.5548,25.0941],[121.5543,25.0926],[121.5522,25.0925]]]}},{"type":"Feature","id":"Neihu","properties":{"id":"Neihu","name":"Neihu","name_full":"內湖區","name_ja":"內湖區","center_lonlat":[121.5923,25.0838]},"geometry":{"type":"Polygon","coordinates":[[[121.5714,25.0743],[121.5725,25.0747],[121.5708,25.0768],[121.5645,25.0787],[121.5624,25.0811],[121.5609,25.0845],[121.5595,25.085],[121.558,25.0839],[121.5568,25.0868],[121.5573,25.0879],[121.5535,25.0898],[121.5522,25.0925],[121.5543,25.0926],[121.5548,25.0941],[121.5577,25.0964],[121.5587,25.0987],[121.5622,25.098],[121.567,25.0991],[121.5704,25.1055],[121.5735,25.1068],[121.5765,25.1069],[121.579,25.1051],[121.5806,25.1071],[121.5822,25.1069],[121.5852,25.1086],[121.5881,25.1139],[121.5899,25.1142],[121.5903,25.1136],[121.5936,25.1152],[121.5956,25.1141],[121.5965,25.1113],[121.5984,25.1089],[121.6063,25.1073],[121.6104,25.1052],[121.6152,25.104],[121.6173,25.1012],[121.6221,25.0973],[121.6253,25.0971],[121.6262,25.0961],[121.625,25.0937],[121.6263,25.0915],[121.6259,25.0905],[121.6282,25.088],[121.6279,25.0831],[121.6243,25.0806],[121.6238,25.0785],[121.6245,25.0778],[121.6231,25.0772],[121.6236,25.074],[121.6228,25.0736],[121.6219,25.0748],[121.6206,25.0734],[121.6215,25.0697],[121.6175,25.0675],[121.6179,25.0651],[121.6168,25.0659],[121.6161,25.0639],[121.613,25.0645],[121.6095,25.0606],[121.6047,25.0593],[121.5994,25.0588],[121.5937,25.0603],[121.588,25.0555],[121.5815,25.0533],[121.5731,25.0515],[121.5714,25.0522],[121.5712,25.0581],[121.5691,25.064],[121.5719,25.0694],[121.5714,25.0743]]]}},{"type":"Feature","id":"Beitou","properties":{"id":"Beitou","name":"Beitou","name_full":"北投區","name_ja":"北投區","center_lonlat":[121.5177,25.1481]},"geometry":{"type":"Polygon","coordinates":[[[121.5757,25.1953],[121.5704,25.1926],[121.5666,25.1885],[121.5679,25.1861],[121.5672,25.1854],[121.5677,25.1837],[121.5657,25.1813],[121.5652,25.1789],[121.5622,25.1776],[121.5607,25.1754],[121.5606,25.1743],[121.5629,25.17],[121.5608,25.1646],[121.5609,25.1631],[121.555,25.1591],[121.553,25.1542],[121.5499,25.1512],[121.5492,25.1464],[121.5479,25.1435],[121.5456,25.1415],[121.5422,25.1425],[121.5411,25.1412],[121.54,25.1416],[121.5391,25.1404],[121.5348,25.1392],[121.5333,25.1376],[121.5311,25.137],[121.5303,25.1342],[121.5311,25.1337],[121.5313,25.1274],[121.5298,25.1262],[121.5295,25.1243],[121.5261,25.123],[121.5258,25.121],[121.5235,25.1176],[121.525,25.1161],[121.5257,25.1123],[121.5252,25.1114],[121.5227,25.1109],[121.5225,25.1095],[121.5211,25.1089],[121.5212,25.1067],[121.5199,25.1042],[121.5183,25.1031],[121.5168,25.0993],[121.5082,25.0958],[121.5008,25.0966],[121.4973,25.0982],[121.4965,25.1102],[121.4948,25.113],[121.491,25.1151],[121.488,25.1152],[121.4737,25.1109],[121.4699,25.1107],[121.4668,25.1117],[121.4609,25.1162],[121.4588,25.123],[121.4614,25.123],[121.4648,25.1243],[121.4643,25.1279],[121.4665,25.1328],[121.469,25.1358],[121.4715,25.1373],[121.4724,25.1392],[121.4764,25.1428],[121.4765,25.1438],[121.4805,25.1469],[121.4828,25.1503],[121.4874,25.1515],[121.4875,25.153],[121.4919,25.16],[121.4975,25.1639],[121.4997,25.1681],[121.5016,25.1693],[121.5014,25.1713],[121.5024,25.1733],[121.5046,25.1733],[121.5055,25.1712],[121.5097,25.1696],[121.5111,25.1694],[121.5124,25.1708],[121.5139,25.171],[121.5198,25.1693],[121.5223,25.1746],[121.5214,25.1791],[121.5258,25.183],[121.5331,25.1836],[121.5355,25.1867],[121.5402,25.1871],[121.5425,25.1888],[121.543,25.1941],[121.5479,25.1981],[121.5503,25.1971],[121.5516,25.1978],[121.5523,25.2006],[121.5511,25.202],[121.5513,25.2035],[121.5527,25.2042],[121.5546,25.2085],[121.5565,25.2087],[121.5587,25.2101],[121.5623,25.2094],[121.5646,25.2029],[121.5644,25.2012],[121.5656,25.1998],[121.5697,25.1982],[121.5714,25.1954],[121.5757,25.1953]]]}},{"type":"Feature","id":"Zhongshan","properties":{"id":"Zhongshan","name":"Zhongshan","name_full":"中山區","name_ja":"中山區","center_lonlat":[121.5382,25.0698]},"geometry":{"type":"Polygon","coordinates":[[[121.5222,25.0774],[121.525,25.0742],[121.5259,25.0745],[121.524,25.0804],[121.5245,25.0816],[121.5264,25.0804],[121.5287,25.084],[121.531,25.085],[121.533,25.0878],[121.5373,25.091],[121.5413,25.0922],[121.5439,25.0918],[121.5448,25.0905],[121.5458,25.0904],[121.5522,25.0925],[121.5535,25.0898],[121.5573,25.0879],[121.5568,25.0868],[121.558,25.0839],[121.5595,25.085],[121.5609,25.0845],[121.5624,25.0811],[121.5645,25.0787],[121.5708,25.0768],[121.5725,25.0747],[121.5714,25.0743],[121.5694,25.0763],[121.5621,25.0722],[121.5537,25.0764],[121.5471,25.0763],[121.547,25.0747],[121.5498,25.0735],[121.5497,25.071],[121.5386,25.0713],[121.5387,25.069],[121.5424,25.068],[121.5443,25.0666],[121.5437,25.0449],[121.5368,25.0447],[121.5329,25.0455],[121.5242,25.0481],[121.5177,25.0484],[121.5197,25.0495],[121.5202,25.051],[121.5206,25.0595],[121.519,25.0646],[121.5204,25.0735],[121.5222,25.0774]]]}},{"type":"Feature","id":"Zhongzheng","properties":{"id":"Zhongzheng","name":"Zhongzheng","name_full":"中正區","name_ja":"中正區","center_lonlat":[121.5199,25.0325]},"geometry":{"type":"Polygon","coordinates":[[[121.5094,25.0483],[121.5111,25.0485],[121.512,25.0496],[121.5177,25.0484],[121.5242,25.0481],[121.5329,25.0455],[121.5327,25.0336],[121.5272,25.0341],[121.5242,25.0354],[121.5226,25.0324],[121.5217,25.0281],[121.5251,25.0233],[121.5358,25.0133],[121.5371,25.0111],[121.5318,25.0087],[121.5259,25.0117],[121.5198,25.0192],[121.5124,25.0218],[121.5123,25.0241],[121.5091,25.0251],[121.5041,25.03],[121.5067,25.0366],[121.5094,25.0483]]]}},{"type":"Feature","id":"Datong","properties":{"id":"Datong","name":"Datong","name_full":"大同區","name_ja":"大同區","center_lonlat":[121.513,25.0636]},"geometry":{"type":"Polygon","coordinates":[[[121.5047,25.078],[121.5125,25.0781],[121.5164,25.0802],[121.5222,25.0774],[121.5204,25.0735],[121.519,25.0646],[121.5206,25.0595],[121.5202,25.051],[121.5197,25.0495],[121.5177,25.0484],[121.512,25.0496],[121.5111,25.0485],[121.5094,25.0483],[121.5037,25.0497],[121.5068,25.0646],[121.507,25.0699],[121.5047,25.078]]]}},{"type":"Feature","id":"Da'an","properties":{"id":"Da'an","name":"Da'an","name_full":"大安區","name_ja":"大安區","center_lonlat":[121.5434,25.0268]},"geometry":{"type":"Polygon","coordinates":[[[121.5329,25.0455],[121.5368,25.0447],[121.5437,25.0449],[121.5538,25.0444],[121.5577,25.0452],[121.5574,25.0294],[121.5525,25.0243],[121.5601,25.0173],[121.5634,25.0133],[121.5636,25.0114],[121.5653,25.01],[121.5659,25.0081],[121.5629,25.0081],[121.5583,25.0121],[121.5553,25.0116],[121.5529,25.0089],[121.5491,25.0098],[121.5447,25.0078],[121.5437,25.0086],[121.5416,25.0081],[121.5379,25.0089],[121.5371,25.0111],[121.5358,25.0133],[121.5251,25.0233],[121.5217,25.0281],[121.5226,25.0324],[121.5242,25.0354],[121.5272,25.0341],[121.5327,25.0336],[121.5329,25.0455]]]}},{"type":"Feature","id":"Songshan","properties":{"id":"Songshan","name":"Songshan","name_full":"松山區","name_ja":"松山區","center_lonlat":[121.5575,25.06]},"geometry":{"type":"Polygon","coordinates":[[[121.5437,25.0449],[121.5443,25.0666],[121.5424,25.068],[121.5387,25.069],[121.5386,25.0713],[121.5497,25.071],[121.5498,25.0735],[121.547,25.0747],[121.5471,25.0763],[121.5537,25.0764],[121.5621,25.0722],[121.5694,25.0763],[121.5714,25.0743],[121.5719,25.0694],[121.5691,25.064],[121.5712,25.0581],[121.5714,25.0522],[121.5731,25.0515],[121.5815,25.0533],[121.58,25.0518],[121.5801,25.0492],[121.5705,25.0493],[121.5648,25.048],[121.5577,25.0452],[121.5538,25.0444],[121.5437,25.0449]]]}},{"type":"Feature","id":"Xinyi","properties":{"id":"Xinyi","name":"Xinyi","name_full":"信義區","name_ja":"信義區","center_lonlat":[121.5716,25.0307]},"geometry":{"type":"Polygon","coordinates":[[[121.5577,25.0452],[121.5648,25.048],[121.5705,25.0493],[121.5801,25.0492],[121.5807,25.0453],[121.5841,25.0423],[121.5868,25.0415],[121.5871,25.0398],[121.5893,25.0372],[121.5898,25.034],[121.592,25.0312],[121.5867,25.0269],[121.5836,25.0189],[121.5802,25.0169],[121.578,25.0139],[121.5761,25.0142],[121.5753,25.0132],[121.5723,25.0136],[121.5717,25.0117],[121.5659,25.0081],[121.5653,25.01],[121.5636,25.0114],[121.5634,25.0133],[121.5601,25.0173],[121.5525,25.0243],[121.5574,25.0294],[121.5577,25.0452]]]}},{"type":"Feature","id":"Wanhua","properties":{"id":"Wanhua","name":"Wanhua","name_full":"萬華區","name_ja":"萬華區","center_lonlat":[121.4981,25.0287]},"geometry":{"type":"Polygon","coordinates":[[[121.5094,25.0483],[121.5067,25.0366],[121.5041,25.03],[121.5091,25.0251],[121.5123,25.0241],[121.5124,25.0218],[121.5087,25.0211],[121.5002,25.0119],[121.4953,25.0093],[121.4928,25.0094],[121.4882,25.0155],[121.4887,25.0233],[121.4859,25.0296],[121.4874,25.036],[121.4891,25.0385],[121.493,25.0418],[121.5016,25.0463],[121.5037,25.0497],[121.5094,25.0483]]]}}]}
