{"type":"FeatureCollection","features":[{"type":"Feature","id":"Seacliff","properties":{"id":"Seacliff","name":"Seacliff","name_full":"Seacliff","name_ja":"Seacliff","center_lonlat":[-122.5011,37.7838]},"geometry":{"type":"Polygon","coordinates":[[[-122.4841,37.7879],[-122.4874,37.7875],[-122.4871,37.7838],[-122.4925,37.7835],[-122.4924,37.7817],[-122.5053,37.781],[-122.5051,37.7798],[-122.5095,37.7799],[-122.5091,37.7752],[-122.5132,37.775],[-122.5133,37.7772],[-122.5147,37.7786],[-122.5146,37.7813],[-122.5138,37.7815],[-122.5126,37.7842],[-122.5098,37.7848],[-122.5067,37.7875],[-122.5067,37.7874],[-122.5067,37.7875],[-122.5057,37.7883],[-122.5027,37.788],[-122.4998,37.7887],[-122.4967,37.7873],[-122.4947,37.7881],[-122.4934,37.7876],[-122.4898,37.7895],[-122.4874,37.7894],[-122.4862,37.7905],[-122.4837,37.7893],[-122.4841,37.7879]]]}},{"type":"Feature","id":"Marina","properties":{"id":"Marina","name":"Marina","name_full":"Marina","name_ja":"Marina","center_lonlat":[-122.4366,37.8016]},"geometry":{"type":"Polygon","coordinates":[[[-122.4468,37.8054],[-122.4424,37.8061],[-122.4437,37.8065],[-122.444,37.8064],[-122.4437,37.8065],[-122.4423,37.8072],[-122.4426,37.8072],[-122.4423,37.8072],[-122.4423,37.8071],[-122.4422,37.8072],[-122.4422,37.8071],[-122.4421,37.8073],[-122.4422,37.8072],[-122.4421,37.8072],[-122.4421,37.8073],[-122.4421,37.8072],[-122.442,37.8072],[-122.4419,37.8072],[-122.4418,37.8072],[-122.4418,37.8073],[-122.4418,37.8072],[-122.4417,37.8072],[-122.4416,37.8073],[-122.4416,37.8074],[-122.4416,37.8073],[-122.4415,37.8073],[-122.4415,37.8074],[-122.4415,37.8073],[-122.4414,37.8073],[-122.4413,37.8073],[-122.4413,37.8074],[-122.4413,37.8073],[-122.4412,37.8073],[-122.4411,37.8074],[-122.441,37.8074],[-122.441,37.8075],[-122.441,37.8074],[-122.441,37.8073],[-122.441,37.8074],[-122.4411,37.8074],[-122.4411,37.8073],[-122.4411,37.8074],[-122.4412,37.8073],[-122.4413,37.8073],[-122.4413,37.8072],[-122.4413,37.8073],[-122.4414,37.8073],[-122.4414,37.8072],[-122.4414,37.8073],[-122.4415,37.8073],[-122.4417,37.8072],[-122.4418,37.8072],[-122.4419,37.8072],[-122.4419,37.8071],[-122.4419,37.8072],[-122.442,37.8072],[-122.4422,37.8071],[-122.4423,37.8071],[-122.4422,37.8068],[-122.4417,37.8069],[-122.4416,37.8069],[-122.4414,37.8069],[-122.4413,37.8069],[-122.4409,37.807],[-122.4409,37.8071],[-122.4409,37.807],[-122.4412,37.8069],[-122.4413,37.8069],[-122.4414,37.8069],[-122.4422,37.8068],[-122.4417,37.8069],[-122.4416,37.8069],[-122.4414,37.8069],[-122.4413,37.8069],[-122.4412,37.8069],[-122.4358,37.8076],[-122.4339,37.8079],[-122.4338,37.8079],[-122.4336,37.8082],[-122.4334,37.8081],[-122.4336,37.8082],[-122.4338,37.8079],[-122.4339,37.8079],[-122.4358,37.8076],[-122.4356,37.8069],[-122.4355,37.8069],[-122.4356,37.8069],[-122.4355,37.8069],[-122.434,37.8067],[-122.4338,37.8068],[-122.4337,37.8068],[-122.4333,37.8068],[-122.4332,37.8068],[-122.433,37.8069],[-122.4329,37.8069],[-122.433,37.8069],[-122.4332,37.8068],[-122.4333,37.8068],[-122.4337,37.8068],[-122.4338,37.8068],[-122.434,37.8067],[-122.4338,37.8056],[-122.4324,37.806],[-122.4326,37.8059],[-122.4324,37.806],[-122.4324,37.8061],[-122.4324,37.8064],[-122.4325,37.8066],[-122.4324,37.8064],[-122.4324,37.8061],[-122.4324,37.806],[-122.4326,37.8085],[-122.4321,37.8072],[-122.4314,37.8073],[-122.4317,37.809],[-122.4309,37.8073],[-122.4303,37.8075],[-122.4306,37.8092],[-122.4298,37.8078],[-122.427,37.8081],[-122.428,37.8086],[-122.4275,37.8087],[-122.4273,37.8088],[-122.4275,37.8087],[-122.4268,37.8081],[-122.4256,37.8065],[-122.4238,37.7976],[-122.4467,37.7947],[-122.4478,37.8016],[-122.4491,37.802],[-122.4496,37.8032],[-122.4485,37.8044],[-122.448,37.807],[-122.4399,37.8088],[-122.4424,37.8078],[-122.4423,37.8078],[-122.4422,37.8078],[-122.4422,37.8077],[-122.4422,37.8078],[-122.4423,37.8078],[-122.4423,37.8077],[-122.4423,37.8078],[-122.4424,37.8078],[-122.4424,37.8077],[-122.4424,37.8078],[-122.4452,37.807],[-122.4452,37.807],[-122.4451,37.8069],[-122.445,37.8069],[-122.4449,37.8068],[-122.4446,37.8069],[-122.4449,37.8068],[-122.445,37.8069],[-122.445,37.8068],[-122.445,37.8069],[-122.4451,37.8069],[-122.445,37.8068],[-122.4452,37.807],[-122.4454,37.807],[-122.4452,37.8067],[-122.4454,37.807],[-122.4455,37.8069],[-122.4454,37.8067],[-122.4455,37.8069],[-122.4456,37.8069],[-122.4454,37.8067],[-122.4456,37.8069],[-122.4457,37.8069],[-122.4459,37.8068],[-122.4457,37.8069],[-122.4463,37.8067],[-122.4462,37.8067],[-122.4456,37.8066],[-122.4462,37.8067],[-122.4457,37.8065],[-122.4462,37.8067],[-122.4463,37.8067],[-122.446,37.8065],[-122.4463,37.8067],[-122.4464,37.8066],[-122.4462,37.8065],[-122.4464,37.8066],[-122.4466,37.8066],[-122.4464,37.8065],[-122.4466,37.8066],[-122.4467,37.8066],[-122.447,37.8065],[-122.4467,37.8066],[-122.447,37.8065],[-122.447,37.8063],[-122.4468,37.8063],[-122.447,37.8063],[-122.4469,37.8061],[-122.4469,37.8059],[-122.4467,37.8059],[-122.4469,37.8059],[-122.4468,37.8055],[-122.4467,37.8055],[-122.4468,37.8055],[-122.4468,37.8054],[-122.4468,37.8055],[-122.4469,37.8061],[-122.447,37.8063],[-122.447,37.8065],[-122.4475,37.8059],[-122.4468,37.8054]]]}},{"type":"Feature","id":"Pacific Heights","properties":{"id":"Pacific Heights","name":"Pacific Heights","name_full":"Pacific Heights","name_ja":"Pacific Heights","center_lonlat":[-122.435,37.7924]},"geometry":{"type":"Polygon","coordinates":[[[-122.4468,37.7873],[-122.4477,37.7916],[-122.4462,37.7919],[-122.4467,37.7947],[-122.4238,37.7976],[-122.4234,37.7957],[-122.4223,37.7903],[-122.4468,37.7873]]]}},{"type":"Feature","id":"Nob Hill","properties":{"id":"Nob Hill","name":"Nob Hill","name_full":"Nob Hill","name_ja":"Nob Hill","center_lonlat":[-122.4161,37.7929]},"geometry":{"type":"Polygon","coordinates":[[[-122.422,37.7885],[-122.4223,37.7903],[-122.4234,37.7957],[-122.4103,37.7974],[-122.4088,37.7902],[-122.4089,37.7901],[-122.422,37.7885]]]}},{"type":"Feature","id":"Presidio Heights","properties":{"id":"Presidio Heights","name":"Presidio Heights","name_full":"Presidio Heights","name_ja":"Presidio Heights","center_lonlat":[-122.4537,37.7864]},"geometry":{"type":"Polygon","coordinates":[[[-122.4626,37.789],[-122.4477,37.7916],[-122.4468,37.7873],[-122.4466,37.7863],[-122.4477,37.7853],[-122.4474,37.7824],[-122.4589,37.7812],[-122.4592,37.7868],[-122.4625,37.7867],[-122.4626,37.789]]]}},{"type":"Feature","id":"Downtown/Civic Center","properties":{"id":"Downtown/Civic Center","name":"Downtown/Civic Center","name_full":"Downtown/Civic Center","name_ja":"Downtown/Civic Center","center_lonlat":[-122.416,37.7834]},"geometry":{"type":"Polygon","coordinates":[[[-122.4089,37.7901],[-122.4088,37.7902],[-122.4088,37.7902],[-122.4084,37.7902],[-122.4072,37.7904],[-122.4058,37.7857],[-122.4222,37.7729],[-122.4243,37.7834],[-122.421,37.7839],[-122.422,37.7885],[-122.4089,37.7901]]]}},{"type":"Feature","id":"Excelsior","properties":{"id":"Excelsior","name":"Excelsior","name_full":"Excelsior","name_ja":"Excelsior","center_lonlat":[-122.4209,37.725]},"geometry":{"type":"Polygon","coordinates":[[[-122.4408,37.7165],[-122.4344,37.7253],[-122.4283,37.7318],[-122.415,37.732],[-122.4067,37.7352],[-122.4035,37.7305],[-122.4011,37.7243],[-122.4235,37.719],[-122.4234,37.7198],[-122.4257,37.7202],[-122.4265,37.7186],[-122.4261,37.7157],[-122.4311,37.7166],[-122.4335,37.7133],[-122.4408,37.7165]]]}},{"type":"Feature","id":"Bernal Heights","properties":{"id":"Bernal Heights","name":"Bernal Heights","name_full":"Bernal Heights","name_ja":"Bernal Heights","center_lonlat":[-122.4168,37.74]},"geometry":{"type":"Polygon","coordinates":[[[-122.4283,37.7318],[-122.4322,37.7323],[-122.4356,37.7318],[-122.4325,37.7332],[-122.4265,37.7364],[-122.4248,37.7381],[-122.4239,37.7399],[-122.4242,37.7423],[-122.4248,37.7478],[-122.4076,37.7484],[-122.4036,37.7494],[-122.4049,37.7453],[-122.4073,37.7421],[-122.408,37.7397],[-122.4075,37.7358],[-122.4067,37.7352],[-122.415,37.732],[-122.4283,37.7318]]]}},{"type":"Feature","id":"Western Addition","properties":{"id":"Western Addition","name":"Western Addition","name_full":"Western Addition","name_ja":"Western Addition","center_lonlat":[-122.4334,37.7804]},"geometry":{"type":"Polygon","coordinates":[[[-122.4222,37.7729],[-122.4233,37.7721],[-122.4268,37.7696],[-122.436,37.769],[-122.4383,37.7769],[-122.4465,37.7758],[-122.4474,37.7824],[-122.4477,37.7853],[-122.4466,37.7863],[-122.4468,37.7873],[-122.4223,37.7903],[-122.422,37.7885],[-122.421,37.7839],[-122.4243,37.7834],[-122.4222,37.7729]]]}},{"type":"Feature","id":"Chinatown","properties":{"id":"Chinatown","name":"Chinatown","name_full":"Chinatown","name_ja":"Chinatown","center_lonlat":[-122.4071,37.7941]},"geometry":{"type":"Polygon","coordinates":[[[-122.4088,37.7902],[-122.4103,37.7974],[-122.4067,37.7978],[-122.4054,37.798],[-122.4053,37.7972],[-122.405,37.7957],[-122.404,37.7908],[-122.4062,37.7905],[-122.4064,37.7904],[-122.4072,37.7904],[-122.4084,37.7902],[-122.4088,37.7902]]]}},{"type":"Feature","id":"North Beach","properties":{"id":"North Beach","name":"North Beach","name_full":"North Beach","name_ja":"North Beach","center_lonlat":[-122.4082,37.8043]},"geometry":{"type":"Polygon","coordinates":[[[-122.4109,37.8102],[-122.411,37.8102],[-122.4111,37.8101],[-122.4111,37.81],[-122.4111,37.8101],[-122.4112,37.8101],[-122.4111,37.8099],[-122.4112,37.8101],[-122.4113,37.81],[-122.4112,37.8099],[-122.4113,37.81],[-122.4114,37.81],[-122.4114,37.81],[-122.4115,37.81],[-122.4114,37.8098],[-122.4115,37.81],[-122.4116,37.8099],[-122.4115,37.8098],[-122.4116,37.8099],[-122.4116,37.8099],[-122.4117,37.8099],[-122.4117,37.8099],[-122.4118,37.8099],[-122.4117,37.8097],[-122.4118,37.8099],[-122.4117,37.8099],[-122.4118,37.8101],[-122.4117,37.8099],[-122.4116,37.8099],[-122.4117,37.8101],[-122.4116,37.8099],[-122.4115,37.81],[-122.4115,37.81],[-122.4114,37.81],[-122.4115,37.8102],[-122.4114,37.81],[-122.4113,37.8101],[-122.4114,37.8102],[-122.4113,37.8101],[-122.4112,37.8101],[-122.4112,37.8101],[-122.4111,37.8101],[-122.4111,37.8101],[-122.411,37.8102],[-122.4111,37.8103],[-122.411,37.8102],[-122.4109,37.8102],[-122.4113,37.8109],[-122.4104,37.8114],[-122.4085,37.8113],[-122.4076,37.8088],[-122.4085,37.8113],[-122.4104,37.8114],[-122.4102,37.8113],[-122.41,37.8114],[-122.4086,37.8112],[-122.4086,37.8111],[-122.4086,37.8112],[-122.4088,37.8111],[-122.4088,37.8112],[-122.4088,37.8111],[-122.4089,37.8111],[-122.4088,37.8112],[-122.4089,37.8112],[-122.4089,37.8111],[-122.4089,37.8112],[-122.409,37.8113],[-122.409,37.8111],[-122.409,37.8113],[-122.4092,37.8113],[-122.4092,37.8113],[-122.4093,37.8113],[-122.4093,37.8113],[-122.4094,37.8113],[-122.4094,37.8112],[-122.4094,37.8113],[-122.4096,37.8112],[-122.4096,37.8113],[-122.4096,37.8112],[-122.4097,37.8112],[-122.4096,37.8113],[-122.4097,37.8114],[-122.4097,37.8112],[-122.4097,37.8114],[-122.4098,37.8114],[-122.4098,37.8112],[-122.4098,37.8114],[-122.4099,37.8114],[-122.4099,37.8112],[-122.4099,37.8114],[-122.41,37.8114],[-122.4101,37.8113],[-122.41,37.8112],[-122.4101,37.8113],[-122.4102,37.8113],[-122.4101,37.8099],[-122.4099,37.8099],[-122.4097,37.8099],[-122.4095,37.8098],[-122.409,37.8098],[-122.4089,37.8098],[-122.4088,37.8097],[-122.4087,37.8097],[-122.4083,37.8097],[-122.4082,37.8098],[-122.4083,37.8097],[-122.4087,37.8097],[-122.4088,37.8097],[-122.4089,37.8098],[-122.409,37.8098],[-122.4095,37.8098],[-122.4097,37.8099],[-122.4097,37.8099],[-122.4099,37.8099],[-122.4099,37.8098],[-122.4099,37.8099],[-122.4101,37.8099],[-122.4095,37.8091],[-122.4095,37.8092],[-122.4095,37.8091],[-122.4094,37.809],[-122.4094,37.8089],[-122.4094,37.809],[-122.4095,37.809],[-122.4096,37.809],[-122.4095,37.809],[-122.4093,37.8087],[-122.4092,37.8088],[-122.4093,37.8087],[-122.4088,37.8085],[-122.4088,37.8086],[-122.4088,37.8085],[-122.4087,37.8085],[-122.4086,37.8086],[-122.4087,37.8085],[-122.4086,37.8085],[-122.4086,37.8086],[-122.4085,37.8086],[-122.4086,37.8085],[-122.4085,37.8086],[-122.4085,37.8084],[-122.4084,37.8086],[-122.4085,37.8084],[-122.4084,37.8084],[-122.4084,37.8084],[-122.4083,37.8084],[-122.4083,37.8084],[-122.4082,37.8083],[-122.4081,37.8085],[-122.4082,37.8083],[-122.408,37.8082],[-122.4079,37.8084],[-122.408,37.8082],[-122.4079,37.8082],[-122.4078,37.8084],[-122.4079,37.8082],[-122.4078,37.8081],[-122.4079,37.8082],[-122.4074,37.808],[-122.4075,37.8079],[-122.4074,37.808],[-122.4066,37.8078],[-122.4068,37.81],[-122.4062,37.8101],[-122.4053,37.8069],[-122.4044,37.8089],[-122.4039,37.8087],[-122.4047,37.807],[-122.404,37.8066],[-122.4023,37.8078],[-122.4034,37.8065],[-122.4028,37.806],[-122.4009,37.8076],[-122.4004,37.8073],[-122.401,37.8036],[-122.3985,37.8046],[-122.4,37.8032],[-122.3975,37.8035],[-122.3996,37.8023],[-122.3994,37.8018],[-122.3971,37.803],[-122.3961,37.802],[-122.3984,37.8007],[-122.398,37.8002],[-122.3954,37.8012],[-122.3975,37.8],[-122.3973,37.7994],[-122.3969,37.7996],[-122.3973,37.7994],[-122.3972,37.7994],[-122.4054,37.798],[-122.4067,37.7978],[-122.4196,37.8068],[-122.4206,37.8067],[-122.421,37.809],[-122.4207,37.809],[-122.4204,37.8089],[-122.4207,37.809],[-122.4205,37.8083],[-122.4163,37.8083],[-122.4164,37.8083],[-122.4163,37.8083],[-122.4163,37.8085],[-122.4172,37.8085],[-122.4163,37.8085],[-122.4162,37.8085],[-122.4161,37.8085],[-122.4162,37.8085],[-122.4206,37.8113],[-122.419,37.8108],[-122.4195,37.8114],[-122.4188,37.8115],[-122.415,37.8093],[-122.4152,37.8095],[-122.415,37.8093],[-122.4153,37.8098],[-122.4134,37.8092],[-122.414,37.8101],[-122.4124,37.8092],[-122.4126,37.8094],[-122.4124,37.8092],[-122.4121,37.8094],[-122.4123,37.8096],[-122.4121,37.8094],[-122.4127,37.8106],[-122.4115,37.8112],[-122.4127,37.8106],[-122.4107,37.8088],[-122.4106,37.8089],[-122.4107,37.8088],[-122.4109,37.8102]]]}},{"type":"Feature","id":"Haight Ashbury","properties":{"id":"Haight Ashbury","name":"Haight Ashbury","name_full":"Haight Ashbury","name_ja":"Haight Ashbury","center_lonlat":[-122.4463,37.7693]},"geometry":{"type":"Polygon","coordinates":[[[-122.436,37.769],[-122.4384,37.769],[-122.442,37.7658],[-122.4441,37.765],[-122.4446,37.7634],[-122.4468,37.7618],[-122.4464,37.761],[-122.4475,37.7594],[-122.4514,37.7587],[-122.453,37.7664],[-122.4547,37.7747],[-122.4465,37.7758],[-122.4383,37.7769],[-122.436,37.769]]]}},{"type":"Feature","id":"Outer Mission","properties":{"id":"Outer Mission","name":"Outer Mission","name_full":"Outer Mission","name_ja":"Outer Mission","center_lonlat":[-122.444,37.7242]},"geometry":{"type":"Polygon","coordinates":[[[-122.4543,37.7082],[-122.4591,37.7082],[-122.4525,37.7137],[-122.4466,37.7207],[-122.4525,37.7232],[-122.4524,37.7299],[-122.4534,37.73],[-122.4535,37.7334],[-122.4484,37.7343],[-122.4457,37.7338],[-122.4453,37.7346],[-122.4421,37.7346],[-122.4417,37.7359],[-122.4399,37.7349],[-122.4325,37.7332],[-122.4356,37.7318],[-122.4322,37.7323],[-122.4283,37.7318],[-122.4344,37.7253],[-122.4408,37.7165],[-122.4452,37.712],[-122.4543,37.7082]]]}},{"type":"Feature","id":"Crocker Amazon","properties":{"id":"Crocker Amazon","name":"Crocker Amazon","name_full":"Crocker Amazon","name_ja":"Crocker Amazon","center_lonlat":[-122.4376,37.7109]},"geometry":{"type":"Polygon","coordinates":[[[-122.4209,37.7083],[-122.4543,37.7082],[-122.4452,37.712],[-122.4408,37.7165],[-122.4335,37.7133],[-122.4265,37.7112],[-122.4209,37.7083]]]}},{"type":"Feature","id":"West of Twin Peaks","properties":{"id":"West of Twin Peaks","name":"West of Twin Peaks","name_full":"West of Twin Peaks","name_ja":"West of Twin Peaks","center_lonlat":[-122.4592,37.7376]},"geometry":{"type":"Polygon","coordinates":[[[-122.4525,37.7232],[-122.4656,37.7264],[-122.4685,37.7295],[-122.4717,37.731],[-122.471,37.7359],[-122.469,37.7379],[-122.4696,37.7385],[-122.4705,37.747],[-122.4694,37.7472],[-122.4695,37.749],[-122.4663,37.7491],[-122.4666,37.7528],[-122.4633,37.7529],[-122.4614,37.7516],[-122.4588,37.7481],[-122.4586,37.7467],[-122.4517,37.7455],[-122.4498,37.7432],[-122.4467,37.7425],[-122.4461,37.7413],[-122.4427,37.7397],[-122.4425,37.7372],[-122.4439,37.7359],[-122.4417,37.7359],[-122.4421,37.7346],[-122.4453,37.7346],[-122.4457,37.7338],[-122.4484,37.7343],[-122.4535,37.7334],[-122.4534,37.73],[-122.4524,37.7299],[-122.4525,37.7232]]]}},{"type":"Feature","id":"South of Market","properties":{"id":"South of Market","name":"South of Market","name_full":"South of Market","name_ja":"South of Market","center_lonlat":[-122.4,37.7762]},"geometry":{"type":"Polygon","coordinates":[[[-122.3865,37.7805],[-122.3865,37.7806],[-122.3865,37.7805],[-122.386,37.7806],[-122.3848,37.7806],[-122.3848,37.7808],[-122.3848,37.7806],[-122.386,37.7806],[-122.386,37.7805],[-122.386,37.7806],[-122.3865,37.7805],[-122.3875,37.7805],[-122.3871,37.7801],[-122.387,37.7801],[-122.3869,37.7801],[-122.3869,37.7802],[-122.3869,37.7801],[-122.3857,37.7801],[-122.3857,37.7802],[-122.3857,37.7801],[-122.3853,37.7802],[-122.3852,37.7802],[-122.3848,37.7802],[-122.3848,37.7801],[-122.3848,37.7802],[-122.3852,37.7802],[-122.3853,37.7802],[-122.3857,37.7801],[-122.3869,37.7801],[-122.387,37.7801],[-122.387,37.78],[-122.387,37.7801],[-122.3871,37.7801],[-122.3871,37.7797],[-122.387,37.7797],[-122.3859,37.7797],[-122.3859,37.7798],[-122.3859,37.7797],[-122.3858,37.7797],[-122.3854,37.7798],[-122.3853,37.7798],[-122.3848,37.7798],[-122.3848,37.7797],[-122.3848,37.7798],[-122.3853,37.7798],[-122.3853,37.7797],[-122.3853,37.7798],[-122.3854,37.7798],[-122.3854,37.7797],[-122.3854,37.7798],[-122.3858,37.7797],[-122.3859,37.7797],[-122.387,37.7797],[-122.3871,37.7797],[-122.3874,37.7793],[-122.3864,37.7793],[-122.3864,37.7794],[-122.3864,37.7793],[-122.386,37.7794],[-122.3859,37.7794],[-122.3848,37.7794],[-122.3847,37.7793],[-122.3848,37.7794],[-122.3859,37.7794],[-122.3859,37.7793],[-122.3859,37.7794],[-122.386,37.7794],[-122.386,37.7793],[-122.386,37.7794],[-122.3864,37.7793],[-122.3874,37.7793],[-122.3874,37.7789],[-122.3872,37.7789],[-122.3872,37.779],[-122.3872,37.7789],[-122.3871,37.7789],[-122.3867,37.779],[-122.3866,37.779],[-122.3855,37.779],[-122.3854,37.779],[-122.3854,37.7791],[-122.3854,37.779],[-122.385,37.7791],[-122.3849,37.7791],[-122.3848,37.7791],[-122.3848,37.7792],[-122.3848,37.7791],[-122.3849,37.7791],[-122.3849,37.779],[-122.3849,37.7791],[-122.385,37.7791],[-122.3854,37.779],[-122.3855,37.779],[-122.3866,37.779],[-122.3866,37.7789],[-122.3866,37.779],[-122.3867,37.779],[-122.3867,37.7789],[-122.3867,37.779],[-122.3871,37.7789],[-122.3872,37.7789],[-122.3874,37.7789],[-122.3874,37.7786],[-122.3867,37.7786],[-122.3867,37.7787],[-122.3867,37.7786],[-122.3866,37.7786],[-122.3866,37.7787],[-122.3866,37.7786],[-122.3862,37.7787],[-122.3861,37.7787],[-122.3852,37.7787],[-122.3851,37.7786],[-122.3852,37.7787],[-122.3861,37.7787],[-122.3861,37.7786],[-122.3861,37.7787],[-122.3862,37.7787],[-122.3866,37.7786],[-122.3867,37.7786],[-122.3874,37.7786],[-122.3853,37.7784],[-122.3904,37.7771],[-122.3899,37.7765],[-122.385,37.7763],[-122.3848,37.7754],[-122.387,37.7751],[-122.3869,37.7743],[-122.3818,37.7746],[-122.3815,37.7719],[-122.3847,37.7734],[-122.3868,37.7733],[-122.3864,37.7716],[-122.3863,37.7716],[-122.3864,37.7716],[-122.3858,37.7707],[-122.3856,37.7722],[-122.3857,37.7706],[-122.3832,37.7697],[-122.3856,37.7702],[-122.3851,37.7681],[-122.3824,37.7677],[-122.3849,37.7671],[-122.405,37.766],[-122.4053,37.7679],[-122.407,37.7689],[-122.4212,37.7702],[-122.4227,37.7706],[-122.4233,37.7721],[-122.4222,37.7729],[-122.4058,37.7857],[-122.4011,37.782],[-122.3893,37.7914],[-122.3882,37.79],[-122.3857,37.791],[-122.3855,37.7905],[-122.3876,37.7898],[-122.3873,37.7893],[-122.3853,37.7898],[-122.3851,37.7892],[-122.3872,37.7888],[-122.387,37.7882],[-122.3851,37.7881],[-122.3873,37.7878],[-122.3874,37.7872],[-122.3845,37.7874],[-122.3843,37.7857],[-122.3876,37.7855],[-122.3876,37.7849],[-122.3854,37.7846],[-122.3877,37.7844],[-122.3862,37.7834],[-122.3878,37.7829],[-122.3847,37.7829],[-122.3878,37.7823],[-122.3849,37.7818],[-122.3876,37.7815],[-122.3873,37.781],[-122.3873,37.7811],[-122.3873,37.781],[-122.3872,37.781],[-122.3872,37.7811],[-122.3872,37.781],[-122.3871,37.781],[-122.387,37.781],[-122.3869,37.781],[-122.3869,37.7811],[-122.3869,37.781],[-122.3868,37.781],[-122.3868,37.7811],[-122.3868,37.781],[-122.3867,37.781],[-122.3867,37.7811],[-122.3867,37.781],[-122.3865,37.781],[-122.3865,37.7812],[-122.3865,37.781],[-122.3864,37.781],[-122.3864,37.7812],[-122.3864,37.781],[-122.3863,37.781],[-122.3863,37.7812],[-122.3863,37.781],[-122.386,37.7811],[-122.386,37.7812],[-122.386,37.7811],[-122.3859,37.7811],[-122.3859,37.7812],[-122.3859,37.7811],[-122.3856,37.7811],[-122.3856,37.7812],[-122.3856,37.7811],[-122.3855,37.7811],[-122.3855,37.7812],[-122.3855,37.7811],[-122.3854,37.7811],[-122.3853,37.7811],[-122.3852,37.7811],[-122.3852,37.7812],[-122.3852,37.7811],[-122.3851,37.7811],[-122.3851,37.7812],[-122.3851,37.7811],[-122.385,37.7811],[-122.3849,37.7811],[-122.3848,37.7811],[-122.3848,37.7813],[-122.3848,37.7811],[-122.3849,37.7811],[-122.385,37.7811],[-122.3851,37.7811],[-122.3851,37.781],[-122.3851,37.7811],[-122.3852,37.7811],[-122.3852,37.781],[-122.3852,37.7811],[-122.3853,37.7811],[-122.3854,37.7811],[-122.3855,37.7811],[-122.3855,37.7809],[-122.3855,37.7811],[-122.3856,37.7811],[-122.3856,37.7809],[-122.3856,37.7811],[-122.3859,37.781],[-122.3859,37.7809],[-122.3859,37.781],[-122.386,37.781],[-122.386,37.7809],[-122.386,37.781],[-122.3861,37.781],[-122.3861,37.7809],[-122.3861,37.781],[-122.3863,37.781],[-122.3863,37.7809],[-122.3863,37.781],[-122.3864,37.781],[-122.3864,37.7809],[-122.3864,37.781],[-122.3865,37.781],[-122.3865,37.7809],[-122.3865,37.781],[-122.3867,37.781],[-122.3867,37.7809],[-122.3867,37.781],[-122.3868,37.781],[-122.3868,37.7809],[-122.3868,37.781],[-122.3869,37.781],[-122.3869,37.7809],[-122.3869,37.781],[-122.387,37.781],[-122.3871,37.781],[-122.3872,37.781],[-122.3872,37.7808],[-122.3872,37.781],[-122.3873,37.781],[-122.3873,37.7808],[-122.3873,37.781],[-122.3875,37.7805],[-122.3865,37.7805]]]}},{"type":"Feature","id":"Potrero Hill","properties":{"id":"Potrero Hill","name":"Potrero Hill","name_full":"Potrero Hill","name_ja":"Potrero Hill","center_lonlat":[-122.3934,37.7582]},"geometry":{"type":"Polygon","coordinates":[[[-122.38,37.7521],[-122.3828,37.7518],[-122.3825,37.7506],[-122.4036,37.7494],[-122.403,37.7511],[-122.4033,37.7567],[-122.4062,37.7595],[-122.405,37.766],[-122.3849,37.7671],[-122.3828,37.7668],[-122.3859,37.7666],[-122.3872,37.7635],[-122.3852,37.7634],[-122.3851,37.7623],[-122.3843,37.7621],[-122.3843,37.7641],[-122.3841,37.7623],[-122.3834,37.7623],[-122.3836,37.7643],[-122.3831,37.7623],[-122.3823,37.7624],[-122.3823,37.7646],[-122.3817,37.7624],[-122.3817,37.7647],[-122.381,37.7648],[-122.381,37.7622],[-122.3833,37.7621],[-122.382,37.7606],[-122.3813,37.7621],[-122.3811,37.7602],[-122.3809,37.7633],[-122.3804,37.7602],[-122.3795,37.7602],[-122.3795,37.7635],[-122.3792,37.7599],[-122.3815,37.7596],[-122.3814,37.7571],[-122.3813,37.7571],[-122.3814,37.7571],[-122.3808,37.7552],[-122.3841,37.7547],[-122.3831,37.7547],[-122.3825,37.7533],[-122.3799,37.7529],[-122.38,37.7521]]]}},{"type":"Feature","id":"Inner Richmond","properties":{"id":"Inner Richmond","name":"Inner Richmond","name_full":"Inner Richmond","name_ja":"Inner Richmond","center_lonlat":[-122.465,37.78]},"geometry":{"type":"Polygon","coordinates":[[[-122.4465,37.7758],[-122.4547,37.7747],[-122.4778,37.7729],[-122.4787,37.7869],[-122.4658,37.7871],[-122.466,37.7884],[-122.4626,37.789],[-122.4625,37.7867],[-122.4592,37.7868],[-122.4589,37.7812],[-122.4474,37.7824],[-122.4465,37.7758]]]}},{"type":"Feature","id":"Bayview","properties":{"id":"Bayview","name":"Bayview","name_full":"Bayview","name_ja":"Bayview","center_lonlat":[-122.3857,37.7309]},"geometry":{"type":"Polygon","coordinates":[[[-122.3907,37.7478],[-122.3906,37.7478],[-122.3907,37.7478],[-122.393,37.7485],[-122.3929,37.7474],[-122.3915,37.7471],[-122.3913,37.7471],[-122.3915,37.7471],[-122.3762,37.7472],[-122.375,37.7468],[-122.374,37.745],[-122.374,37.7449],[-122.374,37.745],[-122.3728,37.7455],[-122.3676,37.7401],[-122.374,37.7396],[-122.3737,37.7389],[-122.3729,37.7383],[-122.3674,37.7382],[-122.373,37.737],[-122.3764,37.7384],[-122.3749,37.7376],[-122.376,37.7358],[-122.3759,37.735],[-122.3749,37.735],[-122.3756,37.7327],[-122.3743,37.7325],[-122.3718,37.7342],[-122.3693,37.732],[-122.3674,37.7319],[-122.3652,37.7338],[-122.3662,37.7319],[-122.3649,37.7328],[-122.3657,37.7316],[-122.3648,37.7325],[-122.3637,37.7313],[-122.3629,37.7321],[-122.3634,37.7311],[-122.3618,37.7315],[-122.3626,37.7306],[-122.3621,37.7302],[-122.3588,37.7298],[-122.3623,37.7285],[-122.3577,37.7294],[-122.3604,37.7282],[-122.357,37.7287],[-122.358,37.726],[-122.3616,37.7252],[-122.3613,37.7242],[-122.3578,37.7246],[-122.3615,37.7238],[-122.3653,37.7256],[-122.36,37.7216],[-122.363,37.723],[-122.3638,37.7221],[-122.3591,37.7194],[-122.36,37.7185],[-122.3627,37.7201],[-122.3637,37.7191],[-122.3586,37.7159],[-122.3626,37.718],[-122.3639,37.7167],[-122.36,37.7143],[-122.3644,37.7163],[-122.3652,37.7154],[-122.3648,37.7149],[-122.3646,37.7148],[-122.3643,37.7146],[-122.3631,37.7139],[-122.3619,37.7132],[-122.3611,37.7128],[-122.3619,37.7132],[-122.3631,37.7139],[-122.3643,37.7146],[-122.3646,37.7148],[-122.3648,37.7149],[-122.3654,37.7152],[-122.3644,37.7163],[-122.3656,37.716],[-122.3703,37.7187],[-122.3742,37.7193],[-122.3741,37.7193],[-122.3742,37.7193],[-122.3755,37.7203],[-122.3759,37.7227],[-122.3771,37.7242],[-122.379,37.7238],[-122.381,37.7218],[-122.385,37.7241],[-122.3869,37.7243],[-122.3827,37.7218],[-122.3831,37.72],[-122.3762,37.7162],[-122.3767,37.7152],[-122.3766,37.7152],[-122.3767,37.7152],[-122.379,37.713],[-122.3801,37.7106],[-122.378,37.7086],[-122.3758,37.7097],[-122.3746,37.7085],[-122.3795,37.7084],[-122.3864,37.71],[-122.388,37.7087],[-122.3916,37.7097],[-122.3931,37.7084],[-122.395,37.7084],[-122.3957,37.7115],[-122.3986,37.7157],[-122.4011,37.7243],[-122.4035,37.7305],[-122.4067,37.7352],[-122.4075,37.7358],[-122.408,37.7397],[-122.4073,37.7421],[-122.4049,37.7453],[-122.4036,37.7494],[-122.3825,37.7506],[-122.3828,37.7518],[-122.38,37.7521],[-122.3761,37.7522],[-122.3758,37.7487],[-122.3849,37.7482],[-122.3847,37.7483],[-122.3849,37.7482],[-122.3907,37.7478]]]}},{"type":"Feature","id":"Noe Valley","properties":{"id":"Noe Valley","name":"Noe Valley","name_full":"Noe Valley","name_ja":"Noe Valley","center_lonlat":[-122.4333,37.7492]},"geometry":{"type":"Polygon","coordinates":[[[-122.4256,37.7566],[-122.4248,37.7478],[-122.4242,37.7423],[-122.4355,37.7415],[-122.4399,37.745],[-122.4406,37.7472],[-122.4448,37.7469],[-122.441,37.7562],[-122.439,37.7565],[-122.4389,37.7555],[-122.4378,37.7555],[-122.4256,37.7566]]]}},{"type":"Feature","id":"Inner Sunset","properties":{"id":"Inner Sunset","name":"Inner Sunset","name_full":"Inner Sunset","name_ja":"Inner Sunset","center_lonlat":[-122.4654,37.7585]},"geometry":{"type":"Polygon","coordinates":[[[-122.4514,37.7587],[-122.4541,37.7573],[-122.4562,37.7517],[-122.4614,37.7516],[-122.4633,37.7529],[-122.4666,37.7528],[-122.4663,37.7491],[-122.4695,37.749],[-122.476,37.7487],[-122.4772,37.7654],[-122.453,37.7664],[-122.4514,37.7587]]]}},{"type":"Feature","id":"Diamond Heights","properties":{"id":"Diamond Heights","name":"Diamond Heights","name_full":"Diamond Heights","name_ja":"Diamond Heights","center_lonlat":[-122.4426,37.7424]},"geometry":{"type":"Polygon","coordinates":[[[-122.4355,37.7415],[-122.4369,37.7384],[-122.4396,37.7388],[-122.4402,37.7382],[-122.4399,37.7349],[-122.4417,37.7359],[-122.4439,37.7359],[-122.4425,37.7372],[-122.4427,37.7397],[-122.4461,37.7413],[-122.4467,37.7425],[-122.4498,37.7432],[-122.4517,37.7455],[-122.4448,37.7469],[-122.4406,37.7472],[-122.4399,37.745],[-122.4355,37.7415]]]}},{"type":"Feature","id":"Lakeshore","properties":{"id":"Lakeshore","name":"Lakeshore","name_full":"Lakeshore","name_ja":"Lakeshore","center_lonlat":[-122.4885,37.7226]},"geometry":{"type":"Polygon","coordinates":[[[-122.4711,37.7082],[-122.5028,37.7081],[-122.506,37.7191],[-122.5085,37.7354],[-122.502,37.7355],[-122.4973,37.7338],[-122.4912,37.734],[-122.4914,37.7372],[-122.4903,37.7379],[-122.4855,37.7368],[-122.4826,37.7375],[-122.4706,37.7377],[-122.4696,37.7385],[-122.469,37.7379],[-122.471,37.7359],[-122.4717,37.731],[-122.4726,37.7175],[-122.4712,37.7126],[-122.4711,37.7082]]]}},{"type":"Feature","id":"Russian Hill","properties":{"id":"Russian Hill","name":"Russian Hill","name_full":"Russian Hill","name_ja":"Russian Hill","center_lonlat":[-122.4185,37.8012]},"geometry":{"type":"Polygon","coordinates":[[[-122.421,37.809],[-122.4206,37.8067],[-122.4196,37.8068],[-122.4067,37.7978],[-122.4103,37.7974],[-122.4234,37.7957],[-122.4238,37.7976],[-122.4256,37.8065],[-122.4268,37.8081],[-122.4265,37.81],[-122.4243,37.8107],[-122.4264,37.8098],[-122.4265,37.8079],[-122.4259,37.8075],[-122.4261,37.8077],[-122.4259,37.8075],[-122.4259,37.8075],[-122.4238,37.8066],[-122.4215,37.8081],[-122.4218,37.8084],[-122.4215,37.8081],[-122.4213,37.8083],[-122.4215,37.8085],[-122.4216,37.8086],[-122.4215,37.8085],[-122.4213,37.8083],[-122.4214,37.8092],[-122.4229,37.8102],[-122.4214,37.8092],[-122.421,37.809]]]}},{"type":"Feature","id":"Treasure Island/YBI","properties":{"id":"Treasure Island/YBI","name":"Treasure Island/YBI","name_full":"Treasure Island/YBI","name_ja":"Treasure Island/YBI","center_lonlat":[-122.3695,37.8206]},"geometry":{"type":"Polygon","coordinates":[[[-122.3592,37.8136],[-122.3591,37.8136],[-122.3592,37.8136],[-122.3611,37.8125],[-122.3612,37.8102],[-122.3602,37.8109],[-122.362,37.807],[-122.3673,37.8074],[-122.3692,37.8084],[-122.3693,37.8084],[-122.3692,37.8084],[-122.3693,37.8084],[-122.3728,37.8108],[-122.3712,37.8144],[-122.3748,37.8202],[-122.3754,37.8196],[-122.3749,37.8203],[-122.3748,37.8203],[-122.3749,37.8203],[-122.3791,37.8269],[-122.3776,37.8305],[-122.3725,37.8333],[-122.3732,37.8323],[-122.3686,37.8311],[-122.3674,37.8295],[-122.3628,37.8226],[-122.3636,37.8209],[-122.3605,37.8201],[-122.3636,37.8205],[-122.3649,37.8183],[-122.3711,37.816],[-122.3704,37.8142],[-122.3676,37.8123],[-122.3639,37.8141],[-122.3595,37.815],[-122.3589,37.8148],[-122.3592,37.8136]]]}},{"type":"Feature","id":"Twin Peaks","properties":{"id":"Twin Peaks","name":"Twin Peaks","name_full":"Twin Peaks","name_ja":"Twin Peaks","center_lonlat":[-122.4501,37.7521]},"geometry":{"type":"Polygon","coordinates":[[[-122.4614,37.7516],[-122.4562,37.7517],[-122.4541,37.7573],[-122.4514,37.7587],[-122.4475,37.7594],[-122.4464,37.761],[-122.4465,37.7589],[-122.4442,37.7584],[-122.441,37.7562],[-122.4448,37.7469],[-122.4517,37.7455],[-122.4586,37.7467],[-122.4588,37.7481],[-122.4614,37.7516]]]}},{"type":"Feature","id":"Outer Richmond","properties":{"id":"Outer Richmond","name":"Outer Richmond","name_full":"Outer Richmond","name_ja":"Outer Richmond","center_lonlat":[-122.4928,37.7778]},"geometry":{"type":"Polygon","coordinates":[[[-122.4787,37.7869],[-122.4778,37.7729],[-122.5131,37.7712],[-122.5132,37.775],[-122.5091,37.7752],[-122.5095,37.7799],[-122.5051,37.7798],[-122.5053,37.781],[-122.4924,37.7817],[-122.4925,37.7835],[-122.4871,37.7838],[-122.4874,37.7875],[-122.4841,37.7879],[-122.4787,37.7869]]]}},{"type":"Feature","id":"Visitacion Valley","properties":{"id":"Visitacion Valley","name":"Visitacion Valley","name_full":"Visitacion Valley","name_ja":"Visitacion Valley","center_lonlat":[-122.4121,37.7148]},"geometry":{"type":"Polygon","coordinates":[[[-122.395,37.7084],[-122.4209,37.7083],[-122.4265,37.7112],[-122.4335,37.7133],[-122.4311,37.7166],[-122.4261,37.7157],[-122.4265,37.7186],[-122.4257,37.7202],[-122.4234,37.7198],[-122.4235,37.719],[-122.4011,37.7243],[-122.3986,37.7157],[-122.3957,37.7115],[-122.395,37.7084]]]}},{"type":"Feature","id":"Golden Gate Park","properties":{"id":"Golden Gate Park","name":"Golden Gate Park","name_full":"Golden Gate Park","name_ja":"Golden Gate Park","center_lonlat":[-122.4828,37.769]},"geometry":{"type":"Polygon","coordinates":[[[-122.4547,37.7747],[-122.453,37.7664],[-122.4772,37.7654],[-122.5125,37.7639],[-122.5131,37.7679],[-122.513,37.7679],[-122.5131,37.7679],[-122.5131,37.7712],[-122.4778,37.7729],[-122.4547,37.7747]]]}},{"type":"Feature","id":"Parkside","properties":{"id":"Parkside","name":"Parkside","name_full":"Parkside","name_ja":"Parkside","center_lonlat":[-122.4896,37.7413]},"geometry":{"type":"Polygon","coordinates":[[[-122.4696,37.7385],[-122.4706,37.7377],[-122.4826,37.7375],[-122.4855,37.7368],[-122.4903,37.7379],[-122.4914,37.7372],[-122.4912,37.734],[-122.4973,37.7338],[-122.502,37.7355],[-122.5085,37.7354],[-122.5094,37.7453],[-122.4759,37.7468],[-122.476,37.7487],[-122.4695,37.749],[-122.4694,37.7472],[-122.4705,37.747],[-122.4696,37.7385]]]}},{"type":"Feature","id":"Financial District","properties":{"id":"Financial District","name":"Financial District","name_full":"Financial District","name_ja":"Financial District","center_lonlat":[-122.3991,37.7914]},"geometry":{"type":"Polygon","coordinates":[[[-122.3957,37.7993],[-122.3966,37.7987],[-122.3959,37.7979],[-122.3936,37.7987],[-122.3952,37.7971],[-122.3929,37.798],[-122.3948,37.7967],[-122.3932,37.7975],[-122.3941,37.7969],[-122.3931,37.7956],[-122.3916,37.7962],[-122.3912,37.7958],[-122.3924,37.7948],[-122.3916,37.7945],[-122.392,37.7939],[-122.3893,37.7914],[-122.4011,37.782],[-122.4058,37.7857],[-122.4072,37.7904],[-122.4064,37.7904],[-122.4062,37.7905],[-122.404,37.7908],[-122.405,37.7957],[-122.4053,37.7972],[-122.4054,37.798],[-122.3972,37.7994],[-122.3967,37.7988],[-122.3967,37.7989],[-122.3967,37.7988],[-122.3957,37.7993],[-122.3943,37.8002],[-122.3957,37.7993]]]}},{"type":"Feature","id":"Ocean View","properties":{"id":"Ocean View","name":"Ocean View","name_full":"Ocean View","name_ja":"Ocean View","center_lonlat":[-122.4624,37.718]},"geometry":{"type":"Polygon","coordinates":[[[-122.4591,37.7082],[-122.4711,37.7082],[-122.4712,37.7126],[-122.4726,37.7175],[-122.4717,37.731],[-122.4685,37.7295],[-122.4656,37.7264],[-122.4525,37.7232],[-122.4466,37.7207],[-122.4525,37.7137],[-122.4591,37.7082]]]}},{"type":"Feature","id":"Mission","properties":{"id":"Mission","name":"Mission","name_full":"Mission","name_ja":"Mission","center_lonlat":[-122.4154,37.7589]},"geometry":{"type":"Polygon","coordinates":[[[-122.4248,37.7478],[-122.4256,37.7566],[-122.4268,37.7696],[-122.4233,37.7721],[-122.4227,37.7706],[-122.4212,37.7702],[-122.407,37.7689],[-122.4053,37.7679],[-122.405,37.766],[-122.4062,37.7595],[-122.4033,37.7567],[-122.403,37.7511],[-122.4036,37.7494],[-122.4076,37.7484],[-122.4248,37.7478]]]}},{"type":"Feature","id":"Presidio","properties":{"id":"Presidio","name":"Presidio","name_full":"Presidio","name_ja":"Presidio","center_lonlat":[-122.4663,37.7973]},"geometry":{"type":"Polygon","coordinates":[[[-122.448,37.807],[-122.4485,37.8044],[-122.4496,37.8032],[-122.4491,37.802],[-122.4478,37.8016],[-122.4467,37.7947],[-122.4462,37.7919],[-122.4477,37.7916],[-122.4626,37.789],[-122.466,37.7884],[-122.4658,37.7871],[-122.4787,37.7869],[-122.4841,37.7879],[-122.4837,37.7893],[-122.4862,37.7905],[-122.4836,37.794],[-122.4817,37.7989],[-122.4816,37.7987],[-122.4817,37.7989],[-122.4787,37.8055],[-122.4777,37.811],[-122.4745,37.8091],[-122.4706,37.8086],[-122.47,37.8095],[-122.4694,37.8091],[-122.4705,37.8086],[-122.4667,37.8058],[-122.4659,37.8063],[-122.4667,37.8058],[-122.4619,37.8049],[-122.448,37.807]]]}},{"type":"Feature","id":"Castro/Upper Market","properties":{"id":"Castro/Upper Market","name":"Castro/Upper Market","name_full":"Castro/Upper Market","name_ja":"Castro/Upper Market","center_lonlat":[-122.435,37.7623]},"geometry":{"type":"Polygon","coordinates":[[[-122.4464,37.761],[-122.4468,37.7618],[-122.4446,37.7634],[-122.4441,37.765],[-122.442,37.7658],[-122.4384,37.769],[-122.436,37.769],[-122.4268,37.7696],[-122.4256,37.7566],[-122.4378,37.7555],[-122.4389,37.7555],[-122.439,37.7565],[-122.441,37.7562],[-122.4442,37.7584],[-122.4465,37.7589],[-122.4464,37.761]]]}},{"type":"Feature","id":"Outer Sunset","properties":{"id":"Outer Sunset","name":"Outer Sunset","name_full":"Outer Sunset","name_ja":"Outer Sunset","center_lonlat":[-122.4938,37.7554]},"geometry":{"type":"Polygon","coordinates":[[[-122.476,37.7487],[-122.4759,37.7468],[-122.5094,37.7453],[-122.5097,37.7492],[-122.5113,37.7542],[-122.5112,37.7542],[-122.5113,37.7542],[-122.5125,37.7639],[-122.4772,37.7654],[-122.476,37.7487]]]}},{"type":"Feature","id":"Glen Park","properties":{"id":"Glen Park","name":"Glen Park","name_full":"Glen Park","name_ja":"Glen Park","center_lonlat":[-122.4319,37.738]},"geometry":{"type":"Polygon","coordinates":[[[-122.4242,37.7423],[-122.4239,37.7399],[-122.4248,37.7381],[-122.4265,37.7364],[-122.4325,37.7332],[-122.4399,37.7349],[-122.4402,37.7382],[-122.4396,37.7388],[-122.4369,37.7384],[-122.4355,37.7415],[-122.4242,37.7423]]]}}]}
