{"type":"FeatureCollection","features":[{"type":"Feature","id":"Naha","properties":{"id":"Naha","code":47201,"name":"Naha","name_full":"那覇市","name_ja":"那覇市","name_short_ja":"那覇","center_lonlat":[127.6844,26.2104]},"geometry":{"type":"Polygon","coordinates":[[[127.675,26.2461],[127.6686,26.2461],[127.6693,26.2424],[127.6705,26.2411],[127.6722,26.2411],[127.6723,26.2386],[127.6691,26.2386],[127.6671,26.2377],[127.6671,26.2323],[127.6737,26.2323],[127.6751,26.2361],[127.6751,26.2402],[127.6771,26.2402],[127.6771,26.2365],[127.6781,26.2365],[127.6781,26.2402],[127.6794,26.2402],[127.681,26.2266],[127.6739,26.2235],[127.6709,26.2209],[127.6651,26.2216],[127.6617,26.2173],[127.6648,26.2147],[127.6665,26.2113],[127.6743,26.2092],[127.6739,26.2073],[127.6712,26.2052],[127.6698,26.2077],[127.6658,26.2095],[127.6632,26.2132],[127.6576,26.2135],[127.6521,26.2178],[127.6489,26.2167],[127.6468,26.2147],[127.6454,26.2116],[127.6443,26.2115],[127.6418,26.2075],[127.6425,26.2071],[127.6419,26.2039],[127.6349,26.2036],[127.6339,26.2063],[127.6305,26.2062],[127.6318,26.182],[127.6312,26.1787],[127.636,26.1782],[127.6351,26.2004],[127.6358,26.2016],[127.6411,26.2018],[127.6365,26.1987],[127.638,26.1972],[127.6396,26.193],[127.6437,26.1887],[127.6438,26.1774],[127.6552,26.1767],[127.6602,26.1791],[127.6613,26.1808],[127.6645,26.1829],[127.6657,26.1819],[127.6674,26.1833],[127.6689,26.1819],[127.6709,26.1822],[127.6736,26.1851],[127.6778,26.1866],[127.6806,26.1891],[127.6821,26.1965],[127.6832,26.1984],[127.6897,26.1944],[127.6935,26.1945],[127.6966,26.1961],[127.6993,26.1955],[127.7039,26.1913],[127.7077,26.1903],[127.7118,26.1936],[127.7132,26.1959],[127.7182,26.1958],[127.7216,26.1984],[127.7228,26.2032],[127.7225,26.2097],[127.7275,26.2151],[127.7317,26.2166],[127.7336,26.2182],[127.7359,26.2178],[127.7362,26.2247],[127.7332,26.2265],[127.7357,26.2301],[127.7381,26.2316],[127.7384,26.2363],[127.7349,26.2361],[127.7328,26.2373],[127.7259,26.2334],[127.7087,26.2334],[127.7063,26.2346],[127.704,26.2335],[127.7016,26.2351],[127.7009,26.2371],[127.6978,26.2367],[127.696,26.2398],[127.6888,26.2423],[127.6851,26.2426],[127.675,26.2461]]]}},{"type":"Feature","id":"Ginowan","properties":{"id":"Ginowan","code":47205,"name":"Ginowan","name_full":"宜野湾市","name_ja":"宜野湾市","name_short_ja":"宜野湾","center_lonlat":[127.756,26.2744]},"geometry":{"type":"Polygon","coordinates":[[[127.7794,26.2962],[127.7739,26.2974],[127.7708,26.2966],[127.7672,26.2979],[127.7619,26.2932],[127.757,26.295],[127.7561,26.2941],[127.753,26.2958],[127.7514,26.2935],[127.7526,26.2918],[127.7505,26.29],[127.7477,26.2897],[127.7441,26.2874],[127.7431,26.2848],[127.7407,26.2835],[127.7411,26.2813],[127.7388,26.2809],[127.7379,26.2832],[127.7328,26.2822],[127.7308,26.2804],[127.7316,26.2786],[127.7285,26.2761],[127.7261,26.277],[127.7268,26.2739],[127.7243,26.2728],[127.7269,26.2689],[127.7271,26.2669],[127.7294,26.2676],[127.7306,26.2642],[127.7282,26.2616],[127.732,26.2591],[127.731,26.2563],[127.7319,26.2551],[127.7353,26.2536],[127.7388,26.2534],[127.7399,26.2557],[127.7395,26.2574],[127.7423,26.258],[127.7494,26.2524],[127.7517,26.2529],[127.753,26.2513],[127.7538,26.2519],[127.7567,26.2513],[127.7575,26.2499],[127.7597,26.2516],[127.7616,26.2517],[127.7634,26.2529],[127.7646,26.2557],[127.7693,26.2541],[127.7673,26.2587],[127.7689,26.2608],[127.7709,26.2618],[127.7737,26.2673],[127.7739,26.2694],[127.7828,26.2805],[127.7834,26.2833],[127.7871,26.2875],[127.7842,26.2894],[127.7837,26.2934],[127.782,26.2948],[127.7797,26.2942],[127.7794,26.2962]]]}},{"type":"Feature","id":"Ishigaki","properties":{"id":"Ishigaki","code":47207,"name":"Ishigaki","name_full":"石垣市","name_ja":"石垣市","name_short_ja":"石垣","center_lonlat":[124.2054,24.4329]},"geometry":{"type":"MultiPolygon","coordinates":[[[[124.3165,24.6121],[124.3122,24.6105],[124.3112,24.5996],[124.3116,24.5947],[124.309,24.5901],[124.3084,24.5873],[124.3018,24.5806],[124.3016,24.5783],[124.2975,24.57],[124.2925,24.5679],[124.2846,24.562],[124.283,24.5617],[124.2826,24.5588],[124.2843,24.5558],[124.2873,24.555],[124.2891,24.5516],[124.2905,24.5505],[124.2921,24.5509],[124.2939,24.5483],[124.2947,24.5412],[124.2929,24.5394],[124.2888,24.5394],[124.2867,24.5377],[124.2856,24.5349],[124.2861,24.5313],[124.2842,24.5276],[124.2827,24.5265],[124.2784,24.5155],[124.2772,24.5092],[124.2789,24.5073],[124.2772,24.5055],[124.275,24.5047],[124.2736,24.5075],[124.2712,24.5081],[124.2674,24.5144],[124.2595,24.5185],[124.2585,24.5197],[124.2563,24.5184],[124.2464,24.5083],[124.2449,24.504],[124.2389,24.4988],[124.2293,24.4979],[124.2304,24.4951],[124.2294,24.4903],[124.231,24.4892],[124.2306,24.4872],[124.2288,24.4874],[124.2244,24.482],[124.2224,24.474],[124.2207,24.4717],[124.2208,24.4686],[124.2248,24.4679],[124.2264,24.4644],[124.2261,24.4592],[124.2229,24.4554],[124.2188,24.4542],[124.2168,24.4558],[124.2121,24.4557],[124.2108,24.455],[124.2056,24.4579],[124.2026,24.4581],[124.2008,24.4568],[124.1927,24.4576],[124.188,24.4559],[124.184,24.4514],[124.1787,24.4487],[124.1771,24.4494],[124.1744,24.4487],[124.1725,24.4498],[124.1697,24.4495],[124.1624,24.4522],[124.1526,24.4545],[124.15,24.4522],[124.1496,24.4505],[124.1437,24.4469],[124.1423,24.4452],[124.142,24.443],[124.1398,24.4425],[124.1364,24.4449],[124.1344,24.4478],[124.1377,24.4502],[124.1407,24.4501],[124.1412,24.4514],[124.1392,24.4532],[124.1393,24.4565],[124.1409,24.4573],[124.1417,24.4596],[124.1429,24.46],[124.1442,24.4636],[124.1435,24.4661],[124.1404,24.4706],[124.1336,24.4759],[124.1259,24.4783],[124.1205,24.4816],[124.1176,24.4824],[124.1126,24.4794],[124.1135,24.4774],[124.1156,24.4764],[124.1178,24.4773],[124.1205,24.4761],[124.122,24.4744],[124.1233,24.4744],[124.1249,24.4722],[124.1255,24.4688],[124.1245,24.4663],[124.1227,24.4649],[124.1214,24.465],[124.1167,24.4626],[124.1179,24.4614],[124.1172,24.4589],[124.118,24.4583],[124.1183,24.4551],[124.1166,24.455],[124.1174,24.4489],[124.1202,24.4487],[124.1184,24.4461],[124.1156,24.445],[124.1137,24.4458],[124.1106,24.4442],[124.1059,24.4451],[124.1059,24.4484],[124.1035,24.4488],[124.1024,24.451],[124.1005,24.4512],[124.0997,24.4534],[124.0981,24.4529],[124.0947,24.4541],[124.0883,24.4519],[124.0821,24.4521],[124.0794,24.454],[124.0766,24.4533],[124.0778,24.4498],[124.0806,24.4492],[124.077,24.4406],[124.0722,24.4384],[124.0724,24.4367],[124.0713,24.4355],[124.072,24.4336],[124.0699,24.4288],[124.0724,24.4269],[124.077,24.4262],[124.0793,24.424],[124.0843,24.4164],[124.0852,24.4161],[124.0856,24.42],[124.0873,24.4214],[124.0878,24.4232],[124.0935,24.4277],[124.0978,24.43],[124.0992,24.4317],[124.103,24.4334],[124.1078,24.4335],[124.1115,24.4322],[124.112,24.4299],[124.1146,24.4315],[124.1144,24.4334],[124.1163,24.4345],[124.1205,24.4345],[124.1235,24.4331],[124.1248,24.431],[124.1242,24.4284],[124.1327,24.4216],[124.1339,24.4194],[124.1342,24.4155],[124.137,24.4144],[124.1413,24.4146],[124.1431,24.4138],[124.1443,24.4107],[124.1433,24.406],[124.1397,24.4009],[124.1411,24.3923],[124.1399,24.3894],[124.1372,24.3855],[124.1318,24.3805],[124.127,24.3779],[124.1233,24.3789],[124.1202,24.3778],[124.1163,24.3743],[124.1115,24.3671],[124.1115,24.3655],[124.1151,24.364],[124.118,24.3605],[124.1206,24.3594],[124.1235,24.3569],[124.1319,24.3556],[124.1446,24.3511],[124.1442,24.3494],[124.1495,24.3433],[124.147,24.3409],[124.1473,24.339],[124.1452,24.3387],[124.1454,24.3371],[124.1535,24.3381],[124.1537,24.3366],[124.1575,24.3378],[124.1589,24.3357],[124.1568,24.3345],[124.1596,24.3332],[124.1628,24.3341],[124.1664,24.3302],[124.1678,24.3308],[124.1698,24.3299],[124.1713,24.3311],[124.1812,24.3305],[124.1924,24.3351],[124.1973,24.3412],[124.2009,24.3432],[124.2017,24.3447],[124.2009,24.3467],[124.1984,24.3483],[124.1997,24.3506],[124.1992,24.3528],[124.2028,24.3547],[124.2086,24.3555],[124.2151,24.3553],[124.2178,24.3544],[124.2183,24.3519],[124.221,24.3494],[124.229,24.3456],[124.2361,24.3451],[124.2396,24.3468],[124.2426,24.3494],[124.246,24.3549],[124.2486,24.3573],[124.2497,24.3594],[124.2499,24.3677],[124.2541,24.3802],[124.252,24.3826],[124.2522,24.3953],[124.2581,24.4124],[124.2552,24.4224],[124.2516,24.4263],[124.25,24.4303],[124.2507,24.4351],[124.2524,24.4392],[124.2551,24.4391],[124.2579,24.4438],[124.2575,24.4465],[124.2554,24.4474],[124.2516,24.451],[124.2505,24.4556],[124.2511,24.4565],[124.2507,24.4596],[124.2524,24.4668],[124.2544,24.4697],[124.2563,24.4708],[124.2628,24.48],[124.2653,24.4816],[124.27,24.4828],[124.2704,24.4845],[124.2722,24.486],[124.2823,24.4891],[124.2809,24.495],[124.2816,24.5033],[124.2838,24.5083],[124.2858,24.5099],[124.2873,24.5093],[124.291,24.513],[124.2956,24.5147],[124.298,24.5187],[124.3034,24.5247],[124.3061,24.5261],[124.3089,24.5315],[124.3061,24.5351],[124.3042,24.5357],[124.3032,24.538],[124.3032,24.5417],[124.3045,24.5465],[124.3091,24.5504],[124.3122,24.5555],[124.3187,24.5588],[124.3215,24.5592],[124.3241,24.5635],[124.3256,24.5648],[124.33,24.5663],[124.3322,24.5701],[124.3344,24.5711],[124.3372,24.5787],[124.3364,24.5804],[124.337,24.5823],[124.3405,24.5873],[124.3369,24.594],[124.3369,24.598],[124.3385,24.5988],[124.3381,24.605],[124.322,24.6076],[124.3198,24.6087],[124.3165,24.6121]]],[[[123.4765,25.7518],[123.4698,25.75],[123.4643,25.7472],[123.4602,25.744],[123.4579,25.7393],[123.4595,25.7352],[123.4642,25.7346],[123.4658,25.7358],[123.4703,25.7371],[123.4714,25.7383],[123.474,25.7386],[123.4744,25.7398],[123.4786,25.7414],[123.4824,25.7405],[123.4885,25.7405],[123.4917,25.7414],[123.4936,25.7431],[123.491,25.7466],[123.4868,25.7495],[123.4804,25.75],[123.4765,25.7518]]],[[[124.1565,24.3331],[124.1533,24.3345],[124.1407,24.3323],[124.1416,24.3274],[124.1544,24.3285],[124.1559,24.3302],[124.1603,24.3314],[124.1565,24.3331]],[[124.1506,24.331],[124.1527,24.3309],[124.1553,24.3295],[124.1544,24.3286],[124.1474,24.3285],[124.147,24.3306],[124.1506,24.331]]],[[[123.6826,25.9288],[123.6805,25.9287],[123.6776,25.9263],[123.676,25.9235],[123.6792,25.9199],[123.6814,25.9193],[123.686,25.9197],[123.6885,25.922],[123.6875,25.9245],[123.6826,25.9288]]],[[[123.5504,25.7256],[123.5462,25.7251],[123.5451,25.7229],[123.5525,25.7205],[123.5552,25.7208],[123.5546,25.7233],[123.5504,25.7256]]],[[[124.1484,24.4621],[124.1461,24.4577],[124.148,24.4562],[124.149,24.4541],[124.1504,24.4537],[124.1527,24.4554],[124.152,24.4581],[124.1484,24.4621]]],[[[123.5415,25.7345],[123.5388,25.7324],[123.5413,25.7279],[123.5415,25.726],[123.5446,25.7261],[123.5448,25.7279],[123.5415,25.7345]]]]}},{"type":"Feature","id":"Urasoe","properties":{"id":"Urasoe","code":47208,"name":"Urasoe","name_full":"浦添市","name_ja":"浦添市","name_short_ja":"浦添","center_lonlat":[127.7156,26.2512]},"geometry":{"type":"MultiPolygon","coordinates":[[[[127.7384,26.2363],[127.7397,26.2395],[127.7417,26.2399],[127.7436,26.2434],[127.7473,26.2447],[127.7507,26.249],[127.7513,26.2513],[127.753,26.2513],[127.7517,26.2529],[127.7494,26.2524],[127.7423,26.258],[127.7395,26.2574],[127.7399,26.2557],[127.7388,26.2534],[127.7353,26.2536],[127.7319,26.2551],[127.731,26.2563],[127.732,26.2591],[127.7282,26.2616],[127.7306,26.2642],[127.7294,26.2676],[127.7271,26.2669],[127.7269,26.2689],[127.7243,26.2728],[127.7235,26.2715],[127.7199,26.2708],[127.7195,26.2746],[127.7126,26.2745],[127.711,26.2718],[127.7093,26.2721],[127.7082,26.2737],[127.7066,26.2731],[127.7041,26.2673],[127.7002,26.2657],[127.6909,26.2551],[127.6867,26.2568],[127.6782,26.2568],[127.6784,26.2558],[127.6837,26.2558],[127.6837,26.2484],[127.6853,26.2484],[127.6853,26.2461],[127.6837,26.2454],[127.6851,26.2426],[127.6888,26.2423],[127.696,26.2398],[127.6978,26.2367],[127.7009,26.2371],[127.7016,26.2351],[127.704,26.2335],[127.7063,26.2346],[127.7087,26.2334],[127.7259,26.2334],[127.7328,26.2373],[127.7349,26.2361],[127.7384,26.2363]]],[[[127.675,26.2461],[127.6749,26.2504],[127.6689,26.2506],[127.6686,26.2461],[127.675,26.2461]]]]}},{"type":"Feature","id":"Nago","properties":{"id":"Nago","code":47209,"name":"Nago","name_full":"名護市","name_ja":"名護市","name_short_ja":"名護","center_lonlat":[128.0249,26.582]},"geometry":{"type":"MultiPolygon","coordinates":[[[[128.0804,26.6459],[128.0787,26.6443],[128.0719,26.6444],[128.0672,26.6426],[128.0594,26.6378],[128.0522,26.635],[128.049,26.6344],[128.0395,26.6366],[128.0374,26.6358],[128.0338,26.6363],[128.0344,26.6342],[128.0311,26.6311],[128.0246,26.6274],[128.0124,26.6319],[128.0085,26.6302],[128.0067,26.6306],[128.003,26.6331],[128.0023,26.6344],[128.0038,26.6365],[128.0037,26.6378],[127.999,26.6432],[127.99,26.647],[127.9886,26.6466],[127.9856,26.6396],[127.9828,26.6386],[127.9812,26.6389],[127.9775,26.6371],[127.9761,26.6382],[127.9751,26.6414],[127.9699,26.6359],[127.9651,26.6402],[127.9637,26.6404],[127.9622,26.639],[127.959,26.6393],[127.9512,26.6372],[127.9498,26.6346],[127.9453,26.6306],[127.9432,26.6319],[127.9379,26.631],[127.934,26.6345],[127.9318,26.6336],[127.9309,26.6343],[127.9205,26.634],[127.9167,26.6309],[127.9169,26.6285],[127.9123,26.6281],[127.9086,26.6228],[127.9093,26.6198],[127.9085,26.6189],[127.9059,26.6188],[127.9003,26.6146],[127.8985,26.6103],[127.9008,26.6079],[127.9002,26.6056],[127.9023,26.604],[127.9118,26.6012],[127.9143,26.6015],[127.9171,26.6039],[127.9187,26.6079],[127.9207,26.6093],[127.9268,26.6087],[127.9291,26.6081],[127.9337,26.604],[127.9369,26.6027],[127.9378,26.6031],[127.9402,26.6016],[127.9436,26.6028],[127.9473,26.601],[127.9523,26.5966],[127.9589,26.5944],[127.965,26.5909],[127.9669,26.5916],[127.9684,26.5908],[127.9702,26.5912],[127.9781,26.5882],[127.9799,26.5883],[127.983,26.585],[127.9834,26.5748],[127.9812,26.5723],[127.9803,26.5665],[127.976,26.559],[127.9707,26.5534],[127.9677,26.5518],[127.9649,26.545],[127.9643,26.5416],[127.9623,26.5407],[127.9599,26.5414],[127.9603,26.5444],[127.9581,26.5466],[127.956,26.5462],[127.9525,26.5447],[127.9484,26.5392],[127.9458,26.5371],[127.9417,26.5358],[127.9394,26.5363],[127.9366,26.5382],[127.9372,26.5417],[127.934,26.5435],[127.932,26.5424],[127.9342,26.5411],[127.9343,26.5386],[127.9293,26.5315],[127.9338,26.5289],[127.9347,26.5261],[127.9359,26.5255],[127.9377,26.5226],[127.9375,26.5207],[127.9363,26.5193],[127.941,26.5102],[127.9452,26.5118],[127.9469,26.5111],[127.948,26.5122],[127.9499,26.5123],[127.9537,26.5109],[127.9568,26.5123],[127.9593,26.5141],[127.9584,26.5173],[127.9603,26.5186],[127.9624,26.5186],[127.9637,26.5211],[127.9666,26.5232],[127.9735,26.5229],[127.9737,26.5279],[127.976,26.5282],[127.9785,26.5276],[127.9787,26.5252],[127.9771,26.524],[127.9797,26.5204],[127.9893,26.5178],[127.9922,26.5185],[127.9938,26.5153],[127.9954,26.5158],[127.9965,26.5113],[127.9977,26.5096],[128.0,26.5098],[128.0021,26.5061],[128.0036,26.5053],[128.0066,26.5064],[128.0063,26.5086],[128.005,26.5095],[128.0052,26.511],[128.0077,26.5136],[128.0108,26.5149],[128.0121,26.5131],[128.0257,26.5105],[128.0279,26.5118],[128.031,26.5122],[128.0328,26.5142],[128.0327,26.5161],[128.0311,26.5183],[128.0393,26.5208],[128.0509,26.5211],[128.053,26.5204],[128.0511,26.5251],[128.0494,26.5254],[128.0461,26.5299],[128.0461,26.5321],[128.0441,26.5373],[128.0419,26.5386],[128.0418,26.5409],[128.039,26.5434],[128.0357,26.5482],[128.0352,26.5518],[128.039,26.5522],[128.042,26.5556],[128.0414,26.5588],[128.0427,26.5592],[128.0435,26.5566],[128.0418,26.5538],[128.0415,26.5515],[128.0423,26.5496],[128.0446,26.5479],[128.0493,26.549],[128.0511,26.5473],[128.056,26.5511],[128.0579,26.5506],[128.0642,26.5517],[128.0687,26.5489],[128.0709,26.5493],[128.0768,26.5464],[128.0813,26.5408],[128.0871,26.538],[128.0877,26.5366],[128.0908,26.5363],[128.0931,26.5345],[128.0948,26.5355],[128.0923,26.5375],[128.093,26.5401],[128.0958,26.5416],[128.1017,26.539],[128.1019,26.5404],[128.1002,26.5431],[128.1074,26.5493],[128.1108,26.551],[128.1164,26.5516],[128.126,26.5552],[128.1274,26.5547],[128.1345,26.5555],[128.1378,26.5543],[128.1397,26.5559],[128.1388,26.5625],[128.1376,26.5653],[128.138,26.5664],[128.142,26.5683],[128.1478,26.5687],[128.149,26.5695],[128.1446,26.5721],[128.1418,26.5762],[128.1367,26.587],[128.1347,26.5891],[128.1311,26.5903],[128.1286,26.5927],[128.1244,26.5902],[128.1203,26.5895],[128.1175,26.5907],[128.1168,26.5935],[128.1129,26.5951],[128.1128,26.5992],[128.1114,26.6003],[128.1089,26.5997],[128.1046,26.6027],[128.1031,26.6021],[128.1005,26.6066],[128.0957,26.6093],[128.0957,26.6104],[128.0994,26.6123],[128.0997,26.6136],[128.0983,26.6152],[128.0963,26.6202],[128.0916,26.6234],[128.0896,26.6266],[128.0867,26.6274],[128.0857,26.629],[128.0846,26.633],[128.085,26.6364],[128.083,26.6393],[128.0832,26.642],[128.0804,26.6459]]],[[[128.0201,26.6806],[128.0198,26.6792],[128.0174,26.6784],[128.0137,26.679],[128.0093,26.6785],[128.0084,26.6768],[128.005,26.6747],[128.0036,26.6758],[128.0008,26.6746],[127.9982,26.6709],[127.9956,26.6714],[127.9962,26.6684],[127.9944,26.6658],[127.9955,26.6644],[127.9937,26.6601],[127.9962,26.6586],[127.9971,26.6562],[128.0009,26.6559],[128.0021,26.657],[128.0036,26.6564],[128.0039,26.6536],[128.0073,26.6514],[128.0103,26.6509],[128.0095,26.6543],[128.0122,26.6569],[128.0149,26.6575],[128.0282,26.6504],[128.0302,26.6502],[128.0328,26.6482],[128.0348,26.6504],[128.0336,26.656],[128.0319,26.659],[128.0266,26.663],[128.0238,26.6671],[128.0216,26.6718],[128.0214,26.6773],[128.0201,26.6806]]],[[[128.0337,26.6414],[128.0319,26.6427],[128.0309,26.6403],[128.0324,26.6369],[128.0347,26.6371],[128.0354,26.641],[128.0337,26.6414]]]]}},{"type":"Feature","id":"Itoman","properties":{"id":"Itoman","code":47210,"name":"Itoman","name_full":"糸満市","name_ja":"糸満市","name_short_ja":"糸満","center_lonlat":[127.6867,26.1181]},"geometry":{"type":"Polygon","coordinates":[[[127.7041,26.1696],[127.7016,26.169],[127.7007,26.1675],[127.7026,26.1665],[127.7007,26.1639],[127.6972,26.1656],[127.6907,26.1658],[127.6884,26.1589],[127.6836,26.1556],[127.6799,26.1593],[127.6742,26.1564],[127.6719,26.1534],[127.6693,26.1522],[127.6594,26.1492],[127.6573,26.1475],[127.648,26.1453],[127.6508,26.1353],[127.6499,26.1344],[127.6502,26.1322],[127.6514,26.1308],[127.6529,26.1261],[127.6558,26.1273],[127.6536,26.1328],[127.6535,26.1353],[127.6602,26.1368],[127.6609,26.1342],[127.6586,26.1336],[127.6589,26.1321],[127.6676,26.134],[127.6671,26.132],[127.6626,26.13],[127.6634,26.1265],[127.6647,26.1264],[127.6647,26.124],[127.6624,26.1212],[127.6627,26.1199],[127.6615,26.1164],[127.6644,26.1146],[127.6638,26.1119],[127.662,26.1103],[127.6613,26.1072],[127.6589,26.1026],[127.6585,26.0919],[127.6565,26.0913],[127.6579,26.0886],[127.6565,26.0844],[127.6589,26.0806],[127.6619,26.0815],[127.6673,26.0788],[127.6735,26.0784],[127.6774,26.0746],[127.6804,26.0749],[127.6866,26.0815],[127.6969,26.0868],[127.7069,26.09],[127.7088,26.0901],[127.7134,26.0875],[127.717,26.0881],[127.7206,26.0899],[127.7241,26.09],[127.7256,26.0909],[127.7267,26.0937],[127.7265,26.0952],[127.7281,26.0973],[127.7316,26.0982],[127.7258,26.1038],[127.7243,26.1063],[127.7207,26.1056],[127.7205,26.1077],[127.7176,26.1119],[127.7179,26.1133],[127.7118,26.1184],[127.7129,26.1213],[127.7125,26.1233],[127.7107,26.1257],[127.7083,26.1267],[127.7058,26.1331],[127.7098,26.1347],[127.7107,26.1377],[127.7121,26.1394],[127.7126,26.1444],[127.7104,26.1479],[127.7068,26.1483],[127.7047,26.1477],[127.7026,26.1457],[127.7015,26.147],[127.6996,26.1472],[127.699,26.1492],[127.6976,26.1495],[127.6965,26.1516],[127.6993,26.156],[127.7023,26.1583],[127.703,26.162],[127.7065,26.1646],[127.7053,26.1662],[127.7055,26.1679],[127.7041,26.1696]]]}},{"type":"Feature","id":"Okinawa","properties":{"id":"Okinawa","code":47211,"name":"Okinawa","name_full":"沖縄市","name_ja":"沖縄市","name_short_ja":"沖縄","center_lonlat":[127.8074,26.3526]},"geometry":{"type":"MultiPolygon","coordinates":[[[[127.8426,26.3346],[127.8362,26.3411],[127.8327,26.3416],[127.8328,26.3428],[127.8296,26.3445],[127.8282,26.3482],[127.8269,26.3482],[127.8248,26.3519],[127.8247,26.3538],[127.8265,26.3574],[127.8251,26.3581],[127.8222,26.3576],[127.8212,26.3592],[127.8228,26.3631],[127.8245,26.3621],[127.8268,26.3638],[127.8288,26.3671],[127.8301,26.3674],[127.83,26.3764],[127.837,26.382],[127.8361,26.383],[127.8327,26.3835],[127.8311,26.3864],[127.8309,26.3892],[127.8252,26.3929],[127.8243,26.3912],[127.8209,26.3889],[127.8114,26.3997],[127.8101,26.3983],[127.8097,26.3953],[127.8082,26.3933],[127.8042,26.391],[127.8018,26.393],[127.7978,26.3996],[127.7959,26.4011],[127.7938,26.4052],[127.7938,26.4099],[127.7915,26.4161],[127.7881,26.4206],[127.7883,26.4217],[127.7859,26.4175],[127.786,26.4159],[127.7843,26.4105],[127.7851,26.408],[127.7882,26.4074],[127.7886,26.4045],[127.7884,26.4015],[127.7866,26.3978],[127.7871,26.3951],[127.7862,26.3883],[127.7855,26.3858],[127.7828,26.3849],[127.7813,26.382],[127.7824,26.381],[127.7832,26.3775],[127.782,26.3771],[127.7828,26.3729],[127.7803,26.368],[127.779,26.3679],[127.7781,26.3662],[127.7791,26.3611],[127.7793,26.3509],[127.7815,26.3509],[127.7826,26.3523],[127.7845,26.3487],[127.7841,26.3469],[127.7808,26.3439],[127.7809,26.3417],[127.7799,26.3409],[127.7778,26.343],[127.7722,26.3393],[127.777,26.3333],[127.7786,26.3295],[127.7775,26.3258],[127.7796,26.3243],[127.7801,26.3226],[127.7821,26.3214],[127.7816,26.3197],[127.779,26.3191],[127.7787,26.3175],[127.7848,26.3178],[127.7886,26.3172],[127.7895,26.3159],[127.7922,26.3163],[127.7957,26.3185],[127.7946,26.3199],[127.7952,26.3223],[127.7974,26.3211],[127.799,26.3228],[127.7992,26.3244],[127.8014,26.3261],[127.8037,26.3248],[127.8058,26.3261],[127.8085,26.323],[127.8075,26.3186],[127.8065,26.3181],[127.8076,26.3156],[127.8069,26.3139],[127.8075,26.3107],[127.8109,26.305],[127.8254,26.3066],[127.8287,26.3041],[127.828,26.3059],[127.8288,26.3077],[127.8285,26.3107],[127.8311,26.3094],[127.8336,26.3045],[127.8373,26.3004],[127.8431,26.3016],[127.8463,26.3007],[127.8471,26.302],[127.8467,26.304],[127.8443,26.304],[127.8441,26.3053],[127.8416,26.3076],[127.8361,26.3073],[127.8334,26.3054],[127.8312,26.3094],[127.8285,26.3108],[127.8293,26.3132],[127.8337,26.3129],[127.837,26.3147],[127.8475,26.3144],[127.8479,26.3171],[127.8465,26.3197],[127.8421,26.32],[127.84,26.3211],[127.8402,26.3221],[127.8372,26.3233],[127.8348,26.3228],[127.836,26.3254],[127.8347,26.3259],[127.836,26.3286],[127.8381,26.3312],[127.8426,26.3346]]],[[[127.8432,26.3344],[127.8373,26.3294],[127.8396,26.3275],[127.8417,26.3292],[127.8438,26.327],[127.8535,26.3245],[127.8556,26.3262],[127.8432,26.3344]]]]}},{"type":"Feature","id":"Tomigusuku","properties":{"id":"Tomigusuku","code":47212,"name":"Tomigusuku","name_full":"豊見城市","name_ja":"豊見城市","name_short_ja":"豊見城","center_lonlat":[127.6809,26.175]},"geometry":{"type":"MultiPolygon","coordinates":[[[[127.6438,26.1774],[127.643,26.1767],[127.6407,26.1774],[127.64,26.1753],[127.6428,26.1734],[127.6459,26.1748],[127.6483,26.1738],[127.6485,26.169],[127.6523,26.1691],[127.6526,26.1669],[127.6504,26.1659],[127.6517,26.1642],[127.6536,26.1654],[127.6539,26.1633],[127.6487,26.1604],[127.6468,26.1601],[127.6468,26.1564],[127.648,26.1545],[127.6495,26.1546],[127.6487,26.1575],[127.6495,26.1603],[127.6541,26.162],[127.6604,26.162],[127.6619,26.16],[127.6659,26.1573],[127.6693,26.1522],[127.6719,26.1534],[127.6742,26.1564],[127.6799,26.1593],[127.6836,26.1556],[127.6884,26.1589],[127.6907,26.1658],[127.6972,26.1656],[127.7007,26.1639],[127.7026,26.1665],[127.7007,26.1675],[127.7016,26.169],[127.7041,26.1696],[127.7042,26.1723],[127.7077,26.1752],[127.7106,26.1762],[127.7117,26.1793],[127.7139,26.1802],[127.7123,26.1836],[127.7095,26.1849],[127.7077,26.1903],[127.7039,26.1913],[127.6993,26.1955],[127.6966,26.1961],[127.6935,26.1945],[127.6897,26.1944],[127.6832,26.1984],[127.6821,26.1965],[127.6806,26.1891],[127.6778,26.1866],[127.6736,26.1851],[127.6709,26.1822],[127.6689,26.1819],[127.6674,26.1833],[127.6657,26.1819],[127.6645,26.1829],[127.6613,26.1808],[127.6602,26.1791],[127.6552,26.1767],[127.6438,26.1774]]],[[[127.6542,26.1614],[127.6503,26.1599],[127.6493,26.1578],[127.6499,26.153],[127.6596,26.1517],[127.6676,26.1538],[127.6647,26.1583],[127.6601,26.1609],[127.6561,26.16],[127.6542,26.1614]]],[[[127.6312,26.1787],[127.6319,26.1757],[127.6353,26.1758],[127.636,26.1782],[127.6312,26.1787]]]]}},{"type":"Feature","id":"Uruma","properties":{"id":"Uruma","code":47213,"name":"Uruma","name_full":"うるま市","name_ja":"うるま市","name_short_ja":"うるま","center_lonlat":[127.8496,26.3755]},"geometry":{"type":"MultiPolygon","coordinates":[[[[127.8426,26.3346],[127.8451,26.3364],[127.8492,26.3373],[127.8564,26.3428],[127.8626,26.3445],[127.8689,26.336],[127.8704,26.3305],[127.8714,26.3312],[127.8766,26.3274],[127.8807,26.3217],[127.8847,26.3191],[127.8875,26.3159],[127.8898,26.3121],[127.8992,26.3045],[127.9041,26.3033],[127.9051,26.3024],[127.9075,26.3024],[127.9129,26.2994],[127.9125,26.2981],[127.9158,26.2943],[127.9182,26.2958],[127.9213,26.2949],[127.9236,26.3021],[127.9218,26.3026],[127.9213,26.3059],[127.9222,26.307],[127.9178,26.3167],[127.9182,26.3187],[127.9162,26.3192],[127.9155,26.322],[127.9141,26.3226],[127.9119,26.326],[127.9057,26.3308],[127.9002,26.3322],[127.8969,26.3341],[127.8936,26.338],[127.888,26.3408],[127.8855,26.345],[127.882,26.3483],[127.8796,26.3528],[127.875,26.3568],[127.8734,26.3599],[127.8733,26.366],[127.8753,26.3672],[127.8757,26.3684],[127.8749,26.3713],[127.8755,26.3743],[127.8812,26.3764],[127.8803,26.3787],[127.8788,26.3786],[127.8713,26.3881],[127.8667,26.3892],[127.864,26.3925],[127.8623,26.3927],[127.8568,26.3988],[127.8532,26.4001],[127.8497,26.4027],[127.8477,26.4022],[127.8442,26.4061],[127.8419,26.4054],[127.8365,26.4141],[127.8373,26.4155],[127.8395,26.4163],[127.8381,26.4183],[127.833,26.4178],[127.8302,26.4187],[127.8267,26.4228],[127.828,26.4249],[127.8303,26.4242],[127.8314,26.426],[127.8294,26.428],[127.8308,26.4319],[127.8404,26.427],[127.8438,26.4317],[127.8406,26.4336],[127.8416,26.4353],[127.8406,26.4372],[127.8409,26.4418],[127.839,26.4435],[127.8381,26.4487],[127.8354,26.4496],[127.8309,26.4502],[127.8282,26.4496],[127.8274,26.4483],[127.8238,26.4485],[127.8216,26.4476],[127.8205,26.4459],[127.8172,26.4451],[127.8163,26.4429],[127.8137,26.4403],[127.811,26.4406],[127.8096,26.4388],[127.8092,26.4367],[127.8076,26.4356],[127.8078,26.4337],[127.8043,26.4324],[127.8026,26.4308],[127.8014,26.4309],[127.7957,26.4269],[127.7937,26.4243],[127.7883,26.4217],[127.7881,26.4206],[127.7915,26.4161],[127.7938,26.4099],[127.7938,26.4052],[127.7959,26.4011],[127.7978,26.3996],[127.8018,26.393],[127.8042,26.391],[127.8082,26.3933],[127.8097,26.3953],[127.8101,26.3983],[127.8114,26.3997],[127.8209,26.3889],[127.8243,26.3912],[127.8252,26.3929],[127.8309,26.3892],[127.8311,26.3864],[127.8327,26.3835],[127.8361,26.383],[127.837,26.382],[127.83,26.3764],[127.8301,26.3674],[127.8288,26.3671],[127.8268,26.3638],[127.8245,26.3621],[127.8228,26.3631],[127.8212,26.3592],[127.8222,26.3576],[127.8251,26.3581],[127.8265,26.3574],[127.8247,26.3538],[127.8248,26.3519],[127.8269,26.3482],[127.8282,26.3482],[127.8296,26.3445],[127.8328,26.3428],[127.8327,26.3416],[127.8362,26.3411],[127.8426,26.3346]]],[[[127.988,26.3851],[127.9844,26.382],[127.9838,26.38],[127.9809,26.3789],[127.9783,26.3795],[127.9737,26.3765],[127.9721,26.371],[127.9691,26.3679],[127.9689,26.3627],[127.9696,26.362],[127.9706,26.3554],[127.9752,26.3545],[127.9769,26.3532],[127.978,26.3548],[127.9809,26.3555],[127.9829,26.358],[127.9875,26.3599],[127.9916,26.3591],[127.9937,26.3616],[127.9948,26.3651],[127.9934,26.3668],[127.9957,26.3682],[127.9936,26.3699],[127.9929,26.3741],[127.9923,26.3747],[127.986,26.3742],[127.9866,26.3768],[127.9878,26.3781],[127.9902,26.3786],[127.9903,26.3807],[127.989,26.3818],[127.988,26.3851]]],[[[127.9657,26.3651],[127.9675,26.3624],[127.9554,26.3564],[127.9515,26.3577],[127.9432,26.3556],[127.9432,26.354],[127.9462,26.3506],[127.9431,26.345],[127.9465,26.3418],[127.9442,26.3388],[127.9487,26.34],[127.9544,26.34],[127.9594,26.3383],[127.9627,26.34],[127.9743,26.3501],[127.9745,26.354],[127.97,26.355],[127.9693,26.3616],[127.9657,26.3651]]],[[[127.8556,26.3262],[127.858,26.3281],[127.8552,26.331],[127.8584,26.3335],[127.86,26.332],[127.8618,26.332],[127.8663,26.3273],[127.8699,26.33],[127.8684,26.336],[127.8617,26.3437],[127.8552,26.3415],[127.8493,26.3368],[127.8432,26.3344],[127.8556,26.3262]]],[[[127.9527,26.3291],[127.9554,26.3287],[127.9539,26.327],[127.9504,26.3271],[127.9514,26.3246],[127.9506,26.322],[127.9519,26.3206],[127.9528,26.3145],[127.955,26.3131],[127.9555,26.3111],[127.9599,26.3092],[127.9612,26.3118],[127.9603,26.3133],[127.9609,26.3168],[127.9664,26.3188],[127.9674,26.3228],[127.9661,26.324],[127.9595,26.3266],[127.9571,26.3289],[127.9527,26.3291]]],[[[127.9446,26.2622],[127.9375,26.2624],[127.9387,26.2589],[127.9385,26.253],[127.9335,26.2475],[127.9378,26.2444],[127.9377,26.2433],[127.9404,26.2417],[127.9421,26.2419],[127.9431,26.2448],[127.9425,26.246],[127.9466,26.2481],[127.9462,26.2537],[127.9469,26.2564],[127.9483,26.258],[127.9446,26.2622]]],[[[127.9999,26.4008],[127.9998,26.4],[127.9955,26.3995],[127.9955,26.3979],[127.9935,26.3955],[127.9898,26.3932],[127.9894,26.391],[127.9915,26.389],[127.9885,26.3868],[127.9901,26.3851],[127.9919,26.3872],[127.9928,26.3834],[127.9947,26.3837],[127.998,26.382],[127.999,26.3875],[128.0012,26.391],[128.004,26.3985],[127.9999,26.4008]]],[[[127.9247,26.3232],[127.9209,26.3233],[127.9173,26.3219],[127.9189,26.3183],[127.9201,26.3174],[127.9228,26.3175],[127.9291,26.314],[127.9299,26.3155],[127.9283,26.3169],[127.927,26.3197],[127.9259,26.3202],[127.9247,26.3232]]],[[[127.9928,26.3041],[127.9884,26.3018],[127.9899,26.2987],[127.9928,26.2988],[127.9953,26.3004],[127.9953,26.3021],[127.9928,26.3032],[127.9928,26.3041]]]]}},{"type":"Feature","id":"Miyakojima","properties":{"id":"Miyakojima","code":47214,"name":"Miyakojima","name_full":"宮古島市","name_ja":"宮古島市","name_short_ja":"宮古島","center_lonlat":[125.333,24.7734]},"geometry":{"type":"MultiPolygon","coordinates":[[[[125.267,24.9148],[125.2697,24.9102],[125.2707,24.9063],[125.2704,24.9047],[125.2687,24.9031],[125.2646,24.9026],[125.2594,24.9085],[125.2572,24.9078],[125.2607,24.9057],[125.2646,24.8989],[125.2717,24.8922],[125.2718,24.8892],[125.2706,24.8874],[125.2725,24.8832],[125.2727,24.8806],[125.2751,24.8801],[125.2761,24.8775],[125.2788,24.8756],[125.2779,24.8731],[125.2799,24.8704],[125.2809,24.8705],[125.2836,24.8667],[125.2856,24.8585],[125.2895,24.8577],[125.2925,24.8531],[125.2925,24.852],[125.2953,24.8495],[125.2965,24.8455],[125.2941,24.8423],[125.296,24.8384],[125.291,24.838],[125.2878,24.8432],[125.2858,24.8415],[125.2867,24.8402],[125.2846,24.8394],[125.2838,24.8414],[125.2819,24.8414],[125.2782,24.8384],[125.2771,24.8368],[125.2768,24.8334],[125.28,24.8274],[125.2805,24.8241],[125.2781,24.8225],[125.28,24.8196],[125.2799,24.8162],[125.2813,24.816],[125.2807,24.8133],[125.2783,24.8135],[125.2768,24.812],[125.2792,24.8101],[125.2785,24.8087],[125.2763,24.8105],[125.2744,24.8098],[125.2727,24.8081],[125.2751,24.8066],[125.2717,24.8031],[125.2677,24.8017],[125.2664,24.799],[125.2617,24.7987],[125.2589,24.7955],[125.2561,24.7944],[125.2567,24.7886],[125.2595,24.784],[125.262,24.7825],[125.2631,24.7842],[125.2663,24.7825],[125.2675,24.7836],[125.2693,24.7824],[125.2708,24.7797],[125.2732,24.7785],[125.277,24.7731],[125.2795,24.7678],[125.2818,24.7653],[125.283,24.7607],[125.2831,24.7566],[125.282,24.7563],[125.2843,24.7534],[125.2841,24.7515],[125.2775,24.7495],[125.2763,24.7518],[125.2724,24.754],[125.2679,24.7509],[125.2605,24.7592],[125.2605,24.7618],[125.2624,24.7639],[125.2625,24.768],[125.2608,24.7681],[125.2597,24.7633],[125.2567,24.7612],[125.2567,24.7594],[125.2539,24.7566],[125.2526,24.7566],[125.2536,24.7533],[125.2581,24.7471],[125.2599,24.7428],[125.2608,24.7357],[125.2682,24.7332],[125.273,24.7283],[125.289,24.7233],[125.2924,24.7198],[125.2956,24.7189],[125.2961,24.7221],[125.2974,24.7237],[125.2939,24.731],[125.2945,24.7341],[125.2984,24.7328],[125.2976,24.7319],[125.2987,24.7285],[125.2985,24.7258],[125.2964,24.7208],[125.3001,24.7164],[125.3057,24.7126],[125.3089,24.7116],[125.3113,24.7126],[125.3142,24.7123],[125.3174,24.7131],[125.3223,24.7187],[125.3281,24.7196],[125.3382,24.7187],[125.34,24.7175],[125.3436,24.7202],[125.3464,24.7195],[125.3514,24.722],[125.353,24.7216],[125.3603,24.725],[125.3617,24.7245],[125.3634,24.726],[125.3679,24.727],[125.3689,24.7286],[125.371,24.7293],[125.3774,24.7252],[125.3835,24.7252],[125.3864,24.7277],[125.3926,24.729],[125.3994,24.7296],[125.4025,24.7294],[125.4032,24.7285],[125.407,24.7298],[125.4091,24.7285],[125.4116,24.729],[125.4186,24.7282],[125.4197,24.7273],[125.4233,24.7274],[125.4246,24.7262],[125.4325,24.7297],[125.4369,24.7281],[125.439,24.7294],[125.4424,24.7284],[125.4453,24.7254],[125.4497,24.7256],[125.4498,24.7285],[125.4509,24.73],[125.4534,24.7307],[125.4552,24.7303],[125.4583,24.7263],[125.4662,24.7194],[125.4685,24.7186],[125.4693,24.7193],[125.4642,24.724],[125.4619,24.7246],[125.4547,24.7327],[125.4543,24.7352],[125.4465,24.7426],[125.4455,24.745],[125.4431,24.7465],[125.4409,24.7548],[125.4333,24.761],[125.426,24.76],[125.4188,24.7629],[125.4179,24.7645],[125.4122,24.7636],[125.4076,24.7668],[125.4026,24.7662],[125.3989,24.7686],[125.3971,24.7709],[125.393,24.7729],[125.3908,24.7756],[125.3891,24.7832],[125.3828,24.7878],[125.3696,24.7924],[125.3644,24.7891],[125.355,24.789],[125.3524,24.7901],[125.3499,24.7938],[125.3474,24.7956],[125.3375,24.7976],[125.3352,24.7989],[125.3368,24.7999],[125.3354,24.8026],[125.3333,24.8024],[125.3316,24.805],[125.3309,24.8106],[125.3312,24.8161],[125.332,24.8179],[125.3355,24.8209],[125.3324,24.8243],[125.3261,24.8284],[125.3251,24.8306],[125.3227,24.8304],[125.3181,24.8326],[125.3132,24.837],[125.3121,24.8408],[125.3099,24.8422],[125.3093,24.8457],[125.3078,24.8483],[125.3063,24.849],[125.3053,24.8558],[125.3063,24.8605],[125.3046,24.8656],[125.2994,24.8737],[125.2985,24.8772],[125.2964,24.8781],[125.2957,24.877],[125.2938,24.8776],[125.285,24.8829],[125.2835,24.8863],[125.2834,24.8887],[125.2825,24.89],[125.283,24.8919],[125.2821,24.8935],[125.2722,24.9021],[125.2712,24.9084],[125.2693,24.9123],[125.267,24.9148]]],[[[125.1633,24.8654],[125.1602,24.862],[125.1589,24.8617],[125.1566,24.8567],[125.1593,24.8477],[125.1585,24.8442],[125.1598,24.8399],[125.1553,24.8372],[125.1559,24.835],[125.1582,24.834],[125.159,24.8308],[125.1618,24.8295],[125.1631,24.8263],[125.1646,24.8261],[125.1645,24.8248],[125.1662,24.8225],[125.1695,24.821],[125.172,24.817],[125.1761,24.8146],[125.1775,24.8118],[125.1841,24.8114],[125.1875,24.8089],[125.199,24.8054],[125.2012,24.8032],[125.2018,24.8055],[125.2054,24.804],[125.2162,24.8067],[125.2188,24.8089],[125.2213,24.8138],[125.2205,24.8249],[125.217,24.8308],[125.2147,24.8379],[125.2132,24.8392],[125.2122,24.8438],[125.2091,24.8471],[125.2058,24.8471],[125.2014,24.8506],[125.189,24.8546],[125.1789,24.8616],[125.1747,24.8617],[125.1719,24.8633],[125.1633,24.8654]]],[[[125.1417,24.8426],[125.1398,24.8422],[125.1389,24.8392],[125.14,24.8371],[125.1354,24.8349],[125.1367,24.8281],[125.1354,24.8249],[125.1363,24.8217],[125.1378,24.8233],[125.1398,24.8223],[125.1382,24.8168],[125.1393,24.815],[125.1428,24.8146],[125.1453,24.8133],[125.1437,24.8117],[125.1472,24.8065],[125.1526,24.8052],[125.155,24.8054],[125.1618,24.8025],[125.1685,24.803],[125.1715,24.8045],[125.1745,24.8072],[125.1752,24.8107],[125.1768,24.8114],[125.1755,24.814],[125.1688,24.8185],[125.1682,24.821],[125.1659,24.822],[125.165,24.8242],[125.1623,24.8266],[125.1606,24.8294],[125.1587,24.8298],[125.1579,24.8323],[125.1562,24.8329],[125.1546,24.8316],[125.1478,24.8324],[125.1454,24.8351],[125.1437,24.8413],[125.1417,24.8426]]],[[[125.2419,24.7317],[125.2407,24.7312],[125.2387,24.7218],[125.2393,24.7184],[125.2424,24.7152],[125.2461,24.7135],[125.2503,24.7132],[125.2567,24.7156],[125.2583,24.7194],[125.2557,24.724],[125.252,24.7276],[125.2463,24.7305],[125.2419,24.7317]]],[[[125.2399,24.9383],[125.2389,24.939],[125.2313,24.9354],[125.2318,24.9331],[125.233,24.932],[125.233,24.9297],[125.2351,24.9276],[125.2415,24.9246],[125.2427,24.9224],[125.2451,24.9227],[125.2473,24.9208],[125.2493,24.9237],[125.2468,24.9251],[125.247,24.9264],[125.2502,24.9259],[125.251,24.9245],[125.256,24.9247],[125.2521,24.9321],[125.2494,24.9348],[125.2444,24.9383],[125.2399,24.9383]]],[[[125.266,24.8041],[125.2605,24.8025],[125.2566,24.8035],[125.2575,24.8011],[125.2575,24.7977],[125.259,24.7958],[125.2614,24.799],[125.2615,24.8013],[125.266,24.8041]]],[[[125.3069,24.9199],[125.3051,24.9159],[125.3068,24.9136],[125.3092,24.9136],[125.3108,24.9153],[125.3098,24.9175],[125.3069,24.9199]]]]}},{"type":"Feature","id":"Nanjo","properties":{"id":"Nanjo","code":47215,"name":"Nanjo","name_full":"南城市","name_ja":"南城市","name_short_ja":"南城","center_lonlat":[127.7755,26.164]},"geometry":{"type":"MultiPolygon","coordinates":[[[[127.7761,26.1886],[127.7741,26.1868],[127.7727,26.1874],[127.7697,26.1862],[127.7655,26.1863],[127.7624,26.1947],[127.7585,26.1945],[127.7573,26.1962],[127.7499,26.1968],[127.7486,26.1976],[127.7471,26.1961],[127.7463,26.1986],[127.7408,26.1974],[127.7412,26.1948],[127.7392,26.1938],[127.7401,26.1916],[127.7397,26.1893],[127.7343,26.1827],[127.733,26.1776],[127.7344,26.1728],[127.7315,26.1687],[127.7295,26.1686],[127.7317,26.1662],[127.73,26.1618],[127.7309,26.1522],[127.7338,26.1511],[127.7363,26.1524],[127.7394,26.1518],[127.7407,26.1479],[127.7422,26.1461],[127.742,26.1446],[127.7491,26.1389],[127.7531,26.1334],[127.7571,26.1316],[127.7593,26.1329],[127.7622,26.126],[127.7673,26.1261],[127.7682,26.1276],[127.7673,26.1304],[127.7697,26.1324],[127.771,26.1324],[127.7753,26.135],[127.7812,26.1349],[127.7837,26.1341],[127.7849,26.1326],[127.7929,26.1349],[127.7981,26.141],[127.7985,26.1426],[127.8002,26.1434],[127.8028,26.1468],[127.8046,26.1471],[127.8067,26.1494],[127.8086,26.1476],[127.8103,26.1488],[127.8082,26.1515],[127.8119,26.1553],[127.8182,26.1574],[127.8216,26.1605],[127.8246,26.165],[127.8271,26.1666],[127.8298,26.1654],[127.8311,26.1669],[127.8302,26.1687],[127.8308,26.1735],[127.83,26.1755],[127.8311,26.1763],[127.828,26.1794],[127.823,26.1799],[127.8213,26.1822],[127.8225,26.1886],[127.8211,26.1917],[127.8155,26.1914],[127.8154,26.1906],[127.808,26.1897],[127.795,26.1856],[127.7937,26.1842],[127.7932,26.1821],[127.7911,26.181],[127.7905,26.1712],[127.7872,26.1706],[127.7853,26.1723],[127.7778,26.1725],[127.7795,26.1758],[127.7761,26.18],[127.7771,26.1825],[127.7788,26.1831],[127.7781,26.1873],[127.7761,26.1886]]],[[[127.9095,26.1718],[127.905,26.1682],[127.8979,26.1673],[127.8971,26.1653],[127.8888,26.1624],[127.885,26.1587],[127.8838,26.1549],[127.8859,26.1549],[127.8877,26.1539],[127.9093,26.1694],[127.9095,26.1718]]],[[[127.7754,26.132],[127.771,26.1315],[127.7693,26.1286],[127.7736,26.1267],[127.7759,26.1293],[127.7763,26.131],[127.7754,26.132]]]]}},{"type":"Feature","id":"Kunigami","properties":{"id":"Kunigami","code":47301,"name":"Kunigami","name_full":"国頭村","name_ja":"国頭村","name_short_ja":"国頭","center_lonlat":[128.2547,26.7617]},"geometry":{"type":"MultiPolygon","coordinates":[[[[128.2648,26.6677],[128.2682,26.6688],[128.2707,26.6707],[128.274,26.6707],[128.277,26.6747],[128.2783,26.675],[128.2794,26.6778],[128.2792,26.6796],[128.2779,26.6811],[128.2794,26.6837],[128.2787,26.6855],[128.2801,26.6876],[128.2799,26.6919],[128.2837,26.694],[128.2815,26.6967],[128.2834,26.6978],[128.2862,26.6963],[128.2881,26.697],[128.2877,26.6984],[128.2912,26.6997],[128.2915,26.7013],[128.294,26.7019],[128.2906,26.7059],[128.2911,26.7085],[128.2958,26.7107],[128.2973,26.7104],[128.299,26.7114],[128.2994,26.7128],[128.2973,26.716],[128.2954,26.7152],[128.2937,26.7174],[128.2957,26.7197],[128.2989,26.721],[128.3032,26.7208],[128.3046,26.7249],[128.3064,26.7263],[128.3061,26.7299],[128.3189,26.7356],[128.318,26.7372],[128.3189,26.7405],[128.318,26.7423],[128.3199,26.7461],[128.3236,26.7488],[128.3252,26.7484],[128.3269,26.7493],[128.3266,26.7526],[128.3255,26.7542],[128.3235,26.7545],[128.3212,26.757],[128.3233,26.7597],[128.3227,26.7612],[128.3256,26.7663],[128.3246,26.7687],[128.3223,26.7704],[128.3227,26.7729],[128.3242,26.7734],[128.3265,26.7785],[128.3261,26.7825],[128.3233,26.7857],[128.3226,26.789],[128.3206,26.7886],[128.317,26.7932],[128.3177,26.7945],[128.3197,26.7947],[128.3215,26.7966],[128.3193,26.7999],[128.3178,26.806],[128.3185,26.8103],[128.3207,26.8122],[128.3173,26.8153],[128.3146,26.8213],[128.3093,26.8242],[128.3077,26.8273],[128.3057,26.8285],[128.3047,26.831],[128.3066,26.8355],[128.3066,26.8385],[128.3055,26.8414],[128.3065,26.8435],[128.3037,26.8459],[128.2979,26.8463],[128.2953,26.8442],[128.2955,26.8427],[128.2926,26.8413],[128.2902,26.8416],[128.2898,26.8463],[128.2855,26.8473],[128.2826,26.8504],[128.2803,26.8516],[128.2811,26.8542],[128.2801,26.8563],[128.2782,26.8559],[128.2705,26.8589],[128.2676,26.8622],[128.262,26.8665],[128.2622,26.8702],[128.2652,26.8729],[128.2636,26.8742],[128.2574,26.8755],[128.2518,26.8713],[128.2491,26.8705],[128.2467,26.868],[128.2441,26.859],[128.2465,26.8545],[128.2499,26.8536],[128.2531,26.8511],[128.2535,26.8436],[128.2525,26.8398],[128.2487,26.8371],[128.2463,26.8315],[128.2444,26.831],[128.2441,26.8253],[128.2425,26.8227],[128.2396,26.8205],[128.2375,26.8163],[128.2339,26.8117],[128.2335,26.8079],[128.2307,26.805],[128.2306,26.8018],[128.2322,26.8001],[128.2312,26.7973],[128.2273,26.7976],[128.2251,26.7954],[128.224,26.7897],[128.2213,26.7879],[128.2188,26.7844],[128.214,26.7816],[128.2096,26.7772],[128.2044,26.7744],[128.2052,26.7693],[128.2025,26.766],[128.1992,26.7662],[128.198,26.7675],[128.1956,26.7645],[128.1894,26.7605],[128.1879,26.7542],[128.1845,26.7502],[128.1819,26.7488],[128.1768,26.7485],[128.1717,26.747],[128.1635,26.7431],[128.1573,26.7427],[128.1565,26.7454],[128.1529,26.7453],[128.1505,26.7411],[128.1554,26.7403],[128.1577,26.7374],[128.1605,26.7299],[128.1607,26.7261],[128.1598,26.7231],[128.1547,26.7177],[128.1572,26.7168],[128.1616,26.7133],[128.1645,26.7134],[128.1684,26.7118],[128.1729,26.7061],[128.1744,26.7063],[128.1766,26.7046],[128.1798,26.7045],[128.1903,26.6999],[128.1914,26.698],[128.2001,26.6896],[128.2061,26.6897],[128.2061,26.6938],[128.2073,26.6956],[128.2089,26.696],[128.2084,26.6987],[128.2128,26.701],[128.2142,26.7002],[128.2153,26.7026],[128.2212,26.7048],[128.2207,26.7061],[128.222,26.7083],[128.2278,26.7068],[128.2286,26.7058],[128.2338,26.7036],[128.2359,26.7045],[128.2425,26.7031],[128.2417,26.6982],[128.2431,26.6973],[128.2439,26.6898],[128.2462,26.6874],[128.2486,26.6874],[128.2501,26.6863],[128.251,26.6797],[128.2558,26.6757],[128.256,26.6744],[128.2606,26.6685],[128.2648,26.6677]]],[[[128.3304,26.748],[128.3304,26.7473],[128.3346,26.7452],[128.3343,26.7476],[128.3304,26.748]]]]}},{"type":"Feature","id":"Ogimi","properties":{"id":"Ogimi","code":47302,"name":"Ogimi","name_full":"大宜味村","name_ja":"大宜味村","name_short_ja":"大宜味","center_lonlat":[128.1389,26.6716]},"geometry":{"type":"MultiPolygon","coordinates":[[[[128.0983,26.6152],[128.1007,26.6169],[128.1033,26.6174],[128.1033,26.619],[128.1079,26.6235],[128.1074,26.6273],[128.1094,26.6304],[128.1132,26.6321],[128.1148,26.6313],[128.1154,26.6298],[128.117,26.6296],[128.1184,26.6332],[128.1182,26.6348],[128.1193,26.6363],[128.1226,26.6374],[128.1251,26.6411],[128.1276,26.6404],[128.1287,26.6385],[128.1301,26.6414],[128.1327,26.6442],[128.1322,26.645],[128.1334,26.6477],[128.1362,26.6487],[128.1386,26.6482],[128.1396,26.647],[128.1447,26.6463],[128.1491,26.6433],[128.1503,26.6444],[128.1524,26.6437],[128.1541,26.6443],[128.1566,26.642],[128.1575,26.6421],[128.1585,26.6457],[128.1608,26.6463],[128.1628,26.6481],[128.1632,26.6505],[128.1691,26.6525],[128.172,26.6594],[128.1736,26.6606],[128.1761,26.6654],[128.1786,26.6655],[128.1805,26.6689],[128.1834,26.6693],[128.1879,26.6719],[128.1881,26.6747],[128.1894,26.6763],[128.1923,26.6777],[128.193,26.6835],[128.1959,26.6851],[128.2001,26.6896],[128.1914,26.698],[128.1903,26.6999],[128.1798,26.7045],[128.1766,26.7046],[128.1744,26.7063],[128.1729,26.7061],[128.1684,26.7118],[128.1645,26.7134],[128.1616,26.7133],[128.1572,26.7168],[128.1547,26.7177],[128.1469,26.7136],[128.144,26.7088],[128.1347,26.7051],[128.1264,26.7031],[128.1181,26.7033],[128.1146,26.6995],[128.1128,26.6953],[128.1073,26.6904],[128.1062,26.6884],[128.0989,26.6809],[128.0983,26.6797],[128.0998,26.6766],[128.1041,26.6743],[128.1049,26.6701],[128.1077,26.6697],[128.1082,26.6722],[128.1101,26.6722],[128.1116,26.6711],[128.1143,26.6713],[128.1146,26.6702],[128.1193,26.6689],[128.1232,26.6658],[128.122,26.6638],[128.1246,26.6618],[128.1233,26.6602],[128.1173,26.6591],[128.1167,26.6608],[128.1149,26.6611],[128.1112,26.6593],[128.1106,26.6605],[128.1132,26.6622],[128.1134,26.6648],[128.1129,26.6674],[128.111,26.667],[128.1089,26.6647],[128.1088,26.6628],[128.1074,26.6624],[128.1028,26.6639],[128.1015,26.6616],[128.1001,26.6609],[128.0969,26.6618],[128.0909,26.6537],[128.0873,26.6503],[128.0842,26.6497],[128.084,26.6475],[128.0804,26.6459],[128.0832,26.642],[128.083,26.6393],[128.085,26.6364],[128.0846,26.633],[128.0857,26.629],[128.0867,26.6274],[128.0896,26.6266],[128.0916,26.6234],[128.0963,26.6202],[128.0983,26.6152]]],[[[128.1017,26.6699],[128.098,26.6668],[128.1029,26.6652],[128.1042,26.6668],[128.1036,26.6688],[128.1017,26.6699]]]]}},{"type":"Feature","id":"Higashi","properties":{"id":"Higashi","code":47303,"name":"Higashi","name_full":"東村","name_ja":"東村","name_short_ja":"東村","center_lonlat":[128.1897,26.6486]},"geometry":{"type":"Polygon","coordinates":[[[128.1286,26.5927],[128.1236,26.6027],[128.1266,26.6029],[128.13,26.6011],[128.1361,26.6007],[128.1374,26.5993],[128.1392,26.6009],[128.1411,26.6004],[128.1421,26.5989],[128.1516,26.5978],[128.151,26.5993],[128.1515,26.6017],[128.1528,26.604],[128.1549,26.6054],[128.1551,26.6088],[128.1536,26.6111],[128.1533,26.6132],[128.1507,26.6137],[128.149,26.6154],[128.1489,26.618],[128.1456,26.6232],[128.1469,26.6271],[128.1488,26.6294],[128.1594,26.6308],[128.1631,26.6286],[128.1695,26.6284],[128.1743,26.6273],[128.1745,26.6266],[128.182,26.624],[128.2129,26.6263],[128.2168,26.6292],[128.2189,26.6288],[128.221,26.6295],[128.2232,26.6286],[128.2243,26.6304],[128.2257,26.6299],[128.2317,26.6317],[128.2346,26.6304],[128.2385,26.6319],[128.239,26.6346],[128.2406,26.6349],[128.2446,26.6377],[128.2434,26.6393],[128.2456,26.6405],[128.2464,26.6428],[128.2476,26.6437],[128.2502,26.6433],[128.2526,26.646],[128.2526,26.6481],[128.2509,26.6508],[128.2524,26.6533],[128.2557,26.6549],[128.2563,26.6586],[128.2606,26.6576],[128.2615,26.6594],[128.2637,26.6591],[128.2636,26.6623],[128.2653,26.6646],[128.2648,26.6677],[128.2606,26.6685],[128.256,26.6744],[128.2558,26.6757],[128.251,26.6797],[128.2501,26.6863],[128.2486,26.6874],[128.2462,26.6874],[128.2439,26.6898],[128.2431,26.6973],[128.2417,26.6982],[128.2425,26.7031],[128.2359,26.7045],[128.2338,26.7036],[128.2286,26.7058],[128.2278,26.7068],[128.222,26.7083],[128.2207,26.7061],[128.2212,26.7048],[128.2153,26.7026],[128.2142,26.7002],[128.2128,26.701],[128.2084,26.6987],[128.2089,26.696],[128.2073,26.6956],[128.2061,26.6938],[128.2061,26.6897],[128.2001,26.6896],[128.1959,26.6851],[128.193,26.6835],[128.1923,26.6777],[128.1894,26.6763],[128.1881,26.6747],[128.1879,26.6719],[128.1834,26.6693],[128.1805,26.6689],[128.1786,26.6655],[128.1761,26.6654],[128.1736,26.6606],[128.172,26.6594],[128.1691,26.6525],[128.1632,26.6505],[128.1628,26.6481],[128.1608,26.6463],[128.1585,26.6457],[128.1575,26.6421],[128.1566,26.642],[128.1541,26.6443],[128.1524,26.6437],[128.1503,26.6444],[128.1491,26.6433],[128.1447,26.6463],[128.1396,26.647],[128.1386,26.6482],[128.1362,26.6487],[128.1334,26.6477],[128.1322,26.645],[128.1327,26.6442],[128.1301,26.6414],[128.1287,26.6385],[128.1276,26.6404],[128.1251,26.6411],[128.1226,26.6374],[128.1193,26.6363],[128.1182,26.6348],[128.1184,26.6332],[128.117,26.6296],[128.1154,26.6298],[128.1148,26.6313],[128.1132,26.6321],[128.1094,26.6304],[128.1074,26.6273],[128.1079,26.6235],[128.1033,26.619],[128.1033,26.6174],[128.1007,26.6169],[128.0983,26.6152],[128.0997,26.6136],[128.0994,26.6123],[128.0957,26.6104],[128.0957,26.6093],[128.1005,26.6066],[128.1031,26.6021],[128.1046,26.6027],[128.1089,26.5997],[128.1114,26.6003],[128.1128,26.5992],[128.1129,26.5951],[128.1168,26.5935],[128.1175,26.5907],[128.1203,26.5895],[128.1244,26.5902],[128.1286,26.5927]]]}},{"type":"Feature","id":"Nakijin","properties":{"id":"Nakijin","code":47306,"name":"Nakijin","name_full":"今帰仁村","name_ja":"今帰仁村","name_short_ja":"今帰仁","center_lonlat":[127.9626,26.6779]},"geometry":{"type":"MultiPolygon","coordinates":[[[[127.9886,26.6466],[127.9837,26.6481],[127.9823,26.6513],[127.9845,26.6508],[127.9909,26.6518],[127.9888,26.6554],[127.9913,26.6599],[127.9909,26.6619],[127.9933,26.6635],[127.9925,26.6664],[127.9943,26.6677],[127.9929,26.6704],[127.9932,26.6721],[127.9962,26.675],[127.9964,26.6769],[128.0082,26.6831],[128.0084,26.6855],[128.0058,26.6879],[127.9969,26.6913],[127.9845,26.6936],[127.9789,26.6956],[127.9785,26.6976],[127.9754,26.697],[127.972,26.6974],[127.9728,26.6946],[127.9705,26.6937],[127.9658,26.6976],[127.9676,26.6998],[127.9694,26.7005],[127.9702,26.7028],[127.9663,26.7033],[127.9589,26.7072],[127.9529,26.7082],[127.9485,26.708],[127.9475,26.706],[127.9432,26.7064],[127.9347,26.7028],[127.9319,26.7032],[127.9314,26.7045],[127.9256,26.704],[127.9249,26.7025],[127.9182,26.7021],[127.919,26.6992],[127.919,26.6904],[127.92,26.689],[127.9174,26.683],[127.923,26.6823],[127.9253,26.678],[127.9251,26.677],[127.9278,26.6747],[127.9294,26.6743],[127.9297,26.6723],[127.9316,26.6714],[127.9347,26.6714],[127.9358,26.6698],[127.9389,26.6712],[127.9428,26.6708],[127.9451,26.6714],[127.9464,26.6693],[127.9492,26.6677],[127.9495,26.6665],[127.952,26.6671],[127.9543,26.6696],[127.9569,26.6704],[127.9587,26.668],[127.9585,26.66],[127.9603,26.6557],[127.9596,26.6538],[127.9616,26.6512],[127.9629,26.6468],[127.961,26.6453],[127.959,26.6393],[127.9622,26.639],[127.9637,26.6404],[127.9651,26.6402],[127.9699,26.6359],[127.9751,26.6414],[127.9761,26.6382],[127.9775,26.6371],[127.9812,26.6389],[127.9828,26.6386],[127.9856,26.6396],[127.9886,26.6466]]],[[[128.0167,26.7145],[128.0126,26.7138],[128.0099,26.7117],[128.0083,26.7085],[128.009,26.704],[128.0115,26.6993],[128.0132,26.6985],[128.014,26.6969],[128.0164,26.6957],[128.0183,26.6962],[128.0212,26.6945],[128.0235,26.6953],[128.0264,26.6998],[128.0274,26.7001],[128.0268,26.7087],[128.0277,26.7103],[128.0167,26.7145]]]]}},{"type":"Feature","id":"Motobu","properties":{"id":"Motobu","code":47308,"name":"Motobu","name_full":"本部町","name_ja":"本部町","name_short_ja":"本部","center_lonlat":[127.9126,26.6594]},"geometry":{"type":"MultiPolygon","coordinates":[[[[127.959,26.6393],[127.961,26.6453],[127.9629,26.6468],[127.9616,26.6512],[127.9596,26.6538],[127.9603,26.6557],[127.9585,26.66],[127.9587,26.668],[127.9569,26.6704],[127.9543,26.6696],[127.952,26.6671],[127.9495,26.6665],[127.9492,26.6677],[127.9464,26.6693],[127.9451,26.6714],[127.9428,26.6708],[127.9389,26.6712],[127.9358,26.6698],[127.9347,26.6714],[127.9316,26.6714],[127.9297,26.6723],[127.9294,26.6743],[127.9278,26.6747],[127.9251,26.677],[127.9253,26.678],[127.923,26.6823],[127.9174,26.683],[127.92,26.689],[127.919,26.6904],[127.919,26.6992],[127.9182,26.7021],[127.9153,26.7032],[127.9112,26.7023],[127.9088,26.6994],[127.9038,26.699],[127.9027,26.7005],[127.8999,26.7019],[127.8966,26.7016],[127.8936,26.7027],[127.8924,26.704],[127.8895,26.7041],[127.8856,26.7078],[127.8802,26.7099],[127.8802,26.7036],[127.8789,26.7003],[127.877,26.6987],[127.878,26.6978],[127.877,26.6953],[127.874,26.6911],[127.8743,26.6846],[127.8839,26.6789],[127.888,26.6746],[127.889,26.6725],[127.891,26.6608],[127.8945,26.6608],[127.8932,26.6593],[127.8857,26.6595],[127.879,26.6541],[127.8806,26.6507],[127.8788,26.6467],[127.8799,26.6453],[127.8801,26.6412],[127.8789,26.6409],[127.8803,26.6363],[127.8827,26.6368],[127.8851,26.6336],[127.8868,26.6297],[127.887,26.6254],[127.8888,26.6235],[127.8901,26.6195],[127.8945,26.6147],[127.895,26.6135],[127.8939,26.6119],[127.8949,26.6065],[127.8989,26.6051],[127.9002,26.6056],[127.9008,26.6079],[127.8985,26.6103],[127.9003,26.6146],[127.9059,26.6188],[127.9085,26.6189],[127.9093,26.6198],[127.9086,26.6228],[127.9123,26.6281],[127.9169,26.6285],[127.9167,26.6309],[127.9205,26.634],[127.9309,26.6343],[127.9318,26.6336],[127.934,26.6345],[127.9379,26.631],[127.9432,26.6319],[127.9453,26.6306],[127.9498,26.6346],[127.9512,26.6372],[127.959,26.6393]]],[[[127.8666,26.6539],[127.8627,26.6534],[127.858,26.6513],[127.8548,26.6483],[127.857,26.6415],[127.8593,26.6387],[127.8585,26.6316],[127.8599,26.629],[127.8623,26.6295],[127.8644,26.6354],[127.8707,26.6407],[127.8729,26.6469],[127.8744,26.649],[127.8709,26.6526],[127.8666,26.6539]]],[[[127.8152,26.6512],[127.8127,26.6506],[127.8103,26.6482],[127.8115,26.6465],[127.8129,26.6484],[127.8158,26.6474],[127.8148,26.6459],[127.8155,26.6444],[127.8175,26.644],[127.8211,26.6447],[127.8206,26.6473],[127.8175,26.6503],[127.8152,26.6512]]]]}},{"type":"Feature","id":"Onna","properties":{"id":"Onna","code":47311,"name":"Onna","name_full":"恩納村","name_ja":"恩納村","name_short_ja":"恩納","center_lonlat":[127.8528,26.4759]},"geometry":{"type":"Polygon","coordinates":[[[127.9293,26.5315],[127.927,26.5279],[127.9248,26.5272],[127.9222,26.5288],[127.9211,26.5285],[127.9214,26.5241],[127.9207,26.5209],[127.9191,26.5178],[127.9163,26.5159],[127.9152,26.5166],[127.9104,26.5169],[127.909,26.5184],[127.9061,26.5175],[127.9032,26.5149],[127.9007,26.5146],[127.8986,26.5129],[127.8922,26.5123],[127.8894,26.5044],[127.8872,26.5031],[127.8838,26.5026],[127.8797,26.5048],[127.8797,26.5067],[127.8751,26.5079],[127.8731,26.5096],[127.8727,26.512],[127.8704,26.5102],[127.8667,26.5104],[127.8654,26.5072],[127.8638,26.5066],[127.8626,26.5045],[127.8611,26.5048],[127.8593,26.5094],[127.8574,26.5096],[127.8567,26.5077],[127.8591,26.5071],[127.8591,26.5043],[127.8573,26.5005],[127.8556,26.5001],[127.8502,26.5054],[127.8439,26.5038],[127.8434,26.5003],[127.8402,26.4956],[127.8433,26.4917],[127.8453,26.4867],[127.8458,26.4827],[127.8448,26.4806],[127.8399,26.4782],[127.8355,26.4794],[127.8312,26.4713],[127.8268,26.4682],[127.8243,26.4673],[127.8213,26.4676],[127.8196,26.4655],[127.8145,26.4623],[127.8119,26.4631],[127.8099,26.4572],[127.8059,26.4543],[127.8038,26.4549],[127.8019,26.4523],[127.8009,26.45],[127.8022,26.4491],[127.8026,26.4451],[127.8039,26.4447],[127.7996,26.4378],[127.7956,26.4361],[127.7925,26.4374],[127.79,26.4361],[127.7875,26.4363],[127.7871,26.4348],[127.7825,26.4354],[127.7812,26.4389],[127.7737,26.4424],[127.7715,26.4461],[127.7655,26.438],[127.7567,26.4315],[127.7528,26.4305],[127.7478,26.4276],[127.7439,26.4241],[127.7444,26.4228],[127.7419,26.4223],[127.742,26.4206],[127.7445,26.4179],[127.7472,26.4173],[127.7491,26.4156],[127.7521,26.4152],[127.7527,26.4181],[127.7566,26.4209],[127.7591,26.4203],[127.7645,26.4225],[127.772,26.4208],[127.7746,26.4191],[127.776,26.4171],[127.7793,26.4161],[127.78,26.417],[127.786,26.4159],[127.7859,26.4175],[127.7883,26.4217],[127.7937,26.4243],[127.7957,26.4269],[127.8014,26.4309],[127.8026,26.4308],[127.8043,26.4324],[127.8078,26.4337],[127.8076,26.4356],[127.8092,26.4367],[127.8096,26.4388],[127.811,26.4406],[127.8137,26.4403],[127.8163,26.4429],[127.8172,26.4451],[127.8205,26.4459],[127.8216,26.4476],[127.8238,26.4485],[127.8274,26.4483],[127.8282,26.4496],[127.8309,26.4502],[127.8354,26.4496],[127.8371,26.4523],[127.8361,26.4536],[127.8355,26.4572],[127.8401,26.4609],[127.8405,26.4622],[127.8443,26.4632],[127.8529,26.4693],[127.8578,26.4694],[127.8608,26.4734],[127.8626,26.4741],[127.864,26.4727],[127.866,26.4734],[127.8681,26.4766],[127.8732,26.479],[127.8747,26.479],[127.8751,26.4771],[127.8798,26.4768],[127.8849,26.4753],[127.8861,26.4764],[127.8913,26.4767],[127.8933,26.478],[127.8915,26.4828],[127.8931,26.4859],[127.8943,26.4861],[127.8979,26.4897],[127.9039,26.4918],[127.9049,26.4915],[127.9055,26.4885],[127.9077,26.4852],[127.9109,26.4833],[127.9127,26.4831],[127.9159,26.485],[127.9157,26.4864],[127.9171,26.4888],[127.9193,26.4904],[127.919,26.4944],[127.9177,26.4961],[127.9203,26.4966],[127.9212,26.4977],[127.9198,26.5006],[127.9229,26.502],[127.926,26.5016],[127.9281,26.5001],[127.9299,26.5022],[127.9351,26.5048],[127.9357,26.5079],[127.941,26.5102],[127.9363,26.5193],[127.9375,26.5207],[127.9377,26.5226],[127.9359,26.5255],[127.9347,26.5261],[127.9338,26.5289],[127.9293,26.5315]]]}},{"type":"Feature","id":"Ginoza","properties":{"id":"Ginoza","code":47313,"name":"Ginoza","name_full":"宜野座村","name_ja":"宜野座村","name_short_ja":"宜野座","center_lonlat":[127.9664,26.4948]},"geometry":{"type":"Polygon","coordinates":[[[127.941,26.5102],[127.9357,26.5079],[127.9351,26.5048],[127.9299,26.5022],[127.9281,26.5001],[127.9271,26.4963],[127.9279,26.4943],[127.9305,26.4931],[127.9332,26.4906],[127.9341,26.4876],[127.9373,26.4854],[127.9413,26.4739],[127.9413,26.4709],[127.944,26.467],[127.9468,26.4646],[127.9513,26.4665],[127.9501,26.4702],[127.9509,26.4724],[127.9538,26.4739],[127.9562,26.4731],[127.9621,26.4732],[127.963,26.4709],[127.9654,26.4683],[127.9676,26.4682],[127.9751,26.4702],[127.9786,26.4721],[127.9804,26.4714],[127.986,26.474],[127.9911,26.4751],[127.9906,26.4768],[127.9925,26.4781],[127.9893,26.4801],[127.9916,26.4815],[127.9945,26.4802],[127.9983,26.4811],[128.0007,26.4831],[128.0021,26.486],[128.0026,26.4894],[128.0009,26.4907],[128.0012,26.4935],[127.9985,26.4952],[127.9975,26.4972],[127.996,26.497],[127.994,26.4992],[127.9936,26.5025],[127.9916,26.5042],[127.9961,26.5089],[127.9977,26.5096],[127.9965,26.5113],[127.9954,26.5158],[127.9938,26.5153],[127.9922,26.5185],[127.9893,26.5178],[127.9797,26.5204],[127.9771,26.524],[127.9787,26.5252],[127.9785,26.5276],[127.976,26.5282],[127.9737,26.5279],[127.9735,26.5229],[127.9666,26.5232],[127.9637,26.5211],[127.9624,26.5186],[127.9603,26.5186],[127.9584,26.5173],[127.9593,26.5141],[127.9568,26.5123],[127.9537,26.5109],[127.9499,26.5123],[127.948,26.5122],[127.9469,26.5111],[127.9452,26.5118],[127.941,26.5102]]]}},{"type":"Feature","id":"Kin","properties":{"id":"Kin","code":47314,"name":"Kin","name_full":"金武町","name_ja":"金武町","name_short_ja":"金武","center_lonlat":[127.9018,26.4652]},"geometry":{"type":"Polygon","coordinates":[[[127.8416,26.4353],[127.8447,26.4397],[127.8484,26.4427],[127.8483,26.4445],[127.8502,26.4484],[127.8523,26.4506],[127.8556,26.4524],[127.8587,26.4524],[127.8636,26.4559],[127.8708,26.4576],[127.8745,26.4549],[127.8852,26.4573],[127.887,26.4553],[127.8909,26.4555],[127.8965,26.4506],[127.8993,26.4494],[127.9029,26.4487],[127.9055,26.4494],[127.9116,26.4475],[127.9164,26.447],[127.9177,26.4452],[127.9171,26.4426],[127.9241,26.439],[127.9257,26.4416],[127.9273,26.4396],[127.9416,26.4416],[127.9465,26.44],[127.9484,26.4377],[127.9496,26.4388],[127.9492,26.4406],[127.9476,26.442],[127.9444,26.4422],[127.943,26.4469],[127.9441,26.4544],[127.9478,26.4544],[127.9505,26.4563],[127.9477,26.4585],[127.9466,26.4622],[127.9468,26.4646],[127.944,26.467],[127.9413,26.4709],[127.9413,26.4739],[127.9373,26.4854],[127.9341,26.4876],[127.9332,26.4906],[127.9305,26.4931],[127.9279,26.4943],[127.9271,26.4963],[127.9281,26.5001],[127.926,26.5016],[127.9229,26.502],[127.9198,26.5006],[127.9212,26.4977],[127.9203,26.4966],[127.9177,26.4961],[127.919,26.4944],[127.9193,26.4904],[127.9171,26.4888],[127.9157,26.4864],[127.9159,26.485],[127.9127,26.4831],[127.9109,26.4833],[127.9077,26.4852],[127.9055,26.4885],[127.9049,26.4915],[127.9039,26.4918],[127.8979,26.4897],[127.8943,26.4861],[127.8931,26.4859],[127.8915,26.4828],[127.8933,26.478],[127.8913,26.4767],[127.8861,26.4764],[127.8849,26.4753],[127.8798,26.4768],[127.8751,26.4771],[127.8747,26.479],[127.8732,26.479],[127.8681,26.4766],[127.866,26.4734],[127.864,26.4727],[127.8626,26.4741],[127.8608,26.4734],[127.8578,26.4694],[127.8529,26.4693],[127.8443,26.4632],[127.8405,26.4622],[127.8401,26.4609],[127.8355,26.4572],[127.8361,26.4536],[127.8371,26.4523],[127.8354,26.4496],[127.8381,26.4487],[127.839,26.4435],[127.8409,26.4418],[127.8406,26.4372],[127.8416,26.4353]]]}},{"type":"Feature","id":"Ie","properties":{"id":"Ie","code":47315,"name":"Ie","name_full":"伊江村","name_ja":"伊江村","name_short_ja":"伊江","center_lonlat":[127.7895,26.7217]},"geometry":{"type":"Polygon","coordinates":[[[127.8079,26.7391],[127.7982,26.7367],[127.7919,26.7336],[127.7882,26.7334],[127.7865,26.7341],[127.783,26.7333],[127.7778,26.735],[127.7763,26.734],[127.7686,26.7371],[127.7604,26.7378],[127.7547,26.7354],[127.7524,26.7329],[127.7522,26.7295],[127.7489,26.7222],[127.7495,26.7181],[127.7518,26.7139],[127.7558,26.7098],[127.7608,26.7085],[127.7772,26.7084],[127.7805,26.7094],[127.7926,26.7098],[127.7952,26.7093],[127.7971,26.708],[127.8033,26.707],[127.8037,26.705],[127.8287,26.7099],[127.8287,26.7116],[127.8313,26.7172],[127.8309,26.7209],[127.829,26.724],[127.825,26.7271],[127.8215,26.7284],[127.8188,26.7328],[127.8158,26.7341],[127.8112,26.738],[127.8079,26.7391]]]}},{"type":"Feature","id":"Yomitan","properties":{"id":"Yomitan","code":47324,"name":"Yomitan","name_full":"読谷村","name_ja":"読谷村","name_short_ja":"読谷","center_lonlat":[127.7463,26.4]},"geometry":{"type":"Polygon","coordinates":[[[127.786,26.4159],[127.78,26.417],[127.7793,26.4161],[127.776,26.4171],[127.7746,26.4191],[127.772,26.4208],[127.7645,26.4225],[127.7591,26.4203],[127.7566,26.4209],[127.7527,26.4181],[127.7521,26.4152],[127.7491,26.4156],[127.7472,26.4173],[127.7445,26.4179],[127.742,26.4206],[127.7419,26.4223],[127.7363,26.4224],[127.7334,26.425],[127.7317,26.4299],[127.7255,26.4382],[127.725,26.44],[127.7209,26.4395],[127.7119,26.441],[127.7119,26.4392],[127.7139,26.4382],[127.7168,26.4336],[127.7153,26.4304],[127.7142,26.425],[127.7135,26.4171],[127.715,26.4128],[127.7135,26.4113],[127.7152,26.4092],[127.7162,26.4062],[127.7165,26.4019],[127.7196,26.3974],[127.724,26.3882],[127.7256,26.387],[127.726,26.3849],[127.7276,26.384],[127.7273,26.3827],[127.7301,26.3803],[127.7314,26.3747],[127.738,26.3641],[127.7383,26.3619],[127.7419,26.3627],[127.7465,26.3613],[127.7463,26.3634],[127.7493,26.3642],[127.755,26.3681],[127.7612,26.3687],[127.7637,26.368],[127.7646,26.37],[127.7676,26.3693],[127.7691,26.3715],[127.7681,26.3728],[127.769,26.375],[127.7689,26.3795],[127.7719,26.3831],[127.7715,26.3851],[127.7726,26.3866],[127.7731,26.3911],[127.7759,26.3964],[127.7775,26.3963],[127.7811,26.4014],[127.7822,26.4047],[127.7847,26.4039],[127.7855,26.4057],[127.7851,26.408],[127.7843,26.4105],[127.786,26.4159]]]}},{"type":"Feature","id":"Kadena","properties":{"id":"Kadena","code":47325,"name":"Kadena","name_full":"嘉手納町","name_ja":"嘉手納町","name_short_ja":"嘉手納","center_lonlat":[127.7671,26.3644]},"geometry":{"type":"Polygon","coordinates":[[[127.7851,26.408],[127.7855,26.4057],[127.7847,26.4039],[127.7822,26.4047],[127.7811,26.4014],[127.7775,26.3963],[127.7759,26.3964],[127.7731,26.3911],[127.7726,26.3866],[127.7715,26.3851],[127.7719,26.3831],[127.7689,26.3795],[127.769,26.375],[127.7681,26.3728],[127.7691,26.3715],[127.7676,26.3693],[127.7646,26.37],[127.7637,26.368],[127.7612,26.3687],[127.755,26.3681],[127.7493,26.3642],[127.7463,26.3634],[127.7465,26.3613],[127.7419,26.3627],[127.7383,26.3619],[127.7414,26.3503],[127.7452,26.3515],[127.7449,26.348],[127.7459,26.3426],[127.7503,26.3436],[127.7574,26.3402],[127.7596,26.3403],[127.7617,26.342],[127.7644,26.3423],[127.7695,26.3412],[127.7734,26.3459],[127.7758,26.3454],[127.7766,26.343],[127.7778,26.343],[127.7799,26.3409],[127.7809,26.3417],[127.7808,26.3439],[127.7841,26.3469],[127.7845,26.3487],[127.7826,26.3523],[127.7815,26.3509],[127.7793,26.3509],[127.7791,26.3611],[127.7781,26.3662],[127.779,26.3679],[127.7803,26.368],[127.7828,26.3729],[127.782,26.3771],[127.7832,26.3775],[127.7824,26.381],[127.7813,26.382],[127.7828,26.3849],[127.7855,26.3858],[127.7862,26.3883],[127.7871,26.3951],[127.7866,26.3978],[127.7884,26.4015],[127.7886,26.4045],[127.7882,26.4074],[127.7851,26.408]]]}},{"type":"Feature","id":"Chatan","properties":{"id":"Chatan","code":47326,"name":"Chatan","name_full":"北谷町","name_ja":"北谷町","name_short_ja":"北谷","center_lonlat":[127.7645,26.3213]},"geometry":{"type":"Polygon","coordinates":[[[127.7794,26.2962],[127.7788,26.3004],[127.7771,26.3013],[127.7758,26.3039],[127.7766,26.3062],[127.7759,26.3085],[127.7773,26.3097],[127.7792,26.3092],[127.7806,26.311],[127.7844,26.3131],[127.7859,26.3149],[127.7848,26.3178],[127.7787,26.3175],[127.779,26.3191],[127.7816,26.3197],[127.7821,26.3214],[127.7801,26.3226],[127.7796,26.3243],[127.7775,26.3258],[127.7786,26.3295],[127.777,26.3333],[127.7722,26.3393],[127.7778,26.343],[127.7766,26.343],[127.7758,26.3454],[127.7734,26.3459],[127.7695,26.3412],[127.7644,26.3423],[127.7617,26.342],[127.7596,26.3403],[127.7574,26.3402],[127.7503,26.3436],[127.7459,26.3426],[127.7472,26.3397],[127.7456,26.3379],[127.7453,26.3349],[127.7428,26.3343],[127.7428,26.331],[127.7452,26.3268],[127.7461,26.3227],[127.7481,26.3219],[127.7494,26.3203],[127.7525,26.3218],[127.752,26.3232],[127.7537,26.3241],[127.7551,26.3219],[127.7531,26.3209],[127.7527,26.3184],[127.7537,26.3169],[127.7539,26.3142],[127.7551,26.3139],[127.7555,26.3108],[127.7601,26.3099],[127.7572,26.3017],[127.7581,26.3001],[127.757,26.295],[127.7619,26.2932],[127.7672,26.2979],[127.7708,26.2966],[127.7739,26.2974],[127.7794,26.2962]]]}},{"type":"Feature","id":"Kitanakagusuku","properties":{"id":"Kitanakagusuku","code":47327,"name":"Kitanakagusuku","name_full":"北中城村","name_ja":"北中城村","name_short_ja":"北中城","center_lonlat":[127.7971,26.3033]},"geometry":{"type":"Polygon","coordinates":[[[127.7871,26.2875],[127.7895,26.2887],[127.7916,26.2874],[127.7955,26.287],[127.7989,26.2849],[127.8042,26.285],[127.8144,26.2901],[127.8124,26.2912],[127.8105,26.2938],[127.8132,26.2948],[127.8129,26.2975],[127.8112,26.2985],[127.8162,26.3052],[127.8202,26.3048],[127.8227,26.303],[127.8273,26.3032],[127.8287,26.3041],[127.8254,26.3066],[127.8109,26.305],[127.8075,26.3107],[127.8069,26.3139],[127.8076,26.3156],[127.8065,26.3181],[127.8075,26.3186],[127.8085,26.323],[127.8058,26.3261],[127.8037,26.3248],[127.8014,26.3261],[127.7992,26.3244],[127.799,26.3228],[127.7974,26.3211],[127.7952,26.3223],[127.7946,26.3199],[127.7957,26.3185],[127.7922,26.3163],[127.7895,26.3159],[127.7886,26.3172],[127.7848,26.3178],[127.7859,26.3149],[127.7844,26.3131],[127.7806,26.311],[127.7792,26.3092],[127.7773,26.3097],[127.7759,26.3085],[127.7766,26.3062],[127.7758,26.3039],[127.7771,26.3013],[127.7788,26.3004],[127.7794,26.2962],[127.7797,26.2942],[127.782,26.2948],[127.7837,26.2934],[127.7842,26.2894],[127.7871,26.2875]]]}},{"type":"Feature","id":"Nakagusuku","properties":{"id":"Nakagusuku","code":47328,"name":"Nakagusuku","name_full":"中城村","name_ja":"中城村","name_short_ja":"中城","center_lonlat":[127.7877,26.2635]},"geometry":{"type":"Polygon","coordinates":[[[127.7693,26.2541],[127.7684,26.2512],[127.766,26.2505],[127.7652,26.2483],[127.7659,26.2466],[127.7649,26.2436],[127.7681,26.241],[127.7663,26.2402],[127.7671,26.2386],[127.7717,26.2372],[127.7751,26.2378],[127.777,26.2362],[127.778,26.2369],[127.7875,26.2319],[127.7893,26.236],[127.7886,26.2408],[127.7895,26.2485],[127.7921,26.2521],[127.7933,26.2523],[127.7935,26.2554],[127.7961,26.2589],[127.798,26.2655],[127.8008,26.2689],[127.8032,26.2694],[127.8094,26.2752],[127.8114,26.2736],[127.8162,26.2774],[127.8149,26.2788],[127.8162,26.2804],[127.8169,26.2834],[127.816,26.2885],[127.8144,26.2901],[127.8042,26.285],[127.7989,26.2849],[127.7955,26.287],[127.7916,26.2874],[127.7895,26.2887],[127.7871,26.2875],[127.7834,26.2833],[127.7828,26.2805],[127.7739,26.2694],[127.7737,26.2673],[127.7709,26.2618],[127.7689,26.2608],[127.7673,26.2587],[127.7693,26.2541]]]}},{"type":"Feature","id":"Nishihara","properties":{"id":"Nishihara","code":47329,"name":"Nishihara","name_full":"西原町","name_ja":"西原町","name_short_ja":"西原","center_lonlat":[127.7592,26.2294]},"geometry":{"type":"Polygon","coordinates":[[[127.7359,26.2178],[127.7395,26.2169],[127.7416,26.2149],[127.7446,26.2129],[127.7483,26.2125],[127.7509,26.2134],[127.7609,26.2121],[127.77,26.2075],[127.7687,26.2101],[127.7718,26.2121],[127.7735,26.2119],[127.774,26.2146],[127.7776,26.2167],[127.7828,26.2249],[127.7845,26.2261],[127.7873,26.2261],[127.79,26.23],[127.7875,26.2319],[127.778,26.2369],[127.777,26.2362],[127.7751,26.2378],[127.7717,26.2372],[127.7671,26.2386],[127.7663,26.2402],[127.7681,26.241],[127.7649,26.2436],[127.7659,26.2466],[127.7652,26.2483],[127.766,26.2505],[127.7684,26.2512],[127.7693,26.2541],[127.7646,26.2557],[127.7634,26.2529],[127.7616,26.2517],[127.7597,26.2516],[127.7575,26.2499],[127.7567,26.2513],[127.7538,26.2519],[127.753,26.2513],[127.7513,26.2513],[127.7507,26.249],[127.7473,26.2447],[127.7436,26.2434],[127.7417,26.2399],[127.7397,26.2395],[127.7384,26.2363],[127.7381,26.2316],[127.7357,26.2301],[127.7332,26.2265],[127.7362,26.2247],[127.7359,26.2178]]]}},{"type":"Feature","id":"Yonabaru","properties":{"id":"Yonabaru","code":47348,"name":"Yonabaru","name_full":"与那原町","name_ja":"与那原町","name_short_ja":"与那原","center_lonlat":[127.7583,26.2021]},"geometry":{"type":"Polygon","coordinates":[[[127.7761,26.1886],[127.7743,26.1895],[127.7738,26.1912],[127.7706,26.1928],[127.7691,26.2003],[127.771,26.2024],[127.7657,26.2047],[127.7672,26.2075],[127.77,26.2075],[127.7609,26.2121],[127.7509,26.2134],[127.7483,26.2125],[127.7446,26.2129],[127.7416,26.2149],[127.7393,26.2104],[127.7447,26.2073],[127.7466,26.2032],[127.7486,26.2014],[127.7463,26.1986],[127.7471,26.1961],[127.7486,26.1976],[127.7499,26.1968],[127.7573,26.1962],[127.7585,26.1945],[127.7624,26.1947],[127.7655,26.1863],[127.7697,26.1862],[127.7727,26.1874],[127.7741,26.1868],[127.7761,26.1886]]]}},{"type":"Feature","id":"Haebaru","properties":{"id":"Haebaru","code":47350,"name":"Haebaru","name_full":"南風原町","name_ja":"南風原町","name_short_ja":"南風原","center_lonlat":[127.7287,26.1942]},"geometry":{"type":"Polygon","coordinates":[[[127.7077,26.1903],[127.7095,26.1849],[127.7123,26.1836],[127.7139,26.1802],[127.7165,26.1801],[127.7212,26.1756],[127.7244,26.1765],[127.7263,26.1748],[127.7239,26.1713],[127.7249,26.1698],[127.7295,26.1686],[127.7315,26.1687],[127.7344,26.1728],[127.733,26.1776],[127.7343,26.1827],[127.7397,26.1893],[127.7401,26.1916],[127.7392,26.1938],[127.7412,26.1948],[127.7408,26.1974],[127.7463,26.1986],[127.7486,26.2014],[127.7466,26.2032],[127.7447,26.2073],[127.7393,26.2104],[127.7416,26.2149],[127.7395,26.2169],[127.7359,26.2178],[127.7336,26.2182],[127.7317,26.2166],[127.7275,26.2151],[127.7225,26.2097],[127.7228,26.2032],[127.7216,26.1984],[127.7182,26.1958],[127.7132,26.1959],[127.7118,26.1936],[127.7077,26.1903]]]}},{"type":"Feature","id":"Tokashiki","properties":{"id":"Tokashiki","code":47353,"name":"Tokashiki","name_full":"渡嘉敷村","name_ja":"渡嘉敷村","name_short_ja":"渡嘉敷","center_lonlat":[127.3566,26.1902]},"geometry":{"type":"MultiPolygon","coordinates":[[[[127.3572,26.2265],[127.3554,26.225],[127.3528,26.2255],[127.3528,26.2226],[127.3545,26.2215],[127.3546,26.2165],[127.3483,26.2106],[127.3501,26.2076],[127.3492,26.2049],[127.3454,26.2018],[127.3459,26.1937],[127.3448,26.1903],[127.347,26.188],[127.3478,26.1859],[127.3458,26.184],[127.3437,26.1834],[127.3411,26.1852],[127.3393,26.1823],[127.3412,26.1786],[127.3421,26.1736],[127.3416,26.1711],[127.3472,26.169],[127.3483,26.1671],[127.345,26.1598],[127.3468,26.1588],[127.3464,26.156],[127.3448,26.1542],[127.3466,26.1483],[127.3457,26.1464],[127.3489,26.1458],[127.3493,26.1504],[127.3518,26.1556],[127.3544,26.157],[127.3578,26.1571],[127.3586,26.1557],[127.3617,26.1557],[127.3633,26.1567],[127.3617,26.1644],[127.3623,26.1652],[127.3608,26.1696],[127.3616,26.1723],[127.3597,26.1751],[127.3597,26.1794],[127.3584,26.1806],[127.3604,26.1832],[127.3643,26.1845],[127.3693,26.1897],[127.3714,26.1891],[127.3698,26.1932],[127.3712,26.1947],[127.3706,26.1979],[127.3676,26.1978],[127.3681,26.2002],[127.3697,26.2013],[127.3739,26.2021],[127.3738,26.2081],[127.3719,26.2089],[127.3712,26.2115],[127.3721,26.2153],[127.3698,26.2187],[127.3679,26.22],[127.3666,26.2223],[127.3623,26.2244],[127.3576,26.2252],[127.3572,26.2265]]],[[[127.4528,26.2246],[127.4498,26.2207],[127.4483,26.2203],[127.4404,26.2039],[127.4388,26.2034],[127.4385,26.2016],[127.4395,26.2004],[127.4427,26.2014],[127.4442,26.2005],[127.4469,26.203],[127.4478,26.2088],[127.4496,26.2122],[127.4516,26.213],[127.4522,26.2148],[127.4552,26.2181],[127.4566,26.221],[127.4552,26.2214],[127.4528,26.2246]]],[[[127.3689,26.2369],[127.3661,26.2318],[127.3678,26.2303],[127.3682,26.2282],[127.3672,26.224],[127.3689,26.2235],[127.3693,26.2253],[127.3721,26.2277],[127.373,26.2302],[127.3703,26.2334],[127.3699,26.2362],[127.3689,26.2369]]],[[[127.5542,26.2656],[127.5466,26.267],[127.5412,26.2663],[127.5411,26.2646],[127.5426,26.2639],[127.5455,26.2654],[127.5538,26.2639],[127.5542,26.2656]]],[[[127.4032,26.2566],[127.4011,26.2555],[127.4027,26.2511],[127.4043,26.2489],[127.4073,26.2492],[127.4049,26.2535],[127.4054,26.2545],[127.4032,26.2566]]],[[[127.3449,26.1465],[127.3428,26.1457],[127.3426,26.144],[127.3408,26.1418],[127.341,26.1393],[127.3432,26.1388],[127.3436,26.141],[127.3456,26.1428],[127.3466,26.1451],[127.3449,26.1465]]],[[[127.5781,26.2591],[127.5794,26.2603],[127.5786,26.2623],[127.5795,26.2642],[127.5783,26.2648],[127.577,26.2627],[127.5747,26.2612],[127.5752,26.2586],[127.5781,26.2591]]],[[[127.4514,26.2343],[127.4492,26.2328],[127.4495,26.2298],[127.4521,26.2271],[127.4529,26.229],[127.4519,26.2304],[127.4524,26.234],[127.4514,26.2343]]],[[[127.4575,26.2423],[127.4559,26.2416],[127.4551,26.2397],[127.4554,26.2377],[127.4588,26.2389],[127.459,26.2414],[127.4575,26.2423]]],[[[127.3759,26.1999],[127.3764,26.1973],[127.378,26.1968],[127.3802,26.198],[127.3803,26.1991],[127.3759,26.1999]]],[[[127.5851,26.2631],[127.5843,26.2636],[127.5795,26.2625],[127.5802,26.2608],[127.5845,26.2621],[127.5851,26.2631]]],[[[127.3406,26.1643],[127.3374,26.1636],[127.3372,26.1608],[127.3397,26.1612],[127.3396,26.1634],[127.3406,26.1643]]]]}},{"type":"Feature","id":"Zamami","properties":{"id":"Zamami","code":47354,"name":"Zamami","name_full":"座間味村","name_ja":"座間味村","name_short_ja":"座間味","center_lonlat":[127.3072,26.2346]},"geometry":{"type":"MultiPolygon","coordinates":[[[[127.3101,26.252],[127.3102,26.2505],[127.3085,26.2487],[127.3069,26.2489],[127.3063,26.2467],[127.3079,26.2455],[127.3082,26.2434],[127.3071,26.2404],[127.3022,26.2378],[127.3006,26.2381],[127.2987,26.2412],[127.2962,26.2421],[127.2935,26.2398],[127.2935,26.2356],[127.2906,26.2336],[127.2886,26.234],[127.2868,26.233],[127.2823,26.2337],[127.281,26.231],[127.2825,26.2295],[127.2828,26.2275],[127.2915,26.2271],[127.2942,26.2257],[127.296,26.2236],[127.298,26.2257],[127.2992,26.2249],[127.3004,26.2271],[127.3023,26.2273],[127.3037,26.2264],[127.3035,26.2243],[127.3021,26.2237],[127.3039,26.2211],[127.3034,26.2198],[127.3077,26.2185],[127.3086,26.2213],[127.3081,26.2223],[127.3102,26.225],[127.3133,26.2259],[127.3142,26.2274],[127.3135,26.23],[127.3143,26.2318],[127.3126,26.2323],[127.3127,26.2345],[127.3113,26.235],[127.3109,26.2374],[127.3162,26.24],[127.3201,26.2399],[127.3224,26.2351],[127.3213,26.2341],[127.3217,26.2317],[127.3275,26.232],[127.3328,26.2296],[127.3325,26.2331],[127.329,26.2325],[127.3275,26.2355],[127.3325,26.2401],[127.3293,26.2411],[127.3263,26.2445],[127.3242,26.2444],[127.3176,26.2465],[127.3142,26.2454],[127.3122,26.2462],[127.3111,26.2476],[127.3112,26.2511],[127.3101,26.252]]],[[[127.2809,26.2115],[127.2799,26.2119],[127.2746,26.2084],[127.2713,26.2083],[127.2694,26.2022],[127.2656,26.1996],[127.2657,26.197],[127.2677,26.1967],[127.2683,26.1939],[127.2717,26.1971],[127.2739,26.1968],[127.2762,26.195],[127.2744,26.1918],[127.2758,26.1867],[127.2774,26.187],[127.2791,26.1891],[127.2855,26.1894],[127.2848,26.1907],[127.2871,26.1933],[127.2934,26.1944],[127.2915,26.1969],[127.2915,26.1985],[127.2896,26.1992],[127.284,26.2079],[127.2816,26.2091],[127.2809,26.2115]]],[[[127.2368,26.1828],[127.2375,26.1802],[127.2344,26.1764],[127.233,26.176],[127.2339,26.1701],[127.2323,26.1687],[127.2344,26.1631],[127.236,26.1645],[127.2409,26.1626],[127.2424,26.1636],[127.2409,26.1656],[127.242,26.1735],[127.2442,26.1754],[127.2414,26.1785],[127.2378,26.1806],[127.2368,26.1828]]],[[[127.2494,26.2231],[127.2479,26.2232],[127.2466,26.2215],[127.2449,26.2209],[127.241,26.2213],[127.2393,26.2198],[127.2404,26.2184],[127.2389,26.2144],[127.2392,26.2113],[127.2431,26.2083],[127.2481,26.2125],[127.2498,26.2158],[127.2503,26.2221],[127.2494,26.2231]]],[[[127.289,26.1876],[127.2861,26.1871],[127.2825,26.1831],[127.2863,26.1761],[127.2894,26.1759],[127.2908,26.1771],[127.2934,26.1759],[127.2946,26.179],[127.2937,26.1805],[127.2937,26.1843],[127.2929,26.186],[127.289,26.1876]]],[[[127.2931,26.1751],[127.292,26.173],[127.2905,26.1725],[127.2876,26.1666],[127.2898,26.1658],[127.2897,26.1629],[127.2927,26.1622],[127.2952,26.1644],[127.2955,26.1667],[127.2967,26.1671],[127.2962,26.1725],[127.2931,26.1751]]],[[[127.3094,26.2158],[127.3086,26.2107],[127.3098,26.2089],[127.3096,26.2067],[127.3104,26.2047],[127.3095,26.2005],[127.3111,26.1987],[127.3134,26.1978],[127.3142,26.2002],[127.317,26.2028],[127.3171,26.2046],[127.3111,26.2088],[127.3105,26.2136],[127.3094,26.2158]]],[[[127.2845,26.2203],[127.2833,26.2195],[127.285,26.2171],[127.2869,26.2164],[127.2885,26.219],[127.2845,26.2203]]],[[[127.2955,26.213],[127.296,26.2172],[127.2941,26.2168],[127.2939,26.2133],[127.2955,26.213]]]]}},{"type":"Feature","id":"Aguni","properties":{"id":"Aguni","code":47355,"name":"Aguni","name_full":"粟国村","name_ja":"粟国村","name_short_ja":"粟国","center_lonlat":[127.2294,26.5878]},"geometry":{"type":"Polygon","coordinates":[[[127.2313,26.6021],[127.2273,26.6011],[127.2233,26.5967],[127.2206,26.5959],[127.2166,26.5927],[127.2151,26.5891],[127.2114,26.5858],[127.21,26.5822],[127.2106,26.5805],[127.2081,26.576],[127.2093,26.5749],[127.2121,26.575],[127.2175,26.5774],[127.2243,26.5778],[127.2329,26.5791],[127.2347,26.58],[127.2372,26.5766],[127.2415,26.5774],[127.2459,26.5825],[127.2482,26.5863],[127.2459,26.5925],[127.2408,26.5981],[127.2401,26.6],[127.2369,26.6017],[127.2313,26.6021]]]}},{"type":"Feature","id":"Tonaki","properties":{"id":"Tonaki","code":47356,"name":"Tonaki","name_full":"渡名喜村","name_ja":"渡名喜村","name_short_ja":"渡名喜","center_lonlat":[127.1469,26.3647]},"geometry":{"type":"MultiPolygon","coordinates":[[[[127.1469,26.382],[127.1461,26.382],[127.1446,26.3775],[127.142,26.3763],[127.1388,26.377],[127.1381,26.3747],[127.1408,26.3743],[127.1401,26.3707],[127.1377,26.3697],[127.1379,26.367],[127.1371,26.3658],[127.1424,26.3581],[127.141,26.3559],[127.1447,26.3533],[127.1455,26.352],[127.1444,26.3498],[127.146,26.3493],[127.1465,26.3519],[127.1482,26.3521],[127.1491,26.3536],[127.1517,26.355],[127.1531,26.3543],[127.1601,26.3587],[127.1615,26.3639],[127.1535,26.3611],[127.1497,26.3631],[127.1463,26.3717],[127.1485,26.3736],[127.1488,26.3761],[127.1509,26.3777],[127.1512,26.3799],[127.1469,26.382]]],[[[127.1038,26.3878],[127.1002,26.3876],[127.101,26.382],[127.1042,26.3833],[127.1051,26.385],[127.1051,26.387],[127.1038,26.3878]]]]}},{"type":"Feature","id":"Minamidaito","properties":{"id":"Minamidaito","code":47357,"name":"Minamidaito","name_full":"南大東村","name_ja":"南大東村","name_short_ja":"南大東","center_lonlat":[131.2428,25.8432]},"geometry":{"type":"Polygon","coordinates":[[[131.2407,25.8724],[131.2263,25.8703],[131.2206,25.8666],[131.2198,25.8645],[131.221,25.8587],[131.2173,25.848],[131.2173,25.8311],[131.2135,25.8229],[131.2207,25.8175],[131.2315,25.8128],[131.2439,25.8138],[131.2553,25.8166],[131.2636,25.8235],[131.2659,25.8264],[131.2674,25.8301],[131.2668,25.8345],[131.2674,25.8387],[131.2733,25.8526],[131.2732,25.8547],[131.2695,25.8614],[131.2652,25.8669],[131.2627,25.8686],[131.2517,25.872],[131.2407,25.8724]]]}},{"type":"Feature","id":"Kitadaito","properties":{"id":"Kitadaito","code":47358,"name":"Kitadaito","name_full":"北大東村","name_ja":"北大東村","name_short_ja":"北大東","center_lonlat":[131.3072,25.9447]},"geometry":{"type":"MultiPolygon","coordinates":[[[[131.2859,25.961],[131.2851,25.9608],[131.2839,25.9556],[131.2851,25.9484],[131.2883,25.941],[131.2942,25.9337],[131.2952,25.9342],[131.2991,25.9304],[131.3053,25.9284],[131.3113,25.928],[131.3189,25.929],[131.3221,25.9307],[131.3255,25.9392],[131.3281,25.9427],[131.3321,25.9511],[131.3309,25.9532],[131.324,25.9558],[131.3193,25.9564],[131.3063,25.9556],[131.2859,25.961]]],[[[131.1819,24.4723],[131.1808,24.471],[131.1844,24.4637],[131.1864,24.4619],[131.1893,24.4615],[131.1922,24.4632],[131.1951,24.4683],[131.1945,24.4702],[131.1914,24.4713],[131.1819,24.4723]]]]}},{"type":"Feature","id":"Iheya","properties":{"id":"Iheya","code":47359,"name":"Iheya","name_full":"伊平屋村","name_ja":"伊平屋村","name_short_ja":"伊平屋","center_lonlat":[127.9735,27.05]},"geometry":{"type":"MultiPolygon","coordinates":[[[[128.0208,27.0945],[128.0085,27.0902],[127.9957,27.0889],[127.9938,27.0838],[127.9906,27.0809],[127.9892,27.0772],[127.9873,27.0748],[127.9823,27.0705],[127.9699,27.063],[127.967,27.0572],[127.96,27.0502],[127.9544,27.0459],[127.9513,27.045],[127.949,27.0415],[127.9468,27.0369],[127.9471,27.0355],[127.9457,27.0334],[127.9377,27.0253],[127.9331,27.0219],[127.9322,27.0193],[127.9324,27.0141],[127.9341,27.0108],[127.9378,27.0073],[127.9377,27.0025],[127.9361,26.9988],[127.9345,26.9979],[127.9326,26.9982],[127.9346,26.9949],[127.9358,26.995],[127.9404,27.0052],[127.9418,27.0154],[127.947,27.0201],[127.956,27.0224],[127.9588,27.0212],[127.9633,27.0219],[127.9667,27.0253],[127.9667,27.0291],[127.9635,27.03],[127.9632,27.0315],[127.9647,27.0349],[127.9674,27.0371],[127.9685,27.0365],[127.9725,27.0403],[127.9782,27.0415],[127.9803,27.0401],[127.9835,27.0402],[127.9914,27.0442],[127.9957,27.0521],[127.9988,27.0615],[127.9974,27.0619],[127.9967,27.0638],[127.9974,27.0676],[127.9994,27.0686],[128.0012,27.0748],[128.0028,27.0772],[128.0056,27.0799],[128.0074,27.0805],[128.0159,27.089],[128.0184,27.0898],[128.0202,27.0892],[128.0219,27.0902],[128.0223,27.0927],[128.0208,27.0945]]],[[[127.9242,27.0008],[127.9206,26.9998],[127.9127,26.9952],[127.9143,26.9925],[127.9207,26.9892],[127.9248,26.993],[127.9272,26.9989],[127.9242,27.0008]]]]}},{"type":"Feature","id":"Izena","properties":{"id":"Izena","code":47360,"name":"Izena","name_full":"伊是名村","name_ja":"伊是名村","name_short_ja":"伊是名","center_lonlat":[127.9366,26.9336]},"geometry":{"type":"MultiPolygon","coordinates":[[[[127.9376,26.9557],[127.9352,26.9528],[127.9246,26.9498],[127.923,26.9481],[127.9197,26.9479],[127.917,26.9458],[127.912,26.9368],[127.9138,26.9346],[127.9205,26.9362],[127.9205,26.934],[127.9221,26.9312],[127.9211,26.9299],[127.9208,26.9269],[127.92,26.9264],[127.9197,26.9224],[127.9215,26.9191],[127.9275,26.917],[127.9301,26.9138],[127.9366,26.914],[127.9389,26.9119],[127.9424,26.9121],[127.9446,26.9134],[127.9519,26.9135],[127.954,26.9144],[127.9532,26.9164],[127.9518,26.9173],[127.9502,26.924],[127.9514,26.9258],[127.9503,26.9276],[127.9509,26.9287],[127.9532,26.9287],[127.9544,26.9299],[127.9554,26.9341],[127.9572,26.9351],[127.9567,26.9431],[127.9553,26.9458],[127.9507,26.9479],[127.9475,26.9511],[127.9423,26.9527],[127.9376,26.9557]]],[[[127.9222,26.9025],[127.9204,26.902],[127.9219,26.8969],[127.9212,26.8958],[127.9221,26.8941],[127.9264,26.8931],[127.929,26.8915],[127.9308,26.8918],[127.9338,26.8943],[127.9278,26.8953],[127.9262,26.8984],[127.9277,26.9014],[127.9258,26.9024],[127.9222,26.9025]]],[[[127.9478,26.978],[127.945,26.9779],[127.9446,26.9766],[127.9485,26.9734],[127.9575,26.9737],[127.9578,26.9757],[127.9549,26.9757],[127.9478,26.978]]]]}},{"type":"Feature","id":"Kumejima","properties":{"id":"Kumejima","code":47361,"name":"Kumejima","name_full":"久米島町","name_ja":"久米島町","name_short_ja":"久米島","center_lonlat":[126.7734,26.35]},"geometry":{"type":"MultiPolygon","coordinates":[[[[126.7761,26.3913],[126.7704,26.3913],[126.7639,26.3893],[126.7589,26.3892],[126.7573,26.3875],[126.7545,26.3872],[126.7402,26.3783],[126.7335,26.3758],[126.7273,26.3745],[126.7172,26.3746],[126.7128,26.3722],[126.7094,26.3674],[126.7083,26.3631],[126.7115,26.3644],[126.7121,26.3616],[126.7091,26.3548],[126.7107,26.3541],[126.7131,26.3597],[126.714,26.3597],[126.7149,26.3559],[126.7173,26.3533],[126.7254,26.3487],[126.7273,26.3492],[126.7329,26.3476],[126.7462,26.3458],[126.7511,26.3431],[126.7532,26.3409],[126.7562,26.3406],[126.7581,26.3421],[126.7602,26.3414],[126.7552,26.3386],[126.7575,26.337],[126.759,26.3376],[126.7634,26.3344],[126.7624,26.333],[126.7648,26.3307],[126.7659,26.3312],[126.7682,26.3293],[126.77,26.3264],[126.7698,26.3243],[126.7682,26.3219],[126.7705,26.3205],[126.7709,26.3187],[126.7762,26.3144],[126.7758,26.312],[126.7768,26.3086],[126.7806,26.3049],[126.7824,26.3049],[126.7848,26.3038],[126.7864,26.302],[126.7935,26.2998],[126.8015,26.2926],[126.8035,26.293],[126.8101,26.291],[126.8126,26.2919],[126.8136,26.2936],[126.8103,26.2979],[126.8102,26.3025],[126.8077,26.3035],[126.804,26.3073],[126.8053,26.3104],[126.807,26.32],[126.8054,26.3238],[126.8075,26.3289],[126.8097,26.3315],[126.8162,26.3363],[126.814,26.3377],[126.8142,26.3393],[126.8262,26.346],[126.8239,26.3464],[126.8225,26.3488],[126.823,26.3502],[126.8215,26.3512],[126.8176,26.351],[126.8175,26.3527],[126.8124,26.3585],[126.8081,26.3608],[126.809,26.3627],[126.8106,26.3634],[126.8096,26.3654],[126.807,26.3673],[126.8069,26.3689],[126.8047,26.3705],[126.8005,26.368],[126.798,26.3686],[126.7956,26.3711],[126.7949,26.3736],[126.7934,26.3747],[126.7913,26.3797],[126.7899,26.3803],[126.7863,26.3858],[126.779,26.3911],[126.7761,26.3913]]],[[[128.2227,27.8853],[128.2216,27.8853],[128.2175,27.8778],[128.2213,27.8734],[128.2229,27.8671],[128.2263,27.8643],[128.2295,27.8633],[128.234,27.8604],[128.2357,27.8625],[128.2351,27.8637],[128.2364,27.8664],[128.2331,27.8711],[128.2334,27.8728],[128.2324,27.8742],[128.2276,27.878],[128.2268,27.8834],[128.2253,27.885],[128.2227,27.8853]]],[[[126.8285,26.3428],[126.8242,26.34],[126.8225,26.3372],[126.8249,26.3357],[126.8309,26.3364],[126.8341,26.3357],[126.8348,26.3367],[126.8316,26.339],[126.8318,26.3411],[126.8309,26.3422],[126.8285,26.3428]]],[[[126.8389,26.3437],[126.8379,26.3437],[126.8367,26.341],[126.8372,26.3364],[126.8424,26.3384],[126.8426,26.3414],[126.8405,26.3433],[126.8389,26.3437]]],[[[126.898,26.3503],[126.8936,26.3502],[126.8919,26.3509],[126.8876,26.3481],[126.8863,26.3462],[126.8836,26.3453],[126.8874,26.3441],[126.888,26.3466],[126.8916,26.3493],[126.896,26.3494],[126.898,26.3503]]]]}},{"type":"Feature","id":"Yaese","properties":{"id":"Yaese","code":47362,"name":"Yaese","name_full":"八重瀬町","name_ja":"八重瀬町","name_short_ja":"八重瀬","center_lonlat":[127.7265,26.1385]},"geometry":{"type":"Polygon","coordinates":[[[127.7316,26.0982],[127.7343,26.0993],[127.7355,26.1023],[127.7377,26.1046],[127.7394,26.1095],[127.743,26.1113],[127.743,26.1133],[127.7472,26.1183],[127.7501,26.12],[127.7558,26.1198],[127.7584,26.1238],[127.7622,26.1247],[127.7622,26.126],[127.7593,26.1329],[127.7571,26.1316],[127.7531,26.1334],[127.7491,26.1389],[127.742,26.1446],[127.7422,26.1461],[127.7407,26.1479],[127.7394,26.1518],[127.7363,26.1524],[127.7338,26.1511],[127.7309,26.1522],[127.73,26.1618],[127.7317,26.1662],[127.7295,26.1686],[127.7249,26.1698],[127.7239,26.1713],[127.7263,26.1748],[127.7244,26.1765],[127.7212,26.1756],[127.7165,26.1801],[127.7139,26.1802],[127.7117,26.1793],[127.7106,26.1762],[127.7077,26.1752],[127.7042,26.1723],[127.7041,26.1696],[127.7055,26.1679],[127.7053,26.1662],[127.7065,26.1646],[127.703,26.162],[127.7023,26.1583],[127.6993,26.156],[127.6965,26.1516],[127.6976,26.1495],[127.699,26.1492],[127.6996,26.1472],[127.7015,26.147],[127.7026,26.1457],[127.7047,26.1477],[127.7068,26.1483],[127.7104,26.1479],[127.7126,26.1444],[127.7121,26.1394],[127.7107,26.1377],[127.7098,26.1347],[127.7058,26.1331],[127.7083,26.1267],[127.7107,26.1257],[127.7125,26.1233],[127.7129,26.1213],[127.7118,26.1184],[127.7179,26.1133],[127.7176,26.1119],[127.7205,26.1077],[127.7207,26.1056],[127.7243,26.1063],[127.7258,26.1038],[127.7316,26.0982]]]}},{"type":"Feature","id":"Tarama","properties":{"id":"Tarama","code":47375,"name":"Tarama","name_full":"多良間村","name_ja":"多良間村","name_short_ja":"多良間","center_lonlat":[124.6991,24.6571]},"geometry":{"type":"MultiPolygon","coordinates":[[[[124.7108,24.6774],[124.7086,24.6748],[124.6969,24.677],[124.686,24.6745],[124.6825,24.6733],[124.6729,24.6652],[124.6715,24.6621],[124.6708,24.6561],[124.673,24.648],[124.6754,24.6433],[124.6805,24.6405],[124.6903,24.6392],[124.6929,24.6381],[124.7082,24.6381],[124.7155,24.6418],[124.726,24.6505],[124.7279,24.6538],[124.7284,24.6573],[124.7265,24.6668],[124.72,24.6713],[124.7095,24.6743],[124.7108,24.6774]]],[[[124.695,24.7619],[124.6886,24.7615],[124.6831,24.759],[124.6838,24.757],[124.6951,24.7493],[124.7059,24.7447],[124.7064,24.7463],[124.7041,24.7543],[124.7011,24.7545],[124.695,24.7619]]]]}},{"type":"Feature","id":"Taketomi","properties":{"id":"Taketomi","code":47381,"name":"Taketomi","name_full":"竹富町","name_ja":"竹富町","name_short_ja":"竹富","center_lonlat":[123.8147,24.336]},"geometry":{"type":"MultiPolygon","coordinates":[[[[123.782,24.4373],[123.7703,24.4369],[123.767,24.4351],[123.7641,24.4304],[123.7645,24.4267],[123.7667,24.4255],[123.7679,24.4283],[123.7701,24.4282],[123.7724,24.4266],[123.7738,24.4247],[123.7743,24.4223],[123.7727,24.4176],[123.7683,24.4164],[123.7674,24.4172],[123.7612,24.4144],[123.7608,24.4112],[123.7585,24.4083],[123.7532,24.4051],[123.7512,24.403],[123.7512,24.4013],[123.7538,24.3978],[123.7537,24.3932],[123.7526,24.3914],[123.7468,24.3912],[123.746,24.3937],[123.7431,24.3937],[123.7424,24.39],[123.7433,24.3883],[123.746,24.3888],[123.7486,24.3816],[123.7506,24.3803],[123.753,24.377],[123.7528,24.374],[123.7502,24.3711],[123.743,24.3684],[123.7437,24.3654],[123.7461,24.3621],[123.7452,24.3606],[123.7465,24.3593],[123.751,24.3599],[123.752,24.3593],[123.7535,24.3532],[123.7466,24.3459],[123.7447,24.3427],[123.747,24.3401],[123.7502,24.3384],[123.7504,24.3365],[123.7475,24.3315],[123.7475,24.3254],[123.7466,24.3237],[123.7481,24.3223],[123.7504,24.3144],[123.7516,24.3127],[123.7485,24.3114],[123.7464,24.314],[123.7453,24.3185],[123.7426,24.3199],[123.7402,24.3152],[123.7394,24.3185],[123.7402,24.3196],[123.7374,24.3245],[123.737,24.3272],[123.7377,24.3294],[123.7367,24.3309],[123.7348,24.3318],[123.7314,24.3306],[123.7294,24.3312],[123.7283,24.3339],[123.7298,24.3395],[123.7294,24.3417],[123.7268,24.3434],[123.7249,24.3435],[123.7246,24.3409],[123.7227,24.3391],[123.7201,24.3382],[123.7193,24.3365],[123.7171,24.3348],[123.7149,24.3347],[123.714,24.3326],[123.7143,24.3294],[123.7107,24.3321],[123.7113,24.3332],[123.7095,24.3374],[123.706,24.3399],[123.7057,24.3426],[123.7038,24.3453],[123.706,24.3482],[123.7044,24.3497],[123.701,24.3479],[123.7002,24.3463],[123.7012,24.3454],[123.7007,24.34],[123.7028,24.3335],[123.706,24.3299],[123.7067,24.3262],[123.7086,24.3237],[123.708,24.3204],[123.7089,24.3187],[123.7115,24.3179],[123.7102,24.3149],[123.7044,24.3149],[123.7036,24.3162],[123.7047,24.3187],[123.7007,24.3258],[123.6921,24.3283],[123.6866,24.3327],[123.6831,24.3309],[123.68,24.3222],[123.683,24.322],[123.684,24.3203],[123.6831,24.3172],[123.6847,24.3129],[123.687,24.3105],[123.6845,24.3085],[123.6819,24.3078],[123.6788,24.3129],[123.6768,24.3117],[123.6742,24.3114],[123.6738,24.3126],[123.6706,24.314],[123.6653,24.31],[123.6636,24.3107],[123.6617,24.3084],[123.6637,24.3063],[123.6636,24.3051],[123.6678,24.3014],[123.6697,24.2966],[123.6802,24.2833],[123.6909,24.2818],[123.6937,24.2836],[123.6964,24.2836],[123.7032,24.2793],[123.7069,24.2782],[123.716,24.2776],[123.719,24.2783],[123.7197,24.2825],[123.7216,24.2868],[123.72,24.2897],[123.7216,24.2965],[123.7208,24.2982],[123.7231,24.2996],[123.737,24.2942],[123.7409,24.2905],[123.7406,24.2888],[123.7494,24.2841],[123.7527,24.2808],[123.7549,24.2797],[123.7735,24.2762],[123.7761,24.2746],[123.7781,24.2747],[123.7813,24.2764],[123.7842,24.2763],[123.7864,24.2751],[123.7897,24.2751],[123.7952,24.2735],[123.8057,24.2696],[123.8115,24.2711],[123.8192,24.2704],[123.8232,24.2716],[123.8333,24.272],[123.8448,24.2676],[123.8519,24.262],[123.8626,24.2563],[123.8741,24.2552],[123.8806,24.2562],[123.8826,24.2612],[123.8812,24.2645],[123.8842,24.2698],[123.8829,24.2715],[123.8834,24.2755],[123.8789,24.2763],[123.8794,24.2789],[123.881,24.2804],[123.8909,24.2805],[123.8919,24.2782],[123.8962,24.2779],[123.8985,24.275],[123.9007,24.2738],[123.9045,24.2752],[123.9026,24.283],[123.9035,24.2837],[123.9035,24.2885],[123.9023,24.2908],[123.902,24.2953],[123.8991,24.301],[123.9021,24.3043],[123.9012,24.306],[123.9021,24.3083],[123.9071,24.3121],[123.9062,24.3131],[123.9088,24.3179],[123.9104,24.3195],[123.9127,24.32],[123.9106,24.3223],[123.911,24.324],[123.9142,24.3254],[123.9159,24.3243],[123.9186,24.324],[123.9217,24.3214],[123.923,24.3181],[123.9281,24.3159],[123.9282,24.3198],[123.9258,24.3215],[123.9247,24.3244],[123.9251,24.3264],[123.9297,24.3281],[123.9267,24.3339],[123.9284,24.3379],[123.9273,24.3396],[123.9268,24.3427],[123.928,24.3446],[123.9362,24.3496],[123.9381,24.3586],[123.9406,24.3605],[123.9396,24.365],[123.9226,24.3666],[123.9183,24.3717],[123.9184,24.3745],[123.917,24.3784],[123.9086,24.3826],[123.9061,24.3846],[123.9028,24.3856],[123.8997,24.3838],[123.8968,24.3845],[123.8947,24.3868],[123.8914,24.3875],[123.8899,24.3849],[123.8869,24.3848],[123.8823,24.3886],[123.8808,24.3926],[123.8814,24.3945],[123.8811,24.3994],[123.8795,24.4011],[123.87,24.4046],[123.8684,24.4043],[123.867,24.3994],[123.8674,24.3981],[123.8641,24.395],[123.8617,24.3948],[123.8546,24.399],[123.8548,24.4026],[123.8485,24.4045],[123.8444,24.4023],[123.8391,24.4036],[123.8325,24.4075],[123.8317,24.4056],[123.8301,24.4048],[123.8295,24.3992],[123.8265,24.3971],[123.8241,24.3974],[123.8225,24.396],[123.8214,24.3917],[123.8197,24.3921],[123.817,24.3911],[123.8157,24.3941],[123.8144,24.3941],[123.8095,24.3999],[123.8104,24.4042],[123.8119,24.4051],[123.8132,24.4084],[123.8119,24.4113],[123.805,24.4131],[123.8011,24.4156],[123.7999,24.4187],[123.7998,24.4224],[123.7923,24.4271],[123.782,24.4373]]],[[[123.7871,24.0717],[123.7767,24.0714],[123.7696,24.0681],[123.7688,24.0684],[123.7635,24.0649],[123.7542,24.0629],[123.7538,24.0611],[123.7548,24.0588],[123.7534,24.0572],[123.7531,24.0531],[123.7571,24.0494],[123.7604,24.0485],[123.765,24.0486],[123.7669,24.0477],[123.7724,24.0476],[123.7749,24.0468],[123.782,24.0478],[123.7847,24.0459],[123.7883,24.0456],[123.7953,24.0459],[123.796,24.0476],[123.7989,24.049],[123.803,24.0489],[123.805,24.0503],[123.8058,24.0532],[123.8099,24.0586],[123.8106,24.0608],[123.809,24.0651],[123.8031,24.068],[123.7962,24.0702],[123.7871,24.0717]]],[[[124.0042,24.2539],[124.0036,24.2523],[124.0006,24.2542],[123.9983,24.254],[123.9932,24.2505],[123.991,24.2473],[123.9912,24.2413],[123.9924,24.2379],[123.9947,24.2365],[123.9961,24.233],[123.9985,24.2304],[124.0013,24.2242],[124.0041,24.2214],[124.0077,24.2204],[124.0109,24.2206],[124.0138,24.2215],[124.0269,24.2303],[124.0291,24.2332],[124.0302,24.2378],[124.0299,24.2419],[124.0287,24.2454],[124.0257,24.2494],[124.0243,24.25],[124.0217,24.2477],[124.0162,24.2471],[124.0037,24.2523],[124.0042,24.2539]]],[[[123.9744,24.3548],[123.9726,24.3548],[123.9647,24.3513],[123.9635,24.3484],[123.9692,24.3432],[123.9687,24.3384],[123.9626,24.3369],[123.9615,24.3358],[123.9539,24.3366],[123.9517,24.333],[123.9544,24.3319],[123.9551,24.333],[123.9607,24.3342],[123.963,24.3327],[123.9707,24.3326],[123.9716,24.3317],[123.9862,24.3304],[123.9884,24.3289],[123.9889,24.3245],[123.9916,24.3235],[123.9936,24.3235],[123.9967,24.3254],[124.0026,24.3268],[124.0037,24.3295],[124.0024,24.3327],[123.9995,24.335],[123.9949,24.3361],[123.9922,24.3378],[123.9897,24.3409],[123.9893,24.3429],[123.9912,24.3439],[123.9923,24.3468],[123.9836,24.3521],[123.9744,24.3548]]],[[[124.0869,24.3405],[124.0834,24.3394],[124.0806,24.3361],[124.0792,24.328],[124.0782,24.3259],[124.076,24.3253],[124.077,24.3218],[124.0766,24.3206],[124.0786,24.3158],[124.0802,24.3134],[124.0847,24.3118],[124.0926,24.3137],[124.0978,24.3187],[124.102,24.3209],[124.099,24.3289],[124.0955,24.3332],[124.0953,24.3344],[124.0929,24.3369],[124.0869,24.3405]]],[[[123.7313,24.363],[123.7334,24.3646],[123.7309,24.3654],[123.7299,24.363],[123.7284,24.3629],[123.7242,24.3645],[123.7241,24.3592],[123.7269,24.3572],[123.7303,24.3528],[123.7419,24.3458],[123.7446,24.3481],[123.7435,24.3509],[123.7439,24.354],[123.7416,24.3555],[123.7414,24.3571],[123.7394,24.3583],[123.7358,24.3589],[123.7317,24.3612],[123.7313,24.363]]],[[[123.9506,24.2428],[123.9485,24.2424],[123.939,24.2347],[123.939,24.2322],[123.9364,24.2284],[123.9361,24.2258],[123.9382,24.2248],[123.9417,24.2258],[123.9462,24.2307],[123.9491,24.2323],[123.9544,24.2374],[123.9545,24.2396],[123.9524,24.2422],[123.9506,24.2428]]],[[[123.9345,24.2214],[123.9292,24.2205],[123.9251,24.2208],[123.9208,24.2175],[123.9256,24.2112],[123.9299,24.209],[123.9323,24.2089],[123.9359,24.2119],[123.9366,24.2144],[123.9366,24.2173],[123.9348,24.2192],[123.9345,24.2214]]],[[[123.7251,24.3801],[123.7129,24.377],[123.7111,24.374],[123.7115,24.3706],[123.7186,24.3652],[123.7198,24.3672],[123.7204,24.3727],[123.7222,24.3756],[123.7234,24.3765],[123.7267,24.3767],[123.7284,24.3779],[123.7251,24.3801]]],[[[123.8174,24.4772],[123.8152,24.4769],[123.8137,24.4747],[123.8139,24.4733],[123.8169,24.4692],[123.8197,24.4679],[123.8244,24.468],[123.8254,24.4688],[123.8264,24.4717],[123.8251,24.4742],[123.8233,24.4759],[123.8174,24.4772]]],[[[123.9995,24.3668],[123.9957,24.3643],[123.9964,24.3623],[124.0011,24.3602],[124.0044,24.3619],[123.9995,24.3668]]],[[[123.5644,24.1964],[123.561,24.1953],[123.5611,24.1924],[123.5632,24.1941],[123.569,24.1953],[123.5694,24.1964],[123.5649,24.1957],[123.5644,24.1964]]],[[[123.9357,24.3467],[123.9344,24.3461],[123.9346,24.3439],[123.9329,24.3439],[123.9306,24.3425],[123.9313,24.3412],[123.9339,24.3418],[123.9355,24.3433],[123.9362,24.3457],[123.9357,24.3467]]]]}},{"type":"Feature","id":"Yonaguni","properties":{"id":"Yonaguni","code":47382,"name":"Yonaguni","name_full":"与那国町","name_ja":"与那国町","name_short_ja":"与那国","center_lonlat":[122.9891,24.4553]},"geometry":{"type":"Polygon","coordinates":[[[123.0066,24.4744],[123.0048,24.4742],[123.0014,24.4703],[122.9991,24.47],[122.9951,24.4731],[122.9903,24.4718],[122.9893,24.4708],[122.9797,24.4685],[122.9771,24.4686],[122.9744,24.4673],[122.9734,24.4684],[122.9707,24.468],[122.9705,24.4694],[122.9677,24.4697],[122.9626,24.4726],[122.9553,24.4667],[122.955,24.462],[122.9506,24.4598],[122.9434,24.4582],[122.9411,24.456],[122.9413,24.4539],[122.9427,24.4519],[122.9393,24.4481],[122.9367,24.4505],[122.9349,24.4509],[122.9339,24.4487],[122.9357,24.4472],[122.939,24.4464],[122.9402,24.4441],[122.9481,24.4443],[122.952,24.4411],[122.9549,24.442],[122.9633,24.44],[122.9666,24.4376],[122.9738,24.4371],[122.9749,24.4386],[122.982,24.4381],[122.9817,24.4405],[122.9826,24.4421],[122.9845,24.443],[122.9886,24.4408],[122.99,24.4414],[122.9972,24.4397],[123.0023,24.4413],[123.0069,24.4383],[123.0092,24.4383],[123.0105,24.4367],[123.012,24.4374],[123.0143,24.4406],[123.0168,24.4413],[123.0179,24.4431],[123.0194,24.4437],[123.0203,24.4456],[123.0295,24.4499],[123.0346,24.4543],[123.0342,24.4564],[123.035,24.4573],[123.0429,24.4604],[123.0437,24.4626],[123.042,24.464],[123.0385,24.4629],[123.02,24.4711],[123.0161,24.4709],[123.0157,24.4722],[123.0127,24.4737],[123.0075,24.4734],[123.0066,24.4744]]]}}]}
