{"type":"FeatureCollection","features":[{"type":"Feature","id":"Badakhshan","properties":{"id":"Badakhshan","iso_code":"AF-BDS","name":"Badakhshan","name_full":"Badakhshan","name_ja":"バダフシャーン州","center_lonlat":[71.4402,37.0343]},"geometry":{"type":"Polygon","coordinates":[[[71.1699,36.0308],[71.0846,35.9419],[71.0671,35.8648],[71.0243,35.8049],[70.9732,35.7754],[70.9689,35.7396],[71.0137,35.6992],[70.96,35.6424],[70.8779,35.6257],[70.8661,35.6003],[70.8827,35.5163],[70.8644,35.4842],[70.7577,35.4888],[70.7299,35.4975],[70.6872,35.537],[70.6508,35.5107],[70.6418,35.4721],[70.6249,35.4594],[70.5769,35.4424],[70.5435,35.4463],[70.5358,35.4985],[70.5547,35.5669],[70.4994,35.6221],[70.4794,35.6669],[70.3838,35.6981],[70.294,35.6606],[70.2312,35.6704],[70.254,35.8054],[70.2734,35.8502],[70.3005,35.8795],[70.4618,35.9705],[70.429,36.0379],[70.4748,36.1496],[70.4725,36.2836],[70.4406,36.3039],[70.235,36.3223],[70.1396,36.4049],[70.0384,36.4621],[70.0374,36.5153],[70.0038,36.6151],[70.0066,36.9223],[70.0374,36.9412],[70.0564,36.9797],[70.0962,36.9961],[70.1241,37.0425],[70.033,37.1351],[70.0344,37.1884],[70.0043,37.2762],[70.0183,37.3592],[70.0417,37.3873],[70.0051,37.4077],[70.0042,37.5514],[70.1291,37.5323],[70.1579,37.5414],[70.1994,37.5793],[70.2165,37.6171],[70.2483,37.6233],[70.2536,37.6546],[70.2751,37.6755],[70.2831,37.7048],[70.2751,37.7742],[70.2403,37.8276],[70.196,37.8399],[70.1792,37.8608],[70.1605,37.9207],[70.1721,37.9461],[70.2147,37.9293],[70.2615,37.9393],[70.2539,37.9734],[70.2838,37.9819],[70.4154,38.0945],[70.4703,38.1205],[70.5472,38.2627],[70.5831,38.2751],[70.6,38.3471],[70.6414,38.3542],[70.6848,38.3867],[70.6649,38.4054],[70.7418,38.4194],[70.7773,38.4465],[70.843,38.4402],[70.871,38.4532],[70.9362,38.433],[70.9468,38.4432],[70.9435,38.4659],[70.974,38.4737],[71.0086,38.4586],[71.0498,38.4087],[71.1174,38.3986],[71.2177,38.3258],[71.3344,38.2807],[71.3582,38.2513],[71.3591,38.1841],[71.3024,38.0423],[71.2726,37.998],[71.2583,37.9265],[71.3412,37.8933],[71.5012,37.9462],[71.5371,37.9445],[71.5977,37.8984],[71.5903,37.8157],[71.5295,37.7611],[71.5409,37.7097],[71.5221,37.6376],[71.5015,37.6103],[71.4972,37.5665],[71.5112,37.4859],[71.4871,37.4091],[71.4939,37.3075],[71.487,37.2671],[71.4501,37.2167],[71.4311,37.067],[71.46,37.0107],[71.4631,36.9481],[71.5285,36.8561],[71.5639,36.7507],[71.6111,36.7048],[71.653,36.687],[71.7485,36.6786],[71.8366,36.6992],[72.1267,36.8727],[72.2598,36.9673],[72.4059,37.0077],[72.475,36.9975],[72.6577,37.0288],[72.7907,37.2203],[72.9022,37.2538],[72.9956,37.3093],[73.0675,37.3151],[73.1321,37.3844],[73.1702,37.4083],[73.2115,37.4083],[73.2963,37.4649],[73.3784,37.4525],[73.4406,37.4799],[73.4853,37.481],[73.6745,37.431],[73.7535,37.4284],[73.7391,37.3383],[73.6904,37.3052],[73.631,37.296],[73.5973,37.2618],[73.6016,37.2409],[73.6177,37.2332],[73.6805,37.2425],[73.7092,37.217],[73.7461,37.2305],[73.7982,37.2285],[73.8362,37.2567],[74.1876,37.3384],[74.2239,37.4034],[74.3038,37.4002],[74.3156,37.4269],[74.3209,37.4139],[74.3438,37.421],[74.3781,37.3938],[74.4548,37.3936],[74.5212,37.3756],[74.6314,37.3811],[74.6604,37.394],[74.7885,37.3312],[74.8626,37.2446],[74.8923,37.2311],[74.794,37.2139],[74.7374,37.2961],[74.7215,37.2978],[74.6763,37.2637],[74.651,37.2596],[74.6233,37.2308],[74.59,37.2434],[74.4873,37.2259],[74.4567,37.1773],[74.3823,37.172],[74.3683,37.1671],[74.3661,37.1478],[74.4144,37.1078],[74.4766,37.0831],[74.5192,37.0302],[74.5424,37.0217],[74.5374,36.9622],[74.5214,36.9585],[74.457,37.0044],[74.394,36.994],[74.2357,36.9022],[74.1297,36.8984],[74.1153,36.8895],[74.0943,36.8312],[74.0353,36.8156],[73.9469,36.8309],[73.8651,36.8726],[73.7729,36.892],[73.3318,36.8821],[73.2675,36.8665],[73.1918,36.877],[73.0425,36.8643],[72.9905,36.8416],[72.9459,36.8522],[72.8677,36.8304],[72.6296,36.8329],[72.5167,36.8006],[72.4541,36.758],[72.2136,36.7264],[72.1535,36.7021],[72.1496,36.6893],[72.1716,36.6536],[72.0591,36.6271],[72.055,36.5929],[72.0388,36.5805],[71.977,36.563],[71.8747,36.4991],[71.7732,36.48],[71.7944,36.4076],[71.7826,36.3965],[71.7363,36.3959],[71.6493,36.4528],[71.6104,36.4579],[71.5804,36.4023],[71.5472,36.3716],[71.5422,36.3564],[71.5584,36.3279],[71.4791,36.3005],[71.3824,36.2186],[71.3191,36.2006],[71.3021,36.1633],[71.2231,36.1254],[71.2076,36.0876],[71.1659,36.0457],[71.1699,36.0308]]]}},{"type":"Feature","id":"Badghis","properties":{"id":"Badghis","iso_code":"AF-BDG","name":"Badghis","name_full":"Badghis","name_ja":"バードギース州","center_lonlat":[63.7391,35.1454]},"geometry":{"type":"Polygon","coordinates":[[[63.9063,36.0317],[63.9357,36.0177],[63.9474,35.9438],[63.9164,35.7801],[63.8874,35.7205],[63.9462,35.6917],[63.9886,35.6459],[64.0013,35.6092],[64.0025,35.5017],[64.0271,35.4872],[64.2471,35.4684],[64.2622,35.4455],[64.2511,35.4189],[64.2983,35.3984],[64.4158,35.4177],[64.4251,35.3889],[64.4057,35.2573],[64.4164,35.2368],[64.6142,35.1993],[64.7301,35.2131],[64.7649,35.1666],[64.8141,35.1419],[64.868,35.1338],[64.9246,35.0756],[64.9994,35.0258],[65.0473,34.9397],[65.0242,34.8117],[65.0108,34.7892],[64.9656,34.7654],[64.7871,34.7249],[64.721,34.6975],[64.5294,34.7111],[64.4963,34.7003],[64.4763,34.6714],[64.3655,34.6647],[64.3092,34.6799],[64.2018,34.6803],[64.1501,34.6562],[64.1242,34.6172],[64.0789,34.6068],[64.0117,34.5622],[63.7855,34.5094],[63.7268,34.539],[63.6503,34.5575],[63.6078,34.5479],[63.5319,34.5607],[63.4331,34.6128],[63.3603,34.6346],[63.2442,34.6449],[63.1733,34.6107],[63.1109,34.6354],[63.0343,34.6456],[63.0262,34.6908],[62.9947,34.7263],[62.9126,34.7319],[62.8198,34.7753],[62.7508,34.8247],[62.6718,34.8413],[62.655,34.872],[62.6642,35.0061],[62.6898,35.0921],[62.7842,35.227],[62.8231,35.3275],[62.9182,35.3882],[63.0802,35.4371],[63.1007,35.525],[63.0774,35.5588],[63.0766,35.6247],[63.1032,35.646],[63.1799,35.6665],[63.2144,35.6993],[63.112,35.7699],[63.0844,35.8261],[63.1041,35.8565],[63.3429,35.8563],[63.4302,35.871],[63.5111,35.9018],[63.5821,35.959],[63.7659,35.9773],[63.9063,36.0317]]]}},{"type":"Feature","id":"Baghlan","properties":{"id":"Baghlan","iso_code":"AF-BGL","name":"Baghlan","name_full":"Baghlan","name_ja":"バグラーン州","center_lonlat":[68.9114,35.799]},"geometry":{"type":"Polygon","coordinates":[[[69.961,35.8099],[69.9486,35.7836],[69.9064,35.7632],[69.8709,35.7156],[69.8176,35.7056],[69.7914,35.6733],[69.7489,35.5411],[69.6989,35.5291],[69.5561,35.4562],[69.4569,35.4578],[69.4029,35.4163],[69.2635,35.3924],[69.2409,35.4154],[69.1853,35.4201],[69.1439,35.3867],[69.0691,35.3572],[69.0281,35.3075],[68.9789,35.2941],[68.9139,35.2483],[68.8958,35.246],[68.8542,35.2697],[68.8155,35.2605],[68.742,35.1824],[68.6518,35.1282],[68.6,35.117],[68.6032,35.0761],[68.5756,35.0639],[68.3762,35.0548],[68.2814,35.0725],[68.2552,35.0423],[68.184,35.0096],[68.1637,35.0083],[68.1221,35.0356],[68.0718,35.0322],[68.0155,35.0644],[68.0097,35.1655],[68.0296,35.1931],[68.0611,35.2089],[68.101,35.3079],[68.0937,35.3439],[68.1061,35.3761],[68.0885,35.4612],[68.1425,35.507],[68.1534,35.5411],[68.1888,35.5831],[68.1941,35.6133],[68.1518,35.6422],[68.1512,35.6628],[68.1635,35.6902],[68.3117,35.8535],[68.333,35.9817],[68.4673,36.0733],[68.5314,36.1526],[68.4914,36.1966],[68.3714,36.2637],[68.2071,36.4648],[68.1727,36.5212],[68.1936,36.5538],[68.2395,36.5712],[68.3224,36.5481],[68.5385,36.5411],[68.6233,36.5217],[68.7228,36.5343],[68.7986,36.4476],[68.8531,36.4146],[68.9145,36.4332],[68.987,36.4219],[69.0618,36.3653],[69.1904,36.3288],[69.2207,36.297],[69.2683,36.2751],[69.2969,36.2298],[69.3302,36.2394],[69.3445,36.2296],[69.4441,36.2472],[69.5227,36.2955],[69.6811,36.3501],[69.7118,36.2408],[69.7658,36.233],[69.7777,36.2136],[69.7881,36.0991],[69.8685,36.0336],[69.9564,35.887],[69.961,35.8099]]]}},{"type":"Feature","id":"Balkh","properties":{"id":"Balkh","iso_code":"AF-BAL","name":"Balkh","name_full":"Balkh","name_ja":"バルフ州","center_lonlat":[67.0928,36.6815]},"geometry":{"type":"Polygon","coordinates":[[[68.0248,36.9255],[68.0381,36.817],[68.0921,36.7112],[68.175,36.6278],[68.1891,36.5932],[68.0799,36.5622],[67.8324,36.5896],[67.688,36.6479],[67.614,36.6316],[67.5001,36.6402],[67.4613,36.6005],[67.3858,36.5751],[67.3718,36.5588],[67.4201,36.4716],[67.3822,36.3706],[67.3738,36.2894],[67.3333,36.2509],[67.3349,36.2116],[67.2677,36.1532],[67.1819,36.1383],[67.0675,36.0639],[67.1242,35.9808],[67.12,35.9335],[67.003,35.8218],[66.928,35.7797],[66.9049,35.7181],[66.7997,35.6748],[66.6842,35.668],[66.6631,35.692],[66.503,35.676],[66.5353,35.7434],[66.586,35.779],[66.6298,35.8756],[66.6104,35.9923],[66.592,36.0204],[66.6043,36.07],[66.6023,36.1634],[66.5444,36.1741],[66.4614,36.2242],[66.5275,36.3099],[66.5892,36.4337],[66.6636,36.5086],[66.6802,36.5421],[66.6644,36.5622],[66.5273,36.5877],[66.4799,36.6232],[66.4623,36.7051],[66.4175,36.7393],[66.4261,36.7566],[66.4699,36.7747],[66.5159,36.7683],[66.5677,36.7891],[66.5435,36.8797],[66.4628,36.9905],[66.5036,37.1124],[66.4346,37.1852],[66.402,37.2563],[66.2552,37.3025],[66.2508,37.3597],[66.2944,37.3312],[66.4135,37.3496],[66.4511,37.3229],[66.539,37.3691],[66.6941,37.3434],[66.735,37.3633],[67.0059,37.3844],[67.0974,37.3406],[67.1233,37.282],[67.1878,37.2582],[67.2368,37.1924],[67.2591,37.1851],[67.3912,37.2196],[67.5031,37.282],[67.5261,37.2729],[67.5614,37.2199],[67.5923,37.2472],[67.6332,37.2541],[67.6775,37.2335],[67.7466,37.2294],[67.776,37.2075],[67.7731,37.11],[67.7853,37.0965],[67.8781,37.0644],[67.9184,37.0138],[67.9618,36.9899],[68.0248,36.9255]]]}},{"type":"Feature","id":"Bamyan","properties":{"id":"Bamyan","iso_code":"AF-BAM","name":"Bamyan","name_full":"Bamyan","name_ja":"バーミヤーン州","center_lonlat":[67.2377,34.8032]},"geometry":{"type":"Polygon","coordinates":[[[67.4314,34.1386],[67.3774,34.0995],[67.347,34.0366],[67.3147,34.0109],[67.1983,33.9921],[67.1619,33.9562],[67.1226,33.9749],[67.0335,33.9379],[66.9606,33.9738],[66.7832,34.0039],[66.6446,33.9744],[66.5873,34.0001],[66.5159,34.0611],[66.516,34.1145],[66.5499,34.1922],[66.5304,34.2611],[66.5801,34.3068],[66.552,34.3278],[66.4846,34.3389],[66.4676,34.3602],[66.487,34.3892],[66.5578,34.4287],[66.6126,34.4418],[66.6614,34.437],[66.7359,34.4874],[66.7103,34.5275],[66.7151,34.5566],[66.7646,34.6006],[66.7729,34.6289],[66.7547,34.6547],[66.7077,34.6815],[66.6378,34.6853],[66.6464,34.71],[66.6009,34.7387],[66.577,34.7929],[66.5194,34.8443],[66.4366,34.8953],[66.3636,34.9142],[66.3379,34.9318],[66.3306,34.9574],[66.3551,35.0801],[66.3351,35.1147],[66.3577,35.1715],[66.3925,35.1857],[66.5565,35.1733],[66.669,35.2028],[66.7469,35.3128],[66.7966,35.3632],[66.8346,35.3752],[66.9164,35.3529],[67.0168,35.3525],[67.3062,35.4366],[67.4036,35.4229],[67.5735,35.4694],[67.7439,35.4434],[67.819,35.4594],[67.8611,35.4352],[68.0885,35.4612],[68.1061,35.3761],[68.0937,35.3439],[68.101,35.3079],[68.0611,35.2089],[68.0296,35.1931],[68.0097,35.1655],[68.0155,35.0644],[68.0718,35.0322],[68.1221,35.0356],[68.1637,35.0083],[68.184,35.0096],[68.2366,34.9632],[68.2535,34.8858],[68.2471,34.8255],[68.2827,34.8003],[68.1676,34.751],[68.093,34.6878],[68.039,34.6859],[68.0018,34.648],[67.9743,34.596],[67.7289,34.6448],[67.5728,34.6537],[67.507,34.6811],[67.4604,34.6624],[67.299,34.635],[67.2903,34.6203],[67.3003,34.5925],[67.3464,34.5523],[67.3474,34.5272],[67.3248,34.5056],[67.2697,34.4905],[67.2483,34.4516],[67.2511,34.4309],[67.2767,34.4154],[67.4097,34.409],[67.4249,34.3959],[67.427,34.3709],[67.3804,34.3387],[67.4344,34.3283],[67.5481,34.2777],[67.5096,34.2317],[67.4221,34.2004],[67.4094,34.161],[67.4314,34.1386]]]}},{"type":"Feature","id":"Farah","properties":{"id":"Farah","iso_code":"AF-FRA","name":"Farah","name_full":"Farah","name_ja":"ファラー州","center_lonlat":[62.2844,32.6035]},"geometry":{"type":"Polygon","coordinates":[[[61.6063,31.3887],[60.8217,31.4947],[60.7926,31.6601],[60.8053,31.734],[60.7915,31.8265],[60.795,31.9585],[60.784,31.9893],[60.7926,32.0113],[60.7749,32.0272],[60.8148,32.0879],[60.8303,32.2489],[60.5775,32.9943],[60.5615,33.1373],[60.757,33.3663],[60.8291,33.4163],[60.8322,33.4845],[60.9121,33.5015],[60.9198,33.5126],[61.2324,33.4568],[61.3765,33.4697],[61.4515,33.4597],[61.4908,33.4737],[61.5176,33.5075],[61.5502,33.516],[61.6438,33.506],[61.6572,33.4933],[61.8474,33.4765],[61.859,33.4524],[61.8289,33.4084],[61.8231,33.3428],[61.755,33.2717],[61.7989,33.2276],[61.8433,33.1558],[61.6767,33.012],[61.6663,32.9125],[61.6905,32.8919],[61.7785,32.8817],[61.8557,32.8168],[61.9647,32.8921],[61.9954,32.8975],[62.0122,32.8198],[62.0452,32.7832],[62.0823,32.7861],[62.1507,32.8264],[62.3489,32.8427],[62.3796,32.9274],[62.3835,32.9839],[62.5087,33.0577],[62.5359,33.0625],[62.5854,33.0458],[62.6453,33.0543],[62.701,33.073],[62.7416,33.1213],[62.7944,33.1202],[62.9168,33.1513],[62.9272,33.1264],[63.0146,33.1539],[63.0439,33.1804],[63.0926,33.2945],[63.1403,33.3195],[63.2068,33.3071],[63.2964,33.3285],[63.5511,33.344],[63.6818,33.4049],[63.8074,33.424],[63.8886,33.4969],[63.9587,33.5167],[64.0115,33.4874],[64.0684,33.4094],[64.1022,33.341],[64.1073,33.2782],[64.1504,33.2641],[64.2294,33.159],[64.2547,33.1643],[64.3315,33.1226],[64.3993,33.1408],[64.4027,33.1529],[64.3764,33.1823],[64.4755,33.2276],[64.5229,33.3097],[64.5511,33.323],[64.608,33.283],[64.6802,33.2785],[64.694,33.247],[64.7252,33.2278],[64.7384,33.2087],[64.6971,33.1659],[64.6994,33.1407],[64.7159,33.1334],[64.6144,33.0669],[64.5627,33.0105],[64.5732,32.9955],[64.5405,32.9385],[64.578,32.9214],[64.5744,32.9088],[64.3954,32.8489],[64.3416,32.7915],[64.3346,32.7677],[64.2667,32.7195],[64.2552,32.6887],[64.301,32.6642],[64.2846,32.6215],[64.1774,32.5722],[64.0437,32.5575],[64.0297,32.5755],[64.0142,32.5717],[63.996,32.5337],[64.0227,32.4668],[64.0144,32.4449],[63.9524,32.4002],[63.9177,32.4039],[63.8468,32.3555],[63.8267,32.3225],[63.7265,32.3196],[63.6498,32.258],[63.5301,32.2002],[63.1575,32.2526],[63.1024,32.2009],[63.0818,32.0694],[63.0337,32.018],[62.9812,31.9898],[62.8622,31.9757],[62.7433,31.93],[62.6009,32.0549],[62.5394,32.0718],[62.3945,32.0435],[61.9792,32.0211],[61.972,32.0049],[61.9845,31.9459],[61.8883,31.8833],[61.8947,31.8157],[61.8856,31.794],[61.802,31.7166],[61.724,31.6062],[61.6651,31.5979],[61.6683,31.516],[61.6373,31.4993],[61.6053,31.5175],[61.6298,31.4694],[61.6272,31.427],[61.6063,31.3887]]]}},{"type":"Feature","id":"Faryab","properties":{"id":"Faryab","iso_code":"AF-FYB","name":"Faryab","name_full":"Faryab","name_ja":"ファーリヤーブ州","center_lonlat":[64.8634,36.0639]},"geometry":{"type":"Polygon","coordinates":[[[65.4879,37.242],[65.367,37.0703],[65.3314,36.9509],[65.3403,36.9068],[65.3921,36.8537],[65.4036,36.8115],[65.4446,36.7587],[65.4168,36.6504],[65.3924,36.6196],[65.4475,36.5788],[65.4329,36.4989],[65.4848,36.3856],[65.4571,36.3648],[65.2779,36.3612],[65.2455,36.3459],[65.2113,36.2449],[65.216,36.1468],[65.171,36.0999],[65.1817,36.0486],[65.1074,35.9939],[65.1023,35.9744],[65.162,35.9318],[65.2616,35.948],[65.2757,35.9295],[65.3076,35.9365],[65.4153,35.9095],[65.4886,35.9192],[65.5254,35.9594],[65.5765,35.9279],[65.668,35.9671],[65.6852,36.0004],[65.7267,36.0212],[65.7554,36.0086],[65.74,35.9609],[65.7917,35.8974],[65.8041,35.8427],[65.8167,35.8366],[65.7929,35.7933],[65.68,35.7874],[65.6793,35.7466],[65.623,35.6761],[65.5284,35.6793],[65.4801,35.6459],[65.4703,35.6076],[65.4859,35.5566],[65.4401,35.4724],[65.4129,35.4518],[65.4076,35.4232],[65.4101,35.3215],[65.4514,35.2539],[65.382,35.2039],[65.3328,35.1883],[65.2928,35.1964],[65.2663,35.187],[65.2442,35.2377],[65.2002,35.2247],[65.133,35.2565],[65.0174,35.2197],[65.0032,35.2387],[64.912,35.2128],[64.8542,35.2398],[64.7301,35.2131],[64.6142,35.1993],[64.4164,35.2368],[64.4057,35.2573],[64.4251,35.3889],[64.4158,35.4177],[64.2983,35.3984],[64.2511,35.4189],[64.2622,35.4455],[64.2471,35.4684],[64.0271,35.4872],[64.0025,35.5017],[64.0013,35.6092],[63.9886,35.6459],[63.9462,35.6917],[63.8874,35.7205],[63.9164,35.7801],[63.9474,35.9438],[63.9357,36.0177],[63.9063,36.0317],[64.0451,35.9987],[64.0362,36.0764],[64.0573,36.1052],[64.1587,36.1603],[64.1959,36.1659],[64.2661,36.1525],[64.3037,36.2115],[64.4446,36.25],[64.4982,36.2914],[64.5767,36.3896],[64.6059,36.4611],[64.6105,36.5009],[64.5888,36.6005],[64.6048,36.6606],[64.7788,36.9385],[64.7556,37.0536],[64.7602,37.0926],[64.7788,37.118],[64.9891,37.2137],[65.0631,37.2332],[65.4879,37.242]]]}},{"type":"Feature","id":"Ghazni","properties":{"id":"Ghazni","iso_code":"AF-GHA","name":"Ghazni","name_full":"Ghazni","name_ja":"ガズニー州","center_lonlat":[67.8075,33.3176]},"geometry":{"type":"Polygon","coordinates":[[[66.8292,33.2809],[66.8603,33.4266],[66.8295,33.5264],[66.8444,33.5802],[66.9589,33.629],[67.0453,33.6386],[67.1608,33.6712],[67.3509,33.8462],[67.3793,33.8601],[67.3625,33.9235],[67.3276,33.9473],[67.3676,34.0121],[67.347,34.0366],[67.3774,34.0995],[67.4314,34.1386],[67.5265,34.1424],[67.5627,34.1903],[67.6475,34.2082],[67.7405,34.1918],[67.8075,34.1496],[67.8673,34.144],[67.9594,34.1657],[68.0324,34.203],[68.0543,34.1988],[68.1125,34.1473],[68.1452,33.9563],[68.2304,33.9269],[68.4042,33.7861],[68.4562,33.7865],[68.4653,33.7645],[68.4512,33.7144],[68.4569,33.6945],[68.5185,33.6764],[68.5542,33.6808],[68.6456,33.7269],[68.7119,33.7901],[68.7459,33.7742],[68.7727,33.7153],[68.7448,33.677],[68.7609,33.6613],[68.7724,33.613],[68.7733,33.5227],[68.8002,33.464],[68.7688,33.3933],[68.6853,33.326],[68.643,33.2321],[68.5832,33.1749],[68.4779,33.1033],[68.4246,32.975],[68.2728,32.8358],[68.267,32.8063],[68.2333,32.7724],[68.1528,32.7306],[68.0447,32.7203],[67.9937,32.7458],[67.9081,32.817],[67.8188,32.7069],[67.8154,32.692],[67.8367,32.6719],[67.9293,32.6123],[67.9467,32.5783],[68.0572,32.5029],[68.0896,32.3999],[68.0778,32.3643],[68.0826,32.2753],[68.0681,32.2492],[68.0848,32.1789],[68.0513,32.0984],[68.0054,32.0732],[67.9211,32.0766],[67.8456,32.1248],[67.72,32.1589],[67.7214,32.2241],[67.707,32.2444],[67.6828,32.2574],[67.6326,32.2522],[67.63,32.2815],[67.6452,32.3063],[67.7251,32.3204],[67.7729,32.3567],[67.7807,32.3786],[67.734,32.4105],[67.6853,32.4203],[67.6582,32.4743],[67.5946,32.5137],[67.6637,32.5808],[67.6178,32.6014],[67.4657,32.7301],[67.4066,32.7989],[67.4076,32.8355],[67.4409,32.8523],[67.3768,32.8994],[67.4375,32.9411],[67.4185,32.9837],[67.4252,33.0091],[67.3983,33.0029],[67.3512,32.9524],[67.2942,32.9471],[67.2582,32.965],[67.2504,32.9887],[67.1895,32.9936],[67.1606,33.0571],[67.0955,33.0635],[67.0715,33.0494],[67.094,32.9925],[67.0536,32.9336],[67.0115,32.9271],[66.9301,32.9526],[66.9058,33.0321],[66.9156,33.133],[66.9997,33.1965],[66.9951,33.2385],[66.9722,33.2494],[66.8442,33.2491],[66.8292,33.2809]]]}},{"type":"Feature","id":"Ghor","properties":{"id":"Ghor","iso_code":"AF-GHO","name":"Ghor","name_full":"Ghōr","name_ja":"ゴール州","center_lonlat":[64.8924,34.1693]},"geometry":{"type":"Polygon","coordinates":[[[66.3636,34.9142],[66.4366,34.8953],[66.5194,34.8443],[66.577,34.7929],[66.6009,34.7387],[66.6464,34.71],[66.6378,34.6853],[66.7077,34.6815],[66.7547,34.6547],[66.7729,34.6289],[66.7646,34.6006],[66.7151,34.5566],[66.7103,34.5275],[66.7359,34.4874],[66.6614,34.437],[66.6126,34.4418],[66.5578,34.4287],[66.487,34.3892],[66.4645,34.3965],[66.3247,34.3765],[66.2774,34.3991],[66.2121,34.4063],[66.1553,34.3585],[66.0105,34.3584],[65.9455,34.321],[65.6249,34.3521],[65.5218,34.345],[65.4857,34.2133],[65.4952,34.1811],[65.4674,34.0751],[65.49,34.0391],[65.5195,34.0269],[65.5205,33.9733],[65.4695,33.9053],[65.4084,33.8848],[65.3994,33.8663],[65.4095,33.8339],[65.4872,33.7735],[65.5083,33.6783],[65.5674,33.6298],[65.5769,33.6048],[65.5144,33.5694],[65.4112,33.4843],[65.3799,33.4754],[65.3633,33.4525],[65.3703,33.4248],[65.2619,33.3895],[65.2191,33.363],[65.1587,33.3626],[64.9458,33.2464],[64.8901,33.2549],[64.8239,33.2044],[64.7919,33.2091],[64.7824,33.2468],[64.7252,33.2278],[64.694,33.247],[64.6802,33.2785],[64.608,33.283],[64.5511,33.323],[64.5229,33.3097],[64.4755,33.2276],[64.3764,33.1823],[64.4027,33.1529],[64.3993,33.1408],[64.3315,33.1226],[64.2547,33.1643],[64.2294,33.159],[64.1504,33.2641],[64.1073,33.2782],[64.1022,33.341],[64.0684,33.4094],[64.0115,33.4874],[63.9587,33.5167],[63.8886,33.4969],[63.8074,33.424],[63.6818,33.4049],[63.5511,33.344],[63.2964,33.3285],[63.2068,33.3071],[63.1403,33.3195],[63.13,33.3948],[63.0904,33.4602],[63.0932,33.4893],[63.0712,33.5177],[63.0746,33.5328],[63.1288,33.5704],[63.2411,33.6185],[63.4773,33.6597],[63.5158,33.7009],[63.5046,33.7672],[63.583,33.8028],[63.5383,33.857],[63.5163,33.9126],[63.4458,33.9749],[63.3879,34.074],[63.391,34.0952],[63.4767,34.211],[63.4931,34.2685],[63.7413,34.2685],[63.8499,34.2199],[63.9766,34.2178],[64.0062,34.2457],[64.0617,34.224],[64.118,34.2256],[64.195,34.2642],[64.2086,34.2873],[64.1882,34.3402],[64.1978,34.4699],[64.3014,34.4776],[64.4048,34.5202],[64.4398,34.4901],[64.4816,34.4924],[64.4596,34.5594],[64.4763,34.6714],[64.4963,34.7003],[64.5294,34.7111],[64.721,34.6975],[64.7871,34.7249],[64.9656,34.7654],[65.0108,34.7892],[65.0242,34.8117],[65.0473,34.9397],[64.9994,35.0258],[64.9246,35.0756],[64.868,35.1338],[64.8141,35.1419],[64.7649,35.1666],[64.7301,35.2131],[64.8542,35.2398],[64.912,35.2128],[65.0032,35.2387],[65.0174,35.2197],[65.133,35.2565],[65.2002,35.2247],[65.2442,35.2377],[65.2663,35.187],[65.2928,35.1964],[65.3328,35.1883],[65.382,35.2039],[65.4514,35.2539],[65.4716,35.2361],[65.5306,35.2366],[65.6423,35.2696],[65.6409,35.2463],[65.6858,35.2039],[65.7543,35.1927],[65.7602,35.1513],[65.7974,35.1082],[65.9079,35.0757],[66.0369,35.0628],[66.0477,35.014],[66.0262,34.9908],[66.0515,34.9692],[66.0395,34.9448],[66.0646,34.9345],[66.0794,34.9108],[66.1078,34.829],[66.105,34.7844],[66.1737,34.8314],[66.1759,34.8528],[66.2048,34.8578],[66.2133,34.8766],[66.2395,34.8852],[66.2401,34.9162],[66.3232,34.9009],[66.3636,34.9142]]]}},{"type":"Feature","id":"Helmand","properties":{"id":"Helmand","iso_code":"AF-HEL","name":"Helmand","name_full":"Helmand","name_ja":"ヘルマンド州","center_lonlat":[64.0437,31.1233]},"geometry":{"type":"Polygon","coordinates":[[[64.4995,29.5702],[64.2077,29.5],[64.1726,29.4843],[64.1134,29.3963],[64.0861,29.3866],[63.972,29.4296],[63.5686,29.4975],[62.6026,29.4181],[62.721,29.907],[62.7184,30.0063],[62.7587,30.0732],[62.7675,30.2045],[62.8493,30.2415],[62.8899,30.2764],[62.9623,30.366],[63.0115,30.4569],[63.0923,30.5187],[63.0984,30.5393],[63.0619,30.6088],[63.0852,30.6502],[63.0574,30.6818],[63.1565,30.7737],[63.1431,30.9364],[63.2259,30.9859],[63.2855,31.0835],[63.3429,31.1253],[63.3496,31.25],[63.3164,31.3166],[63.3527,31.375],[63.3544,31.4802],[63.4076,31.8049],[63.4295,31.8603],[63.4978,31.9187],[63.5389,31.9963],[63.5336,32.0387],[63.5696,32.0799],[63.5384,32.1367],[63.5301,32.2002],[63.6498,32.258],[63.7265,32.3196],[63.8267,32.3225],[63.8468,32.3555],[63.9177,32.4039],[63.9524,32.4002],[64.0144,32.4449],[64.0227,32.4668],[63.996,32.5337],[64.0142,32.5717],[64.0297,32.5755],[64.0437,32.5575],[64.1774,32.5722],[64.2846,32.6215],[64.301,32.6642],[64.2552,32.6887],[64.2667,32.7195],[64.3346,32.7677],[64.3416,32.7915],[64.3954,32.8489],[64.5744,32.9088],[64.578,32.9214],[64.5405,32.9385],[64.5732,32.9955],[64.5627,33.0105],[64.6144,33.0669],[64.7159,33.1334],[64.6994,33.1407],[64.6971,33.1659],[64.7384,33.2087],[64.7252,33.2278],[64.7824,33.2468],[64.7919,33.2091],[64.8239,33.2044],[64.8901,33.2549],[64.9458,33.2464],[65.1587,33.3626],[65.2191,33.363],[65.2582,33.3351],[65.2974,33.3301],[65.2965,33.2976],[65.3617,33.2202],[65.3482,33.0925],[65.3245,33.0925],[65.2886,33.0632],[65.285,33.0273],[65.2448,32.991],[65.1844,32.8962],[65.211,32.8582],[65.1976,32.801],[65.2081,32.7718],[65.1778,32.6853],[65.2069,32.6691],[65.2375,32.6698],[65.2697,32.6471],[65.2937,32.5589],[65.2641,32.5157],[65.2736,32.4401],[65.2354,32.3239],[65.2166,32.2641],[65.1665,32.231],[65.1494,32.1699],[65.1294,32.1526],[65.14,32.1373],[65.1099,32.0609],[65.0676,32.0554],[65.0101,32.0739],[64.9461,32.0444],[64.9203,32.0045],[64.9052,31.9254],[64.8123,31.8389],[64.7927,31.744],[64.8212,31.7163],[64.736,31.4251],[64.6737,30.7384],[64.6602,30.4153],[64.4995,29.5702]]]}},{"type":"Feature","id":"Herat","properties":{"id":"Herat","iso_code":"AF-HER","name":"Herat","name_full":"Herat","name_ja":"ヘラート州","center_lonlat":[62.1286,34.1897]},"geometry":{"type":"Polygon","coordinates":[[[62.8231,35.3275],[62.7842,35.227],[62.6898,35.0921],[62.6642,35.0061],[62.655,34.872],[62.6718,34.8413],[62.7508,34.8247],[62.8198,34.7753],[62.9126,34.7319],[62.9947,34.7263],[63.0262,34.6908],[63.0343,34.6456],[63.1109,34.6354],[63.1733,34.6107],[63.2442,34.6449],[63.3603,34.6346],[63.4331,34.6128],[63.5319,34.5607],[63.6078,34.5479],[63.6503,34.5575],[63.7268,34.539],[63.7855,34.5094],[64.0117,34.5622],[64.0789,34.6068],[64.1242,34.6172],[64.1501,34.6562],[64.2018,34.6803],[64.3092,34.6799],[64.3655,34.6647],[64.4763,34.6714],[64.4596,34.5594],[64.4816,34.4924],[64.4398,34.4901],[64.4048,34.5202],[64.3014,34.4776],[64.1978,34.4699],[64.1882,34.3402],[64.2086,34.2873],[64.195,34.2642],[64.118,34.2256],[64.0617,34.224],[64.0062,34.2457],[63.9766,34.2178],[63.8499,34.2199],[63.7413,34.2685],[63.4931,34.2685],[63.4767,34.211],[63.391,34.0952],[63.3879,34.074],[63.4458,33.9749],[63.5163,33.9126],[63.5383,33.857],[63.583,33.8028],[63.5046,33.7672],[63.5158,33.7009],[63.4773,33.6597],[63.2411,33.6185],[63.1288,33.5704],[63.0746,33.5328],[63.0712,33.5177],[63.0932,33.4893],[63.0904,33.4602],[63.13,33.3948],[63.1403,33.3195],[63.0926,33.2945],[63.0439,33.1804],[63.0146,33.1539],[62.9272,33.1264],[62.9168,33.1513],[62.7944,33.1202],[62.7416,33.1213],[62.701,33.073],[62.6453,33.0543],[62.5854,33.0458],[62.5359,33.0625],[62.5087,33.0577],[62.3835,32.9839],[62.3796,32.9274],[62.3489,32.8427],[62.1507,32.8264],[62.0823,32.7861],[62.0452,32.7832],[62.0122,32.8198],[61.9954,32.8975],[61.9647,32.8921],[61.8557,32.8168],[61.7785,32.8817],[61.6905,32.8919],[61.6663,32.9125],[61.6767,33.012],[61.8433,33.1558],[61.7989,33.2276],[61.755,33.2717],[61.8231,33.3428],[61.8289,33.4084],[61.859,33.4524],[61.8474,33.4765],[61.6572,33.4933],[61.6438,33.506],[61.5502,33.516],[61.5176,33.5075],[61.4908,33.4737],[61.4515,33.4597],[61.3765,33.4697],[61.2324,33.4568],[60.9198,33.5126],[60.8951,33.5411],[60.846,33.5558],[60.6556,33.5599],[60.5748,33.5878],[60.5118,33.6384],[60.4869,33.7114],[60.5258,33.8021],[60.528,33.8415],[60.4868,34.0943],[60.4928,34.139],[60.5524,34.2201],[60.6506,34.2854],[60.6437,34.3066],[60.8905,34.3189],[60.7794,34.4551],[60.6997,34.5164],[60.7393,34.548],[60.8385,34.5709],[60.8954,34.6283],[60.9475,34.638],[60.962,34.6737],[60.9599,34.7232],[61.0096,34.761],[61.0348,34.8062],[61.0654,34.8147],[61.0748,34.9331],[61.1159,35.0599],[61.1473,35.1021],[61.1368,35.1112],[61.1399,35.1397],[61.0964,35.1932],[61.1124,35.202],[61.1025,35.2567],[61.1227,35.2877],[61.1871,35.3004],[61.1951,35.3901],[61.29,35.5481],[61.2697,35.6185],[61.3515,35.6278],[61.3609,35.621],[61.3515,35.6071],[61.3835,35.5865],[61.3803,35.5673],[61.3932,35.5536],[61.4277,35.5428],[61.5387,35.4523],[61.6047,35.4306],[61.7396,35.4138],[61.799,35.4175],[61.9194,35.4518],[62.0075,35.4389],[62.1363,35.3414],[62.2337,35.2938],[62.2512,35.2604],[62.251,35.2023],[62.2862,35.1406],[62.4319,35.2806],[62.4589,35.2819],[62.5355,35.2274],[62.6045,35.2194],[62.6936,35.2484],[62.7605,35.3024],[62.8231,35.3275]]]}},{"type":"Feature","id":"Jowzjan","properties":{"id":"Jowzjan","iso_code":"AF-JOW","name":"Jowzjan","name_full":"Jowzjan","name_ja":"ジューズジャーン州","center_lonlat":[65.8439,36.8268]},"geometry":{"type":"Polygon","coordinates":[[[66.2508,37.3597],[66.2552,37.3025],[66.402,37.2563],[66.4346,37.1852],[66.5036,37.1124],[66.4628,36.9905],[66.5435,36.8797],[66.5677,36.7891],[66.5159,36.7683],[66.4699,36.7747],[66.4261,36.7566],[66.4175,36.7393],[66.4623,36.7051],[66.4799,36.6232],[66.5273,36.5877],[66.483,36.5706],[66.2342,36.5354],[66.0715,36.5378],[66.0054,36.5081],[65.9669,36.4754],[65.8477,36.4503],[65.7119,36.3573],[65.5108,36.3313],[65.4907,36.0968],[65.5343,36.0446],[65.5271,35.9779],[65.6852,36.0004],[65.668,35.9671],[65.5765,35.9279],[65.5254,35.9594],[65.4886,35.9192],[65.4153,35.9095],[65.3076,35.9365],[65.2757,35.9295],[65.2616,35.948],[65.162,35.9318],[65.1023,35.9744],[65.1074,35.9939],[65.1817,36.0486],[65.171,36.0999],[65.216,36.1468],[65.2113,36.2449],[65.2455,36.3459],[65.2779,36.3612],[65.4571,36.3648],[65.4848,36.3856],[65.4329,36.4989],[65.4475,36.5788],[65.3924,36.6196],[65.4168,36.6504],[65.4446,36.7587],[65.4036,36.8115],[65.3921,36.8537],[65.3403,36.9068],[65.3314,36.9509],[65.367,37.0703],[65.4879,37.242],[65.5369,37.2571],[65.6241,37.3451],[65.621,37.4304],[65.6358,37.4741],[65.6688,37.5206],[65.7527,37.5379],[65.7614,37.5784],[65.8043,37.5653],[65.8552,37.5079],[66.0797,37.4409],[66.1429,37.3851],[66.2508,37.3597]]]}},{"type":"Feature","id":"Kabul","properties":{"id":"Kabul","iso_code":"AF-KAB","name":"Kabul","name_full":"Kabul","name_ja":"カーブル州","center_lonlat":[69.3229,34.5542]},"geometry":{"type":"Polygon","coordinates":[[[69.8971,34.8536],[69.9289,34.7802],[69.9278,34.7538],[69.8533,34.6816],[69.8507,34.616],[69.8234,34.5846],[69.8391,34.5299],[69.8093,34.4563],[69.812,34.411],[69.6626,34.3932],[69.6648,34.355],[69.6176,34.3011],[69.4804,34.2024],[69.4859,34.159],[69.4623,34.1431],[69.392,34.2487],[69.2815,34.3641],[69.1811,34.3095],[69.1169,34.3078],[68.9692,34.3491],[68.9462,34.4131],[68.8674,34.4458],[68.8419,34.4928],[68.8627,34.6222],[68.8757,34.6616],[68.8715,34.7042],[68.9091,34.7574],[68.9414,34.8421],[68.9828,34.8954],[69.0551,34.8801],[69.2098,34.8795],[69.2992,34.8322],[69.3467,34.7496],[69.395,34.7258],[69.4483,34.5912],[69.5233,34.6065],[69.5571,34.6554],[69.6043,34.6493],[69.6376,34.6393],[69.7192,34.6504],[69.7798,34.7781],[69.8574,34.8135],[69.8971,34.8536]]]}},{"type":"Feature","id":"Kandahar","properties":{"id":"Kandahar","iso_code":"AF-KAN","name":"Kandahar","name_full":"Kandahar","name_ja":"カンダハール州","center_lonlat":[65.7076,31.0448]},"geometry":{"type":"Polygon","coordinates":[[[67.7483,31.5444],[67.6655,31.5181],[67.569,31.5299],[67.5561,31.5122],[67.6115,31.4108],[67.6511,31.3953],[67.7343,31.4048],[67.7704,31.3947],[67.7751,31.3528],[67.7647,31.3341],[67.6928,31.3252],[67.5837,31.2652],[67.3462,31.2078],[67.2138,31.2123],[67.1368,31.2411],[67.0353,31.2359],[67.0153,31.2447],[67.026,31.273],[67.0168,31.3091],[66.9059,31.3055],[66.8385,31.277],[66.7595,31.2148],[66.697,31.1958],[66.6631,31.0831],[66.55,30.977],[66.3754,30.9367],[66.268,30.6014],[66.2649,30.5578],[66.3138,30.4783],[66.3218,30.4374],[66.3053,30.2448],[66.2193,30.0579],[66.3405,29.9566],[66.2752,29.8852],[66.1956,29.8353],[65.0364,29.5402],[64.8203,29.5679],[64.4995,29.5702],[64.6602,30.4153],[64.6737,30.7384],[64.736,31.4251],[64.8212,31.7163],[64.7927,31.744],[64.8123,31.8389],[64.9052,31.9254],[64.9203,32.0045],[64.9461,32.0444],[65.0101,32.0739],[65.0676,32.0554],[65.1099,32.0609],[65.14,32.1373],[65.1294,32.1526],[65.1494,32.1699],[65.1665,32.231],[65.2166,32.2641],[65.2354,32.3239],[65.2681,32.3024],[65.3331,32.3034],[65.4011,32.276],[65.4371,32.2769],[65.4263,32.3169],[65.4419,32.3503],[65.4639,32.3649],[65.4573,32.4273],[65.5057,32.4513],[65.5439,32.5276],[65.5976,32.5748],[65.715,32.5683],[65.7167,32.4398],[65.8066,32.488],[65.9993,32.4657],[66.0359,32.4287],[66.132,32.4203],[66.1706,32.4293],[66.1863,32.4702],[66.2099,32.4586],[66.2865,32.4701],[66.3266,32.4917],[66.3871,32.4832],[66.4448,32.557],[66.4774,32.5548],[66.5396,32.5073],[66.5239,32.4131],[66.4987,32.3722],[66.4312,32.3347],[66.4007,32.2753],[66.3255,32.2044],[66.3411,32.0929],[66.3107,32.0294],[66.3435,31.9875],[66.3297,31.9302],[66.2995,31.8954],[66.229,31.87],[66.1821,31.8351],[66.1905,31.7928],[66.3116,31.6948],[66.4352,31.7645],[66.5494,31.7749],[66.6928,31.8769],[66.7701,31.817],[66.8641,31.7828],[66.9542,31.731],[67.0548,31.7192],[67.1885,31.761],[67.2298,31.6888],[67.2639,31.6803],[67.2931,31.6407],[67.3174,31.6327],[67.3357,31.6553],[67.3966,31.6299],[67.4218,31.5813],[67.4094,31.5558],[67.4166,31.5464],[67.5604,31.5502],[67.6522,31.5709],[67.7483,31.5444]]]}},{"type":"Feature","id":"Kapisa","properties":{"id":"Kapisa","iso_code":"AF-KAP","name":"Kapisa","name_full":"Kapisa","name_ja":"カーピーサー州","center_lonlat":[69.6185,34.9597]},"geometry":{"type":"Polygon","coordinates":[[[69.8971,34.8536],[69.8574,34.8135],[69.7798,34.7781],[69.7192,34.6504],[69.6376,34.6393],[69.6043,34.6493],[69.6151,34.6943],[69.5801,34.7243],[69.5647,34.7574],[69.566,34.9103],[69.4891,34.9334],[69.4288,34.9359],[69.3678,34.99],[69.2977,35.0139],[69.2784,35.0485],[69.2833,35.1617],[69.3077,35.1819],[69.4299,35.1535],[69.678,35.1646],[69.7281,35.1504],[69.7969,35.0809],[69.8124,35.0419],[69.8524,35.0115],[69.9067,34.9121],[69.9162,34.8767],[69.8971,34.8536]]]}},{"type":"Feature","id":"Khost","properties":{"id":"Khost","iso_code":"AF-KHO","name":"Khost","name_full":"Khost","name_ja":"ホースト州","center_lonlat":[69.8325,33.3577]},"geometry":{"type":"Polygon","coordinates":[[[69.9965,33.7421],[70.0656,33.721],[70.1082,33.7273],[70.1181,33.7165],[70.1325,33.6614],[70.1741,33.6321],[70.155,33.5066],[70.1776,33.4734],[70.2204,33.456],[70.2857,33.3829],[70.3016,33.3518],[70.2944,33.3189],[70.1248,33.199],[70.048,33.1941],[70.0069,33.1318],[69.9558,33.1277],[69.8809,33.0892],[69.8387,33.0867],[69.7718,33.1148],[69.733,33.1093],[69.6678,33.077],[69.5475,33.075],[69.5142,33.0567],[69.4781,33.0114],[69.3453,33.0433],[69.3408,33.0677],[69.4029,33.1403],[69.39,33.195],[69.4012,33.2446],[69.4526,33.3304],[69.5456,33.4017],[69.5746,33.4772],[69.5566,33.5045],[69.5836,33.5546],[69.6297,33.5841],[69.7064,33.6058],[69.7753,33.6115],[69.7959,33.5999],[69.8406,33.647],[69.9722,33.6971],[69.9965,33.7421]]]}},{"type":"Feature","id":"Kunar","properties":{"id":"Kunar","iso_code":"AF-KNR","name":"Kunar","name_full":"Kunar","name_ja":"クナル州","center_lonlat":[71.0787,34.9565]},"geometry":{"type":"Polygon","coordinates":[[[70.9834,34.5553],[70.823,34.5523],[70.7419,34.531],[70.7322,34.555],[70.7653,34.5843],[70.7314,34.5967],[70.6967,34.5898],[70.6528,34.63],[70.6473,34.6643],[70.6669,34.7494],[70.6422,34.7872],[70.6155,34.8002],[70.6172,34.8898],[70.5744,34.994],[70.652,35.1316],[70.7353,35.0955],[70.853,35.0693],[70.9676,35.0873],[71.035,35.0752],[71.0939,35.1241],[71.1113,35.1034],[71.1771,35.2143],[71.1827,35.2661],[71.2084,35.2999],[71.3534,35.352],[71.4432,35.343],[71.4692,35.3878],[71.5697,35.4401],[71.5934,35.4642],[71.6224,35.4296],[71.6209,35.4101],[71.5316,35.3279],[71.5298,35.3009],[71.6337,35.2031],[71.6292,35.1701],[71.6041,35.1382],[71.5089,35.072],[71.5113,35.0087],[71.4696,34.9497],[71.2895,34.875],[71.2556,34.8102],[71.2031,34.7482],[71.0806,34.6729],[71.0702,34.6612],[71.0799,34.6029],[71.0658,34.5585],[70.9834,34.5553]]]}},{"type":"Feature","id":"Kunduz","properties":{"id":"Kunduz","iso_code":"AF-KDZ","name":"Kunduz","name_full":"Kunduz","name_ja":"クンドゥーズ州","center_lonlat":[68.7404,36.8462]},"geometry":{"type":"Polygon","coordinates":[[[69.3086,37.1169],[69.3394,37.0775],[69.3115,37.0306],[69.3046,36.8499],[69.282,36.8113],[69.2162,36.7927],[69.2072,36.7221],[69.2223,36.6658],[69.2444,36.6505],[69.2556,36.6122],[69.2217,36.5445],[69.1471,36.4873],[69.2014,36.3891],[69.2207,36.297],[69.1904,36.3288],[69.0618,36.3653],[68.987,36.4219],[68.9145,36.4332],[68.8531,36.4146],[68.7986,36.4476],[68.7228,36.5343],[68.6233,36.5217],[68.5385,36.5411],[68.3224,36.5481],[68.2395,36.5712],[68.1891,36.5932],[68.175,36.6278],[68.0921,36.7112],[68.0381,36.817],[68.0248,36.9255],[68.1864,37.0183],[68.2778,37.0101],[68.2883,37.0244],[68.2883,37.1032],[68.3073,37.1142],[68.3919,37.1054],[68.418,37.1283],[68.4037,37.1516],[68.5239,37.1647],[68.5515,37.1926],[68.6269,37.2063],[68.6486,37.2444],[68.6712,37.2472],[68.6575,37.2677],[68.6689,37.2783],[68.7596,37.2752],[68.8204,37.2509],[68.8102,37.3121],[68.8358,37.3291],[68.8568,37.3249],[68.8903,37.282],[68.9158,37.2791],[68.9176,37.3024],[68.8879,37.3381],[68.9852,37.3204],[69.021,37.288],[69.0358,37.2516],[69.0964,37.213],[69.1236,37.1692],[69.2457,37.1039],[69.3086,37.1169]]]}},{"type":"Feature","id":"Laghman","properties":{"id":"Laghman","iso_code":"AF-LAG","name":"Laghman","name_full":"Laghman","name_ja":"ラグマーン州","center_lonlat":[70.1457,34.7635]},"geometry":{"type":"Polygon","coordinates":[[[69.812,34.411],[69.8093,34.4563],[69.8391,34.5299],[69.8234,34.5846],[69.8507,34.616],[69.8533,34.6816],[69.9278,34.7538],[69.9289,34.7802],[69.8971,34.8536],[69.9162,34.8767],[69.9067,34.9121],[69.8524,35.0115],[69.8124,35.0419],[69.7969,35.0809],[69.8161,35.1176],[69.9196,35.1672],[69.9722,35.2358],[70.01,35.1736],[70.0268,35.1076],[70.1502,35.091],[70.1771,35.07],[70.1908,35.0275],[70.2709,34.9361],[70.3916,34.9041],[70.5081,34.94],[70.5744,34.994],[70.6172,34.8898],[70.6155,34.8002],[70.519,34.7577],[70.4946,34.6949],[70.4058,34.6547],[70.4196,34.5572],[70.3941,34.5133],[70.3535,34.4869],[70.0647,34.4116],[70.0063,34.422],[69.8423,34.4028],[69.812,34.411]]]}},{"type":"Feature","id":"Logar","properties":{"id":"Logar","iso_code":"AF-LOG","name":"Logar","name_full":"Logar","name_ja":"ローガル州","center_lonlat":[69.1702,34.0135]},"geometry":{"type":"Polygon","coordinates":[[[69.4859,34.159],[69.5048,34.1559],[69.5791,34.199],[69.7351,34.2502],[69.7925,34.2081],[69.8976,34.0451],[69.8183,34.0785],[69.7722,34.0385],[69.7054,34.0062],[69.6899,34.0101],[69.6901,34.0353],[69.6697,34.0453],[69.5427,34.0501],[69.5143,34.0332],[69.4811,33.9755],[69.3302,33.8468],[69.1983,33.7898],[69.0877,33.7204],[69.0294,33.6264],[69.0095,33.613],[68.9569,33.6024],[68.7724,33.613],[68.7609,33.6613],[68.7448,33.677],[68.7727,33.7153],[68.7459,33.7742],[68.7119,33.7901],[68.7573,33.8424],[68.7638,33.8782],[68.7465,33.9102],[68.7621,33.934],[68.8115,33.9704],[68.8868,33.989],[68.8717,34.0304],[68.8116,34.0778],[68.8101,34.1249],[68.8408,34.1971],[68.8936,34.2409],[68.9231,34.2989],[68.9692,34.3491],[69.1169,34.3078],[69.1811,34.3095],[69.2815,34.3641],[69.392,34.2487],[69.4623,34.1431],[69.4859,34.159]]]}},{"type":"Feature","id":"Maidan Wardak","properties":{"id":"Maidan Wardak","iso_code":"AF-WAR","name":"Maidan Wardak","name_full":"Maidan Wardak","name_ja":"ヴァルダク州","center_lonlat":[68.2262,34.3139]},"geometry":{"type":"Polygon","coordinates":[[[68.8627,34.6222],[68.8419,34.4928],[68.8674,34.4458],[68.9462,34.4131],[68.9692,34.3491],[68.9231,34.2989],[68.8936,34.2409],[68.8408,34.1971],[68.8101,34.1249],[68.8116,34.0778],[68.8717,34.0304],[68.8868,33.989],[68.8115,33.9704],[68.7621,33.934],[68.7465,33.9102],[68.7638,33.8782],[68.7573,33.8424],[68.7119,33.7901],[68.6456,33.7269],[68.5542,33.6808],[68.5185,33.6764],[68.4569,33.6945],[68.4512,33.7144],[68.4653,33.7645],[68.4562,33.7865],[68.4042,33.7861],[68.2304,33.9269],[68.1452,33.9563],[68.1125,34.1473],[68.0543,34.1988],[68.0324,34.203],[67.9594,34.1657],[67.8673,34.144],[67.8075,34.1496],[67.7405,34.1918],[67.6475,34.2082],[67.5627,34.1903],[67.5265,34.1424],[67.4314,34.1386],[67.4094,34.161],[67.4221,34.2004],[67.5096,34.2317],[67.5481,34.2777],[67.4344,34.3283],[67.3804,34.3387],[67.427,34.3709],[67.4249,34.3959],[67.4097,34.409],[67.2767,34.4154],[67.2511,34.4309],[67.2483,34.4516],[67.2697,34.4905],[67.3248,34.5056],[67.3474,34.5272],[67.3464,34.5523],[67.3003,34.5925],[67.2903,34.6203],[67.299,34.635],[67.4604,34.6624],[67.507,34.6811],[67.5728,34.6537],[67.7289,34.6448],[67.9743,34.596],[68.0018,34.648],[68.039,34.6859],[68.093,34.6878],[68.1676,34.751],[68.2827,34.8003],[68.2952,34.7504],[68.3511,34.6994],[68.375,34.6286],[68.4067,34.6254],[68.5559,34.6915],[68.7029,34.6476],[68.8627,34.6222]]]}},{"type":"Feature","id":"Nangarhar","properties":{"id":"Nangarhar","iso_code":"AF-NAN","name":"Nangarhar","name_full":"Nangarhar","name_ja":"ナンガルハール州","center_lonlat":[70.4531,34.2728]},"geometry":{"type":"Polygon","coordinates":[[[70.9834,34.5553],[70.957,34.532],[70.9708,34.4689],[71.0509,34.3898],[71.122,34.3568],[71.1264,34.3322],[71.0971,34.2625],[71.1081,34.1652],[71.0628,34.1053],[71.0626,34.0543],[71.0467,34.0419],[70.9771,34.0274],[70.9397,34.0009],[70.8843,34.007],[70.8622,33.9648],[70.522,33.9387],[70.3282,33.9573],[70.0028,34.0438],[69.9054,34.0358],[69.8976,34.0451],[69.7925,34.2081],[69.7351,34.2502],[69.5791,34.199],[69.5048,34.1559],[69.4859,34.159],[69.4804,34.2024],[69.6176,34.3011],[69.6648,34.355],[69.6626,34.3932],[69.812,34.411],[69.8423,34.4028],[70.0063,34.422],[70.0647,34.4116],[70.3535,34.4869],[70.3941,34.5133],[70.4196,34.5572],[70.4058,34.6547],[70.4946,34.6949],[70.519,34.7577],[70.6155,34.8002],[70.6422,34.7872],[70.6669,34.7494],[70.6473,34.6643],[70.6528,34.63],[70.6967,34.5898],[70.7314,34.5967],[70.7653,34.5843],[70.7322,34.555],[70.7419,34.531],[70.823,34.5523],[70.9834,34.5553]]]}},{"type":"Feature","id":"Nimruz","properties":{"id":"Nimruz","iso_code":"AF-NIM","name":"Nimruz","name_full":"Nimruz","name_ja":"ニームルーズ州","center_lonlat":[62.3396,30.8142]},"geometry":{"type":"Polygon","coordinates":[[[61.6063,31.3887],[61.6272,31.427],[61.6298,31.4694],[61.6053,31.5175],[61.6373,31.4993],[61.6683,31.516],[61.6651,31.5979],[61.724,31.6062],[61.802,31.7166],[61.8856,31.794],[61.8947,31.8157],[61.8883,31.8833],[61.9845,31.9459],[61.972,32.0049],[61.9792,32.0211],[62.3945,32.0435],[62.5394,32.0718],[62.6009,32.0549],[62.7433,31.93],[62.8622,31.9757],[62.9812,31.9898],[63.0337,32.018],[63.0818,32.0694],[63.1024,32.2009],[63.1575,32.2526],[63.5301,32.2002],[63.5384,32.1367],[63.5696,32.0799],[63.5336,32.0387],[63.5389,31.9963],[63.4978,31.9187],[63.4295,31.8603],[63.4076,31.8049],[63.3544,31.4802],[63.3527,31.375],[63.3164,31.3166],[63.3496,31.25],[63.3429,31.1253],[63.2855,31.0835],[63.2259,30.9859],[63.1431,30.9364],[63.1565,30.7737],[63.0574,30.6818],[63.0852,30.6502],[63.0619,30.6088],[63.0984,30.5393],[63.0923,30.5187],[63.0115,30.4569],[62.9623,30.366],[62.8899,30.2764],[62.8493,30.2415],[62.7675,30.2045],[62.7587,30.0732],[62.7184,30.0063],[62.721,29.907],[62.6026,29.4181],[62.4775,29.4078],[62.3745,29.4249],[60.8444,29.8582],[61.8023,30.8471],[61.8002,30.9614],[61.8263,31.0346],[61.7792,31.1811],[61.7427,31.2395],[61.7492,31.3024],[61.6869,31.3732],[61.6063,31.3887]]]}},{"type":"Feature","id":"Nuristan","properties":{"id":"Nuristan","iso_code":"AF-NUR","name":"Nuristan","name_full":"Nuristan","name_ja":"ヌーリスターン州","center_lonlat":[70.7783,35.4091]},"geometry":{"type":"Polygon","coordinates":[[[71.1699,36.0308],[71.2574,35.9716],[71.3416,35.9473],[71.3713,35.8851],[71.431,35.8437],[71.4709,35.7799],[71.4756,35.741],[71.5027,35.7191],[71.5198,35.6838],[71.4833,35.6266],[71.5128,35.5963],[71.5842,35.5642],[71.5929,35.5302],[71.5817,35.4931],[71.5934,35.4642],[71.5697,35.4401],[71.4692,35.3878],[71.4432,35.343],[71.3534,35.352],[71.2084,35.2999],[71.1827,35.2661],[71.1771,35.2143],[71.1113,35.1034],[71.0939,35.1241],[71.035,35.0752],[70.9676,35.0873],[70.853,35.0693],[70.7353,35.0955],[70.652,35.1316],[70.5744,34.994],[70.5081,34.94],[70.3916,34.9041],[70.2709,34.9361],[70.1908,35.0275],[70.1771,35.07],[70.1502,35.091],[70.0268,35.1076],[70.01,35.1736],[69.9722,35.2358],[69.9747,35.2889],[69.9199,35.343],[69.9216,35.3558],[70.0318,35.4156],[70.0766,35.476],[70.1351,35.4781],[70.1638,35.5001],[70.178,35.5238],[70.1717,35.5611],[70.2107,35.5857],[70.2312,35.6704],[70.294,35.6606],[70.3838,35.6981],[70.4794,35.6669],[70.4994,35.6221],[70.5547,35.5669],[70.5358,35.4985],[70.5435,35.4463],[70.5769,35.4424],[70.6249,35.4594],[70.6418,35.4721],[70.6508,35.5107],[70.6872,35.537],[70.7299,35.4975],[70.7577,35.4888],[70.8644,35.4842],[70.8827,35.5163],[70.8661,35.6003],[70.8779,35.6257],[70.96,35.6424],[71.0137,35.6992],[70.9689,35.7396],[70.9732,35.7754],[71.0243,35.8049],[71.0671,35.8648],[71.0846,35.9419],[71.1699,36.0308]]]}},{"type":"Feature","id":"Paktia","properties":{"id":"Paktia","iso_code":"AF-PKA","name":"Paktia","name_full":"Paktia","name_ja":"パクティヤー州","center_lonlat":[69.3873,33.6262]},"geometry":{"type":"Polygon","coordinates":[[[69.9054,34.0358],[69.8726,34.0172],[69.872,33.9715],[69.8411,33.9418],[69.8854,33.8895],[69.9575,33.7527],[69.9965,33.7421],[69.9722,33.6971],[69.8406,33.647],[69.7959,33.5999],[69.7753,33.6115],[69.7064,33.6058],[69.6297,33.5841],[69.5836,33.5546],[69.5566,33.5045],[69.5746,33.4772],[69.5456,33.4017],[69.4526,33.3304],[69.4012,33.2446],[69.3704,33.2552],[69.2902,33.2379],[69.2078,33.2752],[69.196,33.2453],[69.0036,33.1537],[68.9898,33.1941],[68.9859,33.3494],[68.9544,33.3975],[68.8677,33.4195],[68.7688,33.3933],[68.8002,33.464],[68.7733,33.5227],[68.7724,33.613],[68.9569,33.6024],[69.0095,33.613],[69.0294,33.6264],[69.0877,33.7204],[69.1983,33.7898],[69.3302,33.8468],[69.4811,33.9755],[69.5143,34.0332],[69.5427,34.0501],[69.6697,34.0453],[69.6901,34.0353],[69.6899,34.0101],[69.7054,34.0062],[69.7722,34.0385],[69.8183,34.0785],[69.8976,34.0451],[69.9054,34.0358]]]}},{"type":"Feature","id":"Paktika","properties":{"id":"Paktika","iso_code":"AF-PIA","name":"Paktika","name_full":"Paktika","name_ja":"パクティーカー州","center_lonlat":[68.7335,32.4808]},"geometry":{"type":"Polygon","coordinates":[[[68.0983,31.7591],[68.029,31.8023],[68.01,31.8582],[68.01,31.8853],[68.0764,32.0034],[68.0513,32.0984],[68.0848,32.1789],[68.0681,32.2492],[68.0826,32.2753],[68.0778,32.3643],[68.0896,32.3999],[68.0572,32.5029],[67.9467,32.5783],[67.9293,32.6123],[67.8367,32.6719],[67.8154,32.692],[67.8188,32.7069],[67.9081,32.817],[67.9937,32.7458],[68.0447,32.7203],[68.1528,32.7306],[68.2333,32.7724],[68.267,32.8063],[68.2728,32.8358],[68.4246,32.975],[68.4779,33.1033],[68.5832,33.1749],[68.643,33.2321],[68.6853,33.326],[68.7688,33.3933],[68.8677,33.4195],[68.9544,33.3975],[68.9859,33.3494],[68.9898,33.1941],[69.0036,33.1537],[69.196,33.2453],[69.2078,33.2752],[69.2902,33.2379],[69.3704,33.2552],[69.4012,33.2446],[69.39,33.195],[69.4029,33.1403],[69.3408,33.0677],[69.3453,33.0433],[69.4781,33.0114],[69.4685,32.9943],[69.4872,32.8859],[69.4773,32.8568],[69.3763,32.7719],[69.3832,32.7445],[69.4147,32.7256],[69.426,32.6551],[69.3612,32.5685],[69.282,32.5328],[69.2329,32.4627],[69.228,32.4213],[69.2681,32.3013],[69.251,32.1307],[69.3048,31.9469],[69.2238,31.8819],[69.0716,31.6979],[68.9773,31.6415],[68.941,31.6437],[68.8038,31.6026],[68.7054,31.7013],[68.6883,31.7686],[68.5275,31.823],[68.4815,31.8157],[68.4187,31.783],[68.4396,31.7666],[68.5498,31.7535],[68.498,31.7252],[68.3561,31.7625],[68.255,31.7664],[68.2068,31.8079],[68.1591,31.8259],[68.1257,31.8115],[68.0983,31.7591]]]}},{"type":"Feature","id":"Parwan","properties":{"id":"Parwan","iso_code":"AF-PAR","name":"Parwan","name_full":"Parwan","name_ja":"パルヴァーン州","center_lonlat":[69.7879,35.4423]},"geometry":{"type":"Polygon","coordinates":[[[70.2734,35.8502],[70.254,35.8054],[70.2312,35.6704],[70.2107,35.5857],[70.1717,35.5611],[70.178,35.5238],[70.1638,35.5001],[70.1351,35.4781],[70.0766,35.476],[70.0318,35.4156],[69.9216,35.3558],[69.9199,35.343],[69.9747,35.2889],[69.9722,35.2358],[69.9196,35.1672],[69.8161,35.1176],[69.7969,35.0809],[69.7281,35.1504],[69.678,35.1646],[69.4299,35.1535],[69.3077,35.1819],[69.2833,35.1617],[69.2457,35.1573],[69.2635,35.3924],[69.4029,35.4163],[69.4569,35.4578],[69.5561,35.4562],[69.6989,35.5291],[69.7489,35.5411],[69.7914,35.6733],[69.8176,35.7056],[69.8709,35.7156],[69.9064,35.7632],[69.9486,35.7836],[69.961,35.8099],[69.9821,35.7914],[70.0443,35.813],[70.1128,35.8193],[70.1716,35.8607],[70.1768,35.8923],[70.2734,35.8502]]]}},{"type":"Feature","id":"Parwan (AF-PAR)","properties":{"id":"Parwan (AF-PAR)","iso_code":"AF-PAR","name":"Parwan (AF-PAR)","name_full":"Parwan","name_ja":"パルヴァーン州","center_lonlat":[68.8861,34.9538]},"geometry":{"type":"Polygon","coordinates":[[[68.8627,34.6222],[68.7029,34.6476],[68.5559,34.6915],[68.4067,34.6254],[68.375,34.6286],[68.3511,34.6994],[68.2952,34.7504],[68.2827,34.8003],[68.2471,34.8255],[68.2535,34.8858],[68.2366,34.9632],[68.184,35.0096],[68.2552,35.0423],[68.2814,35.0725],[68.3762,35.0548],[68.5756,35.0639],[68.6032,35.0761],[68.6,35.117],[68.6518,35.1282],[68.742,35.1824],[68.8155,35.2605],[68.8542,35.2697],[68.8958,35.246],[68.9139,35.2483],[68.9789,35.2941],[69.0281,35.3075],[69.0691,35.3572],[69.1439,35.3867],[69.1853,35.4201],[69.2409,35.4154],[69.2635,35.3924],[69.2457,35.1573],[69.2833,35.1617],[69.2784,35.0485],[69.2977,35.0139],[69.3678,34.99],[69.4288,34.9359],[69.4891,34.9334],[69.566,34.9103],[69.5647,34.7574],[69.5801,34.7243],[69.6151,34.6943],[69.6043,34.6493],[69.5571,34.6554],[69.5233,34.6065],[69.4483,34.5912],[69.395,34.7258],[69.3467,34.7496],[69.2992,34.8322],[69.2098,34.8795],[69.0551,34.8801],[68.9828,34.8954],[68.9414,34.8421],[68.9091,34.7574],[68.8715,34.7042],[68.8757,34.6616],[68.8627,34.6222]]]}},{"type":"Feature","id":"Samangan","properties":{"id":"Samangan","iso_code":"AF-SAM","name":"Samangan","name_full":"Samangan","name_ja":"サマンガーン州","center_lonlat":[67.701,35.9762]},"geometry":{"type":"Polygon","coordinates":[[[68.1891,36.5932],[68.2395,36.5712],[68.1936,36.5538],[68.1727,36.5212],[68.2071,36.4648],[68.3714,36.2637],[68.4914,36.1966],[68.5314,36.1526],[68.4673,36.0733],[68.333,35.9817],[68.3117,35.8535],[68.1635,35.6902],[68.1512,35.6628],[68.1518,35.6422],[68.1941,35.6133],[68.1888,35.5831],[68.1534,35.5411],[68.1425,35.507],[68.0885,35.4612],[67.8611,35.4352],[67.819,35.4594],[67.7439,35.4434],[67.5735,35.4694],[67.4036,35.4229],[67.3062,35.4366],[67.0168,35.3525],[66.9164,35.3529],[66.8346,35.3752],[66.9129,35.4145],[66.9772,35.4647],[66.9937,35.4943],[66.9895,35.5534],[67.0127,35.5626],[67.0121,35.5959],[66.9837,35.6116],[67.0241,35.642],[67.0223,35.6655],[66.9049,35.7181],[66.928,35.7797],[67.003,35.8218],[67.12,35.9335],[67.1242,35.9808],[67.0675,36.0639],[67.1819,36.1383],[67.2677,36.1532],[67.3349,36.2116],[67.3333,36.2509],[67.3738,36.2894],[67.3822,36.3706],[67.4201,36.4716],[67.3718,36.5588],[67.3858,36.5751],[67.4613,36.6005],[67.5001,36.6402],[67.614,36.6316],[67.688,36.6479],[67.8324,36.5896],[68.0799,36.5622],[68.1891,36.5932]]]}},{"type":"Feature","id":"Sar-e Pol","properties":{"id":"Sar-e Pol","iso_code":"AF-SAR","name":"Sar-e Pol","name_full":"Sar-e Pol","name_ja":"サーレポル州","center_lonlat":[66.1482,35.7417]},"geometry":{"type":"Polygon","coordinates":[[[66.5273,36.5877],[66.6644,36.5622],[66.6802,36.5421],[66.6636,36.5086],[66.5892,36.4337],[66.5275,36.3099],[66.4614,36.2242],[66.5444,36.1741],[66.6023,36.1634],[66.6043,36.07],[66.592,36.0204],[66.6104,35.9923],[66.6298,35.8756],[66.586,35.779],[66.5353,35.7434],[66.503,35.676],[66.6631,35.692],[66.6842,35.668],[66.7997,35.6748],[66.9049,35.7181],[67.0223,35.6655],[67.0241,35.642],[66.9837,35.6116],[67.0121,35.5959],[67.0127,35.5626],[66.9895,35.5534],[66.9937,35.4943],[66.9772,35.4647],[66.9129,35.4145],[66.8346,35.3752],[66.7966,35.3632],[66.7469,35.3128],[66.669,35.2028],[66.5565,35.1733],[66.3925,35.1857],[66.3577,35.1715],[66.3351,35.1147],[66.3551,35.0801],[66.3306,34.9574],[66.3379,34.9318],[66.3636,34.9142],[66.3232,34.9009],[66.2401,34.9162],[66.2395,34.8852],[66.2133,34.8766],[66.2048,34.8578],[66.1759,34.8528],[66.1737,34.8314],[66.105,34.7844],[66.1078,34.829],[66.0794,34.9108],[66.0646,34.9345],[66.0395,34.9448],[66.0515,34.9692],[66.0262,34.9908],[66.0477,35.014],[66.0369,35.0628],[65.9079,35.0757],[65.7974,35.1082],[65.7602,35.1513],[65.7543,35.1927],[65.6858,35.2039],[65.6409,35.2463],[65.6423,35.2696],[65.5306,35.2366],[65.4716,35.2361],[65.4514,35.2539],[65.4101,35.3215],[65.4076,35.4232],[65.4129,35.4518],[65.4401,35.4724],[65.4859,35.5566],[65.4703,35.6076],[65.4801,35.6459],[65.5284,35.6793],[65.623,35.6761],[65.6793,35.7466],[65.68,35.7874],[65.7929,35.7933],[65.8167,35.8366],[65.8041,35.8427],[65.7917,35.8974],[65.74,35.9609],[65.7554,36.0086],[65.7267,36.0212],[65.6852,36.0004],[65.5271,35.9779],[65.5343,36.0446],[65.4907,36.0968],[65.5108,36.3313],[65.7119,36.3573],[65.8477,36.4503],[65.9669,36.4754],[66.0054,36.5081],[66.0715,36.5378],[66.2342,36.5354],[66.483,36.5706],[66.5273,36.5877]]]}},{"type":"Feature","id":"Takhar","properties":{"id":"Takhar","iso_code":"AF-TAK","name":"Takhar","name_full":"Takhar","name_ja":"タハール州","center_lonlat":[69.7711,36.7028]},"geometry":{"type":"Polygon","coordinates":[[[70.0042,37.5514],[70.0051,37.4077],[70.0417,37.3873],[70.0183,37.3592],[70.0043,37.2762],[70.0344,37.1884],[70.033,37.1351],[70.1241,37.0425],[70.0962,36.9961],[70.0564,36.9797],[70.0374,36.9412],[70.0066,36.9223],[70.0038,36.6151],[70.0374,36.5153],[70.0384,36.4621],[70.1396,36.4049],[70.235,36.3223],[70.4406,36.3039],[70.4725,36.2836],[70.4748,36.1496],[70.429,36.0379],[70.4618,35.9705],[70.3005,35.8795],[70.2734,35.8502],[70.1768,35.8923],[70.1716,35.8607],[70.1128,35.8193],[70.0443,35.813],[69.9821,35.7914],[69.961,35.8099],[69.9564,35.887],[69.8685,36.0336],[69.7881,36.0991],[69.7777,36.2136],[69.7658,36.233],[69.7118,36.2408],[69.6811,36.3501],[69.5227,36.2955],[69.4441,36.2472],[69.3445,36.2296],[69.3302,36.2394],[69.2969,36.2298],[69.2683,36.2751],[69.2207,36.297],[69.2014,36.3891],[69.1471,36.4873],[69.2217,36.5445],[69.2556,36.6122],[69.2444,36.6505],[69.2223,36.6658],[69.2072,36.7221],[69.2162,36.7927],[69.282,36.8113],[69.3046,36.8499],[69.3115,37.0306],[69.3394,37.0775],[69.3086,37.1169],[69.4077,37.1775],[69.4421,37.2236],[69.4452,37.2364],[69.4099,37.2457],[69.4179,37.2677],[69.3864,37.3415],[69.3912,37.3707],[69.377,37.3807],[69.3784,37.4374],[69.4254,37.4943],[69.4914,37.537],[69.5087,37.579],[69.665,37.5762],[69.7543,37.5967],[69.8022,37.5815],[69.9188,37.6171],[69.9554,37.5755],[70.0042,37.5514]]]}},{"type":"Feature","id":"Urozgan","properties":{"id":"Urozgan","iso_code":"AF-URU","name":"Urozgan","name_full":"Urozgan","name_ja":"ウルーズガーン州","center_lonlat":[66.0465,32.8559]},"geometry":{"type":"Polygon","coordinates":[[[66.8292,33.2809],[66.8442,33.2491],[66.9722,33.2494],[66.9951,33.2385],[66.9997,33.1965],[66.9156,33.133],[66.9058,33.0321],[66.9301,32.9526],[67.0115,32.9271],[67.0058,32.8609],[66.9873,32.8305],[66.9583,32.8198],[66.905,32.8316],[66.8747,32.8154],[66.7941,32.8066],[66.6895,32.7414],[66.6687,32.7139],[66.6707,32.6916],[66.6529,32.6774],[66.6002,32.6703],[66.6248,32.7515],[66.605,32.7637],[66.5609,32.7599],[66.5148,32.6998],[66.4181,32.6738],[66.3272,32.5775],[66.3106,32.5194],[66.3266,32.4917],[66.2865,32.4701],[66.2099,32.4586],[66.1863,32.4702],[66.1706,32.4293],[66.132,32.4203],[66.0359,32.4287],[65.9993,32.4657],[65.8066,32.488],[65.7167,32.4398],[65.715,32.5683],[65.5976,32.5748],[65.5439,32.5276],[65.5057,32.4513],[65.4573,32.4273],[65.4639,32.3649],[65.4419,32.3503],[65.4263,32.3169],[65.4371,32.2769],[65.4011,32.276],[65.3331,32.3034],[65.2681,32.3024],[65.2354,32.3239],[65.2736,32.4401],[65.2641,32.5157],[65.2937,32.5589],[65.2697,32.6471],[65.2375,32.6698],[65.2069,32.6691],[65.1778,32.6853],[65.2081,32.7718],[65.1976,32.801],[65.211,32.8582],[65.1844,32.8962],[65.2448,32.991],[65.285,33.0273],[65.2886,33.0632],[65.3245,33.0925],[65.3482,33.0925],[65.417,33.0671],[65.4494,33.0919],[65.4908,33.077],[65.4714,33.1442],[65.4824,33.1502],[65.5746,33.1453],[65.6593,33.1055],[65.7085,33.1158],[65.7587,33.1093],[65.7994,33.1428],[65.8786,33.0904],[66.0497,33.0616],[66.0901,33.1863],[66.1742,33.2213],[66.3149,33.3062],[66.3829,33.2969],[66.4744,33.319],[66.5284,33.2428],[66.5564,33.2369],[66.6274,33.2694],[66.6917,33.2809],[66.7404,33.3186],[66.7668,33.2713],[66.8292,33.2809]]]}},{"type":"Feature","id":"Urozgan (AF-URU)","properties":{"id":"Urozgan (AF-URU)","iso_code":"AF-URU","name":"Urozgan (AF-URU)","name_full":"Urozgan","name_ja":"ウルーズガーン州","center_lonlat":[66.166,33.735]},"geometry":{"type":"Polygon","coordinates":[[[67.347,34.0366],[67.3676,34.0121],[67.3276,33.9473],[67.3625,33.9235],[67.3793,33.8601],[67.3509,33.8462],[67.1608,33.6712],[67.0453,33.6386],[66.9589,33.629],[66.8444,33.5802],[66.8295,33.5264],[66.8603,33.4266],[66.8292,33.2809],[66.7668,33.2713],[66.7404,33.3186],[66.6917,33.2809],[66.6274,33.2694],[66.5564,33.2369],[66.5284,33.2428],[66.4744,33.319],[66.3829,33.2969],[66.3149,33.3062],[66.1742,33.2213],[66.0901,33.1863],[66.0497,33.0616],[65.8786,33.0904],[65.7994,33.1428],[65.7587,33.1093],[65.7085,33.1158],[65.6593,33.1055],[65.5746,33.1453],[65.4824,33.1502],[65.4714,33.1442],[65.4908,33.077],[65.4494,33.0919],[65.417,33.0671],[65.3482,33.0925],[65.3617,33.2202],[65.2965,33.2976],[65.2974,33.3301],[65.2582,33.3351],[65.2191,33.363],[65.2619,33.3895],[65.3703,33.4248],[65.3633,33.4525],[65.3799,33.4754],[65.4112,33.4843],[65.5144,33.5694],[65.5769,33.6048],[65.5674,33.6298],[65.5083,33.6783],[65.4872,33.7735],[65.4095,33.8339],[65.3994,33.8663],[65.4084,33.8848],[65.4695,33.9053],[65.5205,33.9733],[65.5195,34.0269],[65.49,34.0391],[65.4674,34.0751],[65.4952,34.1811],[65.4857,34.2133],[65.5218,34.345],[65.6249,34.3521],[65.9455,34.321],[66.0105,34.3584],[66.1553,34.3585],[66.2121,34.4063],[66.2774,34.3991],[66.3247,34.3765],[66.4645,34.3965],[66.487,34.3892],[66.4676,34.3602],[66.4846,34.3389],[66.552,34.3278],[66.5801,34.3068],[66.5304,34.2611],[66.5499,34.1922],[66.516,34.1145],[66.5159,34.0611],[66.5873,34.0001],[66.6446,33.9744],[66.7832,34.0039],[66.9606,33.9738],[67.0335,33.9379],[67.1226,33.9749],[67.1619,33.9562],[67.1983,33.9921],[67.3147,34.0109],[67.347,34.0366]]]}},{"type":"Feature","id":"Zabul","properties":{"id":"Zabul","iso_code":"AF-ZAB","name":"Zabul","name_full":"Zabul","name_ja":"ザーブル州","center_lonlat":[67.1424,32.2072]},"geometry":{"type":"Polygon","coordinates":[[[68.0983,31.7591],[68.0605,31.7256],[68.0466,31.6884],[67.9661,31.6382],[67.8707,31.6352],[67.8427,31.6235],[67.7483,31.5444],[67.6522,31.5709],[67.5604,31.5502],[67.4166,31.5464],[67.4094,31.5558],[67.4218,31.5813],[67.3966,31.6299],[67.3357,31.6553],[67.3174,31.6327],[67.2931,31.6407],[67.2639,31.6803],[67.2298,31.6888],[67.1885,31.761],[67.0548,31.7192],[66.9542,31.731],[66.8641,31.7828],[66.7701,31.817],[66.6928,31.8769],[66.5494,31.7749],[66.4352,31.7645],[66.3116,31.6948],[66.1905,31.7928],[66.1821,31.8351],[66.229,31.87],[66.2995,31.8954],[66.3297,31.9302],[66.3435,31.9875],[66.3107,32.0294],[66.3411,32.0929],[66.3255,32.2044],[66.4007,32.2753],[66.4312,32.3347],[66.4987,32.3722],[66.5239,32.4131],[66.5396,32.5073],[66.4774,32.5548],[66.4448,32.557],[66.3871,32.4832],[66.3266,32.4917],[66.3106,32.5194],[66.3272,32.5775],[66.4181,32.6738],[66.5148,32.6998],[66.5609,32.7599],[66.605,32.7637],[66.6248,32.7515],[66.6002,32.6703],[66.6529,32.6774],[66.6707,32.6916],[66.6687,32.7139],[66.6895,32.7414],[66.7941,32.8066],[66.8747,32.8154],[66.905,32.8316],[66.9583,32.8198],[66.9873,32.8305],[67.0058,32.8609],[67.0115,32.9271],[67.0536,32.9336],[67.094,32.9925],[67.0715,33.0494],[67.0955,33.0635],[67.1606,33.0571],[67.1895,32.9936],[67.2504,32.9887],[67.2582,32.965],[67.2942,32.9471],[67.3512,32.9524],[67.3983,33.0029],[67.4252,33.0091],[67.4185,32.9837],[67.4375,32.9411],[67.3768,32.8994],[67.4409,32.8523],[67.4076,32.8355],[67.4066,32.7989],[67.4657,32.7301],[67.6178,32.6014],[67.6637,32.5808],[67.5946,32.5137],[67.6582,32.4743],[67.6853,32.4203],[67.734,32.4105],[67.7807,32.3786],[67.7729,32.3567],[67.7251,32.3204],[67.6452,32.3063],[67.63,32.2815],[67.6326,32.2522],[67.6828,32.2574],[67.707,32.2444],[67.7214,32.2241],[67.72,32.1589],[67.8456,32.1248],[67.9211,32.0766],[68.0054,32.0732],[68.0513,32.0984],[68.0764,32.0034],[68.01,31.8853],[68.01,31.8582],[68.029,31.8023],[68.0983,31.7591]]]}}]}
