{"type":"FeatureCollection","features":[{"type":"Feature","id":"Brando","properties":{"id":"Brando","iso_code":"AX-X15~","name":"Brando","name_full":"Brändö","name_ja":"ブレンド","center_lonlat":[21.0796,60.4655]},"geometry":{"type":"Polygon","coordinates":[[[21.0886,60.4801],[21.0967,60.4634],[21.0882,60.4522],[21.065,60.4548],[21.0643,60.4744],[21.0886,60.4801]]]}},{"type":"Feature","id":"Eckero","properties":{"id":"Eckero","iso_code":"AX-X04~","name":"Eckero","name_full":"Eckerö","name_ja":"エッケロー","center_lonlat":[19.5888,60.1953]},"geometry":{"type":"Polygon","coordinates":[[[19.6395,60.2209],[19.6709,60.1906],[19.6711,60.1581],[19.647,60.1558],[19.5916,60.1968],[19.6033,60.164],[19.5848,60.1353],[19.5652,60.13],[19.527,60.1486],[19.5132,60.1838],[19.5373,60.2011],[19.5371,60.2322],[19.5679,60.2551],[19.6084,60.2569],[19.6345,60.2401],[19.6395,60.2209]]]}},{"type":"Feature","id":"Foglo","properties":{"id":"Foglo","iso_code":"AX-X06~","name":"Foglo","name_full":"Föglö","name_ja":"フォーグロー","center_lonlat":[20.346,59.9909]},"geometry":{"type":"MultiPolygon","coordinates":[[[[20.2813,59.9766],[20.3394,60.0201],[20.4471,59.9952],[20.3248,59.9772],[20.3066,59.9536],[20.2837,59.9585],[20.2813,59.9766]]],[[[20.6101,60.045],[20.6179,60.0422],[20.6009,60.0392],[20.6063,60.0226],[20.5872,60.0081],[20.5505,60.0189],[20.527,60.0051],[20.5008,60.0127],[20.5449,60.0561],[20.5829,60.0591],[20.6101,60.045]]],[[[20.4241,60.0552],[20.4626,60.0668],[20.4321,60.0251],[20.3901,60.0282],[20.4241,60.0552]]],[[[20.5212,60.048],[20.5003,60.0364],[20.4714,60.0413],[20.4697,60.0574],[20.5418,60.071],[20.5212,60.048]]]]}},{"type":"Feature","id":"Jomala","properties":{"id":"Jomala","iso_code":"AX-X02~","name":"Jomala","name_full":"Jomala","name_ja":"ヨマラ","center_lonlat":[19.9122,60.1305]},"geometry":{"type":"Polygon","coordinates":[[[19.9103,60.1011],[19.8451,60.0787],[19.807,60.0998],[19.763,60.0739],[19.7476,60.1014],[19.8117,60.1245],[19.8102,60.149],[19.8331,60.1505],[19.827,60.1704],[19.8469,60.1781],[19.9436,60.1862],[20.01,60.1558],[20.0442,60.1763],[20.0301,60.129],[20.0505,60.0978],[20.0448,60.0875],[19.966,60.0911],[19.9371,60.1108],[19.9103,60.1011]]]}},{"type":"Feature","id":"Kokar","properties":{"id":"Kokar","iso_code":"AX-X16~","name":"Kokar","name_full":"Kökar","name_ja":"コーカル","center_lonlat":[20.9573,59.9431]},"geometry":{"type":"MultiPolygon","coordinates":[[[[20.9836,59.9428],[20.9692,59.9421],[20.9912,59.9267],[20.9828,59.9215],[20.9133,59.9484],[20.9347,59.958],[20.9959,59.9499],[20.9836,59.9428]]],[[[20.8753,59.9141],[20.8621,59.9282],[20.8975,59.9401],[20.9202,59.9092],[20.8753,59.9141]]]]}},{"type":"Feature","id":"Kumlinge","properties":{"id":"Kumlinge","iso_code":"AX-X14~","name":"Kumlinge","name_full":"Kumlinge","name_ja":"クムリンゲ","center_lonlat":[20.8133,60.2597]},"geometry":{"type":"MultiPolygon","coordinates":[[[[20.8189,60.2322],[20.7905,60.2387],[20.7873,60.2863],[20.853,60.2657],[20.8389,60.2468],[20.8114,60.2452],[20.8189,60.2322]]],[[[20.7774,60.3265],[20.7327,60.3144],[20.7572,60.3661],[20.7874,60.362],[20.7774,60.3265]]],[[[20.6838,60.2294],[20.7163,60.2093],[20.6707,60.1992],[20.6634,60.2164],[20.6838,60.2294]]]]}},{"type":"Feature","id":"Lemland","properties":{"id":"Lemland","iso_code":"AX-X10~","name":"Lemland","name_full":"Lemland","name_ja":"レムランド","center_lonlat":[20.1338,60.0423]},"geometry":{"type":"Polygon","coordinates":[[[20.0337,60.0636],[20.1013,60.095],[20.1633,60.0878],[20.1932,60.0656],[20.2252,60.0055],[20.1751,59.9714],[20.184,59.9929],[20.1053,59.9965],[20.1213,60.0166],[20.0253,60.0425],[20.0337,60.0636]]]}},{"type":"Feature","id":"Lumparland","properties":{"id":"Lumparland","iso_code":"AX-X11~","name":"Lumparland","name_full":"Lumparland","name_ja":"ルンパルランド","center_lonlat":[20.2462,60.1057]},"geometry":{"type":"Polygon","coordinates":[[[20.2776,60.1422],[20.2976,60.1215],[20.2689,60.086],[20.2776,60.0665],[20.2663,60.0605],[20.2019,60.0876],[20.1983,60.1041],[20.2224,60.1496],[20.2581,60.108],[20.2557,60.1454],[20.2776,60.1422]]]}},{"type":"Feature","id":"Mariehamn","properties":{"id":"Mariehamn","iso_code":"AX-X09~","name":"Mariehamn","name_full":"Mariehamn","name_ja":"マリエハムン","center_lonlat":[19.9392,60.0845]},"geometry":{"type":"Polygon","coordinates":[[[19.966,60.0911],[19.949,60.0839],[19.9582,60.0538],[19.9485,60.0477],[19.9103,60.1011],[19.9371,60.1108],[19.966,60.0911]]]}},{"type":"Feature","id":"Sottunga","properties":{"id":"Sottunga","iso_code":"AX-X13~","name":"Sottunga","name_full":"Sottunga","name_ja":"ソットゥンガ","center_lonlat":[20.6646,60.1307]},"geometry":{"type":"Polygon","coordinates":[[[20.6834,60.1305],[20.6882,60.117],[20.6716,60.1092],[20.6355,60.1439],[20.6599,60.1497],[20.6834,60.1305]]]}},{"type":"Feature","id":"Vardo","properties":{"id":"Vardo","iso_code":"AX-X12~","name":"Vardo","name_full":"Vårdö","name_ja":"ヴォールド","center_lonlat":[20.3947,60.2404]},"geometry":{"type":"Polygon","coordinates":[[[20.4279,60.2657],[20.4414,60.2452],[20.3929,60.1968],[20.3809,60.1989],[20.3827,60.2407],[20.353,60.2288],[20.3454,60.2377],[20.3589,60.2657],[20.4279,60.2657]]]}}]}
