{"type":"FeatureCollection","features":[{"type":"Feature","id":"Adrar","properties":{"id":"Adrar","iso_code":"DZ-01","name":"Adrar","name_full":"Adrar","name_ja":"アドラール県","center_lonlat":[-0.4432,25.703]},"geometry":{"type":"Polygon","coordinates":[[[-5.6615,25.5089],[-2.9743,27.2033],[-3.7506,28.5669],[-3.5526,28.5824],[-3.3739,28.5021],[-3.269,28.4387],[-3.0227,28.331],[-2.8129,28.2943],[-2.5697,28.3811],[-2.4292,28.4583],[-2.1142,28.6758],[-1.9898,28.74],[-1.876,28.779],[-0.9584,28.923],[-0.8257,29.0082],[-0.1992,29.745],[0.3991,30.7087],[0.7502,31.0299],[0.8425,31.0969],[1.033,31.2018],[2.0854,31.6586],[2.0717,30.8597],[1.9434,30.0948],[2.0793,29.0364],[2.1341,28.4915],[2.1208,28.2901],[2.0655,28.0733],[1.9318,26.7836],[1.9015,26.736],[1.7636,26.6094],[1.6289,26.584],[1.5142,26.4616],[1.394,26.4258],[1.0678,26.4155],[0.9831,26.3636],[0.8644,26.3189],[0.8254,26.2688],[0.8387,26.2411],[0.9238,26.1687],[1.0912,25.9577],[1.1117,25.8395],[1.0971,25.742],[1.1171,25.6928],[1.2863,25.576],[1.3072,25.5414],[1.3001,22.2701],[1.369,22.1779],[3.5732,20.969],[3.6776,20.8784],[3.7515,20.7783],[3.7822,20.5494],[3.7903,19.0608],[3.3331,18.9756],[3.2849,18.9957],[3.226,19.0511],[3.1586,19.0816],[3.1209,19.1128],[3.1027,19.1536],[3.1393,19.2219],[3.1744,19.2516],[3.1929,19.3258],[3.251,19.3655],[3.2608,19.3883],[3.226,19.4597],[3.2323,19.4955],[3.1994,19.5538],[3.2168,19.7941],[3.1988,19.8205],[2.946,19.9417],[2.5148,20.0159],[2.4004,20.0566],[2.3165,20.1802],[2.2008,20.2739],[2.1613,20.2749],[2.0712,20.2133],[1.9553,20.2549],[1.9134,20.2311],[1.8914,20.2318],[1.855,20.2948],[1.7781,20.3043],[1.6592,20.3975],[1.6492,20.4121],[1.644,20.5227],[1.5597,20.5975],[1.364,20.6577],[1.2967,20.7335],[1.1546,20.7388],[1.1453,20.7959],[1.1801,20.9953],[1.1465,21.1017],[-4.516,24.804],[-5.6615,25.5089]]]}},{"type":"Feature","id":"Ain Defla","properties":{"id":"Ain Defla","iso_code":"DZ-44","name":"Ain Defla","name_full":"Aïn Defla","name_ja":"アインデフラ県","center_lonlat":[2.0806,36.1761]},"geometry":{"type":"Polygon","coordinates":[[[1.7127,35.9234],[1.7172,35.9732],[1.6547,36.0545],[1.6468,36.0973],[1.5885,36.1433],[1.5885,36.1641],[1.6287,36.1884],[1.6287,36.2115],[1.5949,36.2344],[1.6033,36.2791],[1.5547,36.3513],[1.5595,36.381],[1.6478,36.4432],[1.7167,36.3667],[1.7695,36.3923],[1.793,36.432],[2.0038,36.4102],[2.1195,36.438],[2.2854,36.4142],[2.4763,36.4206],[2.5225,36.364],[2.6434,36.3973],[2.6611,36.3631],[2.631,36.3186],[2.5269,36.3],[2.4876,36.2579],[2.4917,36.2293],[2.5293,36.1906],[2.5774,36.2118],[2.6364,36.2026],[2.639,36.1816],[2.6065,36.1569],[2.5716,36.0991],[2.4594,36.037],[2.4317,35.9781],[2.3118,35.867],[2.1717,35.9176],[2.0087,35.9179],[1.9872,35.9119],[1.9645,35.8798],[1.8987,35.8877],[1.8536,35.8605],[1.8047,35.9011],[1.7127,35.9234]]]}},{"type":"Feature","id":"Ain Temouchent","properties":{"id":"Ain Temouchent","iso_code":"DZ-46","name":"Ain Temouchent","name_full":"Aïn Témouchent","name_ja":"アイン・ティムシェント県","center_lonlat":[-1.0321,35.3345]},"geometry":{"type":"Polygon","coordinates":[[[-1.362,35.3199],[-1.2677,35.3903],[-1.2473,35.4577],[-1.1833,35.5765],[-1.148,35.5821],[-1.1064,35.6232],[-1.0774,35.5667],[-1.0051,35.517],[-1.0634,35.4666],[-1.067,35.4161],[-1.0497,35.415],[-1.0178,35.4559],[-0.9541,35.4373],[-0.7154,35.4825],[-0.6724,35.462],[-0.6295,35.4096],[-0.6612,35.381],[-0.6517,35.3461],[-0.6689,35.332],[-0.7537,35.3183],[-0.8144,35.2658],[-0.8808,35.2543],[-0.8753,35.1997],[-0.8905,35.1599],[-0.9589,35.1377],[-1.0005,35.0874],[-1.0483,35.0973],[-1.2716,35.1957],[-1.3377,35.1908],[-1.3473,35.2193],[-1.3274,35.2381],[-1.3207,35.2838],[-1.3333,35.3022],[-1.3585,35.3051],[-1.362,35.3199]]]}},{"type":"Feature","id":"Algiers","properties":{"id":"Algiers","iso_code":"DZ-16","name":"Algiers","name_full":"Algiers","name_ja":"アルジェ県","center_lonlat":[3.0895,36.7255]},"geometry":{"type":"Polygon","coordinates":[[[2.9849,36.815],[3.0479,36.795],[3.1018,36.7519],[3.1733,36.7426],[3.2298,36.6851],[3.0974,36.6499],[3.0707,36.66],[3.0537,36.7029],[3.0251,36.7101],[3.024,36.7362],[2.9663,36.7481],[2.9849,36.815]]]}},{"type":"Feature","id":"Annaba","properties":{"id":"Annaba","iso_code":"DZ-23","name":"Annaba","name_full":"Annaba","name_ja":"アンナバ県","center_lonlat":[7.5298,36.8592]},"geometry":{"type":"Polygon","coordinates":[[[7.2627,37.076],[7.2748,37.0693],[7.2977,37.083],[7.3359,37.0693],[7.3835,37.083],[7.4046,37.0516],[7.4561,37.042],[7.4902,37.055],[7.5889,36.9876],[7.6745,36.9868],[7.7127,36.9632],[7.7708,36.9701],[7.7986,36.9936],[7.7743,36.9315],[7.7912,36.9184],[7.7738,36.8898],[7.7574,36.877],[7.7526,36.772],[7.7155,36.7527],[7.6497,36.6634],[7.6027,36.6183],[7.5338,36.6154],[7.4756,36.6388],[7.4568,36.6931],[7.3842,36.7261],[7.3521,36.8354],[7.3639,36.8811],[7.3072,36.9292],[7.2627,37.076]]]}},{"type":"Feature","id":"Batna","properties":{"id":"Batna","iso_code":"DZ-05","name":"Batna","name_full":"Batna","name_ja":"バトナ県","center_lonlat":[5.8833,35.428]},"geometry":{"type":"Polygon","coordinates":[[[5.9767,35.9158],[6.068,35.8928],[6.1492,35.9004],[6.2755,35.8661],[6.3162,35.8691],[6.3394,35.8868],[6.3919,35.8569],[6.4668,35.8464],[6.4808,35.8288],[6.487,35.7814],[6.6031,35.8036],[6.6495,35.7967],[6.6981,35.7655],[6.7691,35.6839],[6.7873,35.591],[6.7817,35.5626],[6.7423,35.5147],[6.6481,35.4828],[6.5927,35.437],[6.584,35.3433],[6.5997,35.3278],[6.6228,35.3317],[6.6284,35.3169],[6.5697,35.2535],[6.5573,35.1865],[6.5149,35.1197],[6.5121,35.0524],[6.5986,34.9004],[6.5705,34.839],[6.5879,34.7785],[6.5585,34.7645],[6.5235,34.7692],[6.4398,34.8383],[6.4313,34.8717],[6.4595,35.017],[6.4293,35.0648],[6.2791,35.0493],[6.2339,35.0304],[6.2148,35.0002],[6.1666,34.9921],[6.1256,35.0009],[6.1064,35.0423],[6.0722,35.0586],[6.053,35.0491],[6.0305,34.9996],[5.9931,34.9894],[5.9399,35.0295],[5.927,35.0617],[5.9448,35.1077],[5.9323,35.1436],[5.9998,35.2036],[6.0053,35.2263],[5.8773,35.2586],[5.8306,35.2884],[5.7129,35.2513],[5.6266,35.2062],[5.5549,35.1914],[5.5583,35.1739],[5.6045,35.1365],[5.6135,35.1064],[5.5367,35.0664],[5.3983,35.0584],[5.2725,35.0184],[5.1848,35.031],[5.0742,35.0811],[5.0386,35.0833],[4.9998,35.0875],[4.9682,35.1216],[4.9251,35.1422],[4.7988,35.1581],[4.779,35.1728],[4.7827,35.1917],[4.8655,35.2626],[4.8889,35.2999],[4.9033,35.3798],[4.8802,35.5254],[4.9632,35.4888],[5.023,35.5207],[5.1738,35.5103],[5.2644,35.55],[5.3797,35.6329],[5.4382,35.6419],[5.4614,35.6699],[5.4769,35.7361],[5.5535,35.7814],[5.5751,35.8183],[5.6069,35.8189],[5.7364,35.771],[5.7619,35.8109],[5.7116,35.8497],[5.7456,35.8902],[5.8229,35.9147],[5.9402,35.8621],[5.9498,35.8655],[5.9469,35.899],[5.9767,35.9158]]]}},{"type":"Feature","id":"Bechar","properties":{"id":"Bechar","iso_code":"DZ-08","name":"Bechar","name_full":"Béchar","name_ja":"ベシャール県","center_lonlat":[-2.5594,30.1464]},"geometry":{"type":"Polygon","coordinates":[[[-1.2734,32.2294],[-1.1159,32.2434],[-1.0101,32.2319],[-0.9611,32.1909],[-0.9182,32.1077],[-0.8956,32.1046],[-0.0394,32.3273],[-0.4011,31.4293],[-0.4008,31.3907],[-0.3702,31.337],[-0.154,31.1238],[0.3991,30.7087],[-0.1992,29.745],[-0.8257,29.0082],[-0.9584,28.923],[-1.876,28.779],[-1.9898,28.74],[-2.1142,28.6758],[-2.4292,28.4583],[-2.5697,28.3811],[-2.8129,28.2943],[-3.0227,28.331],[-3.269,28.4387],[-3.3739,28.5021],[-3.5526,28.5824],[-3.7506,28.5669],[-5.2668,28.2072],[-6.0008,29.5791],[-5.7562,29.6141],[-5.7212,29.5232],[-5.6373,29.4953],[-5.5395,29.5232],[-5.4347,29.642],[-5.2739,29.8866],[-5.1761,29.9775],[-4.8756,30.1802],[-4.624,30.285],[-4.4842,30.3828],[-4.3724,30.5086],[-4.2745,30.5576],[-4.1557,30.5855],[-4.002,30.5925],[-3.8342,30.6275],[-3.6455,30.7113],[-3.6595,30.8371],[-3.6106,30.879],[-3.5547,30.9559],[-3.6087,31.0309],[-3.6241,31.0865],[-3.6897,31.1256],[-3.7314,31.1763],[-3.7489,31.1802],[-3.8108,31.1429],[-3.8393,31.1528],[-3.8428,31.1702],[-3.815,31.2205],[-3.8152,31.3372],[-3.7475,31.3852],[-3.6735,31.3892],[-3.6595,31.6478],[-3.5914,31.6783],[-3.5116,31.6727],[-3.2192,31.7177],[-3.0026,31.7736],[-2.8278,31.7946],[-2.9387,32.0486],[-2.8812,32.0763],[-2.6956,32.0897],[-2.5161,32.1322],[-1.2496,32.0817],[-1.2103,32.0897],[-1.1906,32.1252],[-1.2118,32.1583],[-1.2518,32.1635],[-1.3052,32.1512],[-1.3096,32.1674],[-1.2766,32.2009],[-1.2734,32.2294]]]}},{"type":"Feature","id":"Bejaia","properties":{"id":"Bejaia","iso_code":"DZ-06","name":"Bejaia","name_full":"Béjaïa","name_ja":"ベジャイア県","center_lonlat":[4.8473,36.5711]},"geometry":{"type":"Polygon","coordinates":[[[4.5915,36.8952],[4.7871,36.8954],[4.9499,36.8398],[4.9736,36.8189],[5.0093,36.8161],[5.0459,36.7885],[5.1048,36.7813],[5.0848,36.7326],[5.0902,36.7168],[5.2359,36.6509],[5.3044,36.643],[5.428,36.6639],[5.4362,36.6326],[5.4278,36.6128],[5.4755,36.5906],[5.4573,36.5611],[5.4607,36.5028],[5.3279,36.4493],[5.3032,36.3893],[5.2222,36.3843],[5.1878,36.4084],[5.1948,36.4497],[5.1656,36.4942],[5.1934,36.5275],[5.1353,36.5696],[5.1016,36.5777],[5.0765,36.5743],[5.0453,36.5242],[5.0001,36.5296],[4.9499,36.503],[4.9868,36.4624],[4.9517,36.4383],[4.944,36.408],[4.9226,36.3894],[4.8707,36.3757],[4.8011,36.3797],[4.7742,36.4214],[4.748,36.4207],[4.6939,36.3667],[4.6358,36.3385],[4.6301,36.2533],[4.5114,36.2257],[4.4234,36.2262],[4.3564,36.3404],[4.3964,36.3661],[4.4045,36.4259],[4.3709,36.4727],[4.4537,36.5015],[4.5281,36.5685],[4.5921,36.6616],[4.5995,36.6883],[4.5483,36.7173],[4.5441,36.7444],[4.5786,36.7596],[4.6347,36.7537],[4.6481,36.7955],[4.5915,36.8952]]]}},{"type":"Feature","id":"Biskra","properties":{"id":"Biskra","iso_code":"DZ-07","name":"Biskra","name_full":"Biskra","name_ja":"ビスクラ県","center_lonlat":[5.3442,34.5033]},"geometry":{"type":"Polygon","coordinates":[[[5.0386,35.0833],[5.0742,35.0811],[5.1848,35.031],[5.2725,35.0184],[5.3983,35.0584],[5.5367,35.0664],[5.6135,35.1064],[5.6045,35.1365],[5.5583,35.1739],[5.5549,35.1914],[5.6266,35.2062],[5.7129,35.2513],[5.8306,35.2884],[5.8773,35.2586],[6.0053,35.2263],[5.9998,35.2036],[5.9323,35.1436],[5.9448,35.1077],[5.927,35.0617],[5.9399,35.0295],[5.9931,34.9894],[6.0305,34.9996],[6.053,35.0491],[6.0722,35.0586],[6.1064,35.0423],[6.1256,35.0009],[6.1666,34.9921],[6.2148,35.0002],[6.2339,35.0304],[6.2791,35.0493],[6.4293,35.0648],[6.4595,35.017],[6.4313,34.8717],[6.4398,34.8383],[6.5235,34.7692],[6.5585,34.7645],[6.5879,34.7785],[6.7143,34.7885],[6.7485,34.7261],[6.735,34.602],[6.6965,34.4758],[6.7055,34.412],[6.6959,34.3761],[6.6262,34.3332],[6.5269,34.3165],[6.4718,34.331],[6.4285,34.37],[6.3705,34.3925],[6.2114,34.4284],[5.9985,34.395],[5.4772,34.4498],[5.3117,34.4983],[5.299,34.4491],[5.2172,34.412],[5.1855,34.3567],[5.302,34.2557],[5.3599,34.1662],[5.3738,34.0584],[5.3348,33.846],[5.3139,33.8035],[5.2182,33.7092],[5.1218,33.5727],[4.3624,33.9574],[4.3351,33.986],[4.2985,34.1358],[4.2336,34.1556],[4.2106,34.1746],[4.2137,34.2322],[4.2856,34.2365],[4.3165,34.2518],[4.2304,34.3767],[4.1844,34.5082],[4.2733,34.6258],[4.4347,34.7727],[4.5131,34.7699],[4.7011,34.8134],[4.8321,34.8192],[4.9328,34.8389],[5.0012,34.8744],[5.0411,34.9186],[5.0386,35.0833]]]}},{"type":"Feature","id":"Blida","properties":{"id":"Blida","iso_code":"DZ-09","name":"Blida","name_full":"Blida","name_ja":"ブリダ県","center_lonlat":[3.0004,36.5272]},"geometry":{"type":"Polygon","coordinates":[[[3.4774,36.6886],[3.5101,36.6232],[3.4564,36.5768],[3.3218,36.5504],[3.283,36.4902],[3.2032,36.4749],[3.1623,36.4291],[2.9963,36.3533],[2.9671,36.3607],[2.9238,36.4131],[2.9098,36.4152],[2.8453,36.3692],[2.6611,36.3631],[2.6434,36.3973],[2.5225,36.364],[2.4763,36.4206],[2.4997,36.4704],[2.6025,36.4674],[2.6344,36.5128],[2.7145,36.5677],[2.8127,36.6059],[2.8374,36.6379],[2.962,36.6376],[3.0299,36.6622],[3.0251,36.7101],[3.0537,36.7029],[3.0707,36.66],[3.0974,36.6499],[3.2298,36.6851],[3.2877,36.7072],[3.3544,36.7135],[3.4374,36.6765],[3.4774,36.6886]]]}},{"type":"Feature","id":"Bordj Bou Arreridj","properties":{"id":"Bordj Bou Arreridj","iso_code":"DZ-34","name":"Bordj Bou Arreridj","name_full":"Bordj Bou Arréridj","name_ja":"ボルジ・ブ・アレリジ県","center_lonlat":[4.732,36.0855]},"geometry":{"type":"Polygon","coordinates":[[[4.8011,36.3797],[4.7852,36.3466],[4.8212,36.3069],[4.9136,36.3],[4.9907,36.3155],[5.0348,36.3109],[5.074,36.2942],[5.1256,36.2324],[5.1881,36.2455],[5.2033,36.2338],[5.2124,36.1967],[5.2385,36.2055],[5.2536,36.1974],[5.2433,36.1544],[5.1841,36.1154],[5.1963,36.0743],[5.1448,35.9642],[5.14,35.8566],[5.0665,35.8405],[5.0545,35.7773],[4.9997,35.7842],[4.9182,35.8233],[4.8549,35.8732],[4.7485,35.8635],[4.6208,35.8236],[4.4667,35.8323],[4.4482,35.8489],[4.4493,35.8697],[4.4878,35.9019],[4.5009,35.931],[4.5408,35.9421],[4.4941,36.0284],[4.3791,35.9911],[4.2148,36.0166],[4.1363,35.9956],[4.1119,36.0001],[4.0843,36.0291],[4.1447,36.0877],[4.1764,36.1607],[4.2595,36.229],[4.3564,36.3404],[4.4234,36.2262],[4.5114,36.2257],[4.6301,36.2533],[4.6358,36.3385],[4.6939,36.3667],[4.748,36.4207],[4.7742,36.4214],[4.8011,36.3797]]]}},{"type":"Feature","id":"Bouira","properties":{"id":"Bouira","iso_code":"DZ-10","name":"Bouira","name_full":"Bouïra","name_ja":"ブイラ県","center_lonlat":[3.8504,36.2774]},"geometry":{"type":"Polygon","coordinates":[[[4.3564,36.3404],[4.2595,36.229],[4.1764,36.1607],[4.1447,36.0877],[4.0843,36.0291],[4.0458,35.9471],[4.0418,35.8797],[4.0223,35.8669],[3.9542,35.8908],[3.8508,35.862],[3.7355,35.93],[3.6284,35.9228],[3.5789,35.9994],[3.5644,36.051],[3.5732,36.2212],[3.5522,36.3083],[3.5831,36.3387],[3.5555,36.4229],[3.5001,36.439],[3.4227,36.4079],[3.3626,36.4588],[3.283,36.4902],[3.3218,36.5504],[3.4564,36.5768],[3.5101,36.6232],[3.4774,36.6886],[3.538,36.6769],[3.6474,36.6918],[3.6807,36.6668],[3.6416,36.6162],[3.6419,36.6004],[3.7337,36.6076],[3.7619,36.5678],[3.8514,36.5063],[3.9361,36.4744],[4.3709,36.4727],[4.4045,36.4259],[4.3964,36.3661],[4.3564,36.3404]]]}},{"type":"Feature","id":"Boumerdes","properties":{"id":"Boumerdes","iso_code":"DZ-35","name":"Boumerdes","name_full":"Boumerdès","name_ja":"ブメルデス県","center_lonlat":[3.6812,36.7652]},"geometry":{"type":"Polygon","coordinates":[[[3.1733,36.7426],[3.2105,36.7574],[3.2273,36.8123],[3.3405,36.7807],[3.4607,36.7751],[3.5505,36.7914],[3.5706,36.8086],[3.6121,36.8086],[3.7419,36.8912],[3.8275,36.9129],[3.9126,36.9116],[3.964,36.8912],[4.0395,36.8969],[4.026,36.836],[3.9721,36.7815],[3.9326,36.769],[3.9639,36.7193],[3.9591,36.704],[3.9088,36.6673],[3.8465,36.6797],[3.8139,36.6487],[3.779,36.6611],[3.7447,36.6563],[3.7337,36.6076],[3.6419,36.6004],[3.6416,36.6162],[3.6807,36.6668],[3.6474,36.6918],[3.538,36.6769],[3.4774,36.6886],[3.4374,36.6765],[3.3544,36.7135],[3.2877,36.7072],[3.2298,36.6851],[3.1733,36.7426]]]}},{"type":"Feature","id":"Chlef","properties":{"id":"Chlef","iso_code":"DZ-02","name":"Chlef","name_full":"Chlef","name_ja":"シュレフ県","center_lonlat":[1.2598,36.2321]},"geometry":{"type":"Polygon","coordinates":[[[0.7404,36.3378],[0.8648,36.3774],[0.9251,36.4182],[0.9456,36.4523],[1.0448,36.4869],[1.117,36.4871],[1.1787,36.5109],[1.2655,36.5153],[1.3677,36.5479],[1.4528,36.528],[1.7009,36.5472],[1.6478,36.4432],[1.5595,36.381],[1.5547,36.3513],[1.6033,36.2791],[1.5949,36.2344],[1.6287,36.2115],[1.6287,36.1884],[1.5885,36.1641],[1.5885,36.1433],[1.6468,36.0973],[1.6547,36.0545],[1.7172,35.9732],[1.7127,35.9234],[1.6747,35.9207],[1.6121,35.9472],[1.5874,35.988],[1.5533,36.0057],[1.5148,35.9676],[1.5049,35.9352],[1.448,35.9143],[1.4511,35.8865],[1.4105,35.8648],[1.4116,35.8416],[1.3562,35.8681],[1.2889,35.9659],[1.1593,35.946],[1.0792,35.9826],[1.041,36.0254],[0.9481,36.032],[0.9205,36.0652],[0.9271,36.11],[0.8974,36.1976],[0.7702,36.1752],[0.7041,36.1865],[0.7404,36.3378]]]}},{"type":"Feature","id":"Constantine","properties":{"id":"Constantine","iso_code":"DZ-25","name":"Constantine","name_full":"Constantine","name_ja":"コンスタンティーヌ県","center_lonlat":[6.7087,36.348]},"geometry":{"type":"Polygon","coordinates":[[[6.938,36.4329],[6.9699,36.374],[7.0005,36.3499],[7.0104,36.3004],[7.0456,36.2758],[7.045,36.2132],[7.0106,36.1552],[6.9493,36.1425],[6.8985,36.1069],[6.8883,36.1085],[6.8799,36.1464],[6.7727,36.1924],[6.5975,36.1269],[6.5848,36.1087],[6.5163,36.1656],[6.525,36.2047],[6.4684,36.2738],[6.3784,36.3492],[6.3339,36.3532],[6.3177,36.3678],[6.3309,36.3885],[6.3685,36.4077],[6.4785,36.429],[6.4656,36.4906],[6.4928,36.5159],[6.5041,36.5777],[6.5994,36.574],[6.6524,36.6079],[6.6794,36.5858],[6.7772,36.5563],[6.9111,36.5604],[6.9201,36.5505],[6.9041,36.529],[6.8455,36.5314],[6.8413,36.4923],[6.818,36.4668],[6.938,36.4329]]]}},{"type":"Feature","id":"Djelfa","properties":{"id":"Djelfa","iso_code":"DZ-17","name":"Djelfa","name_full":"Djelfa","name_ja":"ジェルファ県","center_lonlat":[3.5519,34.332]},"geometry":{"type":"Polygon","coordinates":[[[4.9783,32.8408],[4.1762,33.0296],[4.1177,33.1693],[4.0591,33.2525],[3.641,33.5643],[3.2321,33.9474],[3.1492,34.0748],[3.128,34.1717],[3.0935,34.24],[2.9494,34.2636],[2.858,34.1969],[2.8176,34.1388],[2.6502,34.098],[2.6392,33.911],[2.4749,33.9237],[2.4583,34.0032],[2.4845,34.0808],[2.4834,34.1136],[2.3937,34.2253],[2.361,34.3527],[2.3045,34.4126],[2.2958,34.439],[2.3095,34.5634],[2.3644,34.6396],[2.3577,34.6929],[2.37,34.7763],[2.4603,34.8702],[2.5234,34.9991],[2.6203,35.0311],[2.6042,35.055],[2.3793,35.205],[2.3793,35.2506],[2.36,35.288],[2.2868,35.3293],[2.2857,35.4391],[2.527,35.5012],[2.6198,35.4457],[2.6872,35.4537],[2.7649,35.5349],[2.8937,35.6208],[2.8985,35.7132],[2.8842,35.7805],[2.8994,35.7955],[2.9813,35.8009],[3.0124,35.7456],[3.045,35.7195],[3.0563,35.683],[3.0819,35.6719],[3.1964,35.6945],[3.2158,35.717],[3.2301,35.7701],[3.2551,35.7974],[3.2739,35.7952],[3.306,35.7546],[3.3795,35.7512],[3.4497,35.6591],[3.5603,35.5873],[3.6959,35.472],[3.6903,35.4211],[3.6576,35.3741],[3.6649,35.2949],[3.4736,35.158],[3.5328,35.0545],[3.6081,35.066],[3.5718,35.0052],[3.5951,34.9531],[3.5992,34.8863],[3.6498,34.843],[3.6711,34.7903],[3.7552,34.7908],[3.9144,34.7586],[3.9211,34.6727],[3.9645,34.545],[4.0364,34.4419],[4.0477,34.3541],[4.1543,34.2871],[4.2137,34.2322],[4.2106,34.1746],[4.2336,34.1556],[4.2985,34.1358],[4.3351,33.986],[4.3624,33.9574],[5.1218,33.5727],[5.008,33.4419],[4.9531,33.2415],[4.9783,32.8408]]]}},{"type":"Feature","id":"El Bayadh","properties":{"id":"El Bayadh","iso_code":"DZ-32","name":"El Bayadh","name_full":"El Bayadh","name_ja":"エル・バヤード県","center_lonlat":[0.9414,32.5704]},"geometry":{"type":"Polygon","coordinates":[[[0.7576,34.4382],[0.9737,34.3821],[1.032,34.3394],[1.0237,34.1912],[1.2315,34.1919],[1.2505,34.1825],[1.283,34.1257],[1.3362,34.0689],[1.3898,33.9782],[1.4281,33.9512],[1.5246,33.9114],[1.727,33.8586],[1.7769,33.8313],[1.8115,33.7952],[1.8824,33.6716],[2.0193,33.499],[2.0374,33.4249],[2.0314,33.3925],[1.9761,33.3196],[1.9752,33.2922],[2.0148,33.2375],[2.0542,33.1089],[2.1749,32.975],[2.2059,32.9163],[2.262,32.7441],[2.2915,32.696],[2.3053,32.6182],[2.2975,32.3773],[2.3416,32.2089],[2.3433,32.1327],[2.3157,32.0622],[2.2153,31.9233],[2.2119,31.8881],[2.2393,31.7735],[2.0854,31.6586],[1.033,31.2018],[0.8425,31.0969],[0.7502,31.0299],[0.3991,30.7087],[-0.154,31.1238],[-0.3702,31.337],[-0.4008,31.3907],[-0.4011,31.4293],[-0.0394,32.3273],[-0.012,32.4012],[-0.0066,32.487],[-0.0248,32.5064],[-0.0839,32.5244],[-0.1016,32.5671],[-0.0067,32.8048],[-0.027,33.0206],[0.0635,33.3081],[0.0681,33.3761],[0.0457,33.6231],[0.0506,33.8031],[0.086,34.0483],[0.1169,34.1041],[0.1976,34.1696],[0.2354,34.2259],[0.3515,34.2381],[0.4011,34.2743],[0.696,34.4243],[0.7576,34.4382]]]}},{"type":"Feature","id":"El Oued","properties":{"id":"El Oued","iso_code":"DZ-39","name":"El Oued","name_full":"El Oued","name_ja":"エル・ウェッド県","center_lonlat":[6.9577,33.2228]},"geometry":{"type":"Polygon","coordinates":[[[9.0633,32.0002],[7.3138,32.0023],[7.1699,32.0164],[7.0309,32.053],[6.9294,32.1425],[6.8509,32.2392],[6.6838,32.5118],[6.4648,33.1577],[6.3786,33.3176],[6.193,33.377],[5.008,33.4419],[5.1218,33.5727],[5.2182,33.7092],[5.3139,33.8035],[5.3348,33.846],[5.3738,34.0584],[5.3599,34.1662],[5.302,34.2557],[5.1855,34.3567],[5.2172,34.412],[5.299,34.4491],[5.3117,34.4983],[5.4772,34.4498],[5.9985,34.395],[6.2114,34.4284],[6.3705,34.3925],[6.4285,34.37],[6.4718,34.331],[6.5269,34.3165],[6.6262,34.3332],[6.6959,34.3761],[6.715,34.3266],[6.7449,34.2987],[6.9606,34.1939],[7.1358,34.1606],[7.2711,34.1138],[7.5392,34.1138],[7.5037,34.068],[7.4798,33.8939],[7.4849,33.855],[7.553,33.6587],[7.6932,33.4541],[7.7082,33.4149],[7.7097,33.2782],[7.725,33.2314],[7.7507,33.2077],[7.872,33.1841],[8.0022,33.1084],[8.0868,33.0943],[8.2829,32.8364],[8.2964,32.8044],[8.3313,32.5276],[9.0199,32.1049],[9.045,32.0718],[9.0633,32.0002]]]}},{"type":"Feature","id":"El Tarf","properties":{"id":"El Tarf","iso_code":"DZ-36","name":"El Tarf","name_full":"El Tarf","name_ja":"エル・タルフ県","center_lonlat":[8.117,36.7227]},"geometry":{"type":"Polygon","coordinates":[[[8.1679,36.492],[8.0833,36.4221],[8.0232,36.4041],[8.0072,36.4128],[8.0031,36.459],[7.9879,36.4844],[7.9656,36.5122],[7.7715,36.5816],[7.752,36.6177],[7.7079,36.6521],[7.6497,36.6634],[7.7155,36.7527],[7.7526,36.772],[7.7574,36.877],[7.7738,36.8898],[7.8099,36.8681],[7.9085,36.8496],[8.05,36.8776],[8.2332,36.9581],[8.2881,36.9259],[8.3888,36.9232],[8.4632,36.9016],[8.6025,36.9395],[8.6082,36.8907],[8.6417,36.8364],[8.5545,36.8036],[8.4131,36.7839],[8.4067,36.768],[8.4618,36.7328],[8.4304,36.6626],[8.2869,36.5834],[8.1935,36.549],[8.1699,36.5258],[8.1679,36.492]]]}},{"type":"Feature","id":"Ghardaia","properties":{"id":"Ghardaia","iso_code":"DZ-47","name":"Ghardaia","name_full":"Ghardaïa","name_ja":"ガルダイア県","center_lonlat":[3.1174,31.1623]},"geometry":{"type":"Polygon","coordinates":[[[2.0854,31.6586],[2.2393,31.7735],[2.2119,31.8881],[2.2153,31.9233],[2.3157,32.0622],[2.3433,32.1327],[2.3416,32.2089],[2.2975,32.3773],[2.3053,32.6182],[2.2915,32.696],[2.65,32.7524],[2.8873,32.8124],[3.1007,32.8307],[3.1576,32.8239],[3.2652,32.7812],[3.3213,32.7808],[3.4275,32.8755],[3.7386,33.0005],[3.8137,33.0004],[3.8844,32.9819],[4.1762,33.0296],[4.9783,32.8408],[4.7389,32.5319],[4.5424,32.3756],[4.3989,32.2963],[4.3591,32.256],[4.1108,31.7914],[4.0506,31.5535],[3.8025,29.9898],[3.7215,29.8633],[3.5996,29.7678],[3.4796,29.6368],[3.3975,29.3649],[3.3445,29.3066],[2.986,29.1235],[2.0793,29.0364],[1.9434,30.0948],[2.0717,30.8597],[2.0854,31.6586]]]}},{"type":"Feature","id":"Guelma","properties":{"id":"Guelma","iso_code":"DZ-24","name":"Guelma","name_full":"Guelma","name_ja":"ゲルマ県","center_lonlat":[7.3989,36.4026]},"geometry":{"type":"Polygon","coordinates":[[[7.0106,36.1552],[7.045,36.2132],[7.0456,36.2758],[7.0104,36.3004],[7.0005,36.3499],[6.9699,36.374],[6.938,36.4329],[6.9615,36.4664],[7.0757,36.5026],[7.0771,36.5453],[7.124,36.5858],[7.2365,36.634],[7.3147,36.6516],[7.3397,36.7064],[7.3842,36.7261],[7.4568,36.6931],[7.4756,36.6388],[7.5338,36.6154],[7.6027,36.6183],[7.6497,36.6634],[7.7079,36.6521],[7.752,36.6177],[7.7715,36.5816],[7.9656,36.5122],[7.9879,36.4844],[7.8714,36.4326],[7.7953,36.441],[7.835,36.3349],[7.8139,36.3049],[7.7434,36.2924],[7.5438,36.2238],[7.508,36.1961],[7.4104,36.1813],[7.368,36.1348],[7.3259,36.1274],[7.2908,36.1433],[7.2238,36.1441],[7.1949,36.0807],[7.079,36.0425],[7.0237,36.0986],[7.0106,36.1552]]]}},{"type":"Feature","id":"Illizi","properties":{"id":"Illizi","iso_code":"DZ-33","name":"Illizi","name_full":"Illizi","name_ja":"イリジ県","center_lonlat":[8.353,26.7963]},"geometry":{"type":"Polygon","coordinates":[[[9.3695,30.0228],[9.5497,29.8023],[9.6677,29.6083],[9.8261,29.1285],[9.8483,28.9757],[9.8513,28.786],[9.777,28.2676],[9.7899,28.2094],[9.9359,27.8667],[9.9343,27.8274],[9.8634,27.6192],[9.7939,27.5697],[9.8216,27.5057],[9.7563,27.423],[9.7219,27.3085],[9.8061,27.0251],[9.8255,26.9206],[9.8351,26.901],[9.9067,26.8575],[9.9106,26.8431],[9.8826,26.7018],[9.8963,26.6528],[9.8546,26.5244],[9.8358,26.5042],[9.4826,26.3526],[9.4776,26.3156],[9.4348,26.272],[9.3778,26.1689],[9.4012,26.1134],[9.9695,25.3954],[10.0079,25.3314],[10.0214,25.268],[10.032,24.8563],[10.0445,24.8296],[10.1934,24.7499],[10.2122,24.7229],[10.2422,24.5951],[10.2603,24.5766],[10.4105,24.4733],[10.4502,24.4769],[10.6774,24.5539],[10.7207,24.5523],[11.5086,24.3138],[11.5671,24.2668],[11.7101,24.0001],[8.6987,24.0035],[8.6265,24.0699],[8.5595,24.1885],[8.5213,24.2286],[8.3924,24.2397],[8.3004,24.2654],[8.2634,24.2945],[8.1725,24.3286],[7.9537,24.3677],[7.8429,24.4426],[7.7815,24.5003],[7.7026,24.5363],[7.6306,24.5972],[7.5931,24.6003],[7.5057,24.6511],[7.4129,24.6549],[7.3681,24.67],[7.3202,24.7028],[7.2244,24.826],[7.1254,24.8951],[7.1069,24.9226],[7.0861,25.0015],[7.0858,25.1092],[7.1093,25.1735],[7.164,25.2483],[7.1707,25.2864],[7.1384,25.3466],[6.9955,25.5016],[6.9844,25.6897],[6.9586,25.7598],[6.7119,25.8217],[6.5378,25.8949],[6.3073,26.1653],[6.1835,26.2257],[6.1731,26.2587],[6.1794,26.3121],[6.2744,26.5285],[6.2619,26.5985],[6.2063,26.6597],[6.01,26.795],[5.9504,26.8618],[5.8404,27.2027],[5.8157,27.3214],[5.8375,27.4063],[5.8724,27.4568],[6.01,27.5542],[6.2578,27.7655],[6.5266,27.8581],[6.5666,27.8881],[6.5444,28.0094],[6.5109,28.0899],[5.9527,28.4908],[6.4209,28.7313],[6.7874,28.8683],[6.9372,28.8684],[7.1464,28.8394],[9.3695,30.0228]]]}},{"type":"Feature","id":"Jijel","properties":{"id":"Jijel","iso_code":"DZ-18","name":"Jijel","name_full":"Jijel","name_ja":"ジジェル県","center_lonlat":[5.9629,36.7021]},"geometry":{"type":"Polygon","coordinates":[[[5.428,36.6639],[5.4649,36.6652],[5.5291,36.6977],[5.5939,36.7739],[5.6746,36.7996],[5.7105,36.8255],[5.7588,36.8334],[5.8688,36.8229],[6.0371,36.8536],[6.197,36.9023],[6.2478,36.9353],[6.2738,36.9126],[6.2713,36.8704],[6.3154,36.8603],[6.3385,36.8378],[6.366,36.7418],[6.4183,36.6955],[6.4748,36.6691],[6.4574,36.5799],[6.3278,36.6006],[6.2946,36.6241],[6.2153,36.5826],[6.0232,36.6059],[5.9663,36.5905],[5.9043,36.5455],[5.845,36.5436],[5.7757,36.5628],[5.7372,36.5551],[5.6754,36.5365],[5.614,36.5555],[5.5428,36.524],[5.511,36.5385],[5.4982,36.5841],[5.4755,36.5906],[5.4278,36.6128],[5.4362,36.6326],[5.428,36.6639]]]}},{"type":"Feature","id":"Khenchela","properties":{"id":"Khenchela","iso_code":"DZ-40","name":"Khenchela","name_full":"Khenchela","name_ja":"ヘンシュラ県","center_lonlat":[6.9991,34.9746]},"geometry":{"type":"Polygon","coordinates":[[[6.7691,35.6839],[6.825,35.6236],[6.9926,35.632],[7.0155,35.6231],[7.0512,35.5772],[7.1021,35.5854],[7.1412,35.6175],[7.2675,35.6212],[7.3034,35.6007],[7.315,35.5352],[7.3321,35.537],[7.3606,35.5703],[7.3852,35.5718],[7.4251,35.5335],[7.4623,35.5391],[7.4846,35.4962],[7.5448,35.4478],[7.4131,35.3866],[7.4171,35.2857],[7.4028,35.2336],[7.4115,35.1561],[7.3878,35.1168],[7.2222,34.9463],[7.2252,34.9006],[7.2655,34.8323],[7.2762,34.8408],[7.2543,34.9022],[7.2644,34.9406],[7.3083,34.9772],[7.3659,34.9625],[7.4028,34.746],[7.3752,34.6816],[7.2741,34.5407],[7.2047,34.2966],[7.1358,34.1606],[6.9606,34.1939],[6.7449,34.2987],[6.715,34.3266],[6.6959,34.3761],[6.7055,34.412],[6.6965,34.4758],[6.735,34.602],[6.7485,34.7261],[6.7143,34.7885],[6.5879,34.7785],[6.5705,34.839],[6.5986,34.9004],[6.5121,35.0524],[6.5149,35.1197],[6.5573,35.1865],[6.5697,35.2535],[6.6284,35.3169],[6.6228,35.3317],[6.5997,35.3278],[6.584,35.3433],[6.5927,35.437],[6.6481,35.4828],[6.7423,35.5147],[6.7817,35.5626],[6.7873,35.591],[6.7691,35.6839]]]}},{"type":"Feature","id":"Laghouat","properties":{"id":"Laghouat","iso_code":"DZ-03","name":"Laghouat","name_full":"Laghouat","name_ja":"ラグアット県","center_lonlat":[2.6984,33.56]},"geometry":{"type":"Polygon","coordinates":[[[2.2915,32.696],[2.262,32.7441],[2.2059,32.9163],[2.1749,32.975],[2.0542,33.1089],[2.0148,33.2375],[1.9752,33.2922],[1.9761,33.3196],[2.0314,33.3925],[2.0374,33.4249],[2.0193,33.499],[1.8824,33.6716],[1.8115,33.7952],[1.7769,33.8313],[1.727,33.8586],[1.5246,33.9114],[1.4281,33.9512],[1.3898,33.9782],[1.3362,34.0689],[1.6416,34.2562],[1.6911,34.3458],[1.8062,34.4491],[1.9811,34.507],[2.0876,34.5836],[2.1808,34.6291],[2.2206,34.6747],[2.3577,34.6929],[2.3644,34.6396],[2.3095,34.5634],[2.2958,34.439],[2.3045,34.4126],[2.361,34.3527],[2.3937,34.2253],[2.4834,34.1136],[2.4845,34.0808],[2.4583,34.0032],[2.4749,33.9237],[2.6392,33.911],[2.6502,34.098],[2.8176,34.1388],[2.858,34.1969],[2.9494,34.2636],[3.0935,34.24],[3.128,34.1717],[3.1492,34.0748],[3.2321,33.9474],[3.641,33.5643],[4.0591,33.2525],[4.1177,33.1693],[4.1762,33.0296],[3.8844,32.9819],[3.8137,33.0004],[3.7386,33.0005],[3.4275,32.8755],[3.3213,32.7808],[3.2652,32.7812],[3.1576,32.8239],[3.1007,32.8307],[2.8873,32.8124],[2.65,32.7524],[2.2915,32.696]]]}},{"type":"Feature","id":"M'Sila","properties":{"id":"M'Sila","iso_code":"DZ-28","name":"M'Sila","name_full":"M'Sila","name_ja":"ムシラ県","center_lonlat":[4.2764,35.302]},"geometry":{"type":"Polygon","coordinates":[[[5.0545,35.7773],[5.1015,35.741],[5.1708,35.7178],[5.1842,35.6899],[5.2262,35.664],[5.3797,35.6329],[5.2644,35.55],[5.1738,35.5103],[5.023,35.5207],[4.9632,35.4888],[4.8802,35.5254],[4.9033,35.3798],[4.8889,35.2999],[4.8655,35.2626],[4.7827,35.1917],[4.779,35.1728],[4.7988,35.1581],[4.9251,35.1422],[4.9682,35.1216],[4.9998,35.0875],[5.0386,35.0833],[5.0411,34.9186],[5.0012,34.8744],[4.9328,34.8389],[4.8321,34.8192],[4.7011,34.8134],[4.5131,34.7699],[4.4347,34.7727],[4.2733,34.6258],[4.1844,34.5082],[4.2304,34.3767],[4.3165,34.2518],[4.2856,34.2365],[4.2137,34.2322],[4.1543,34.2871],[4.0477,34.3541],[4.0364,34.4419],[3.9645,34.545],[3.9211,34.6727],[3.9144,34.7586],[3.7552,34.7908],[3.6711,34.7903],[3.6498,34.843],[3.5992,34.8863],[3.5951,34.9531],[3.5718,35.0052],[3.6081,35.066],[3.5328,35.0545],[3.4736,35.158],[3.6649,35.2949],[3.6576,35.3741],[3.6903,35.4211],[3.6959,35.472],[3.5603,35.5873],[3.4497,35.6591],[3.3795,35.7512],[3.3943,35.7938],[3.4206,35.8035],[3.5432,35.6724],[3.5574,35.7246],[3.5367,35.7922],[3.5636,35.8195],[3.6087,35.8374],[3.6339,35.8895],[3.6284,35.9228],[3.7355,35.93],[3.8508,35.862],[3.9542,35.8908],[4.0223,35.8669],[4.0418,35.8797],[4.0458,35.9471],[4.0843,36.0291],[4.1119,36.0001],[4.1363,35.9956],[4.2148,36.0166],[4.3791,35.9911],[4.4941,36.0284],[4.5408,35.9421],[4.5009,35.931],[4.4878,35.9019],[4.4493,35.8697],[4.4482,35.8489],[4.4667,35.8323],[4.6208,35.8236],[4.7485,35.8635],[4.8549,35.8732],[4.9182,35.8233],[4.9997,35.7842],[5.0545,35.7773]]]}},{"type":"Feature","id":"Mascara","properties":{"id":"Mascara","iso_code":"DZ-29","name":"Mascara","name_full":"Mascara","name_ja":"マスカラ県","center_lonlat":[0.1417,35.3895]},"geometry":{"type":"Polygon","coordinates":[[[0.2294,35.6959],[0.2665,35.6688],[0.2931,35.5842],[0.3191,35.5578],[0.4569,35.5581],[0.5323,35.51],[0.604,35.5143],[0.6603,35.4793],[0.8279,35.4435],[0.8284,35.4184],[0.8805,35.3864],[0.82,35.3061],[0.7785,35.2794],[0.6843,35.2996],[0.6178,35.276],[0.5656,35.1915],[0.5138,35.1346],[0.4922,35.0863],[0.4314,35.0507],[0.3312,35.0548],[0.2098,35.0215],[0.1659,35.0381],[0.1122,35.0961],[0.0254,35.0926],[-0.0143,35.0639],[-0.091,35.1079],[-0.106,35.1597],[-0.1197,35.1575],[-0.1356,35.1276],[-0.1652,35.1229],[-0.217,35.1909],[-0.1892,35.2993],[-0.3618,35.3588],[-0.3955,35.3418],[-0.4637,35.358],[-0.4824,35.3744],[-0.4549,35.4065],[-0.4644,35.4294],[-0.5454,35.412],[-0.5097,35.4401],[-0.4982,35.4862],[-0.4455,35.5078],[-0.4184,35.5621],[-0.3357,35.6217],[-0.3025,35.6694],[-0.2206,35.6836],[-0.1144,35.7838],[-0.0982,35.7413],[-0.044,35.7145],[0.0365,35.7263],[0.1045,35.7567],[0.1274,35.738],[0.1521,35.6826],[0.2294,35.6959]]]}},{"type":"Feature","id":"Medea","properties":{"id":"Medea","iso_code":"DZ-26","name":"Medea","name_full":"Médéa","name_ja":"メデア県","center_lonlat":[2.9371,35.9742]},"geometry":{"type":"Polygon","coordinates":[[[2.2497,35.5596],[2.261,35.6056],[2.2424,35.6258],[2.1895,35.6471],[2.1582,35.6982],[2.1739,35.7185],[2.242,35.7441],[2.3118,35.867],[2.4317,35.9781],[2.4594,36.037],[2.5716,36.0991],[2.6065,36.1569],[2.639,36.1816],[2.6364,36.2026],[2.5774,36.2118],[2.5293,36.1906],[2.4917,36.2293],[2.4876,36.2579],[2.5269,36.3],[2.631,36.3186],[2.6611,36.3631],[2.8453,36.3692],[2.9098,36.4152],[2.9238,36.4131],[2.9671,36.3607],[2.9963,36.3533],[3.1623,36.4291],[3.2032,36.4749],[3.283,36.4902],[3.3626,36.4588],[3.4227,36.4079],[3.5001,36.439],[3.5555,36.4229],[3.5831,36.3387],[3.5522,36.3083],[3.5732,36.2212],[3.5644,36.051],[3.5789,35.9994],[3.6284,35.9228],[3.6339,35.8895],[3.6087,35.8374],[3.5636,35.8195],[3.5367,35.7922],[3.5574,35.7246],[3.5432,35.6724],[3.4206,35.8035],[3.3943,35.7938],[3.3795,35.7512],[3.306,35.7546],[3.2739,35.7952],[3.2551,35.7974],[3.2301,35.7701],[3.2158,35.717],[3.1964,35.6945],[3.0819,35.6719],[3.0563,35.683],[3.045,35.7195],[3.0124,35.7456],[2.9813,35.8009],[2.8994,35.7955],[2.8842,35.7805],[2.8985,35.7132],[2.8937,35.6208],[2.7649,35.5349],[2.6872,35.4537],[2.6198,35.4457],[2.527,35.5012],[2.2857,35.4391],[2.2497,35.5596]]]}},{"type":"Feature","id":"Mila","properties":{"id":"Mila","iso_code":"DZ-43","name":"Mila","name_full":"Mila","name_ja":"ミラ県","center_lonlat":[6.1576,36.2949]},"geometry":{"type":"Polygon","coordinates":[[[5.7372,36.5551],[5.7757,36.5628],[5.845,36.5436],[5.9043,36.5455],[5.9663,36.5905],[6.0232,36.6059],[6.2153,36.5826],[6.2946,36.6241],[6.3278,36.6006],[6.4574,36.5799],[6.5041,36.5777],[6.4928,36.5159],[6.4656,36.4906],[6.4785,36.429],[6.3685,36.4077],[6.3309,36.3885],[6.3177,36.3678],[6.3339,36.3532],[6.3784,36.3492],[6.4684,36.2738],[6.525,36.2047],[6.5163,36.1656],[6.447,36.1447],[6.4062,36.1103],[6.4015,36.0443],[6.3786,36.0133],[6.2986,35.9789],[6.1703,35.9512],[6.1514,35.9353],[6.1492,35.9004],[6.068,35.8928],[5.9767,35.9158],[5.9833,36.0585],[5.8994,36.1697],[5.9335,36.225],[5.8784,36.24],[5.866,36.2554],[5.8724,36.4019],[5.8477,36.43],[5.7762,36.44],[5.7645,36.4685],[5.7692,36.5146],[5.7372,36.5551]]]}},{"type":"Feature","id":"Mostaganem","properties":{"id":"Mostaganem","iso_code":"DZ-27","name":"Mostaganem","name_full":"Mostaganem","name_ja":"モスタガネム県","center_lonlat":[0.3301,35.9912]},"geometry":{"type":"Polygon","coordinates":[[[-0.1137,35.7888],[-0.0385,35.8133],[0.0345,35.8633],[0.1273,36.0508],[0.2195,36.1165],[0.2835,36.1344],[0.3211,36.1589],[0.3423,36.206],[0.4513,36.2232],[0.6441,36.3288],[0.7404,36.3378],[0.7041,36.1865],[0.5972,36.0723],[0.5428,36.049],[0.529,35.9681],[0.4517,35.952],[0.4305,35.9089],[0.4494,35.8896],[0.424,35.8176],[0.3779,35.7826],[0.3057,35.7669],[0.2294,35.6959],[0.1521,35.6826],[0.1274,35.738],[0.1045,35.7567],[0.0365,35.7263],[-0.044,35.7145],[-0.0982,35.7413],[-0.1144,35.7838],[-0.1137,35.7888]]]}},{"type":"Feature","id":"Naama","properties":{"id":"Naama","iso_code":"DZ-45","name":"Naama","name_full":"Naama","name_ja":"ナーマ県","center_lonlat":[-0.783,33.2751]},"geometry":{"type":"Polygon","coordinates":[[[-1.2734,32.2294],[-1.2575,32.3208],[-1.218,32.3926],[-1.1232,32.4179],[-1.032,32.4944],[-1.0475,32.517],[-1.327,32.6989],[-1.3905,32.7188],[-1.4233,32.7424],[-1.5588,32.9337],[-1.503,32.9746],[-1.4995,33.0602],[-1.5714,33.112],[-1.6236,33.1966],[-1.6742,33.238],[-1.6834,33.2708],[-1.6832,33.3692],[-1.6127,33.5215],[-1.6173,33.5544],[-1.6624,33.6447],[-1.7407,33.6866],[-1.7468,33.7024],[-1.7032,33.7618],[-1.7221,33.8512],[-1.7187,33.8981],[-1.6721,34.092],[-1.4799,34.1905],[-1.2499,34.2062],[-1.1204,34.2713],[-1.0807,34.2529],[-1.0003,34.2577],[-0.935,34.2255],[-0.8362,34.2151],[-0.7646,34.23],[-0.6371,34.3047],[-0.5782,34.3129],[-0.5231,34.2904],[-0.4857,34.2293],[-0.4997,34.1932],[-0.4889,34.1581],[-0.4129,34.0338],[-0.386,33.9749],[-0.384,33.9386],[-0.3611,33.9165],[-0.3498,33.9217],[-0.3466,33.9552],[-0.3076,33.9624],[-0.2289,34.0539],[-0.1434,34.0868],[-0.0688,34.0722],[-0.0554,33.9862],[0.086,34.0483],[0.0506,33.8031],[0.0457,33.6231],[0.0681,33.3761],[0.0635,33.3081],[-0.027,33.0206],[-0.0067,32.8048],[-0.1016,32.5671],[-0.0839,32.5244],[-0.0248,32.5064],[-0.0066,32.487],[-0.012,32.4012],[-0.0394,32.3273],[-0.8956,32.1046],[-0.9182,32.1077],[-0.9611,32.1909],[-1.0101,32.2319],[-1.1159,32.2434],[-1.2734,32.2294]]]}},{"type":"Feature","id":"Oran","properties":{"id":"Oran","iso_code":"DZ-31","name":"Oran","name_full":"Oran","name_ja":"オラン県","center_lonlat":[-0.6319,35.6301]},"geometry":{"type":"Polygon","coordinates":[[[-1.1064,35.6232],[-1.0329,35.6826],[-0.9227,35.7252],[-0.8876,35.716],[-0.8495,35.7343],[-0.825,35.7685],[-0.8017,35.7739],[-0.7772,35.7564],[-0.7113,35.743],[-0.6925,35.7193],[-0.6061,35.7309],[-0.5773,35.7708],[-0.5409,35.7678],[-0.5234,35.7797],[-0.477,35.8594],[-0.4738,35.8913],[-0.418,35.8838],[-0.3485,35.907],[-0.3019,35.8776],[-0.3019,35.8428],[-0.2856,35.8283],[-0.1137,35.7888],[-0.1144,35.7838],[-0.2206,35.6836],[-0.3025,35.6694],[-0.3357,35.6217],[-0.4184,35.5621],[-0.4455,35.5078],[-0.4982,35.4862],[-0.5097,35.4401],[-0.5454,35.412],[-0.5692,35.4052],[-0.5937,35.3317],[-0.6218,35.3036],[-0.6643,35.301],[-0.6689,35.332],[-0.6517,35.3461],[-0.6612,35.381],[-0.6295,35.4096],[-0.6724,35.462],[-0.7154,35.4825],[-0.9541,35.4373],[-1.0178,35.4559],[-1.0497,35.415],[-1.067,35.4161],[-1.0634,35.4666],[-1.0051,35.517],[-1.0774,35.5667],[-1.1064,35.6232]]]}},{"type":"Feature","id":"Ouargla","properties":{"id":"Ouargla","iso_code":"DZ-30","name":"Ouargla","name_full":"Ouargla","name_ja":"ワルグラ県","center_lonlat":[6.2092,30.6582]},"geometry":{"type":"Polygon","coordinates":[[[9.0633,32.0002],[9.5197,30.2289],[9.2865,30.1171],[9.3695,30.0228],[7.1464,28.8394],[6.9372,28.8684],[6.7874,28.8683],[6.4209,28.7313],[5.9527,28.4908],[4.7505,28.4619],[3.8156,28.5459],[2.986,29.1235],[3.3445,29.3066],[3.3975,29.3649],[3.4796,29.6368],[3.5996,29.7678],[3.7215,29.8633],[3.8025,29.9898],[4.0506,31.5535],[4.1108,31.7914],[4.3591,32.256],[4.3989,32.2963],[4.5424,32.3756],[4.7389,32.5319],[4.9783,32.8408],[4.9531,33.2415],[5.008,33.4419],[6.193,33.377],[6.3786,33.3176],[6.4648,33.1577],[6.6838,32.5118],[6.8509,32.2392],[6.9294,32.1425],[7.0309,32.053],[7.1699,32.0164],[7.3138,32.0023],[9.0633,32.0002]]]}},{"type":"Feature","id":"Oum El Bouaghi","properties":{"id":"Oum El Bouaghi","iso_code":"DZ-04","name":"Oum El Bouaghi","name_full":"Oum El Bouaghi","name_ja":"ウメル・ブアーギ県","center_lonlat":[7.0831,35.8478]},"geometry":{"type":"Polygon","coordinates":[[[6.1492,35.9004],[6.1514,35.9353],[6.1703,35.9512],[6.2986,35.9789],[6.3786,36.0133],[6.4015,36.0443],[6.4062,36.1103],[6.447,36.1447],[6.5163,36.1656],[6.5848,36.1087],[6.5975,36.1269],[6.7727,36.1924],[6.8799,36.1464],[6.8883,36.1085],[6.8985,36.1069],[6.9493,36.1425],[7.0106,36.1552],[7.0237,36.0986],[7.079,36.0425],[7.1949,36.0807],[7.2238,36.1441],[7.2908,36.1433],[7.3259,36.1274],[7.325,36.08],[7.3683,36.0028],[7.452,35.9191],[7.5396,35.8858],[7.5639,35.8399],[7.6601,35.8342],[7.6763,35.8756],[7.7346,35.9345],[7.7962,35.9163],[7.8659,35.8587],[7.8621,35.8129],[7.8234,35.739],[7.8407,35.6152],[7.7754,35.5936],[7.5448,35.4478],[7.4846,35.4962],[7.4623,35.5391],[7.4251,35.5335],[7.3852,35.5718],[7.3606,35.5703],[7.3321,35.537],[7.315,35.5352],[7.3034,35.6007],[7.2675,35.6212],[7.1412,35.6175],[7.1021,35.5854],[7.0512,35.5772],[7.0155,35.6231],[6.9926,35.632],[6.825,35.6236],[6.7691,35.6839],[6.6981,35.7655],[6.6495,35.7967],[6.6031,35.8036],[6.487,35.7814],[6.4808,35.8288],[6.4668,35.8464],[6.3919,35.8569],[6.3394,35.8868],[6.3162,35.8691],[6.2755,35.8661],[6.1492,35.9004]]]}},{"type":"Feature","id":"Relizane","properties":{"id":"Relizane","iso_code":"DZ-48","name":"Relizane","name_full":"Relizane","name_ja":"ルリザンヌ県","center_lonlat":[0.8013,35.7932]},"geometry":{"type":"Polygon","coordinates":[[[1.4116,35.8416],[1.4042,35.8165],[1.3618,35.7765],[1.2757,35.7755],[1.2456,35.6473],[1.1855,35.6402],[1.0478,35.579],[1.011,35.575],[1.0235,35.5467],[0.9902,35.5569],[0.9595,35.5478],[0.8901,35.4856],[0.8811,35.4437],[0.8279,35.4435],[0.6603,35.4793],[0.604,35.5143],[0.5323,35.51],[0.4569,35.5581],[0.3191,35.5578],[0.2931,35.5842],[0.2665,35.6688],[0.2294,35.6959],[0.3057,35.7669],[0.3779,35.7826],[0.424,35.8176],[0.4494,35.8896],[0.4305,35.9089],[0.4517,35.952],[0.529,35.9681],[0.5428,36.049],[0.5972,36.0723],[0.7041,36.1865],[0.7702,36.1752],[0.8974,36.1976],[0.9271,36.11],[0.9205,36.0652],[0.9481,36.032],[1.041,36.0254],[1.0792,35.9826],[1.1593,35.946],[1.2889,35.9659],[1.3562,35.8681],[1.4116,35.8416]]]}},{"type":"Feature","id":"Saida","properties":{"id":"Saida","iso_code":"DZ-20","name":"Saida","name_full":"Saïda","name_ja":"サイダ県","center_lonlat":[0.1709,34.5927]},"geometry":{"type":"Polygon","coordinates":[[[0.7576,34.4382],[0.696,34.4243],[0.4011,34.2743],[0.3515,34.2381],[0.2354,34.2259],[0.1976,34.1696],[0.1169,34.1041],[0.086,34.0483],[-0.0554,33.9862],[-0.0688,34.0722],[-0.1434,34.0868],[-0.2289,34.0539],[-0.3076,33.9624],[-0.3466,33.9552],[-0.3498,33.9217],[-0.3611,33.9165],[-0.384,33.9386],[-0.386,33.9749],[-0.4129,34.0338],[-0.4889,34.1581],[-0.4997,34.1932],[-0.4857,34.2293],[-0.0719,34.5297],[-0.0609,34.5501],[-0.0565,34.6091],[-0.1144,34.6824],[-0.2057,34.749],[-0.2162,34.7783],[-0.293,34.8038],[-0.3037,34.8386],[-0.3681,34.8697],[-0.3522,34.8881],[-0.3311,34.8839],[-0.2727,34.9043],[-0.2941,34.9322],[-0.2993,34.9823],[-0.284,35.0148],[-0.2542,35.0103],[-0.2363,35.0238],[-0.2536,35.0656],[-0.2507,35.0936],[-0.1947,35.1226],[-0.1652,35.1229],[-0.1356,35.1276],[-0.1197,35.1575],[-0.106,35.1597],[-0.091,35.1079],[-0.0143,35.0639],[0.0254,35.0926],[0.1122,35.0961],[0.1659,35.0381],[0.2098,35.0215],[0.3312,35.0548],[0.4314,35.0507],[0.4922,35.0863],[0.6525,35.0898],[0.6594,35.0582],[0.7383,35.0206],[0.7816,34.9727],[0.774,34.9351],[0.6815,34.8669],[0.6674,34.8422],[0.6935,34.7363],[0.8569,34.4999],[0.8377,34.4772],[0.7576,34.4382]]]}},{"type":"Feature","id":"Setif","properties":{"id":"Setif","iso_code":"DZ-19","name":"Setif","name_full":"Sétif","name_ja":"セティフ県","center_lonlat":[5.4664,36.1344]},"geometry":{"type":"Polygon","coordinates":[[[4.8011,36.3797],[4.8707,36.3757],[4.9226,36.3894],[4.944,36.408],[4.9517,36.4383],[4.9868,36.4624],[4.9499,36.503],[5.0001,36.5296],[5.0453,36.5242],[5.0765,36.5743],[5.1016,36.5777],[5.1353,36.5696],[5.1934,36.5275],[5.1656,36.4942],[5.1948,36.4497],[5.1878,36.4084],[5.2222,36.3843],[5.3032,36.3893],[5.3279,36.4493],[5.4607,36.5028],[5.4573,36.5611],[5.4755,36.5906],[5.4982,36.5841],[5.511,36.5385],[5.5428,36.524],[5.614,36.5555],[5.6754,36.5365],[5.7372,36.5551],[5.7692,36.5146],[5.7645,36.4685],[5.7762,36.44],[5.8477,36.43],[5.8724,36.4019],[5.866,36.2554],[5.8784,36.24],[5.9335,36.225],[5.8994,36.1697],[5.9833,36.0585],[5.9767,35.9158],[5.9469,35.899],[5.9498,35.8655],[5.9402,35.8621],[5.8229,35.9147],[5.7456,35.8902],[5.7116,35.8497],[5.7619,35.8109],[5.7364,35.771],[5.6069,35.8189],[5.5751,35.8183],[5.5535,35.7814],[5.4769,35.7361],[5.4614,35.6699],[5.4382,35.6419],[5.3797,35.6329],[5.2262,35.664],[5.1842,35.6899],[5.1708,35.7178],[5.1015,35.741],[5.0545,35.7773],[5.0665,35.8405],[5.14,35.8566],[5.1448,35.9642],[5.1963,36.0743],[5.1841,36.1154],[5.2433,36.1544],[5.2536,36.1974],[5.2385,36.2055],[5.2124,36.1967],[5.2033,36.2338],[5.1881,36.2455],[5.1256,36.2324],[5.074,36.2942],[5.0348,36.3109],[4.9907,36.3155],[4.9136,36.3],[4.8212,36.3069],[4.7852,36.3466],[4.8011,36.3797]]]}},{"type":"Feature","id":"Sidi Bel Abbes","properties":{"id":"Sidi Bel Abbes","iso_code":"DZ-22","name":"Sidi Bel Abbes","name_full":"Sidi Bel Abbès","name_ja":"シディ・ベル・アッベス県","center_lonlat":[-0.5661,34.789]},"geometry":{"type":"Polygon","coordinates":[[[-0.1652,35.1229],[-0.1947,35.1226],[-0.2507,35.0936],[-0.2536,35.0656],[-0.2363,35.0238],[-0.2542,35.0103],[-0.284,35.0148],[-0.2993,34.9823],[-0.2941,34.9322],[-0.2727,34.9043],[-0.3311,34.8839],[-0.3522,34.8881],[-0.3681,34.8697],[-0.3037,34.8386],[-0.293,34.8038],[-0.2162,34.7783],[-0.2057,34.749],[-0.1144,34.6824],[-0.0565,34.6091],[-0.0609,34.5501],[-0.0719,34.5297],[-0.4857,34.2293],[-0.5231,34.2904],[-0.5782,34.3129],[-0.6371,34.3047],[-0.7646,34.23],[-0.8362,34.2151],[-0.935,34.2255],[-1.0003,34.2577],[-1.0807,34.2529],[-1.1204,34.2713],[-1.0561,34.3392],[-0.88,34.4676],[-0.8727,34.4947],[-0.9038,34.5472],[-0.8296,34.5784],[-0.7585,34.7119],[-0.7756,34.7374],[-0.8396,34.7321],[-0.8861,34.743],[-0.8965,34.7609],[-0.8906,34.8436],[-0.9414,34.8426],[-0.9242,34.8815],[-0.953,34.8963],[-0.9672,34.9288],[-0.9536,35.0002],[-0.9298,35.0472],[-1.0005,35.0874],[-0.9589,35.1377],[-0.8905,35.1599],[-0.8753,35.1997],[-0.8808,35.2543],[-0.8144,35.2658],[-0.7537,35.3183],[-0.6689,35.332],[-0.6643,35.301],[-0.6218,35.3036],[-0.5937,35.3317],[-0.5692,35.4052],[-0.5454,35.412],[-0.4644,35.4294],[-0.4549,35.4065],[-0.4824,35.3744],[-0.4637,35.358],[-0.3955,35.3418],[-0.3618,35.3588],[-0.1892,35.2993],[-0.217,35.1909],[-0.1652,35.1229]]]}},{"type":"Feature","id":"Skikda","properties":{"id":"Skikda","iso_code":"DZ-21","name":"Skikda","name_full":"Skikda","name_ja":"スキクダ県","center_lonlat":[6.8127,36.782]},"geometry":{"type":"Polygon","coordinates":[[[6.2478,36.9353],[6.2544,36.999],[6.2744,37.0242],[6.3716,37.0835],[6.4624,37.0939],[6.5442,37.0588],[6.5995,36.9731],[6.822,36.9526],[6.8696,36.9292],[6.8796,36.9021],[6.9094,36.8931],[6.9756,36.8912],[7.0923,36.9259],[7.157,36.9147],[7.239,36.9715],[7.2573,37.0041],[7.2505,37.0231],[7.1817,37.083],[7.2227,37.0898],[7.2627,37.076],[7.3072,36.9292],[7.3639,36.8811],[7.3521,36.8354],[7.3842,36.7261],[7.3397,36.7064],[7.3147,36.6516],[7.2365,36.634],[7.124,36.5858],[7.0771,36.5453],[7.0757,36.5026],[6.9615,36.4664],[6.938,36.4329],[6.818,36.4668],[6.8413,36.4923],[6.8455,36.5314],[6.9041,36.529],[6.9201,36.5505],[6.9111,36.5604],[6.7772,36.5563],[6.6794,36.5858],[6.6524,36.6079],[6.5994,36.574],[6.5041,36.5777],[6.4574,36.5799],[6.4748,36.6691],[6.4183,36.6955],[6.366,36.7418],[6.3385,36.8378],[6.3154,36.8603],[6.2713,36.8704],[6.2738,36.9126],[6.2478,36.9353]]]}},{"type":"Feature","id":"Souk Ahras","properties":{"id":"Souk Ahras","iso_code":"DZ-41","name":"Souk Ahras","name_full":"Souk Ahras","name_ja":"スーク・アフラース県","center_lonlat":[7.8867,36.1565]},"geometry":{"type":"Polygon","coordinates":[[[8.2684,35.9699],[8.1941,36.0042],[8.0027,35.9713],[7.9799,35.9597],[7.9639,35.9317],[7.9064,35.9035],[7.8659,35.8587],[7.7962,35.9163],[7.7346,35.9345],[7.6763,35.8756],[7.6601,35.8342],[7.5639,35.8399],[7.5396,35.8858],[7.452,35.9191],[7.3683,36.0028],[7.325,36.08],[7.3259,36.1274],[7.368,36.1348],[7.4104,36.1813],[7.508,36.1961],[7.5438,36.2238],[7.7434,36.2924],[7.8139,36.3049],[7.835,36.3349],[7.7953,36.441],[7.8714,36.4326],[7.9879,36.4844],[8.0031,36.459],[8.0072,36.4128],[8.0232,36.4041],[8.0833,36.4221],[8.1679,36.492],[8.3338,36.4564],[8.3577,36.4304],[8.3544,36.3509],[8.3071,36.2436],[8.3023,36.2023],[8.3171,36.1459],[8.2756,36.0368],[8.2684,35.9699]]]}},{"type":"Feature","id":"Tamanghasset","properties":{"id":"Tamanghasset","iso_code":"DZ-11","name":"Tamanghasset","name_full":"Tamanghasset","name_ja":"タマンラセット県","center_lonlat":[5.1165,23.9741]},"geometry":{"type":"Polygon","coordinates":[[[3.7903,19.0608],[3.7822,20.5494],[3.7515,20.7783],[3.6776,20.8784],[3.5732,20.969],[1.369,22.1779],[1.3001,22.2701],[1.3072,25.5414],[1.2863,25.576],[1.1171,25.6928],[1.0971,25.742],[1.1117,25.8395],[1.0912,25.9577],[0.9238,26.1687],[0.8387,26.2411],[0.8254,26.2688],[0.8644,26.3189],[0.9831,26.3636],[1.0678,26.4155],[1.394,26.4258],[1.5142,26.4616],[1.6289,26.584],[1.7636,26.6094],[1.9015,26.736],[1.9318,26.7836],[2.0655,28.0733],[2.1208,28.2901],[2.1341,28.4915],[2.0793,29.0364],[2.986,29.1235],[3.8156,28.5459],[4.7505,28.4619],[5.9527,28.4908],[6.5109,28.0899],[6.5444,28.0094],[6.5666,27.8881],[6.5266,27.8581],[6.2578,27.7655],[6.01,27.5542],[5.8724,27.4568],[5.8375,27.4063],[5.8157,27.3214],[5.8404,27.2027],[5.9504,26.8618],[6.01,26.795],[6.2063,26.6597],[6.2619,26.5985],[6.2744,26.5285],[6.1794,26.3121],[6.1731,26.2587],[6.1835,26.2257],[6.3073,26.1653],[6.5378,25.8949],[6.7119,25.8217],[6.9586,25.7598],[6.9844,25.6897],[6.9955,25.5016],[7.1384,25.3466],[7.1707,25.2864],[7.164,25.2483],[7.1093,25.1735],[7.0858,25.1092],[7.0861,25.0015],[7.1069,24.9226],[7.1254,24.8951],[7.2244,24.826],[7.3202,24.7028],[7.3681,24.67],[7.4129,24.6549],[7.5057,24.6511],[7.5931,24.6003],[7.6306,24.5972],[7.7026,24.5363],[7.7815,24.5003],[7.8429,24.4426],[7.9537,24.3677],[8.1725,24.3286],[8.2634,24.2945],[8.3004,24.2654],[8.3924,24.2397],[8.5213,24.2286],[8.5595,24.1885],[8.6265,24.0699],[8.6987,24.0035],[11.7101,24.0001],[11.9689,23.5174],[7.4827,20.8726],[7.0205,20.4954],[5.7943,19.4498],[3.7903,19.0608]]]}},{"type":"Feature","id":"Tebessa","properties":{"id":"Tebessa","iso_code":"DZ-12","name":"Tebessa","name_full":"Tébessa","name_ja":"テベッサ県","center_lonlat":[7.8115,35.0071]},"geometry":{"type":"Polygon","coordinates":[[[7.5392,34.1138],[7.2711,34.1138],[7.1358,34.1606],[7.2047,34.2966],[7.2741,34.5407],[7.3752,34.6816],[7.4028,34.746],[7.3659,34.9625],[7.3083,34.9772],[7.2644,34.9406],[7.2543,34.9022],[7.2762,34.8408],[7.2655,34.8323],[7.2252,34.9006],[7.2222,34.9463],[7.3878,35.1168],[7.4115,35.1561],[7.4028,35.2336],[7.4171,35.2857],[7.4131,35.3866],[7.5448,35.4478],[7.7754,35.5936],[7.8407,35.6152],[7.8234,35.739],[7.8621,35.8129],[7.8659,35.8587],[7.9064,35.9035],[7.9639,35.9317],[7.9799,35.9597],[8.0027,35.9713],[8.1941,36.0042],[8.2684,35.9699],[8.2472,35.9073],[8.2458,35.7853],[8.3236,35.6522],[8.337,35.5379],[8.3367,35.5084],[8.29,35.4026],[8.2944,35.3251],[8.3174,35.2895],[8.4313,35.2417],[8.3609,35.1459],[8.3137,35.1031],[8.3005,35.0677],[8.2489,34.902],[8.2666,34.7503],[8.2106,34.6812],[8.2365,34.6477],[8.1929,34.6177],[8.1672,34.5786],[8.0941,34.5301],[7.8315,34.4144],[7.7653,34.2447],[7.7339,34.2238],[7.6315,34.1991],[7.5392,34.1138]]]}},{"type":"Feature","id":"Tiaret","properties":{"id":"Tiaret","iso_code":"DZ-14","name":"Tiaret","name_full":"Tiaret","name_ja":"ティアレット県","center_lonlat":[1.5156,34.9579]},"geometry":{"type":"Polygon","coordinates":[[[2.2497,35.5596],[2.2857,35.4391],[2.2868,35.3293],[2.36,35.288],[2.3793,35.2506],[2.3793,35.205],[2.6042,35.055],[2.6203,35.0311],[2.5234,34.9991],[2.4603,34.8702],[2.37,34.7763],[2.3577,34.6929],[2.2206,34.6747],[2.1808,34.6291],[2.0876,34.5836],[1.9811,34.507],[1.8062,34.4491],[1.6911,34.3458],[1.6416,34.2562],[1.3362,34.0689],[1.283,34.1257],[1.2505,34.1825],[1.2315,34.1919],[1.0237,34.1912],[1.032,34.3394],[0.9737,34.3821],[0.7576,34.4382],[0.8377,34.4772],[0.8569,34.4999],[0.6935,34.7363],[0.6674,34.8422],[0.6815,34.8669],[0.774,34.9351],[0.7816,34.9727],[0.7383,35.0206],[0.6594,35.0582],[0.6525,35.0898],[0.4922,35.0863],[0.5138,35.1346],[0.5656,35.1915],[0.6178,35.276],[0.6843,35.2996],[0.7785,35.2794],[0.82,35.3061],[0.8805,35.3864],[0.8284,35.4184],[0.8279,35.4435],[0.8811,35.4437],[0.8901,35.4856],[0.9595,35.5478],[0.9902,35.5569],[1.0235,35.5467],[1.011,35.575],[1.0478,35.579],[1.1855,35.6402],[1.2456,35.6473],[1.2925,35.6176],[1.3244,35.6773],[1.3465,35.6898],[1.4692,35.648],[1.4923,35.5949],[1.5591,35.6061],[1.6346,35.5505],[1.6581,35.5479],[1.692,35.5805],[1.7449,35.5519],[2.0502,35.5753],[2.0702,35.5443],[2.1597,35.5603],[2.2497,35.5596]]]}},{"type":"Feature","id":"Tindouf","properties":{"id":"Tindouf","iso_code":"DZ-37","name":"Tindouf","name_full":"Tindouf","name_ja":"ティンドゥフ県","center_lonlat":[-6.0953,27.622]},"geometry":{"type":"Polygon","coordinates":[[[-5.6615,25.5089],[-8.6824,27.2854],[-8.6824,28.6659],[-8.6676,28.7117],[-8.4304,28.841],[-8.3685,28.9165],[-8.3168,28.9391],[-8.1823,29.0355],[-8.0363,29.0999],[-7.945,29.1762],[-7.6195,29.3894],[-7.3496,29.3834],[-7.2588,29.4673],[-7.1469,29.5092],[-6.9582,29.5092],[-6.7835,29.4463],[-6.6996,29.5162],[-6.5599,29.5302],[-6.4131,29.5651],[-6.2733,29.5791],[-6.0008,29.5791],[-5.2668,28.2072],[-3.7506,28.5669],[-2.9743,27.2033],[-5.6615,25.5089]]]}},{"type":"Feature","id":"Tipasa","properties":{"id":"Tipasa","iso_code":"DZ-42","name":"Tipasa","name_full":"Tipasa","name_ja":"ティパザ県","center_lonlat":[2.3088,36.5428]},"geometry":{"type":"Polygon","coordinates":[[[1.7009,36.5472],[1.7612,36.5616],[2.0599,36.5701],[2.3296,36.6373],[2.3733,36.6339],[2.4041,36.5992],[2.4473,36.5906],[2.6008,36.5963],[2.793,36.6929],[2.8499,36.7541],[2.9331,36.8086],[2.9849,36.815],[2.9663,36.7481],[3.024,36.7362],[3.0251,36.7101],[3.0299,36.6622],[2.962,36.6376],[2.8374,36.6379],[2.8127,36.6059],[2.7145,36.5677],[2.6344,36.5128],[2.6025,36.4674],[2.4997,36.4704],[2.4763,36.4206],[2.2854,36.4142],[2.1195,36.438],[2.0038,36.4102],[1.793,36.432],[1.7695,36.3923],[1.7167,36.3667],[1.6478,36.4432],[1.7009,36.5472]]]}},{"type":"Feature","id":"Tissemsilt","properties":{"id":"Tissemsilt","iso_code":"DZ-38","name":"Tissemsilt","name_full":"Tissemsilt","name_ja":"ティセムシルト県","center_lonlat":[1.8018,35.7464]},"geometry":{"type":"Polygon","coordinates":[[[1.7127,35.9234],[1.8047,35.9011],[1.8536,35.8605],[1.8987,35.8877],[1.9645,35.8798],[1.9872,35.9119],[2.0087,35.9179],[2.1717,35.9176],[2.3118,35.867],[2.242,35.7441],[2.1739,35.7185],[2.1582,35.6982],[2.1895,35.6471],[2.2424,35.6258],[2.261,35.6056],[2.2497,35.5596],[2.1597,35.5603],[2.0702,35.5443],[2.0502,35.5753],[1.7449,35.5519],[1.692,35.5805],[1.6581,35.5479],[1.6346,35.5505],[1.5591,35.6061],[1.4923,35.5949],[1.4692,35.648],[1.3465,35.6898],[1.3244,35.6773],[1.2925,35.6176],[1.2456,35.6473],[1.2757,35.7755],[1.3618,35.7765],[1.4042,35.8165],[1.4116,35.8416],[1.4105,35.8648],[1.4511,35.8865],[1.448,35.9143],[1.5049,35.9352],[1.5148,35.9676],[1.5533,36.0057],[1.5874,35.988],[1.6121,35.9472],[1.6747,35.9207],[1.7127,35.9234]]]}},{"type":"Feature","id":"Tizi Ouzou","properties":{"id":"Tizi Ouzou","iso_code":"DZ-15","name":"Tizi Ouzou","name_full":"Tizi Ouzou","name_ja":"ティジ・ウズー県","center_lonlat":[4.2242,36.6807]},"geometry":{"type":"Polygon","coordinates":[[[4.0395,36.8969],[4.1048,36.8837],[4.1595,36.9042],[4.2105,36.8912],[4.262,36.9116],[4.3203,36.898],[4.4407,36.9116],[4.5505,36.8837],[4.5915,36.8952],[4.6481,36.7955],[4.6347,36.7537],[4.5786,36.7596],[4.5441,36.7444],[4.5483,36.7173],[4.5995,36.6883],[4.5921,36.6616],[4.5281,36.5685],[4.4537,36.5015],[4.3709,36.4727],[3.9361,36.4744],[3.8514,36.5063],[3.7619,36.5678],[3.7337,36.6076],[3.7447,36.6563],[3.779,36.6611],[3.8139,36.6487],[3.8465,36.6797],[3.9088,36.6673],[3.9591,36.704],[3.9639,36.7193],[3.9326,36.769],[3.9721,36.7815],[4.026,36.836],[4.0395,36.8969]]]}},{"type":"Feature","id":"Tlemcen","properties":{"id":"Tlemcen","iso_code":"DZ-13","name":"Tlemcen","name_full":"Tlemcen","name_ja":"トレムセン県","center_lonlat":[-1.4228,34.7334]},"geometry":{"type":"Polygon","coordinates":[[[-1.6721,34.092],[-1.7461,34.2903],[-1.8096,34.3725],[-1.703,34.4797],[-1.7507,34.4942],[-1.8711,34.5966],[-1.7695,34.7413],[-1.9797,34.8653],[-2.0163,34.9262],[-2.0612,34.9297],[-2.1938,35.0036],[-2.2211,35.05],[-2.2226,35.0893],[-2.1569,35.101],[-2.0524,35.075],[-1.9565,35.075],[-1.8127,35.1265],[-1.7611,35.1296],[-1.7128,35.1706],[-1.6377,35.1945],[-1.6295,35.2122],[-1.5104,35.2955],[-1.362,35.3199],[-1.3585,35.3051],[-1.3333,35.3022],[-1.3207,35.2838],[-1.3274,35.2381],[-1.3473,35.2193],[-1.3377,35.1908],[-1.2716,35.1957],[-1.0483,35.0973],[-1.0005,35.0874],[-0.9298,35.0472],[-0.9536,35.0002],[-0.9672,34.9288],[-0.953,34.8963],[-0.9242,34.8815],[-0.9414,34.8426],[-0.8906,34.8436],[-0.8965,34.7609],[-0.8861,34.743],[-0.8396,34.7321],[-0.7756,34.7374],[-0.7585,34.7119],[-0.8296,34.5784],[-0.9038,34.5472],[-0.8727,34.4947],[-0.88,34.4676],[-1.0561,34.3392],[-1.1204,34.2713],[-1.2499,34.2062],[-1.4799,34.1905],[-1.6721,34.092]]]}}]}
