{"type":"FeatureCollection","features":[{"type":"Feature","id":"Andorra la Vella","properties":{"id":"Andorra la Vella","iso_code":"AD-07","name":"Andorra la Vella","name_full":"Andorra la Vella","name_ja":"アンドラ・ラ・ベリャ","center_lonlat":[1.5142,42.515]},"geometry":{"type":"Polygon","coordinates":[[[1.5564,42.5381],[1.4991,42.489],[1.4872,42.518],[1.5564,42.5381]]]}},{"type":"Feature","id":"Canillo","properties":{"id":"Canillo","iso_code":"AD-02","name":"Canillo","name_full":"Canillo","name_ja":"カニーリョ教区","center_lonlat":[1.6584,42.5855]},"geometry":{"type":"Polygon","coordinates":[[[1.5973,42.6219],[1.722,42.6099],[1.7133,42.5895],[1.7651,42.5634],[1.74,42.5616],[1.7171,42.5399],[1.6902,42.553],[1.6828,42.5746],[1.5556,42.5627],[1.5645,42.5842],[1.5987,42.5976],[1.5973,42.6219]]]}},{"type":"Feature","id":"Encamp","properties":{"id":"Encamp","iso_code":"AD-03","name":"Encamp","name_full":"Encamp","name_ja":"アンカム教区","center_lonlat":[1.6439,42.5392]},"geometry":{"type":"Polygon","coordinates":[[[1.7171,42.5399],[1.6975,42.4945],[1.657,42.4976],[1.6411,42.518],[1.5564,42.5381],[1.5556,42.5627],[1.6828,42.5746],[1.6902,42.553],[1.7171,42.5399]]]}},{"type":"Feature","id":"Escaldes-Engordany","properties":{"id":"Escaldes-Engordany","iso_code":"AD-08","name":"Escaldes-Engordany","name_full":"Escaldes-Engordany","name_ja":"エスカルデス＝エンゴルダニ教区","center_lonlat":[1.5882,42.4976]},"geometry":{"type":"Polygon","coordinates":[[[1.657,42.4976],[1.6395,42.4664],[1.5727,42.4531],[1.5749,42.4846],[1.4991,42.489],[1.5564,42.5381],[1.6411,42.518],[1.657,42.4976]]]}},{"type":"Feature","id":"La Massana","properties":{"id":"La Massana","iso_code":"AD-04","name":"La Massana","name_full":"La Massana","name_ja":"ラ・マサナ教区","center_lonlat":[1.4764,42.5526]},"geometry":{"type":"Polygon","coordinates":[[[1.4514,42.6021],[1.4812,42.5954],[1.5013,42.5708],[1.5556,42.5627],[1.5564,42.5381],[1.4872,42.518],[1.45,42.5041],[1.429,42.5315],[1.4065,42.5292],[1.4263,42.5618],[1.4249,42.5894],[1.4514,42.6021]]]}},{"type":"Feature","id":"Ordino","properties":{"id":"Ordino","iso_code":"AD-05","name":"Ordino","name_full":"Ordino","name_ja":"オルディノ教区","center_lonlat":[1.5268,42.6096]},"geometry":{"type":"Polygon","coordinates":[[[1.5973,42.6219],[1.5987,42.5976],[1.5645,42.5842],[1.5556,42.5627],[1.5013,42.5708],[1.4812,42.5954],[1.4514,42.6021],[1.4668,42.6415],[1.5431,42.6494],[1.5973,42.6219]]]}},{"type":"Feature","id":"Sant Julia de Loria","properties":{"id":"Sant Julia de Loria","iso_code":"AD-06","name":"Sant Julia de Loria","name_full":"Sant Julià de Lòria","name_ja":"サン・ジュリア・デ・ロリア教区","center_lonlat":[1.4897,42.4688]},"geometry":{"type":"Polygon","coordinates":[[[1.45,42.5041],[1.4872,42.518],[1.4991,42.489],[1.5749,42.4846],[1.5727,42.4531],[1.5444,42.4504],[1.5166,42.4295],[1.4479,42.4346],[1.4076,42.4868],[1.45,42.5041]]]}}]}
