{"type":"FeatureCollection","features":[{"type":"Feature","id":"Barbuda","properties":{"id":"Barbuda","iso_code":"AG-10","name":"Barbuda","name_full":"Barbuda","name_ja":"バーブーダ島","center_lonlat":[-61.7982,17.6312]},"geometry":{"type":"Polygon","coordinates":[[[-61.8389,17.5933],[-61.8518,17.5866],[-61.8573,17.601],[-61.8738,17.6911],[-61.873,17.7106],[-61.8389,17.6554],[-61.8432,17.6202],[-61.8315,17.6138],[-61.8312,17.6805],[-61.8564,17.7011],[-61.8378,17.7277],[-61.8179,17.7032],[-61.8315,17.6964],[-61.7843,17.6964],[-61.7543,17.6688],[-61.7278,17.5884],[-61.7364,17.554],[-61.7707,17.5456],[-61.7947,17.5761],[-61.8389,17.5933]]]}},{"type":"Feature","id":"Redonda","properties":{"id":"Redonda","iso_code":"AG-11","name":"Redonda","name_full":"Redonda","name_ja":"レドンダ島","center_lonlat":[-62.3453,16.936]},"geometry":{"type":"Polygon","coordinates":[[[-62.3456,16.9391],[-62.3446,16.9404],[-62.3431,16.9409],[-62.3429,16.9384],[-62.3431,16.9351],[-62.3445,16.9325],[-62.3471,16.932],[-62.3483,16.9337],[-62.3473,16.9374],[-62.3456,16.9391]]]}},{"type":"Feature","id":"Saint George","properties":{"id":"Saint George","iso_code":"AG-03","name":"Saint George","name_full":"Saint George","name_ja":"セント・ジョージ教区","center_lonlat":[-61.7813,17.1126]},"geometry":{"type":"Polygon","coordinates":[[[-61.7934,17.1649],[-61.7564,17.1142],[-61.7558,17.0898],[-61.7742,17.0714],[-61.7956,17.0837],[-61.8048,17.1235],[-61.7934,17.1649]]]}},{"type":"Feature","id":"Saint John","properties":{"id":"Saint John","iso_code":"AG-04","name":"Saint John","name_full":"Saint John","name_ja":"セント・ジョン教区","center_lonlat":[-61.8241,17.1058]},"geometry":{"type":"Polygon","coordinates":[[[-61.8662,17.0869],[-61.8942,17.1005],[-61.8424,17.1244],[-61.8505,17.1376],[-61.8397,17.1599],[-61.7934,17.1649],[-61.8048,17.1235],[-61.7956,17.0837],[-61.7742,17.0714],[-61.7742,17.0602],[-61.815,17.048],[-61.8201,17.0592],[-61.8354,17.0429],[-61.8273,17.0827],[-61.8538,17.0949],[-61.8662,17.0869]]]}},{"type":"Feature","id":"Saint Mary","properties":{"id":"Saint Mary","iso_code":"AG-05","name":"Saint Mary","name_full":"Saint Mary","name_ja":"セント・メアリー教区","center_lonlat":[-61.8484,17.0461]},"geometry":{"type":"Polygon","coordinates":[[[-61.8041,17.0073],[-61.8517,17.0076],[-61.8837,17.0263],[-61.8824,17.0788],[-61.8662,17.0869],[-61.8538,17.0949],[-61.8273,17.0827],[-61.8354,17.0429],[-61.8201,17.0592],[-61.815,17.048],[-61.8041,17.0073]]]}},{"type":"Feature","id":"Saint Paul","properties":{"id":"Saint Paul","iso_code":"AG-06","name":"Saint Paul","name_full":"Saint Paul","name_ja":"セント・ポール教区","center_lonlat":[-61.7656,17.0331]},"geometry":{"type":"Polygon","coordinates":[[[-61.7262,17.0385],[-61.7371,16.9892],[-61.7768,17.0185],[-61.8041,17.0073],[-61.815,17.048],[-61.7742,17.0602],[-61.7334,17.0643],[-61.7262,17.0385]]]}},{"type":"Feature","id":"Saint Peter","properties":{"id":"Saint Peter","iso_code":"AG-07","name":"Saint Peter","name_full":"Saint Peter","name_ja":"セント・ピーター教区","center_lonlat":[-61.7413,17.0971]},"geometry":{"type":"Polygon","coordinates":[[[-61.7564,17.1142],[-61.7433,17.1415],[-61.7086,17.1278],[-61.7296,17.1142],[-61.7148,17.0931],[-61.7334,17.0643],[-61.7742,17.0602],[-61.7742,17.0714],[-61.7558,17.0898],[-61.7564,17.1142]]]}},{"type":"Feature","id":"Saint Philip","properties":{"id":"Saint Philip","iso_code":"AG-08","name":"Saint Philip","name_full":"Saint Philip","name_ja":"サンフィリップ教区","center_lonlat":[-61.7024,17.0629]},"geometry":{"type":"Polygon","coordinates":[[[-61.7148,17.0931],[-61.6755,17.0956],[-61.6676,17.0794],[-61.6949,17.0794],[-61.6744,17.0459],[-61.6857,17.0286],[-61.7262,17.0385],[-61.7334,17.0643],[-61.7148,17.0931]]]}}]}
