{"type":"FeatureCollection","features":[{"type":"Feature","id":"Buenos Aires","properties":{"id":"Buenos Aires","iso_code":"AR-B","name":"Buenos Aires","name_full":"Buenos Aires","name_ja":"ブエノスアイレス州","center_lonlat":[-60.56,-36.6775]},"geometry":{"type":"MultiPolygon","coordinates":[[[[-62.8016,-41.0417],[-62.8615,-40.9384],[-63.103,-40.7539],[-63.1824,-40.729],[-63.3874,-40.7091],[-63.3886,-39.3258],[-63.3841,-35.0021],[-63.3736,-34.4136],[-63.3396,-34.3805],[-62.8538,-34.3821],[-61.7105,-34.3768],[-60.9631,-33.6772],[-60.928,-33.6337],[-60.9372,-33.6029],[-60.9105,-33.5637],[-60.8408,-33.5504],[-60.7738,-33.5735],[-60.6715,-33.5769],[-60.5668,-33.6403],[-60.4757,-33.6222],[-60.4262,-33.537],[-60.4101,-33.4596],[-60.3478,-33.4101],[-60.3405,-33.3464],[-60.2775,-33.3064],[-60.2756,-33.2776],[-60.2941,-33.2566],[-60.2461,-33.2784],[-60.1181,-33.3936],[-59.9477,-33.495],[-59.8601,-33.524],[-59.7724,-33.6105],[-59.6406,-33.671],[-59.6028,-33.6778],[-59.5207,-33.6553],[-59.442,-33.7174],[-59.3926,-33.7394],[-59.3064,-33.7394],[-59.2689,-33.7212],[-59.2549,-33.7394],[-59.2487,-33.7872],[-59.2313,-33.798],[-59.2009,-33.7946],[-59.1627,-33.8288],[-59.0318,-33.8296],[-58.8493,-33.9373],[-58.7819,-33.9523],[-58.6798,-34.0312],[-58.6385,-34.0485],[-58.591,-34.049],[-58.447,-34.0069],[-58.4027,-34.026],[-58.3878,-34.0465],[-58.3922,-34.1541],[-58.3786,-34.1882],[-58.4602,-34.2729],[-58.5431,-34.2677],[-58.5704,-34.2882],[-58.5123,-34.3157],[-58.4546,-34.3662],[-58.5115,-34.4359],[-58.5032,-34.4631],[-58.4773,-34.4833],[-58.4742,-34.5216],[-58.5385,-34.567],[-58.5605,-34.6536],[-58.5416,-34.7103],[-58.444,-34.7749],[-58.4062,-34.7151],[-58.3794,-34.6946],[-58.3432,-34.6899],[-58.315,-34.6572],[-58.1549,-34.7504],[-58.0002,-34.7873],[-57.965,-34.8245],[-57.871,-34.8299],[-57.7588,-34.9097],[-57.6868,-34.9339],[-57.6036,-34.9877],[-57.522,-35.0132],[-57.3496,-35.1499],[-57.2016,-35.3102],[-57.1281,-35.4413],[-57.1449,-35.4842],[-57.3526,-35.7275],[-57.3933,-35.863],[-57.3706,-35.977],[-57.348,-36.0011],[-57.3088,-36.0999],[-57.2719,-36.1236],[-57.248,-36.1703],[-57.1083,-36.2823],[-57.0055,-36.3337],[-56.9377,-36.3508],[-56.9287,-36.3637],[-56.946,-36.378],[-56.9392,-36.3849],[-56.8567,-36.3439],[-56.7679,-36.3439],[-56.776,-36.3064],[-56.7406,-36.3166],[-56.7224,-36.3693],[-56.6976,-36.3962],[-56.6996,-36.5214],[-56.6723,-36.6005],[-56.6649,-36.851],[-56.6864,-36.9277],[-56.8887,-37.162],[-57.0559,-37.4127],[-57.1658,-37.5356],[-57.3092,-37.6454],[-57.3487,-37.6985],[-57.4874,-37.8322],[-57.5289,-37.9137],[-57.5419,-37.999],[-57.5289,-38.0235],[-57.5328,-38.0725],[-57.5584,-38.1209],[-57.5936,-38.1528],[-57.8619,-38.2941],[-58.0187,-38.3679],[-58.0661,-38.3782],[-58.1557,-38.4301],[-58.331,-38.4928],[-58.4195,-38.5042],[-58.567,-38.5589],[-58.7292,-38.5885],[-58.9403,-38.6461],[-59.0632,-38.6938],[-59.6324,-38.7838],[-59.7969,-38.8385],[-59.8893,-38.8385],[-60.8657,-38.9757],[-61.0165,-38.9682],[-61.1434,-39.0011],[-61.428,-38.9825],[-61.5181,-39.0115],[-61.6752,-38.9939],[-61.7228,-38.9682],[-61.839,-38.9809],[-62.064,-38.9229],[-62.0932,-38.902],[-62.1573,-38.8105],[-62.3187,-38.8006],[-62.3585,-38.7873],[-62.3798,-38.7984],[-62.3902,-38.8147],[-62.3681,-38.8827],[-62.3739,-38.9],[-62.3602,-38.8904],[-62.336,-38.8969],[-62.3345,-38.9474],[-62.3205,-38.9607],[-62.274,-38.9545],[-62.2839,-39.0022],[-62.3185,-39.0221],[-62.3578,-39.1022],[-62.3392,-39.1264],[-62.3392,-39.1941],[-62.2572,-39.2555],[-62.3113,-39.2419],[-62.3256,-39.2547],[-62.2943,-39.2727],[-62.1679,-39.2834],[-62.089,-39.3142],[-62.0239,-39.3648],[-62.0272,-39.3889],[-62.057,-39.4116],[-62.156,-39.3521],[-62.1883,-39.3107],[-62.2839,-39.3107],[-62.2725,-39.3386],[-62.2281,-39.3464],[-62.2148,-39.3762],[-62.1542,-39.4274],[-62.0558,-39.4519],[-62.0506,-39.4747],[-62.0723,-39.5032],[-62.0751,-39.5735],[-62.1117,-39.7325],[-62.1144,-39.8215],[-62.1195,-39.8383],[-62.1642,-39.8588],[-62.2396,-39.8487],[-62.305,-39.8111],[-62.3046,-39.8322],[-62.2839,-39.8526],[-62.3146,-39.8694],[-62.3154,-39.9245],[-62.3663,-40.0541],[-62.3392,-40.1127],[-62.3597,-40.1918],[-62.3687,-40.2112],[-62.4518,-40.2496],[-62.4901,-40.3079],[-62.4149,-40.4621],[-62.3287,-40.4963],[-62.326,-40.5251],[-62.2837,-40.5644],[-62.2642,-40.5515],[-62.2506,-40.6222],[-62.2672,-40.6335],[-62.315,-40.6266],[-62.346,-40.5993],[-62.3297,-40.6691],[-62.1815,-40.6266],[-62.2292,-40.6586],[-62.2543,-40.7464],[-62.3378,-40.8727],[-62.7294,-41.0411],[-62.8016,-41.0417]]],[[[-62.1553,-40.3742],[-62.094,-40.3774],[-62.0285,-40.4549],[-62.0376,-40.4844],[-62.1087,-40.5641],[-62.1613,-40.5571],[-62.1547,-40.5266],[-62.1657,-40.5094],[-62.1935,-40.5226],[-62.2373,-40.5099],[-62.199,-40.4635],[-62.1728,-40.375],[-62.1553,-40.3742]]],[[[-61.9072,-39.1367],[-61.8805,-39.1606],[-61.8617,-39.2099],[-61.8683,-39.2394],[-61.9105,-39.2341],[-61.941,-39.2116],[-62.0268,-39.1829],[-62.086,-39.123],[-62.098,-39.0878],[-61.9418,-39.1178],[-61.9193,-39.1525],[-61.9072,-39.1367]]],[[[-62.119,-40.1307],[-62.0406,-40.1465],[-62.0147,-40.1752],[-62.0212,-40.3436],[-62.0419,-40.2968],[-62.1332,-40.1811],[-62.119,-40.1307]]],[[[-62.0859,-39.0234],[-62.1005,-39.0351],[-62.1308,-39.0206],[-62.1195,-39.0022],[-62.0402,-39.0055],[-62.0027,-39.0147],[-61.9673,-39.047],[-62.0102,-39.0644],[-62.0859,-39.0234]]]]}},{"type":"Feature","id":"Buenos Aires (AR-C)","properties":{"id":"Buenos Aires (AR-C)","iso_code":"AR-C","name":"Buenos Aires (AR-C)","name_full":"Buenos Aires","name_ja":"ブエノスアイレス","center_lonlat":[-58.452,-34.643]},"geometry":{"type":"Polygon","coordinates":[[[-58.4742,-34.5216],[-58.3788,-34.5725],[-58.315,-34.6572],[-58.3432,-34.6899],[-58.3794,-34.6946],[-58.4062,-34.7151],[-58.444,-34.7749],[-58.5416,-34.7103],[-58.5605,-34.6536],[-58.5385,-34.567],[-58.4742,-34.5216]]]}},{"type":"Feature","id":"Catamarca","properties":{"id":"Catamarca","iso_code":"AR-K","name":"Catamarca","name_full":"Catamarca","name_ja":"カタマルカ州","center_lonlat":[-66.9771,-27.3177]},"geometry":{"type":"Polygon","coordinates":[[[-68.4965,-25.16],[-67.8069,-25.2832],[-66.5603,-25.2724],[-66.5375,-25.3053],[-66.5198,-25.4058],[-66.4692,-25.4798],[-66.495,-25.6085],[-66.5713,-25.6671],[-66.7354,-25.674],[-66.7993,-25.7179],[-66.817,-25.7719],[-66.8029,-25.8592],[-66.6194,-26.0969],[-66.5333,-26.26],[-66.4106,-26.3827],[-66.3857,-26.3876],[-66.3623,-26.372],[-66.3016,-26.2456],[-66.2624,-26.2219],[-66.2248,-26.171],[-66.157,-26.1699],[-66.0963,-26.2332],[-66.0538,-26.2535],[-66.1002,-26.3215],[-66.1063,-26.3785],[-66.1566,-26.5246],[-66.1206,-26.5681],[-66.0309,-26.5919],[-65.858,-26.7137],[-65.851,-26.7528],[-65.867,-26.8188],[-65.8683,-26.9008],[-65.9108,-26.9806],[-66.0382,-27.1038],[-66.0676,-27.1618],[-66.148,-27.2377],[-66.1946,-27.3194],[-65.9819,-27.3938],[-65.9868,-27.43],[-65.9293,-27.6543],[-65.8779,-27.6972],[-65.8508,-27.7802],[-65.8211,-27.8057],[-65.7583,-27.7884],[-65.703,-27.8179],[-65.6646,-27.9452],[-65.5707,-28.0502],[-65.558,-28.0544],[-65.497,-27.9612],[-65.349,-27.8633],[-65.2276,-27.9235],[-65.1691,-27.9097],[-65.0791,-28.2746],[-65.0722,-28.4241],[-65.0783,-28.4815],[-65.1523,-28.5869],[-65.1793,-28.6041],[-65.18,-28.6451],[-65.1022,-28.6949],[-65.0926,-28.7213],[-65.0751,-28.9177],[-65.0793,-29.0001],[-65.0354,-29.2927],[-64.992,-29.385],[-64.8825,-29.5571],[-64.9511,-29.579],[-64.9616,-29.6105],[-64.9313,-29.8422],[-64.9434,-29.8783],[-65.1382,-30.0631],[-65.1882,-30.0868],[-65.4019,-30.1402],[-65.5688,-29.8428],[-65.7295,-29.5022],[-65.7529,-29.4034],[-65.7554,-29.3148],[-65.7924,-29.2501],[-66.1218,-28.9706],[-66.3623,-28.8545],[-66.3793,-28.8244],[-66.3373,-28.7611],[-66.3376,-28.7357],[-66.3967,-28.7034],[-66.4647,-28.6311],[-66.496,-28.4991],[-66.5844,-28.4042],[-66.9762,-28.2674],[-67.0426,-28.2842],[-67.0986,-28.3415],[-67.1871,-28.3563],[-67.7042,-28.3393],[-67.8241,-28.3824],[-67.8441,-28.3358],[-67.9144,-28.2489],[-67.9319,-28.1241],[-67.9622,-28.1184],[-68.0921,-28.1544],[-68.1515,-28.1056],[-68.2773,-28.0862],[-68.3484,-28.0194],[-68.4422,-27.9994],[-68.4299,-27.9034],[-68.4487,-27.8503],[-68.4279,-27.7715],[-68.4423,-27.7431],[-68.5093,-27.7378],[-68.5767,-27.7728],[-68.6571,-27.7521],[-68.8496,-27.7934],[-69.1341,-27.7723],[-69.1182,-27.7221],[-69.0758,-27.6962],[-69.0923,-27.6402],[-69.0286,-27.5513],[-69.0174,-27.4604],[-68.9314,-27.3952],[-68.8831,-27.295],[-68.8708,-27.1984],[-68.8143,-27.1203],[-68.7643,-27.1046],[-68.7186,-27.1067],[-68.6495,-27.1512],[-68.5859,-27.1628],[-68.5574,-27.1074],[-68.518,-27.0769],[-68.3284,-27.0374],[-68.3054,-26.898],[-68.5702,-26.5506],[-68.5953,-26.4573],[-68.5939,-26.3786],[-68.5752,-26.3035],[-68.5461,-26.2691],[-68.4199,-26.1793],[-68.409,-26.1442],[-68.4985,-25.7549],[-68.5594,-25.663],[-68.5688,-25.5878],[-68.555,-25.5726],[-68.6029,-25.5107],[-68.6099,-25.4742],[-68.516,-25.1836],[-68.4965,-25.16]]]}},{"type":"Feature","id":"Chaco","properties":{"id":"Chaco","iso_code":"AR-H","name":"Chaco","name_full":"Chaco","name_ja":"チャコ州","center_lonlat":[-60.7609,-26.394]},"geometry":{"type":"Polygon","coordinates":[[[-58.3513,-26.8858],[-58.4755,-26.938],[-58.4816,-26.9638],[-58.4666,-26.9759],[-58.5014,-27.0237],[-58.5115,-27.0602],[-58.536,-27.0362],[-58.5454,-27.041],[-58.5622,-27.0721],[-58.5655,-27.116],[-58.6161,-27.1238],[-58.6533,-27.1563],[-58.6524,-27.198],[-58.6016,-27.2457],[-58.6042,-27.3163],[-58.656,-27.3311],[-58.8865,-27.4789],[-58.8847,-27.5506],[-58.834,-27.6442],[-58.8157,-27.7169],[-58.8179,-27.7726],[-58.8437,-27.8416],[-58.8416,-27.9163],[-58.8647,-27.9993],[-61.7099,-28.0004],[-61.7105,-26.1466],[-61.7223,-25.7442],[-61.7539,-25.6614],[-63.3986,-25.6594],[-62.3344,-24.4029],[-62.3392,-24.1206],[-62.1232,-24.1985],[-62.0266,-24.216],[-61.9832,-24.2642],[-61.902,-24.3173],[-61.7757,-24.3417],[-61.705,-24.3954],[-61.6546,-24.4836],[-61.5734,-24.4861],[-61.551,-24.5307],[-61.4437,-24.624],[-61.2608,-24.6471],[-61.2085,-24.6658],[-61.1716,-24.7137],[-61.1452,-24.7257],[-61.1449,-24.7534],[-61.0949,-24.8273],[-61.1037,-24.8634],[-61.0765,-24.8953],[-61.0343,-24.898],[-60.7999,-25.0754],[-60.6451,-25.1645],[-60.557,-25.201],[-60.4997,-25.2096],[-60.4254,-25.3193],[-60.3603,-25.3633],[-60.3392,-25.4011],[-60.3442,-25.424],[-60.3045,-25.4443],[-60.2888,-25.484],[-60.2387,-25.4952],[-60.2262,-25.5204],[-60.2388,-25.545],[-60.1781,-25.6651],[-60.143,-25.66],[-60.0386,-25.6972],[-60.0159,-25.7351],[-59.9682,-25.747],[-59.9424,-25.7793],[-59.8678,-25.8177],[-59.8537,-25.8661],[-59.7701,-25.9212],[-59.7032,-26.0081],[-59.6736,-26.0135],[-59.6632,-26.1322],[-59.6193,-26.1345],[-59.5655,-26.1573],[-59.4656,-26.165],[-59.4196,-26.1844],[-59.3824,-26.3028],[-59.347,-26.3401],[-59.2645,-26.3467],[-59.1523,-26.2964],[-59.0953,-26.3498],[-58.9535,-26.4056],[-58.8633,-26.5039],[-58.7921,-26.5383],[-58.7418,-26.5934],[-58.6908,-26.6033],[-58.6527,-26.6479],[-58.5698,-26.6948],[-58.5459,-26.7414],[-58.476,-26.7979],[-58.4624,-26.8304],[-58.4262,-26.8486],[-58.3821,-26.8456],[-58.3764,-26.8729],[-58.3513,-26.8858]]]}},{"type":"Feature","id":"Chubut","properties":{"id":"Chubut","iso_code":"AR-U","name":"Chubut","name_full":"Chubut","name_ja":"チュブ州","center_lonlat":[-68.5289,-43.7879]},"geometry":{"type":"Polygon","coordinates":[[[-71.7693,-41.9996],[-65.1272,-42.0002],[-65.0546,-42.0107],[-64.9724,-42.1269],[-64.8573,-42.1936],[-64.8111,-42.1954],[-64.7373,-42.2267],[-64.6442,-42.2346],[-64.6029,-42.2582],[-64.5315,-42.2442],[-64.4809,-42.2547],[-64.4642,-42.2753],[-64.5109,-42.2988],[-64.5875,-42.3813],[-64.6023,-42.4221],[-64.5663,-42.436],[-64.4857,-42.4312],[-64.4451,-42.4467],[-64.3155,-42.423],[-64.1036,-42.4278],[-64.0516,-42.3722],[-64.0597,-42.3366],[-64.0455,-42.3227],[-64.0684,-42.2696],[-64.2966,-42.2576],[-64.3397,-42.2374],[-64.1622,-42.2094],[-63.8709,-42.0837],[-63.81,-42.0702],[-63.7686,-42.0777],[-63.7096,-42.1344],[-63.6683,-42.2286],[-63.6203,-42.2639],[-63.598,-42.3],[-63.5975,-42.4416],[-63.5793,-42.593],[-63.6333,-42.7146],[-63.6203,-42.7512],[-63.6715,-42.8022],[-63.7366,-42.8248],[-63.942,-42.8596],[-64.0256,-42.8622],[-64.1079,-42.8837],[-64.214,-42.7922],[-64.2513,-42.7751],[-64.2186,-42.6559],[-64.1957,-42.6442],[-64.2024,-42.6354],[-64.2944,-42.5857],[-64.3226,-42.5424],[-64.4377,-42.5069],[-64.5422,-42.5063],[-64.6396,-42.5217],[-64.7347,-42.5579],[-64.804,-42.6215],[-64.946,-42.6542],[-65.0189,-42.7468],[-64.9971,-42.7848],[-64.7379,-42.871],[-64.6455,-42.9254],[-64.5799,-42.943],[-64.5032,-42.9373],[-64.4335,-42.9763],[-64.3158,-42.9505],[-64.3021,-42.9809],[-64.3282,-43.0099],[-64.4476,-43.0686],[-64.7652,-43.1474],[-64.9439,-43.2394],[-65.0323,-43.2994],[-65.0434,-43.3215],[-65.0391,-43.3956],[-65.1553,-43.4781],[-65.2098,-43.5463],[-65.2754,-43.5873],[-65.3308,-43.6633],[-65.3324,-43.7307],[-65.3061,-43.7791],[-65.3182,-43.8322],[-65.2965,-43.8481],[-65.2754,-43.8986],[-65.272,-43.964],[-65.2393,-43.9633],[-65.2286,-43.9753],[-65.2519,-43.9881],[-65.242,-44.0273],[-65.1867,-44.0355],[-65.2321,-44.0674],[-65.2379,-44.0842],[-65.2339,-44.1135],[-65.2148,-44.1374],[-65.2826,-44.1545],[-65.2988,-44.1665],[-65.3087,-44.2001],[-65.3047,-44.2401],[-65.268,-44.2723],[-65.2659,-44.3014],[-65.2523,-44.3073],[-65.2582,-44.3232],[-65.2214,-44.3384],[-65.2169,-44.3664],[-65.2857,-44.4124],[-65.2858,-44.4326],[-65.3099,-44.4284],[-65.3093,-44.4448],[-65.3287,-44.4538],[-65.3117,-44.471],[-65.3219,-44.4885],[-65.2826,-44.4926],[-65.2793,-44.5163],[-65.303,-44.5158],[-65.3201,-44.5328],[-65.3257,-44.5083],[-65.3731,-44.5162],[-65.3612,-44.5404],[-65.3933,-44.5519],[-65.3563,-44.5741],[-65.3687,-44.5861],[-65.3828,-44.5764],[-65.3947,-44.594],[-65.4293,-44.5698],[-65.4618,-44.5766],[-65.4609,-44.601],[-65.5427,-44.6196],[-65.5783,-44.6479],[-65.5985,-44.6427],[-65.6432,-44.668],[-65.6958,-44.7348],[-65.7043,-44.8013],[-65.7271,-44.8096],[-65.7185,-44.8356],[-65.7283,-44.8476],[-65.7154,-44.87],[-65.6647,-44.8899],[-65.5729,-44.8958],[-65.5214,-44.9319],[-65.6054,-44.9727],[-65.5838,-45.0075],[-65.6119,-44.9989],[-65.6222,-45.0071],[-65.6026,-45.0277],[-65.6434,-45.0474],[-65.6851,-45.0445],[-65.6906,-45.0627],[-65.7514,-45.0236],[-65.8032,-45.0276],[-65.8174,-45.0403],[-65.8307,-45.0347],[-65.8416,-45.0032],[-65.8898,-45.0081],[-65.8877,-45.0394],[-65.9362,-45.0487],[-66.0164,-45.0031],[-66.1103,-44.9884],[-66.2004,-44.9929],[-66.2816,-45.0576],[-66.3497,-45.0434],[-66.4966,-45.0884],[-66.5239,-45.109],[-66.5253,-45.1319],[-66.4548,-45.1493],[-66.4733,-45.1687],[-66.5878,-45.1393],[-66.5882,-45.1667],[-66.5431,-45.1742],[-66.5226,-45.1932],[-66.524,-45.2161],[-66.6695,-45.2146],[-66.8689,-45.2356],[-66.9293,-45.2565],[-67.0648,-45.3499],[-67.2233,-45.5287],[-67.3319,-45.6135],[-67.3563,-45.659],[-67.3544,-45.7058],[-67.3351,-45.7188],[-67.3639,-45.7357],[-67.3646,-45.7866],[-67.3971,-45.791],[-67.4559,-45.825],[-67.474,-45.8622],[-67.5047,-45.8783],[-67.5477,-45.9334],[-67.5331,-45.9583],[-67.5576,-45.9675],[-67.5817,-46.0],[-71.6492,-45.9994],[-71.6123,-45.9705],[-71.6244,-45.9341],[-71.6659,-45.884],[-71.7585,-45.8482],[-71.7649,-45.831],[-71.749,-45.7868],[-71.7985,-45.7399],[-71.7995,-45.7171],[-71.7805,-45.6894],[-71.7824,-45.6418],[-71.7428,-45.5943],[-71.7651,-45.5724],[-71.7496,-45.5493],[-71.7137,-45.5332],[-71.5258,-45.519],[-71.4891,-45.4985],[-71.4781,-45.4827],[-71.5083,-45.4084],[-71.3894,-45.3708],[-71.3115,-45.2995],[-71.3172,-45.2672],[-71.3633,-45.2088],[-71.4872,-45.1233],[-71.5552,-45.0058],[-71.5887,-44.9781],[-71.7024,-44.9737],[-71.7825,-44.9274],[-71.8894,-44.9472],[-72.0098,-44.9045],[-72.0735,-44.9022],[-72.0887,-44.7828],[-72.0762,-44.7608],[-72.0478,-44.7548],[-71.8546,-44.791],[-71.7627,-44.7544],[-71.6312,-44.78],[-71.4971,-44.7429],[-71.3789,-44.7919],[-71.2978,-44.7956],[-71.2382,-44.7479],[-71.2349,-44.6388],[-71.1994,-44.5917],[-71.1316,-44.5706],[-71.1227,-44.5303],[-71.1554,-44.4986],[-71.1713,-44.4522],[-71.2098,-44.4276],[-71.4378,-44.4015],[-71.7378,-44.3934],[-71.822,-44.4032],[-71.8606,-44.3771],[-71.8642,-44.3592],[-71.8104,-44.3336],[-71.804,-44.3148],[-71.8318,-44.2702],[-71.8051,-44.2052],[-71.8587,-44.1078],[-71.7622,-44.0641],[-71.6696,-43.9598],[-71.6599,-43.9263],[-71.7287,-43.8462],[-71.7618,-43.8284],[-71.755,-43.7714],[-71.7971,-43.7808],[-71.8155,-43.7744],[-71.8192,-43.7581],[-71.8032,-43.726],[-71.7092,-43.6844],[-71.7143,-43.6022],[-71.8007,-43.5442],[-71.8738,-43.5389],[-71.8815,-43.5245],[-71.8586,-43.4986],[-71.8688,-43.4626],[-71.9062,-43.4492],[-71.9373,-43.4569],[-71.9551,-43.4435],[-71.9368,-43.4267],[-71.941,-43.3918],[-71.9123,-43.3678],[-71.9017,-43.322],[-71.8051,-43.3],[-71.7609,-43.3069],[-71.7507,-43.2953],[-71.7577,-43.2254],[-71.743,-43.1901],[-71.7702,-43.1614],[-71.8619,-43.1332],[-72.0098,-43.1204],[-72.0544,-43.1054],[-72.1293,-43.0422],[-72.1485,-42.9987],[-72.1127,-42.8638],[-72.1213,-42.7197],[-72.1415,-42.6557],[-72.1316,-42.6241],[-72.1484,-42.5926],[-72.1432,-42.5571],[-72.1226,-42.5299],[-72.0392,-42.4812],[-72.0752,-42.4338],[-72.0607,-42.3689],[-72.1216,-42.313],[-72.1337,-42.2876],[-72.1247,-42.2633],[-72.0589,-42.1976],[-72.0399,-42.1447],[-72.0098,-42.1247],[-71.9775,-42.1253],[-71.948,-42.1673],[-71.9238,-42.1769],[-71.8843,-42.1442],[-71.8013,-42.1303],[-71.7494,-42.1044],[-71.7363,-42.0839],[-71.7396,-42.0319],[-71.7693,-41.9996]]]}},{"type":"Feature","id":"Cordoba","properties":{"id":"Cordoba","iso_code":"AR-X","name":"Cordoba","name_full":"Córdoba","name_ja":"コルドバ州","center_lonlat":[-63.769,-32.093]},"geometry":{"type":"Polygon","coordinates":[[[-62.0871,-30.1566],[-62.1321,-30.441],[-61.8571,-30.7315],[-61.8658,-30.7888],[-62.1216,-31.6086],[-62.1384,-31.6415],[-62.2359,-31.7198],[-62.2173,-31.7695],[-62.2156,-31.9076],[-62.1841,-31.9628],[-62.2122,-32.033],[-62.2186,-32.1385],[-62.1389,-32.2117],[-62.0782,-32.2441],[-62.0146,-32.3863],[-61.9141,-32.4629],[-61.8951,-32.5562],[-61.8661,-32.5862],[-61.8945,-32.6588],[-61.833,-32.6769],[-61.7803,-32.7648],[-61.7353,-32.8123],[-61.7586,-32.8963],[-61.7628,-32.9998],[-61.8165,-33.0615],[-61.8514,-33.0819],[-61.8917,-33.0833],[-61.9199,-33.1141],[-62.8538,-34.3821],[-63.3396,-34.3805],[-63.3736,-34.4136],[-63.3841,-35.0021],[-65.0866,-35.0018],[-65.0869,-33.9624],[-65.1317,-33.2055],[-65.0911,-33.1368],[-65.0325,-33.1113],[-65.0434,-33.0601],[-65.0076,-32.9946],[-65.0147,-32.9482],[-64.9736,-32.8796],[-64.9442,-32.7443],[-64.9154,-32.7123],[-64.8832,-32.6195],[-64.8742,-32.5494],[-64.9225,-32.429],[-64.9194,-32.3082],[-64.9517,-32.2909],[-65.0695,-32.3196],[-65.1897,-32.3276],[-65.2024,-32.3091],[-65.204,-32.2502],[-65.2379,-32.1867],[-65.2451,-32.1251],[-65.3105,-32.0611],[-65.6406,-31.8932],[-65.7596,-31.8855],[-65.7673,-31.0962],[-65.5264,-30.416],[-65.4848,-30.3479],[-65.4019,-30.1402],[-65.1882,-30.0868],[-65.1382,-30.0631],[-64.9434,-29.8783],[-64.9313,-29.8422],[-64.9616,-29.6105],[-64.9511,-29.579],[-64.8825,-29.5571],[-64.2537,-29.4243],[-64.0491,-29.473],[-64.0487,-29.5257],[-64.0276,-29.5452],[-63.9532,-29.5804],[-63.9258,-29.6095],[-63.8623,-29.6204],[-63.8077,-29.6498],[-63.7286,-29.6535],[-63.6107,-29.6372],[-63.5244,-29.6588],[-63.4627,-29.6552],[-63.4579,-29.7143],[-63.3963,-29.7285],[-63.3841,-29.7713],[-62.2882,-29.7767],[-62.2426,-29.8056],[-62.0871,-30.1566]]]}},{"type":"Feature","id":"Corrientes","properties":{"id":"Corrientes","iso_code":"AR-W","name":"Corrientes","name_full":"Corrientes","name_ja":"コリエンテス州","center_lonlat":[-57.8007,-28.7632]},"geometry":{"type":"Polygon","coordinates":[[[-55.9661,-27.3317],[-56.0006,-27.3604],[-56.0174,-27.4054],[-56.0173,-27.4516],[-55.8733,-27.7158],[-55.8512,-27.7858],[-55.8386,-27.9066],[-55.782,-27.9719],[-55.7638,-28.0288],[-55.737,-28.066],[-55.623,-28.1443],[-55.6841,-28.1962],[-55.7725,-28.232],[-55.7666,-28.2576],[-55.6872,-28.2901],[-55.6636,-28.3265],[-55.6942,-28.4001],[-55.715,-28.4045],[-55.7346,-28.3659],[-55.8423,-28.3464],[-55.9056,-28.378],[-55.902,-28.4651],[-56.0116,-28.4966],[-56.0214,-28.5104],[-56.0219,-28.5857],[-56.0408,-28.609],[-56.103,-28.6481],[-56.1847,-28.7442],[-56.2861,-28.7802],[-56.301,-28.8814],[-56.3231,-28.9165],[-56.3916,-28.9522],[-56.428,-29.0699],[-56.5483,-29.11],[-56.6173,-29.1609],[-56.6507,-29.2091],[-56.6505,-29.2513],[-56.6887,-29.3296],[-56.7699,-29.3791],[-56.7834,-29.4258],[-56.8076,-29.4447],[-56.819,-29.475],[-56.9658,-29.6009],[-57.0209,-29.6834],[-57.1129,-29.766],[-57.2196,-29.7783],[-57.2915,-29.8151],[-57.3085,-29.8485],[-57.3252,-29.981],[-57.4115,-30.0396],[-57.5062,-30.1443],[-57.5486,-30.17],[-57.6425,-30.1931],[-57.6237,-30.2581],[-57.6527,-30.3291],[-57.8496,-30.4853],[-57.8771,-30.5148],[-57.8898,-30.5508],[-57.8858,-30.5899],[-57.8262,-30.6897],[-57.8087,-30.7473],[-57.9873,-30.6035],[-58.037,-30.5218],[-58.068,-30.4207],[-58.1722,-30.3406],[-58.2296,-30.253],[-58.2608,-30.2307],[-58.4549,-30.184],[-58.5221,-30.183],[-58.5871,-30.153],[-58.6297,-30.1523],[-58.7748,-30.2061],[-58.8762,-30.227],[-59.005,-30.2041],[-59.2413,-30.3435],[-59.3885,-30.306],[-59.4559,-30.3198],[-59.4987,-30.3091],[-59.5681,-30.3326],[-59.6615,-30.3369],[-59.6693,-30.2939],[-59.6384,-30.1504],[-59.5953,-30.0492],[-59.6302,-29.9301],[-59.6728,-29.8471],[-59.627,-29.7506],[-59.5911,-29.615],[-59.5891,-29.4112],[-59.5477,-29.2596],[-59.485,-29.1892],[-59.3589,-29.1435],[-59.2134,-29.0485],[-59.1974,-29.0221],[-59.1944,-28.9214],[-59.1526,-28.8489],[-59.1429,-28.7458],[-59.087,-28.6271],[-59.0908,-28.5313],[-59.0662,-28.4014],[-59.091,-28.3219],[-59.0875,-28.1752],[-59.0599,-28.1294],[-58.9505,-28.1124],[-58.9203,-28.0948],[-58.877,-28.0434],[-58.8647,-27.9993],[-58.8416,-27.9163],[-58.8437,-27.8416],[-58.8179,-27.7726],[-58.8157,-27.7169],[-58.834,-27.6442],[-58.8847,-27.5506],[-58.8865,-27.4789],[-58.656,-27.3311],[-58.6042,-27.3163],[-58.5108,-27.2784],[-58.2382,-27.257],[-58.1288,-27.2697],[-58.022,-27.2598],[-57.7094,-27.3298],[-57.5134,-27.4141],[-57.3352,-27.4095],[-57.303,-27.4355],[-57.2371,-27.4542],[-57.1801,-27.4873],[-57.0762,-27.484],[-56.9773,-27.4353],[-56.9044,-27.4187],[-56.8693,-27.4315],[-56.7712,-27.5067],[-56.613,-27.4464],[-56.5464,-27.4551],[-56.4615,-27.5539],[-56.3997,-27.5868],[-56.3675,-27.5806],[-56.297,-27.4809],[-56.2798,-27.3896],[-56.2054,-27.3622],[-56.15,-27.3118],[-56.0989,-27.3006],[-55.9661,-27.3317]]]}},{"type":"Feature","id":"Entre Rios","properties":{"id":"Entre Rios","iso_code":"AR-E","name":"Entre Rios","name_full":"Entre Ríos","name_ja":"エントレ・リオス州","center_lonlat":[-59.2082,-32.0405]},"geometry":{"type":"Polygon","coordinates":[[[-58.447,-34.0069],[-58.591,-34.049],[-58.6385,-34.0485],[-58.6798,-34.0312],[-58.7819,-33.9523],[-58.8493,-33.9373],[-59.0318,-33.8296],[-59.1627,-33.8288],[-59.2009,-33.7946],[-59.2313,-33.798],[-59.2487,-33.7872],[-59.2549,-33.7394],[-59.2689,-33.7212],[-59.3064,-33.7394],[-59.3926,-33.7394],[-59.442,-33.7174],[-59.5207,-33.6553],[-59.6028,-33.6778],[-59.6406,-33.671],[-59.7724,-33.6105],[-59.8601,-33.524],[-59.9477,-33.495],[-60.1181,-33.3936],[-60.2461,-33.2784],[-60.2941,-33.2566],[-60.3475,-33.2241],[-60.393,-33.1742],[-60.4954,-33.1221],[-60.5521,-33.0611],[-60.5869,-32.9768],[-60.6224,-32.9406],[-60.6755,-32.8465],[-60.6985,-32.7699],[-60.7058,-32.6795],[-60.767,-32.5783],[-60.7657,-32.5411],[-60.7293,-32.4554],[-60.7312,-32.3545],[-60.7018,-32.2549],[-60.7069,-32.1562],[-60.6618,-32.0693],[-60.7176,-31.9719],[-60.72,-31.9223],[-60.674,-31.8529],[-60.6478,-31.716],[-60.6053,-31.6997],[-60.4737,-31.6973],[-60.3807,-31.6491],[-60.2547,-31.5053],[-60.1637,-31.4421],[-60.094,-31.3537],[-60.0634,-31.2695],[-60.0008,-31.2123],[-59.841,-30.9773],[-59.7198,-30.831],[-59.6606,-30.7361],[-59.6223,-30.5748],[-59.6148,-30.4627],[-59.653,-30.3839],[-59.6615,-30.3369],[-59.5681,-30.3326],[-59.4987,-30.3091],[-59.4559,-30.3198],[-59.3885,-30.306],[-59.2413,-30.3435],[-59.005,-30.2041],[-58.8762,-30.227],[-58.7748,-30.2061],[-58.6297,-30.1523],[-58.5871,-30.153],[-58.5221,-30.183],[-58.4549,-30.184],[-58.2608,-30.2307],[-58.2296,-30.253],[-58.1722,-30.3406],[-58.068,-30.4207],[-58.037,-30.5218],[-57.9873,-30.6035],[-57.8087,-30.7473],[-57.795,-30.858],[-57.8072,-30.9076],[-57.8853,-30.9188],[-57.9117,-30.9474],[-57.8633,-31.0123],[-57.8552,-31.059],[-57.899,-31.1265],[-57.9117,-31.1706],[-57.9051,-31.241],[-57.9356,-31.2903],[-57.9664,-31.3146],[-57.9902,-31.3993],[-58.0626,-31.4443],[-58.0752,-31.4752],[-57.9868,-31.5541],[-57.9796,-31.5988],[-57.9886,-31.6428],[-58.0593,-31.8115],[-58.1529,-31.836],[-58.196,-31.8726],[-58.2026,-31.8931],[-58.1588,-31.9439],[-58.1453,-32.0179],[-58.1588,-32.1016],[-58.1865,-32.1529],[-58.1069,-32.2518],[-58.0965,-32.281],[-58.1016,-32.3114],[-58.1649,-32.3895],[-58.2201,-32.4895],[-58.2116,-32.6573],[-58.1794,-32.8283],[-58.1378,-32.9003],[-58.1595,-32.9798],[-58.1468,-33.05],[-58.2045,-33.0919],[-58.3832,-33.0755],[-58.4235,-33.0934],[-58.432,-33.1116],[-58.4127,-33.1264],[-58.4332,-33.2324],[-58.4123,-33.2983],[-58.4879,-33.3696],[-58.5318,-33.4939],[-58.5288,-33.579],[-58.5492,-33.7053],[-58.5243,-33.7778],[-58.461,-33.8595],[-58.4394,-33.9797],[-58.447,-34.0069]]]}},{"type":"Feature","id":"Formosa","properties":{"id":"Formosa","iso_code":"AR-P","name":"Formosa","name_full":"Formosa","name_ja":"フォルモサ州","center_lonlat":[-59.934,-24.8966]},"geometry":{"type":"Polygon","coordinates":[[[-62.3414,-22.4723],[-62.2872,-22.4839],[-62.2814,-22.5121],[-62.2412,-22.5384],[-62.2332,-22.5563],[-62.2528,-22.6036],[-62.193,-22.6282],[-62.195,-22.6736],[-62.1759,-22.6849],[-62.1883,-22.7083],[-62.0358,-22.8849],[-62.0061,-22.9368],[-62.0059,-22.9789],[-61.9564,-23.0344],[-61.845,-23.0972],[-61.7693,-23.1656],[-61.733,-23.2434],[-61.6803,-23.2793],[-61.6052,-23.2893],[-61.5546,-23.3384],[-61.5161,-23.345],[-61.5263,-23.3747],[-61.5011,-23.4078],[-61.297,-23.4814],[-61.2726,-23.5236],[-61.2144,-23.5572],[-61.1802,-23.5572],[-61.1099,-23.607],[-61.1188,-23.6664],[-61.05,-23.7347],[-61.0158,-23.7967],[-60.9748,-23.8241],[-60.9367,-23.8138],[-60.8376,-23.8718],[-60.7293,-23.8721],[-60.6897,-23.8936],[-60.6322,-23.8923],[-60.5946,-23.9065],[-60.5775,-23.9442],[-60.536,-23.9476],[-60.4849,-23.9773],[-60.3784,-23.9885],[-60.3374,-24.0164],[-60.1432,-24.0252],[-60.0724,-24.0048],[-60.0337,-24.007],[-59.6736,-24.2254],[-59.6105,-24.2896],[-59.54,-24.3088],[-59.4659,-24.3536],[-59.4503,-24.3824],[-59.3778,-24.4335],[-59.341,-24.4876],[-59.0009,-24.6442],[-58.8092,-24.7768],[-58.7375,-24.7828],[-58.6942,-24.812],[-58.4734,-24.8513],[-58.4385,-24.8728],[-58.336,-24.9919],[-58.312,-24.9936],[-58.2425,-24.9417],[-58.2241,-24.9412],[-58.124,-25.0129],[-58.0421,-25.0444],[-58.0005,-25.0444],[-57.9838,-25.0742],[-57.8707,-25.0853],[-57.8124,-25.1437],[-57.7541,-25.1809],[-57.7218,-25.2461],[-57.6715,-25.2901],[-57.6408,-25.3726],[-57.5581,-25.4435],[-57.5753,-25.5644],[-57.6116,-25.5859],[-57.6231,-25.6154],[-57.6681,-25.6123],[-57.679,-25.647],[-57.7413,-25.6619],[-57.7746,-25.7017],[-57.7404,-25.7221],[-57.8206,-25.7783],[-57.8019,-25.8314],[-57.8754,-25.8761],[-57.8754,-25.8902],[-57.8514,-25.9084],[-57.9058,-25.9686],[-57.8596,-25.9809],[-57.8727,-26.0103],[-57.9882,-26.0885],[-58.0865,-26.1272],[-58.124,-26.2019],[-58.1513,-26.1815],[-58.1489,-26.1993],[-58.1066,-26.2261],[-58.106,-26.2395],[-58.17,-26.2703],[-58.1676,-26.335],[-58.2131,-26.4186],[-58.1854,-26.4517],[-58.2027,-26.4716],[-58.2173,-26.5276],[-58.1649,-26.5923],[-58.1923,-26.6128],[-58.1786,-26.6507],[-58.2355,-26.6498],[-58.2479,-26.7582],[-58.2879,-26.7686],[-58.2748,-26.7984],[-58.2886,-26.8115],[-58.34,-26.8086],[-58.3524,-26.8305],[-58.3158,-26.8741],[-58.3513,-26.8858],[-58.3764,-26.8729],[-58.3821,-26.8456],[-58.4262,-26.8486],[-58.4624,-26.8304],[-58.476,-26.7979],[-58.5459,-26.7414],[-58.5698,-26.6948],[-58.6527,-26.6479],[-58.6908,-26.6033],[-58.7418,-26.5934],[-58.7921,-26.5383],[-58.8633,-26.5039],[-58.9535,-26.4056],[-59.0953,-26.3498],[-59.1523,-26.2964],[-59.2645,-26.3467],[-59.347,-26.3401],[-59.3824,-26.3028],[-59.4196,-26.1844],[-59.4656,-26.165],[-59.5655,-26.1573],[-59.6193,-26.1345],[-59.6632,-26.1322],[-59.6736,-26.0135],[-59.7032,-26.0081],[-59.7701,-25.9212],[-59.8537,-25.8661],[-59.8678,-25.8177],[-59.9424,-25.7793],[-59.9682,-25.747],[-60.0159,-25.7351],[-60.0386,-25.6972],[-60.143,-25.66],[-60.1781,-25.6651],[-60.2388,-25.545],[-60.2262,-25.5204],[-60.2387,-25.4952],[-60.2888,-25.484],[-60.3045,-25.4443],[-60.3442,-25.424],[-60.3392,-25.4011],[-60.3603,-25.3633],[-60.4254,-25.3193],[-60.4997,-25.2096],[-60.557,-25.201],[-60.6451,-25.1645],[-60.7999,-25.0754],[-61.0343,-24.898],[-61.0765,-24.8953],[-61.1037,-24.8634],[-61.0949,-24.8273],[-61.1449,-24.7534],[-61.1452,-24.7257],[-61.1716,-24.7137],[-61.2085,-24.6658],[-61.2608,-24.6471],[-61.4437,-24.624],[-61.551,-24.5307],[-61.5734,-24.4861],[-61.6546,-24.4836],[-61.705,-24.3954],[-61.7757,-24.3417],[-61.902,-24.3173],[-61.9832,-24.2642],[-62.0266,-24.216],[-62.1232,-24.1985],[-62.3392,-24.1206],[-62.3414,-22.4723]]]}},{"type":"Feature","id":"Jujuy","properties":{"id":"Jujuy","iso_code":"AR-Y","name":"Jujuy","name_full":"Jujuy","name_ja":"フフイ州","center_lonlat":[-65.7775,-23.3186]},"geometry":{"type":"Polygon","coordinates":[[[-67.2513,-23.7331],[-67.014,-23.0007],[-67.1939,-22.8222],[-67.1132,-22.7101],[-67.0266,-22.6394],[-67.0327,-22.5246],[-66.9782,-22.5225],[-66.9353,-22.4805],[-66.7851,-22.4276],[-66.7905,-22.3883],[-66.7359,-22.2251],[-66.6993,-22.2008],[-66.6414,-22.2125],[-66.6268,-22.1926],[-66.3775,-22.1271],[-66.3352,-22.0823],[-66.3076,-22.077],[-66.2876,-21.957],[-66.24,-21.7924],[-66.2225,-21.7869],[-66.0945,-21.8329],[-66.0636,-21.864],[-66.0465,-21.918],[-65.9327,-21.9446],[-65.7753,-22.1051],[-65.7446,-22.114],[-65.6053,-22.0991],[-65.5799,-22.0865],[-65.4573,-22.1014],[-65.1905,-22.0985],[-65.2354,-22.2231],[-65.2397,-22.3197],[-65.3343,-22.5023],[-65.3455,-22.5882],[-65.3035,-22.5994],[-65.2652,-22.6382],[-65.2859,-22.6826],[-65.2856,-22.7318],[-65.2684,-22.8437],[-65.2272,-22.9506],[-65.182,-22.985],[-65.0572,-22.9918],[-65.013,-23.034],[-65.0072,-23.0746],[-65.0419,-23.24],[-65.0369,-23.2658],[-64.9525,-23.3084],[-64.8895,-23.4297],[-64.869,-23.4963],[-64.7957,-23.5024],[-64.7485,-23.467],[-64.6601,-23.4546],[-64.6335,-23.4783],[-64.5558,-23.5056],[-64.4383,-23.6196],[-64.4159,-23.6032],[-64.3987,-23.5477],[-64.3675,-23.5096],[-64.2214,-23.5066],[-64.1888,-23.5133],[-64.1834,-23.526],[-64.1588,-24.1836],[-64.212,-24.2988],[-64.298,-24.4016],[-64.3246,-24.4179],[-64.4168,-24.4293],[-64.4476,-24.4663],[-64.503,-24.4807],[-64.572,-24.5419],[-64.618,-24.6139],[-64.8282,-24.4555],[-64.9017,-24.5926],[-64.9223,-24.5995],[-65.0643,-24.5465],[-65.1495,-24.4826],[-65.1649,-24.4543],[-65.2769,-24.5018],[-65.428,-24.4606],[-65.4787,-24.421],[-65.5381,-24.4309],[-65.5871,-24.4026],[-65.7515,-24.1751],[-65.7591,-24.0768],[-65.834,-24.0369],[-65.9019,-23.9804],[-65.9594,-23.9932],[-66.0002,-23.9413],[-65.9929,-23.9028],[-66.026,-23.8476],[-66.0209,-23.7692],[-65.9868,-23.7192],[-65.9995,-23.6849],[-65.9883,-23.6635],[-65.9921,-23.5339],[-66.0282,-23.4998],[-66.1702,-23.4207],[-66.2111,-23.4194],[-66.2572,-23.3913],[-66.3421,-23.3687],[-66.3598,-23.3701],[-66.3776,-23.3907],[-66.4067,-23.5188],[-66.4029,-23.5569],[-66.3379,-23.7238],[-66.352,-24.0414],[-66.388,-24.141],[-66.4183,-24.1547],[-66.471,-24.2208],[-66.5045,-24.2371],[-66.604,-24.2325],[-66.6753,-24.1991],[-66.7685,-24.0984],[-66.8736,-24.0501],[-66.9319,-23.9877],[-66.947,-23.9541],[-66.9884,-23.9416],[-66.9996,-23.9125],[-67.0798,-23.8336],[-67.1447,-23.8159],[-67.2513,-23.7331]]]}},{"type":"Feature","id":"La Pampa","properties":{"id":"La Pampa","iso_code":"AR-L","name":"La Pampa","name_full":"La Pampa","name_ja":"ラ・パンパ州","center_lonlat":[-65.4466,-37.131]},"geometry":{"type":"Polygon","coordinates":[[[-65.0866,-35.0018],[-63.3841,-35.0021],[-63.3886,-39.3258],[-63.5164,-39.306],[-63.7112,-39.2002],[-63.7821,-39.1284],[-63.9082,-39.0922],[-64.0102,-38.9998],[-64.0573,-38.9936],[-64.1463,-38.9493],[-64.4715,-38.8537],[-64.8209,-38.8104],[-64.9435,-38.8186],[-64.9702,-38.8036],[-65.1142,-38.8036],[-65.3674,-38.8384],[-65.4235,-38.8115],[-65.563,-38.7758],[-65.6896,-38.8179],[-65.7187,-38.7997],[-65.7755,-38.7968],[-65.8131,-38.7763],[-65.9602,-38.7421],[-66.2152,-38.7166],[-66.3919,-38.7342],[-66.562,-38.7016],[-66.5935,-38.6073],[-66.6479,-38.5574],[-67.0698,-38.409],[-67.1358,-38.3381],[-67.1766,-38.2226],[-67.2207,-38.2132],[-67.3053,-38.2267],[-67.376,-38.2555],[-67.4518,-38.247],[-67.5541,-38.2617],[-67.592,-38.2471],[-67.6512,-38.1915],[-67.7057,-38.1006],[-67.7732,-38.0631],[-67.8108,-38.0705],[-67.8449,-38.0569],[-67.8717,-38.0072],[-67.8701,-37.9418],[-67.8483,-37.9078],[-67.748,-37.8452],[-67.7237,-37.8169],[-67.7118,-37.7348],[-67.7486,-37.6691],[-67.8073,-37.6181],[-67.8503,-37.6002],[-68.2494,-37.557],[-68.2568,-36.2768],[-68.2932,-36.1283],[-68.2822,-36.0211],[-68.2463,-35.9993],[-66.6172,-35.9999],[-65.0878,-35.9988],[-65.0866,-35.0018]]]}},{"type":"Feature","id":"La Rioja","properties":{"id":"La Rioja","iso_code":"AR-F","name":"La Rioja","name_full":"La Rioja","name_ja":"ラ・リオハ州","center_lonlat":[-67.2006,-29.6689]},"geometry":{"type":"Polygon","coordinates":[[[-69.1341,-27.7723],[-68.8496,-27.7934],[-68.6571,-27.7521],[-68.5767,-27.7728],[-68.5093,-27.7378],[-68.4423,-27.7431],[-68.4279,-27.7715],[-68.4487,-27.8503],[-68.4299,-27.9034],[-68.4422,-27.9994],[-68.3484,-28.0194],[-68.2773,-28.0862],[-68.1515,-28.1056],[-68.0921,-28.1544],[-67.9622,-28.1184],[-67.9319,-28.1241],[-67.9144,-28.2489],[-67.8441,-28.3358],[-67.8241,-28.3824],[-67.7042,-28.3393],[-67.1871,-28.3563],[-67.0986,-28.3415],[-67.0426,-28.2842],[-66.9762,-28.2674],[-66.5844,-28.4042],[-66.496,-28.4991],[-66.4647,-28.6311],[-66.3967,-28.7034],[-66.3376,-28.7357],[-66.3373,-28.7611],[-66.3793,-28.8244],[-66.3623,-28.8545],[-66.1218,-28.9706],[-65.7924,-29.2501],[-65.7554,-29.3148],[-65.7529,-29.4034],[-65.7295,-29.5022],[-65.5688,-29.8428],[-65.4019,-30.1402],[-65.4848,-30.3479],[-65.5264,-30.416],[-65.7673,-31.0962],[-65.7596,-31.8855],[-65.9073,-31.9007],[-65.9692,-31.8786],[-66.0544,-31.8714],[-66.2172,-31.9254],[-66.3739,-31.9338],[-66.433,-31.9149],[-66.4993,-31.9204],[-66.5402,-31.9025],[-66.5939,-31.915],[-66.7305,-31.8766],[-66.7821,-31.7744],[-66.8367,-31.7475],[-66.8545,-31.6357],[-66.9448,-31.6157],[-67.0489,-31.5233],[-67.0512,-31.4593],[-67.1039,-31.3543],[-67.06,-31.0818],[-67.1147,-31.0385],[-67.1184,-31.0092],[-67.0817,-30.8974],[-67.1923,-30.714],[-67.2561,-30.683],[-67.3431,-30.5671],[-67.4441,-30.4912],[-67.4878,-30.4277],[-67.5613,-30.3855],[-67.5817,-30.3235],[-67.6345,-30.2479],[-67.7734,-30.153],[-67.8238,-30.0942],[-67.9137,-30.0507],[-67.9617,-29.9952],[-68.0109,-29.9658],[-68.0283,-29.9268],[-68.0766,-29.8827],[-68.1511,-29.853],[-68.1783,-29.8064],[-68.2888,-29.7391],[-68.3355,-29.6872],[-68.4967,-29.6447],[-68.605,-29.6453],[-68.7006,-29.6021],[-68.8231,-29.6331],[-68.897,-29.619],[-68.9777,-29.6362],[-69.0129,-29.6224],[-69.0261,-29.5728],[-69.0195,-29.5223],[-68.9793,-29.453],[-68.9752,-29.3429],[-68.9419,-29.3106],[-68.9672,-29.2633],[-69.0002,-29.2334],[-69.0041,-29.1503],[-68.9737,-29.079],[-68.9196,-29.0491],[-68.9134,-29.0021],[-68.9739,-28.9457],[-69.0203,-28.847],[-69.103,-28.7777],[-69.1338,-28.6801],[-69.1618,-28.6214],[-69.1902,-28.594],[-69.3363,-28.4848],[-69.4207,-28.4773],[-69.473,-28.4264],[-69.543,-28.4375],[-69.654,-28.401],[-69.5101,-28.2675],[-69.4905,-28.1984],[-69.4762,-28.1879],[-69.4203,-28.2126],[-69.3118,-28.0365],[-69.3032,-27.9995],[-69.1902,-27.9514],[-69.173,-27.9241],[-69.1341,-27.7723]]]}},{"type":"Feature","id":"Mendoza","properties":{"id":"Mendoza","iso_code":"AR-M","name":"Mendoza","name_full":"Mendoza","name_ja":"メンドーサ州","center_lonlat":[-68.6111,-34.6068]},"geometry":{"type":"Polygon","coordinates":[[[-70.2561,-32.3143],[-70.091,-32.2889],[-69.9812,-32.3054],[-69.7859,-32.265],[-69.6623,-32.258],[-69.6294,-32.2277],[-69.6298,-32.153],[-69.6081,-32.1203],[-69.5095,-32.0881],[-69.4477,-32.0528],[-69.2918,-32.0539],[-69.2534,-31.9999],[-69.175,-31.9557],[-69.1229,-31.9779],[-69.0391,-32.0708],[-68.9222,-32.0762],[-68.9022,-32.3257],[-68.8862,-32.3366],[-68.6896,-32.3351],[-68.4621,-32.209],[-68.3937,-32.1501],[-68.2516,-32.1396],[-68.1667,-32.093],[-68.0558,-32.0684],[-68.0207,-32.069],[-67.9855,-32.0884],[-67.9488,-32.1256],[-67.9397,-32.1586],[-67.8749,-32.1941],[-67.8318,-32.2392],[-67.7391,-32.2529],[-67.5936,-32.2263],[-67.5136,-32.2249],[-67.4933,-32.2135],[-67.393,-32.2622],[-67.3617,-32.3968],[-67.3207,-32.431],[-67.2584,-32.6536],[-67.2142,-32.7049],[-67.1921,-32.7611],[-67.2183,-32.8282],[-67.2061,-32.8935],[-67.227,-32.9161],[-67.1978,-32.9865],[-67.204,-33.0274],[-67.1842,-33.1498],[-67.1904,-33.2289],[-67.1773,-33.3012],[-67.1494,-33.3663],[-67.1519,-33.4291],[-67.0197,-33.6165],[-66.9296,-33.8379],[-66.844,-33.8963],[-66.8217,-33.9597],[-66.7789,-33.9933],[-66.7471,-34.0642],[-66.7592,-34.1845],[-66.7726,-34.1987],[-66.8,-34.1919],[-66.8214,-34.2293],[-66.8112,-34.3449],[-66.8,-34.3632],[-66.8126,-34.3846],[-66.7789,-34.428],[-66.7726,-34.5134],[-66.738,-34.6154],[-66.6907,-34.658],[-66.572,-34.8529],[-66.5461,-34.9249],[-66.5536,-34.9972],[-66.5051,-35.1242],[-66.5256,-35.1992],[-66.5051,-35.2272],[-66.5188,-35.2641],[-66.5051,-35.3426],[-66.5211,-35.4942],[-66.5556,-35.5707],[-66.6288,-35.9491],[-66.6172,-35.9999],[-68.2463,-35.9993],[-68.2822,-36.0211],[-68.2932,-36.1283],[-68.2568,-36.2768],[-68.2494,-37.557],[-68.4275,-37.5378],[-68.4619,-37.5119],[-68.5068,-37.4474],[-68.6782,-37.4263],[-68.7567,-37.3717],[-68.8843,-37.3811],[-68.9851,-37.3638],[-69.0201,-37.3443],[-69.061,-37.236],[-69.0884,-37.2072],[-69.1547,-37.1827],[-69.3024,-37.1498],[-69.4787,-37.1764],[-69.531,-37.1736],[-69.6235,-37.1526],[-69.7034,-37.1122],[-69.8159,-36.9974],[-69.788,-36.9602],[-69.7901,-36.8632],[-69.9072,-36.7956],[-69.956,-36.7058],[-70.0138,-36.6705],[-70.0677,-36.6118],[-70.163,-36.5816],[-70.1974,-36.5331],[-70.2603,-36.3728],[-70.2878,-36.3587],[-70.3283,-36.3794],[-70.3562,-36.366],[-70.3829,-36.2899],[-70.3595,-36.2526],[-70.3609,-36.1927],[-70.4307,-36.1294],[-70.3803,-36.046],[-70.4127,-35.9689],[-70.3837,-35.9132],[-70.4208,-35.9038],[-70.4202,-35.8684],[-70.3573,-35.8152],[-70.3616,-35.7831],[-70.4215,-35.6597],[-70.4082,-35.5062],[-70.4455,-35.4611],[-70.4718,-35.3794],[-70.4284,-35.3571],[-70.4398,-35.3322],[-70.4753,-35.3141],[-70.5604,-35.2984],[-70.5789,-35.2597],[-70.5429,-35.2093],[-70.3866,-35.1667],[-70.3537,-34.9533],[-70.2767,-34.7982],[-70.3163,-34.7456],[-70.2731,-34.727],[-70.2522,-34.6958],[-70.2278,-34.5853],[-70.1678,-34.5384],[-70.1143,-34.4474],[-70.0676,-34.4146],[-70.0576,-34.2912],[-70.0403,-34.277],[-69.9892,-34.2691],[-69.9116,-34.2846],[-69.9023,-34.2687],[-69.8328,-34.2432],[-69.8373,-34.2093],[-69.8732,-34.14],[-69.8558,-33.9847],[-69.8656,-33.9577],[-69.9096,-33.9557],[-69.8973,-33.8714],[-69.9143,-33.7719],[-69.86,-33.7264],[-69.8954,-33.6623],[-69.8729,-33.586],[-69.8788,-33.558],[-69.8415,-33.5328],[-69.8309,-33.4582],[-69.7867,-33.3993],[-69.8139,-33.2895],[-69.8368,-33.2657],[-69.9053,-33.2382],[-69.9406,-33.2429],[-69.9839,-33.2945],[-70.01,-33.2991],[-70.0411,-33.239],[-70.1095,-33.1696],[-70.0922,-33.0918],[-70.1112,-33.0384],[-70.0889,-33.0083],[-70.0425,-32.9927],[-70.0002,-32.8766],[-70.0873,-32.8233],[-70.1557,-32.7384],[-70.1811,-32.6076],[-70.1706,-32.5727],[-70.1377,-32.569],[-70.1579,-32.5425],[-70.1725,-32.4649],[-70.2273,-32.4347],[-70.2453,-32.404],[-70.2424,-32.3303],[-70.2561,-32.3143]]]}},{"type":"Feature","id":"Misiones","properties":{"id":"Misiones","iso_code":"AR-N","name":"Misiones","name_full":"Misiones","name_ja":"ミシオネス州","center_lonlat":[-54.6573,-26.872]},"geometry":{"type":"Polygon","coordinates":[[[-55.623,-28.1443],[-55.737,-28.066],[-55.7638,-28.0288],[-55.782,-27.9719],[-55.8386,-27.9066],[-55.8512,-27.7858],[-55.8733,-27.7158],[-56.0173,-27.4516],[-56.0174,-27.4054],[-56.0006,-27.3604],[-55.9661,-27.3317],[-55.8928,-27.3349],[-55.8542,-27.4012],[-55.7547,-27.4437],[-55.6817,-27.3794],[-55.5913,-27.3284],[-55.5687,-27.246],[-55.5983,-27.1675],[-55.5553,-27.1538],[-55.5338,-27.0994],[-55.4619,-27.098],[-55.4428,-27.0155],[-55.414,-26.9799],[-55.2806,-26.9343],[-55.2012,-26.9555],[-55.1384,-26.9537],[-55.1189,-26.92],[-55.1327,-26.8806],[-55.1258,-26.8636],[-55.0609,-26.8052],[-54.9753,-26.7878],[-54.9511,-26.7575],[-54.9199,-26.6741],[-54.8794,-26.6544],[-54.835,-26.6544],[-54.8173,-26.6658],[-54.7931,-26.645],[-54.7803,-26.5752],[-54.7898,-26.5285],[-54.6977,-26.4282],[-54.6637,-26.3084],[-54.665,-26.2389],[-54.6383,-26.197],[-54.6638,-26.1492],[-54.6425,-26.0628],[-54.6623,-25.9799],[-54.648,-25.9656],[-54.6152,-25.9617],[-54.6064,-25.9466],[-54.6152,-25.8829],[-54.5879,-25.8108],[-54.6172,-25.7735],[-54.6429,-25.6616],[-54.5834,-25.6448],[-54.6002,-25.5749],[-54.5456,-25.5748],[-54.5323,-25.6106],[-54.5114,-25.6062],[-54.473,-25.6258],[-54.4473,-25.6892],[-54.4331,-25.6766],[-54.4374,-25.645],[-54.4051,-25.6198],[-54.3954,-25.5811],[-54.3497,-25.5824],[-54.3217,-25.5551],[-54.2992,-25.5527],[-54.2556,-25.5987],[-54.2437,-25.5776],[-54.1903,-25.5808],[-54.2148,-25.5315],[-54.1651,-25.5344],[-54.1164,-25.4946],[-54.1072,-25.5006],[-54.1231,-25.5718],[-54.0989,-25.5972],[-54.0858,-25.5906],[-54.0827,-25.5501],[-54.0554,-25.5707],[-54.0302,-25.5622],[-53.9974,-25.575],[-53.9677,-25.6532],[-53.91,-25.6292],[-53.8981,-25.6395],[-53.8765,-25.6979],[-53.8835,-25.7356],[-53.8404,-25.7914],[-53.8334,-25.9622],[-53.765,-26.0281],[-53.7334,-26.1264],[-53.6667,-26.2192],[-53.6616,-26.2598],[-53.7244,-26.3761],[-53.7129,-26.5005],[-53.7375,-26.5253],[-53.7268,-26.5486],[-53.7424,-26.6005],[-53.7395,-26.6756],[-53.7743,-26.7143],[-53.7479,-26.7391],[-53.7529,-26.7732],[-53.734,-26.7774],[-53.7125,-26.9045],[-53.7685,-27.0241],[-53.8009,-27.0391],[-53.8049,-27.0944],[-53.8287,-27.1144],[-53.8188,-27.1315],[-53.83,-27.1568],[-53.842,-27.1635],[-53.8822,-27.1199],[-53.9095,-27.1683],[-53.9509,-27.1478],[-53.9641,-27.154],[-53.9618,-27.1914],[-54.0051,-27.1882],[-54.0918,-27.2852],[-54.1581,-27.2795],[-54.1559,-27.2577],[-54.177,-27.2434],[-54.2318,-27.3515],[-54.2316,-27.3805],[-54.2613,-27.3887],[-54.2869,-27.4284],[-54.3069,-27.4289],[-54.3477,-27.3943],[-54.3477,-27.4358],[-54.3716,-27.4544],[-54.3889,-27.4111],[-54.4446,-27.409],[-54.4646,-27.4233],[-54.4484,-27.4589],[-54.5433,-27.487],[-54.5705,-27.4557],[-54.5895,-27.4526],[-54.6259,-27.5153],[-54.6512,-27.5259],[-54.6665,-27.5038],[-54.6903,-27.5513],[-54.7739,-27.5638],[-54.7937,-27.5492],[-54.7922,-27.5232],[-54.805,-27.5264],[-54.8275,-27.5451],[-54.8451,-27.6119],[-54.8983,-27.6236],[-54.9132,-27.7369],[-54.9852,-27.7853],[-55.0643,-27.771],[-55.0812,-27.7783],[-55.0404,-27.8195],[-55.0296,-27.8507],[-55.0999,-27.8438],[-55.1192,-27.8809],[-55.1776,-27.8536],[-55.2602,-27.9192],[-55.3141,-27.915],[-55.3299,-27.9281],[-55.3379,-27.9631],[-55.3809,-27.9782],[-55.3834,-28.0142],[-55.4407,-28.0789],[-55.5059,-28.0789],[-55.5535,-28.1456],[-55.5771,-28.1443],[-55.5816,-28.1211],[-55.6047,-28.1169],[-55.623,-28.1443]]]}},{"type":"Feature","id":"Neuquen","properties":{"id":"Neuquen","iso_code":"AR-Q","name":"Neuquen","name_full":"Neuquén","name_ja":"ネウケン州","center_lonlat":[-70.1228,-38.6436]},"geometry":{"type":"Polygon","coordinates":[[[-70.4307,-36.1294],[-70.3609,-36.1927],[-70.3595,-36.2526],[-70.3829,-36.2899],[-70.3562,-36.366],[-70.3283,-36.3794],[-70.2878,-36.3587],[-70.2603,-36.3728],[-70.1974,-36.5331],[-70.163,-36.5816],[-70.0677,-36.6118],[-70.0138,-36.6705],[-69.956,-36.7058],[-69.9072,-36.7956],[-69.7901,-36.8632],[-69.788,-36.9602],[-69.8159,-36.9974],[-69.7034,-37.1122],[-69.6235,-37.1526],[-69.531,-37.1736],[-69.4787,-37.1764],[-69.3024,-37.1498],[-69.1547,-37.1827],[-69.0884,-37.2072],[-69.061,-37.236],[-69.0201,-37.3443],[-68.9851,-37.3638],[-68.8843,-37.3811],[-68.7567,-37.3717],[-68.6782,-37.4263],[-68.5068,-37.4474],[-68.4619,-37.5119],[-68.4275,-37.5378],[-68.2494,-37.557],[-68.2521,-38.6593],[-68.2473,-38.6817],[-68.1789,-38.7428],[-68.0495,-38.9037],[-68.0316,-38.9697],[-68.0104,-38.9755],[-68.1173,-38.9971],[-68.2159,-38.9829],[-68.2584,-38.9963],[-68.3209,-38.9618],[-68.4118,-39.0102],[-68.4767,-39.073],[-68.542,-39.0928],[-68.6046,-39.1296],[-68.6715,-39.2136],[-68.7472,-39.2492],[-68.7977,-39.2935],[-68.8352,-39.3743],[-68.8985,-39.4074],[-68.9622,-39.4887],[-69.0517,-39.5243],[-69.1212,-39.5294],[-69.2445,-39.5855],[-69.2819,-39.6147],[-69.364,-39.7172],[-69.5161,-39.8219],[-69.6804,-39.8231],[-69.9447,-39.9474],[-69.9665,-39.9731],[-69.9916,-40.0535],[-70.0109,-40.198],[-70.0768,-40.3209],[-70.0956,-40.4413],[-70.142,-40.4653],[-70.1802,-40.4656],[-70.2142,-40.5382],[-70.2389,-40.5498],[-70.3255,-40.5479],[-70.4448,-40.5669],[-70.5363,-40.5122],[-70.5761,-40.5235],[-70.6805,-40.5902],[-70.7177,-40.5973],[-70.8121,-40.585],[-70.8677,-40.614],[-70.9715,-40.6404],[-70.9997,-40.6634],[-71.0156,-40.702],[-71.0789,-40.7258],[-71.1302,-40.7795],[-71.1184,-40.8238],[-71.0625,-40.8522],[-71.0263,-40.9068],[-71.0428,-40.9464],[-71.148,-41.0512],[-71.2161,-41.0813],[-71.2973,-41.0951],[-71.3593,-41.0897],[-71.5537,-41.032],[-71.8674,-41.0102],[-71.8514,-40.9383],[-71.9107,-40.8501],[-71.9556,-40.7204],[-71.8531,-40.6164],[-71.8477,-40.5796],[-71.8618,-40.5497],[-71.7964,-40.4145],[-71.7293,-40.4214],[-71.674,-40.3241],[-71.6867,-40.2885],[-71.7055,-40.2819],[-71.7427,-40.2965],[-71.816,-40.2272],[-71.8238,-40.2101],[-71.8029,-40.1161],[-71.814,-40.0929],[-71.8007,-40.0797],[-71.7668,-40.0769],[-71.6837,-40.099],[-71.6709,-40.0608],[-71.6805,-40.0095],[-71.6166,-39.9099],[-71.6846,-39.8335],[-71.7144,-39.7263],[-71.694,-39.6735],[-71.7161,-39.6448],[-71.7144,-39.6014],[-71.6898,-39.5684],[-71.6178,-39.6166],[-71.52,-39.615],[-71.5035,-39.6017],[-71.4957,-39.5656],[-71.542,-39.5323],[-71.4617,-39.4338],[-71.4765,-39.383],[-71.4202,-39.3421],[-71.412,-39.318],[-71.402,-39.236],[-71.431,-39.026],[-71.4158,-38.9353],[-71.3999,-38.9105],[-71.2798,-38.8502],[-71.236,-38.8116],[-71.1528,-38.7988],[-71.0484,-38.7466],[-70.945,-38.7472],[-70.9095,-38.7064],[-70.8738,-38.6914],[-70.8834,-38.6431],[-70.8343,-38.5644],[-70.8487,-38.5276],[-70.9505,-38.4594],[-70.9738,-38.4247],[-71.0197,-38.2343],[-71.0087,-38.1676],[-71.0235,-38.1046],[-71.0074,-38.071],[-71.0876,-37.9402],[-71.0949,-37.8974],[-71.1333,-37.8385],[-71.185,-37.7061],[-71.1908,-37.64],[-71.1279,-37.5844],[-71.1417,-37.5439],[-71.1177,-37.4665],[-71.1947,-37.3435],[-71.2056,-37.2927],[-71.1465,-37.2148],[-71.1393,-37.1333],[-71.0891,-37.1034],[-71.1396,-37.0617],[-71.156,-37.0028],[-71.2071,-36.9724],[-71.1615,-36.9755],[-71.1357,-36.9515],[-71.1691,-36.9219],[-71.1588,-36.8827],[-71.1916,-36.8584],[-71.1952,-36.8391],[-71.1515,-36.7605],[-71.1453,-36.6882],[-71.1299,-36.6769],[-71.073,-36.6968],[-71.0574,-36.6876],[-71.0689,-36.5664],[-71.0433,-36.4843],[-70.971,-36.4855],[-70.935,-36.4726],[-70.9078,-36.4052],[-70.8904,-36.4004],[-70.8072,-36.4334],[-70.7186,-36.4146],[-70.7086,-36.3799],[-70.7322,-36.3343],[-70.7127,-36.3003],[-70.7105,-36.2658],[-70.6616,-36.2446],[-70.6044,-36.1946],[-70.5814,-36.1432],[-70.4711,-36.1625],[-70.4307,-36.1294]]]}},{"type":"Feature","id":"Rio Negro","properties":{"id":"Rio Negro","iso_code":"AR-R","name":"Rio Negro","name_full":"Río Negro","name_ja":"リオネグロ州","center_lonlat":[-67.2363,-40.4029]},"geometry":{"type":"Polygon","coordinates":[[[-71.7693,-41.9996],[-71.7807,-41.9864],[-71.7744,-41.9392],[-71.794,-41.8675],[-71.8569,-41.7861],[-71.869,-41.7155],[-71.9259,-41.653],[-71.926,-41.6229],[-71.8533,-41.5673],[-71.8881,-41.5128],[-71.8798,-41.4367],[-71.904,-41.3677],[-71.8734,-41.2492],[-71.8894,-41.1798],[-71.8713,-41.1667],[-71.854,-41.0789],[-71.8674,-41.0102],[-71.5537,-41.032],[-71.3593,-41.0897],[-71.2973,-41.0951],[-71.2161,-41.0813],[-71.148,-41.0512],[-71.0428,-40.9464],[-71.0263,-40.9068],[-71.0625,-40.8522],[-71.1184,-40.8238],[-71.1302,-40.7795],[-71.0789,-40.7258],[-71.0156,-40.702],[-70.9997,-40.6634],[-70.9715,-40.6404],[-70.8677,-40.614],[-70.8121,-40.585],[-70.7177,-40.5973],[-70.6805,-40.5902],[-70.5761,-40.5235],[-70.5363,-40.5122],[-70.4448,-40.5669],[-70.3255,-40.5479],[-70.2389,-40.5498],[-70.2142,-40.5382],[-70.1802,-40.4656],[-70.142,-40.4653],[-70.0956,-40.4413],[-70.0768,-40.3209],[-70.0109,-40.198],[-69.9916,-40.0535],[-69.9665,-39.9731],[-69.9447,-39.9474],[-69.6804,-39.8231],[-69.5161,-39.8219],[-69.364,-39.7172],[-69.2819,-39.6147],[-69.2445,-39.5855],[-69.1212,-39.5294],[-69.0517,-39.5243],[-68.9622,-39.4887],[-68.8985,-39.4074],[-68.8352,-39.3743],[-68.7977,-39.2935],[-68.7472,-39.2492],[-68.6715,-39.2136],[-68.6046,-39.1296],[-68.542,-39.0928],[-68.4767,-39.073],[-68.4118,-39.0102],[-68.3209,-38.9618],[-68.2584,-38.9963],[-68.2159,-38.9829],[-68.1173,-38.9971],[-68.0104,-38.9755],[-68.0316,-38.9697],[-68.0495,-38.9037],[-68.1789,-38.7428],[-68.2473,-38.6817],[-68.2521,-38.6593],[-68.2494,-37.557],[-67.8503,-37.6002],[-67.8073,-37.6181],[-67.7486,-37.6691],[-67.7118,-37.7348],[-67.7237,-37.8169],[-67.748,-37.8452],[-67.8483,-37.9078],[-67.8701,-37.9418],[-67.8717,-38.0072],[-67.8449,-38.0569],[-67.8108,-38.0705],[-67.7732,-38.0631],[-67.7057,-38.1006],[-67.6512,-38.1915],[-67.592,-38.2471],[-67.5541,-38.2617],[-67.4518,-38.247],[-67.376,-38.2555],[-67.3053,-38.2267],[-67.2207,-38.2132],[-67.1766,-38.2226],[-67.1358,-38.3381],[-67.0698,-38.409],[-66.6479,-38.5574],[-66.5935,-38.6073],[-66.562,-38.7016],[-66.3919,-38.7342],[-66.2152,-38.7166],[-65.9602,-38.7421],[-65.8131,-38.7763],[-65.7755,-38.7968],[-65.7187,-38.7997],[-65.6896,-38.8179],[-65.563,-38.7758],[-65.4235,-38.8115],[-65.3674,-38.8384],[-65.1142,-38.8036],[-64.9702,-38.8036],[-64.9435,-38.8186],[-64.8209,-38.8104],[-64.4715,-38.8537],[-64.1463,-38.9493],[-64.0573,-38.9936],[-64.0102,-38.9998],[-63.9082,-39.0922],[-63.7821,-39.1284],[-63.7112,-39.2002],[-63.5164,-39.306],[-63.3886,-39.3258],[-63.3874,-40.7091],[-63.1824,-40.729],[-63.103,-40.7539],[-62.8615,-40.9384],[-62.8016,-41.0417],[-62.8638,-41.0851],[-63.0995,-41.1549],[-63.317,-41.148],[-63.3841,-41.1611],[-63.7794,-41.1588],[-63.8667,-41.1337],[-63.9669,-41.0602],[-64.0629,-41.0413],[-64.0523,-41.0071],[-64.0621,-40.9994],[-64.1343,-41.017],[-64.1743,-41.009],[-64.4171,-40.9107],[-64.5521,-40.8829],[-64.6448,-40.8464],[-64.7349,-40.8303],[-64.9112,-40.8238],[-64.912,-40.8088],[-64.868,-40.7922],[-64.8499,-40.7951],[-64.8542,-40.8122],[-64.745,-40.7973],[-64.7536,-40.7765],[-64.8003,-40.7589],[-64.7716,-40.7365],[-64.7962,-40.7233],[-64.8905,-40.706],[-64.9818,-40.7233],[-64.9914,-40.7297],[-64.9225,-40.7297],[-64.9364,-40.7447],[-64.9088,-40.7701],[-65.0109,-40.7673],[-65.1219,-40.8337],[-65.1757,-40.9692],[-65.1468,-41.1806],[-65.1049,-41.3298],[-65.0612,-41.4484],[-65.0063,-41.4934],[-64.9914,-41.5241],[-65.0019,-41.5865],[-65.0372,-41.6651],[-64.9982,-41.7575],[-64.9999,-41.7934],[-65.0745,-41.9509],[-65.0546,-42.0107],[-65.1272,-42.0002],[-71.7693,-41.9996]]]}},{"type":"Feature","id":"Salta","properties":{"id":"Salta","iso_code":"AR-A","name":"Salta","name_full":"Salta","name_ja":"サルタ州","center_lonlat":[-66.8369,-24.2888]},"geometry":{"type":"Polygon","coordinates":[[[-67.2513,-23.7331],[-67.1447,-23.8159],[-67.0798,-23.8336],[-66.9996,-23.9125],[-66.9884,-23.9416],[-66.947,-23.9541],[-66.9319,-23.9877],[-66.8736,-24.0501],[-66.7685,-24.0984],[-66.6753,-24.1991],[-66.604,-24.2325],[-66.5045,-24.2371],[-66.471,-24.2208],[-66.4183,-24.1547],[-66.388,-24.141],[-66.352,-24.0414],[-66.3379,-23.7238],[-66.4029,-23.5569],[-66.4067,-23.5188],[-66.3776,-23.3907],[-66.3598,-23.3701],[-66.3421,-23.3687],[-66.2572,-23.3913],[-66.2111,-23.4194],[-66.1702,-23.4207],[-66.0282,-23.4998],[-65.9921,-23.5339],[-65.9883,-23.6635],[-65.9995,-23.6849],[-65.9868,-23.7192],[-66.0209,-23.7692],[-66.026,-23.8476],[-65.9929,-23.9028],[-66.0002,-23.9413],[-65.9594,-23.9932],[-65.9019,-23.9804],[-65.834,-24.0369],[-65.7591,-24.0768],[-65.7515,-24.1751],[-65.5871,-24.4026],[-65.5381,-24.4309],[-65.4787,-24.421],[-65.428,-24.4606],[-65.2769,-24.5018],[-65.1649,-24.4543],[-65.1495,-24.4826],[-65.0643,-24.5465],[-64.9223,-24.5995],[-64.9017,-24.5926],[-64.8282,-24.4555],[-64.618,-24.6139],[-64.572,-24.5419],[-64.503,-24.4807],[-64.4476,-24.4663],[-64.4168,-24.4293],[-64.3246,-24.4179],[-64.298,-24.4016],[-64.212,-24.2988],[-64.1588,-24.1836],[-64.1834,-23.526],[-64.1888,-23.5133],[-64.2214,-23.5066],[-64.3675,-23.5096],[-64.3987,-23.5477],[-64.4159,-23.6032],[-64.4383,-23.6196],[-64.5558,-23.5056],[-64.6335,-23.4783],[-64.6601,-23.4546],[-64.7485,-23.467],[-64.7957,-23.5024],[-64.869,-23.4963],[-64.8895,-23.4297],[-64.9525,-23.3084],[-65.0369,-23.2658],[-65.0419,-23.24],[-65.0072,-23.0746],[-65.013,-23.034],[-65.0572,-22.9918],[-65.182,-22.985],[-65.2272,-22.9506],[-65.2684,-22.8437],[-65.2856,-22.7318],[-65.2859,-22.6826],[-65.2652,-22.6382],[-65.3035,-22.5994],[-65.3455,-22.5882],[-65.3343,-22.5023],[-65.2397,-22.3197],[-65.2354,-22.2231],[-65.1905,-22.0985],[-65.0204,-22.0966],[-64.8325,-22.1375],[-64.7229,-22.1833],[-64.6578,-22.1784],[-64.5869,-22.2128],[-64.5428,-22.2755],[-64.572,-22.3432],[-64.5246,-22.3854],[-64.5313,-22.4257],[-64.5078,-22.444],[-64.4981,-22.4728],[-64.4283,-22.5423],[-64.4494,-22.5871],[-64.4537,-22.6429],[-64.4283,-22.659],[-64.4017,-22.7124],[-64.369,-22.7297],[-64.3557,-22.7519],[-64.36,-22.803],[-64.3477,-22.817],[-64.3439,-22.8637],[-64.3253,-22.8719],[-64.2946,-22.7629],[-64.294,-22.6909],[-64.2508,-22.5407],[-64.1605,-22.4385],[-64.0862,-22.2579],[-64.051,-22.2292],[-64.0044,-22.0993],[-63.9681,-22.0665],[-63.9509,-22.0108],[-63.9332,-22.0018],[-63.8131,-22.003],[-63.7404,-22.0506],[-63.6939,-22.012],[-63.6394,-21.9975],[-62.862,-21.9932],[-62.8044,-22.0041],[-62.7835,-22.1309],[-62.6793,-22.1948],[-62.659,-22.2317],[-62.6248,-22.2473],[-62.6253,-22.305],[-62.5647,-22.322],[-62.5234,-22.3649],[-62.4706,-22.3818],[-62.4381,-22.4197],[-62.3414,-22.4723],[-62.3392,-24.1206],[-62.3344,-24.4029],[-63.3986,-25.6594],[-63.9244,-25.6523],[-64.1918,-25.5799],[-64.425,-26.0276],[-64.4336,-26.0978],[-64.4863,-26.2202],[-64.697,-26.2249],[-64.7674,-26.2114],[-64.8492,-26.2321],[-64.9014,-26.2683],[-64.9457,-26.2741],[-65.0171,-26.241],[-65.0619,-26.2421],[-65.2528,-26.1724],[-65.3144,-26.076],[-65.4421,-26.1201],[-65.5767,-26.1014],[-65.6587,-26.0746],[-65.68,-26.087],[-65.6981,-26.272],[-65.719,-26.299],[-66.0538,-26.2535],[-66.0963,-26.2332],[-66.157,-26.1699],[-66.2248,-26.171],[-66.2624,-26.2219],[-66.3016,-26.2456],[-66.3623,-26.372],[-66.3857,-26.3876],[-66.4106,-26.3827],[-66.5333,-26.26],[-66.6194,-26.0969],[-66.8029,-25.8592],[-66.817,-25.7719],[-66.7993,-25.7179],[-66.7354,-25.674],[-66.5713,-25.6671],[-66.495,-25.6085],[-66.4692,-25.4798],[-66.5198,-25.4058],[-66.5375,-25.3053],[-66.5603,-25.2724],[-67.8069,-25.2832],[-68.4965,-25.16],[-68.474,-25.1454],[-68.3992,-25.1448],[-68.3666,-25.1234],[-68.3674,-25.1034],[-68.4435,-25.0211],[-68.4374,-24.9741],[-68.4691,-24.9368],[-68.4731,-24.9079],[-68.551,-24.8688],[-68.578,-24.8087],[-68.5724,-24.7699],[-68.4955,-24.6018],[-68.4818,-24.5988],[-68.4515,-24.6293],[-68.3977,-24.5005],[-68.3798,-24.4911],[-68.3268,-24.4982],[-68.2445,-24.3854],[-67.3624,-24.0304],[-67.3398,-24.0006],[-67.2513,-23.7331]]]}},{"type":"Feature","id":"San Juan","properties":{"id":"San Juan","iso_code":"AR-J","name":"San Juan","name_full":"San Juan","name_ja":"サンフアン州","center_lonlat":[-68.8789,-30.8277]},"geometry":{"type":"Polygon","coordinates":[[[-69.654,-28.401],[-69.543,-28.4375],[-69.473,-28.4264],[-69.4207,-28.4773],[-69.3363,-28.4848],[-69.1902,-28.594],[-69.1618,-28.6214],[-69.1338,-28.6801],[-69.103,-28.7777],[-69.0203,-28.847],[-68.9739,-28.9457],[-68.9134,-29.0021],[-68.9196,-29.0491],[-68.9737,-29.079],[-69.0041,-29.1503],[-69.0002,-29.2334],[-68.9672,-29.2633],[-68.9419,-29.3106],[-68.9752,-29.3429],[-68.9793,-29.453],[-69.0195,-29.5223],[-69.0261,-29.5728],[-69.0129,-29.6224],[-68.9777,-29.6362],[-68.897,-29.619],[-68.8231,-29.6331],[-68.7006,-29.6021],[-68.605,-29.6453],[-68.4967,-29.6447],[-68.3355,-29.6872],[-68.2888,-29.7391],[-68.1783,-29.8064],[-68.1511,-29.853],[-68.0766,-29.8827],[-68.0283,-29.9268],[-68.0109,-29.9658],[-67.9617,-29.9952],[-67.9137,-30.0507],[-67.8238,-30.0942],[-67.7734,-30.153],[-67.6345,-30.2479],[-67.5817,-30.3235],[-67.5613,-30.3855],[-67.4878,-30.4277],[-67.4441,-30.4912],[-67.3431,-30.5671],[-67.2561,-30.683],[-67.1923,-30.714],[-67.0817,-30.8974],[-67.1184,-31.0092],[-67.1147,-31.0385],[-67.06,-31.0818],[-67.1039,-31.3543],[-67.0512,-31.4593],[-67.0489,-31.5233],[-66.9448,-31.6157],[-66.8545,-31.6357],[-66.8367,-31.7475],[-66.7821,-31.7744],[-66.7305,-31.8766],[-66.9851,-31.8885],[-67.1072,-31.8519],[-67.2346,-31.8668],[-67.3444,-31.8468],[-67.367,-31.858],[-67.3885,-31.8919],[-67.3744,-31.9866],[-67.3959,-32.0636],[-67.393,-32.2622],[-67.4933,-32.2135],[-67.5136,-32.2249],[-67.5936,-32.2263],[-67.7391,-32.2529],[-67.8318,-32.2392],[-67.8749,-32.1941],[-67.9397,-32.1586],[-67.9488,-32.1256],[-67.9855,-32.0884],[-68.0207,-32.069],[-68.0558,-32.0684],[-68.1667,-32.093],[-68.2516,-32.1396],[-68.3937,-32.1501],[-68.4621,-32.209],[-68.6896,-32.3351],[-68.8862,-32.3366],[-68.9022,-32.3257],[-68.9222,-32.0762],[-69.0391,-32.0708],[-69.1229,-31.9779],[-69.175,-31.9557],[-69.2534,-31.9999],[-69.2918,-32.0539],[-69.4477,-32.0528],[-69.5095,-32.0881],[-69.6081,-32.1203],[-69.6298,-32.153],[-69.6294,-32.2277],[-69.6623,-32.258],[-69.7859,-32.265],[-69.9812,-32.3054],[-70.091,-32.2889],[-70.2561,-32.3143],[-70.3218,-32.2801],[-70.3455,-32.1747],[-70.3352,-32.14],[-70.3556,-32.1226],[-70.3612,-32.0858],[-70.3891,-32.0531],[-70.3733,-32.0304],[-70.2847,-32.0468],[-70.2417,-31.9615],[-70.2445,-31.9422],[-70.3133,-31.8821],[-70.4283,-31.8701],[-70.4752,-31.8201],[-70.4863,-31.7312],[-70.5272,-31.6843],[-70.5898,-31.5677],[-70.579,-31.432],[-70.5547,-31.3629],[-70.569,-31.3042],[-70.5468,-31.2645],[-70.5359,-31.1726],[-70.4798,-31.0967],[-70.4481,-31.0976],[-70.4356,-31.1414],[-70.4234,-31.1538],[-70.4086,-31.15],[-70.3809,-31.1216],[-70.3398,-31.0417],[-70.2666,-31.0365],[-70.3251,-30.9716],[-70.3392,-30.9382],[-70.3195,-30.8008],[-70.2762,-30.7256],[-70.276,-30.6731],[-70.2354,-30.5916],[-70.2171,-30.5151],[-70.197,-30.4868],[-70.1512,-30.4597],[-70.1439,-30.4396],[-70.1734,-30.3647],[-70.1469,-30.3539],[-70.0302,-30.3971],[-69.9646,-30.3748],[-69.9121,-30.3295],[-69.8907,-30.229],[-69.849,-30.1991],[-69.8358,-30.1619],[-69.8497,-30.1266],[-69.8807,-30.0998],[-69.9732,-30.0894],[-69.9804,-30.0725],[-69.928,-29.9768],[-69.9156,-29.8056],[-69.9291,-29.7183],[-69.9732,-29.6661],[-69.9685,-29.5833],[-70.0195,-29.4044],[-70.0426,-29.3631],[-70.0407,-29.2975],[-70.0311,-29.2772],[-69.9803,-29.25],[-69.9762,-29.2335],[-69.9895,-29.2144],[-69.922,-29.168],[-69.9109,-29.1432],[-69.8444,-29.1293],[-69.8039,-29.0987],[-69.8028,-28.9399],[-69.7328,-28.7943],[-69.7559,-28.7077],[-69.7534,-28.6734],[-69.7221,-28.6107],[-69.6784,-28.5739],[-69.6724,-28.4577],[-69.654,-28.401]]]}},{"type":"Feature","id":"San Luis","properties":{"id":"San Luis","iso_code":"AR-D","name":"San Luis","name_full":"San Luis","name_ja":"サンルイス州","center_lonlat":[-66.0296,-33.7571]},"geometry":{"type":"Polygon","coordinates":[[[-65.0866,-35.0018],[-65.0878,-35.9988],[-66.6172,-35.9999],[-66.6288,-35.9491],[-66.5556,-35.5707],[-66.5211,-35.4942],[-66.5051,-35.3426],[-66.5188,-35.2641],[-66.5051,-35.2272],[-66.5256,-35.1992],[-66.5051,-35.1242],[-66.5536,-34.9972],[-66.5461,-34.9249],[-66.572,-34.8529],[-66.6907,-34.658],[-66.738,-34.6154],[-66.7726,-34.5134],[-66.7789,-34.428],[-66.8126,-34.3846],[-66.8,-34.3632],[-66.8112,-34.3449],[-66.8214,-34.2293],[-66.8,-34.1919],[-66.7726,-34.1987],[-66.7592,-34.1845],[-66.7471,-34.0642],[-66.7789,-33.9933],[-66.8217,-33.9597],[-66.844,-33.8963],[-66.9296,-33.8379],[-67.0197,-33.6165],[-67.1519,-33.4291],[-67.1494,-33.3663],[-67.1773,-33.3012],[-67.1904,-33.2289],[-67.1842,-33.1498],[-67.204,-33.0274],[-67.1978,-32.9865],[-67.227,-32.9161],[-67.2061,-32.8935],[-67.2183,-32.8282],[-67.1921,-32.7611],[-67.2142,-32.7049],[-67.2584,-32.6536],[-67.3207,-32.431],[-67.3617,-32.3968],[-67.393,-32.2622],[-67.3959,-32.0636],[-67.3744,-31.9866],[-67.3885,-31.8919],[-67.367,-31.858],[-67.3444,-31.8468],[-67.2346,-31.8668],[-67.1072,-31.8519],[-66.9851,-31.8885],[-66.7305,-31.8766],[-66.5939,-31.915],[-66.5402,-31.9025],[-66.4993,-31.9204],[-66.433,-31.9149],[-66.3739,-31.9338],[-66.2172,-31.9254],[-66.0544,-31.8714],[-65.9692,-31.8786],[-65.9073,-31.9007],[-65.7596,-31.8855],[-65.6406,-31.8932],[-65.3105,-32.0611],[-65.2451,-32.1251],[-65.2379,-32.1867],[-65.204,-32.2502],[-65.2024,-32.3091],[-65.1897,-32.3276],[-65.0695,-32.3196],[-64.9517,-32.2909],[-64.9194,-32.3082],[-64.9225,-32.429],[-64.8742,-32.5494],[-64.8832,-32.6195],[-64.9154,-32.7123],[-64.9442,-32.7443],[-64.9736,-32.8796],[-65.0147,-32.9482],[-65.0076,-32.9946],[-65.0434,-33.0601],[-65.0325,-33.1113],[-65.0911,-33.1368],[-65.1317,-33.2055],[-65.0869,-33.9624],[-65.0866,-35.0018]]]}},{"type":"Feature","id":"Santa Cruz","properties":{"id":"Santa Cruz","iso_code":"AR-Z","name":"Santa Cruz","name_full":"Santa Cruz","name_ja":"サンタクルス州","center_lonlat":[-69.9334,-48.8]},"geometry":{"type":"Polygon","coordinates":[[[-71.6492,-45.9994],[-67.5817,-46.0],[-67.6212,-46.0995],[-67.6225,-46.1638],[-67.5409,-46.4013],[-67.4232,-46.5674],[-67.3365,-46.6252],[-67.2563,-46.6434],[-67.1936,-46.691],[-67.13,-46.7066],[-67.1154,-46.736],[-67.0821,-46.7571],[-67.0332,-46.8191],[-66.9998,-46.8249],[-66.7864,-47.0066],[-66.6288,-47.0512],[-66.5052,-47.0408],[-66.4407,-47.0613],[-66.3856,-47.0578],[-66.2005,-47.0896],[-65.9796,-47.0662],[-65.9193,-47.0939],[-65.8812,-47.0966],[-65.8474,-47.1397],[-65.7449,-47.2042],[-65.7554,-47.2235],[-65.713,-47.3415],[-65.7357,-47.5095],[-65.8456,-47.7422],[-65.8949,-47.7507],[-66.0321,-47.7395],[-66.0956,-47.7875],[-66.2739,-47.8595],[-66.3892,-47.8639],[-66.3011,-47.8725],[-66.1444,-47.8282],[-66.0226,-47.771],[-65.9018,-47.77],[-65.8846,-47.7838],[-65.8534,-47.8796],[-65.827,-47.8985],[-65.7617,-47.9119],[-65.7951,-47.9359],[-65.762,-47.9486],[-65.8367,-47.963],[-65.8471,-47.9444],[-65.8996,-47.9324],[-65.9274,-47.9414],[-65.952,-47.9807],[-65.93,-47.991],[-65.9369,-48.0158],[-65.9684,-48.0472],[-65.9375,-48.0717],[-65.9032,-48.0785],[-65.8977,-48.0945],[-65.9172,-48.1138],[-65.945,-48.1178],[-65.9717,-48.0994],[-66.1086,-48.1233],[-66.132,-48.1363],[-66.1595,-48.1853],[-66.2383,-48.2089],[-66.2648,-48.2428],[-66.3169,-48.2643],[-66.355,-48.3212],[-66.3411,-48.3527],[-66.4486,-48.3503],[-66.4696,-48.3649],[-66.4685,-48.4003],[-66.5011,-48.414],[-66.651,-48.4311],[-66.7498,-48.4753],[-66.8578,-48.5483],[-66.8664,-48.5898],[-66.9869,-48.6117],[-67.1143,-48.6737],[-67.1368,-48.6928],[-67.1458,-48.7424],[-67.1846,-48.7716],[-67.1983,-48.8184],[-67.4057,-48.9042],[-67.5565,-49.0158],[-67.5964,-49.1068],[-67.6326,-49.13],[-67.6352,-49.1555],[-67.6154,-49.1611],[-67.6099,-49.1781],[-67.6501,-49.196],[-67.6754,-49.2488],[-67.7323,-49.2747],[-67.7042,-49.3039],[-67.7119,-49.3156],[-67.7578,-49.3348],[-67.7458,-49.3557],[-67.7743,-49.3744],[-67.8309,-49.3796],[-67.8143,-49.3913],[-67.7252,-49.3907],[-67.6979,-49.372],[-67.6632,-49.2672],[-67.6368,-49.2472],[-67.6077,-49.2651],[-67.6114,-49.3232],[-67.6533,-49.3771],[-67.7001,-49.5343],[-67.732,-49.7813],[-67.7938,-49.9054],[-67.8332,-49.9545],[-67.8949,-49.9969],[-68.0764,-50.0873],[-68.1701,-50.114],[-68.2584,-50.1246],[-68.3419,-50.1176],[-68.422,-50.0512],[-68.4625,-49.9804],[-68.5209,-49.9405],[-68.5691,-49.8588],[-68.654,-49.7579],[-68.7397,-49.7277],[-68.6641,-49.7675],[-68.5958,-49.8583],[-68.5773,-49.9276],[-68.6744,-49.9684],[-68.8754,-49.9625],[-69.0135,-50.0077],[-68.915,-50.0113],[-68.8422,-49.9811],[-68.6708,-49.9947],[-68.5835,-49.9703],[-68.5189,-50.0157],[-68.5115,-50.0608],[-68.4938,-50.0801],[-68.3499,-50.1488],[-68.3621,-50.1693],[-68.4381,-50.2008],[-68.7366,-50.2914],[-68.7673,-50.2887],[-68.7947,-50.3175],[-68.8764,-50.3306],[-68.8809,-50.3528],[-68.9751,-50.4289],[-69.0765,-50.5602],[-69.0799,-50.6045],[-69.15,-50.7421],[-69.1326,-50.784],[-69.1273,-50.8467],[-69.1368,-50.9035],[-69.3478,-51.0187],[-69.3901,-51.0485],[-69.4107,-51.0839],[-69.2881,-51.0158],[-69.1678,-50.9782],[-69.1042,-51.2149],[-69.0869,-51.2353],[-69.0627,-51.3215],[-68.9637,-51.5007],[-68.9545,-51.5429],[-68.9626,-51.5602],[-68.9818,-51.5715],[-69.0476,-51.5632],[-69.1196,-51.6048],[-69.1719,-51.5994],[-69.2843,-51.5597],[-69.3772,-51.5569],[-69.4999,-51.5803],[-69.6168,-51.6252],[-69.3987,-51.5926],[-69.3046,-51.5935],[-69.157,-51.6349],[-69.1648,-51.6518],[-69.2189,-51.6804],[-69.199,-51.6866],[-69.0981,-51.6531],[-69.0289,-51.6142],[-68.9735,-51.62],[-68.9359,-51.6455],[-68.8732,-51.759],[-68.8267,-51.8037],[-68.6851,-52.005],[-68.3656,-52.3062],[-68.3548,-52.325],[-68.3625,-52.3391],[-68.4347,-52.3907],[-68.4545,-52.2999],[-68.6217,-52.2636],[-68.8205,-52.2432],[-69.0076,-52.1791],[-69.2123,-52.138],[-69.4853,-52.1325],[-69.9528,-52.0074],[-71.9177,-51.9901],[-71.9652,-51.9706],[-71.9485,-51.896],[-71.9817,-51.8449],[-72.1421,-51.7394],[-72.3007,-51.6915],[-72.3309,-51.5994],[-72.3515,-51.5835],[-72.4291,-51.576],[-72.4501,-51.5527],[-72.3512,-51.476],[-72.3517,-51.4404],[-72.3236,-51.3908],[-72.3205,-51.3126],[-72.2588,-51.2452],[-72.274,-51.2168],[-72.3822,-51.1606],[-72.4046,-51.1058],[-72.3386,-51.037],[-72.2934,-51.0292],[-72.2659,-50.9607],[-72.2635,-50.8363],[-72.3474,-50.7432],[-72.3028,-50.6489],[-72.3834,-50.6203],[-72.506,-50.6013],[-72.5491,-50.6151],[-72.6181,-50.6668],[-72.6626,-50.6678],[-72.7335,-50.6243],[-72.7784,-50.6196],[-72.9029,-50.6666],[-73.0517,-50.7578],[-73.1395,-50.7702],[-73.1777,-50.7495],[-73.1922,-50.6414],[-73.2576,-50.573],[-73.2742,-50.3645],[-73.3014,-50.2996],[-73.3463,-50.2437],[-73.5306,-50.1408],[-73.5415,-50.1137],[-73.5315,-50.0831],[-73.4786,-50.0095],[-73.5002,-49.9787],[-73.5727,-49.9324],[-73.5419,-49.8945],[-73.5345,-49.8476],[-73.463,-49.7871],[-73.4651,-49.76],[-73.1967,-49.6824],[-73.0597,-49.555],[-73.0574,-49.4759],[-73.0843,-49.4226],[-73.1187,-49.3924],[-73.0976,-49.2666],[-73.1626,-49.2582],[-73.1832,-49.2391],[-73.1713,-49.1893],[-73.1072,-49.1349],[-73.0786,-49.0587],[-73.0097,-48.9904],[-72.9222,-48.9523],[-72.7812,-48.9339],[-72.6188,-48.8197],[-72.5923,-48.7911],[-72.578,-48.7219],[-72.5842,-48.6159],[-72.6147,-48.51],[-72.5768,-48.4521],[-72.4331,-48.4004],[-72.3714,-48.3464],[-72.3154,-48.3503],[-72.2951,-48.3333],[-72.3256,-48.2855],[-72.3095,-48.2112],[-72.343,-48.0705],[-72.388,-48.0578],[-72.4192,-48.0096],[-72.5094,-47.973],[-72.5353,-47.9458],[-72.5439,-47.9148],[-72.5005,-47.8529],[-72.4573,-47.7491],[-72.3444,-47.6023],[-72.3209,-47.4984],[-72.3705,-47.4745],[-72.3612,-47.451],[-72.2882,-47.415],[-72.2092,-47.4203],[-72.1706,-47.4075],[-72.0382,-47.287],[-72.0294,-47.2697],[-72.0451,-47.2158],[-72.0303,-47.1975],[-71.9125,-47.2345],[-71.8807,-47.2219],[-71.8633,-47.1966],[-71.8626,-47.1689],[-71.8935,-47.1214],[-72.0052,-47.0619],[-72.0,-47.0422],[-71.9148,-46.9985],[-71.9704,-46.9485],[-71.9532,-46.8748],[-71.9362,-46.8543],[-71.9501,-46.814],[-71.9341,-46.7995],[-71.8341,-46.7886],[-71.776,-46.7381],[-71.6872,-46.6901],[-71.6802,-46.6596],[-71.6955,-46.5871],[-71.6805,-46.5381],[-71.7519,-46.393],[-71.7633,-46.2445],[-71.9147,-46.1523],[-71.9045,-46.1363],[-71.7702,-46.1126],[-71.7235,-46.0577],[-71.6492,-45.9994]]]}},{"type":"Feature","id":"Santa Fe","properties":{"id":"Santa Fe","iso_code":"AR-S","name":"Santa Fe","name_full":"Santa Fe","name_ja":"サンタフェ州","center_lonlat":[-60.9504,-30.6986]},"geometry":{"type":"Polygon","coordinates":[[[-58.8647,-27.9993],[-58.877,-28.0434],[-58.9203,-28.0948],[-58.9505,-28.1124],[-59.0599,-28.1294],[-59.0875,-28.1752],[-59.091,-28.3219],[-59.0662,-28.4014],[-59.0908,-28.5313],[-59.087,-28.6271],[-59.1429,-28.7458],[-59.1526,-28.8489],[-59.1944,-28.9214],[-59.1974,-29.0221],[-59.2134,-29.0485],[-59.3589,-29.1435],[-59.485,-29.1892],[-59.5477,-29.2596],[-59.5891,-29.4112],[-59.5911,-29.615],[-59.627,-29.7506],[-59.6728,-29.8471],[-59.6302,-29.9301],[-59.5953,-30.0492],[-59.6384,-30.1504],[-59.6693,-30.2939],[-59.6615,-30.3369],[-59.653,-30.3839],[-59.6148,-30.4627],[-59.6223,-30.5748],[-59.6606,-30.7361],[-59.7198,-30.831],[-59.841,-30.9773],[-60.0008,-31.2123],[-60.0634,-31.2695],[-60.094,-31.3537],[-60.1637,-31.4421],[-60.2547,-31.5053],[-60.3807,-31.6491],[-60.4737,-31.6973],[-60.6053,-31.6997],[-60.6478,-31.716],[-60.674,-31.8529],[-60.72,-31.9223],[-60.7176,-31.9719],[-60.6618,-32.0693],[-60.7069,-32.1562],[-60.7018,-32.2549],[-60.7312,-32.3545],[-60.7293,-32.4554],[-60.7657,-32.5411],[-60.767,-32.5783],[-60.7058,-32.6795],[-60.6985,-32.7699],[-60.6755,-32.8465],[-60.6224,-32.9406],[-60.5869,-32.9768],[-60.5521,-33.0611],[-60.4954,-33.1221],[-60.393,-33.1742],[-60.3475,-33.2241],[-60.2941,-33.2566],[-60.2756,-33.2776],[-60.2775,-33.3064],[-60.3405,-33.3464],[-60.3478,-33.4101],[-60.4101,-33.4596],[-60.4262,-33.537],[-60.4757,-33.6222],[-60.5668,-33.6403],[-60.6715,-33.5769],[-60.7738,-33.5735],[-60.8408,-33.5504],[-60.9105,-33.5637],[-60.9372,-33.6029],[-60.928,-33.6337],[-60.9631,-33.6772],[-61.7105,-34.3768],[-62.8538,-34.3821],[-61.9199,-33.1141],[-61.8917,-33.0833],[-61.8514,-33.0819],[-61.8165,-33.0615],[-61.7628,-32.9998],[-61.7586,-32.8963],[-61.7353,-32.8123],[-61.7803,-32.7648],[-61.833,-32.6769],[-61.8945,-32.6588],[-61.8661,-32.5862],[-61.8951,-32.5562],[-61.9141,-32.4629],[-62.0146,-32.3863],[-62.0782,-32.2441],[-62.1389,-32.2117],[-62.2186,-32.1385],[-62.2122,-32.033],[-62.1841,-31.9628],[-62.2156,-31.9076],[-62.2173,-31.7695],[-62.2359,-31.7198],[-62.1384,-31.6415],[-62.1216,-31.6086],[-61.8658,-30.7888],[-61.8571,-30.7315],[-62.1321,-30.441],[-62.0871,-30.1566],[-61.7099,-28.0004],[-58.8647,-27.9993]]]}},{"type":"Feature","id":"Santiago del Estero","properties":{"id":"Santiago del Estero","iso_code":"AR-G","name":"Santiago del Estero","name_full":"Santiago del Estero","name_ja":"サンティアゴ・デル・エステロ州","center_lonlat":[-63.2937,-27.7268]},"geometry":{"type":"Polygon","coordinates":[[[-63.3986,-25.6594],[-61.7539,-25.6614],[-61.7223,-25.7442],[-61.7105,-26.1466],[-61.7099,-28.0004],[-62.0871,-30.1566],[-62.2426,-29.8056],[-62.2882,-29.7767],[-63.3841,-29.7713],[-63.3963,-29.7285],[-63.4579,-29.7143],[-63.4627,-29.6552],[-63.5244,-29.6588],[-63.6107,-29.6372],[-63.7286,-29.6535],[-63.8077,-29.6498],[-63.8623,-29.6204],[-63.9258,-29.6095],[-63.9532,-29.5804],[-64.0276,-29.5452],[-64.0487,-29.5257],[-64.0491,-29.473],[-64.2537,-29.4243],[-64.8825,-29.5571],[-64.992,-29.385],[-65.0354,-29.2927],[-65.0793,-29.0001],[-65.0751,-28.9177],[-65.0926,-28.7213],[-65.1022,-28.6949],[-65.18,-28.6451],[-65.1793,-28.6041],[-65.1523,-28.5869],[-65.0783,-28.4815],[-65.0722,-28.4241],[-65.0791,-28.2746],[-65.1691,-27.9097],[-65.0726,-27.8897],[-65.0313,-27.7904],[-64.9992,-27.7781],[-65.0694,-27.6007],[-65.0583,-27.573],[-64.9943,-27.5571],[-64.9696,-27.5137],[-65.0636,-27.4724],[-64.9403,-27.3454],[-64.8798,-27.3092],[-64.8052,-27.1538],[-64.7756,-27.0459],[-64.7281,-26.9876],[-64.6744,-26.8048],[-64.6221,-26.7919],[-64.5815,-26.6765],[-64.5006,-26.6776],[-64.524,-26.4466],[-64.485,-26.3197],[-64.4863,-26.2202],[-64.4336,-26.0978],[-64.425,-26.0276],[-64.1918,-25.5799],[-63.9244,-25.6523],[-63.3986,-25.6594]]]}},{"type":"Feature","id":"Tierra del Fuego","properties":{"id":"Tierra del Fuego","iso_code":"AR-V","name":"Tierra del Fuego","name_full":"Tierra del Fuego","name_ja":"ティエラ・デル・フエゴ州","center_lonlat":[-67.499,-54.3161]},"geometry":{"type":"MultiPolygon","coordinates":[[[[-68.6419,-54.783],[-68.6276,-52.6396],[-68.5858,-52.6628],[-68.4281,-52.8346],[-68.3114,-52.912],[-68.266,-52.9806],[-68.2258,-53.1025],[-68.2305,-53.1186],[-68.2804,-53.0154],[-68.3048,-53.0067],[-68.3496,-53.0162],[-68.5207,-53.1206],[-68.5548,-53.1671],[-68.5636,-53.202],[-68.5508,-53.2385],[-68.4514,-53.2977],[-68.2961,-53.3202],[-68.1893,-53.3137],[-68.1114,-53.3438],[-68.0764,-53.3953],[-68.0825,-53.4298],[-68.0477,-53.5232],[-67.9836,-53.6013],[-67.7025,-53.7747],[-67.7088,-53.8046],[-67.6602,-53.8001],[-67.5582,-53.8362],[-67.5492,-53.8474],[-67.577,-53.8518],[-67.5878,-53.8693],[-67.5715,-53.908],[-67.1408,-54.1234],[-67.0273,-54.1559],[-66.9073,-54.2128],[-66.7666,-54.2498],[-66.7017,-54.2883],[-66.654,-54.3465],[-66.5282,-54.4296],[-66.4923,-54.4413],[-66.4822,-54.4658],[-66.3769,-54.4855],[-65.8442,-54.6474],[-65.6981,-54.6624],[-65.4569,-54.6406],[-65.3797,-54.6448],[-65.3093,-54.6266],[-65.1419,-54.6469],[-65.1937,-54.6902],[-65.2242,-54.7436],[-65.2098,-54.7647],[-65.2515,-54.7907],[-65.2434,-54.821],[-65.3061,-54.8522],[-65.3323,-54.9138],[-65.359,-54.9267],[-65.3929,-54.9255],[-65.4017,-54.8937],[-65.4627,-54.8845],[-65.4854,-54.8946],[-65.4774,-54.9142],[-65.4997,-54.933],[-65.6151,-54.9342],[-65.6348,-54.9621],[-65.6691,-54.9718],[-65.7102,-54.9484],[-65.7189,-54.9093],[-65.8109,-54.9156],[-65.8771,-54.8998],[-65.9017,-54.9113],[-65.9662,-54.9021],[-65.9876,-54.9107],[-65.9508,-54.9399],[-65.9934,-54.9724],[-66.1171,-54.9955],[-66.3171,-54.995],[-66.3716,-55.0055],[-66.3716,-55.0378],[-66.4507,-55.052],[-66.5405,-55.051],[-66.6301,-55.0311],[-66.8028,-54.9426],[-66.9455,-54.9286],[-67.031,-54.9052],[-67.932,-54.8625],[-68.0776,-54.8461],[-68.1236,-54.824],[-68.219,-54.8186],[-68.3021,-54.7922],[-68.3282,-54.8424],[-68.5203,-54.8522],[-68.5646,-54.8388],[-68.6419,-54.783]]],[[[-63.8884,-54.7299],[-63.8257,-54.7149],[-63.8121,-54.7299],[-63.8704,-54.7817],[-63.9783,-54.8161],[-63.9908,-54.8112],[-63.9629,-54.774],[-63.9796,-54.7574],[-64.0218,-54.782],[-64.0829,-54.7815],[-64.1069,-54.8044],[-64.2242,-54.8217],[-64.2445,-54.8371],[-64.2707,-54.8249],[-64.2516,-54.777],[-64.3111,-54.7776],[-64.4451,-54.8434],[-64.4979,-54.846],[-64.4843,-54.8249],[-64.5066,-54.8273],[-64.5253,-54.8386],[-64.5123,-54.846],[-64.5724,-54.8665],[-64.6244,-54.9037],[-64.6898,-54.9006],[-64.6951,-54.8917],[-64.6686,-54.8665],[-64.7587,-54.8323],[-64.7537,-54.8134],[-64.6831,-54.7702],[-64.6037,-54.7981],[-64.5226,-54.7817],[-64.5048,-54.7709],[-64.5699,-54.7221],[-64.5423,-54.7156],[-64.4979,-54.7504],[-64.4632,-54.7573],[-64.4071,-54.7438],[-64.3844,-54.7844],[-64.3707,-54.7776],[-64.3755,-54.7214],[-64.3639,-54.706],[-64.3237,-54.7223],[-64.2242,-54.7231],[-64.1872,-54.747],[-64.1691,-54.7372],[-64.1745,-54.7189],[-64.1588,-54.7156],[-64.1274,-54.7299],[-64.0933,-54.7156],[-64.066,-54.7504],[-63.9141,-54.7154],[-63.881,-54.7231],[-63.8884,-54.7299]]],[[[-68.6541,-54.8862],[-68.642,-54.7992],[-68.5718,-54.8627],[-68.5682,-54.8784],[-68.6541,-54.8862]]]]}},{"type":"Feature","id":"Tucuman","properties":{"id":"Tucuman","iso_code":"AR-T","name":"Tucuman","name_full":"Tucumán","name_ja":"トゥクマン州","center_lonlat":[-65.3662,-26.9511]},"geometry":{"type":"Polygon","coordinates":[[[-64.4863,-26.2202],[-64.485,-26.3197],[-64.524,-26.4466],[-64.5006,-26.6776],[-64.5815,-26.6765],[-64.6221,-26.7919],[-64.6744,-26.8048],[-64.7281,-26.9876],[-64.7756,-27.0459],[-64.8052,-27.1538],[-64.8798,-27.3092],[-64.9403,-27.3454],[-65.0636,-27.4724],[-64.9696,-27.5137],[-64.9943,-27.5571],[-65.0583,-27.573],[-65.0694,-27.6007],[-64.9992,-27.7781],[-65.0313,-27.7904],[-65.0726,-27.8897],[-65.1691,-27.9097],[-65.2276,-27.9235],[-65.349,-27.8633],[-65.497,-27.9612],[-65.558,-28.0544],[-65.5707,-28.0502],[-65.6646,-27.9452],[-65.703,-27.8179],[-65.7583,-27.7884],[-65.8211,-27.8057],[-65.8508,-27.7802],[-65.8779,-27.6972],[-65.9293,-27.6543],[-65.9868,-27.43],[-65.9819,-27.3938],[-66.1946,-27.3194],[-66.148,-27.2377],[-66.0676,-27.1618],[-66.0382,-27.1038],[-65.9108,-26.9806],[-65.8683,-26.9008],[-65.867,-26.8188],[-65.851,-26.7528],[-65.858,-26.7137],[-66.0309,-26.5919],[-66.1206,-26.5681],[-66.1566,-26.5246],[-66.1063,-26.3785],[-66.1002,-26.3215],[-66.0538,-26.2535],[-65.719,-26.299],[-65.6981,-26.272],[-65.68,-26.087],[-65.6587,-26.0746],[-65.5767,-26.1014],[-65.4421,-26.1201],[-65.3144,-26.076],[-65.2528,-26.1724],[-65.0619,-26.2421],[-65.0171,-26.241],[-64.9457,-26.2741],[-64.9014,-26.2683],[-64.8492,-26.2321],[-64.7674,-26.2114],[-64.697,-26.2249],[-64.4863,-26.2202]]]}}]}
