{"type":"FeatureCollection","features":[{"type":"Feature","id":"Aragatsotn","properties":{"id":"Aragatsotn","iso_code":"AM-AG","name":"Aragatsotn","name_full":"Aragatsotn","name_ja":"アラガツォトゥン地方","center_lonlat":[44.1378,40.4224]},"geometry":{"type":"Polygon","coordinates":[[[43.6903,40.2404],[43.5942,40.3454],[43.6245,40.4111],[43.6459,40.4106],[43.6852,40.4356],[43.7124,40.4699],[43.8007,40.4997],[43.9006,40.4704],[43.9421,40.4713],[43.9633,40.4885],[44.0047,40.4868],[44.048,40.4478],[44.1788,40.4972],[44.1996,40.5116],[44.1784,40.5278],[44.1919,40.5834],[44.1301,40.5824],[44.0794,40.6441],[44.1326,40.691],[44.1658,40.7405],[44.1905,40.742],[44.2376,40.7164],[44.2875,40.7411],[44.3218,40.7382],[44.3995,40.71],[44.4184,40.6818],[44.4286,40.6134],[44.4929,40.5772],[44.5533,40.5642],[44.4968,40.4163],[44.5046,40.3801],[44.4434,40.3159],[44.4083,40.2967],[44.437,40.2654],[44.4116,40.2424],[44.426,40.2008],[44.4184,40.1893],[44.3598,40.1991],[44.2746,40.2406],[44.2111,40.2248],[44.1746,40.2427],[44.1626,40.2382],[44.1694,40.2009],[44.1579,40.1919],[44.0178,40.1858],[43.9621,40.2197],[43.8379,40.2632],[43.8155,40.2846],[43.781,40.2616],[43.7477,40.271],[43.6903,40.2404]]]}},{"type":"Feature","id":"Ararat","properties":{"id":"Ararat","iso_code":"AM-AR","name":"Ararat","name_full":"Ararat","name_ja":"アララト地方","center_lonlat":[44.7872,39.9452]},"geometry":{"type":"Polygon","coordinates":[[[45.075,39.7498],[45.0335,39.7704],[44.9272,39.7247],[44.7746,39.7028],[44.692,39.793],[44.6477,39.8051],[44.6115,39.8373],[44.5982,39.831],[44.5911,39.8578],[44.5222,39.9335],[44.3809,40.0098],[44.3523,40.0875],[44.3924,40.1279],[44.4405,40.1534],[44.4662,40.1458],[44.4743,40.0996],[44.5242,40.0868],[44.5589,40.0541],[44.6037,40.0706],[44.6476,40.1156],[44.6926,40.0833],[44.7832,40.1003],[44.962,40.1623],[45.0298,40.1633],[45.0148,40.0794],[45.0632,39.9875],[45.0832,39.9763],[45.1095,39.8658],[45.0787,39.8085],[45.075,39.7498]]]}},{"type":"Feature","id":"Armavir","properties":{"id":"Armavir","iso_code":"AM-AV","name":"Armavir","name_full":"Armavir","name_ja":"アルマヴィル地方","center_lonlat":[44.0349,40.1349]},"geometry":{"type":"Polygon","coordinates":[[[43.6903,40.2404],[43.7477,40.271],[43.781,40.2616],[43.8155,40.2846],[43.8379,40.2632],[43.9621,40.2197],[44.0178,40.1858],[44.1579,40.1919],[44.1694,40.2009],[44.1626,40.2382],[44.1746,40.2427],[44.2111,40.2248],[44.2746,40.2406],[44.3598,40.1991],[44.4184,40.1893],[44.4405,40.1534],[44.3924,40.1279],[44.3523,40.0875],[44.3809,40.0098],[44.3256,40.0347],[44.2553,40.0434],[44.1355,40.0223],[44.1045,40.036],[44.0324,40.0086],[43.9121,40.0243],[43.8028,40.0707],[43.7112,40.0907],[43.6654,40.1102],[43.6525,40.139],[43.7214,40.1694],[43.6731,40.2277],[43.6903,40.2404]]]}},{"type":"Feature","id":"Gegharkunik","properties":{"id":"Gegharkunik","iso_code":"AM-GR","name":"Gegharkunik","name_full":"Gegharkunik","name_ja":"ゲガルクニク地方","center_lonlat":[45.3351,40.2916]},"geometry":{"type":"MultiPolygon","coordinates":[[[[45.3736,40.6513],[45.3878,40.6095],[45.4446,40.5664],[45.4554,40.5236],[45.4854,40.5053],[45.5262,40.441],[45.5854,40.3987],[45.8184,40.2978],[45.8617,40.2613],[45.9392,40.2603],[45.9811,40.2178],[45.9508,40.1172],[45.9095,40.0827],[45.894,40.0291],[45.8738,40.0098],[45.8039,40.0045],[45.6396,40.0254],[45.5763,39.9939],[45.5776,39.984],[45.546,39.9987],[45.5119,39.969],[45.4598,39.9506],[45.2531,39.939],[45.1095,39.8658],[45.0832,39.9763],[45.0632,39.9875],[45.0148,40.0794],[45.0298,40.1633],[44.943,40.2484],[44.9575,40.2925],[44.9074,40.4319],[44.8662,40.4578],[44.8665,40.5067],[44.8428,40.5308],[44.8084,40.5316],[44.7991,40.5439],[44.7882,40.5974],[44.7966,40.6501],[44.9154,40.6692],[44.9817,40.6395],[45.0388,40.6441],[45.0688,40.658],[45.0928,40.6955],[45.1813,40.7338],[45.2512,40.7238],[45.3736,40.6513]]],[[[45.5202,40.6604],[45.5607,40.6476],[45.5472,40.6216],[45.5137,40.602],[45.4793,40.6098],[45.4713,40.6299],[45.4793,40.6502],[45.5202,40.6604]]]]}},{"type":"Feature","id":"Kotayk","properties":{"id":"Kotayk","iso_code":"AM-KT","name":"Kotayk","name_full":"Kotayk","name_ja":"コタイク地方","center_lonlat":[44.6932,40.3801]},"geometry":{"type":"Polygon","coordinates":[[[44.7725,40.6652],[44.7966,40.6501],[44.7882,40.5974],[44.7991,40.5439],[44.8084,40.5316],[44.8428,40.5308],[44.8665,40.5067],[44.8662,40.4578],[44.9074,40.4319],[44.9575,40.2925],[44.943,40.2484],[45.0298,40.1633],[44.962,40.1623],[44.7832,40.1003],[44.6926,40.0833],[44.6476,40.1156],[44.6333,40.1342],[44.5835,40.1387],[44.5885,40.1643],[44.6181,40.1951],[44.5798,40.2272],[44.426,40.2008],[44.4116,40.2424],[44.437,40.2654],[44.4083,40.2967],[44.4434,40.3159],[44.5046,40.3801],[44.4968,40.4163],[44.5533,40.5642],[44.4929,40.5772],[44.4286,40.6134],[44.4184,40.6818],[44.5267,40.6997],[44.5527,40.6879],[44.5941,40.6947],[44.685,40.6649],[44.7725,40.6652]]]}},{"type":"Feature","id":"Lori","properties":{"id":"Lori","iso_code":"AM-LO","name":"Lori","name_full":"Lori","name_ja":"ロリ地方","center_lonlat":[44.4597,40.9649]},"geometry":{"type":"Polygon","coordinates":[[[44.8538,41.2235],[44.9221,41.1963],[44.9212,41.1804],[44.8839,41.1598],[44.8797,41.1391],[44.8886,41.1083],[44.9252,41.0908],[44.9387,41.0695],[44.8713,41.0251],[44.8111,41.0315],[44.7724,40.9996],[44.7752,40.9835],[44.8096,40.9583],[44.8793,40.9425],[44.9077,40.9142],[44.8689,40.8815],[44.8325,40.8092],[44.752,40.7775],[44.7734,40.7234],[44.7725,40.6652],[44.685,40.6649],[44.5941,40.6947],[44.5527,40.6879],[44.5267,40.6997],[44.4184,40.6818],[44.3995,40.71],[44.3218,40.7382],[44.2875,40.7411],[44.2376,40.7164],[44.1905,40.742],[44.1658,40.7405],[44.1092,40.7438],[44.0924,40.7679],[44.0423,40.779],[44.0182,40.8166],[44.0376,40.88],[44.0944,40.8798],[44.1276,40.9531],[44.0649,40.9643],[44.0578,40.9732],[44.0773,40.9919],[44.0753,41.0067],[44.0136,41.0594],[43.9696,41.0784],[43.9778,41.1645],[44.0413,41.1826],[44.1247,41.1781],[44.1601,41.1979],[44.1803,41.2299],[44.285,41.1909],[44.3449,41.2132],[44.4549,41.1805],[44.5166,41.2068],[44.531,41.1815],[44.5515,41.177],[44.6129,41.2231],[44.6749,41.2085],[44.8215,41.2062],[44.8478,41.2089],[44.8538,41.2235]]]}},{"type":"Feature","id":"Shirak","properties":{"id":"Shirak","iso_code":"AM-SH","name":"Shirak","name_full":"Shirak","name_ja":"シラク地方","center_lonlat":[43.8515,40.8027]},"geometry":{"type":"Polygon","coordinates":[[[43.9778,41.1645],[43.9696,41.0784],[44.0136,41.0594],[44.0753,41.0067],[44.0773,40.9919],[44.0578,40.9732],[44.0649,40.9643],[44.1276,40.9531],[44.0944,40.8798],[44.0376,40.88],[44.0182,40.8166],[44.0423,40.779],[44.0924,40.7679],[44.1092,40.7438],[44.1658,40.7405],[44.1326,40.691],[44.0794,40.6441],[44.1301,40.5824],[44.1919,40.5834],[44.1784,40.5278],[44.1996,40.5116],[44.1788,40.4972],[44.048,40.4478],[44.0047,40.4868],[43.9633,40.4885],[43.9421,40.4713],[43.9006,40.4704],[43.8007,40.4997],[43.7124,40.4699],[43.6852,40.4356],[43.6459,40.4106],[43.6245,40.4111],[43.5595,40.4779],[43.5937,40.509],[43.639,40.5226],[43.6315,40.5369],[43.6525,40.5294],[43.6648,40.5741],[43.7072,40.6119],[43.6995,40.6346],[43.7294,40.6771],[43.7206,40.7629],[43.6595,40.852],[43.6362,40.9335],[43.5654,40.9881],[43.4605,41.0229],[43.4363,41.0832],[43.4404,41.1066],[43.5666,41.1241],[43.7542,41.1082],[43.8632,41.159],[43.9778,41.1645]]]}},{"type":"Feature","id":"Syunik","properties":{"id":"Syunik","iso_code":"AM-SU","name":"Syunik","name_full":"Syunik","name_ja":"シュニク地方","center_lonlat":[46.1401,39.3469]},"geometry":{"type":"Polygon","coordinates":[[[45.8091,39.8512],[45.8619,39.8045],[45.9792,39.7685],[46.0066,39.7479],[46.0451,39.6876],[46.1317,39.6522],[46.1842,39.5932],[46.2065,39.5879],[46.3095,39.6205],[46.3437,39.6186],[46.3964,39.5767],[46.4793,39.5787],[46.5243,39.5546],[46.5183,39.5254],[46.492,39.5102],[46.4914,39.4664],[46.4057,39.4512],[46.374,39.436],[46.3609,39.4103],[46.3746,39.3788],[46.4953,39.324],[46.5177,39.2788],[46.6026,39.2155],[46.5141,39.1844],[46.4183,39.2119],[46.3953,39.1952],[46.3963,39.1644],[46.4793,39.1148],[46.4919,39.0819],[46.4946,39.0255],[46.4751,38.9511],[46.514,38.8822],[46.3782,38.9247],[46.2913,38.9139],[46.2025,38.8705],[46.1359,38.8637],[46.0776,38.9505],[46.0255,39.0638],[45.9581,39.1515],[45.9551,39.2032],[45.986,39.2347],[45.9858,39.2494],[45.8237,39.3431],[45.767,39.3544],[45.765,39.3895],[45.8031,39.4482],[45.7971,39.5363],[45.7655,39.5616],[45.7091,39.5684],[45.7012,39.5896],[45.732,39.6916],[45.7149,39.7451],[45.7765,39.8294],[45.8091,39.8512]]]}},{"type":"Feature","id":"Tavush","properties":{"id":"Tavush","iso_code":"AM-TV","name":"Tavush","name_full":"Tavush","name_ja":"タヴシュ地方","center_lonlat":[45.1178,40.9017]},"geometry":{"type":"Polygon","coordinates":[[[45.3736,40.6513],[45.2512,40.7238],[45.1813,40.7338],[45.0928,40.6955],[45.0688,40.658],[45.0388,40.6441],[44.9817,40.6395],[44.9154,40.6692],[44.7966,40.6501],[44.7725,40.6652],[44.7734,40.7234],[44.752,40.7775],[44.8325,40.8092],[44.8689,40.8815],[44.9077,40.9142],[44.8793,40.9425],[44.8096,40.9583],[44.7752,40.9835],[44.7724,40.9996],[44.8111,41.0315],[44.8713,41.0251],[44.9387,41.0695],[44.9252,41.0908],[44.8886,41.1083],[44.8797,41.1391],[44.8839,41.1598],[44.9212,41.1804],[44.9221,41.1963],[44.8538,41.2235],[44.8013,41.2585],[44.8207,41.2733],[44.9552,41.2627],[45.0024,41.2905],[45.0394,41.2312],[45.0349,41.1977],[45.1344,41.1879],[45.1998,41.1427],[45.201,41.1267],[45.1667,41.1078],[45.0678,41.1109],[45.0572,41.0788],[45.07,41.0621],[45.111,41.0495],[45.12,41.0796],[45.2216,41.0144],[45.3126,40.9966],[45.4191,41.0173],[45.4164,40.9613],[45.4793,40.9299],[45.5379,40.8759],[45.5992,40.8627],[45.5822,40.7994],[45.5559,40.7766],[45.3988,40.7089],[45.3736,40.6753],[45.3736,40.6513]],[[45.0157,41.0232],[45.03,41.0463],[45.0189,41.0749],[44.964,41.0738],[44.9669,41.0448],[45.0157,41.0232]],[[45.2099,40.968],[45.2205,40.9791],[45.1918,40.9978],[45.1772,40.9938],[45.1868,40.9708],[45.2099,40.968]]]}},{"type":"Feature","id":"Vayots Dzor","properties":{"id":"Vayots Dzor","iso_code":"AM-VD","name":"Vayots Dzor","name_full":"Vayots Dzor","name_ja":"ヴァヨツ・ゾル地方","center_lonlat":[45.4402,39.7512]},"geometry":{"type":"Polygon","coordinates":[[[45.5776,39.984],[45.5794,39.9702],[45.6111,39.9592],[45.7428,39.9405],[45.8091,39.8512],[45.7765,39.8294],[45.7149,39.7451],[45.732,39.6916],[45.7012,39.5896],[45.7091,39.5684],[45.5864,39.5454],[45.4348,39.4889],[45.3749,39.5259],[45.313,39.5338],[45.26,39.5997],[45.2048,39.5723],[45.1679,39.5655],[45.1483,39.5753],[45.1515,39.6677],[45.075,39.7498],[45.0787,39.8085],[45.1095,39.8658],[45.2531,39.939],[45.4598,39.9506],[45.5119,39.969],[45.546,39.9987],[45.5776,39.984]]]}},{"type":"Feature","id":"Yerevan","properties":{"id":"Yerevan","iso_code":"AM-ER","name":"Yerevan","name_full":"Yerevan","name_ja":"エレバン","center_lonlat":[44.5372,40.1476]},"geometry":{"type":"Polygon","coordinates":[[[44.6476,40.1156],[44.6037,40.0706],[44.5589,40.0541],[44.5242,40.0868],[44.4743,40.0996],[44.4662,40.1458],[44.4405,40.1534],[44.4184,40.1893],[44.426,40.2008],[44.5798,40.2272],[44.6181,40.1951],[44.5885,40.1643],[44.5835,40.1387],[44.6333,40.1342],[44.6476,40.1156]]]}}]}
