{"type":"FeatureCollection","features":[{"type":"Feature","id":"Capital","properties":{"id":"Capital","iso_code":"BH-13","name":"Capital","name_full":"Capital","name_ja":"首都県","center_lonlat":[50.5574,26.2174]},"geometry":{"type":"Polygon","coordinates":[[[50.5039,26.242],[50.5454,26.2277],[50.5933,26.2386],[50.6035,26.1977],[50.5516,26.1942],[50.5351,26.2135],[50.502,26.2161],[50.5039,26.242]]]}},{"type":"Feature","id":"Central","properties":{"id":"Central","iso_code":"BH-16","name":"Central","name_full":"Central","name_ja":"中部県","center_lonlat":[50.577,26.1489]},"geometry":{"type":"Polygon","coordinates":[[[50.5516,26.1942],[50.5947,26.1603],[50.6199,26.1855],[50.6328,26.1468],[50.6457,26.1457],[50.6349,26.1157],[50.6148,26.1112],[50.6163,26.0959],[50.5813,26.1223],[50.5245,26.1289],[50.51,26.1778],[50.5516,26.1942]]]}},{"type":"Feature","id":"Muharraq","properties":{"id":"Muharraq","iso_code":"BH-15","name":"Muharraq","name_full":"Muharraq","name_ja":"ムハッラク県","center_lonlat":[50.6408,26.2514]},"geometry":{"type":"Polygon","coordinates":[[[50.6016,26.2789],[50.6328,26.2874],[50.6553,26.2767],[50.6564,26.2466],[50.6843,26.222],[50.6736,26.2026],[50.6575,26.2112],[50.6478,26.2391],[50.6124,26.2413],[50.6016,26.2789]]]}},{"type":"Feature","id":"Northern","properties":{"id":"Northern","iso_code":"BH-17","name":"Northern","name_full":"Northern","name_ja":"北部県","center_lonlat":[50.4961,26.1479]},"geometry":{"type":"MultiPolygon","coordinates":[[[[50.4909,26.048],[50.4496,26.178],[50.4685,26.2369],[50.5039,26.242],[50.502,26.2161],[50.5351,26.2135],[50.5516,26.1942],[50.51,26.1778],[50.5245,26.1289],[50.539,26.0562],[50.4909,26.048]]],[[[50.3977,26.1747],[50.4192,26.1661],[50.4235,26.12],[50.3859,26.1232],[50.3827,26.1597],[50.3977,26.1747]]]]}},{"type":"Feature","id":"Southern","properties":{"id":"Southern","iso_code":"BH-14","name":"Southern","name_full":"Southern","name_ja":"南部県","center_lonlat":[50.5555,25.9783]},"geometry":{"type":"MultiPolygon","coordinates":[[[[50.6163,26.0959],[50.6184,25.9647],[50.6035,25.8546],[50.5653,25.7895],[50.5314,25.8852],[50.4678,25.9576],[50.4605,25.9853],[50.4909,26.048],[50.539,26.0562],[50.5245,26.1289],[50.5813,26.1223],[50.6163,26.0959]]],[[[50.7743,25.7216],[50.8009,25.7311],[50.7832,25.697],[50.7958,25.6849],[50.7623,25.6679],[50.7762,25.6387],[50.7566,25.5799],[50.7376,25.5957],[50.749,25.621],[50.7414,25.6742],[50.7743,25.7216]]],[[[50.7933,25.652],[50.8167,25.6444],[50.8116,25.6318],[50.7908,25.6305],[50.7933,25.652]]]]}}]}
