{"type":"FeatureCollection","features":[{"type":"Feature","id":"Barisal","properties":{"id":"Barisal","iso_code":"BD-A","name":"Barisal","name_full":"Barisal","name_ja":"バリサル管区","center_lonlat":[90.2256,22.4627]},"geometry":{"type":"MultiPolygon","coordinates":[[[[90.4501,23.0493],[90.5104,22.9182],[90.54,22.8966],[90.52,22.8802],[90.4763,22.8841],[90.436,22.8006],[90.408,22.7947],[90.424,22.7817],[90.4199,22.7683],[90.4064,22.7631],[90.3943,22.7748],[90.3726,22.7614],[90.4352,22.7333],[90.4446,22.7517],[90.4617,22.7488],[90.4899,22.7202],[90.5127,22.6115],[90.5002,22.5924],[90.4592,22.5793],[90.4421,22.4936],[90.4627,22.521],[90.4725,22.5756],[90.5051,22.5862],[90.5597,22.5623],[90.6066,22.4658],[90.5862,22.4732],[90.6184,22.3767],[90.6135,22.3149],[90.558,22.2034],[90.5011,22.1767],[90.4596,22.0919],[90.4386,22.076],[90.3875,22.1026],[90.4216,22.1989],[90.408,22.2404],[90.4109,22.2842],[90.3943,22.2882],[90.3909,22.2088],[90.4105,22.1957],[90.4129,22.178],[90.3926,22.143],[90.3801,22.1436],[90.3699,22.0898],[90.3086,21.984],[90.2829,21.8708],[90.2038,21.8046],[90.1644,21.8043],[90.0929,21.8303],[90.0954,21.8594],[90.1125,21.8563],[90.105,21.8703],[90.1262,21.9012],[90.1262,21.932],[90.0985,21.8786],[90.0669,21.8534],[90.0244,21.8625],[90.0449,21.9661],[90.0772,21.988],[90.1056,22.0543],[90.1641,22.1132],[90.1951,22.1095],[90.2162,22.1232],[90.2391,22.1723],[90.2361,22.1989],[90.2058,22.133],[90.1483,22.1108],[90.0889,22.0512],[90.0524,21.989],[89.9963,22.0002],[90.0108,22.0412],[90.0354,22.0598],[90.0427,22.1313],[90.0784,22.164],[90.0526,22.1555],[90.0244,22.089],[89.9828,22.0446],[89.9828,21.9866],[89.9678,21.9746],[89.9344,21.9977],[89.9146,22.0617],[89.9009,22.202],[89.8753,22.264],[89.9002,22.3339],[90.0101,22.4902],[89.9795,22.4701],[89.946,22.5168],[89.9599,22.5556],[89.9557,22.5929],[89.9017,22.6638],[89.9264,22.6688],[89.9298,22.6856],[89.8847,22.7007],[89.9283,22.739],[89.9113,22.7689],[89.9323,22.7875],[89.9288,22.81],[89.9621,22.8274],[89.9288,22.8702],[89.9953,22.8862],[90.0631,22.9748],[90.1266,23.0289],[90.1435,23.0628],[90.2118,23.0663],[90.2291,23.0089],[90.2745,22.9736],[90.2991,22.9815],[90.3265,23.0207],[90.3176,23.0435],[90.2924,23.0429],[90.3126,23.0658],[90.3598,23.0645],[90.4222,23.025],[90.4501,23.0493]]],[[[90.7906,22.4953],[90.855,22.4347],[90.835,22.3396],[90.8362,22.1782],[90.7747,22.0759],[90.7573,22.0617],[90.75,22.076],[90.6917,22.007],[90.6475,21.994],[90.6394,22.0161],[90.6818,22.1026],[90.626,22.0272],[90.61,22.0241],[90.6035,22.044],[90.6333,22.1231],[90.6222,22.1451],[90.6318,22.1821],[90.6785,22.2828],[90.688,22.3776],[90.6818,22.4453],[90.6475,22.5483],[90.5588,22.6029],[90.5563,22.6747],[90.5855,22.7681],[90.6506,22.7874],[90.6841,22.6944],[90.747,22.5969],[90.7669,22.5175],[90.7906,22.4953]]],[[[90.6453,22.8493],[90.6782,22.8083],[90.591,22.8139],[90.5316,22.7692],[90.5346,22.7288],[90.521,22.7118],[90.4928,22.7532],[90.4557,22.7674],[90.4734,22.8651],[90.5923,22.8819],[90.6453,22.8493]]],[[[90.6673,22.953],[90.6333,22.953],[90.6673,22.9182],[90.6362,22.9213],[90.5991,22.9592],[90.5241,22.953],[90.5081,22.9758],[90.528,23.0076],[90.5613,23.0326],[90.5862,23.0349],[90.6673,22.953]]],[[[90.5444,22.0617],[90.5383,22.0685],[90.4837,22.035],[90.5031,22.0963],[90.6135,22.164],[90.5935,22.1026],[90.5862,22.1306],[90.5597,22.0237],[90.5383,22.0002],[90.509,21.9994],[90.5036,22.0241],[90.5444,22.0617]]],[[[90.4352,22.0412],[90.4862,21.9768],[90.4763,21.945],[90.4155,21.9005],[90.4024,21.9069],[90.3943,21.9388],[90.4119,21.976],[90.4155,22.0383],[90.4352,22.0412]]],[[[90.5935,21.9866],[90.6066,21.9388],[90.5908,21.9351],[90.5808,21.9125],[90.5656,21.9177],[90.5408,21.8759],[90.5036,21.8625],[90.5315,21.8767],[90.5104,21.8979],[90.522,21.9388],[90.5935,21.9866]]],[[[90.3322,21.9388],[90.3714,21.9948],[90.3943,22.0002],[90.3416,21.8603],[90.3229,21.8439],[90.3186,21.8928],[90.3322,21.9388]]],[[[90.9529,22.2268],[90.9372,22.2327],[90.9764,22.3633],[90.9944,22.3021],[90.9529,22.2268]]],[[[90.9417,22.205],[90.9512,22.2125],[90.9567,22.1989],[90.9567,22.1448],[90.949,22.1216],[90.9294,22.1169],[90.9203,22.1601],[90.9356,22.2125],[90.9417,22.205]]],[[[90.6196,22.4247],[90.6014,22.4292],[90.6016,22.4483],[90.6331,22.4316],[90.6587,22.3795],[90.6611,22.3559],[90.6475,22.3838],[90.6404,22.366],[90.6401,22.3087],[90.6196,22.4247]]],[[[90.5104,23.069],[90.5156,23.0519],[90.4695,23.0076],[90.4557,23.0628],[90.5104,23.069]]],[[[90.9764,22.1858],[90.9829,22.2592],[90.9969,22.2535],[90.9978,22.2351],[90.9764,22.1858]]],[[[90.3875,22.048],[90.3396,21.9723],[90.3587,22.0227],[90.3875,22.048]]],[[[90.6475,22.4247],[90.6535,22.4835],[90.6673,22.439],[90.6475,22.4247]]]]}},{"type":"Feature","id":"Chattogram","properties":{"id":"Chattogram","iso_code":"BD-B","name":"Chattogram","name_full":"Chattogram","name_ja":"チッタゴン管区","center_lonlat":[91.7451,22.7306]},"geometry":{"type":"MultiPolygon","coordinates":[[[[90.7023,23.5548],[90.7434,23.5905],[90.7404,23.6104],[90.7699,23.6229],[90.7345,23.6594],[90.7518,23.688],[90.7215,23.7219],[90.7599,23.802],[90.76,23.8536],[90.7852,23.8712],[90.8499,23.8802],[90.8911,23.8595],[90.9142,23.8747],[90.9729,23.965],[90.9824,24.0323],[91.0297,24.0721],[91.0372,24.0931],[91.0177,24.1038],[91.0249,24.1181],[91.0041,24.1659],[91.0331,24.1761],[91.066,24.218],[91.0941,24.2068],[91.0948,24.2365],[91.1534,24.2564],[91.2607,24.2129],[91.3005,24.2419],[91.3321,24.2412],[91.2808,24.1988],[91.317,24.1795],[91.2819,24.1692],[91.2733,24.1544],[91.2936,24.0573],[91.3129,24.0247],[91.3084,23.9925],[91.2609,23.9773],[91.2163,23.9084],[91.2128,23.8807],[91.2282,23.845],[91.195,23.7552],[91.1418,23.7399],[91.1323,23.7206],[91.1366,23.6989],[91.1689,23.6854],[91.1752,23.6703],[91.1665,23.6541],[91.1397,23.6536],[91.1408,23.6121],[91.1951,23.4952],[91.2273,23.4688],[91.2581,23.3736],[91.2873,23.3556],[91.2658,23.3294],[91.3135,23.101],[91.3374,23.0711],[91.3709,23.0628],[91.3557,23.2241],[91.3721,23.2619],[91.3943,23.2627],[91.4365,23.2149],[91.4399,23.2235],[91.4636,23.1841],[91.5236,22.9952],[91.5768,22.9688],[91.5861,22.9445],[91.6167,22.9781],[91.707,22.9954],[91.756,23.0615],[91.7762,23.0653],[91.7956,23.0895],[91.7437,23.2723],[91.7626,23.3215],[91.8177,23.4009],[91.9051,23.4466],[91.9408,23.4952],[91.916,23.6502],[91.9227,23.723],[91.9366,23.7235],[92.019,23.6401],[92.0596,23.6595],[92.1084,23.7182],[92.1508,23.7317],[92.1943,23.6481],[92.2221,23.7078],[92.2387,23.7168],[92.2593,23.7065],[92.2528,23.6093],[92.3015,23.4318],[92.3486,23.3541],[92.3575,23.2789],[92.3327,23.2263],[92.3276,23.1714],[92.3599,22.9266],[92.3787,22.9004],[92.4263,22.8711],[92.442,22.7629],[92.4959,22.6956],[92.5008,22.5605],[92.577,22.1687],[92.5756,22.1433],[92.5373,22.1286],[92.593,21.8869],[92.5756,21.734],[92.5927,21.4702],[92.6429,21.2984],[92.6143,21.2631],[92.5706,21.2473],[92.5245,21.3611],[92.4003,21.371],[92.3812,21.3848],[92.3547,21.4518],[92.3227,21.4619],[92.2845,21.4191],[92.2363,21.4171],[92.2251,21.3975],[92.1783,21.2997],[92.1852,21.2404],[92.175,21.1756],[92.2243,21.0932],[92.2651,21.0611],[92.2615,20.9403],[92.3333,20.7677],[92.3255,20.7387],[92.301,20.7623],[92.2097,20.9308],[92.1863,21.0058],[92.1341,21.0475],[92.0525,21.1548],[92.0453,21.2995],[91.953,21.4418],[91.9497,21.4584],[91.9634,21.4521],[91.9829,21.4888],[91.999,21.4995],[92.0179,21.4931],[91.9954,21.5226],[91.99,21.562],[92.0221,21.5994],[92.0179,21.616],[92.0358,21.6404],[92.0359,21.6682],[92.0228,21.6768],[92.0293,21.7049],[92.0254,21.7128],[92.0007,21.6498],[91.9839,21.6501],[91.9839,21.7054],[91.9627,21.6895],[91.9497,21.716],[91.953,21.7383],[91.99,21.76],[91.9603,21.7638],[91.99,21.7948],[91.9087,21.7812],[91.8993,21.7895],[91.9114,21.8347],[91.9294,21.8432],[91.9255,21.8629],[91.9497,21.8842],[91.9157,21.8625],[91.8982,21.9449],[91.8809,21.9692],[91.8552,22.1092],[91.8535,22.1436],[91.8672,22.1374],[91.8533,22.1487],[91.8399,22.1169],[91.813,22.1803],[91.8169,22.2203],[91.8399,22.2466],[91.8384,22.2631],[91.812,22.2814],[91.8088,22.3063],[91.874,22.336],[91.9081,22.4247],[91.8877,22.4247],[91.8775,22.3633],[91.7914,22.3019],[91.794,22.286],[91.8263,22.2678],[91.8259,22.2485],[91.7871,22.2379],[91.7717,22.2603],[91.7437,22.4111],[91.676,22.5346],[91.5481,22.7003],[91.5164,22.7122],[91.4768,22.7612],[91.4624,22.7619],[91.4583,22.7971],[91.4905,22.9045],[91.4624,22.8334],[91.4168,22.8],[91.4147,22.7537],[91.3464,22.7748],[91.3674,22.7617],[91.3601,22.7434],[91.2908,22.7384],[91.3328,22.7202],[91.3174,22.6972],[91.2448,22.6984],[91.2434,22.7202],[91.1819,22.7265],[91.1992,22.6988],[91.169,22.6849],[91.2534,22.6607],[91.2645,22.6408],[91.2416,22.5754],[91.2027,22.5432],[91.1273,22.527],[91.0892,22.5444],[91.0183,22.6831],[91.0038,22.6787],[91.0322,22.6369],[91.0379,22.5886],[90.9851,22.5744],[90.9549,22.5758],[90.9082,22.6179],[90.8765,22.6828],[90.8359,22.6849],[90.8195,22.7265],[90.7949,22.7414],[90.771,22.7848],[90.7175,22.9406],[90.6401,23.038],[90.6271,23.0759],[90.6401,23.1889],[90.6673,23.2676],[90.6509,23.3002],[90.6611,23.3223],[90.6284,23.3215],[90.6113,23.3425],[90.6003,23.4499],[90.6087,23.4727],[90.6333,23.4868],[90.6916,23.4865],[90.715,23.4984],[90.7158,23.5351],[90.7023,23.5548]]],[[[91.1488,22.3571],[91.1714,22.3196],[91.1868,22.2278],[91.1415,22.1462],[91.0633,22.0898],[91.0225,22.0949],[91.0051,22.1168],[91.0591,22.192],[91.0748,22.3886],[91.0923,22.3913],[91.1488,22.3571]]],[[[91.9356,21.76],[91.9387,21.7148],[91.9839,21.6092],[91.9702,21.5236],[91.9611,21.5062],[91.8945,21.5068],[91.8997,21.486],[91.8771,21.481],[91.8552,21.5195],[91.874,21.5819],[91.8479,21.6888],[91.8535,21.7258],[91.8723,21.7548],[91.898,21.7433],[91.8877,21.685],[91.9095,21.7268],[91.9012,21.7743],[91.9356,21.7812],[91.9356,21.76]]],[[[91.4676,22.5863],[91.5564,22.4782],[91.5552,22.402],[91.5075,22.3968],[91.4761,22.4133],[91.4465,22.4532],[91.4238,22.5253],[91.4468,22.5763],[91.4676,22.5863]]],[[[91.8877,21.8662],[91.8325,21.7258],[91.824,21.7426],[91.8399,21.8255],[91.8325,21.8767],[91.8672,21.932],[91.8877,21.8662]]],[[[91.1586,22.5034],[91.2,22.5147],[91.2108,22.4955],[91.201,22.4722],[91.1595,22.4507],[91.1137,22.4614],[91.1236,22.4891],[91.1586,22.5034]]]]}},{"type":"Feature","id":"Dhaka","properties":{"id":"Dhaka","iso_code":"BD-C","name":"Dhaka","name_full":"Dhaka","name_ja":"ダッカ管区","center_lonlat":[90.2878,24.18]},"geometry":{"type":"MultiPolygon","coordinates":[[[[89.7992,25.4029],[89.7985,25.3401],[89.819,25.285],[89.9081,25.2969],[90.1301,25.2116],[90.2869,25.1801],[90.3646,25.15],[90.6234,25.1714],[90.7077,25.153],[90.754,25.1676],[90.822,25.1423],[90.9348,25.1564],[90.9462,25.0564],[90.9124,24.9789],[90.9777,24.8806],[91.0066,24.8688],[91.1253,24.8801],[91.1453,24.8145],[91.1483,24.6996],[91.2025,24.6986],[91.2229,24.6742],[91.2072,24.6253],[91.1842,24.6072],[91.2314,24.5631],[91.1876,24.4836],[91.226,24.4654],[91.2303,24.4296],[91.2137,24.4187],[91.2488,24.3792],[91.2257,24.357],[91.2392,24.337],[91.1836,24.3092],[91.1534,24.2564],[91.0948,24.2365],[91.0941,24.2068],[91.066,24.218],[91.0331,24.1761],[91.0041,24.1659],[91.0249,24.1181],[91.0177,24.1038],[91.0372,24.0931],[91.0297,24.0721],[90.9824,24.0323],[90.9729,23.965],[90.9142,23.8747],[90.8911,23.8595],[90.8499,23.8802],[90.7852,23.8712],[90.76,23.8536],[90.7599,23.802],[90.7215,23.7219],[90.7518,23.688],[90.7345,23.6594],[90.7699,23.6229],[90.7404,23.6104],[90.7434,23.5905],[90.7023,23.5548],[90.6755,23.5509],[90.7022,23.5284],[90.6953,23.5079],[90.6668,23.5182],[90.6078,23.4911],[90.5881,23.5342],[90.5921,23.5625],[90.6333,23.5966],[90.6271,23.6035],[90.5588,23.5904],[90.5645,23.5764],[90.5472,23.5638],[90.5147,23.5638],[90.4763,23.583],[90.4984,23.5573],[90.5768,23.5395],[90.5789,23.4499],[90.5519,23.385],[90.3224,23.4333],[90.2503,23.4669],[90.2588,23.4446],[90.3885,23.3724],[90.4285,23.3261],[90.5691,23.295],[90.6066,23.2472],[90.6145,23.1955],[90.5935,23.2199],[90.5991,23.1175],[90.572,23.0817],[90.5537,23.0786],[90.5588,23.1107],[90.5228,23.0801],[90.4536,23.0723],[90.4501,23.0493],[90.4222,23.025],[90.3598,23.0645],[90.3126,23.0658],[90.2924,23.0429],[90.3176,23.0435],[90.3265,23.0207],[90.2991,22.9815],[90.2745,22.9736],[90.2291,23.0089],[90.2118,23.0663],[90.1435,23.0628],[90.1266,23.0289],[90.0631,22.9748],[89.9953,22.8862],[89.9288,22.8702],[89.8328,22.932],[89.8186,22.9667],[89.7571,23.0282],[89.723,23.0896],[89.6852,23.1101],[89.6814,23.138],[89.7112,23.1191],[89.7563,23.1706],[89.7366,23.1852],[89.695,23.1715],[89.6803,23.1893],[89.6812,23.2271],[89.6278,23.2404],[89.6677,23.2889],[89.6379,23.2883],[89.5978,23.3531],[89.5989,23.3851],[89.6268,23.3708],[89.5989,23.4732],[89.5484,23.5058],[89.5191,23.5085],[89.5032,23.4869],[89.497,23.5142],[89.526,23.5375],[89.4213,23.6745],[89.3527,23.6718],[89.3115,23.7202],[89.3604,23.853],[89.3449,23.9207],[89.4902,23.8528],[89.5302,23.8196],[89.5559,23.8149],[89.6198,23.8438],[89.6981,23.8542],[89.6849,23.9273],[89.7022,23.98],[89.8001,24.0559],[89.817,24.0835],[89.8301,24.1861],[89.8083,24.1994],[89.807,24.2266],[89.7557,24.2745],[89.7493,24.3609],[89.7657,24.5619],[89.7892,24.6099],[89.796,24.7195],[89.7764,24.7579],[89.7011,24.8082],[89.6791,24.8525],[89.6533,24.9689],[89.6815,25.1595],[89.7399,25.2481],[89.7368,25.3278],[89.7623,25.3839],[89.7992,25.4029]]],[[[90.5241,23.3223],[90.4871,23.319],[90.4373,23.3618],[90.4297,23.3852],[90.5394,23.35],[90.5776,23.3236],[90.5862,23.3017],[90.5296,23.3336],[90.5241,23.3223]]]]}},{"type":"Feature","id":"Khulna","properties":{"id":"Khulna","iso_code":"BD-D","name":"Khulna","name_full":"Khulna","name_ja":"クルナ県","center_lonlat":[89.2861,22.9172]},"geometry":{"type":"MultiPolygon","coordinates":[[[[88.7315,24.1898],[88.7583,24.1475],[88.8248,24.1192],[88.9076,24.1511],[88.931,24.1716],[88.96,24.1671],[89.0368,24.0954],[89.07,24.0381],[89.0683,23.9965],[89.1164,23.9559],[89.1867,23.929],[89.2697,23.9369],[89.3449,23.9207],[89.3604,23.853],[89.3115,23.7202],[89.3527,23.6718],[89.4213,23.6745],[89.526,23.5375],[89.497,23.5142],[89.5032,23.4869],[89.5191,23.5085],[89.5484,23.5058],[89.5989,23.4732],[89.6268,23.3708],[89.5989,23.3851],[89.5978,23.3531],[89.6379,23.2883],[89.6677,23.2889],[89.6278,23.2404],[89.6812,23.2271],[89.6803,23.1893],[89.695,23.1715],[89.7366,23.1852],[89.7563,23.1706],[89.7112,23.1191],[89.6814,23.138],[89.6852,23.1101],[89.723,23.0896],[89.7571,23.0282],[89.8186,22.9667],[89.8328,22.932],[89.9288,22.8702],[89.9621,22.8274],[89.9288,22.81],[89.9323,22.7875],[89.9113,22.7689],[89.9283,22.739],[89.8847,22.7007],[89.9298,22.6856],[89.9264,22.6688],[89.9017,22.6638],[89.9557,22.5929],[89.9599,22.5556],[89.946,22.5168],[89.9795,22.4701],[89.9336,22.4235],[89.9204,22.3918],[89.8729,22.4186],[89.8804,22.3422],[89.8387,22.2678],[89.8613,22.211],[89.8713,22.0919],[89.8462,22.0706],[89.7972,22.076],[89.8479,22.0339],[89.8462,21.9723],[89.8872,21.9001],[89.8804,21.8842],[89.8509,21.8775],[89.7864,21.8289],[89.7659,21.8467],[89.7092,21.8301],[89.6613,21.8494],[89.6526,21.8789],[89.6633,21.8963],[89.647,21.9251],[89.619,21.8699],[89.6497,21.8264],[89.7007,21.7849],[89.6682,21.7509],[89.6315,21.7641],[89.5955,21.76],[89.606,21.7191],[89.5869,21.7008],[89.5657,21.7134],[89.5371,21.7538],[89.5274,21.8128],[89.5303,21.8358],[89.5645,21.8842],[89.5713,22.0312],[89.606,22.1132],[89.5672,22.2028],[89.606,22.2569],[89.6265,22.336],[89.5808,22.2772],[89.5862,22.2454],[89.5492,22.2053],[89.5794,22.1132],[89.5514,21.994],[89.5329,21.9847],[89.5234,22.0446],[89.5371,22.089],[89.492,22.1884],[89.493,22.2735],[89.4758,22.2951],[89.4675,22.229],[89.4758,22.1026],[89.4942,22.1369],[89.5183,22.081],[89.5091,22.0412],[89.4904,22.024],[89.5218,21.9623],[89.5125,21.9091],[89.4646,21.8592],[89.4658,21.7813],[89.4064,21.7174],[89.3696,21.7433],[89.3659,21.8289],[89.387,21.9012],[89.3522,21.9723],[89.356,21.8925],[89.3013,21.8094],[89.2839,21.8221],[89.2947,21.7578],[89.2737,21.6988],[89.2975,21.6781],[89.2487,21.6459],[89.2105,21.6541],[89.2044,21.6727],[89.2207,21.7094],[89.1877,21.8115],[89.1546,21.7869],[89.1047,21.8159],[89.0778,21.9143],[89.0915,22.0002],[89.0574,22.0651],[89.0762,22.175],[89.0091,22.2856],[89.0235,22.2948],[89.0015,22.3337],[88.9895,22.3967],[89.0025,22.428],[88.971,22.5279],[88.928,22.5481],[88.9503,22.562],[88.9564,22.585],[88.9081,22.7408],[88.9369,22.7823],[88.9445,22.848],[88.8935,22.8796],[88.8388,22.9758],[88.8513,23.0751],[88.9547,23.1838],[88.96,23.2027],[88.8227,23.238],[88.7757,23.2216],[88.6966,23.2524],[88.6859,23.2933],[88.7193,23.3483],[88.7702,23.4888],[88.7568,23.4988],[88.7194,23.4681],[88.6092,23.5888],[88.5714,23.5923],[88.5617,23.602],[88.5664,23.6287],[88.5416,23.6388],[88.5612,23.741],[88.5527,23.775],[88.5775,23.8185],[88.5776,23.8552],[88.5936,23.8669],[88.6531,23.8698],[88.7142,23.9252],[88.7016,23.9953],[88.725,24.0384],[88.7009,24.0436],[88.6741,24.0826],[88.6781,24.1543],[88.6938,24.1753],[88.7315,24.1898]]],[[[89.1157,21.7812],[89.139,21.7668],[89.1447,21.7393],[89.1325,21.7216],[89.1023,21.7368],[89.0515,21.7932],[89.0638,21.8415],[89.0457,21.9171],[89.0676,21.9044],[89.0928,21.7934],[89.1157,21.7812]]]]}},{"type":"Feature","id":"Rajshahi","properties":{"id":"Rajshahi","iso_code":"BD-E","name":"Rajshahi","name_full":"Rajshahi","name_ja":"ラジシャヒ県","center_lonlat":[89.0529,24.6136]},"geometry":{"type":"Polygon","coordinates":[[[88.7315,24.1898],[88.7498,24.2233],[88.7375,24.2871],[88.6818,24.3339],[88.6601,24.3383],[88.6345,24.2941],[88.4754,24.3155],[88.4013,24.3694],[88.1099,24.501],[88.086,24.5367],[88.0818,24.5999],[88.0572,24.6341],[88.0218,24.6456],[88.0272,24.6757],[88.0485,24.7112],[88.0532,24.755],[88.077,24.7612],[88.0882,24.7961],[88.1078,24.8011],[88.141,24.8446],[88.1149,24.9164],[88.2024,24.9453],[88.2328,24.9183],[88.2428,24.8806],[88.3228,24.8747],[88.3757,24.9456],[88.4258,25.0511],[88.4413,25.1897],[88.4754,25.1951],[88.5594,25.1708],[88.5991,25.1931],[88.6343,25.1923],[88.7842,25.1609],[88.8171,25.1968],[88.9242,25.1679],[88.9096,25.1892],[88.9279,25.1927],[88.9291,25.2294],[88.9824,25.2749],[88.9753,25.3026],[89.2235,25.2903],[89.2267,25.2522],[89.2521,25.2013],[89.2839,25.1727],[89.3506,25.2076],[89.5064,25.1663],[89.6815,25.1595],[89.6533,24.9689],[89.6791,24.8525],[89.7011,24.8082],[89.7764,24.7579],[89.796,24.7195],[89.7892,24.6099],[89.7657,24.5619],[89.7493,24.3609],[89.7557,24.2745],[89.807,24.2266],[89.8083,24.1994],[89.8301,24.1861],[89.817,24.0835],[89.8001,24.0559],[89.7022,23.98],[89.6849,23.9273],[89.6981,23.8542],[89.6198,23.8438],[89.5559,23.8149],[89.5302,23.8196],[89.4902,23.8528],[89.3449,23.9207],[89.2697,23.9369],[89.1867,23.929],[89.1164,23.9559],[89.0683,23.9965],[89.07,24.0381],[89.0368,24.0954],[88.96,24.1671],[88.931,24.1716],[88.9076,24.1511],[88.8248,24.1192],[88.7583,24.1475],[88.7315,24.1898]]]}},{"type":"Feature","id":"Rangpur","properties":{"id":"Rangpur","iso_code":"BD-F","name":"Rangpur","name_full":"Rangpur","name_ja":"ロンプール県","center_lonlat":[89.015,25.7973]},"geometry":{"type":"Polygon","coordinates":[[[89.7992,25.4029],[89.7623,25.3839],[89.7368,25.3278],[89.7399,25.2481],[89.6815,25.1595],[89.5064,25.1663],[89.3506,25.2076],[89.2839,25.1727],[89.2521,25.2013],[89.2267,25.2522],[89.2235,25.2903],[88.9753,25.3026],[88.9029,25.3034],[88.8802,25.3235],[88.842,25.3328],[88.7996,25.3956],[88.8149,25.4586],[88.7723,25.502],[88.742,25.5128],[88.7426,25.4952],[88.7062,25.4917],[88.6663,25.4629],[88.5936,25.4951],[88.5303,25.5002],[88.4754,25.5626],[88.4238,25.5922],[88.4194,25.6538],[88.3203,25.7253],[88.2599,25.789],[88.2275,25.8043],[88.1277,25.7749],[88.0876,25.831],[88.0744,25.9081],[88.1259,26.0134],[88.151,26.0313],[88.1564,26.0614],[88.1399,26.0853],[88.1638,26.1405],[88.2189,26.1802],[88.3263,26.2159],[88.3366,26.2818],[88.4317,26.3622],[88.4976,26.3527],[88.4611,26.4539],[88.3536,26.4846],[88.3356,26.4482],[88.3151,26.4651],[88.3528,26.5787],[88.3853,26.6235],[88.3979,26.5587],[88.411,26.5451],[88.4624,26.5288],[88.5268,26.4754],[88.5912,26.4612],[88.6115,26.4308],[88.6563,26.4151],[88.6522,26.3915],[88.7122,26.3283],[88.703,26.3097],[88.6458,26.276],[88.6634,26.2644],[88.7479,26.2925],[88.784,26.2799],[88.808,26.2334],[88.8248,26.2266],[88.8758,26.2774],[88.9027,26.2729],[88.9468,26.2329],[88.9753,26.2243],[89.0195,26.2345],[89.0397,26.2472],[89.0343,26.2658],[89.0044,26.2757],[89.008,26.2972],[88.9817,26.2918],[88.966,26.3285],[88.9124,26.3489],[88.8912,26.3858],[88.912,26.4212],[88.941,26.4394],[89.0109,26.3902],[89.0437,26.3811],[89.0552,26.347],[89.1029,26.3273],[89.0948,26.3095],[89.0689,26.3143],[89.0694,26.2874],[89.1034,26.2252],[89.1192,26.1466],[89.2126,26.099],[89.2376,26.0581],[89.3353,25.9986],[89.3914,26.0155],[89.4113,25.9932],[89.4856,25.9987],[89.5182,25.9621],[89.5417,25.9597],[89.5592,26.0222],[89.6114,26.0722],[89.6039,26.0847],[89.567,26.0871],[89.5669,26.099],[89.6042,26.1207],[89.5628,26.1426],[89.5868,26.1692],[89.6144,26.1642],[89.6133,26.2194],[89.653,26.2227],[89.6558,26.1613],[89.7185,26.1455],[89.7498,26.0839],[89.7558,26.0324],[89.7894,25.988],[89.8141,25.9961],[89.8287,25.9794],[89.8256,25.9657],[89.792,25.9491],[89.8344,25.9318],[89.7831,25.8144],[89.8344,25.6348],[89.8232,25.4891],[89.7992,25.4029]]]}},{"type":"Feature","id":"Sylhet","properties":{"id":"Sylhet","iso_code":"BD-G","name":"Sylhet","name_full":"Sylhet","name_ja":"シレット管区","center_lonlat":[91.6456,24.7212]},"geometry":{"type":"Polygon","coordinates":[[[91.3084,23.9925],[91.3129,24.0247],[91.2936,24.0573],[91.2733,24.1544],[91.2819,24.1692],[91.317,24.1795],[91.2808,24.1988],[91.3321,24.2412],[91.3005,24.2419],[91.2607,24.2129],[91.1534,24.2564],[91.1836,24.3092],[91.2392,24.337],[91.2257,24.357],[91.2488,24.3792],[91.2137,24.4187],[91.2303,24.4296],[91.226,24.4654],[91.1876,24.4836],[91.2314,24.5631],[91.1842,24.6072],[91.2072,24.6253],[91.2229,24.6742],[91.2025,24.6986],[91.1483,24.6996],[91.1453,24.8145],[91.1253,24.8801],[91.0066,24.8688],[90.9777,24.8806],[90.9124,24.9789],[90.9462,25.0564],[90.9348,25.1564],[91.2357,25.2019],[91.4319,25.138],[91.4808,25.1353],[91.5661,25.16],[91.5962,25.1289],[91.6387,25.124],[91.662,25.1272],[91.6774,25.1526],[91.7107,25.1447],[91.7301,25.1675],[91.9006,25.1776],[91.9563,25.1698],[92.034,25.1817],[92.0929,25.1647],[92.1162,25.1394],[92.1727,25.132],[92.2201,25.0904],[92.3035,25.0743],[92.3281,25.048],[92.3811,25.0234],[92.3869,24.9951],[92.454,24.9581],[92.4498,24.9464],[92.4744,24.9367],[92.4913,24.9124],[92.4777,24.8639],[92.3807,24.8367],[92.2902,24.8914],[92.2522,24.903],[92.223,24.8914],[92.2338,24.7775],[92.1829,24.6473],[92.1636,24.5592],[92.1109,24.5143],[92.1076,24.406],[92.0627,24.371],[91.95,24.3754],[91.9722,24.3161],[91.9219,24.3445],[91.8998,24.338],[91.9059,24.2606],[91.8771,24.158],[91.8442,24.1553],[91.8138,24.1831],[91.807,24.2211],[91.7329,24.2343],[91.723,24.221],[91.7326,24.1643],[91.7211,24.149],[91.6842,24.1455],[91.6291,24.2153],[91.5965,24.105],[91.5175,24.0852],[91.363,24.0998],[91.3391,23.9952],[91.3084,23.9925]]]}}]}
