{"type":"FeatureCollection","features":[{"type":"Feature","id":"Brest","properties":{"id":"Brest","iso_code":"BY-BR","name":"Brest","name_full":"Brest","name_ja":"ブレスト州","center_lonlat":[25.4828,52.3758]},"geometry":{"type":"Polygon","coordinates":[[[23.9204,52.7726],[24.0714,52.7682],[24.1537,52.7993],[24.1978,52.7758],[24.3003,52.7813],[24.3213,52.7651],[24.3754,52.7773],[24.4685,52.7411],[24.5409,52.7432],[24.5581,52.7592],[24.541,52.7953],[24.5877,52.8405],[24.5686,52.8629],[24.6534,52.9113],[24.6068,52.9344],[24.6859,52.9598],[24.8014,52.9327],[24.8515,52.9369],[24.8849,52.9666],[24.9289,52.9605],[24.9565,52.9363],[24.962,52.9002],[25.016,52.8885],[25.0483,52.9129],[25.0642,52.9111],[25.0492,52.8683],[25.0628,52.8351],[25.1919,52.8476],[25.2507,52.8659],[25.2779,52.8451],[25.3171,52.8392],[25.3356,52.855],[25.3064,52.8741],[25.322,52.8958],[25.2987,52.9132],[25.2996,52.9256],[25.4051,52.942],[25.4627,52.9997],[25.5316,53.0298],[25.5909,53.1128],[25.5974,53.1461],[25.5431,53.1737],[25.601,53.2116],[25.5984,53.2257],[25.5692,53.2405],[25.5749,53.2607],[25.632,53.2794],[25.6479,53.3318],[25.7048,53.3895],[25.7979,53.3962],[25.8981,53.3763],[26.0825,53.3736],[26.2731,53.3506],[26.3765,53.3645],[26.3723,53.3193],[26.3975,53.2889],[26.3966,53.2578],[26.3163,53.2411],[26.2662,53.1851],[26.326,53.173],[26.3636,53.1226],[26.4633,53.1126],[26.5151,53.0642],[26.5117,53.0501],[26.4293,53.0457],[26.3725,52.9914],[26.4422,52.8893],[26.4097,52.8676],[26.411,52.8546],[26.4484,52.8256],[26.4864,52.8466],[26.5278,52.8483],[26.5438,52.881],[26.5865,52.8849],[26.6417,52.8666],[26.6612,52.8329],[26.7322,52.8348],[26.7904,52.7766],[26.9467,52.739],[26.989,52.7581],[27.0247,52.742],[27.0214,52.7134],[27.0619,52.6767],[27.1684,52.6661],[27.1909,52.6409],[27.1853,52.6122],[27.0518,52.6044],[27.038,52.5795],[27.0649,52.5579],[27.0408,52.5382],[27.1482,52.4684],[27.1555,52.4444],[27.1282,52.4162],[27.2714,52.3607],[27.2921,52.3248],[27.3622,52.3191],[27.3965,52.282],[27.5406,52.2214],[27.5208,52.1835],[27.5278,52.066],[27.5999,52.0144],[27.5256,51.9426],[27.5319,51.9006],[27.503,51.8476],[27.5513,51.8117],[27.5591,51.7908],[27.5465,51.7355],[27.5095,51.7056],[27.5124,51.6231],[27.4773,51.6237],[27.409,51.5917],[27.2675,51.5875],[27.254,51.5954],[27.2775,51.6511],[27.189,51.6638],[27.1779,51.7471],[27.1511,51.7568],[27.0216,51.7645],[26.9208,51.7425],[26.8548,51.7493],[26.6657,51.8014],[26.4456,51.8056],[26.4192,51.8209],[26.4198,51.8469],[26.4078,51.8506],[26.1753,51.8567],[26.0506,51.9048],[25.7679,51.9285],[25.6835,51.918],[25.352,51.9215],[25.138,51.9489],[25.0027,51.9105],[24.7218,51.8823],[24.6398,51.8921],[24.3696,51.8751],[24.3115,51.8276],[24.2723,51.7429],[24.2441,51.7182],[23.9813,51.586],[23.9413,51.5819],[23.8849,51.6199],[23.7497,51.6445],[23.6167,51.6248],[23.5933,51.597],[23.6263,51.5409],[23.6154,51.5131],[23.5603,51.5553],[23.574,51.5553],[23.5434,51.5927],[23.5438,51.6438],[23.5324,51.659],[23.5603,51.672],[23.5461,51.6896],[23.5592,51.6952],[23.5466,51.7136],[23.5603,51.7545],[23.6175,51.7865],[23.6287,51.8098],[23.5946,51.8433],[23.6218,51.8774],[23.6287,51.9463],[23.6764,51.9941],[23.6375,52.0845],[23.5794,52.1215],[23.5125,52.1244],[23.4847,52.1586],[23.4877,52.1816],[23.4709,52.1716],[23.4505,52.1859],[23.4367,52.1757],[23.3914,52.1825],[23.3958,52.1996],[23.1897,52.2405],[23.1945,52.2715],[23.1656,52.2894],[23.2121,52.3475],[23.3923,52.5096],[23.569,52.5859],[23.7362,52.6149],[23.869,52.67],[23.9088,52.6999],[23.9204,52.7726]]]}},{"type":"Feature","id":"Gomel","properties":{"id":"Gomel","iso_code":"BY-HO","name":"Gomel","name_full":"Gomel","name_ja":"ホメリ州","center_lonlat":[29.6522,52.2915]},"geometry":{"type":"Polygon","coordinates":[[[27.5124,51.6231],[27.5095,51.7056],[27.5465,51.7355],[27.5591,51.7908],[27.5513,51.8117],[27.503,51.8476],[27.5319,51.9006],[27.5256,51.9426],[27.5999,52.0144],[27.5278,52.066],[27.5208,52.1835],[27.5406,52.2214],[27.3965,52.282],[27.3622,52.3191],[27.2921,52.3248],[27.2714,52.3607],[27.3461,52.4331],[27.3383,52.4764],[27.3791,52.4805],[27.4095,52.5181],[27.4357,52.5174],[27.4505,52.5017],[27.5279,52.5393],[27.5618,52.5078],[27.578,52.5294],[27.5977,52.5324],[27.6061,52.4747],[27.7059,52.4378],[27.9413,52.4444],[27.9694,52.4592],[27.9559,52.5049],[27.9877,52.519],[28.0841,52.5044],[28.1224,52.4675],[28.3407,52.4806],[28.4076,52.5175],[28.4062,52.6324],[28.4521,52.6546],[28.4499,52.6669],[28.4692,52.6801],[28.67,52.6878],[28.823,52.7172],[28.8374,52.7402],[28.7989,52.751],[28.7965,52.7629],[28.9603,52.7985],[28.974,52.8727],[29.0894,52.8777],[29.1819,52.9495],[29.3434,52.9317],[29.3535,52.9109],[29.3971,52.9244],[29.3861,52.9416],[29.3963,52.9486],[29.4595,52.9232],[29.5438,52.956],[29.718,52.9477],[29.7415,52.9753],[29.6351,53.0234],[29.6628,53.0601],[29.6288,53.0983],[29.6674,53.1148],[29.6532,53.1293],[29.7576,53.1315],[29.732,53.1495],[29.7585,53.1664],[29.7653,53.1874],[29.7399,53.2074],[29.7933,53.2132],[29.7542,53.2844],[29.7537,53.3163],[29.8016,53.3534],[29.8542,53.3354],[29.8881,53.3408],[29.9108,53.323],[29.9959,53.3407],[30.073,53.3126],[30.0838,53.2947],[30.1461,53.2856],[30.1734,53.2392],[30.1902,53.2347],[30.3789,53.262],[30.3721,53.2912],[30.4116,53.3109],[30.481,53.3174],[30.5961,53.3004],[30.6677,53.2761],[30.6966,53.2773],[30.7201,53.2971],[30.8632,53.28],[30.8948,53.3079],[30.9907,53.3035],[31.03,53.2367],[31.106,53.1973],[31.1094,53.1617],[31.0881,53.1428],[31.0949,53.132],[31.1659,53.1351],[31.2097,53.1056],[31.2415,53.1244],[31.271,53.1087],[31.3616,53.12],[31.3637,53.0888],[31.3192,53.0764],[31.2471,53.0144],[31.3226,52.9771],[31.3879,52.888],[31.451,52.8572],[31.5051,52.8489],[31.5239,52.8117],[31.5608,52.7871],[31.5702,52.7253],[31.5479,52.7057],[31.4806,52.6825],[31.579,52.5778],[31.6286,52.5481],[31.6108,52.536],[31.5593,52.5405],[31.5759,52.5247],[31.5506,52.5119],[31.5879,52.4826],[31.5829,52.4028],[31.6081,52.3725],[31.6028,52.3409],[31.5674,52.3114],[31.6314,52.2648],[31.6994,52.2515],[31.6819,52.2305],[31.6824,52.2019],[31.7626,52.1498],[31.7643,52.1006],[31.6499,52.0968],[31.3831,52.1175],[31.3044,52.0975],[31.2524,52.0445],[31.229,52.0382],[31.1348,52.0767],[31.0963,52.0796],[30.9593,52.0747],[30.9188,52.0592],[30.9247,52.0423],[30.9113,52.0226],[30.9405,52.0201],[30.9501,52.0068],[30.9412,51.9938],[30.8969,51.9983],[30.858,51.9576],[30.8031,51.9391],[30.8106,51.9184],[30.7882,51.9006],[30.7417,51.8979],[30.7345,51.8737],[30.662,51.8194],[30.6706,51.7905],[30.6182,51.7613],[30.6462,51.7545],[30.625,51.7061],[30.5703,51.6999],[30.5703,51.6515],[30.5499,51.6372],[30.5566,51.6236],[30.5151,51.6037],[30.5431,51.5826],[30.5226,51.5627],[30.584,51.5423],[30.5629,51.5218],[30.5854,51.5094],[30.5889,51.4818],[30.6182,51.4671],[30.586,51.4518],[30.5879,51.4274],[30.6182,51.4187],[30.6456,51.3675],[30.6324,51.3641],[30.6383,51.3359],[30.5799,51.3037],[30.5507,51.2368],[30.5081,51.2577],[30.465,51.2619],[30.4281,51.2918],[30.3551,51.3053],[30.3171,51.3406],[30.33,51.3704],[30.3202,51.4021],[30.2569,51.4251],[30.2054,51.4665],[30.1486,51.4844],[30.0087,51.4821],[29.9251,51.4579],[29.8863,51.4648],[29.8286,51.43],[29.7379,51.4395],[29.7,51.4837],[29.6378,51.4909],[29.5682,51.4496],[29.5055,51.4375],[29.4663,51.3851],[29.4027,51.3961],[29.3199,51.3656],[29.297,51.3737],[29.2649,51.4329],[29.2278,51.4556],[29.2265,51.5191],[29.1604,51.6033],[29.0837,51.6312],[29.0436,51.6262],[28.9808,51.5695],[28.8636,51.5589],[28.7999,51.5326],[28.7522,51.4837],[28.7516,51.4287],[28.7288,51.4013],[28.704,51.4426],[28.6636,51.434],[28.6373,51.4496],[28.6039,51.5535],[28.4612,51.5717],[28.3339,51.5284],[28.3109,51.5744],[28.2578,51.6018],[28.2304,51.6511],[28.1662,51.6331],[28.1142,51.5756],[28.0708,51.5576],[27.9548,51.5608],[27.8756,51.608],[27.8313,51.6129],[27.7995,51.5852],[27.7925,51.5173],[27.7406,51.4714],[27.7143,51.4637],[27.6641,51.4929],[27.7052,51.5684],[27.6927,51.5892],[27.5124,51.6231]]]}},{"type":"Feature","id":"Grodno","properties":{"id":"Grodno","iso_code":"BY-HR","name":"Grodno","name_full":"Grodno","name_ja":"フロドナ州","center_lonlat":[25.1659,53.7155]},"geometry":{"type":"Polygon","coordinates":[[[26.1703,54.9933],[26.24,54.9748],[26.2696,54.9305],[26.3224,54.9482],[26.3481,54.9433],[26.3162,54.9276],[26.3368,54.8995],[26.3441,54.8552],[26.4251,54.8256],[26.501,54.7623],[26.5391,54.7499],[26.5415,54.7059],[26.5862,54.6433],[26.638,54.6252],[26.6753,54.6339],[26.6825,54.5836],[26.6492,54.5711],[26.6383,54.5308],[26.5849,54.544],[26.6115,54.4932],[26.6098,54.458],[26.5739,54.4342],[26.4689,54.2788],[26.4063,54.2411],[26.2336,54.2339],[26.1537,54.1991],[26.1079,54.1987],[26.076,54.1404],[26.1166,54.1199],[26.1434,54.1414],[26.175,54.1325],[26.1697,54.0667],[26.1954,54.0365],[26.2666,54.0401],[26.2828,54.0599],[26.3336,54.0572],[26.3683,54.0048],[26.4328,53.9986],[26.4192,53.9518],[26.3745,53.943],[26.3328,53.8966],[26.2256,53.8711],[26.2152,53.8541],[26.2222,53.8249],[26.31,53.7981],[26.2948,53.7803],[26.2575,53.7745],[26.2583,53.7287],[26.3379,53.7041],[26.3512,53.6584],[26.4692,53.6261],[26.5142,53.5531],[26.4932,53.5036],[26.5469,53.4966],[26.5421,53.4421],[26.5677,53.4048],[26.3765,53.3645],[26.2731,53.3506],[26.0825,53.3736],[25.8981,53.3763],[25.7979,53.3962],[25.7048,53.3895],[25.6479,53.3318],[25.632,53.2794],[25.5749,53.2607],[25.5692,53.2405],[25.5984,53.2257],[25.601,53.2116],[25.5431,53.1737],[25.5974,53.1461],[25.5909,53.1128],[25.5316,53.0298],[25.4627,52.9997],[25.4051,52.942],[25.2996,52.9256],[25.2987,52.9132],[25.322,52.8958],[25.3064,52.8741],[25.3356,52.855],[25.3171,52.8392],[25.2779,52.8451],[25.2507,52.8659],[25.1919,52.8476],[25.0628,52.8351],[25.0492,52.8683],[25.0642,52.9111],[25.0483,52.9129],[25.016,52.8885],[24.962,52.9002],[24.9565,52.9363],[24.9289,52.9605],[24.8849,52.9666],[24.8515,52.9369],[24.8014,52.9327],[24.6859,52.9598],[24.6068,52.9344],[24.6534,52.9113],[24.5686,52.8629],[24.5877,52.8405],[24.541,52.7953],[24.5581,52.7592],[24.5409,52.7432],[24.4685,52.7411],[24.3754,52.7773],[24.3213,52.7651],[24.3003,52.7813],[24.1978,52.7758],[24.1537,52.7993],[24.0714,52.7682],[23.9204,52.7726],[23.9011,52.9233],[23.918,52.9508],[23.9113,53.0051],[23.8593,53.068],[23.8937,53.152],[23.8481,53.1838],[23.8006,53.2425],[23.743,53.3655],[23.6758,53.4557],[23.5909,53.6113],[23.5671,53.681],[23.5648,53.7424],[23.5299,53.7842],[23.4856,53.9393],[23.6271,53.8982],[23.7872,53.9279],[23.8283,53.9201],[23.9198,53.9478],[23.9813,53.9304],[24.0454,53.9309],[24.1696,53.9589],[24.2291,53.9324],[24.2571,53.894],[24.3779,53.8868],[24.5287,53.9584],[24.6668,53.9939],[24.7056,53.9642],[24.8064,53.9753],[24.8214,54.0199],[24.7825,54.0929],[24.8182,54.1101],[24.8216,54.1345],[24.9023,54.1498],[25.0271,54.1279],[25.072,54.1322],[25.1565,54.1757],[25.2062,54.2568],[25.3697,54.2479],[25.4594,54.2989],[25.554,54.2313],[25.5017,54.2218],[25.4993,54.2118],[25.529,54.1957],[25.4858,54.1754],[25.516,54.1448],[25.6316,54.1283],[25.6906,54.1482],[25.74,54.1463],[25.7631,54.1564],[25.7719,54.2179],[25.7892,54.2362],[25.7393,54.2826],[25.7192,54.2815],[25.696,54.321],[25.564,54.3031],[25.5287,54.321],[25.53,54.3461],[25.6126,54.4218],[25.6309,54.5084],[25.7404,54.5685],[25.7399,54.6077],[25.7084,54.663],[25.7246,54.7157],[25.7243,54.7801],[25.7785,54.8053],[25.7723,54.8509],[25.7827,54.8697],[25.8467,54.9062],[25.8702,54.9388],[26.1026,54.957],[26.1703,54.9933]]]}},{"type":"Feature","id":"Mahiliou","properties":{"id":"Mahiliou","iso_code":"BY-MA","name":"Mahiliou","name_full":"Mahilioŭ","name_ja":"マヒリョウ州","center_lonlat":[30.4141,53.6048]},"geometry":{"type":"Polygon","coordinates":[[[31.179,54.4534],[31.209,54.448],[31.2487,54.3768],[31.2848,54.3474],[31.2992,54.2726],[31.3247,54.2292],[31.5064,54.1439],[31.7368,54.0942],[31.7713,54.0485],[31.8226,54.0534],[31.8465,53.9923],[31.8379,53.9621],[31.8101,53.8826],[31.7447,53.7949],[31.8732,53.7771],[32.106,53.8069],[32.1648,53.7817],[32.2904,53.7609],[32.3718,53.7144],[32.4616,53.7068],[32.4878,53.6847],[32.4878,53.6696],[32.3991,53.6354],[32.4115,53.5824],[32.4294,53.5616],[32.5543,53.5108],[32.5768,53.486],[32.6503,53.4876],[32.6468,53.458],[32.7012,53.4621],[32.7195,53.4395],[32.7044,53.3664],[32.7175,53.3349],[32.58,53.3244],[32.5959,53.3083],[32.5692,53.2988],[32.4548,53.3004],[32.4472,53.2888],[32.456,53.2778],[32.4791,53.2749],[32.4236,53.2044],[32.3528,53.1805],[32.268,53.1248],[32.2157,53.1255],[32.2011,53.0976],[32.0828,53.082],[32.0099,53.1],[31.9307,53.0883],[31.8555,53.1102],[31.8068,53.11],[31.7805,53.1279],[31.7563,53.1866],[31.5936,53.2107],[31.5359,53.1949],[31.4164,53.2],[31.3785,53.182],[31.3616,53.12],[31.271,53.1087],[31.2415,53.1244],[31.2097,53.1056],[31.1659,53.1351],[31.0949,53.132],[31.0881,53.1428],[31.1094,53.1617],[31.106,53.1973],[31.03,53.2367],[30.9907,53.3035],[30.8948,53.3079],[30.8632,53.28],[30.7201,53.2971],[30.6966,53.2773],[30.6677,53.2761],[30.5961,53.3004],[30.481,53.3174],[30.4116,53.3109],[30.3721,53.2912],[30.3789,53.262],[30.1902,53.2347],[30.1734,53.2392],[30.1461,53.2856],[30.0838,53.2947],[30.073,53.3126],[29.9959,53.3407],[29.9108,53.323],[29.8881,53.3408],[29.8542,53.3354],[29.8016,53.3534],[29.7537,53.3163],[29.7542,53.2844],[29.7933,53.2132],[29.7399,53.2074],[29.7653,53.1874],[29.7585,53.1664],[29.732,53.1495],[29.7576,53.1315],[29.6532,53.1293],[29.6674,53.1148],[29.6288,53.0983],[29.6628,53.0601],[29.6351,53.0234],[29.7415,52.9753],[29.718,52.9477],[29.5438,52.956],[29.4595,52.9232],[29.3963,52.9486],[29.3861,52.9416],[29.3971,52.9244],[29.3535,52.9109],[29.3434,52.9317],[29.1819,52.9495],[29.0894,52.8777],[28.974,52.8727],[28.9603,52.7985],[28.7965,52.7629],[28.7989,52.751],[28.8374,52.7402],[28.823,52.7172],[28.67,52.6878],[28.4692,52.6801],[28.292,52.7657],[28.4093,52.8379],[28.4519,52.9],[28.4886,52.9269],[28.4911,52.9419],[28.4535,52.9628],[28.4934,53.0153],[28.5382,53.0157],[28.5223,53.0441],[28.5339,53.0885],[28.5094,53.1329],[28.5234,53.1488],[28.4214,53.1382],[28.3806,53.1972],[28.3398,53.1995],[28.3185,53.175],[28.229,53.1928],[28.1891,53.2229],[28.1176,53.2378],[28.0892,53.2862],[28.1512,53.3013],[28.2198,53.2655],[28.3587,53.2675],[28.3838,53.2851],[28.4495,53.2947],[28.4544,53.3046],[28.4329,53.3301],[28.3618,53.3557],[28.4009,53.3934],[28.4023,53.4681],[28.4543,53.5112],[28.511,53.5102],[28.5753,53.5319],[28.5474,53.5453],[28.6054,53.5604],[28.6015,53.6007],[28.6174,53.6138],[28.7733,53.5874],[28.816,53.5957],[28.8411,53.5796],[28.8681,53.59],[28.8635,53.5602],[28.894,53.5254],[28.9491,53.5193],[28.9466,53.5767],[29.059,53.5887],[29.073,53.6041],[29.0613,53.6391],[29.1035,53.6659],[29.2101,53.654],[29.2874,53.6794],[29.3423,53.7169],[29.3881,53.7028],[29.4305,53.7297],[29.3997,53.7513],[29.4519,53.7696],[29.4818,53.7962],[29.3602,53.822],[29.4016,53.8446],[29.3574,53.8485],[29.3852,53.8724],[29.3559,53.885],[29.3611,53.9539],[29.338,53.9899],[29.3507,54.0149],[29.4213,54.0595],[29.4011,54.093],[29.4277,54.1078],[29.4296,54.1687],[29.4627,54.186],[29.4496,54.212],[29.4145,54.2313],[29.4668,54.2561],[29.484,54.2783],[29.5352,54.2866],[29.5693,54.3173],[29.6693,54.2996],[29.8025,54.3108],[29.8335,54.3196],[29.815,54.3328],[29.8277,54.3429],[29.8778,54.334],[29.8986,54.2945],[30.0248,54.2719],[30.0408,54.284],[30.0259,54.3285],[30.0987,54.3762],[30.1157,54.3729],[30.1078,54.3588],[30.1648,54.3361],[30.1863,54.3581],[30.2514,54.3579],[30.3066,54.3785],[30.258,54.3144],[30.3399,54.304],[30.3879,54.3205],[30.4107,54.3455],[30.4617,54.3041],[30.5178,54.2886],[30.5687,54.3044],[30.613,54.3457],[30.5892,54.3788],[30.6489,54.3931],[30.6878,54.4192],[30.8708,54.4027],[30.9012,54.4075],[30.9051,54.4275],[30.935,54.435],[31.0479,54.4031],[31.0548,54.4327],[31.126,54.454],[31.179,54.4534]]]}},{"type":"Feature","id":"Minsk","properties":{"id":"Minsk","iso_code":"BY-MI","name":"Minsk","name_full":"Minsk","name_ja":"ミンスク州","center_lonlat":[27.6761,53.7662]},"geometry":{"type":"Polygon","coordinates":[[[29.4145,54.2313],[29.4496,54.212],[29.4627,54.186],[29.4296,54.1687],[29.4277,54.1078],[29.4011,54.093],[29.4213,54.0595],[29.3507,54.0149],[29.338,53.9899],[29.3611,53.9539],[29.3559,53.885],[29.3852,53.8724],[29.3574,53.8485],[29.4016,53.8446],[29.3602,53.822],[29.4818,53.7962],[29.4519,53.7696],[29.3997,53.7513],[29.4305,53.7297],[29.3881,53.7028],[29.3423,53.7169],[29.2874,53.6794],[29.2101,53.654],[29.1035,53.6659],[29.0613,53.6391],[29.073,53.6041],[29.059,53.5887],[28.9466,53.5767],[28.9491,53.5193],[28.894,53.5254],[28.8635,53.5602],[28.8681,53.59],[28.8411,53.5796],[28.816,53.5957],[28.7733,53.5874],[28.6174,53.6138],[28.6015,53.6007],[28.6054,53.5604],[28.5474,53.5453],[28.5753,53.5319],[28.511,53.5102],[28.4543,53.5112],[28.4023,53.4681],[28.4009,53.3934],[28.3618,53.3557],[28.4329,53.3301],[28.4544,53.3046],[28.4495,53.2947],[28.3838,53.2851],[28.3587,53.2675],[28.2198,53.2655],[28.1512,53.3013],[28.0892,53.2862],[28.1176,53.2378],[28.1891,53.2229],[28.229,53.1928],[28.3185,53.175],[28.3398,53.1995],[28.3806,53.1972],[28.4214,53.1382],[28.5234,53.1488],[28.5094,53.1329],[28.5339,53.0885],[28.5223,53.0441],[28.5382,53.0157],[28.4934,53.0153],[28.4535,52.9628],[28.4911,52.9419],[28.4886,52.9269],[28.4519,52.9],[28.4093,52.8379],[28.292,52.7657],[28.4692,52.6801],[28.4499,52.6669],[28.4521,52.6546],[28.4062,52.6324],[28.4076,52.5175],[28.3407,52.4806],[28.1224,52.4675],[28.0841,52.5044],[27.9877,52.519],[27.9559,52.5049],[27.9694,52.4592],[27.9413,52.4444],[27.7059,52.4378],[27.6061,52.4747],[27.5977,52.5324],[27.578,52.5294],[27.5618,52.5078],[27.5279,52.5393],[27.4505,52.5017],[27.4357,52.5174],[27.4095,52.5181],[27.3791,52.4805],[27.3383,52.4764],[27.3461,52.4331],[27.2714,52.3607],[27.1282,52.4162],[27.1555,52.4444],[27.1482,52.4684],[27.0408,52.5382],[27.0649,52.5579],[27.038,52.5795],[27.0518,52.6044],[27.1853,52.6122],[27.1909,52.6409],[27.1684,52.6661],[27.0619,52.6767],[27.0214,52.7134],[27.0247,52.742],[26.989,52.7581],[26.9467,52.739],[26.7904,52.7766],[26.7322,52.8348],[26.6612,52.8329],[26.6417,52.8666],[26.5865,52.8849],[26.5438,52.881],[26.5278,52.8483],[26.4864,52.8466],[26.4484,52.8256],[26.411,52.8546],[26.4097,52.8676],[26.4422,52.8893],[26.3725,52.9914],[26.4293,53.0457],[26.5117,53.0501],[26.5151,53.0642],[26.4633,53.1126],[26.3636,53.1226],[26.326,53.173],[26.2662,53.1851],[26.3163,53.2411],[26.3966,53.2578],[26.3975,53.2889],[26.3723,53.3193],[26.3765,53.3645],[26.5677,53.4048],[26.5421,53.4421],[26.5469,53.4966],[26.4932,53.5036],[26.5142,53.5531],[26.4692,53.6261],[26.3512,53.6584],[26.3379,53.7041],[26.2583,53.7287],[26.2575,53.7745],[26.2948,53.7803],[26.31,53.7981],[26.2222,53.8249],[26.2152,53.8541],[26.2256,53.8711],[26.3328,53.8966],[26.3745,53.943],[26.4192,53.9518],[26.4328,53.9986],[26.3683,54.0048],[26.3336,54.0572],[26.2828,54.0599],[26.2666,54.0401],[26.1954,54.0365],[26.1697,54.0667],[26.175,54.1325],[26.1434,54.1414],[26.1166,54.1199],[26.076,54.1404],[26.1079,54.1987],[26.1537,54.1991],[26.2336,54.2339],[26.4063,54.2411],[26.4689,54.2788],[26.5739,54.4342],[26.6098,54.458],[26.6115,54.4932],[26.5849,54.544],[26.6383,54.5308],[26.6492,54.5711],[26.6825,54.5836],[26.6753,54.6339],[26.638,54.6252],[26.5862,54.6433],[26.5415,54.7059],[26.5391,54.7499],[26.501,54.7623],[26.4251,54.8256],[26.3441,54.8552],[26.3368,54.8995],[26.3162,54.9276],[26.3481,54.9433],[26.3653,54.9529],[26.3653,54.9761],[26.3832,54.9825],[26.5714,54.9523],[26.6174,54.9692],[26.6796,54.9703],[26.73,54.9439],[26.7952,54.9655],[26.897,54.9754],[26.944,54.9504],[27.0595,54.9509],[27.0784,54.9574],[27.0743,54.9879],[27.1062,55.0021],[27.1875,54.9898],[27.2497,54.9968],[27.2812,54.9775],[27.25,54.9426],[27.3059,54.9053],[27.3193,54.874],[27.4145,54.8714],[27.5231,54.8089],[27.5199,54.778],[27.6238,54.766],[27.6755,54.7466],[27.6919,54.7356],[27.6786,54.7016],[27.7563,54.6387],[27.8306,54.6283],[27.8803,54.6459],[27.898,54.6406],[27.9087,54.6136],[28.2272,54.6496],[28.3479,54.5657],[28.3936,54.55],[28.425,54.5547],[28.4813,54.6448],[28.5655,54.6609],[28.5947,54.6353],[28.6366,54.658],[28.6503,54.6533],[28.6648,54.6356],[28.6473,54.6035],[28.6647,54.5825],[28.7303,54.5695],[28.7614,54.5828],[28.8115,54.5798],[28.8411,54.5551],[28.8711,54.5601],[28.8852,54.5754],[28.8644,54.6002],[28.879,54.6232],[29.0416,54.6099],[29.136,54.6502],[29.1442,54.6496],[29.1307,54.6396],[29.1371,54.6306],[29.2125,54.6376],[29.2273,54.5833],[29.2984,54.5741],[29.355,54.5928],[29.4331,54.5831],[29.4489,54.5923],[29.4511,54.6153],[29.473,54.6157],[29.4918,54.5791],[29.437,54.5442],[29.4561,54.5182],[29.4249,54.487],[29.4051,54.3849],[29.3667,54.347],[29.4095,54.3064],[29.361,54.2729],[29.3562,54.2398],[29.3771,54.2254],[29.4145,54.2313]],[[27.7608,53.8042],[27.8033,53.8093],[27.8308,53.8343],[27.8208,53.8593],[27.7883,53.8743],[27.7758,53.9068],[27.7808,53.9318],[27.8383,53.9818],[27.8358,54.0168],[27.8083,54.0218],[27.7533,53.9968],[27.6882,53.9893],[27.5032,54.0168],[27.4081,53.9968],[27.3856,53.9643],[27.3706,53.8943],[27.3831,53.8368],[27.5157,53.8093],[27.5557,53.7842],[27.5832,53.8042],[27.7608,53.8042]]]}},{"type":"Feature","id":"Minsk (BY-HM)","properties":{"id":"Minsk (BY-HM)","iso_code":"BY-HM","name":"Minsk (BY-HM)","name_full":"Minsk","name_ja":"ミンスク","center_lonlat":[27.5987,53.9076]},"geometry":{"type":"Polygon","coordinates":[[[27.8083,54.0218],[27.8358,54.0168],[27.8383,53.9818],[27.7808,53.9318],[27.7758,53.9068],[27.7883,53.8743],[27.8208,53.8593],[27.8308,53.8343],[27.8033,53.8093],[27.5832,53.8042],[27.5557,53.7842],[27.5157,53.8093],[27.3831,53.8368],[27.3706,53.8643],[27.3856,53.9643],[27.4081,53.9968],[27.4406,54.0093],[27.5032,54.0168],[27.7132,53.9893],[27.8083,54.0218]]]}},{"type":"Feature","id":"Vitebsk","properties":{"id":"Vitebsk","iso_code":"BY-VI","name":"Vitebsk","name_full":"Vitebsk","name_ja":"ヴィーツェプスク州","center_lonlat":[28.9029,55.2144]},"geometry":{"type":"Polygon","coordinates":[[[31.179,54.4534],[31.126,54.454],[31.0548,54.4327],[31.0479,54.4031],[30.935,54.435],[30.9051,54.4275],[30.9012,54.4075],[30.8708,54.4027],[30.6878,54.4192],[30.6489,54.3931],[30.5892,54.3788],[30.613,54.3457],[30.5687,54.3044],[30.5178,54.2886],[30.4617,54.3041],[30.4107,54.3455],[30.3879,54.3205],[30.3399,54.304],[30.258,54.3144],[30.3066,54.3785],[30.2514,54.3579],[30.1863,54.3581],[30.1648,54.3361],[30.1078,54.3588],[30.1157,54.3729],[30.0987,54.3762],[30.0259,54.3285],[30.0408,54.284],[30.0248,54.2719],[29.8986,54.2945],[29.8778,54.334],[29.8277,54.3429],[29.815,54.3328],[29.8335,54.3196],[29.8025,54.3108],[29.6693,54.2996],[29.5693,54.3173],[29.5352,54.2866],[29.484,54.2783],[29.4668,54.2561],[29.4145,54.2313],[29.3771,54.2254],[29.3562,54.2398],[29.361,54.2729],[29.4095,54.3064],[29.3667,54.347],[29.4051,54.3849],[29.4249,54.487],[29.4561,54.5182],[29.437,54.5442],[29.4918,54.5791],[29.473,54.6157],[29.4511,54.6153],[29.4489,54.5923],[29.4331,54.5831],[29.355,54.5928],[29.2984,54.5741],[29.2273,54.5833],[29.2125,54.6376],[29.1371,54.6306],[29.1307,54.6396],[29.1442,54.6496],[29.136,54.6502],[29.0416,54.6099],[28.879,54.6232],[28.8644,54.6002],[28.8852,54.5754],[28.8711,54.5601],[28.8411,54.5551],[28.8115,54.5798],[28.7614,54.5828],[28.7303,54.5695],[28.6647,54.5825],[28.6473,54.6035],[28.6648,54.6356],[28.6503,54.6533],[28.6366,54.658],[28.5947,54.6353],[28.5655,54.6609],[28.4813,54.6448],[28.425,54.5547],[28.3936,54.55],[28.3479,54.5657],[28.2272,54.6496],[27.9087,54.6136],[27.898,54.6406],[27.8803,54.6459],[27.8306,54.6283],[27.7563,54.6387],[27.6786,54.7016],[27.6919,54.7356],[27.6755,54.7466],[27.6238,54.766],[27.5199,54.778],[27.5231,54.8089],[27.4145,54.8714],[27.3193,54.874],[27.3059,54.9053],[27.25,54.9426],[27.2812,54.9775],[27.2497,54.9968],[27.1875,54.9898],[27.1062,55.0021],[27.0743,54.9879],[27.0784,54.9574],[27.0595,54.9509],[26.944,54.9504],[26.897,54.9754],[26.7952,54.9655],[26.73,54.9439],[26.6796,54.9703],[26.6174,54.9692],[26.5714,54.9523],[26.3832,54.9825],[26.3653,54.9761],[26.3653,54.9529],[26.3481,54.9433],[26.3224,54.9482],[26.2696,54.9305],[26.24,54.9748],[26.1703,54.9933],[26.2246,55.0549],[26.233,55.1116],[26.2644,55.1401],[26.4288,55.1282],[26.4734,55.1457],[26.6009,55.1208],[26.6339,55.1922],[26.657,55.2153],[26.7011,55.2368],[26.7656,55.2467],[26.8007,55.2733],[26.7686,55.3002],[26.6027,55.3169],[26.5254,55.3081],[26.45,55.3271],[26.4455,55.3375],[26.4992,55.4281],[26.5433,55.4596],[26.5277,55.4922],[26.5321,55.5163],[26.5956,55.568],[26.6077,55.6165],[26.5945,55.667],[26.6156,55.688],[26.6401,55.6956],[26.743,55.6829],[26.8228,55.7061],[26.9001,55.7787],[26.9811,55.8269],[27.1514,55.8325],[27.263,55.7872],[27.3496,55.8312],[27.4388,55.7987],[27.5927,55.7942],[27.6172,55.8786],[27.645,55.9228],[27.7444,55.9597],[27.777,55.9924],[27.7812,56.0164],[27.8807,56.0639],[27.9271,56.1094],[28.111,56.1568],[28.3109,56.0427],[28.3898,56.0886],[28.5378,56.0977],[28.6115,56.0885],[28.6806,56.0274],[28.7064,55.9598],[28.7319,55.9468],[28.8309,55.9377],[28.8331,55.961],[28.8597,55.9765],[29.0308,56.0242],[29.1454,56.012],[29.224,55.9782],[29.3956,55.9477],[29.4444,55.9069],[29.3841,55.8799],[29.3436,55.787],[29.3634,55.7515],[29.4809,55.6811],[29.5081,55.6855],[29.5854,55.738],[29.6842,55.7706],[29.8057,55.7715],[29.8695,55.8305],[29.9078,55.8432],[29.9882,55.8468],[30.1063,55.8219],[30.2003,55.858],[30.2708,55.8306],[30.4688,55.7935],[30.4778,55.7791],[30.4693,55.7626],[30.4807,55.754],[30.5875,55.7183],[30.5837,55.6791],[30.5964,55.6653],[30.6937,55.6522],[30.7422,55.5944],[30.8477,55.611],[30.8862,55.6005],[30.9128,55.5716],[30.9197,55.5345],[30.8994,55.4991],[30.9194,55.4923],[30.8813,55.4514],[30.9186,55.4076],[30.9183,55.3878],[30.8112,55.3231],[30.7943,55.2855],[30.8568,55.2535],[30.8865,55.2045],[30.9598,55.1626],[30.9588,55.1444],[30.984,55.1309],[30.9703,55.1014],[31.0064,55.0424],[31.0056,55.023],[30.9132,55.0246],[30.9066,55.0126],[30.9361,54.9732],[30.8995,54.9464],[30.8148,54.928],[30.8261,54.8775],[30.7681,54.8299],[30.7626,54.802],[30.7706,54.786],[30.9806,54.7057],[30.999,54.6713],[31.1052,54.6683],[31.1286,54.6404],[31.1679,54.6216],[31.0646,54.4923],[31.1679,54.4671],[31.179,54.4534]]]}}]}
