{"type":"FeatureCollection","features":[{"type":"Feature","id":"Antwerp","properties":{"id":"Antwerp","iso_code":"BE-VAN","name":"Antwerp","name_full":"Antwerp","name_ja":"アントウェルペン州","center_lonlat":[4.7175,51.2252]},"geometry":{"type":"Polygon","coordinates":[[[5.2395,51.2569],[5.2165,51.2125],[5.2572,51.1885],[5.2604,51.1481],[5.2354,51.134],[5.203,51.14],[5.1804,51.1192],[5.1303,51.1176],[5.0899,51.0852],[5.0098,51.0751],[5.0097,51.0614],[4.9809,51.036],[4.9483,51.0457],[4.8185,51.0111],[4.7887,51.0401],[4.7339,51.0274],[4.6949,50.9998],[4.7063,51.0156],[4.6794,51.0248],[4.6065,51.0125],[4.5934,50.9921],[4.5462,51.0041],[4.528,50.9934],[4.4943,51.0097],[4.4761,50.9924],[4.4538,51.0068],[4.3931,50.9975],[4.3882,51.0123],[4.3695,51.0159],[4.3791,51.0311],[4.3479,51.0179],[4.3482,51.027],[4.2989,51.041],[4.2403,51.0381],[4.1891,51.0439],[4.1964,51.0545],[4.182,51.0999],[4.2158,51.1215],[4.316,51.1322],[4.3286,51.1478],[4.3306,51.1768],[4.3011,51.2114],[4.3098,51.2149],[4.2886,51.2579],[4.2987,51.2696],[4.3308,51.2961],[4.2893,51.3091],[4.2831,51.3501],[4.2611,51.3694],[4.3456,51.3523],[4.4112,51.3567],[4.4162,51.374],[4.3799,51.4095],[4.3892,51.4346],[4.3771,51.4429],[4.5126,51.4774],[4.5332,51.4676],[4.5215,51.4286],[4.6301,51.4182],[4.7642,51.4962],[4.8136,51.4841],[4.8261,51.4606],[4.8154,51.4311],[4.8227,51.4137],[4.7791,51.4264],[4.7621,51.4134],[4.9103,51.3919],[4.9571,51.411],[5.0121,51.4743],[5.0603,51.462],[5.0799,51.4385],[5.0653,51.4059],[5.0681,51.3745],[5.1026,51.3507],[5.1229,51.3134],[5.1973,51.3083],[5.2149,51.2943],[5.2154,51.2587],[5.2395,51.2569]]]}},{"type":"Feature","id":"Brussels Capital","properties":{"id":"Brussels Capital","iso_code":"BE-BRU","name":"Brussels Capital","name_full":"Brussels Capital","name_ja":"ブリュッセル首都圏地域","center_lonlat":[4.3701,50.837]},"geometry":{"type":"Polygon","coordinates":[[[4.4797,50.7954],[4.3772,50.7646],[4.3276,50.779],[4.3012,50.8144],[4.283,50.8084],[4.2456,50.8216],[4.2575,50.8369],[4.2828,50.8396],[4.2892,50.8564],[4.279,50.8678],[4.2979,50.8915],[4.3346,50.9031],[4.3773,50.8986],[4.4033,50.9148],[4.4362,50.8893],[4.42,50.8695],[4.4602,50.8532],[4.4761,50.8215],[4.4465,50.811],[4.4797,50.7954]]]}},{"type":"Feature","id":"East Flanders","properties":{"id":"East Flanders","iso_code":"BE-VOV","name":"East Flanders","name_full":"East Flanders","name_ja":"オースト＝フランデレン州","center_lonlat":[3.8165,51.0362]},"geometry":{"type":"Polygon","coordinates":[[[3.3988,51.2447],[3.5012,51.2403],[3.5034,51.274],[3.5143,51.281],[3.6095,51.2904],[3.7762,51.2545],[3.7814,51.2199],[3.8087,51.2053],[3.927,51.2063],[4.1686,51.2969],[4.2079,51.3306],[4.2215,51.368],[4.303,51.2961],[4.2987,51.2696],[4.2886,51.2579],[4.3098,51.2149],[4.3011,51.2114],[4.3306,51.1768],[4.3286,51.1478],[4.316,51.1322],[4.2158,51.1215],[4.182,51.0999],[4.1964,51.0545],[4.1891,51.0439],[4.2403,51.0381],[4.2171,50.9901],[4.1617,50.9906],[4.1465,50.9706],[4.1602,50.9299],[4.137,50.9196],[4.0913,50.9318],[4.1001,50.9125],[4.0736,50.9],[4.0871,50.8814],[4.0404,50.8384],[4.066,50.8354],[4.0749,50.8207],[4.0604,50.7926],[3.9822,50.7668],[3.9563,50.7798],[3.9312,50.7576],[3.9506,50.7341],[3.895,50.7342],[3.8844,50.7514],[3.7746,50.749],[3.7578,50.7803],[3.6753,50.7719],[3.6347,50.7219],[3.6066,50.7342],[3.5405,50.7349],[3.534,50.7664],[3.4941,50.7589],[3.4576,50.7685],[3.5225,50.8052],[3.4995,50.8252],[3.5124,50.8355],[3.4505,50.8693],[3.474,50.8846],[3.4661,50.9034],[3.4273,50.8984],[3.4192,50.9122],[3.4326,50.9206],[3.4247,50.9321],[3.4484,50.9299],[3.4553,50.9344],[3.4401,50.9439],[3.4602,50.9437],[3.4121,50.959],[3.443,50.9678],[3.4259,50.9824],[3.452,51.007],[3.4221,51.0395],[3.4438,51.0493],[3.3307,51.1001],[3.3745,51.1181],[3.4103,51.1611],[3.387,51.1872],[3.3598,51.1928],[3.3841,51.2036],[3.367,51.2296],[3.3988,51.2447]]]}},{"type":"Feature","id":"Flemish Brabant","properties":{"id":"Flemish Brabant","iso_code":"BE-VBR","name":"Flemish Brabant","name_full":"Flemish Brabant","name_ja":"フラームス＝ブラバント州","center_lonlat":[4.5728,50.8718]},"geometry":{"type":"Polygon","coordinates":[[[4.0997,50.7071],[4.0727,50.7129],[4.0585,50.696],[3.9282,50.6898],[3.8928,50.7064],[3.895,50.7342],[3.9506,50.7341],[3.9312,50.7576],[3.9563,50.7798],[3.9822,50.7668],[4.0604,50.7926],[4.0749,50.8207],[4.066,50.8354],[4.0404,50.8384],[4.0871,50.8814],[4.0736,50.9],[4.1001,50.9125],[4.0913,50.9318],[4.137,50.9196],[4.1602,50.9299],[4.1465,50.9706],[4.1617,50.9906],[4.2171,50.9901],[4.2403,51.0381],[4.2989,51.041],[4.3482,51.027],[4.3479,51.0179],[4.3791,51.0311],[4.3695,51.0159],[4.3882,51.0123],[4.3931,50.9975],[4.4538,51.0068],[4.4761,50.9924],[4.4943,51.0097],[4.528,50.9934],[4.5462,51.0041],[4.5934,50.9921],[4.6065,51.0125],[4.6794,51.0248],[4.7063,51.0156],[4.6949,50.9998],[4.7339,51.0274],[4.7887,51.0401],[4.8185,51.0111],[4.9483,51.0457],[4.9809,51.036],[5.0063,51.0404],[5.0225,51.0207],[5.0632,51.0175],[5.081,51.0245],[5.0809,51.0495],[5.1089,51.0519],[5.1583,51.0235],[5.118,51.0233],[5.1244,50.9998],[5.0826,50.9877],[5.0817,50.9656],[5.0415,50.9431],[5.0612,50.918],[5.0946,50.911],[5.1332,50.9225],[5.1862,50.9063],[5.1775,50.8786],[5.1532,50.8796],[5.1365,50.8503],[5.1295,50.8166],[5.1516,50.8116],[5.1064,50.782],[5.1146,50.7636],[5.1011,50.7433],[5.1204,50.736],[5.1011,50.7098],[5.0595,50.7116],[5.043,50.7251],[5.0435,50.7428],[5.0191,50.7519],[4.9814,50.7709],[4.9172,50.7448],[4.9045,50.7516],[4.908,50.7696],[4.8326,50.7646],[4.8369,50.7755],[4.7496,50.8087],[4.7142,50.7898],[4.6405,50.7996],[4.6363,50.774],[4.6546,50.7584],[4.6352,50.7441],[4.6018,50.743],[4.5966,50.7647],[4.5292,50.7418],[4.5269,50.7294],[4.48,50.759],[4.3737,50.7318],[4.3679,50.7167],[4.3299,50.7343],[4.3226,50.729],[4.3332,50.719],[4.3114,50.7188],[4.3088,50.7036],[4.2872,50.6952],[4.24,50.692],[4.149,50.7304],[4.0997,50.7071]],[[4.4797,50.7954],[4.4465,50.811],[4.4761,50.8215],[4.4602,50.8532],[4.42,50.8695],[4.4362,50.8893],[4.4033,50.9148],[4.3773,50.8986],[4.3346,50.9031],[4.2979,50.8915],[4.279,50.8678],[4.2892,50.8564],[4.2828,50.8396],[4.2575,50.8369],[4.2456,50.8216],[4.283,50.8084],[4.3012,50.8144],[4.3276,50.779],[4.3772,50.7646],[4.4797,50.7954]]]}},{"type":"Feature","id":"Hainaut","properties":{"id":"Hainaut","iso_code":"BE-WHT","name":"Hainaut","name_full":"Hainaut","name_ja":"エノー州","center_lonlat":[3.9667,50.4613]},"geometry":{"type":"MultiPolygon","coordinates":[[[[3.1628,50.7499],[3.2197,50.7673],[3.2608,50.7523],[3.3033,50.7564],[3.3246,50.7372],[3.3231,50.7235],[3.3635,50.7097],[3.4576,50.7685],[3.4941,50.7589],[3.534,50.7664],[3.5405,50.7349],[3.6066,50.7342],[3.6347,50.7219],[3.6753,50.7719],[3.7578,50.7803],[3.7746,50.749],[3.8844,50.7514],[3.895,50.7342],[3.8928,50.7064],[3.9282,50.6898],[4.0585,50.696],[4.0727,50.7129],[4.0997,50.7071],[4.1124,50.7069],[4.0942,50.7035],[4.0902,50.6906],[4.1011,50.636],[4.1418,50.6336],[4.1843,50.6639],[4.2037,50.6477],[4.1986,50.6268],[4.252,50.6182],[4.2465,50.5973],[4.2789,50.593],[4.3041,50.5681],[4.3336,50.57],[4.3308,50.5446],[4.3558,50.5624],[4.4125,50.5663],[4.4681,50.5596],[4.4701,50.5297],[4.5031,50.5407],[4.5166,50.5272],[4.5768,50.5434],[4.5589,50.4941],[4.5948,50.4999],[4.587,50.4906],[4.5993,50.4798],[4.5727,50.4418],[4.616,50.4252],[4.5851,50.4012],[4.6058,50.3857],[4.5816,50.36],[4.5879,50.3225],[4.5203,50.3154],[4.502,50.3304],[4.4742,50.3288],[4.4538,50.3062],[4.3983,50.3112],[4.3902,50.2925],[4.286,50.258],[4.3389,50.2298],[4.3651,50.2437],[4.4005,50.2337],[4.3884,50.2017],[4.3966,50.1874],[4.3601,50.1693],[4.3984,50.1264],[4.3853,50.1093],[4.3862,50.0693],[4.3906,50.053],[4.4067,50.0493],[4.4147,49.9973],[4.444,49.959],[4.4277,49.9336],[4.2776,49.9602],[4.2011,49.953],[4.1317,49.975],[4.1373,50.0251],[4.21,50.0602],[4.1806,50.1272],[4.1258,50.1282],[4.1527,50.2045],[4.2013,50.2415],[4.1976,50.2585],[4.1628,50.273],[4.1437,50.2516],[4.1253,50.2571],[4.0979,50.2948],[4.0033,50.3441],[3.8959,50.3253],[3.8402,50.3452],[3.755,50.3463],[3.6969,50.2982],[3.6617,50.3193],[3.6444,50.4455],[3.6083,50.4765],[3.4991,50.4868],[3.4867,50.4927],[3.498,50.5119],[3.4771,50.5199],[3.3611,50.4898],[3.271,50.5269],[3.2298,50.6554],[3.2438,50.6721],[3.2324,50.6959],[3.189,50.7151],[3.1628,50.7499]]],[[[2.8667,50.7001],[2.8422,50.7508],[2.8754,50.7625],[2.9181,50.7577],[2.9602,50.7768],[2.9406,50.7967],[2.9988,50.8116],[3.0144,50.8051],[3.0238,50.7683],[2.9484,50.7487],[2.9001,50.7031],[2.8667,50.7001]]]]}},{"type":"Feature","id":"Liege","properties":{"id":"Liege","iso_code":"BE-WLG","name":"Liege","name_full":"Liège","name_ja":"リエージュ州","center_lonlat":[5.7231,50.5206]},"geometry":{"type":"Polygon","coordinates":[[[6.023,50.1508],[6.0199,50.1947],[6.0338,50.2048],[6.0075,50.2187],[6.013,50.3118],[5.9793,50.3309],[5.8581,50.3479],[5.8493,50.3295],[5.8678,50.3195],[5.8455,50.2846],[5.8803,50.2813],[5.8738,50.2715],[5.8104,50.2659],[5.8039,50.2561],[5.7809,50.269],[5.7207,50.2631],[5.7476,50.2998],[5.7206,50.3041],[5.7045,50.3216],[5.7208,50.3575],[5.6703,50.3576],[5.675,50.3696],[5.6419,50.3682],[5.5877,50.4006],[5.5371,50.3919],[5.5086,50.426],[5.4685,50.4091],[5.4118,50.4303],[5.4057,50.4234],[5.4257,50.4006],[5.3924,50.3805],[5.3499,50.3897],[5.2951,50.3662],[5.2813,50.3785],[5.2824,50.3969],[5.2328,50.4056],[5.2205,50.4184],[5.2361,50.4381],[5.2176,50.4647],[5.1959,50.4786],[5.1621,50.4699],[5.156,50.4906],[5.1363,50.4888],[5.1293,50.5046],[5.1428,50.5129],[5.1054,50.5074],[5.0904,50.5309],[5.0346,50.5329],[5.0534,50.5419],[5.0277,50.5899],[4.9791,50.6193],[4.9826,50.6434],[5.0018,50.6662],[5.0008,50.6958],[5.0166,50.703],[4.992,50.7253],[5.0158,50.7335],[5.0191,50.7519],[5.0435,50.7428],[5.043,50.7251],[5.0595,50.7116],[5.1011,50.7098],[5.1677,50.6973],[5.1804,50.7072],[5.1694,50.7236],[5.2289,50.7188],[5.2362,50.7282],[5.2434,50.7169],[5.2756,50.7294],[5.3074,50.7184],[5.3321,50.741],[5.3782,50.7508],[5.431,50.7209],[5.4532,50.7223],[5.4612,50.74],[5.4968,50.7289],[5.5238,50.7438],[5.5219,50.76],[5.6085,50.7764],[5.6574,50.8076],[5.7005,50.7956],[5.6884,50.7608],[5.7328,50.7589],[5.7503,50.7469],[5.776,50.7512],[5.8183,50.7156],[5.8782,50.711],[5.9102,50.736],[5.8913,50.7512],[5.9949,50.7499],[6.0108,50.7371],[6.0115,50.7085],[6.081,50.7135],[6.1002,50.7013],[6.1611,50.6422],[6.1478,50.6368],[6.1594,50.6224],[6.2491,50.6144],[6.2329,50.5871],[6.1607,50.5436],[6.1773,50.5302],[6.1708,50.518],[6.1906,50.5152],[6.1826,50.5066],[6.2072,50.4863],[6.2556,50.4946],[6.3369,50.481],[6.3233,50.466],[6.3512,50.4336],[6.3377,50.3681],[6.3745,50.3155],[6.286,50.3039],[6.2694,50.2865],[6.2718,50.2674],[6.1572,50.2227],[6.1468,50.214],[6.1651,50.1819],[6.1232,50.1649],[6.1158,50.1455],[6.1295,50.134],[6.1175,50.1205],[6.1026,50.1247],[6.0842,50.1593],[6.023,50.1508]]]}},{"type":"Feature","id":"Limburg","properties":{"id":"Limburg","iso_code":"BE-VLI","name":"Limburg","name_full":"Limburg","name_ja":"リンブルフ州","center_lonlat":[5.4175,50.993]},"geometry":{"type":"MultiPolygon","coordinates":[[[[5.6574,50.8076],[5.6085,50.7764],[5.5219,50.76],[5.5238,50.7438],[5.4968,50.7289],[5.4612,50.74],[5.4532,50.7223],[5.431,50.7209],[5.3782,50.7508],[5.3321,50.741],[5.3074,50.7184],[5.2756,50.7294],[5.2434,50.7169],[5.2362,50.7282],[5.2289,50.7188],[5.1694,50.7236],[5.1804,50.7072],[5.1677,50.6973],[5.1011,50.7098],[5.1204,50.736],[5.1011,50.7433],[5.1146,50.7636],[5.1064,50.782],[5.1516,50.8116],[5.1295,50.8166],[5.1365,50.8503],[5.1532,50.8796],[5.1775,50.8786],[5.1862,50.9063],[5.1332,50.9225],[5.0946,50.911],[5.0612,50.918],[5.0415,50.9431],[5.0817,50.9656],[5.0826,50.9877],[5.1244,50.9998],[5.118,51.0233],[5.1583,51.0235],[5.1089,51.0519],[5.0809,51.0495],[5.081,51.0245],[5.0632,51.0175],[5.0225,51.0207],[5.0063,51.0404],[4.9809,51.036],[5.0097,51.0614],[5.0098,51.0751],[5.0899,51.0852],[5.1303,51.1176],[5.1804,51.1192],[5.203,51.14],[5.2354,51.134],[5.2604,51.1481],[5.2572,51.1885],[5.2165,51.2125],[5.2395,51.2569],[5.3891,51.2587],[5.4932,51.2865],[5.5352,51.262],[5.5455,51.2199],[5.5684,51.2077],[5.659,51.1791],[5.7308,51.1838],[5.7814,51.1524],[5.8291,51.1565],[5.8405,51.1389],[5.8232,51.1187],[5.846,51.1034],[5.8049,51.0966],[5.8118,51.0823],[5.7988,51.0615],[5.7715,51.0581],[5.764,51.0352],[5.7776,51.0236],[5.7224,50.9594],[5.764,50.9594],[5.7224,50.9117],[5.6223,50.8527],[5.6245,50.8303],[5.6574,50.8076]]],[[[5.8913,50.7512],[5.9102,50.736],[5.8782,50.711],[5.8183,50.7156],[5.776,50.7512],[5.7503,50.7469],[5.7328,50.7589],[5.7524,50.7734],[5.7932,50.7521],[5.8913,50.7512]]]]}},{"type":"Feature","id":"Luxembourg","properties":{"id":"Luxembourg","iso_code":"BE-WLX","name":"Luxembourg","name_full":"Luxembourg","name_ja":"ルクセンブルク広域行政区","center_lonlat":[5.5056,49.962]},"geometry":{"type":"Polygon","coordinates":[[[4.9684,49.797],[4.9763,49.8209],[4.9892,49.8234],[4.9849,49.8513],[5.0599,49.8861],[5.0432,49.8969],[5.0687,49.9124],[5.1189,49.9253],[5.0972,49.9393],[5.101,49.9616],[5.0626,49.9848],[5.0094,49.9827],[4.9965,50.0153],[4.9722,50.0306],[5.0496,50.0637],[5.0662,50.1248],[5.0721,50.0968],[5.0933,50.092],[5.2622,50.1096],[5.2673,50.1203],[5.2418,50.1355],[5.2703,50.1414],[5.2796,50.1595],[5.2335,50.1963],[5.2444,50.2062],[5.2059,50.2199],[5.2533,50.2271],[5.2507,50.2388],[5.273,50.2485],[5.2945,50.2404],[5.3927,50.2881],[5.3834,50.3192],[5.3401,50.3118],[5.3944,50.3378],[5.3802,50.3496],[5.4012,50.3676],[5.3924,50.3805],[5.4257,50.4006],[5.4057,50.4234],[5.4118,50.4303],[5.4685,50.4091],[5.5086,50.426],[5.5371,50.3919],[5.5877,50.4006],[5.6419,50.3682],[5.675,50.3696],[5.6703,50.3576],[5.7208,50.3575],[5.7045,50.3216],[5.7206,50.3041],[5.7476,50.2998],[5.7207,50.2631],[5.7809,50.269],[5.8039,50.2561],[5.8104,50.2659],[5.8738,50.2715],[5.8803,50.2813],[5.8455,50.2846],[5.8678,50.3195],[5.8493,50.3295],[5.8581,50.3479],[5.9793,50.3309],[6.013,50.3118],[6.0075,50.2187],[6.0338,50.2048],[6.0199,50.1947],[6.023,50.1508],[5.9983,50.175],[5.9616,50.1656],[5.9411,50.1283],[5.8724,50.0969],[5.8644,50.0675],[5.8377,50.0474],[5.8364,50.0185],[5.8027,50.0025],[5.8126,49.9776],[5.7637,49.9468],[5.7149,49.8819],[5.7581,49.8582],[5.7319,49.86],[5.7269,49.8452],[5.7365,49.8394],[5.7202,49.8247],[5.7277,49.8002],[5.7785,49.773],[5.8054,49.7219],[5.8502,49.714],[5.8573,49.7004],[5.8458,49.6666],[5.8799,49.6577],[5.8855,49.6435],[5.83,49.5828],[5.8469,49.5767],[5.8145,49.5451],[5.7907,49.5378],[5.7463,49.5494],[5.7103,49.5311],[5.6446,49.5438],[5.6023,49.5137],[5.5476,49.5234],[5.4777,49.4952],[5.4561,49.4989],[5.4502,49.5458],[5.4021,49.6025],[5.3349,49.6258],[5.3217,49.6126],[5.2979,49.6133],[5.2994,49.6625],[5.2592,49.6913],[5.1694,49.6872],[5.0819,49.7527],[4.9684,49.797]]]}},{"type":"Feature","id":"Namur","properties":{"id":"Namur","iso_code":"BE-WNA","name":"Namur","name_full":"Namur","name_ja":"ナミュール州","center_lonlat":[4.8519,50.2529]},"geometry":{"type":"Polygon","coordinates":[[[4.4277,49.9336],[4.444,49.959],[4.4147,49.9973],[4.4067,50.0493],[4.3906,50.053],[4.3862,50.0693],[4.3853,50.1093],[4.3984,50.1264],[4.3601,50.1693],[4.3966,50.1874],[4.3884,50.2017],[4.4005,50.2337],[4.3651,50.2437],[4.3389,50.2298],[4.286,50.258],[4.3902,50.2925],[4.3983,50.3112],[4.4538,50.3062],[4.4742,50.3288],[4.502,50.3304],[4.5203,50.3154],[4.5879,50.3225],[4.5816,50.36],[4.6058,50.3857],[4.5851,50.4012],[4.616,50.4252],[4.5727,50.4418],[4.5993,50.4798],[4.587,50.4906],[4.5948,50.4999],[4.5589,50.4941],[4.5768,50.5434],[4.5732,50.5604],[4.5901,50.5689],[4.6666,50.5654],[4.655,50.5966],[4.6661,50.6085],[4.7037,50.5961],[4.7341,50.6117],[4.7405,50.5916],[4.7807,50.6016],[4.7919,50.591],[4.7932,50.6057],[4.9279,50.6284],[4.9508,50.648],[4.9826,50.6434],[4.9791,50.6193],[5.0277,50.5899],[5.0534,50.5419],[5.0346,50.5329],[5.0904,50.5309],[5.1054,50.5074],[5.1428,50.5129],[5.1293,50.5046],[5.1363,50.4888],[5.156,50.4906],[5.1621,50.4699],[5.1959,50.4786],[5.2176,50.4647],[5.2361,50.4381],[5.2205,50.4184],[5.2328,50.4056],[5.2824,50.3969],[5.2813,50.3785],[5.2951,50.3662],[5.3499,50.3897],[5.3924,50.3805],[5.4012,50.3676],[5.3802,50.3496],[5.3944,50.3378],[5.3401,50.3118],[5.3834,50.3192],[5.3927,50.2881],[5.2945,50.2404],[5.273,50.2485],[5.2507,50.2388],[5.2533,50.2271],[5.2059,50.2199],[5.2444,50.2062],[5.2335,50.1963],[5.2796,50.1595],[5.2703,50.1414],[5.2418,50.1355],[5.2673,50.1203],[5.2622,50.1096],[5.0933,50.092],[5.0721,50.0968],[5.0662,50.1248],[5.0496,50.0637],[4.9722,50.0306],[4.9965,50.0153],[5.0094,49.9827],[5.0626,49.9848],[5.101,49.9616],[5.0972,49.9393],[5.1189,49.9253],[5.0687,49.9124],[5.0432,49.8969],[5.0599,49.8861],[4.9849,49.8513],[4.9892,49.8234],[4.9763,49.8209],[4.9684,49.797],[4.8842,49.7841],[4.849,49.7942],[4.8492,49.8316],[4.8349,49.853],[4.8602,49.9133],[4.7839,49.9583],[4.8267,50.036],[4.8272,50.0641],[4.846,50.0907],[4.8629,50.0841],[4.8719,50.1398],[4.8201,50.1464],[4.8156,50.1613],[4.6819,50.0839],[4.6729,50.0164],[4.6567,49.9891],[4.4277,49.9336]]]}},{"type":"Feature","id":"Walloon Brabant","properties":{"id":"Walloon Brabant","iso_code":"BE-WBR","name":"Walloon Brabant","name_full":"Walloon Brabant","name_ja":"ブラバン・ワロン州","center_lonlat":[4.5833,50.6709]},"geometry":{"type":"Polygon","coordinates":[[[4.0997,50.7071],[4.149,50.7304],[4.24,50.692],[4.2872,50.6952],[4.3088,50.7036],[4.3114,50.7188],[4.3332,50.719],[4.3226,50.729],[4.3299,50.7343],[4.3679,50.7167],[4.3737,50.7318],[4.48,50.759],[4.5269,50.7294],[4.5292,50.7418],[4.5966,50.7647],[4.6018,50.743],[4.6352,50.7441],[4.6546,50.7584],[4.6363,50.774],[4.6405,50.7996],[4.7142,50.7898],[4.7496,50.8087],[4.8369,50.7755],[4.8326,50.7646],[4.908,50.7696],[4.9045,50.7516],[4.9172,50.7448],[4.9814,50.7709],[5.0191,50.7519],[5.0158,50.7335],[4.992,50.7253],[5.0166,50.703],[5.0008,50.6958],[5.0018,50.6662],[4.9826,50.6434],[4.9508,50.648],[4.9279,50.6284],[4.7932,50.6057],[4.7919,50.591],[4.7807,50.6016],[4.7405,50.5916],[4.7341,50.6117],[4.7037,50.5961],[4.6661,50.6085],[4.655,50.5966],[4.6666,50.5654],[4.5901,50.5689],[4.5732,50.5604],[4.5768,50.5434],[4.5166,50.5272],[4.5031,50.5407],[4.4701,50.5297],[4.4681,50.5596],[4.4125,50.5663],[4.3558,50.5624],[4.3308,50.5446],[4.3336,50.57],[4.3041,50.5681],[4.2789,50.593],[4.2465,50.5973],[4.252,50.6182],[4.1986,50.6268],[4.2037,50.6477],[4.1843,50.6639],[4.1418,50.6336],[4.1011,50.636],[4.0902,50.6906],[4.0942,50.7035],[4.1124,50.7069],[4.0997,50.7071]]]}},{"type":"Feature","id":"West Flanders","properties":{"id":"West Flanders","iso_code":"BE-VWV","name":"West Flanders","name_full":"West Flanders","name_ja":"ウェスト＝フランデレン州","center_lonlat":[3.0437,51.0117]},"geometry":{"type":"Polygon","coordinates":[[[3.3988,51.2447],[3.367,51.2296],[3.3841,51.2036],[3.3598,51.1928],[3.387,51.1872],[3.4103,51.1611],[3.3745,51.1181],[3.3307,51.1001],[3.4438,51.0493],[3.4221,51.0395],[3.452,51.007],[3.4259,50.9824],[3.443,50.9678],[3.4121,50.959],[3.4602,50.9437],[3.4401,50.9439],[3.4553,50.9344],[3.4484,50.9299],[3.4247,50.9321],[3.4326,50.9206],[3.4192,50.9122],[3.4273,50.8984],[3.4661,50.9034],[3.474,50.8846],[3.4505,50.8693],[3.5124,50.8355],[3.4995,50.8252],[3.5225,50.8052],[3.4576,50.7685],[3.3635,50.7097],[3.3231,50.7235],[3.3246,50.7372],[3.3033,50.7564],[3.2608,50.7523],[3.2197,50.7673],[3.1628,50.7499],[3.1292,50.7791],[3.1033,50.7841],[3.0238,50.7683],[3.0144,50.8051],[2.9988,50.8116],[2.9406,50.7967],[2.9602,50.7768],[2.9181,50.7577],[2.8754,50.7625],[2.8422,50.7508],[2.8667,50.7001],[2.7867,50.7234],[2.6919,50.8088],[2.6204,50.8165],[2.5867,50.8454],[2.5967,50.8676],[2.5769,50.9115],[2.6117,50.9412],[2.6084,50.9611],[2.557,51.0012],[2.5218,51.0875],[3.1248,51.3297],[3.3494,51.3752],[3.3532,51.2886],[3.3674,51.2635],[3.3988,51.2447]]]}}]}
