{"type":"FeatureCollection","features":[{"type":"Feature","id":"Belize","properties":{"id":"Belize","iso_code":"BZ-BZ","name":"Belize","name_full":"Belize","name_ja":"ベリーズ州","center_lonlat":[-88.4148,17.5512]},"geometry":{"type":"MultiPolygon","coordinates":[[[[-88.1669,17.9599],[-88.2083,17.882],[-88.2143,17.7731],[-88.2388,17.6904],[-88.2877,17.6042],[-88.2833,17.5803],[-88.2186,17.5273],[-88.1673,17.512],[-88.1794,17.4926],[-88.2308,17.4965],[-88.2423,17.4875],[-88.2863,17.3397],[-88.3005,17.1779],[-88.2894,17.1358],[-88.3375,17.1092],[-88.6024,17.1045],[-88.5726,17.1183],[-88.5491,17.1943],[-88.57,17.2343],[-88.585,17.4899],[-88.6289,17.454],[-88.6406,17.6168],[-88.6163,17.6689],[-88.5639,17.693],[-88.5705,17.7821],[-88.5591,17.8887],[-88.5062,17.9176],[-88.2843,17.9723],[-88.1669,17.9599]]],[[[-87.9134,18.0259],[-87.9151,17.9827],[-87.9346,17.9429],[-87.9658,17.9138],[-88.009,17.9025],[-87.9459,17.9518],[-87.9407,17.9775],[-87.9565,17.9768],[-87.9523,18.0078],[-87.9049,18.1532],[-87.8573,18.1697],[-87.849,18.1338],[-87.8998,18.039],[-87.9134,18.0465],[-87.9339,18.0191],[-87.9265,17.998],[-87.9134,18.0259]]],[[[-87.8277,17.5456],[-87.7892,17.532],[-87.7872,17.4969],[-87.8313,17.4237],[-87.8458,17.4146],[-87.8656,17.4295],[-87.9001,17.3918],[-87.9265,17.2786],[-87.9407,17.2923],[-87.9095,17.4263],[-87.8588,17.4704],[-87.8213,17.4636],[-87.8039,17.4919],[-87.8104,17.5256],[-87.8383,17.512],[-87.8277,17.5456]]],[[[-88.1605,17.6828],[-88.0711,17.7343],[-88.0803,17.7018],[-88.1037,17.6818],[-88.1673,17.6691],[-88.1605,17.6828]]],[[[-87.8383,17.3885],[-87.8258,17.3992],[-87.8142,17.3813],[-87.7974,17.3332],[-87.8036,17.2923],[-87.8104,17.306],[-87.8246,17.2923],[-87.8272,17.3781],[-87.8383,17.3885]]],[[[-88.0956,17.5174],[-88.0677,17.4905],[-88.0771,17.4611],[-88.0885,17.4953],[-88.1173,17.5129],[-88.1105,17.523],[-88.0956,17.5174]]],[[[-88.0773,17.6418],[-88.0536,17.6063],[-88.0438,17.553],[-88.0773,17.6418]]],[[[-87.8784,18.2082],[-87.8878,18.1756],[-87.8908,18.1975],[-87.8784,18.2082]]],[[[-87.9691,18.0909],[-87.9625,18.08],[-87.9814,18.0713],[-87.9691,18.0909]]],[[[-87.9395,18.1186],[-87.9364,18.1039],[-87.954,18.0883],[-87.9395,18.1186]]]]}},{"type":"Feature","id":"Cayo","properties":{"id":"Cayo","iso_code":"BZ-CY","name":"Cayo","name_full":"Cayo","name_ja":"カヨ州","center_lonlat":[-88.8985,16.9989]},"geometry":{"type":"Polygon","coordinates":[[[-89.1931,16.3926],[-89.1492,17.0363],[-89.1507,17.321],[-89.0649,17.3763],[-88.9218,17.3846],[-88.8776,17.4142],[-88.7469,17.4139],[-88.6506,17.4565],[-88.6289,17.454],[-88.585,17.4899],[-88.57,17.2343],[-88.5491,17.1943],[-88.5726,17.1183],[-88.6024,17.1045],[-88.6021,17.0863],[-88.5674,17.0366],[-88.6097,16.9677],[-88.6631,16.9119],[-88.6661,16.8563],[-88.6907,16.8334],[-88.6734,16.8134],[-88.7278,16.7924],[-88.7719,16.7177],[-88.7742,16.681],[-88.8074,16.6682],[-88.8208,16.6502],[-88.8194,16.6136],[-88.8557,16.5818],[-88.9447,16.5383],[-88.9565,16.5133],[-89.0014,16.4977],[-89.0269,16.5129],[-89.0706,16.4766],[-89.1468,16.4568],[-89.1931,16.3926]]]}},{"type":"Feature","id":"Corozal","properties":{"id":"Corozal","iso_code":"BZ-CZL","name":"Corozal","name_full":"Corozal","name_ja":"コロザル州","center_lonlat":[-88.3232,18.2272]},"geometry":{"type":"Polygon","coordinates":[[[-88.1669,17.9599],[-88.2843,17.9723],[-88.4218,18.0914],[-88.4944,18.186],[-88.6141,18.247],[-88.6077,18.2834],[-88.5548,18.3522],[-88.5278,18.4541],[-88.4892,18.4845],[-88.4596,18.4757],[-88.4132,18.4908],[-88.3908,18.4757],[-88.3095,18.4823],[-88.2866,18.4628],[-88.391,18.3706],[-88.3654,18.3541],[-88.3175,18.3748],[-88.358,18.3037],[-88.2757,18.3582],[-88.2368,18.3581],[-88.1947,18.3406],[-88.0968,18.3754],[-88.099,18.3484],[-88.1417,18.3244],[-88.1465,18.3093],[-88.0917,18.3284],[-88.0915,18.1184],[-88.1496,17.9713],[-88.1669,17.9599]]]}},{"type":"Feature","id":"Orange Walk","properties":{"id":"Orange Walk","iso_code":"BZ-OW","name":"Orange Walk","name_full":"Orange Walk","name_ja":"オレンジウォーク州","center_lonlat":[-88.8107,17.7685]},"geometry":{"type":"Polygon","coordinates":[[[-89.1507,17.321],[-89.1539,17.9411],[-89.1326,17.9703],[-89.0494,17.9992],[-88.9798,17.9494],[-88.947,17.9485],[-88.9333,17.9204],[-88.8714,17.891],[-88.8564,17.9283],[-88.8054,17.965],[-88.7769,18.0238],[-88.7266,18.0667],[-88.6895,18.1612],[-88.6966,18.1781],[-88.627,18.2203],[-88.6141,18.247],[-88.4944,18.186],[-88.4218,18.0914],[-88.2843,17.9723],[-88.5062,17.9176],[-88.5591,17.8887],[-88.5705,17.7821],[-88.5639,17.693],[-88.6163,17.6689],[-88.6406,17.6168],[-88.6289,17.454],[-88.6506,17.4565],[-88.7469,17.4139],[-88.8776,17.4142],[-88.9218,17.3846],[-89.0649,17.3763],[-89.1507,17.321]]]}},{"type":"Feature","id":"Stann Creek","properties":{"id":"Stann Creek","iso_code":"BZ-SC","name":"Stann Creek","name_full":"Stann Creek","name_ja":"スタンクリーク州","center_lonlat":[-88.4654,16.8333]},"geometry":{"type":"Polygon","coordinates":[[[-88.2894,17.1358],[-88.2794,17.0915],[-88.2365,17.0642],[-88.2151,16.9671],[-88.2785,16.9074],[-88.2789,16.873],[-88.2486,16.8131],[-88.2824,16.8034],[-88.3016,16.7717],[-88.3062,16.6529],[-88.3312,16.6207],[-88.3481,16.5673],[-88.3448,16.5246],[-88.3629,16.5058],[-88.3345,16.6351],[-88.3113,16.6623],[-88.3376,16.6492],[-88.3864,16.5593],[-88.3659,16.5518],[-88.3932,16.5518],[-88.3885,16.5389],[-88.3728,16.5382],[-88.3901,16.4977],[-88.4084,16.5109],[-88.5588,16.519],[-88.5514,16.5721],[-88.5881,16.6233],[-88.5931,16.663],[-88.6329,16.686],[-88.7452,16.6901],[-88.7742,16.681],[-88.7719,16.7177],[-88.7278,16.7924],[-88.6734,16.8134],[-88.6907,16.8334],[-88.6661,16.8563],[-88.6631,16.9119],[-88.6097,16.9677],[-88.5674,17.0366],[-88.6021,17.0863],[-88.6024,17.1045],[-88.3375,17.1092],[-88.2894,17.1358]]]}},{"type":"Feature","id":"Toledo","properties":{"id":"Toledo","iso_code":"BZ-TOL","name":"Toledo","name_full":"Toledo","name_ja":"トレド州","center_lonlat":[-88.8814,16.2997]},"geometry":{"type":"Polygon","coordinates":[[[-89.1931,16.3926],[-89.1468,16.4568],[-89.0706,16.4766],[-89.0269,16.5129],[-89.0014,16.4977],[-88.9565,16.5133],[-88.9447,16.5383],[-88.8557,16.5818],[-88.8194,16.6136],[-88.8208,16.6502],[-88.8074,16.6682],[-88.7742,16.681],[-88.7452,16.6901],[-88.6329,16.686],[-88.5931,16.663],[-88.5881,16.6233],[-88.5514,16.5721],[-88.5588,16.519],[-88.4084,16.5109],[-88.3901,16.4977],[-88.4256,16.4372],[-88.4444,16.4289],[-88.4478,16.3948],[-88.4706,16.3886],[-88.5267,16.3088],[-88.5366,16.2713],[-88.5714,16.2638],[-88.5782,16.244],[-88.5782,16.2855],[-88.6059,16.2606],[-88.6299,16.2875],[-88.6466,16.2866],[-88.6539,16.2576],[-88.7401,16.2302],[-88.7457,16.1549],[-88.8475,16.0652],[-88.8563,16.0283],[-88.8996,16.0108],[-88.9276,15.9839],[-88.914,15.8939],[-88.9519,15.8797],[-89.0403,15.9017],[-89.1774,15.9003],[-89.2282,15.8808],[-89.2365,15.8939],[-89.1931,16.3926]]]}}]}
