{"type":"FeatureCollection","features":[{"type":"Feature","id":"Alibori","properties":{"id":"Alibori","iso_code":"BJ-AL","name":"Alibori","name_full":"Alibori","name_ja":"アリボリ県","center_lonlat":[2.9005,11.3263]},"geometry":{"type":"Polygon","coordinates":[[[3.8372,10.6306],[3.4581,10.5891],[3.2172,10.5408],[2.9758,10.5209],[2.775,10.5522],[2.6145,10.5306],[2.457,10.5423],[2.255,10.5178],[2.2662,10.524],[2.263,10.8589],[2.2967,10.9111],[2.3562,10.9601],[2.3119,10.9991],[2.264,11.0121],[2.0154,11.4316],[2.147,11.5637],[2.2874,11.6653],[2.3016,11.7315],[2.3541,11.7998],[2.3902,11.8965],[2.3765,11.9241],[2.3809,11.9479],[2.4074,11.9512],[2.4289,11.9804],[2.4567,11.9791],[2.4553,12.0087],[2.4056,12.0467],[2.3719,12.1404],[2.3612,12.2189],[2.37,12.2363],[2.4437,12.2492],[2.4595,12.2667],[2.4777,12.2576],[2.4951,12.2832],[2.5237,12.2692],[2.6286,12.3008],[2.6638,12.2916],[2.7004,12.3471],[2.7323,12.3468],[2.7685,12.3801],[2.8324,12.3841],[2.8443,12.3992],[2.9126,12.3463],[2.945,12.2925],[3.0094,12.2763],[3.0634,12.1938],[3.252,12.0241],[3.2699,11.9565],[3.307,11.9024],[3.3416,11.8829],[3.3809,11.895],[3.4954,11.8375],[3.5537,11.7697],[3.5717,11.7219],[3.5964,11.6958],[3.5049,11.5566],[3.4684,11.4195],[3.6625,11.1431],[3.6867,11.1205],[3.7221,11.1123],[3.7118,11.0519],[3.7541,10.9071],[3.73,10.8077],[3.7833,10.717],[3.823,10.7033],[3.8372,10.6306]]]}},{"type":"Feature","id":"Atakora","properties":{"id":"Atakora","iso_code":"BJ-AK","name":"Atakora","name_full":"Atakora","name_ja":"アタコラ県","center_lonlat":[1.5841,10.6849]},"geometry":{"type":"Polygon","coordinates":[[[2.0154,11.4316],[2.264,11.0121],[2.3119,10.9991],[2.3562,10.9601],[2.2967,10.9111],[2.263,10.8589],[2.2662,10.524],[2.255,10.5178],[2.2024,10.4682],[2.1822,10.401],[2.2452,10.3001],[2.2627,10.2384],[2.2676,10.1349],[2.2011,10.0979],[2.1109,10.0855],[2.0889,10.06],[2.0919,10.0315],[1.8079,10.0404],[1.6599,9.959],[1.6096,9.9469],[1.4132,9.9705],[1.3439,9.9548],[1.331,9.9965],[0.7607,10.3822],[0.7885,10.5639],[0.7813,10.693],[0.7956,10.7265],[0.8629,10.7961],[0.8851,10.8694],[0.8758,10.9312],[0.9015,10.9927],[0.9633,10.9741],[0.9691,11.0029],[0.9553,11.012],[0.9524,11.0424],[0.9814,11.0801],[1.0079,11.0751],[1.035,11.0493],[1.097,11.0493],[1.1142,11.0277],[1.1186,11.0482],[1.1009,11.0704],[1.097,11.1045],[1.0828,11.1107],[1.0828,11.1318],[1.0633,11.127],[1.0623,11.1421],[1.1004,11.1516],[1.1175,11.179],[1.1584,11.1659],[1.1356,11.2601],[1.1563,11.2855],[1.1722,11.2615],[1.219,11.268],[1.2684,11.2479],[1.2826,11.2789],[1.2733,11.3182],[1.3025,11.2888],[1.3163,11.2999],[1.3304,11.2888],[1.3479,11.3035],[1.3304,11.3472],[1.3391,11.3661],[1.3981,11.3987],[1.3898,11.4284],[1.4396,11.4738],[1.5693,11.4533],[1.5632,11.426],[1.5806,11.4271],[1.6016,11.3887],[1.7191,11.4278],[1.7822,11.426],[1.8406,11.4455],[1.8798,11.4449],[1.948,11.4167],[1.9834,11.414],[2.0154,11.4316]]]}},{"type":"Feature","id":"Atlantique","properties":{"id":"Atlantique","iso_code":"BJ-AQ","name":"Atlantique","name_full":"Atlantique","name_ja":"アトランティック県","center_lonlat":[2.2201,6.5987]},"geometry":{"type":"Polygon","coordinates":[[[2.3599,6.3364],[1.9877,6.2865],[1.9578,6.3923],[1.9932,6.4959],[1.9911,6.6094],[2.0174,6.6516],[2.0236,6.7065],[2.0392,6.7843],[2.0931,6.8949],[2.084,6.9193],[2.3849,6.9206],[2.4291,6.8243],[2.4445,6.5383],[2.4831,6.5045],[2.4874,6.459],[2.4676,6.3958],[2.3992,6.3841],[2.369,6.3609],[2.3599,6.3364]]]}},{"type":"Feature","id":"Borgou","properties":{"id":"Borgou","iso_code":"BJ-BO","name":"Borgou","name_full":"Borgou","name_ja":"ボルグー県","center_lonlat":[2.7614,9.776]},"geometry":{"type":"Polygon","coordinates":[[[3.8372,10.6306],[3.8299,10.5731],[3.7954,10.4965],[3.7877,10.4264],[3.7569,10.4053],[3.6928,10.4384],[3.6521,10.4358],[3.626,10.4073],[3.6182,10.3693],[3.5724,10.2857],[3.5876,10.2442],[3.6556,10.1748],[3.6675,10.1466],[3.6549,10.1011],[3.6058,10.0541],[3.5895,9.9488],[3.5131,9.8466],[3.4529,9.8531],[3.3259,9.8017],[3.3149,9.7591],[3.3386,9.6782],[3.3316,9.652],[3.2991,9.634],[3.2457,9.6337],[3.2436,9.5844],[3.1326,9.4573],[3.1514,9.2886],[3.076,9.0952],[2.9831,9.0606],[2.9299,9.0784],[2.8884,9.0754],[2.8463,9.0508],[2.7692,9.057],[2.7702,8.9672],[2.7478,8.9148],[2.7625,8.8957],[2.7459,8.8365],[2.7511,8.8034],[2.7289,8.7905],[2.7229,8.7712],[2.1946,8.7767],[2.1972,8.818],[2.088,8.8502],[2.0343,8.8944],[2.0273,8.9889],[2.0508,9.0914],[1.9845,9.1501],[1.9702,9.217],[1.9755,9.3077],[1.9901,9.351],[2.028,9.3667],[2.0947,9.3684],[2.1181,9.3866],[2.1613,9.6565],[2.1521,9.6885],[2.1019,9.7455],[2.0806,9.8054],[2.0965,9.9167],[2.0919,10.0315],[2.0889,10.06],[2.1109,10.0855],[2.2011,10.0979],[2.2676,10.1349],[2.2627,10.2384],[2.2452,10.3001],[2.1822,10.401],[2.2024,10.4682],[2.255,10.5178],[2.457,10.5423],[2.6145,10.5306],[2.775,10.5522],[2.9758,10.5209],[3.2172,10.5408],[3.4581,10.5891],[3.8372,10.6306]]]}},{"type":"Feature","id":"Collines","properties":{"id":"Collines","iso_code":"BJ-CO","name":"Collines","name_full":"Collines","name_ja":"コリネス県","center_lonlat":[2.1949,8.1224]},"geometry":{"type":"Polygon","coordinates":[[[2.7176,7.6585],[2.4982,7.6591],[2.4831,7.6175],[2.4853,7.5521],[2.4609,7.541],[2.4178,7.4749],[2.4275,7.426],[2.1776,7.5298],[2.0193,7.5416],[1.944,7.6004],[1.8894,7.6231],[1.8447,7.6324],[1.6229,7.6225],[1.6256,8.2705],[1.6149,8.3563],[1.6011,8.3716],[1.6076,8.4219],[1.6442,8.4935],[1.609,8.547],[1.6072,8.5886],[1.7142,8.588],[1.8297,8.6149],[1.8984,8.5629],[1.9566,8.5559],[1.9867,8.5236],[2.0548,8.4904],[2.1363,8.4756],[2.177,8.4813],[2.2195,8.5151],[2.2067,8.545],[2.2201,8.6307],[2.2037,8.72],[2.1872,8.7457],[2.1946,8.7767],[2.7229,8.7712],[2.7448,8.4983],[2.7369,8.4645],[2.7037,8.4179],[2.6971,8.3207],[2.7344,8.19],[2.7084,8.138],[2.6871,7.9335],[2.6711,7.8979],[2.7272,7.7933],[2.7176,7.6585]]]}},{"type":"Feature","id":"Donga","properties":{"id":"Donga","iso_code":"BJ-DO","name":"Donga","name_full":"Donga","name_ja":"ドンガ県","center_lonlat":[1.7889,9.3346]},"geometry":{"type":"Polygon","coordinates":[[[1.3439,9.9548],[1.4132,9.9705],[1.6096,9.9469],[1.6599,9.959],[1.8079,10.0404],[2.0919,10.0315],[2.0965,9.9167],[2.0806,9.8054],[2.1019,9.7455],[2.1521,9.6885],[2.1613,9.6565],[2.1181,9.3866],[2.0947,9.3684],[2.028,9.3667],[1.9901,9.351],[1.9755,9.3077],[1.9702,9.217],[1.9845,9.1501],[2.0508,9.0914],[2.0273,8.9889],[2.0343,8.8944],[2.088,8.8502],[2.1972,8.818],[2.1946,8.7767],[2.1872,8.7457],[2.2037,8.72],[2.2201,8.6307],[2.2067,8.545],[2.2195,8.5151],[2.177,8.4813],[2.1363,8.4756],[2.0548,8.4904],[1.9867,8.5236],[1.9566,8.5559],[1.8984,8.5629],[1.8297,8.6149],[1.7142,8.588],[1.6072,8.5886],[1.5958,9.0768],[1.5673,9.1367],[1.4012,9.3213],[1.3867,9.3611],[1.3799,9.4625],[1.3684,9.4908],[1.3513,9.4825],[1.3264,9.522],[1.356,9.6475],[1.3439,9.9548]]]}},{"type":"Feature","id":"Kouffo","properties":{"id":"Kouffo","iso_code":"BJ-KO","name":"Kouffo","name_full":"Kouffo","name_ja":"クッフォ県","center_lonlat":[1.7733,6.9968]},"geometry":{"type":"Polygon","coordinates":[[[1.6233,7.5364],[1.6556,7.5298],[1.6844,7.492],[1.7592,7.3056],[1.8579,7.1829],[1.8928,7.0718],[1.9747,6.989],[2.0005,6.9414],[2.0434,6.9127],[2.084,6.9193],[2.0931,6.8949],[2.0392,6.7843],[2.0236,6.7065],[1.9627,6.737],[1.8984,6.747],[1.6867,6.69],[1.648,6.6925],[1.5892,6.7205],[1.6011,6.7464],[1.5832,6.8083],[1.588,6.8812],[1.5514,6.9209],[1.5319,6.9919],[1.6257,6.9968],[1.6233,7.5364]]]}},{"type":"Feature","id":"Littoral","properties":{"id":"Littoral","iso_code":"BJ-LI","name":"Littoral","name_full":"Littoral","name_ja":"リトラル県","center_lonlat":[2.4244,6.3631]},"geometry":{"type":"Polygon","coordinates":[[[2.484,6.3479],[2.3599,6.3364],[2.369,6.3609],[2.3992,6.3841],[2.4676,6.3958],[2.4643,6.3752],[2.4817,6.365],[2.484,6.3479]]]}},{"type":"Feature","id":"Mono","properties":{"id":"Mono","iso_code":"BJ-MO","name":"Mono","name_full":"Mono","name_ja":"モノ県","center_lonlat":[1.828,6.5233]},"geometry":{"type":"Polygon","coordinates":[[[1.5892,6.7205],[1.648,6.6925],[1.6867,6.69],[1.8984,6.747],[1.9627,6.737],[2.0236,6.7065],[2.0174,6.6516],[1.9911,6.6094],[1.9932,6.4959],[1.9578,6.3923],[1.9877,6.2865],[1.8845,6.2748],[1.6196,6.2139],[1.6124,6.2348],[1.6331,6.2457],[1.7824,6.2773],[1.7441,6.4257],[1.7184,6.467],[1.6817,6.4898],[1.6808,6.5301],[1.6539,6.5707],[1.6274,6.5733],[1.5973,6.6008],[1.5963,6.6364],[1.566,6.6781],[1.5892,6.7205]]]}},{"type":"Feature","id":"Oueme","properties":{"id":"Oueme","iso_code":"BJ-OU","name":"Oueme","name_full":"Ouémé","name_ja":"ウェメ県","center_lonlat":[2.5408,6.6278]},"geometry":{"type":"Polygon","coordinates":[[[2.484,6.3479],[2.4817,6.365],[2.4643,6.3752],[2.4676,6.3958],[2.4874,6.459],[2.4831,6.5045],[2.4445,6.5383],[2.4291,6.8243],[2.3849,6.9206],[2.4139,6.9823],[2.52,6.9932],[2.5279,6.8916],[2.5757,6.7761],[2.5964,6.6589],[2.6796,6.5703],[2.7188,6.5043],[2.7038,6.3684],[2.484,6.3479]]]}},{"type":"Feature","id":"Plateau","properties":{"id":"Plateau","iso_code":"BJ-PL","name":"Plateau","name_full":"Plateau","name_ja":"プラトー県","center_lonlat":[2.6253,7.1877]},"geometry":{"type":"Polygon","coordinates":[[[2.7176,7.6585],[2.7206,7.5866],[2.7923,7.4776],[2.7865,7.4213],[2.7513,7.4236],[2.7412,7.4082],[2.7621,7.1622],[2.7353,7.096],[2.7797,7.0413],[2.7411,7.0158],[2.7151,6.9798],[2.7369,6.8633],[2.7236,6.7997],[2.7363,6.7698],[2.7733,6.755],[2.7786,6.6988],[2.7311,6.6418],[2.7394,6.5792],[2.7188,6.5043],[2.6796,6.5703],[2.5964,6.6589],[2.5757,6.7761],[2.5279,6.8916],[2.52,6.9932],[2.5601,7.0001],[2.5338,7.1785],[2.4808,7.2171],[2.4656,7.2502],[2.433,7.3627],[2.4275,7.426],[2.4178,7.4749],[2.4609,7.541],[2.4853,7.5521],[2.4831,7.6175],[2.4982,7.6591],[2.7176,7.6585]]]}},{"type":"Feature","id":"Zou","properties":{"id":"Zou","iso_code":"BJ-ZO","name":"Zou","name_full":"Zou","name_ja":"ズー県","center_lonlat":[2.1087,7.2652]},"geometry":{"type":"Polygon","coordinates":[[[1.6233,7.5364],[1.6229,7.6225],[1.8447,7.6324],[1.8894,7.6231],[1.944,7.6004],[2.0193,7.5416],[2.1776,7.5298],[2.4275,7.426],[2.433,7.3627],[2.4656,7.2502],[2.4808,7.2171],[2.5338,7.1785],[2.5601,7.0001],[2.52,6.9932],[2.4139,6.9823],[2.3849,6.9206],[2.084,6.9193],[2.0434,6.9127],[2.0005,6.9414],[1.9747,6.989],[1.8928,7.0718],[1.8579,7.1829],[1.7592,7.3056],[1.6844,7.492],[1.6556,7.5298],[1.6233,7.5364]]]}}]}
