{"type":"FeatureCollection","features":[{"type":"Feature","id":"Bumthang","properties":{"id":"Bumthang","iso_code":"BT-33","name":"Bumthang","name_full":"Bumthang","name_ja":"ブムタン県","center_lonlat":[90.7019,27.7008]},"geometry":{"type":"Polygon","coordinates":[[[90.4752,28.0723],[90.5753,28.0658],[90.6675,28.0903],[90.7553,28.0552],[90.7559,27.9718],[90.7288,27.9247],[90.7794,27.8952],[90.7968,27.8383],[90.8705,27.7901],[90.8859,27.7181],[90.9175,27.7098],[90.949,27.6784],[90.9575,27.6223],[90.9395,27.5649],[90.9488,27.5022],[90.9809,27.4701],[90.9546,27.4227],[90.9698,27.39],[90.9316,27.3691],[90.9193,27.3532],[90.8332,27.3262],[90.758,27.3776],[90.729,27.3705],[90.7242,27.349],[90.6492,27.4157],[90.5676,27.4499],[90.5606,27.5079],[90.5131,27.6343],[90.5245,27.7357],[90.5057,27.7625],[90.465,27.7762],[90.4585,27.8201],[90.4869,27.8544],[90.4913,27.893],[90.4411,27.9614],[90.4534,27.993],[90.4291,28.0252],[90.4752,28.0723]]]}},{"type":"Feature","id":"Chukha","properties":{"id":"Chukha","iso_code":"BT-12","name":"Chukha","name_full":"Chukha","name_ja":"チュカ県","center_lonlat":[89.538,26.9727]},"geometry":{"type":"Polygon","coordinates":[[[89.7547,26.701],[89.6852,26.7246],[89.6098,26.7122],[89.5975,26.721],[89.6114,26.766],[89.5861,26.7841],[89.5054,26.8037],[89.4429,26.797],[89.3689,26.8374],[89.3651,26.8747],[89.327,26.8727],[89.3194,26.9045],[89.2672,26.9306],[89.3405,26.9996],[89.3378,27.0338],[89.3104,27.0471],[89.3066,27.0922],[89.3293,27.1191],[89.3516,27.1734],[89.3299,27.2107],[89.5065,27.1889],[89.5045,27.2212],[89.5315,27.307],[89.5653,27.256],[89.6077,27.2489],[89.615,27.2376],[89.5585,27.2025],[89.5388,27.1701],[89.6006,27.1386],[89.6235,27.1411],[89.6575,27.0715],[89.6867,27.0542],[89.6804,27.0307],[89.7431,27.0304],[89.7632,26.9948],[89.7809,26.9377],[89.7632,26.8938],[89.7823,26.852],[89.7619,26.8001],[89.7358,26.7558],[89.7547,26.701]]]}},{"type":"Feature","id":"Dagana","properties":{"id":"Dagana","iso_code":"BT-22","name":"Dagana","name_full":"Dagana","name_ja":"ダガナ県","center_lonlat":[89.8528,27.0425]},"geometry":{"type":"Polygon","coordinates":[[[90.0583,27.1032],[90.0597,26.9584],[90.0499,26.9318],[90.0076,26.8917],[90.0045,26.8552],[89.9677,26.8329],[89.9661,26.817],[89.9303,26.8522],[89.9168,26.8141],[89.9054,26.8281],[89.9,26.8154],[89.859,26.8034],[89.8161,26.826],[89.8089,26.7992],[89.7619,26.8001],[89.7823,26.852],[89.7632,26.8938],[89.7809,26.9377],[89.7632,26.9948],[89.7431,27.0304],[89.6804,27.0307],[89.6867,27.0542],[89.6575,27.0715],[89.6235,27.1411],[89.647,27.211],[89.6834,27.2318],[89.6983,27.263],[89.7096,27.2609],[89.7675,27.2718],[89.827,27.2606],[89.8853,27.2152],[89.9367,27.1396],[90.0583,27.1032]]]}},{"type":"Feature","id":"Gasa","properties":{"id":"Gasa","iso_code":"BT-GA","name":"Gasa","name_full":"Gasa","name_ja":"ガサ県","center_lonlat":[89.9721,28.059]},"geometry":{"type":"Polygon","coordinates":[[[89.4174,27.9887],[89.4588,28.0478],[89.515,28.0819],[89.5615,28.1346],[89.7558,28.1844],[89.7809,28.2288],[89.8629,28.2958],[89.9161,28.3156],[89.9525,28.3082],[90.0709,28.3452],[90.1762,28.3255],[90.2256,28.3584],[90.2618,28.3354],[90.2618,28.2991],[90.2915,28.2614],[90.3295,28.2558],[90.354,28.2991],[90.3869,28.2991],[90.4165,28.2827],[90.456,28.2827],[90.5054,28.2498],[90.5877,28.2333],[90.5976,28.2004],[90.568,28.1905],[90.5482,28.1576],[90.5153,28.1543],[90.4857,28.1247],[90.4752,28.0723],[90.4235,28.0673],[90.3888,28.0088],[90.3482,27.9847],[90.3413,27.9043],[90.2756,27.8952],[90.2122,27.9766],[90.1582,27.973],[90.0896,27.8677],[90.015,27.8406],[90.0024,27.8012],[89.8881,27.8535],[89.8321,27.8392],[89.7683,27.7599],[89.7238,27.7554],[89.7045,27.7439],[89.7096,27.7343],[89.6701,27.7233],[89.619,27.7281],[89.6083,27.7153],[89.5628,27.7421],[89.5514,27.7778],[89.5228,27.7758],[89.5036,27.7541],[89.4842,27.767],[89.493,27.8393],[89.5557,27.9044],[89.515,27.9154],[89.4905,27.9727],[89.4547,27.9894],[89.4174,27.9887]]]}},{"type":"Feature","id":"Geylegphug","properties":{"id":"Geylegphug","iso_code":"BT-31","name":"Geylegphug","name_full":"Geylegphug","name_ja":"ゲレフ","center_lonlat":[90.3882,26.9155]},"geometry":{"type":"Polygon","coordinates":[[[89.7547,26.701],[89.7358,26.7558],[89.7619,26.8001],[89.8089,26.7992],[89.8161,26.826],[89.859,26.8034],[89.9,26.8154],[89.9054,26.8281],[89.9168,26.8141],[89.9303,26.8522],[89.9661,26.817],[89.9677,26.8329],[90.0045,26.8552],[90.0267,26.8193],[90.069,26.8091],[90.1346,26.8404],[90.1368,26.8657],[90.2369,26.9967],[90.2349,27.0308],[90.2504,27.045],[90.2675,27.1053],[90.3316,27.1486],[90.3128,27.1705],[90.3367,27.2093],[90.4583,27.1356],[90.5168,27.1257],[90.5408,27.0936],[90.5829,27.0695],[90.6303,27.0716],[90.6537,27.0604],[90.679,27.0137],[90.6804,26.9529],[90.7197,26.9443],[90.7752,26.9006],[90.8135,26.8197],[90.8872,26.8149],[90.9481,26.8274],[90.9578,26.7876],[90.9445,26.7789],[90.7171,26.767],[90.5878,26.7801],[90.3826,26.8918],[90.3488,26.8967],[90.2844,26.8571],[90.2109,26.8515],[90.1774,26.8321],[90.1522,26.7718],[90.1272,26.7514],[89.8904,26.7149],[89.835,26.7315],[89.8173,26.6962],[89.7547,26.701]]]}},{"type":"Feature","id":"Haa","properties":{"id":"Haa","iso_code":"BT-13","name":"Haa","name_full":"Haa","name_ja":"ハ県","center_lonlat":[89.1406,27.3419]},"geometry":{"type":"Polygon","coordinates":[[[88.8761,27.2805],[88.8923,27.3155],[88.9152,27.3309],[88.9508,27.3282],[88.9719,27.3124],[88.997,27.3309],[88.9511,27.4331],[88.983,27.4926],[88.9784,27.5303],[89.064,27.6159],[89.0915,27.6259],[89.1247,27.6149],[89.1606,27.5776],[89.2112,27.5631],[89.2463,27.4781],[89.272,27.4585],[89.3709,27.3142],[89.313,27.2697],[89.3299,27.2107],[89.3516,27.1734],[89.3293,27.1191],[89.2834,27.127],[89.2618,27.1184],[89.236,27.0738],[89.1906,27.1263],[89.1571,27.0991],[89.142,27.1002],[89.1203,27.1445],[89.0289,27.1587],[89.0059,27.2247],[88.974,27.2147],[88.9325,27.2636],[88.8761,27.2805]]]}},{"type":"Feature","id":"Lhuntse","properties":{"id":"Lhuntse","iso_code":"BT-44","name":"Lhuntse","name_full":"Lhuntse","name_ja":"ルンツェ県","center_lonlat":[91.0892,27.7673]},"geometry":{"type":"Polygon","coordinates":[[[90.7553,28.0552],[90.9095,28.0327],[90.9751,27.9821],[91.0519,27.9628],[91.0926,27.9717],[91.1947,28.0706],[91.2697,28.0729],[91.2902,28.0914],[91.3414,28.0306],[91.4365,27.9894],[91.404,27.9603],[91.3737,27.9573],[91.3201,27.9121],[91.3167,27.8118],[91.2994,27.7409],[91.3071,27.6185],[91.2972,27.5972],[91.3096,27.5813],[91.2904,27.5757],[91.2871,27.5465],[91.2449,27.5022],[91.2597,27.4767],[91.2449,27.4287],[91.1642,27.39],[91.1412,27.4223],[91.0979,27.4302],[91.0211,27.3805],[90.9698,27.39],[90.9546,27.4227],[90.9809,27.4701],[90.9488,27.5022],[90.9395,27.5649],[90.9575,27.6223],[90.949,27.6784],[90.9175,27.7098],[90.8859,27.7181],[90.8705,27.7901],[90.7968,27.8383],[90.7794,27.8952],[90.7288,27.9247],[90.7559,27.9718],[90.7553,28.0552]]]}},{"type":"Feature","id":"Mongar","properties":{"id":"Mongar","iso_code":"BT-42","name":"Mongar","name_full":"Mongar","name_ja":"モンガル県","center_lonlat":[91.2008,27.2471]},"geometry":{"type":"Polygon","coordinates":[[[91.3096,27.5813],[91.4099,27.4423],[91.3926,27.4018],[91.3874,27.3803],[91.4569,27.3376],[91.4711,27.2952],[91.3921,27.2431],[91.3795,27.1629],[91.3453,27.0878],[91.2371,27.0314],[91.1842,26.9422],[91.1501,26.9375],[91.101,26.9678],[91.0869,26.9795],[91.0776,27.025],[91.0233,27.049],[90.9905,27.1134],[91.0036,27.211],[90.9316,27.3691],[90.9698,27.39],[91.0211,27.3805],[91.0979,27.4302],[91.1412,27.4223],[91.1642,27.39],[91.2449,27.4287],[91.2597,27.4767],[91.2449,27.5022],[91.2871,27.5465],[91.2904,27.5757],[91.3096,27.5813]]]}},{"type":"Feature","id":"Paro","properties":{"id":"Paro","iso_code":"BT-11","name":"Paro","name_full":"Paro","name_ja":"パロ県","center_lonlat":[89.3536,27.4869]},"geometry":{"type":"Polygon","coordinates":[[[89.1247,27.6149],[89.2058,27.7474],[89.2865,27.7191],[89.3853,27.7482],[89.3852,27.6998],[89.4016,27.6746],[89.3742,27.6467],[89.4058,27.6418],[89.4821,27.5603],[89.4623,27.4266],[89.4983,27.4031],[89.4947,27.3583],[89.5301,27.3335],[89.5315,27.307],[89.5045,27.2212],[89.5065,27.1889],[89.3299,27.2107],[89.313,27.2697],[89.3709,27.3142],[89.272,27.4585],[89.2463,27.4781],[89.2112,27.5631],[89.1606,27.5776],[89.1247,27.6149]]]}},{"type":"Feature","id":"Pemagatshel","properties":{"id":"Pemagatshel","iso_code":"BT-43","name":"Pemagatshel","name_full":"Pemagatshel","name_ja":"ペマガツェル県","center_lonlat":[91.3526,26.9989]},"geometry":{"type":"Polygon","coordinates":[[[91.3795,27.1629],[91.4213,27.1582],[91.3961,27.1141],[91.4459,27.0667],[91.4968,27.0592],[91.491,27.0176],[91.4528,27.0069],[91.4328,26.9681],[91.4305,26.9233],[91.3526,26.8398],[91.3248,26.8493],[91.338,26.8923],[91.3259,26.9163],[91.3031,26.918],[91.2744,26.9414],[91.1842,26.9422],[91.2371,27.0314],[91.3453,27.0878],[91.3795,27.1629]]]}},{"type":"Feature","id":"Punakha","properties":{"id":"Punakha","iso_code":"BT-23","name":"Punakha","name_full":"Punakha","name_ja":"プナカ県","center_lonlat":[89.8301,27.6753]},"geometry":{"type":"Polygon","coordinates":[[[90.0024,27.8012],[90.0037,27.7713],[89.9647,27.7267],[89.9602,27.6927],[90.0094,27.6798],[90.036,27.6533],[90.0338,27.6398],[89.9967,27.6201],[89.9079,27.5306],[89.8145,27.5222],[89.7875,27.5273],[89.7569,27.5701],[89.689,27.5389],[89.6305,27.6197],[89.6258,27.6907],[89.6083,27.7153],[89.619,27.7281],[89.6701,27.7233],[89.7096,27.7343],[89.7045,27.7439],[89.7238,27.7554],[89.7683,27.7599],[89.8321,27.8392],[89.8881,27.8535],[90.0024,27.8012]]]}},{"type":"Feature","id":"Samdrup Jongkhar","properties":{"id":"Samdrup Jongkhar","iso_code":"BT-45","name":"Samdrup Jongkhar","name_full":"Samdrup Jongkhar","name_ja":"サムドゥプ・ジョンカル県","center_lonlat":[91.6653,26.9442]},"geometry":{"type":"Polygon","coordinates":[[[91.0128,26.7843],[91.0005,26.8136],[91.0106,26.8415],[91.0891,26.8638],[91.098,26.8821],[91.1626,26.8905],[91.1842,26.9422],[91.2744,26.9414],[91.3031,26.918],[91.3259,26.9163],[91.338,26.8923],[91.3248,26.8493],[91.3526,26.8398],[91.4305,26.9233],[91.4328,26.9681],[91.4528,27.0069],[91.491,27.0176],[91.5058,27.0099],[91.586,27.051],[91.6311,27.0421],[91.7667,27.0848],[91.8097,27.1371],[91.8987,27.1555],[91.9115,27.2404],[91.9488,27.1855],[92.0058,27.1761],[91.9877,27.104],[91.9999,27.0715],[92.0497,27.0268],[92.0839,26.9373],[92.0728,26.8878],[92.0359,26.8548],[91.9751,26.8466],[91.9082,26.8852],[91.8931,26.8814],[91.8955,26.8535],[91.874,26.8443],[91.8859,26.8309],[91.8787,26.803],[91.8631,26.8048],[91.8439,26.8494],[91.8251,26.8585],[91.7021,26.8035],[91.638,26.799],[91.5937,26.8108],[91.5206,26.7976],[91.4751,26.8655],[91.4202,26.8715],[91.3885,26.8585],[91.3456,26.7947],[91.2966,26.7746],[91.1982,26.8023],[91.0621,26.8046],[91.0128,26.7843]]]}},{"type":"Feature","id":"Samtse","properties":{"id":"Samtse","iso_code":"BT-14","name":"Samtse","name_full":"Samtse","name_ja":"サムツェ県","center_lonlat":[89.0543,27.0381]},"geometry":{"type":"Polygon","coordinates":[[[88.8761,27.2805],[88.9325,27.2636],[88.974,27.2147],[89.0059,27.2247],[89.0289,27.1587],[89.1203,27.1445],[89.142,27.1002],[89.1571,27.0991],[89.1906,27.1263],[89.236,27.0738],[89.2618,27.1184],[89.2834,27.127],[89.3293,27.1191],[89.3066,27.0922],[89.3104,27.0471],[89.3378,27.0338],[89.3405,26.9996],[89.2672,26.9306],[89.3194,26.9045],[89.327,26.8727],[89.3651,26.8747],[89.3689,26.8374],[89.3417,26.8543],[89.2736,26.8439],[89.2128,26.813],[89.1281,26.8135],[89.0965,26.8214],[89.0607,26.8815],[89.0216,26.9127],[88.9966,26.9228],[88.9323,26.9192],[88.9245,26.9617],[88.9066,26.9811],[88.8864,26.979],[88.8517,26.9454],[88.8456,27.0496],[88.8276,27.0979],[88.7301,27.151],[88.7759,27.2409],[88.8761,27.2805]]]}},{"type":"Feature","id":"Thimphu","properties":{"id":"Thimphu","iso_code":"BT-15","name":"Thimphu","name_full":"Thimphu","name_ja":"ティンプー県","center_lonlat":[89.5313,27.5866]},"geometry":{"type":"Polygon","coordinates":[[[89.2058,27.7474],[89.2249,27.8078],[89.336,27.8691],[89.4174,27.9887],[89.4547,27.9894],[89.4905,27.9727],[89.515,27.9154],[89.5557,27.9044],[89.493,27.8393],[89.4842,27.767],[89.5036,27.7541],[89.5228,27.7758],[89.5514,27.7778],[89.5628,27.7421],[89.6083,27.7153],[89.6258,27.6907],[89.6305,27.6197],[89.689,27.5389],[89.7569,27.5701],[89.7875,27.5273],[89.8145,27.5222],[89.8104,27.4853],[89.7425,27.4594],[89.7439,27.4017],[89.6907,27.3605],[89.7114,27.3429],[89.7096,27.2609],[89.6983,27.263],[89.6834,27.2318],[89.647,27.211],[89.6235,27.1411],[89.6006,27.1386],[89.5388,27.1701],[89.5585,27.2025],[89.615,27.2376],[89.6077,27.2489],[89.5653,27.256],[89.5315,27.307],[89.5301,27.3335],[89.4947,27.3583],[89.4983,27.4031],[89.4623,27.4266],[89.4821,27.5603],[89.4058,27.6418],[89.3742,27.6467],[89.4016,27.6746],[89.3852,27.6998],[89.3853,27.7482],[89.2865,27.7191],[89.2058,27.7474]]]}},{"type":"Feature","id":"Trashigang","properties":{"id":"Trashigang","iso_code":"BT-41","name":"Trashigang","name_full":"Trashigang","name_ja":"タシガン県","center_lonlat":[91.7188,27.263]},"geometry":{"type":"Polygon","coordinates":[[[91.7271,27.4599],[91.9006,27.4597],[91.9751,27.4724],[92.0236,27.4468],[92.0888,27.2923],[92.0368,27.2365],[92.0271,27.1998],[92.0058,27.1761],[91.9488,27.1855],[91.9115,27.2404],[91.8987,27.1555],[91.8097,27.1371],[91.7667,27.0848],[91.6311,27.0421],[91.586,27.051],[91.5058,27.0099],[91.491,27.0176],[91.4968,27.0592],[91.4459,27.0667],[91.3961,27.1141],[91.4213,27.1582],[91.3795,27.1629],[91.3921,27.2431],[91.4711,27.2952],[91.4569,27.3376],[91.3874,27.3803],[91.3926,27.4018],[91.5242,27.3693],[91.5791,27.4093],[91.7109,27.4432],[91.7271,27.4599]]]}},{"type":"Feature","id":"Trashiyangtse","properties":{"id":"Trashiyangtse","iso_code":"BT-TY","name":"Trashiyangtse","name_full":"Trashiyangtse","name_ja":"タシ・ヤンツェ県","center_lonlat":[91.4759,27.6883]},"geometry":{"type":"Polygon","coordinates":[[[91.4365,27.9894],[91.6006,27.9593],[91.638,27.9397],[91.6528,27.9167],[91.6283,27.8527],[91.5644,27.8514],[91.566,27.8211],[91.6053,27.8107],[91.6358,27.7825],[91.6267,27.7164],[91.5799,27.658],[91.5733,27.6197],[91.6045,27.5321],[91.6574,27.4792],[91.7271,27.4599],[91.7109,27.4432],[91.5791,27.4093],[91.5242,27.3693],[91.3926,27.4018],[91.4099,27.4423],[91.3096,27.5813],[91.2972,27.5972],[91.3071,27.6185],[91.2994,27.7409],[91.3167,27.8118],[91.3201,27.9121],[91.3737,27.9573],[91.404,27.9603],[91.4365,27.9894]]]}},{"type":"Feature","id":"Trongsa","properties":{"id":"Trongsa","iso_code":"BT-32","name":"Trongsa","name_full":"Trongsa","name_ja":"トンサ県","center_lonlat":[90.4709,27.4063]},"geometry":{"type":"Polygon","coordinates":[[[90.465,27.7762],[90.5057,27.7625],[90.5245,27.7357],[90.5131,27.6343],[90.5606,27.5079],[90.5676,27.4499],[90.6492,27.4157],[90.7242,27.349],[90.7064,27.2544],[90.6046,27.2057],[90.6396,27.1557],[90.5716,27.1614],[90.5168,27.1257],[90.4583,27.1356],[90.3367,27.2093],[90.3603,27.263],[90.3434,27.2722],[90.3348,27.3104],[90.2932,27.3475],[90.2381,27.4683],[90.3066,27.4989],[90.3418,27.4997],[90.3628,27.5174],[90.323,27.5422],[90.2897,27.6204],[90.3199,27.678],[90.3899,27.6725],[90.4461,27.6969],[90.465,27.7762]]]}},{"type":"Feature","id":"Tsirang","properties":{"id":"Tsirang","iso_code":"BT-21","name":"Tsirang","name_full":"Tsirang","name_ja":"チラン県","center_lonlat":[90.1374,27.0119]},"geometry":{"type":"Polygon","coordinates":[[[90.3128,27.1705],[90.3316,27.1486],[90.2675,27.1053],[90.2504,27.045],[90.2349,27.0308],[90.2369,26.9967],[90.1368,26.8657],[90.1346,26.8404],[90.069,26.8091],[90.0267,26.8193],[90.0045,26.8552],[90.0076,26.8917],[90.0499,26.9318],[90.0597,26.9584],[90.0583,27.1032],[90.0569,27.1721],[90.0777,27.1767],[90.1425,27.1546],[90.1975,27.1615],[90.236,27.135],[90.3128,27.1705]]]}},{"type":"Feature","id":"Wangdue Phodrang","properties":{"id":"Wangdue Phodrang","iso_code":"BT-24","name":"Wangdue Phodrang","name_full":"Wangdue Phodrang","name_ja":"ワンデュ・ポダン県","center_lonlat":[90.1244,27.532]},"geometry":{"type":"Polygon","coordinates":[[[90.0583,27.1032],[89.9367,27.1396],[89.8853,27.2152],[89.827,27.2606],[89.7675,27.2718],[89.7096,27.2609],[89.7114,27.3429],[89.6907,27.3605],[89.7439,27.4017],[89.7425,27.4594],[89.8104,27.4853],[89.8145,27.5222],[89.9079,27.5306],[89.9967,27.6201],[90.0338,27.6398],[90.036,27.6533],[90.0094,27.6798],[89.9602,27.6927],[89.9647,27.7267],[90.0037,27.7713],[90.0024,27.8012],[90.015,27.8406],[90.0896,27.8677],[90.1582,27.973],[90.2122,27.9766],[90.2756,27.8952],[90.3413,27.9043],[90.3482,27.9847],[90.3888,28.0088],[90.4235,28.0673],[90.4752,28.0723],[90.4291,28.0252],[90.4534,27.993],[90.4411,27.9614],[90.4913,27.893],[90.4869,27.8544],[90.4585,27.8201],[90.465,27.7762],[90.4461,27.6969],[90.3899,27.6725],[90.3199,27.678],[90.2897,27.6204],[90.323,27.5422],[90.3628,27.5174],[90.3418,27.4997],[90.3066,27.4989],[90.2381,27.4683],[90.2932,27.3475],[90.3348,27.3104],[90.3434,27.2722],[90.3603,27.263],[90.3367,27.2093],[90.3128,27.1705],[90.236,27.135],[90.1975,27.1615],[90.1425,27.1546],[90.0777,27.1767],[90.0569,27.1721],[90.0583,27.1032]]]}},{"type":"Feature","id":"Zhemgang","properties":{"id":"Zhemgang","iso_code":"BT-34","name":"Zhemgang","name_full":"Zhemgang","name_ja":"シェムガン県","center_lonlat":[90.8539,27.0743]},"geometry":{"type":"Polygon","coordinates":[[[91.0128,26.7843],[90.9445,26.7789],[90.9578,26.7876],[90.9481,26.8274],[90.8872,26.8149],[90.8135,26.8197],[90.7752,26.9006],[90.7197,26.9443],[90.6804,26.9529],[90.679,27.0137],[90.6537,27.0604],[90.6303,27.0716],[90.5829,27.0695],[90.5408,27.0936],[90.5168,27.1257],[90.5716,27.1614],[90.6396,27.1557],[90.6046,27.2057],[90.7064,27.2544],[90.7242,27.349],[90.729,27.3705],[90.758,27.3776],[90.8332,27.3262],[90.9193,27.3532],[90.9316,27.3691],[91.0036,27.211],[90.9905,27.1134],[91.0233,27.049],[91.0776,27.025],[91.0869,26.9795],[91.101,26.9678],[91.1501,26.9375],[91.1842,26.9422],[91.1626,26.8905],[91.098,26.8821],[91.0891,26.8638],[91.0106,26.8415],[91.0005,26.8136],[91.0128,26.7843]]]}}]}
