{"type":"FeatureCollection","features":[{"type":"Feature","id":"Beni","properties":{"id":"Beni","iso_code":"BO-B","name":"Beni","name_full":"Beni","name_ja":"ベニ県","center_lonlat":[-65.2315,-13.786]},"geometry":{"type":"Polygon","coordinates":[[[-65.3946,-10.3921],[-65.3873,-10.4067],[-65.4109,-10.4492],[-65.45,-10.4681],[-65.4292,-10.5614],[-65.4357,-10.6258],[-65.3868,-10.6695],[-65.3811,-10.6981],[-65.3997,-10.8123],[-65.3603,-10.8226],[-65.3271,-10.8505],[-65.2991,-10.9821],[-65.342,-11.0328],[-65.341,-11.1066],[-65.3947,-11.1534],[-65.3981,-11.178],[-65.36,-11.2188],[-65.3886,-11.2532],[-65.3873,-11.2776],[-65.3264,-11.3278],[-65.3548,-11.3824],[-65.3195,-11.4764],[-65.2925,-11.5047],[-65.2576,-11.4953],[-65.2227,-11.5174],[-65.2192,-11.5845],[-65.1674,-11.6155],[-65.1934,-11.6324],[-65.1962,-11.7418],[-65.1515,-11.7731],[-65.134,-11.7026],[-65.1134,-11.6906],[-65.1136,-11.7226],[-65.0656,-11.7531],[-65.0385,-11.8187],[-65.0337,-11.8798],[-64.9981,-11.9089],[-65.0163,-11.9685],[-64.9974,-11.9963],[-64.7925,-12.0325],[-64.7686,-12.0865],[-64.7368,-12.1198],[-64.7395,-12.1446],[-64.7163,-12.1465],[-64.7103,-12.1119],[-64.6899,-12.1044],[-64.689,-12.1539],[-64.6649,-12.181],[-64.5934,-12.216],[-64.4894,-12.2395],[-64.4682,-12.2726],[-64.4898,-12.3736],[-64.4525,-12.3904],[-64.3957,-12.4573],[-64.3532,-12.4692],[-64.2977,-12.4657],[-64.2875,-12.4971],[-64.2152,-12.4738],[-64.1448,-12.5204],[-64.1198,-12.4897],[-64.1045,-12.5071],[-64.0445,-12.5091],[-64.0228,-12.5378],[-63.9724,-12.5239],[-63.9212,-12.5443],[-63.8629,-12.4692],[-63.8014,-12.4549],[-63.6577,-12.4754],[-63.5422,-12.548],[-63.4858,-12.5575],[-63.4314,-12.637],[-63.3179,-12.702],[-63.236,-12.6986],[-63.1367,-12.6337],[-63.075,-12.6527],[-63.0435,-12.7191],[-63.0511,-12.7422],[-63.0147,-12.7777],[-62.988,-12.8439],[-62.9551,-12.8575],[-62.9289,-12.846],[-62.8651,-12.9355],[-62.8314,-12.9449],[-62.8202,-12.9749],[-62.7898,-13.0007],[-62.7705,-13.0105],[-62.7686,-12.9906],[-62.6866,-12.965],[-62.6513,-12.9925],[-62.6417,-13.03],[-62.5546,-13.0668],[-62.4721,-13.0685],[-62.4275,-13.1246],[-62.3818,-13.1399],[-62.2903,-13.142],[-62.2115,-13.1203],[-62.174,-13.1408],[-62.1725,-13.1179],[-62.1624,-13.1207],[-62.1398,-13.147],[-62.1147,-13.1502],[-62.1125,-13.2318],[-62.0992,-13.2626],[-62.0033,-13.3605],[-61.8723,-13.4561],[-61.8364,-13.5406],[-61.7543,-13.5303],[-61.7351,-13.538],[-61.6681,-13.5125],[-61.5931,-13.5068],[-63.5704,-14.6185],[-63.963,-14.7374],[-63.9402,-14.8323],[-63.9347,-15.0279],[-63.9498,-15.0856],[-63.8632,-15.2981],[-63.758,-15.4561],[-63.6881,-15.5049],[-63.6702,-15.5802],[-63.6238,-15.6274],[-63.4987,-15.6921],[-63.4409,-15.7742],[-63.4207,-15.8566],[-63.3848,-15.8913],[-63.3206,-15.9166],[-64.6575,-15.8505],[-64.6841,-15.8429],[-65.1639,-15.9071],[-65.1939,-15.9271],[-65.2732,-16.0719],[-65.2764,-16.1172],[-65.3309,-16.2791],[-65.3596,-16.3242],[-65.4556,-16.3689],[-65.8044,-16.4657],[-65.8862,-16.4663],[-66.0696,-16.4201],[-66.2392,-16.3169],[-66.4608,-16.0742],[-66.5035,-15.9719],[-66.7844,-15.6993],[-67.0256,-15.4768],[-67.0559,-15.4318],[-67.1075,-15.4001],[-67.12,-15.368],[-67.1155,-15.2898],[-67.1791,-15.1652],[-67.2813,-15.0236],[-67.3639,-15.0121],[-67.4176,-14.9685],[-67.4343,-14.8964],[-67.4219,-14.8172],[-67.4275,-14.7541],[-67.5041,-14.6689],[-67.536,-14.5986],[-67.4978,-14.5513],[-67.4879,-14.5116],[-67.5324,-14.443],[-67.5682,-14.3303],[-67.5644,-14.312],[-67.5206,-14.2887],[-67.5036,-14.2587],[-67.536,-13.9984],[-67.5092,-13.88],[-67.4827,-13.8367],[-67.4926,-13.7714],[-67.4717,-13.7105],[-67.4307,-13.6748],[-67.3611,-13.5739],[-67.3956,-13.4025],[-67.3367,-13.3045],[-67.2059,-13.1678],[-67.1932,-13.1296],[-67.1591,-13.1075],[-67.1199,-13.0372],[-67.1031,-13.0216],[-67.0523,-13.0159],[-67.0041,-12.9011],[-66.9486,-12.6708],[-66.9667,-12.5815],[-66.9277,-12.5253],[-66.9383,-12.42],[-66.9278,-12.3822],[-66.9052,-12.3417],[-66.9193,-12.2888],[-66.8893,-12.2232],[-66.8972,-12.1522],[-66.8774,-12.065],[-66.897,-11.966],[-66.9391,-11.9066],[-66.9613,-11.9105],[-66.9746,-11.8692],[-66.9706,-11.849],[-66.9176,-11.8418],[-66.8884,-11.8181],[-66.8768,-11.7956],[-66.9053,-11.7354],[-66.8356,-11.7278],[-66.7968,-11.6857],[-66.729,-11.6747],[-66.7153,-11.6556],[-66.7209,-11.5835],[-66.6908,-11.5376],[-66.679,-11.4494],[-66.5648,-11.4346],[-66.497,-11.4423],[-66.4167,-11.4008],[-66.3169,-11.3859],[-66.3089,-11.3445],[-66.2546,-11.3317],[-66.2432,-11.313],[-66.2678,-11.2773],[-66.2554,-11.2377],[-66.2115,-11.1746],[-66.2178,-11.0977],[-66.1712,-11.1008],[-66.1472,-11.0806],[-66.1306,-10.9818],[-66.1215,-10.9682],[-66.1061,-10.9785],[-66.0904,-10.97],[-66.0453,-10.8676],[-66.0533,-10.8515],[-66.0948,-10.8583],[-66.1079,-10.8407],[-66.0117,-10.7894],[-65.895,-10.8117],[-65.8867,-10.7648],[-65.9424,-10.7195],[-65.9218,-10.6824],[-65.8981,-10.6798],[-65.8562,-10.723],[-65.7857,-10.7013],[-65.7531,-10.667],[-65.7614,-10.5641],[-65.738,-10.5567],[-65.6739,-10.5716],[-65.5263,-10.4866],[-65.4642,-10.4064],[-65.3946,-10.3921]]]}},{"type":"Feature","id":"Chuquisaca","properties":{"id":"Chuquisaca","iso_code":"BO-H","name":"Chuquisaca","name_full":"Chuquisaca","name_ja":"チュキサカ県","center_lonlat":[-64.3168,-20.0337]},"geometry":{"type":"Polygon","coordinates":[[[-62.2106,-20.4713],[-62.2773,-20.5798],[-62.2719,-21.0004],[-63.983,-20.9967],[-64.01,-20.9656],[-64.0004,-20.9443],[-64.0535,-20.9453],[-64.0743,-20.9143],[-64.1426,-20.9163],[-64.1752,-20.8914],[-64.1858,-20.9236],[-64.1808,-21.0133],[-64.2025,-21.0639],[-64.199,-21.1102],[-64.2324,-21.142],[-64.359,-21.1347],[-64.4457,-21.0832],[-64.531,-21.09],[-64.5726,-21.0207],[-64.6298,-20.9708],[-64.6407,-20.9472],[-64.697,-20.93],[-64.7174,-20.9359],[-64.7501,-20.9858],[-64.7752,-21.0738],[-64.8296,-21.0975],[-64.9099,-21.0443],[-64.922,-21.0218],[-65.0338,-21.0004],[-65.0785,-20.9552],[-65.1098,-20.9625],[-65.1566,-20.9458],[-65.1743,-20.9682],[-65.2349,-21.5354],[-65.3174,-21.4779],[-65.4585,-21.3351],[-65.4769,-21.2921],[-65.472,-21.1013],[-65.4293,-20.9626],[-65.4227,-20.8368],[-65.3888,-20.7774],[-65.3723,-20.7051],[-65.296,-20.5338],[-65.3661,-20.269],[-65.3688,-20.2031],[-65.3151,-20.1087],[-65.3132,-20.0423],[-65.2282,-19.9913],[-65.0564,-19.9687],[-64.8677,-19.8684],[-64.7469,-19.7324],[-64.7761,-19.6722],[-64.8708,-19.5471],[-64.8687,-19.4541],[-64.92,-19.3706],[-64.9637,-19.3504],[-65.1305,-19.3792],[-65.248,-19.3183],[-65.2928,-19.3103],[-65.3728,-19.2542],[-65.4472,-19.1789],[-65.4616,-19.1281],[-65.522,-19.0674],[-65.5396,-19.0089],[-65.47,-18.905],[-65.5064,-18.8129],[-65.4372,-18.7513],[-65.4238,-18.7025],[-65.4574,-18.683],[-65.6297,-18.7515],[-65.6522,-18.7487],[-65.6519,-18.7251],[-65.6078,-18.6741],[-65.6286,-18.5657],[-65.6243,-18.4764],[-65.6286,-18.4583],[-65.6836,-18.4211],[-65.6924,-18.3549],[-65.6728,-18.3452],[-65.657,-18.3642],[-65.5855,-18.3749],[-65.5543,-18.4052],[-65.5032,-18.388],[-65.3919,-18.4282],[-65.3439,-18.4226],[-65.337,-18.4519],[-65.306,-18.4518],[-65.2935,-18.4954],[-65.2502,-18.5302],[-65.2445,-18.6014],[-65.2314,-18.6163],[-65.1573,-18.6136],[-65.0802,-18.6559],[-65.0549,-18.6441],[-65.0248,-18.5762],[-64.9646,-18.5313],[-64.816,-18.4847],[-64.7972,-18.4895],[-64.7717,-18.5212],[-64.685,-18.5401],[-64.6362,-18.609],[-64.5746,-18.6667],[-64.494,-18.6663],[-64.3914,-18.6018],[-64.37,-18.6089],[-64.3402,-18.6569],[-64.3199,-18.679],[-64.3195,-18.7354],[-64.289,-18.8142],[-64.2206,-18.8656],[-64.192,-18.9392],[-64.1204,-18.9553],[-64.0647,-18.9998],[-64.0069,-19.1686],[-63.9551,-19.173],[-63.9176,-19.1538],[-63.8966,-19.0559],[-63.8726,-19.0263],[-63.7505,-19.0283],[-63.7413,-19.0444],[-63.7677,-19.2713],[-63.7253,-19.963],[-63.7069,-20.0038],[-63.6519,-20.4501],[-63.5024,-20.4604],[-63.4671,-20.4204],[-63.4152,-20.4032],[-63.3685,-20.3574],[-63.3031,-20.4689],[-63.2859,-20.4751],[-62.2106,-20.4713]]]}},{"type":"Feature","id":"Cochabamba","properties":{"id":"Cochabamba","iso_code":"BO-C","name":"Cochabamba","name_full":"Cochabamba","name_ja":"コチャバンバ県","center_lonlat":[-65.6165,-17.2059]},"geometry":{"type":"Polygon","coordinates":[[[-66.9899,-17.5513],[-66.8419,-17.4681],[-66.87,-17.4154],[-66.8505,-17.3775],[-66.8851,-17.2915],[-66.8972,-17.175],[-66.9488,-17.0965],[-67.0104,-17.0651],[-67.0123,-17.0262],[-66.9779,-16.9639],[-66.971,-16.8972],[-66.9323,-16.8351],[-66.7982,-16.7953],[-66.775,-16.7776],[-66.7585,-16.7411],[-66.7659,-16.5895],[-66.8162,-16.483],[-66.7996,-16.2833],[-66.8349,-16.2294],[-66.8706,-16.2152],[-66.8721,-16.1711],[-66.9499,-16.0578],[-66.9444,-15.9238],[-66.9182,-15.864],[-66.9345,-15.8447],[-66.8675,-15.768],[-66.7844,-15.6993],[-66.5035,-15.9719],[-66.4608,-16.0742],[-66.2392,-16.3169],[-66.0696,-16.4201],[-65.8862,-16.4663],[-65.8044,-16.4657],[-65.4556,-16.3689],[-65.3596,-16.3242],[-65.3309,-16.2791],[-65.2764,-16.1172],[-65.2732,-16.0719],[-65.1939,-15.9271],[-65.1639,-15.9071],[-64.6841,-15.8429],[-64.6575,-15.8505],[-64.6644,-15.8725],[-64.7039,-15.8747],[-64.6811,-15.8948],[-64.676,-15.9225],[-64.7039,-15.9116],[-64.7306,-15.9225],[-64.6887,-15.9699],[-64.6896,-16.0566],[-64.6617,-16.118],[-64.6773,-16.1691],[-64.6685,-16.19],[-64.676,-16.2652],[-64.6998,-16.3047],[-64.676,-16.3061],[-64.6964,-16.344],[-64.6842,-16.3884],[-64.7232,-16.4911],[-64.7647,-16.5258],[-64.7799,-16.5561],[-64.7784,-16.5873],[-64.7511,-16.6112],[-64.8077,-16.7296],[-64.7822,-16.7663],[-64.7417,-16.8984],[-64.6474,-16.996],[-64.5915,-17.0203],[-64.5034,-17.1031],[-64.3757,-17.1746],[-64.2383,-17.3109],[-64.2121,-17.3787],[-64.2246,-17.416],[-64.3395,-17.4207],[-64.3964,-17.4563],[-64.4056,-17.5204],[-64.5643,-17.7457],[-64.6899,-17.867],[-64.7106,-17.9107],[-64.6999,-17.9404],[-64.6412,-18.0053],[-64.5893,-18.1149],[-64.5467,-18.1529],[-64.4884,-18.2403],[-64.4776,-18.2801],[-64.4412,-18.3261],[-64.4456,-18.3564],[-64.42,-18.4209],[-64.3018,-18.5002],[-64.2933,-18.591],[-64.3402,-18.6569],[-64.37,-18.6089],[-64.3914,-18.6018],[-64.494,-18.6663],[-64.5746,-18.6667],[-64.6362,-18.609],[-64.685,-18.5401],[-64.7717,-18.5212],[-64.7972,-18.4895],[-64.816,-18.4847],[-64.9646,-18.5313],[-65.0248,-18.5762],[-65.0549,-18.6441],[-65.0802,-18.6559],[-65.1573,-18.6136],[-65.2314,-18.6163],[-65.2445,-18.6014],[-65.2502,-18.5302],[-65.2935,-18.4954],[-65.306,-18.4518],[-65.337,-18.4519],[-65.3439,-18.4226],[-65.4363,-18.3693],[-65.5103,-18.2667],[-65.5807,-18.2184],[-65.6424,-18.1291],[-65.7653,-18.026],[-65.8255,-17.9942],[-65.8433,-17.9683],[-65.9403,-17.9813],[-65.9533,-17.9471],[-66.0005,-17.9069],[-66.0185,-17.8622],[-66.0953,-17.8546],[-66.1752,-17.8668],[-66.3464,-17.9886],[-66.5344,-17.9769],[-66.6249,-17.9913],[-66.6805,-17.864],[-66.8083,-17.6879],[-66.9899,-17.5513]]]}},{"type":"Feature","id":"La Paz","properties":{"id":"La Paz","iso_code":"BO-L","name":"La Paz","name_full":"La Paz","name_ja":"ラパス県","center_lonlat":[-68.1476,-15.1942]},"geometry":{"type":"Polygon","coordinates":[[[-68.6895,-12.4934],[-68.6297,-12.4908],[-68.582,-12.4069],[-68.5582,-12.4023],[-68.5099,-12.4274],[-68.4769,-12.4167],[-68.3902,-12.2425],[-68.2718,-12.1813],[-68.2462,-12.1537],[-68.231,-12.0477],[-68.2151,-12.0199],[-68.0128,-11.97],[-67.9812,-11.9362],[-67.9735,-11.9049],[-66.9278,-12.3822],[-66.9383,-12.42],[-66.9277,-12.5253],[-66.9667,-12.5815],[-66.9486,-12.6708],[-67.0041,-12.9011],[-67.0523,-13.0159],[-67.1031,-13.0216],[-67.1199,-13.0372],[-67.1591,-13.1075],[-67.1932,-13.1296],[-67.2059,-13.1678],[-67.3367,-13.3045],[-67.3956,-13.4025],[-67.3611,-13.5739],[-67.4307,-13.6748],[-67.4717,-13.7105],[-67.4926,-13.7714],[-67.4827,-13.8367],[-67.5092,-13.88],[-67.536,-13.9984],[-67.5036,-14.2587],[-67.5206,-14.2887],[-67.5644,-14.312],[-67.5682,-14.3303],[-67.5324,-14.443],[-67.4879,-14.5116],[-67.4978,-14.5513],[-67.536,-14.5986],[-67.5041,-14.6689],[-67.4275,-14.7541],[-67.4219,-14.8172],[-67.4343,-14.8964],[-67.4176,-14.9685],[-67.3639,-15.0121],[-67.2813,-15.0236],[-67.1791,-15.1652],[-67.1155,-15.2898],[-67.12,-15.368],[-67.1075,-15.4001],[-67.0559,-15.4318],[-67.0256,-15.4768],[-66.7844,-15.6993],[-66.8675,-15.768],[-66.9345,-15.8447],[-66.9182,-15.864],[-66.9444,-15.9238],[-66.9499,-16.0578],[-66.8721,-16.1711],[-66.8706,-16.2152],[-66.8349,-16.2294],[-66.7996,-16.2833],[-66.8162,-16.483],[-66.7659,-16.5895],[-66.7585,-16.7411],[-66.775,-16.7776],[-66.7982,-16.7953],[-66.9323,-16.8351],[-66.971,-16.8972],[-66.9779,-16.9639],[-67.0123,-17.0262],[-67.0104,-17.0651],[-66.9488,-17.0965],[-66.8972,-17.175],[-66.8851,-17.2915],[-66.8505,-17.3775],[-66.87,-17.4154],[-66.8419,-17.4681],[-66.9899,-17.5513],[-67.0404,-17.4996],[-67.0837,-17.4292],[-67.1201,-17.4034],[-67.1508,-17.401],[-67.3024,-17.4451],[-67.751,-17.7267],[-67.7545,-17.7529],[-67.7326,-17.8142],[-67.7508,-17.8493],[-67.7857,-17.8647],[-67.8093,-17.8604],[-68.0058,-17.7185],[-68.1405,-17.659],[-68.3269,-17.6435],[-68.4466,-17.6524],[-68.5521,-17.6948],[-68.608,-17.7399],[-68.6964,-17.8471],[-68.8168,-17.9404],[-69.0823,-18.0391],[-69.0921,-18.0233],[-69.1577,-18.0257],[-69.2348,-17.993],[-69.262,-17.964],[-69.3024,-17.9762],[-69.3269,-17.9151],[-69.3342,-17.8058],[-69.3594,-17.7594],[-69.4971,-17.6214],[-69.5114,-17.3987],[-69.5226,-17.3691],[-69.5973,-17.3005],[-69.6665,-17.2883],[-69.6228,-17.1856],[-69.5951,-17.1797],[-69.5101,-17.1121],[-69.4274,-17.0869],[-69.406,-17.063],[-69.4136,-17.0223],[-69.3643,-16.9912],[-69.3259,-16.9222],[-69.2245,-16.8182],[-69.1824,-16.7287],[-69.1121,-16.7115],[-69.0371,-16.6702],[-69.0083,-16.6342],[-69.0401,-16.5814],[-69.0279,-16.4541],[-69.0017,-16.4228],[-68.8558,-16.3632],[-68.8335,-16.329],[-68.8436,-16.302],[-68.9188,-16.2667],[-68.982,-16.21],[-69.0101,-16.2191],[-69.0536,-16.2084],[-69.0952,-16.2312],[-69.1208,-16.2312],[-69.1849,-16.195],[-69.2196,-16.1528],[-69.43,-15.6263],[-69.3564,-15.5014],[-69.3434,-15.4422],[-69.3304,-15.4242],[-69.2859,-15.4054],[-69.2912,-15.3508],[-69.2559,-15.3133],[-69.2226,-15.3022],[-69.2091,-15.2636],[-69.1661,-15.2639],[-69.1481,-15.2333],[-69.2127,-15.1613],[-69.2886,-15.102],[-69.3461,-15.0165],[-69.3843,-14.9818],[-69.3907,-14.9644],[-69.3678,-14.9005],[-69.3705,-14.8015],[-69.339,-14.7748],[-69.2676,-14.7507],[-69.2538,-14.7218],[-69.2475,-14.5937],[-69.2347,-14.5743],[-69.1704,-14.5776],[-69.1643,-14.503],[-68.9903,-14.379],[-69.0162,-14.3211],[-69.0101,-14.2459],[-68.9849,-14.2283],[-68.8837,-14.2115],[-68.8644,-14.1912],[-68.9058,-14.0393],[-68.983,-13.9722],[-68.993,-13.8698],[-69.0231,-13.806],[-69.016,-13.7531],[-69.1016,-13.6666],[-69.0876,-13.6439],[-69.044,-13.648],[-69.0238,-13.635],[-69.0232,-13.5969],[-68.9857,-13.5502],[-68.9707,-13.5014],[-68.9628,-13.2836],[-68.9797,-13.1646],[-68.9721,-13.0461],[-68.9862,-12.9334],[-68.981,-12.8679],[-68.9494,-12.8439],[-68.9266,-12.801],[-68.9046,-12.804],[-68.8766,-12.755],[-68.7661,-12.7105],[-68.743,-12.6658],[-68.7853,-12.6459],[-68.7934,-12.6202],[-68.7261,-12.566],[-68.6843,-12.5025],[-68.6895,-12.4934]]]}},{"type":"Feature","id":"Oruro","properties":{"id":"Oruro","iso_code":"BO-O","name":"Oruro","name_full":"Oruro","name_ja":"オルロ県","center_lonlat":[-67.6956,-18.6487]},"geometry":{"type":"Polygon","coordinates":[[[-69.0823,-18.0391],[-68.8168,-17.9404],[-68.6964,-17.8471],[-68.608,-17.7399],[-68.5521,-17.6948],[-68.4466,-17.6524],[-68.3269,-17.6435],[-68.1405,-17.659],[-68.0058,-17.7185],[-67.8093,-17.8604],[-67.7857,-17.8647],[-67.7508,-17.8493],[-67.7326,-17.8142],[-67.7545,-17.7529],[-67.751,-17.7267],[-67.3024,-17.4451],[-67.1508,-17.401],[-67.1201,-17.4034],[-67.0837,-17.4292],[-67.0404,-17.4996],[-66.9899,-17.5513],[-66.8083,-17.6879],[-66.6805,-17.864],[-66.6249,-17.9913],[-66.6542,-18.0273],[-66.7348,-18.0539],[-66.7423,-18.1976],[-66.6846,-18.2374],[-66.6072,-18.2346],[-66.5216,-18.2526],[-66.5446,-18.2772],[-66.6757,-18.3513],[-66.6889,-18.4999],[-66.6333,-18.6029],[-66.5322,-18.681],[-66.4141,-18.7288],[-66.3506,-18.7349],[-66.2728,-18.7774],[-66.2205,-18.9263],[-66.1821,-18.9958],[-66.0586,-19.1408],[-66.0406,-19.1729],[-66.0462,-19.1915],[-66.0971,-19.2091],[-66.4539,-19.2415],[-66.7281,-19.4415],[-67.5519,-19.7824],[-67.6875,-19.826],[-67.8319,-19.8079],[-68.5767,-19.5646],[-68.5102,-19.4716],[-68.4476,-19.4346],[-68.455,-19.4154],[-68.6001,-19.3034],[-68.6633,-19.2736],[-68.6985,-19.2156],[-68.8154,-19.1133],[-68.9085,-19.0679],[-68.9617,-18.9694],[-68.9896,-18.9465],[-68.9598,-18.9078],[-68.9514,-18.8673],[-69.0105,-18.7445],[-69.0035,-18.7027],[-69.0338,-18.6495],[-69.0428,-18.6005],[-69.0344,-18.4783],[-69.0778,-18.3988],[-69.0793,-18.328],[-69.1004,-18.2343],[-69.1412,-18.1868],[-69.1554,-18.1402],[-69.0892,-18.0831],[-69.0823,-18.0391]]]}},{"type":"Feature","id":"Pando","properties":{"id":"Pando","iso_code":"BO-N","name":"Pando","name_full":"Pando","name_ja":"パンド県","center_lonlat":[-67.3452,-11.0868]},"geometry":{"type":"Polygon","coordinates":[[[-65.3946,-10.3921],[-65.4642,-10.4064],[-65.5263,-10.4866],[-65.6739,-10.5716],[-65.738,-10.5567],[-65.7614,-10.5641],[-65.7531,-10.667],[-65.7857,-10.7013],[-65.8562,-10.723],[-65.8981,-10.6798],[-65.9218,-10.6824],[-65.9424,-10.7195],[-65.8867,-10.7648],[-65.895,-10.8117],[-66.0117,-10.7894],[-66.1079,-10.8407],[-66.0948,-10.8583],[-66.0533,-10.8515],[-66.0453,-10.8676],[-66.0904,-10.97],[-66.1061,-10.9785],[-66.1215,-10.9682],[-66.1306,-10.9818],[-66.1472,-11.0806],[-66.1712,-11.1008],[-66.2178,-11.0977],[-66.2115,-11.1746],[-66.2554,-11.2377],[-66.2678,-11.2773],[-66.2432,-11.313],[-66.2546,-11.3317],[-66.3089,-11.3445],[-66.3169,-11.3859],[-66.4167,-11.4008],[-66.497,-11.4423],[-66.5648,-11.4346],[-66.679,-11.4494],[-66.6908,-11.5376],[-66.7209,-11.5835],[-66.7153,-11.6556],[-66.729,-11.6747],[-66.7968,-11.6857],[-66.8356,-11.7278],[-66.9053,-11.7354],[-66.8768,-11.7956],[-66.8884,-11.8181],[-66.9176,-11.8418],[-66.9706,-11.849],[-66.9746,-11.8692],[-66.9613,-11.9105],[-66.9391,-11.9066],[-66.897,-11.966],[-66.8774,-12.065],[-66.8972,-12.1522],[-66.8893,-12.2232],[-66.9193,-12.2888],[-66.9052,-12.3417],[-66.9278,-12.3822],[-67.9735,-11.9049],[-67.9812,-11.9362],[-68.0128,-11.97],[-68.2151,-12.0199],[-68.231,-12.0477],[-68.2462,-12.1537],[-68.2718,-12.1813],[-68.3902,-12.2425],[-68.4769,-12.4167],[-68.5099,-12.4274],[-68.5582,-12.4023],[-68.582,-12.4069],[-68.6297,-12.4908],[-68.6895,-12.4934],[-69.5776,-10.9523],[-69.5029,-10.9553],[-69.3959,-10.935],[-69.2935,-10.955],[-69.0869,-10.9672],[-68.997,-11.0017],[-68.884,-11.0164],[-68.8047,-10.9947],[-68.7576,-11.0119],[-68.7912,-11.0851],[-68.7759,-11.1406],[-68.6157,-11.1125],[-68.5361,-11.0615],[-68.4282,-11.0437],[-68.3783,-11.005],[-68.3311,-11.0005],[-68.2933,-10.979],[-68.1121,-10.7141],[-68.0438,-10.6669],[-67.8626,-10.6588],[-67.7558,-10.7142],[-67.7217,-10.7055],[-67.6847,-10.6105],[-67.5846,-10.5018],[-67.468,-10.4523],[-67.4183,-10.3815],[-67.3428,-10.3725],[-67.3378,-10.3261],[-67.3235,-10.3189],[-67.2592,-10.3137],[-67.1847,-10.3267],[-67.1517,-10.289],[-67.11,-10.2826],[-67.0643,-10.2569],[-66.9027,-10.0931],[-66.7706,-9.9926],[-66.6601,-9.9453],[-66.6426,-9.9079],[-66.5138,-9.8839],[-66.4327,-9.8861],[-66.3553,-9.8496],[-66.2573,-9.8349],[-66.1907,-9.8008],[-66.1355,-9.7952],[-66.1182,-9.806],[-66.087,-9.7845],[-66.0295,-9.8083],[-65.947,-9.7714],[-65.8625,-9.7818],[-65.8341,-9.7583],[-65.8221,-9.7818],[-65.8064,-9.7844],[-65.7886,-9.733],[-65.7724,-9.7688],[-65.71,-9.756],[-65.7131,-9.7942],[-65.679,-9.7894],[-65.6289,-9.8269],[-65.584,-9.8372],[-65.568,-9.8021],[-65.5353,-9.7825],[-65.5108,-9.7341],[-65.4425,-9.6798],[-65.398,-9.6867],[-65.3705,-9.7106],[-65.3401,-9.7897],[-65.2991,-9.8413],[-65.3333,-9.9268],[-65.3368,-9.9672],[-65.2848,-10.2068],[-65.3278,-10.3144],[-65.365,-10.3322],[-65.3946,-10.3921]]]}},{"type":"Feature","id":"Potosi","properties":{"id":"Potosi","iso_code":"BO-P","name":"Potosi","name_full":"Potosí","name_ja":"ポトシ県","center_lonlat":[-66.7327,-20.5717]},"geometry":{"type":"Polygon","coordinates":[[[-68.5767,-19.5646],[-67.8319,-19.8079],[-67.6875,-19.826],[-67.5519,-19.7824],[-66.7281,-19.4415],[-66.4539,-19.2415],[-66.0971,-19.2091],[-66.0462,-19.1915],[-66.0406,-19.1729],[-66.0586,-19.1408],[-66.1821,-18.9958],[-66.2205,-18.9263],[-66.2728,-18.7774],[-66.3506,-18.7349],[-66.4141,-18.7288],[-66.5322,-18.681],[-66.6333,-18.6029],[-66.6889,-18.4999],[-66.6757,-18.3513],[-66.5446,-18.2772],[-66.5216,-18.2526],[-66.6072,-18.2346],[-66.6846,-18.2374],[-66.7423,-18.1976],[-66.7348,-18.0539],[-66.6542,-18.0273],[-66.6249,-17.9913],[-66.5344,-17.9769],[-66.3464,-17.9886],[-66.1752,-17.8668],[-66.0953,-17.8546],[-66.0185,-17.8622],[-66.0005,-17.9069],[-65.9533,-17.9471],[-65.9403,-17.9813],[-65.8433,-17.9683],[-65.8255,-17.9942],[-65.7653,-18.026],[-65.6424,-18.1291],[-65.5807,-18.2184],[-65.5103,-18.2667],[-65.4363,-18.3693],[-65.3439,-18.4226],[-65.3919,-18.4282],[-65.5032,-18.388],[-65.5543,-18.4052],[-65.5855,-18.3749],[-65.657,-18.3642],[-65.6728,-18.3452],[-65.6924,-18.3549],[-65.6836,-18.4211],[-65.6286,-18.4583],[-65.6243,-18.4764],[-65.6286,-18.5657],[-65.6078,-18.6741],[-65.6519,-18.7251],[-65.6522,-18.7487],[-65.6297,-18.7515],[-65.4574,-18.683],[-65.4238,-18.7025],[-65.4372,-18.7513],[-65.5064,-18.8129],[-65.47,-18.905],[-65.5396,-19.0089],[-65.522,-19.0674],[-65.4616,-19.1281],[-65.4472,-19.1789],[-65.3728,-19.2542],[-65.2928,-19.3103],[-65.248,-19.3183],[-65.1305,-19.3792],[-64.9637,-19.3504],[-64.92,-19.3706],[-64.8687,-19.4541],[-64.8708,-19.5471],[-64.7761,-19.6722],[-64.7469,-19.7324],[-64.8677,-19.8684],[-65.0564,-19.9687],[-65.2282,-19.9913],[-65.3132,-20.0423],[-65.3151,-20.1087],[-65.3688,-20.2031],[-65.3661,-20.269],[-65.296,-20.5338],[-65.3723,-20.7051],[-65.3888,-20.7774],[-65.4227,-20.8368],[-65.4293,-20.9626],[-65.472,-21.1013],[-65.4769,-21.2921],[-65.4585,-21.3351],[-65.3174,-21.4779],[-65.2349,-21.5354],[-65.2385,-21.5894],[-65.2894,-21.6784],[-65.3285,-21.8029],[-65.2765,-21.8507],[-65.2115,-21.9465],[-65.173,-22.0981],[-65.1905,-22.0985],[-65.4573,-22.1014],[-65.5799,-22.0865],[-65.6053,-22.0991],[-65.7446,-22.114],[-65.7753,-22.1051],[-65.9327,-21.9446],[-66.0465,-21.918],[-66.0636,-21.864],[-66.0945,-21.8329],[-66.2225,-21.7869],[-66.24,-21.7924],[-66.2876,-21.957],[-66.3076,-22.077],[-66.3352,-22.0823],[-66.3775,-22.1271],[-66.6268,-22.1926],[-66.6414,-22.2125],[-66.6993,-22.2008],[-66.7359,-22.2251],[-66.7905,-22.3883],[-66.7851,-22.4276],[-66.9353,-22.4805],[-66.9782,-22.5225],[-67.0327,-22.5246],[-67.0266,-22.6394],[-67.1132,-22.7101],[-67.1939,-22.8222],[-67.6168,-22.8973],[-67.7714,-22.8887],[-67.8036,-22.8787],[-67.833,-22.8401],[-67.8763,-22.8336],[-67.8915,-22.7929],[-67.8913,-22.7157],[-67.8592,-22.5473],[-67.9519,-22.3341],[-67.9348,-22.2517],[-67.945,-22.2083],[-67.9766,-22.1598],[-67.9572,-22.1246],[-67.9606,-22.1029],[-67.9902,-22.0576],[-68.0827,-21.9803],[-68.0962,-21.954],[-68.1076,-21.7896],[-68.1284,-21.7123],[-68.1906,-21.6064],[-68.1984,-21.5719],[-68.1937,-21.3285],[-68.2075,-21.2843],[-68.4163,-20.9598],[-68.4539,-20.9398],[-68.5102,-20.9402],[-68.5551,-20.9139],[-68.572,-20.8724],[-68.5728,-20.7429],[-68.5502,-20.699],[-68.4816,-20.643],[-68.481,-20.6247],[-68.6855,-20.5168],[-68.7297,-20.4792],[-68.7654,-20.4212],[-68.7577,-20.3643],[-68.6785,-20.3286],[-68.7295,-20.2287],[-68.7263,-20.151],[-68.7895,-20.1259],[-68.7926,-20.1066],[-68.7755,-20.0897],[-68.6529,-20.0542],[-68.5883,-20.0556],[-68.5446,-19.9348],[-68.5611,-19.8443],[-68.6189,-19.8134],[-68.7054,-19.7338],[-68.6903,-19.6954],[-68.631,-19.642],[-68.5767,-19.5646]]]}},{"type":"Feature","id":"Santa Cruz","properties":{"id":"Santa Cruz","iso_code":"BO-S","name":"Santa Cruz","name_full":"Santa Cruz","name_ja":"サンタクルス県","center_lonlat":[-61.505,-17.2424]},"geometry":{"type":"Polygon","coordinates":[[[-62.2106,-20.4713],[-63.2859,-20.4751],[-63.3031,-20.4689],[-63.3685,-20.3574],[-63.4152,-20.4032],[-63.4671,-20.4204],[-63.5024,-20.4604],[-63.6519,-20.4501],[-63.7069,-20.0038],[-63.7253,-19.963],[-63.7677,-19.2713],[-63.7413,-19.0444],[-63.7505,-19.0283],[-63.8726,-19.0263],[-63.8966,-19.0559],[-63.9176,-19.1538],[-63.9551,-19.173],[-64.0069,-19.1686],[-64.0647,-18.9998],[-64.1204,-18.9553],[-64.192,-18.9392],[-64.2206,-18.8656],[-64.289,-18.8142],[-64.3195,-18.7354],[-64.3199,-18.679],[-64.3402,-18.6569],[-64.2933,-18.591],[-64.3018,-18.5002],[-64.42,-18.4209],[-64.4456,-18.3564],[-64.4412,-18.3261],[-64.4776,-18.2801],[-64.4884,-18.2403],[-64.5467,-18.1529],[-64.5893,-18.1149],[-64.6412,-18.0053],[-64.6999,-17.9404],[-64.7106,-17.9107],[-64.6899,-17.867],[-64.5643,-17.7457],[-64.4056,-17.5204],[-64.3964,-17.4563],[-64.3395,-17.4207],[-64.2246,-17.416],[-64.2121,-17.3787],[-64.2383,-17.3109],[-64.3757,-17.1746],[-64.5034,-17.1031],[-64.5915,-17.0203],[-64.6474,-16.996],[-64.7417,-16.8984],[-64.7822,-16.7663],[-64.8077,-16.7296],[-64.7511,-16.6112],[-64.7784,-16.5873],[-64.7799,-16.5561],[-64.7647,-16.5258],[-64.7232,-16.4911],[-64.6842,-16.3884],[-64.6964,-16.344],[-64.676,-16.3061],[-64.6998,-16.3047],[-64.676,-16.2652],[-64.6685,-16.19],[-64.6773,-16.1691],[-64.6617,-16.118],[-64.6896,-16.0566],[-64.6887,-15.9699],[-64.7306,-15.9225],[-64.7039,-15.9116],[-64.676,-15.9225],[-64.6811,-15.8948],[-64.7039,-15.8747],[-64.6644,-15.8725],[-64.6575,-15.8505],[-63.3206,-15.9166],[-63.3848,-15.8913],[-63.4207,-15.8566],[-63.4409,-15.7742],[-63.4987,-15.6921],[-63.6238,-15.6274],[-63.6702,-15.5802],[-63.6881,-15.5049],[-63.758,-15.4561],[-63.8632,-15.2981],[-63.9498,-15.0856],[-63.9347,-15.0279],[-63.9402,-14.8323],[-63.963,-14.7374],[-63.5704,-14.6185],[-61.5931,-13.5068],[-61.5508,-13.538],[-61.5034,-13.5482],[-61.4588,-13.5437],[-61.3477,-13.4937],[-61.2486,-13.5244],[-61.1491,-13.5198],[-61.1187,-13.4845],[-61.0472,-13.4646],[-61.0413,-13.5152],[-61.022,-13.5352],[-60.8967,-13.5529],[-60.802,-13.6042],[-60.6527,-13.7188],[-60.5886,-13.7445],[-60.5751,-13.7656],[-60.4726,-13.7979],[-60.4488,-13.8968],[-60.3872,-13.9833],[-60.4194,-14.0769],[-60.4735,-14.1172],[-60.4643,-14.2784],[-60.3913,-14.3571],[-60.3384,-14.5326],[-60.3692,-14.5428],[-60.3527,-14.5754],[-60.304,-14.6082],[-60.2917,-14.6301],[-60.2698,-15.0834],[-60.275,-15.0952],[-60.5822,-15.0989],[-60.5295,-15.1437],[-60.2464,-15.4783],[-60.1798,-16.222],[-60.1607,-16.2648],[-58.4647,-16.3313],[-58.4216,-16.3184],[-58.3929,-16.2794],[-58.3497,-16.2804],[-58.3396,-16.2893],[-58.3345,-16.3866],[-58.3636,-16.4367],[-58.3427,-16.4732],[-58.3561,-16.5095],[-58.4559,-16.6191],[-58.4803,-16.6837],[-58.4529,-16.8413],[-58.4663,-16.8873],[-58.4063,-17.1101],[-58.3991,-17.2374],[-58.3812,-17.2672],[-58.2316,-17.3297],[-58.2041,-17.3774],[-58.1522,-17.3964],[-58.0102,-17.4968],[-57.9436,-17.5178],[-57.8367,-17.511],[-57.8007,-17.5335],[-57.7859,-17.6775],[-57.7676,-17.7087],[-57.7245,-17.7366],[-57.733,-17.7685],[-57.6968,-17.8251],[-57.6988,-17.8431],[-57.7301,-17.8461],[-57.6369,-18.0011],[-57.5511,-18.1836],[-57.5112,-18.2056],[-57.4745,-18.208],[-57.4668,-18.2396],[-57.5357,-18.2405],[-57.5667,-18.2561],[-57.7823,-18.9104],[-57.7318,-18.922],[-57.7158,-19.0446],[-57.789,-19.0592],[-58.1246,-19.7299],[-58.1169,-19.758],[-57.8597,-19.9801],[-57.8956,-20.0242],[-57.9179,-20.0342],[-57.9592,-20.0262],[-57.9758,-20.0475],[-58.0224,-20.065],[-58.0535,-20.1077],[-58.1163,-20.1504],[-58.1588,-20.1651],[-58.1418,-20.0009],[-58.1622,-19.9123],[-58.1612,-19.8472],[-58.1753,-19.8214],[-59.0696,-19.2915],[-60.0064,-19.2981],[-61.5108,-19.6069],[-61.7532,-19.6459],[-61.9442,-20.1041],[-62.2106,-20.4713]]]}},{"type":"Feature","id":"Tarija","properties":{"id":"Tarija","iso_code":"BO-T","name":"Tarija","name_full":"Tarija","name_ja":"タリハ県","center_lonlat":[-63.8758,-21.5888]},"geometry":{"type":"Polygon","coordinates":[[[-65.1905,-22.0985],[-65.173,-22.0981],[-65.2115,-21.9465],[-65.2765,-21.8507],[-65.3285,-21.8029],[-65.2894,-21.6784],[-65.2385,-21.5894],[-65.2349,-21.5354],[-65.1743,-20.9682],[-65.1566,-20.9458],[-65.1098,-20.9625],[-65.0785,-20.9552],[-65.0338,-21.0004],[-64.922,-21.0218],[-64.9099,-21.0443],[-64.8296,-21.0975],[-64.7752,-21.0738],[-64.7501,-20.9858],[-64.7174,-20.9359],[-64.697,-20.93],[-64.6407,-20.9472],[-64.6298,-20.9708],[-64.5726,-21.0207],[-64.531,-21.09],[-64.4457,-21.0832],[-64.359,-21.1347],[-64.2324,-21.142],[-64.199,-21.1102],[-64.2025,-21.0639],[-64.1808,-21.0133],[-64.1858,-20.9236],[-64.1752,-20.8914],[-64.1426,-20.9163],[-64.0743,-20.9143],[-64.0535,-20.9453],[-64.0004,-20.9443],[-64.01,-20.9656],[-63.983,-20.9967],[-62.2719,-21.0004],[-62.2757,-21.0666],[-62.6504,-22.2345],[-62.6793,-22.1948],[-62.7835,-22.1309],[-62.8014,-22.0135],[-62.8186,-22.0009],[-63.6394,-21.9975],[-63.6939,-22.012],[-63.7404,-22.0506],[-63.8131,-22.003],[-63.9332,-22.0018],[-63.9509,-22.0108],[-63.9681,-22.0665],[-64.0044,-22.0993],[-64.051,-22.2292],[-64.0862,-22.2579],[-64.1605,-22.4385],[-64.2508,-22.5407],[-64.294,-22.6909],[-64.2946,-22.7629],[-64.3253,-22.8719],[-64.3439,-22.8637],[-64.3477,-22.817],[-64.36,-22.803],[-64.3557,-22.7519],[-64.369,-22.7297],[-64.4017,-22.7124],[-64.4283,-22.659],[-64.4537,-22.6429],[-64.4494,-22.5871],[-64.4283,-22.5423],[-64.4981,-22.4728],[-64.5078,-22.444],[-64.5313,-22.4257],[-64.5246,-22.3854],[-64.572,-22.3432],[-64.5428,-22.2755],[-64.5869,-22.2128],[-64.6578,-22.1784],[-64.7229,-22.1833],[-64.8325,-22.1375],[-65.0204,-22.0966],[-65.1905,-22.0985]]]}}]}
