{"type":"FeatureCollection","features":[{"type":"Feature","id":"Central","properties":{"id":"Central","iso_code":"BW-CE","name":"Central","name_full":"Central","name_ja":"セントラル地区","center_lonlat":[26.2698,-21.5395]},"geometry":{"type":"Polygon","coordinates":[[[25.9674,-18.9999],[25.9481,-19.0587],[25.9486,-19.1033],[26.0344,-19.2437],[26.1303,-19.5011],[26.1555,-19.5372],[26.1945,-19.5602],[26.3035,-19.5773],[26.3335,-19.613],[26.3122,-19.6514],[26.3852,-19.6791],[26.4319,-19.7365],[26.5493,-19.7841],[26.5956,-19.8556],[26.6738,-19.8834],[26.7139,-19.9274],[26.8119,-19.9464],[26.9251,-20.0009],[27.0267,-20.0101],[27.0973,-20.0689],[27.2018,-20.093],[27.266,-20.2342],[27.284,-20.3515],[27.2684,-20.4958],[27.2718,-20.5625],[27.2152,-20.7747],[27.2294,-20.9445],[27.3072,-21.0648],[27.385,-21.2558],[27.4063,-21.3478],[27.4416,-21.4114],[27.4912,-21.468],[27.569,-21.5034],[27.6397,-21.5034],[27.7246,-21.5246],[27.859,-21.5175],[27.9156,-21.5458],[27.9904,-21.5519],[28.0329,-21.5779],[28.3219,-21.6035],[28.4646,-21.6603],[28.554,-21.6366],[28.6157,-21.6471],[28.6684,-21.68],[28.8609,-21.7574],[28.9808,-21.7748],[29.0387,-21.7979],[29.0576,-21.8292],[29.0179,-21.8981],[29.0138,-21.9404],[29.0405,-22.0209],[29.108,-22.0692],[29.2393,-22.0726],[29.2736,-22.1251],[29.3501,-22.1867],[29.2221,-22.1822],[29.1688,-22.214],[29.0387,-22.2239],[28.9602,-22.3102],[28.9679,-22.3804],[28.9125,-22.4537],[28.8466,-22.4499],[28.8168,-22.4929],[28.7314,-22.5139],[28.6239,-22.5628],[28.5598,-22.563],[28.5225,-22.5848],[28.4594,-22.5696],[28.3386,-22.5846],[28.2868,-22.6158],[28.2506,-22.6556],[28.1962,-22.6716],[28.1597,-22.7181],[28.155,-22.772],[28.1174,-22.7895],[28.1037,-22.8167],[28.0472,-22.8369],[28.054,-22.8691],[28.0374,-22.9114],[27.9375,-22.9638],[27.9461,-23.029],[27.9301,-23.057],[27.8157,-23.1047],[27.8223,-23.123],[27.7742,-23.1252],[27.7893,-23.1638],[27.7536,-23.2208],[27.7257,-23.2217],[27.6984,-23.1935],[27.6471,-23.2276],[27.608,-23.2167],[27.5633,-23.2992],[27.5694,-23.3204],[27.5489,-23.3608],[27.4527,-23.3853],[27.4252,-23.4127],[27.4111,-23.4058],[27.4105,-23.3893],[27.3612,-23.4225],[27.35,-23.3915],[27.2956,-23.4517],[27.2025,-23.4921],[27.1915,-23.5038],[27.2057,-23.5231],[27.1866,-23.5273],[27.1714,-23.5156],[27.1572,-23.5367],[27.1274,-23.525],[27.1367,-23.5702],[27.1134,-23.5643],[27.0752,-23.6112],[27.0615,-23.6044],[27.0701,-23.6561],[27.0548,-23.6664],[27.0376,-23.6657],[27.0243,-23.6425],[27.0042,-23.6458],[26.9645,-23.7471],[26.9398,-23.7505],[26.9037,-23.7898],[26.89,-23.7687],[26.8354,-23.8581],[26.8012,-23.8581],[26.7175,-23.9479],[26.0204,-23.5663],[25.8856,-23.3905],[25.8407,-23.3491],[25.7316,-23.3103],[25.4393,-22.9519],[23.8814,-21.0],[23.8835,-20.2967],[23.9223,-20.3165],[23.9954,-20.3001],[23.9957,-20.2797],[24.0266,-20.2479],[24.0865,-20.216],[24.1571,-20.1988],[24.2088,-20.2425],[24.2543,-20.2423],[24.2812,-20.2939],[24.3347,-20.3375],[24.3783,-20.3943],[24.4021,-20.4028],[24.4575,-20.3897],[25.156,-20.3384],[25.1677,-20.0732],[24.9921,-19.9955],[24.9907,-18.9999],[25.9674,-18.9999]],[[27.8435,-21.9961],[27.8739,-21.9836],[27.8829,-21.9607],[27.866,-21.9207],[27.8424,-21.9576],[27.8079,-21.9655],[27.8105,-21.997],[27.8435,-21.9961]],[[26.1948,-20.5585],[26.1263,-20.5446],[26.1204,-20.5678],[26.2522,-20.5986],[26.256,-20.5594],[26.1948,-20.5585]]]}},{"type":"Feature","id":"Francistown","properties":{"id":"Francistown","iso_code":"BW-FR","name":"Francistown","name_full":"Francistown","name_ja":"フランシスタウン","center_lonlat":[27.5069,-21.169]},"geometry":{"type":"Polygon","coordinates":[[[27.5376,-21.1069],[27.5522,-21.1151],[27.5343,-21.1457],[27.5575,-21.175],[27.5557,-21.2117],[27.4915,-21.1987],[27.4859,-21.2112],[27.4466,-21.2061],[27.4588,-21.1559],[27.5376,-21.1069]]]}},{"type":"Feature","id":"Gaborone","properties":{"id":"Gaborone","iso_code":"BW-GA","name":"Gaborone","name_full":"Gaborone","name_ja":"ハボローネ","center_lonlat":[25.9328,-24.6187]},"geometry":{"type":"Polygon","coordinates":[[[25.8349,-24.6227],[25.9512,-24.5074],[26.0334,-24.5589],[26.0321,-24.5821],[25.9574,-24.7073],[25.8916,-24.7162],[25.8575,-24.7084],[25.8349,-24.6227]]]}},{"type":"Feature","id":"Ghanzi","properties":{"id":"Ghanzi","iso_code":"BW-GH","name":"Ghanzi","name_full":"Ghanzi","name_ja":"ハンツィ地区","center_lonlat":[22.5905,-22.2942]},"geometry":{"type":"Polygon","coordinates":[[[19.9799,-23.3086],[19.9783,-22.0007],[20.972,-22.0007],[20.9848,-21.964],[20.9815,-21.0],[23.8814,-21.0],[25.4393,-22.9519],[25.2417,-23.3185],[23.0575,-23.3113],[19.9799,-23.3086]]]}},{"type":"Feature","id":"Jwaneng","properties":{"id":"Jwaneng","iso_code":"BW-JW","name":"Jwaneng","name_full":"Jwaneng","name_ja":"ジュワネン","center_lonlat":[24.7226,-24.5715]},"geometry":{"type":"Polygon","coordinates":[[[24.6397,-24.4612],[24.8136,-24.5119],[24.8206,-24.652],[24.6376,-24.6603],[24.6397,-24.4612]]]}},{"type":"Feature","id":"Kgalagadi","properties":{"id":"Kgalagadi","iso_code":"BW-KG","name":"Kgalagadi","name_full":"Kgalagadi","name_ja":"カラハリ地区","center_lonlat":[21.7421,-24.8543]},"geometry":{"type":"Polygon","coordinates":[[[19.9799,-23.3086],[23.0575,-23.3113],[23.043,-23.3974],[23.0227,-23.4143],[22.9673,-23.4169],[22.9554,-23.4627],[22.959,-23.5661],[23.0323,-23.5696],[23.0501,-23.6427],[23.0534,-23.9991],[23.0565,-24.8458],[24.075,-24.851],[24.2299,-25.004],[24.2503,-25.5014],[24.3985,-25.6463],[24.4601,-25.6537],[24.4867,-25.6726],[24.5009,-25.7578],[24.4567,-25.743],[24.3892,-25.7595],[24.3389,-25.7518],[24.2277,-25.649],[24.1835,-25.6259],[24.131,-25.6262],[24.0057,-25.6547],[24.0087,-25.6332],[23.988,-25.6195],[23.9248,-25.6292],[23.8454,-25.5691],[23.8075,-25.5236],[23.769,-25.5074],[23.7427,-25.47],[23.6867,-25.4544],[23.5611,-25.3573],[23.4966,-25.3242],[23.4593,-25.2822],[23.3814,-25.2926],[23.2657,-25.264],[23.2161,-25.2672],[23.0717,-25.326],[23.0545,-25.3025],[23.0307,-25.2994],[22.968,-25.3469],[22.9561,-25.3721],[22.9205,-25.3905],[22.8876,-25.4502],[22.8446,-25.4811],[22.814,-25.5666],[22.8334,-25.6061],[22.8108,-25.6253],[22.8102,-25.6774],[22.7598,-25.7349],[22.7405,-25.777],[22.7655,-25.8265],[22.7088,-25.891],[22.7272,-25.9439],[22.7105,-25.9969],[22.6616,-26.0209],[22.665,-26.0514],[22.5803,-26.1465],[22.5451,-26.2074],[22.4509,-26.2101],[22.3429,-26.3174],[22.2483,-26.3469],[22.1974,-26.4041],[22.1462,-26.5192],[22.0577,-26.6176],[21.999,-26.6503],[21.7806,-26.6782],[21.7687,-26.6887],[21.7775,-26.7685],[21.7623,-26.8045],[21.6645,-26.8631],[21.4987,-26.8464],[21.4266,-26.8227],[21.1225,-26.8653],[20.9904,-26.8386],[20.9077,-26.8],[20.8519,-26.8065],[20.6908,-26.8918],[20.6755,-26.85],[20.6387,-26.817],[20.6147,-26.7532],[20.6089,-26.6861],[20.6324,-26.5953],[20.6053,-26.5477],[20.6053,-26.4933],[20.6225,-26.4275],[20.666,-26.3918],[20.7533,-26.2762],[20.8414,-26.1313],[20.8039,-26.0713],[20.7941,-25.8939],[20.7558,-25.819],[20.7265,-25.8274],[20.7378,-25.7989],[20.7167,-25.7326],[20.6629,-25.6853],[20.6708,-25.6423],[20.6379,-25.6203],[20.6714,-25.5912],[20.6634,-25.5647],[20.6185,-25.5285],[20.6204,-25.5006],[20.6565,-25.4678],[20.6435,-25.4574],[20.6066,-25.462],[20.612,-25.431],[20.5969,-25.4329],[20.588,-25.404],[20.5422,-25.3822],[20.5105,-25.3123],[20.5164,-25.2836],[20.4855,-25.2632],[20.4817,-25.2305],[20.4344,-25.1998],[20.4448,-25.1684],[20.3649,-25.0332],[20.2357,-24.936],[20.1593,-24.8937],[20.1078,-24.8803],[20.0293,-24.8152],[19.9814,-24.7525],[19.9799,-23.3086]]]}},{"type":"Feature","id":"Kgatleng","properties":{"id":"Kgatleng","iso_code":"BW-KL","name":"Kgatleng","name_full":"Kgatleng","name_ja":"カトレン地区","center_lonlat":[26.3488,-24.1455]},"geometry":{"type":"Polygon","coordinates":[[[26.9645,-23.7471],[26.9381,-23.8029],[26.9412,-23.8502],[26.8392,-24.2656],[26.8023,-24.2897],[26.6929,-24.3266],[26.6235,-24.3994],[26.5312,-24.4587],[26.4695,-24.5714],[26.4044,-24.6328],[26.3257,-24.6224],[26.1659,-24.6608],[26.1124,-24.6085],[26.0334,-24.5589],[25.9512,-24.5074],[25.8944,-24.4787],[25.8862,-24.4307],[25.9262,-24.3228],[25.9566,-24.1765],[26.0204,-23.5663],[26.7175,-23.9479],[26.8012,-23.8581],[26.8354,-23.8581],[26.89,-23.7687],[26.9037,-23.7898],[26.9398,-23.7505],[26.9645,-23.7471]]]}},{"type":"Feature","id":"Kweneng","properties":{"id":"Kweneng","iso_code":"BW-KW","name":"Kweneng","name_full":"Kweneng","name_ja":"クウェネン地区","center_lonlat":[24.6856,-23.8629]},"geometry":{"type":"Polygon","coordinates":[[[25.4393,-22.9519],[25.7316,-23.3103],[25.8407,-23.3491],[25.8856,-23.3905],[26.0204,-23.5663],[25.9566,-24.1765],[25.9262,-24.3228],[25.8862,-24.4307],[25.8944,-24.4787],[25.9512,-24.5074],[25.8349,-24.6227],[25.6872,-24.7691],[25.5848,-24.7623],[25.4667,-24.7021],[24.8136,-24.5119],[24.6397,-24.4612],[23.0534,-23.9991],[23.0501,-23.6427],[23.0323,-23.5696],[22.959,-23.5661],[22.9554,-23.4627],[22.9673,-23.4169],[23.0227,-23.4143],[23.043,-23.3974],[23.0575,-23.3113],[25.2417,-23.3185],[25.4393,-22.9519]]]}},{"type":"Feature","id":"Lobatse","properties":{"id":"Lobatse","iso_code":"BW-LO","name":"Lobatse","name_full":"Lobatse","name_ja":"ロバツェ","center_lonlat":[25.6834,-25.2111]},"geometry":{"type":"Polygon","coordinates":[[[25.6809,-25.1718],[25.7056,-25.1927],[25.6936,-25.2088],[25.7053,-25.2242],[25.6874,-25.239],[25.6593,-25.2386],[25.6809,-25.1718]]]}},{"type":"Feature","id":"North-East","properties":{"id":"North-East","iso_code":"BW-NE","name":"North-East","name_full":"North-East","name_ja":"ノースイースト地区","center_lonlat":[27.5397,-21.0031]},"geometry":{"type":"Polygon","coordinates":[[[27.9904,-21.5519],[27.9156,-21.5458],[27.859,-21.5175],[27.7246,-21.5246],[27.6397,-21.5034],[27.569,-21.5034],[27.4912,-21.468],[27.4416,-21.4114],[27.4063,-21.3478],[27.385,-21.2558],[27.3072,-21.0648],[27.2294,-20.9445],[27.2152,-20.7747],[27.2718,-20.5625],[27.2684,-20.4958],[27.3407,-20.473],[27.5341,-20.483],[27.5909,-20.4733],[27.666,-20.4891],[27.6981,-20.5091],[27.7026,-20.5661],[27.6825,-20.6373],[27.7096,-20.7567],[27.6944,-20.8377],[27.676,-20.8667],[27.6804,-20.9796],[27.6666,-21.0712],[27.7092,-21.1345],[27.7938,-21.1974],[27.885,-21.3102],[27.8978,-21.3554],[27.9502,-21.4383],[27.9399,-21.478],[27.9544,-21.4878],[27.9532,-21.5105],[27.9706,-21.5144],[27.9904,-21.5519]],[[27.5387,-21.2158],[27.5593,-21.2056],[27.5575,-21.175],[27.5343,-21.1457],[27.5522,-21.1151],[27.5376,-21.1069],[27.4588,-21.1559],[27.4425,-21.1987],[27.4859,-21.2112],[27.4915,-21.1987],[27.5387,-21.2158]]]}},{"type":"Feature","id":"North-West","properties":{"id":"North-West","iso_code":"BW-NW","name":"North-West","name_full":"North-West","name_ja":"ノースウェスト地区","center_lonlat":[23.0769,-19.4382]},"geometry":{"type":"Polygon","coordinates":[[[25.9674,-18.9999],[24.9907,-18.9999],[24.9921,-19.9955],[25.1677,-20.0732],[25.156,-20.3384],[24.4575,-20.3897],[24.4021,-20.4028],[24.3783,-20.3943],[24.3347,-20.3375],[24.2812,-20.2939],[24.2543,-20.2423],[24.2088,-20.2425],[24.1571,-20.1988],[24.0865,-20.216],[24.0266,-20.2479],[23.9957,-20.2797],[23.9954,-20.3001],[23.9223,-20.3165],[23.8835,-20.2967],[23.8814,-21.0],[20.9815,-21.0],[20.9751,-18.3193],[21.4757,-18.2995],[22.9814,-18.02],[23.2928,-17.999],[23.3115,-18.0098],[23.3159,-18.0371],[23.3338,-18.0433],[23.3338,-18.074],[23.3958,-18.1634],[23.3958,-18.1914],[23.4189,-18.1984],[23.4294,-18.1885],[23.4641,-18.2255],[23.5015,-18.2375],[23.5273,-18.2777],[23.5188,-18.2937],[23.5608,-18.3485],[23.5466,-18.3695],[23.5792,-18.4679],[23.6099,-18.4777],[23.7158,-18.4191],[23.9129,-18.2357],[23.916,-18.2012],[23.9508,-18.1776],[23.9712,-18.1838],[24.057,-18.119],[24.1016,-18.1088],[24.1831,-18.0294],[24.2183,-18.0126],[24.2964,-18.0262],[24.3506,-17.9561],[24.3995,-17.9523],[24.4339,-17.9672],[24.4715,-18.03],[24.5056,-18.0603],[24.5746,-18.0504],[24.7253,-17.8959],[24.8208,-17.8393],[24.9311,-17.8105],[24.9643,-17.7867],[24.9581,-17.8009],[24.9833,-17.8205],[25.0197,-17.8238],[25.0475,-17.8071],[25.057,-17.8277],[25.1209,-17.8135],[25.1539,-17.7818],[25.1942,-17.7823],[25.2598,-17.7941],[25.2194,-17.8798],[25.2194,-17.908],[25.255,-18.0011],[25.2964,-18.0686],[25.3875,-18.139],[25.4732,-18.3034],[25.5085,-18.3991],[25.6221,-18.5011],[25.6695,-18.566],[25.7619,-18.6303],[25.7795,-18.7388],[25.8153,-18.814],[25.9407,-18.9213],[25.9674,-18.9999]]]}},{"type":"Feature","id":"Selebi-Phikwe","properties":{"id":"Selebi-Phikwe","iso_code":"BW-SP","name":"Selebi-Phikwe","name_full":"Selebi-Phikwe","name_ja":"セレビ・ピクウェ","center_lonlat":[27.8479,-21.9671]},"geometry":{"type":"Polygon","coordinates":[[[27.866,-21.9207],[27.8829,-21.9607],[27.8739,-21.9836],[27.8105,-21.997],[27.8079,-21.9655],[27.8424,-21.9576],[27.866,-21.9207]]]}},{"type":"Feature","id":"South-East","properties":{"id":"South-East","iso_code":"BW-SE","name":"South-East","name_full":"South-East","name_ja":"サウスイースト地区","center_lonlat":[25.7573,-24.9826]},"geometry":{"type":"Polygon","coordinates":[[[26.1659,-24.6608],[26.0136,-24.7045],[25.966,-24.7336],[25.9147,-24.7318],[25.8684,-24.7482],[25.8767,-24.886],[25.8371,-24.9791],[25.8352,-25.0164],[25.6955,-25.31],[25.6528,-25.4633],[25.5482,-25.424],[25.5423,-25.402],[25.6597,-25.0247],[25.6501,-25.0074],[25.5988,-25.001],[25.6348,-24.8739],[25.6683,-24.8403],[25.6872,-24.7691],[25.8349,-24.6227],[25.8575,-24.7084],[25.8916,-24.7162],[25.9574,-24.7073],[26.0321,-24.5821],[26.0334,-24.5589],[26.1124,-24.6085],[26.1659,-24.6608]],[[25.6874,-25.1831],[25.6809,-25.1718],[25.6593,-25.2386],[25.6874,-25.239],[25.7053,-25.2242],[25.6936,-25.2088],[25.7056,-25.1927],[25.6874,-25.1831]]]}},{"type":"Feature","id":"Southern","properties":{"id":"Southern","iso_code":"BW-SO","name":"Southern","name_full":"Southern","name_ja":"サザン地区","center_lonlat":[24.4608,-24.9287]},"geometry":{"type":"Polygon","coordinates":[[[25.6528,-25.4633],[25.5873,-25.6195],[25.4584,-25.7112],[25.3865,-25.7435],[25.1778,-25.7633],[25.0517,-25.7379],[25.0133,-25.743],[24.9084,-25.8041],[24.7986,-25.8292],[24.738,-25.8159],[24.6296,-25.8161],[24.5767,-25.7833],[24.5009,-25.7578],[24.4867,-25.6726],[24.4601,-25.6537],[24.3985,-25.6463],[24.2503,-25.5014],[24.2299,-25.004],[24.075,-24.851],[23.0565,-24.8458],[23.0534,-23.9991],[24.6397,-24.4612],[24.6376,-24.6603],[24.8206,-24.652],[24.8136,-24.5119],[25.4667,-24.7021],[25.5848,-24.7623],[25.6872,-24.7691],[25.6683,-24.8403],[25.6348,-24.8739],[25.5988,-25.001],[25.6501,-25.0074],[25.6597,-25.0247],[25.5423,-25.402],[25.5482,-25.424],[25.6528,-25.4633]]]}},{"type":"Feature","id":"Sowa","properties":{"id":"Sowa","iso_code":"BW-ST","name":"Sowa","name_full":"Sowa","name_ja":"ソワ","center_lonlat":[26.1922,-20.5698]},"geometry":{"type":"Polygon","coordinates":[[[26.1263,-20.5446],[26.256,-20.5594],[26.2522,-20.5986],[26.1466,-20.5801],[26.1204,-20.5678],[26.1263,-20.5446]]]}}]}
