{"type":"FeatureCollection","features":[{"type":"Feature","id":"Blagoevgrad","properties":{"id":"Blagoevgrad","iso_code":"BG-01","name":"Blagoevgrad","name_full":"Blagoevgrad","name_ja":"ブラゴエヴグラト州","center_lonlat":[23.4375,41.7232]},"geometry":{"type":"Polygon","coordinates":[[[22.8456,42.0074],[22.8754,42.0331],[22.8969,42.0304],[22.9336,42.086],[22.959,42.0871],[22.9762,42.0683],[23.0051,42.0699],[23.0607,42.0487],[23.1227,42.0576],[23.2006,42.0917],[23.2605,42.0929],[23.3872,42.0623],[23.4443,42.0697],[23.4936,42.0991],[23.5475,42.0841],[23.6002,42.1509],[23.718,42.1605],[23.7631,42.1776],[23.816,42.1123],[23.8013,42.0627],[23.8205,42.0453],[23.7666,41.9765],[23.7625,41.9399],[23.7896,41.906],[23.7957,41.8609],[23.8217,41.8238],[23.8682,41.7954],[23.9055,41.7965],[23.9282,41.769],[24.0726,41.6863],[24.1231,41.6546],[24.0779,41.624],[24.1977,41.5477],[24.1702,41.5116],[24.1165,41.5334],[24.0473,41.5257],[24.052,41.463],[24.0347,41.4513],[24.0007,41.4641],[23.9499,41.4376],[23.8948,41.4643],[23.8516,41.4396],[23.7771,41.429],[23.7544,41.4007],[23.6722,41.403],[23.6124,41.371],[23.513,41.3977],[23.4145,41.3999],[23.326,41.3693],[23.2877,41.3982],[23.2699,41.3973],[23.2242,41.379],[23.1995,41.333],[23.1572,41.3163],[22.917,41.3358],[22.9409,41.3498],[22.9373,41.4108],[22.9546,41.4324],[22.9361,41.6262],[22.967,41.647],[22.9986,41.6931],[23.0089,41.7399],[22.9912,41.761],[22.9459,41.7693],[22.9014,41.8604],[22.8808,41.8727],[22.8456,42.0074]]]}},{"type":"Feature","id":"Burgas","properties":{"id":"Burgas","iso_code":"BG-02","name":"Burgas","name_full":"Burgas","name_ja":"ブルガス州","center_lonlat":[27.3034,42.5009]},"geometry":{"type":"Polygon","coordinates":[[[27.0479,42.0829],[27.0549,42.1303],[27.0199,42.1845],[27.0399,42.2341],[27.0366,42.2745],[27.0833,42.306],[27.0895,42.3373],[27.0703,42.3649],[27.0401,42.3791],[26.9797,42.3872],[26.9606,42.4219],[26.87,42.4715],[26.8692,42.4918],[26.7999,42.5462],[26.7194,42.6892],[26.6608,42.6958],[26.5931,42.6756],[26.5128,42.7042],[26.499,42.7301],[26.5783,42.7706],[26.5774,42.814],[26.5923,42.8286],[26.5664,42.8811],[26.5724,42.9238],[26.6452,42.9372],[26.6546,42.9],[26.6897,42.8889],[26.7623,42.9084],[26.801,42.9469],[26.8776,42.9496],[26.9092,42.934],[26.9815,42.9402],[27.0237,42.9288],[27.1191,42.9537],[27.2365,42.9884],[27.2849,42.9767],[27.3554,42.9114],[27.4458,42.8837],[27.4952,42.8757],[27.6206,42.9094],[27.8018,42.8221],[27.884,42.8484],[27.8971,42.784],[27.8923,42.7105],[27.7327,42.7145],[27.7158,42.6837],[27.7395,42.6611],[27.6284,42.629],[27.6502,42.5581],[27.5409,42.5655],[27.5115,42.553],[27.4802,42.4829],[27.4623,42.4896],[27.4534,42.4652],[27.4657,42.4556],[27.4657,42.4283],[27.4727,42.4619],[27.5142,42.4351],[27.5444,42.46],[27.562,42.4482],[27.5711,42.4585],[27.5956,42.4482],[27.6294,42.4586],[27.6433,42.4556],[27.6365,42.4482],[27.6522,42.4185],[27.6917,42.4283],[27.6991,42.4139],[27.719,42.4147],[27.698,42.4004],[27.719,42.3867],[27.7095,42.3768],[27.7144,42.3492],[27.7404,42.3343],[27.7804,42.3389],[27.7744,42.3217],[27.7879,42.311],[27.7511,42.277],[27.7559,42.2585],[27.8562,42.1813],[27.8494,42.1671],[27.8791,42.1542],[27.904,42.1198],[27.9866,42.0721],[27.9824,42.0611],[28.0191,42.0085],[28.0168,41.9726],[27.8119,41.9947],[27.8027,41.9601],[27.8153,41.9468],[27.7898,41.9427],[27.724,41.9676],[27.6871,41.9686],[27.6093,41.9535],[27.6034,41.9386],[27.5508,41.9242],[27.5607,41.9177],[27.5489,41.9109],[27.5627,41.9064],[27.5464,41.9012],[27.4943,41.9428],[27.3969,41.9893],[27.3325,42.0574],[27.2734,42.0917],[27.2164,42.0956],[27.1738,42.0571],[27.0479,42.0829]]]}},{"type":"Feature","id":"Dobrich","properties":{"id":"Dobrich","iso_code":"BG-08","name":"Dobrich","name_full":"Dobrich","name_ja":"ドブリチ州","center_lonlat":[27.9269,43.6496]},"geometry":{"type":"Polygon","coordinates":[[[27.6825,43.9873],[27.7217,43.9487],[27.8565,43.9886],[27.9121,43.9933],[27.9358,43.9644],[27.981,43.8493],[28.2213,43.762],[28.4346,43.7352],[28.5784,43.7413],[28.5731,43.6061],[28.6035,43.5382],[28.5603,43.4538],[28.4886,43.4064],[28.4732,43.3668],[28.3938,43.4143],[28.3216,43.4283],[28.2432,43.4078],[28.1572,43.4078],[28.1188,43.3915],[28.087,43.3552],[28.0135,43.3531],[27.9655,43.3928],[27.9338,43.3943],[27.8677,43.3654],[27.8087,43.3877],[27.7409,43.4568],[27.678,43.4789],[27.6038,43.5419],[27.5779,43.5185],[27.5199,43.4992],[27.495,43.508],[27.4585,43.5627],[27.4189,43.5712],[27.4088,43.5986],[27.3856,43.6094],[27.3059,43.5949],[27.2769,43.6049],[27.2562,43.6353],[27.2001,43.6689],[27.237,43.6707],[27.2129,43.6979],[27.2155,43.7427],[27.2764,43.7947],[27.2964,43.8025],[27.3422,43.7754],[27.3861,43.776],[27.3738,43.8251],[27.4302,43.8444],[27.4812,43.8309],[27.5215,43.8521],[27.5309,43.9135],[27.6074,43.908],[27.6048,43.9387],[27.6414,43.9542],[27.6366,43.9764],[27.6825,43.9873]]]}},{"type":"Feature","id":"Gabrovo","properties":{"id":"Gabrovo","iso_code":"BG-07","name":"Gabrovo","name_full":"Gabrovo","name_ja":"ガブロヴォ州","center_lonlat":[25.2332,42.9315]},"geometry":{"type":"Polygon","coordinates":[[[25.0115,42.7483],[25.0112,42.7585],[25.0025,42.8074],[24.9776,42.8532],[24.8851,42.8998],[24.8675,42.9868],[24.9202,43.0336],[24.9116,43.0663],[24.9243,43.1069],[24.9617,43.1269],[24.9854,43.1959],[25.0725,43.1811],[25.0786,43.1619],[25.1437,43.1096],[25.2791,43.108],[25.3068,43.0601],[25.3329,43.0512],[25.5594,43.0332],[25.5765,42.9943],[25.5533,42.9391],[25.6276,42.8885],[25.6185,42.8391],[25.5972,42.8078],[25.6201,42.767],[25.6272,42.7485],[25.6127,42.7379],[25.5594,42.7727],[25.5357,42.753],[25.4505,42.7516],[25.394,42.7358],[25.2877,42.7604],[25.2472,42.7428],[25.2163,42.7726],[25.0629,42.7451],[25.0115,42.7483]]]}},{"type":"Feature","id":"Haskovo","properties":{"id":"Haskovo","iso_code":"BG-26","name":"Haskovo","name_full":"Haskovo","name_ja":"ハスコヴォ州","center_lonlat":[25.8299,41.8918]},"geometry":{"type":"Polygon","coordinates":[[[26.5529,41.8816],[26.5261,41.8242],[26.4784,41.8133],[26.3755,41.8166],[26.3342,41.7895],[26.3163,41.7438],[26.3334,41.713],[26.2739,41.7149],[26.2118,41.7505],[26.1899,41.7347],[26.1084,41.7279],[26.0605,41.7073],[26.0475,41.6746],[26.0595,41.6438],[25.9642,41.6126],[25.9569,41.592],[25.9169,41.5627],[25.8731,41.5782],[25.8276,41.6148],[25.8172,41.6548],[25.7822,41.6646],[25.747,41.6517],[25.7147,41.6211],[25.6802,41.6304],[25.6391,41.6204],[25.6056,41.6337],[25.634,41.7009],[25.5858,41.7614],[25.5316,41.7867],[25.4708,41.77],[25.4084,41.7978],[25.3893,41.8466],[25.3,41.8097],[25.2472,41.817],[25.2108,41.8785],[25.2226,41.9037],[25.2737,41.9292],[25.3075,41.972],[25.2823,42.0871],[25.284,42.1332],[25.3295,42.1245],[25.4498,42.0987],[25.4739,42.1665],[25.5068,42.1763],[25.5405,42.1673],[25.5889,42.1927],[25.623,42.1802],[25.6226,42.1455],[25.6076,42.13],[25.6637,42.1358],[25.7566,42.0615],[25.8035,42.0783],[25.87,42.1273],[25.9498,42.1081],[26.057,42.0196],[26.1428,42.0457],[26.2285,42.0135],[26.3201,42.0046],[26.3504,41.9876],[26.3668,41.9407],[26.403,41.9799],[26.4373,41.9742],[26.4616,41.9493],[26.46,41.9115],[26.4803,41.8939],[26.5307,41.8723],[26.5529,41.8816]]]}},{"type":"Feature","id":"Kardzhali","properties":{"id":"Kardzhali","iso_code":"BG-09","name":"Kardzhali","name_full":"Kardzhali","name_ja":"クルジャリ州","center_lonlat":[25.5287,41.5274]},"geometry":{"type":"Polygon","coordinates":[[[26.0595,41.6438],[26.1153,41.6166],[26.1312,41.5527],[26.1525,41.547],[26.1631,41.5291],[26.1459,41.478],[26.1756,41.4319],[26.1147,41.3552],[25.882,41.304],[25.811,41.341],[25.68,41.2972],[25.6398,41.3111],[25.5515,41.3157],[25.5051,41.2806],[25.4535,41.2804],[25.2623,41.2381],[25.2197,41.2497],[25.1538,41.3075],[25.1464,41.3655],[25.1548,41.3838],[25.1348,41.4082],[25.1518,41.4553],[25.1421,41.5235],[25.0886,41.512],[25.0707,41.4916],[25.0471,41.5005],[24.9936,41.5775],[24.9934,41.5997],[25.0651,41.6077],[25.0939,41.6292],[25.091,41.6814],[25.0383,41.7608],[25.0671,41.795],[25.0911,41.7933],[25.1021,41.831],[25.1494,41.8818],[25.1959,41.9086],[25.2226,41.9037],[25.2108,41.8785],[25.2472,41.817],[25.3,41.8097],[25.3893,41.8466],[25.4084,41.7978],[25.4708,41.77],[25.5316,41.7867],[25.5858,41.7614],[25.634,41.7009],[25.6056,41.6337],[25.6391,41.6204],[25.6802,41.6304],[25.7147,41.6211],[25.747,41.6517],[25.7822,41.6646],[25.8172,41.6548],[25.8276,41.6148],[25.8731,41.5782],[25.9169,41.5627],[25.9569,41.592],[25.9642,41.6126],[26.0595,41.6438]]]}},{"type":"Feature","id":"Kyustendil","properties":{"id":"Kyustendil","iso_code":"BG-10","name":"Kyustendil","name_full":"Kyustendil","name_ja":"キュステンディル州","center_lonlat":[22.875,42.2623]},"geometry":{"type":"Polygon","coordinates":[[[22.4413,42.6329],[22.5685,42.6324],[22.599,42.6204],[22.6526,42.5337],[22.6691,42.5192],[22.6988,42.5254],[22.7163,42.5059],[22.7132,42.474],[22.7291,42.4566],[22.8501,42.3602],[22.9173,42.3888],[23.0001,42.3968],[23.0902,42.376],[23.1028,42.4032],[23.1312,42.385],[23.2157,42.3732],[23.2939,42.3736],[23.3276,42.3172],[23.3993,42.2621],[23.3246,42.1957],[23.339,42.1732],[23.4281,42.1869],[23.4733,42.1464],[23.5298,42.1352],[23.4936,42.0991],[23.4443,42.0697],[23.3872,42.0623],[23.2605,42.0929],[23.2006,42.0917],[23.1227,42.0576],[23.0607,42.0487],[23.0051,42.0699],[22.9762,42.0683],[22.959,42.0871],[22.9336,42.086],[22.8969,42.0304],[22.8754,42.0331],[22.8456,42.0074],[22.827,42.0251],[22.7989,42.0212],[22.7809,42.0432],[22.7251,42.0425],[22.6178,42.0827],[22.5311,42.1291],[22.4814,42.1933],[22.4436,42.2144],[22.345,42.3134],[22.424,42.3259],[22.4698,42.3917],[22.5088,42.4049],[22.5331,42.4576],[22.5249,42.5077],[22.4253,42.5729],[22.4413,42.6329]]]}},{"type":"Feature","id":"Lovech","properties":{"id":"Lovech","iso_code":"BG-11","name":"Lovech","name_full":"Lovech","name_ja":"ロヴェチ州","center_lonlat":[24.549,43.0242]},"geometry":{"type":"Polygon","coordinates":[[[24.3967,42.7549],[24.3325,42.7578],[24.2852,42.7797],[24.1586,42.7809],[24.1386,42.8036],[24.1521,42.8438],[24.1514,42.9087],[24.1293,42.9358],[24.0906,42.9423],[24.0447,42.9788],[24.0523,42.9998],[24.0243,43.0456],[24.0062,43.0602],[23.9775,43.0599],[23.9584,43.1145],[23.9738,43.1221],[24.0163,43.1108],[24.0349,43.1733],[24.0268,43.2117],[24.1328,43.2523],[24.1565,43.238],[24.2352,43.2263],[24.317,43.2456],[24.3539,43.2738],[24.3925,43.278],[24.4431,43.231],[24.5642,43.2141],[24.5744,43.2011],[24.6252,43.2274],[24.6635,43.2704],[24.6743,43.259],[24.7528,43.3087],[24.8746,43.3133],[24.8963,43.2945],[24.9222,43.2955],[25.0067,43.325],[25.0244,43.3376],[25.0298,43.3638],[25.1116,43.2799],[25.1165,43.2152],[25.0725,43.1811],[24.9854,43.1959],[24.9617,43.1269],[24.9243,43.1069],[24.9116,43.0663],[24.9202,43.0336],[24.8675,42.9868],[24.8851,42.8998],[24.9776,42.8532],[25.0025,42.8074],[25.0112,42.7585],[24.98,42.7532],[24.9662,42.7321],[24.9247,42.714],[24.7751,42.7191],[24.752,42.7094],[24.7039,42.7167],[24.6307,42.7753],[24.5853,42.7886],[24.5,42.792],[24.4376,42.7517],[24.3967,42.7549]]]}},{"type":"Feature","id":"Montana","properties":{"id":"Montana","iso_code":"BG-12","name":"Montana","name_full":"Montana","name_ja":"モンタナ州","center_lonlat":[23.2136,43.5159]},"geometry":{"type":"Polygon","coordinates":[[[22.9829,43.1873],[22.9814,43.199],[22.8838,43.2306],[22.827,43.2814],[22.8045,43.329],[22.7243,43.3861],[22.7716,43.4172],[22.7975,43.4909],[22.9687,43.5268],[22.9709,43.5626],[22.9381,43.5811],[22.9526,43.6348],[22.9876,43.6744],[23.0359,43.6876],[23.0469,43.7017],[23.0294,43.7425],[22.9752,43.7658],[22.9909,43.7799],[23.0402,43.7836],[23.0526,43.8428],[23.3252,43.8866],[23.4847,43.8806],[23.6209,43.834],[23.6333,43.8009],[23.6225,43.7141],[23.5858,43.621],[23.551,43.5838],[23.6215,43.5405],[23.6228,43.5283],[23.609,43.5192],[23.5925,43.527],[23.5462,43.4944],[23.4822,43.5053],[23.4414,43.488],[23.4108,43.4559],[23.405,43.3785],[23.3357,43.3033],[23.3272,43.2757],[23.4635,43.2315],[23.4507,43.2086],[23.3966,43.1899],[23.3989,43.1629],[23.3627,43.1337],[23.2203,43.1112],[23.1273,43.1172],[23.0289,43.1949],[22.9829,43.1873]]]}},{"type":"Feature","id":"Pazardzhik","properties":{"id":"Pazardzhik","iso_code":"BG-13","name":"Pazardzhik","name_full":"Pazardzhik","name_ja":"パザルジク州","center_lonlat":[24.1452,42.1511]},"geometry":{"type":"Polygon","coordinates":[[[24.4082,42.5621],[24.3944,42.4641],[24.4161,42.4608],[24.4284,42.4354],[24.4371,42.3616],[24.4783,42.3265],[24.4636,42.3004],[24.4888,42.2409],[24.4831,42.1924],[24.5157,42.1688],[24.4503,42.1349],[24.4535,42.0934],[24.4414,42.0709],[24.4626,41.996],[24.4511,41.9494],[24.424,41.8895],[24.3577,41.8615],[24.3152,41.8174],[24.3146,41.771],[24.2713,41.7419],[24.1772,41.7281],[24.1893,41.7641],[24.1496,41.7911],[24.0631,41.792],[24.0664,41.7679],[24.0996,41.7421],[24.1023,41.7094],[24.0726,41.6863],[23.9282,41.769],[23.9055,41.7965],[23.8682,41.7954],[23.8217,41.8238],[23.7957,41.8609],[23.7896,41.906],[23.7625,41.9399],[23.7666,41.9765],[23.8205,42.0453],[23.8013,42.0627],[23.816,42.1123],[23.7631,42.1776],[23.7957,42.1887],[23.8009,42.2113],[23.8481,42.2257],[23.8806,42.2615],[23.8885,42.2907],[23.9125,42.296],[23.9581,42.268],[23.9733,42.2999],[23.9415,42.3468],[23.9594,42.3923],[24.0384,42.408],[24.0547,42.445],[24.0387,42.4649],[23.9881,42.4587],[23.9214,42.5075],[23.8981,42.547],[23.904,42.5695],[23.9614,42.5793],[24.0347,42.5534],[24.1296,42.5816],[24.1575,42.6107],[24.2289,42.6297],[24.285,42.6213],[24.3018,42.588],[24.3504,42.5652],[24.4082,42.5621]]]}},{"type":"Feature","id":"Pernik","properties":{"id":"Pernik","iso_code":"BG-14","name":"Pernik","name_full":"Pernik","name_ja":"ペルニク州","center_lonlat":[22.8459,42.6254]},"geometry":{"type":"Polygon","coordinates":[[[22.7396,42.8989],[22.7984,42.8391],[22.8319,42.8375],[22.8451,42.8551],[22.86,42.849],[22.8538,42.8176],[22.8734,42.8076],[22.8984,42.8182],[22.9348,42.7761],[22.9649,42.7762],[22.9756,42.7628],[23.0249,42.7627],[23.0595,42.7099],[23.1476,42.6611],[23.1697,42.5905],[23.2785,42.5323],[23.2225,42.4499],[23.2327,42.4063],[23.2157,42.3732],[23.1312,42.385],[23.1028,42.4032],[23.0902,42.376],[23.0001,42.3968],[22.9173,42.3888],[22.8501,42.3602],[22.7291,42.4566],[22.7132,42.474],[22.7163,42.5059],[22.6988,42.5254],[22.6691,42.5192],[22.6526,42.5337],[22.599,42.6204],[22.5685,42.6324],[22.4413,42.6329],[22.4421,42.6817],[22.4829,42.7338],[22.4258,42.8098],[22.4368,42.8243],[22.506,42.8701],[22.5376,42.8683],[22.5636,42.8843],[22.6662,42.8719],[22.7396,42.8989]]]}},{"type":"Feature","id":"Pleven","properties":{"id":"Pleven","iso_code":"BG-15","name":"Pleven","name_full":"Pleven","name_ja":"プレヴェン州","center_lonlat":[24.6586,43.5011]},"geometry":{"type":"Polygon","coordinates":[[[25.2854,43.6904],[25.2312,43.6561],[25.2173,43.6157],[25.1874,43.5891],[25.1952,43.5582],[25.2194,43.5466],[25.1967,43.5115],[25.136,43.4617],[25.1475,43.4403],[25.1903,43.4421],[25.2257,43.3365],[25.1496,43.2871],[25.1116,43.2799],[25.0298,43.3638],[25.0244,43.3376],[25.0067,43.325],[24.9222,43.2955],[24.8963,43.2945],[24.8746,43.3133],[24.7528,43.3087],[24.6743,43.259],[24.6635,43.2704],[24.6252,43.2274],[24.5744,43.2011],[24.5642,43.2141],[24.4431,43.231],[24.3925,43.278],[24.3539,43.2738],[24.317,43.2456],[24.2352,43.2263],[24.1565,43.238],[24.1328,43.2523],[24.0268,43.2117],[23.9594,43.2316],[23.9507,43.2452],[23.9786,43.2946],[24.0524,43.3158],[24.0819,43.3081],[24.1119,43.3277],[24.1807,43.3249],[24.2281,43.3431],[24.2442,43.4205],[24.2249,43.4845],[24.1787,43.4914],[24.1202,43.589],[24.1995,43.6474],[24.2315,43.645],[24.2875,43.6652],[24.329,43.7112],[24.3367,43.7593],[24.4663,43.8024],[24.7056,43.7438],[24.9637,43.7496],[25.0816,43.7189],[25.2113,43.7119],[25.2854,43.6904]]]}},{"type":"Feature","id":"Plovdiv","properties":{"id":"Plovdiv","iso_code":"BG-16","name":"Plovdiv","name_full":"Plovdiv","name_ja":"プロヴディフ州","center_lonlat":[24.8057,42.29]},"geometry":{"type":"Polygon","coordinates":[[[25.0115,42.7483],[25.0064,42.7131],[25.0229,42.6416],[25.0135,42.6221],[24.9944,42.617],[25.026,42.5413],[25.0816,42.5025],[25.1595,42.5097],[25.1759,42.4895],[25.1563,42.4541],[25.1974,42.4169],[25.1911,42.4025],[25.1364,42.4159],[25.1084,42.4011],[25.1158,42.3413],[25.1491,42.2862],[25.0858,42.2632],[25.0731,42.229],[25.088,42.188],[25.1674,42.144],[25.1822,42.1683],[25.2672,42.1707],[25.3295,42.1245],[25.284,42.1332],[25.2823,42.0871],[25.3075,41.972],[25.2737,41.9292],[25.2226,41.9037],[25.1959,41.9086],[25.1494,41.8818],[25.1021,41.831],[25.0911,41.7933],[25.0671,41.795],[25.0313,41.8009],[24.9938,41.8389],[24.9338,41.8314],[24.9144,41.8581],[24.8452,41.8958],[24.8087,41.931],[24.711,41.9365],[24.5626,41.8852],[24.4511,41.9494],[24.4626,41.996],[24.4414,42.0709],[24.4535,42.0934],[24.4503,42.1349],[24.5157,42.1688],[24.4831,42.1924],[24.4888,42.2409],[24.4636,42.3004],[24.4783,42.3265],[24.4371,42.3616],[24.4284,42.4354],[24.4161,42.4608],[24.3944,42.4641],[24.4082,42.5621],[24.4683,42.5771],[24.473,42.5993],[24.4163,42.645],[24.3731,42.6617],[24.3602,42.7074],[24.3967,42.7549],[24.4376,42.7517],[24.5,42.792],[24.5853,42.7886],[24.6307,42.7753],[24.7039,42.7167],[24.752,42.7094],[24.7751,42.7191],[24.9247,42.714],[24.9662,42.7321],[24.98,42.7532],[25.0112,42.7585],[25.0115,42.7483]]]}},{"type":"Feature","id":"Razgrad","properties":{"id":"Razgrad","iso_code":"BG-17","name":"Razgrad","name_full":"Razgrad","name_ja":"ラズグラト州","center_lonlat":[26.566,43.6571]},"geometry":{"type":"Polygon","coordinates":[[[27.0008,43.6996],[27.0132,43.6674],[26.9223,43.5876],[26.8955,43.6079],[26.8731,43.6035],[26.7926,43.5495],[26.8094,43.5296],[26.7951,43.5105],[26.7233,43.4847],[26.7181,43.4599],[26.7321,43.439],[26.7231,43.4109],[26.6812,43.4153],[26.6771,43.3765],[26.6342,43.3693],[26.5984,43.3422],[26.4872,43.3497],[26.4853,43.4177],[26.3605,43.4415],[26.3485,43.4486],[26.3637,43.4836],[26.2715,43.5377],[26.2273,43.5477],[26.1842,43.5359],[26.1624,43.5621],[26.1615,43.6116],[26.1799,43.6616],[26.2063,43.6435],[26.2436,43.6639],[26.2953,43.6584],[26.3222,43.6965],[26.3425,43.7044],[26.3399,43.7451],[26.3578,43.7629],[26.2516,43.7921],[26.2539,43.8321],[26.2995,43.8527],[26.3215,43.8902],[26.3962,43.9496],[26.4648,43.9468],[26.4916,43.925],[26.5457,43.9449],[26.5683,43.937],[26.6172,43.8694],[26.7355,43.8449],[26.7674,43.8072],[26.8372,43.8437],[26.8598,43.8062],[26.9031,43.7755],[26.9133,43.7414],[26.9475,43.7428],[27.0008,43.6996]]]}},{"type":"Feature","id":"Ruse","properties":{"id":"Ruse","iso_code":"BG-18","name":"Ruse","name_full":"Ruse","name_ja":"ルセ州","center_lonlat":[25.9521,43.6735]},"geometry":{"type":"Polygon","coordinates":[[[26.3323,44.0549],[26.3496,44.0223],[26.3762,44.0195],[26.3962,43.9496],[26.3215,43.8902],[26.2995,43.8527],[26.2539,43.8321],[26.2516,43.7921],[26.3578,43.7629],[26.3399,43.7451],[26.3425,43.7044],[26.3222,43.6965],[26.2953,43.6584],[26.2436,43.6639],[26.2063,43.6435],[26.1799,43.6616],[26.1615,43.6116],[26.1624,43.5621],[26.1842,43.5359],[26.094,43.5309],[26.0392,43.5073],[26.0196,43.4533],[25.9461,43.4166],[25.9694,43.3738],[26.0188,43.3634],[26.0205,43.3189],[25.9494,43.3302],[25.9354,43.3752],[25.8522,43.3643],[25.7917,43.3711],[25.7578,43.3782],[25.6998,43.4151],[25.6757,43.415],[25.6628,43.3967],[25.6057,43.4126],[25.5501,43.4533],[25.5668,43.5084],[25.5228,43.5054],[25.5211,43.5177],[25.4701,43.5459],[25.4648,43.5674],[25.5082,43.6144],[25.4825,43.6697],[25.5566,43.6704],[25.6714,43.7174],[25.7811,43.732],[25.8063,43.7637],[25.8693,43.8009],[25.934,43.8703],[26.0543,43.9343],[26.1162,43.9989],[26.3323,44.0549]]]}},{"type":"Feature","id":"Shumen","properties":{"id":"Shumen","iso_code":"BG-27","name":"Shumen","name_full":"Shumen","name_ja":"シュメン州","center_lonlat":[26.9837,43.2928]},"geometry":{"type":"Polygon","coordinates":[[[26.5724,42.9238],[26.5525,42.9577],[26.5743,42.9866],[26.6298,43.0065],[26.6142,43.0377],[26.645,43.0492],[26.6565,43.081],[26.6863,43.0989],[26.6569,43.1212],[26.6779,43.1464],[26.7099,43.1551],[26.7354,43.2005],[26.7643,43.2094],[26.766,43.2522],[26.7335,43.2975],[26.7487,43.3437],[26.7813,43.3682],[26.7727,43.4035],[26.7231,43.4109],[26.7321,43.439],[26.7181,43.4599],[26.7233,43.4847],[26.7951,43.5105],[26.8094,43.5296],[26.7926,43.5495],[26.8731,43.6035],[26.8955,43.6079],[26.9223,43.5876],[27.0132,43.6674],[27.0008,43.6996],[27.0541,43.7216],[27.1338,43.67],[27.2001,43.6689],[27.2562,43.6353],[27.2769,43.6049],[27.3059,43.5949],[27.3856,43.6094],[27.4088,43.5986],[27.4189,43.5712],[27.3385,43.5544],[27.2851,43.52],[27.334,43.5081],[27.3109,43.4737],[27.3354,43.452],[27.2707,43.3788],[27.2718,43.3536],[27.3026,43.319],[27.2503,43.2972],[27.2487,43.2524],[27.1568,43.2317],[27.1531,43.2069],[27.2123,43.1784],[27.2116,43.1549],[27.1627,43.12],[27.1859,43.1001],[27.158,43.0833],[27.2036,43.0717],[27.2091,43.0474],[27.0785,43.0009],[27.1191,42.9537],[27.0237,42.9288],[26.9815,42.9402],[26.9092,42.934],[26.8776,42.9496],[26.801,42.9469],[26.7623,42.9084],[26.6897,42.8889],[26.6546,42.9],[26.6452,42.9372],[26.5724,42.9238]]]}},{"type":"Feature","id":"Silistra","properties":{"id":"Silistra","iso_code":"BG-19","name":"Silistra","name_full":"Silistra","name_ja":"シリストラ州","center_lonlat":[27.0187,43.9485]},"geometry":{"type":"Polygon","coordinates":[[[27.6825,43.9873],[27.6366,43.9764],[27.6414,43.9542],[27.6048,43.9387],[27.6074,43.908],[27.5309,43.9135],[27.5215,43.8521],[27.4812,43.8309],[27.4302,43.8444],[27.3738,43.8251],[27.3861,43.776],[27.3422,43.7754],[27.2964,43.8025],[27.2764,43.7947],[27.2155,43.7427],[27.2129,43.6979],[27.237,43.6707],[27.2001,43.6689],[27.1338,43.67],[27.0541,43.7216],[27.0008,43.6996],[26.9475,43.7428],[26.9133,43.7414],[26.9031,43.7755],[26.8598,43.8062],[26.8372,43.8437],[26.7674,43.8072],[26.7355,43.8449],[26.6172,43.8694],[26.5683,43.937],[26.5457,43.9449],[26.4916,43.925],[26.4648,43.9468],[26.3962,43.9496],[26.3762,44.0195],[26.3496,44.0223],[26.3323,44.0549],[26.7537,44.1081],[26.8841,44.1565],[27.0015,44.1651],[27.0275,44.177],[27.1002,44.1445],[27.2511,44.1224],[27.269,44.1124],[27.2643,44.0898],[27.2853,44.0725],[27.3417,44.0531],[27.3838,44.0151],[27.5745,44.0163],[27.6334,44.0298],[27.6563,44.0239],[27.6825,43.9873]]]}},{"type":"Feature","id":"Sliven","properties":{"id":"Sliven","iso_code":"BG-20","name":"Sliven","name_full":"Sliven","name_ja":"スリヴェン州","center_lonlat":[26.2055,42.6434]},"geometry":{"type":"Polygon","coordinates":[[[25.8109,42.7828],[25.9673,42.7842],[26.0103,42.8135],[26.0568,42.8172],[26.0669,42.8683],[26.0823,42.8861],[26.1495,42.9098],[26.172,42.9491],[26.2243,42.9587],[26.268,42.9913],[26.2747,43.0347],[26.3358,43.0415],[26.3609,43.033],[26.3634,43.01],[26.3813,43.025],[26.4187,43.0063],[26.4914,43.0199],[26.5743,42.9866],[26.5525,42.9577],[26.5724,42.9238],[26.5664,42.8811],[26.5923,42.8286],[26.5774,42.814],[26.5783,42.7706],[26.499,42.7301],[26.5128,42.7042],[26.5931,42.6756],[26.6608,42.6958],[26.6637,42.6629],[26.6434,42.6218],[26.6035,42.6198],[26.5488,42.5776],[26.4045,42.5628],[26.3782,42.549],[26.399,42.5194],[26.3632,42.5003],[26.3424,42.4608],[26.2959,42.4493],[26.2453,42.463],[26.2241,42.4534],[26.2342,42.4225],[26.1686,42.4054],[26.1754,42.3686],[26.225,42.3576],[26.1737,42.2657],[26.1809,42.2172],[26.1664,42.1803],[26.1301,42.157],[26.0246,42.1527],[25.9744,42.1976],[25.9792,42.2709],[25.9589,42.3162],[25.8993,42.3867],[25.9006,42.4118],[25.8727,42.4498],[25.8819,42.4938],[25.831,42.5386],[25.883,42.5683],[25.8787,42.604],[25.8219,42.7149],[25.8109,42.7828]]]}},{"type":"Feature","id":"Smolyan","properties":{"id":"Smolyan","iso_code":"BG-21","name":"Smolyan","name_full":"Smolyan","name_ja":"スモリャン州","center_lonlat":[24.6671,41.6512]},"geometry":{"type":"Polygon","coordinates":[[[24.1977,41.5477],[24.0779,41.624],[24.1231,41.6546],[24.0726,41.6863],[24.1023,41.7094],[24.0996,41.7421],[24.0664,41.7679],[24.0631,41.792],[24.1496,41.7911],[24.1893,41.7641],[24.1772,41.7281],[24.2713,41.7419],[24.3146,41.771],[24.3152,41.8174],[24.3577,41.8615],[24.424,41.8895],[24.4511,41.9494],[24.5626,41.8852],[24.711,41.9365],[24.8087,41.931],[24.8452,41.8958],[24.9144,41.8581],[24.9338,41.8314],[24.9938,41.8389],[25.0313,41.8009],[25.0671,41.795],[25.0383,41.7608],[25.091,41.6814],[25.0939,41.6292],[25.0651,41.6077],[24.9934,41.5997],[24.9936,41.5775],[25.0471,41.5005],[25.0707,41.4916],[25.0886,41.512],[25.1421,41.5235],[25.1518,41.4553],[25.1348,41.4082],[25.1548,41.3838],[25.1464,41.3655],[25.1538,41.3075],[25.1019,41.3367],[25.0804,41.3341],[24.8864,41.4006],[24.8033,41.3927],[24.7943,41.3474],[24.7744,41.3481],[24.6992,41.4089],[24.5804,41.4405],[24.5811,41.4602],[24.5494,41.4854],[24.5309,41.5475],[24.5102,41.5617],[24.4592,41.5495],[24.4388,41.5277],[24.2961,41.5152],[24.2864,41.5404],[24.2507,41.5635],[24.1977,41.5477]]]}},{"type":"Feature","id":"Sofia","properties":{"id":"Sofia","iso_code":"BG-23","name":"Sofia","name_full":"Sofia","name_ja":"ソフィア州","center_lonlat":[23.6007,42.7082]},"geometry":{"type":"Polygon","coordinates":[[[22.7396,42.8989],[22.7764,42.9797],[22.8289,42.9934],[22.9556,43.1083],[22.9829,43.1873],[23.0289,43.1949],[23.1273,43.1172],[23.2203,43.1112],[23.3627,43.1337],[23.3989,43.1629],[23.4621,43.1503],[23.4698,43.1369],[23.4346,43.1281],[23.4352,43.1082],[23.4936,43.0705],[23.5526,43.0092],[23.6344,43.053],[23.6654,43.0283],[23.6917,43.0273],[23.766,43.0679],[23.9356,43.0278],[23.9775,43.0599],[24.0062,43.0602],[24.0243,43.0456],[24.0523,42.9998],[24.0447,42.9788],[24.0906,42.9423],[24.1293,42.9358],[24.1514,42.9087],[24.1521,42.8438],[24.1386,42.8036],[24.1586,42.7809],[24.2852,42.7797],[24.3325,42.7578],[24.3967,42.7549],[24.3602,42.7074],[24.3731,42.6617],[24.4163,42.645],[24.473,42.5993],[24.4683,42.5771],[24.4082,42.5621],[24.3504,42.5652],[24.3018,42.588],[24.285,42.6213],[24.2289,42.6297],[24.1575,42.6107],[24.1296,42.5816],[24.0347,42.5534],[23.9614,42.5793],[23.904,42.5695],[23.8981,42.547],[23.9214,42.5075],[23.9881,42.4587],[24.0387,42.4649],[24.0547,42.445],[24.0384,42.408],[23.9594,42.3923],[23.9415,42.3468],[23.9733,42.2999],[23.9581,42.268],[23.9125,42.296],[23.8885,42.2907],[23.8806,42.2615],[23.8481,42.2257],[23.8009,42.2113],[23.7957,42.1887],[23.7631,42.1776],[23.718,42.1605],[23.6002,42.1509],[23.5475,42.0841],[23.4936,42.0991],[23.5298,42.1352],[23.4733,42.1464],[23.4281,42.1869],[23.339,42.1732],[23.3246,42.1957],[23.3993,42.2621],[23.3276,42.3172],[23.2939,42.3736],[23.2157,42.3732],[23.2327,42.4063],[23.2225,42.4499],[23.2785,42.5323],[23.4321,42.4727],[23.4757,42.5304],[23.5163,42.5243],[23.5434,42.4675],[23.532,42.4343],[23.5588,42.4208],[23.6296,42.4169],[23.6544,42.4359],[23.6443,42.4693],[23.6127,42.4915],[23.5602,42.5601],[23.5028,42.6579],[23.5213,42.719],[23.6085,42.8611],[23.573,42.8429],[23.5355,42.8446],[23.4962,42.8707],[23.4006,42.8478],[23.3519,42.8578],[23.2736,42.898],[23.2497,42.8628],[23.2489,42.8172],[23.1998,42.7874],[23.2122,42.7691],[23.195,42.7359],[23.0906,42.7388],[23.0595,42.7099],[23.0249,42.7627],[22.9756,42.7628],[22.9649,42.7762],[22.9348,42.7761],[22.8984,42.8182],[22.8734,42.8076],[22.8538,42.8176],[22.86,42.849],[22.8451,42.8551],[22.8319,42.8375],[22.7984,42.8391],[22.7396,42.8989]]]}},{"type":"Feature","id":"Sofia (BG-22)","properties":{"id":"Sofia (BG-22)","iso_code":"BG-22","name":"Sofia (BG-22)","name_full":"Sofia","name_ja":"ソフィア市州","center_lonlat":[23.3755,42.6721]},"geometry":{"type":"Polygon","coordinates":[[[23.2785,42.5323],[23.1697,42.5905],[23.1476,42.6611],[23.0595,42.7099],[23.0906,42.7388],[23.195,42.7359],[23.2122,42.7691],[23.1998,42.7874],[23.2489,42.8172],[23.2497,42.8628],[23.2736,42.898],[23.3519,42.8578],[23.4006,42.8478],[23.4962,42.8707],[23.5355,42.8446],[23.573,42.8429],[23.6085,42.8611],[23.5213,42.719],[23.5028,42.6579],[23.5602,42.5601],[23.6127,42.4915],[23.6443,42.4693],[23.6544,42.4359],[23.6296,42.4169],[23.5588,42.4208],[23.532,42.4343],[23.5434,42.4675],[23.5163,42.5243],[23.4757,42.5304],[23.4321,42.4727],[23.2785,42.5323]]]}},{"type":"Feature","id":"Stara Zagora","properties":{"id":"Stara Zagora","iso_code":"BG-24","name":"Stara Zagora","name_full":"Stara Zagora","name_ja":"スタラ・ザゴラ州","center_lonlat":[25.5221,42.4289]},"geometry":{"type":"Polygon","coordinates":[[[25.0115,42.7483],[25.0629,42.7451],[25.2163,42.7726],[25.2472,42.7428],[25.2877,42.7604],[25.394,42.7358],[25.4505,42.7516],[25.5357,42.753],[25.5594,42.7727],[25.6127,42.7379],[25.6272,42.7485],[25.6201,42.767],[25.6612,42.7574],[25.7317,42.7888],[25.8109,42.7828],[25.8219,42.7149],[25.8787,42.604],[25.883,42.5683],[25.831,42.5386],[25.8819,42.4938],[25.8727,42.4498],[25.9006,42.4118],[25.8993,42.3867],[25.9589,42.3162],[25.9792,42.2709],[25.9744,42.1976],[26.0246,42.1527],[26.1301,42.157],[26.1428,42.0457],[26.057,42.0196],[25.9498,42.1081],[25.87,42.1273],[25.8035,42.0783],[25.7566,42.0615],[25.6637,42.1358],[25.6076,42.13],[25.6226,42.1455],[25.623,42.1802],[25.5889,42.1927],[25.5405,42.1673],[25.5068,42.1763],[25.4739,42.1665],[25.4498,42.0987],[25.3295,42.1245],[25.2672,42.1707],[25.1822,42.1683],[25.1674,42.144],[25.088,42.188],[25.0731,42.229],[25.0858,42.2632],[25.1491,42.2862],[25.1158,42.3413],[25.1084,42.4011],[25.1364,42.4159],[25.1911,42.4025],[25.1974,42.4169],[25.1563,42.4541],[25.1759,42.4895],[25.1595,42.5097],[25.0816,42.5025],[25.026,42.5413],[24.9944,42.617],[25.0135,42.6221],[25.0229,42.6416],[25.0064,42.7131],[25.0115,42.7483]]]}},{"type":"Feature","id":"Targovishte","properties":{"id":"Targovishte","iso_code":"BG-25","name":"Targovishte","name_full":"Targovishte","name_ja":"トゥルゴヴィシテ州","center_lonlat":[26.349,43.2468]},"geometry":{"type":"Polygon","coordinates":[[[26.172,42.9491],[26.0946,42.9775],[26.0894,43.0001],[26.1121,43.0268],[26.0864,43.0395],[26.0573,43.0985],[26.0792,43.1758],[26.1077,43.1779],[26.0962,43.2149],[26.0635,43.2466],[26.0652,43.2688],[26.0863,43.2854],[26.0205,43.3189],[26.0188,43.3634],[25.9694,43.3738],[25.9461,43.4166],[26.0196,43.4533],[26.0392,43.5073],[26.094,43.5309],[26.1842,43.5359],[26.2273,43.5477],[26.2715,43.5377],[26.3637,43.4836],[26.3485,43.4486],[26.3605,43.4415],[26.4853,43.4177],[26.4872,43.3497],[26.5984,43.3422],[26.6342,43.3693],[26.6771,43.3765],[26.6812,43.4153],[26.7231,43.4109],[26.7727,43.4035],[26.7813,43.3682],[26.7487,43.3437],[26.7335,43.2975],[26.766,43.2522],[26.7643,43.2094],[26.7354,43.2005],[26.7099,43.1551],[26.6779,43.1464],[26.6569,43.1212],[26.6863,43.0989],[26.6565,43.081],[26.645,43.0492],[26.6142,43.0377],[26.6298,43.0065],[26.5743,42.9866],[26.4914,43.0199],[26.4187,43.0063],[26.3813,43.025],[26.3634,43.01],[26.3609,43.033],[26.3358,43.0415],[26.2747,43.0347],[26.268,42.9913],[26.2243,42.9587],[26.172,42.9491]]]}},{"type":"Feature","id":"Varna","properties":{"id":"Varna","iso_code":"BG-03","name":"Varna","name_full":"Varna","name_ja":"ヴァルナ州","center_lonlat":[27.5813,43.1858]},"geometry":{"type":"Polygon","coordinates":[[[28.087,43.3552],[28.0176,43.2327],[27.904,43.2023],[27.9456,43.1688],[27.9114,43.0652],[27.8836,43.031],[27.904,42.9423],[27.904,42.8597],[27.884,42.8484],[27.8018,42.8221],[27.6206,42.9094],[27.4952,42.8757],[27.4458,42.8837],[27.3554,42.9114],[27.2849,42.9767],[27.2365,42.9884],[27.1191,42.9537],[27.0785,43.0009],[27.2091,43.0474],[27.2036,43.0717],[27.158,43.0833],[27.1859,43.1001],[27.1627,43.12],[27.2116,43.1549],[27.2123,43.1784],[27.1531,43.2069],[27.1568,43.2317],[27.2487,43.2524],[27.2503,43.2972],[27.3026,43.319],[27.2718,43.3536],[27.2707,43.3788],[27.3354,43.452],[27.3109,43.4737],[27.334,43.5081],[27.2851,43.52],[27.3385,43.5544],[27.4189,43.5712],[27.4585,43.5627],[27.495,43.508],[27.5199,43.4992],[27.5779,43.5185],[27.6038,43.5419],[27.678,43.4789],[27.7409,43.4568],[27.8087,43.3877],[27.8677,43.3654],[27.9338,43.3943],[27.9655,43.3928],[28.0135,43.3531],[28.087,43.3552]]]}},{"type":"Feature","id":"Veliko Tarnovo","properties":{"id":"Veliko Tarnovo","iso_code":"BG-04","name":"Veliko Tarnovo","name_full":"Veliko Tarnovo","name_ja":"ヴェリコ・タルノヴォ州","center_lonlat":[25.6217,43.1922]},"geometry":{"type":"Polygon","coordinates":[[[25.2854,43.6904],[25.3596,43.6543],[25.4031,43.6501],[25.4825,43.6697],[25.5082,43.6144],[25.4648,43.5674],[25.4701,43.5459],[25.5211,43.5177],[25.5228,43.5054],[25.5668,43.5084],[25.5501,43.4533],[25.6057,43.4126],[25.6628,43.3967],[25.6757,43.415],[25.6998,43.4151],[25.7578,43.3782],[25.7917,43.3711],[25.8522,43.3643],[25.9354,43.3752],[25.9494,43.3302],[26.0205,43.3189],[26.0863,43.2854],[26.0652,43.2688],[26.0635,43.2466],[26.0962,43.2149],[26.1077,43.1779],[26.0792,43.1758],[26.0573,43.0985],[26.0864,43.0395],[26.1121,43.0268],[26.0894,43.0001],[26.0946,42.9775],[26.172,42.9491],[26.1495,42.9098],[26.0823,42.8861],[26.0669,42.8683],[26.0568,42.8172],[26.0103,42.8135],[25.9673,42.7842],[25.8109,42.7828],[25.7317,42.7888],[25.6612,42.7574],[25.6201,42.767],[25.5972,42.8078],[25.6185,42.8391],[25.6276,42.8885],[25.5533,42.9391],[25.5765,42.9943],[25.5594,43.0332],[25.3329,43.0512],[25.3068,43.0601],[25.2791,43.108],[25.1437,43.1096],[25.0786,43.1619],[25.0725,43.1811],[25.1165,43.2152],[25.1116,43.2799],[25.1496,43.2871],[25.2257,43.3365],[25.1903,43.4421],[25.1475,43.4403],[25.136,43.4617],[25.1967,43.5115],[25.2194,43.5466],[25.1952,43.5582],[25.1874,43.5891],[25.2173,43.6157],[25.2312,43.6561],[25.2854,43.6904]]]}},{"type":"Feature","id":"Vidin","properties":{"id":"Vidin","iso_code":"BG-05","name":"Vidin","name_full":"Vidin","name_ja":"ヴィディン州","center_lonlat":[22.6993,43.8032]},"geometry":{"type":"Polygon","coordinates":[[[23.0526,43.8428],[23.0402,43.7836],[22.9909,43.7799],[22.9752,43.7658],[23.0294,43.7425],[23.0469,43.7017],[23.0359,43.6876],[22.9876,43.6744],[22.9526,43.6348],[22.9381,43.5811],[22.9709,43.5626],[22.9687,43.5268],[22.7975,43.4909],[22.7716,43.4172],[22.7243,43.3861],[22.6647,43.3967],[22.6378,43.4264],[22.5963,43.4292],[22.5189,43.4742],[22.4785,43.5592],[22.482,43.5995],[22.4663,43.6491],[22.414,43.6767],[22.3969,43.6994],[22.3885,43.7583],[22.3495,43.8079],[22.3945,43.9363],[22.3996,43.9933],[22.4343,44.014],[22.5037,44.0199],[22.5342,44.0572],[22.593,44.0639],[22.6047,44.0794],[22.5971,44.1191],[22.6062,44.1746],[22.6488,44.214],[22.6916,44.2284],[22.9064,44.1229],[23.031,44.0931],[23.0401,44.0623],[23.023,44.0316],[22.8859,43.9945],[22.851,43.8744],[22.8888,43.8395],[22.9196,43.8342],[23.0526,43.8428]]]}},{"type":"Feature","id":"Vratsa","properties":{"id":"Vratsa","iso_code":"BG-06","name":"Vratsa","name_full":"Vratsa","name_ja":"ヴラツァ州","center_lonlat":[23.8108,43.4292]},"geometry":{"type":"Polygon","coordinates":[[[23.6209,43.834],[23.7429,43.8427],[23.7999,43.8185],[24.1594,43.7529],[24.3367,43.7593],[24.329,43.7112],[24.2875,43.6652],[24.2315,43.645],[24.1995,43.6474],[24.1202,43.589],[24.1787,43.4914],[24.2249,43.4845],[24.2442,43.4205],[24.2281,43.3431],[24.1807,43.3249],[24.1119,43.3277],[24.0819,43.3081],[24.0524,43.3158],[23.9786,43.2946],[23.9507,43.2452],[23.9594,43.2316],[24.0268,43.2117],[24.0349,43.1733],[24.0163,43.1108],[23.9738,43.1221],[23.9584,43.1145],[23.9775,43.0599],[23.9356,43.0278],[23.766,43.0679],[23.6917,43.0273],[23.6654,43.0283],[23.6344,43.053],[23.5526,43.0092],[23.4936,43.0705],[23.4352,43.1082],[23.4346,43.1281],[23.4698,43.1369],[23.4621,43.1503],[23.3989,43.1629],[23.3966,43.1899],[23.4507,43.2086],[23.4635,43.2315],[23.3272,43.2757],[23.3357,43.3033],[23.405,43.3785],[23.4108,43.4559],[23.4414,43.488],[23.4822,43.5053],[23.5462,43.4944],[23.5925,43.527],[23.609,43.5192],[23.6228,43.5283],[23.6215,43.5405],[23.551,43.5838],[23.5858,43.621],[23.6225,43.7141],[23.6333,43.8009],[23.6209,43.834]]]}},{"type":"Feature","id":"Yambol","properties":{"id":"Yambol","iso_code":"BG-28","name":"Yambol","name_full":"Yambol","name_ja":"ヤンボル州","center_lonlat":[26.6035,42.2557]},"geometry":{"type":"Polygon","coordinates":[[[27.0479,42.0829],[27.0226,42.0739],[26.9389,41.9962],[26.8608,41.9879],[26.8194,41.9657],[26.7806,41.9834],[26.7367,41.959],[26.6057,41.9674],[26.543,41.9204],[26.5598,41.9073],[26.5529,41.8816],[26.5307,41.8723],[26.4803,41.8939],[26.46,41.9115],[26.4616,41.9493],[26.4373,41.9742],[26.403,41.9799],[26.3668,41.9407],[26.3504,41.9876],[26.3201,42.0046],[26.2285,42.0135],[26.1428,42.0457],[26.1301,42.157],[26.1664,42.1803],[26.1809,42.2172],[26.1737,42.2657],[26.225,42.3576],[26.1754,42.3686],[26.1686,42.4054],[26.2342,42.4225],[26.2241,42.4534],[26.2453,42.463],[26.2959,42.4493],[26.3424,42.4608],[26.3632,42.5003],[26.399,42.5194],[26.3782,42.549],[26.4045,42.5628],[26.5488,42.5776],[26.6035,42.6198],[26.6434,42.6218],[26.6637,42.6629],[26.6608,42.6958],[26.7194,42.6892],[26.7999,42.5462],[26.8692,42.4918],[26.87,42.4715],[26.9606,42.4219],[26.9797,42.3872],[27.0401,42.3791],[27.0703,42.3649],[27.0895,42.3373],[27.0833,42.306],[27.0366,42.2745],[27.0399,42.2341],[27.0199,42.1845],[27.0549,42.1303],[27.0479,42.0829]]]}}]}
