{"type":"FeatureCollection","features":[{"type":"Feature","id":"Bale","properties":{"id":"Bale","iso_code":"BF-BAL","name":"Bale","name_full":"Balé","name_ja":"バレ県","center_lonlat":[-3.0751,11.7108]},"geometry":{"type":"Polygon","coordinates":[[[-2.9194,12.053],[-2.8853,12.0083],[-2.8648,12.0083],[-2.8603,11.9859],[-2.8785,11.9301],[-2.831,11.8815],[-2.8757,11.8115],[-2.9058,11.8165],[-2.9237,11.7976],[-2.9148,11.78],[-2.8902,11.767],[-2.7731,11.7526],[-2.762,11.7193],[-2.6801,11.6099],[-2.6659,11.5163],[-2.5428,11.43],[-2.5253,11.4109],[-2.5249,11.389],[-2.6239,11.3233],[-2.7163,11.3348],[-2.7431,11.3246],[-2.7826,11.2817],[-2.8042,11.2334],[-2.8784,11.2506],[-2.8586,11.2877],[-2.8437,11.3101],[-2.8284,11.4301],[-2.8505,11.4739],[-2.8301,11.4944],[-2.8293,11.519],[-2.8488,11.5333],[-2.8741,11.5407],[-2.8858,11.5241],[-2.9297,11.5432],[-2.9618,11.534],[-3.05,11.5739],[-3.197,11.4834],[-3.2302,11.4856],[-3.2771,11.4594],[-3.2977,11.4797],[-3.3098,11.5462],[-3.352,11.5552],[-3.4199,11.6003],[-3.3962,11.6784],[-3.5084,11.7115],[-3.5871,11.757],[-3.6127,11.8078],[-3.5951,11.8595],[-3.5734,11.888],[-3.528,11.8996],[-3.4952,11.9243],[-3.4901,11.9768],[-3.3571,11.9881],[-3.2994,11.9587],[-3.2913,11.9045],[-3.272,11.8875],[-3.244,11.8839],[-3.1958,11.9066],[-3.1355,11.8752],[-3.1113,11.8784],[-3.0938,11.8898],[-3.1042,11.938],[-3.1229,11.955],[-3.1812,11.9691],[-3.2287,12.0293],[-3.2265,12.0812],[-3.18,12.0997],[-3.1288,12.0743],[-3.0596,12.0878],[-3.0432,12.0514],[-2.986,12.0291],[-2.9501,12.0324],[-2.9194,12.053]]]}},{"type":"Feature","id":"Bam","properties":{"id":"Bam","iso_code":"BF-BAM","name":"Bam","name_full":"Bam","name_ja":"バム県","center_lonlat":[-1.5652,13.4497]},"geometry":{"type":"Polygon","coordinates":[[[-1.742,13.1224],[-1.7199,13.1721],[-1.7205,13.2023],[-1.7464,13.2593],[-1.7944,13.2775],[-1.8401,13.3406],[-1.8393,13.464],[-1.878,13.5418],[-1.8678,13.6058],[-1.833,13.6344],[-1.7308,13.6817],[-1.7311,13.7088],[-1.747,13.7293],[-1.6969,13.8256],[-1.6564,13.8571],[-1.6159,13.8614],[-1.5348,13.9027],[-1.5106,13.8328],[-1.4731,13.7919],[-1.3331,13.739],[-1.289,13.6501],[-1.3358,13.562],[-1.3212,13.4939],[-1.3323,13.4552],[-1.3582,13.4233],[-1.2769,13.2868],[-1.3028,13.2045],[-1.2993,13.1354],[-1.3759,13.1405],[-1.488,13.11],[-1.5217,13.0779],[-1.5237,13.047],[-1.5025,12.994],[-1.557,12.9971],[-1.5893,13.0232],[-1.6147,13.0173],[-1.6208,13.0346],[-1.6439,13.0294],[-1.742,13.1224]]]}},{"type":"Feature","id":"Banwa","properties":{"id":"Banwa","iso_code":"BF-BAN","name":"Banwa","name_full":"Banwa","name_ja":"バンワ県","center_lonlat":[-4.1745,12.2499]},"geometry":{"type":"Polygon","coordinates":[[[-4.2455,12.7289],[-4.1555,12.679],[-4.1545,12.6624],[-4.1773,12.637],[-4.1774,12.5462],[-4.1613,12.5224],[-4.1496,12.4421],[-4.0882,12.3831],[-4.0646,12.3763],[-4.0087,12.4016],[-3.9572,12.518],[-3.9115,12.5414],[-3.8207,12.5294],[-3.6961,12.5343],[-3.5637,12.4818],[-3.5778,12.4015],[-3.591,12.3925],[-3.6456,12.4273],[-3.696,12.4012],[-3.7419,12.3379],[-3.7644,12.2779],[-3.8134,12.2604],[-3.8234,12.2372],[-3.8216,12.1481],[-3.8685,12.1182],[-3.8809,12.0769],[-3.8995,12.0847],[-3.9077,12.0518],[-3.9405,12.0158],[-3.9268,11.9953],[-3.9518,11.9745],[-3.9473,11.94],[-3.9787,11.9458],[-3.981,11.9327],[-4.0112,11.9252],[-4.0652,11.9484],[-4.116,11.9288],[-4.2113,11.9249],[-4.2383,11.9002],[-4.3084,11.7421],[-4.349,11.7276],[-4.3842,11.7425],[-4.4685,11.7186],[-4.4874,11.7373],[-4.4908,11.7616],[-4.4587,11.8419],[-4.4316,11.9845],[-4.4708,12.0029],[-4.4655,12.0638],[-4.5043,12.0823],[-4.5336,12.0605],[-4.621,12.0518],[-4.6527,12.0716],[-4.6361,12.1176],[-4.5605,12.1495],[-4.5855,12.1972],[-4.4935,12.2728],[-4.4882,12.3207],[-4.4625,12.3282],[-4.4358,12.3017],[-4.4061,12.3075],[-4.4516,12.4353],[-4.3872,12.534],[-4.4225,12.5972],[-4.4825,12.6463],[-4.4913,12.6628],[-4.4853,12.7147],[-4.3689,12.739],[-4.2972,12.7121],[-4.2455,12.7289]]]}},{"type":"Feature","id":"Bazega","properties":{"id":"Bazega","iso_code":"BF-BAZ","name":"Bazega","name_full":"Bazèga","name_ja":"バゼガ県","center_lonlat":[-1.4452,11.9533]},"geometry":{"type":"Polygon","coordinates":[[[-1.0623,12.1837],[-1.0344,12.1495],[-1.0225,12.0877],[-0.8985,11.9503],[-0.888,11.8859],[-0.9383,11.8783],[-1.073,11.9263],[-1.1246,11.9104],[-1.2258,11.8322],[-1.3191,11.6788],[-1.3477,11.5841],[-1.4277,11.6261],[-1.4832,11.6904],[-1.635,11.7726],[-1.7889,11.9264],[-1.8129,11.9387],[-1.867,11.9142],[-1.969,11.9049],[-2.0042,11.9545],[-2.0418,11.9817],[-1.9765,12.043],[-1.9585,12.1023],[-1.8943,12.1431],[-1.8703,12.1449],[-1.8039,12.0814],[-1.7146,12.0572],[-1.6797,12.0913],[-1.5696,12.1423],[-1.54,12.1827],[-1.5156,12.192],[-1.4594,12.1944],[-1.4423,12.1812],[-1.4117,12.1093],[-1.3264,12.1396],[-1.3055,12.141],[-1.2808,12.1235],[-1.2363,12.1429],[-1.1318,12.1533],[-1.0623,12.1837]]]}},{"type":"Feature","id":"Bougouriba","properties":{"id":"Bougouriba","iso_code":"BF-BGR","name":"Bougouriba","name_full":"Bougouriba","name_ja":"ブグリバ県","center_lonlat":[-3.393,10.8766]},"geometry":{"type":"Polygon","coordinates":[[[-3.3027,11.1712],[-3.1963,11.1959],[-3.1194,11.1787],[-3.1324,11.1019],[-3.1224,11.0604],[-3.169,10.9245],[-3.1593,10.8756],[-3.1913,10.8637],[-3.1997,10.8444],[-3.1815,10.8241],[-3.1911,10.7836],[-3.0882,10.7879],[-3.0528,10.7406],[-3.1292,10.6983],[-3.1986,10.638],[-3.3179,10.5926],[-3.3963,10.6473],[-3.4956,10.6298],[-3.5983,10.6634],[-3.6945,10.6441],[-3.7238,10.674],[-3.7784,10.6838],[-3.7942,10.7075],[-3.78,10.7354],[-3.6891,10.7465],[-3.7258,10.8271],[-3.7145,10.8559],[-3.6597,10.8684],[-3.6437,10.929],[-3.5861,10.9721],[-3.579,11.0005],[-3.5926,11.0364],[-3.5549,11.0759],[-3.5245,11.089],[-3.5029,11.1246],[-3.4556,11.1433],[-3.4465,11.1623],[-3.418,11.1434],[-3.3027,11.1712]]]}},{"type":"Feature","id":"Boulgou","properties":{"id":"Boulgou","iso_code":"BF-BLG","name":"Boulgou","name_full":"Boulgou","name_ja":"ブルグ県","center_lonlat":[-0.4362,11.4987]},"geometry":{"type":"Polygon","coordinates":[[[-0.1151,11.1247],[-0.3017,11.1629],[-0.2983,11.1284],[-0.3188,11.1014],[-0.3689,11.0652],[-0.4059,11.1015],[-0.4252,11.1015],[-0.4567,11.0296],[-0.513,10.9897],[-0.5906,10.9824],[-0.6172,10.9186],[-0.6348,10.908],[-0.6828,10.9536],[-0.668,10.9765],[-0.703,10.9942],[-0.697,11.0789],[-0.7316,11.1109],[-0.7769,11.1965],[-0.7354,11.2732],[-0.6065,11.3661],[-0.5773,11.3777],[-0.5474,11.367],[-0.5488,11.4124],[-0.5328,11.4482],[-0.5621,11.4882],[-0.6259,11.5211],[-0.7023,11.5394],[-0.7455,11.5212],[-0.8678,11.5856],[-0.9239,11.6695],[-0.9103,11.7078],[-0.7985,11.8377],[-0.6947,11.8574],[-0.5967,11.9734],[-0.4645,11.9875],[-0.4702,11.9272],[-0.4294,11.856],[-0.3812,11.8211],[-0.2787,11.7963],[-0.2529,11.7934],[-0.219,11.8471],[-0.1103,11.9229],[-0.075,11.9102],[-0.0648,11.8764],[-0.0321,11.8541],[0.0148,11.8445],[0.0391,11.805],[0.0497,11.75],[0.0481,11.7248],[-0.0215,11.7237],[-0.0713,11.6877],[-0.1461,11.5663],[-0.121,11.5226],[-0.1369,11.4438],[-0.1584,11.4158],[-0.166,11.3488],[-0.1175,11.3327],[-0.0365,11.3486],[0.0055,11.3228],[-0.053,11.2275],[-0.0896,11.2014],[-0.1151,11.1247]]]}},{"type":"Feature","id":"Boulkiemde","properties":{"id":"Boulkiemde","iso_code":"BF-BLK","name":"Boulkiemde","name_full":"Boulkiemdé","name_ja":"ブルキアンデ県","center_lonlat":[-2.1422,12.3031]},"geometry":{"type":"Polygon","coordinates":[[[-2.3103,12.6481],[-2.2722,12.6716],[-2.1775,12.6976],[-2.0873,12.692],[-2.0576,12.708],[-2.0091,12.7076],[-1.9722,12.672],[-1.9411,12.6773],[-1.9273,12.6623],[-1.9226,12.621],[-1.8293,12.5871],[-1.8064,12.5594],[-1.7899,12.4731],[-1.8021,12.4574],[-1.8719,12.4353],[-1.9217,12.4607],[-1.9856,12.4614],[-2.0193,12.4229],[-2.0777,12.2975],[-2.0264,12.268],[-1.9171,12.3329],[-1.8207,12.3426],[-1.7934,12.2389],[-1.8703,12.1449],[-1.8943,12.1431],[-1.9585,12.1023],[-1.9765,12.043],[-2.0418,11.9817],[-2.0975,11.945],[-2.1851,11.9138],[-2.2396,11.9095],[-2.2533,11.9019],[-2.2403,11.965],[-2.2712,11.9664],[-2.3461,11.9387],[-2.4125,11.9902],[-2.4706,12.0038],[-2.4812,12.0386],[-2.4815,12.0601],[-2.4317,12.1082],[-2.4757,12.1555],[-2.3961,12.2251],[-2.4105,12.3984],[-2.4241,12.4265],[-2.4153,12.445],[-2.3488,12.4648],[-2.2594,12.5331],[-2.2222,12.6124],[-2.2339,12.6312],[-2.2813,12.5913],[-2.3103,12.6481]]]}},{"type":"Feature","id":"Comoe","properties":{"id":"Comoe","iso_code":"BF-COM","name":"Comoe","name_full":"Comoé","name_ja":"コモエ県","center_lonlat":[-4.4312,10.2972]},"geometry":{"type":"Polygon","coordinates":[[[-5.1199,10.294],[-5.0937,10.3137],[-5.0773,10.3779],[-5.1103,10.5093],[-5.146,10.5359],[-5.1361,10.5582],[-5.1244,10.579],[-5.0919,10.5707],[-5.0137,10.5929],[-4.985,10.5856],[-4.9472,10.6708],[-4.9579,10.7392],[-4.9486,10.7826],[-5.0508,10.8168],[-5.0619,10.8322],[-5.0093,10.8525],[-4.9648,10.8885],[-4.815,10.8832],[-4.7938,10.8709],[-4.7495,10.8054],[-4.6819,10.7762],[-4.6624,10.7778],[-4.5562,10.8608],[-4.4846,10.8679],[-4.4387,10.8357],[-4.4019,10.7544],[-4.3021,10.7283],[-4.2777,10.6999],[-4.0904,10.7777],[-4.0314,10.7263],[-3.912,10.6885],[-3.8504,10.717],[-3.8437,10.7533],[-3.7854,10.82],[-3.7258,10.8271],[-3.6891,10.7465],[-3.78,10.7354],[-3.7942,10.7075],[-3.7784,10.6838],[-3.7238,10.674],[-3.6945,10.6441],[-3.698,10.4675],[-3.7774,10.3506],[-3.7512,10.2542],[-3.756,10.2196],[-3.8172,10.1236],[-3.8925,10.0934],[-3.9677,10.0995],[-3.9872,10.0519],[-3.9813,10.0119],[-3.8939,9.9349],[-3.8916,9.8939],[-3.984,9.8512],[-3.9946,9.8208],[-4.035,9.8176],[-4.0599,9.7963],[-4.1503,9.8183],[-4.197,9.765],[-4.2703,9.7439],[-4.2836,9.732],[-4.2675,9.7273],[-4.3033,9.6867],[-4.3005,9.6543],[-4.3159,9.6166],[-4.3225,9.6089],[-4.365,9.6242],[-4.3712,9.583],[-4.3916,9.6003],[-4.4091,9.6477],[-4.5017,9.655],[-4.5159,9.6757],[-4.5016,9.7371],[-4.51,9.7451],[-4.5391,9.7447],[-4.5522,9.6965],[-4.5783,9.6965],[-4.604,9.7272],[-4.6811,9.6821],[-4.7383,9.7532],[-4.7586,9.7533],[-4.7548,9.7402],[-4.77,9.7374],[-4.7832,9.7584],[-4.7964,9.7545],[-4.8101,9.7818],[-4.7759,9.788],[-4.7985,9.8425],[-4.8176,9.8365],[-4.8385,9.8695],[-4.898,9.8889],[-4.928,9.8709],[-4.9661,9.901],[-4.9529,9.9534],[-4.9814,10.0077],[-4.9602,10.0085],[-4.9633,10.0403],[-5.0105,10.0791],[-5.0156,10.0971],[-5.0483,10.0854],[-5.0565,10.0971],[-5.0429,10.1033],[-5.0701,10.1102],[-5.0395,10.1343],[-5.0707,10.161],[-5.064,10.179],[-5.0907,10.1779],[-5.0844,10.2274],[-5.0978,10.2093],[-5.1171,10.208],[-5.1199,10.294]]]}},{"type":"Feature","id":"Ganzourgou","properties":{"id":"Ganzourgou","iso_code":"BF-GAN","name":"Ganzourgou","name_full":"Ganzourgou","name_ja":"ガンズル県","center_lonlat":[-0.7637,12.2338]},"geometry":{"type":"Polygon","coordinates":[[[-0.6137,12.5058],[-0.6045,12.4692],[-0.5282,12.4165],[-0.5071,12.3625],[-0.5169,12.3241],[-0.4774,12.2062],[-0.4229,12.1535],[-0.4211,12.0454],[-0.4365,12.0074],[-0.4645,11.9875],[-0.5967,11.9734],[-0.6947,11.8574],[-0.7985,11.8377],[-0.8189,11.8473],[-0.8329,11.8822],[-0.888,11.8859],[-0.8985,11.9503],[-1.0225,12.0877],[-1.0344,12.1495],[-1.0623,12.1837],[-1.064,12.2123],[-1.0905,12.231],[-1.0978,12.2598],[-1.0968,12.3077],[-1.1162,12.3304],[-1.1108,12.3721],[-1.0897,12.3789],[-1.0601,12.4477],[-1.08,12.4843],[-1.0362,12.4921],[-1.0124,12.5232],[-0.9792,12.5244],[-0.9103,12.4662],[-0.8779,12.47],[-0.8493,12.4834],[-0.84,12.5242],[-0.7442,12.5925],[-0.7501,12.6505],[-0.7353,12.6747],[-0.6726,12.6763],[-0.635,12.6448],[-0.616,12.5951],[-0.6137,12.5058]]]}},{"type":"Feature","id":"Gnagna","properties":{"id":"Gnagna","iso_code":"BF-GNA","name":"Gnagna","name_full":"Gnagna","name_ja":"グナグナ州","center_lonlat":[0.0384,12.9293]},"geometry":{"type":"Polygon","coordinates":[[[-0.0846,12.2307],[-0.1522,12.2505],[-0.1835,12.2729],[-0.1775,12.3142],[-0.147,12.3537],[-0.1452,12.388],[-0.2239,12.4367],[-0.2346,12.4772],[-0.2074,12.5605],[-0.1974,12.6425],[-0.2222,12.7093],[-0.1989,12.7879],[-0.3048,12.8547],[-0.366,12.9908],[-0.3604,13.0782],[-0.3105,13.163],[-0.3019,13.191],[-0.3139,13.2281],[-0.2803,13.3166],[-0.2762,13.3567],[-0.2945,13.4158],[-0.23,13.4717],[-0.2263,13.4966],[-0.1719,13.5714],[-0.0581,13.5419],[0.0615,13.5782],[0.0696,13.4997],[0.1215,13.4484],[0.1838,13.3404],[0.2462,13.2825],[0.2572,13.2469],[0.302,13.2084],[0.4325,13.1676],[0.5847,13.0016],[0.5965,12.9722],[0.5744,12.954],[0.5548,12.9409],[0.5589,12.9141],[0.5488,12.9014],[0.4736,12.8632],[0.3928,12.8775],[0.3152,12.9091],[0.2879,12.9118],[0.279,12.9008],[0.2758,12.8488],[0.2473,12.8098],[0.3011,12.7341],[0.349,12.4439],[0.253,12.373],[0.1465,12.3713],[0.0694,12.3331],[0.0094,12.3278],[-0.0846,12.2307]]]}},{"type":"Feature","id":"Gourma","properties":{"id":"Gourma","iso_code":"BF-GOU","name":"Gourma","name_full":"Gourma","name_ja":"グルマ県","center_lonlat":[0.6573,12.1341]},"geometry":{"type":"Polygon","coordinates":[[[-0.1103,11.9229],[-0.1055,12.0058],[-0.0825,12.0486],[0.0306,12.0979],[0.0277,12.1248],[-0.0846,12.2307],[0.0094,12.3278],[0.0694,12.3331],[0.1465,12.3713],[0.253,12.373],[0.349,12.4439],[0.4792,12.513],[0.5946,12.4398],[0.6542,12.3295],[0.6772,12.3163],[0.7349,12.3483],[0.7605,12.3812],[0.7626,12.4071],[0.8259,12.4682],[0.8328,12.5048],[0.8542,12.5064],[0.856,12.5439],[0.8808,12.5907],[0.9592,12.6086],[1.012,12.6699],[1.1037,12.6557],[1.1303,12.6817],[1.1564,12.75],[1.2688,12.7737],[1.28,12.7008],[1.2427,12.5551],[1.1998,12.4715],[1.2186,12.3174],[1.2007,12.2302],[1.2237,12.1782],[1.3311,12.1393],[1.3302,12.1084],[1.2941,11.8445],[1.2678,11.765],[1.2299,11.7165],[1.2044,11.7385],[1.1643,11.7397],[1.1598,11.7634],[1.1238,11.7916],[1.1032,11.8335],[1.0438,11.8391],[1.0138,11.8793],[0.9694,11.9],[0.8638,11.9181],[0.7227,11.8103],[0.7201,11.7564],[0.6965,11.7374],[0.5703,11.6996],[0.5294,11.6597],[0.4258,11.6649],[0.3157,11.7394],[0.2237,11.7466],[0.1732,11.7765],[0.1019,11.7852],[0.0863,11.7805],[0.0735,11.7472],[0.0497,11.75],[0.0391,11.805],[0.0148,11.8445],[-0.0321,11.8541],[-0.0648,11.8764],[-0.075,11.9102],[-0.1103,11.9229]]]}},{"type":"Feature","id":"Houet","properties":{"id":"Houet","iso_code":"BF-HOU","name":"Houet","name_full":"Houet","name_ja":"ウエ県","center_lonlat":[-4.2591,11.2834]},"geometry":{"type":"Polygon","coordinates":[[[-4.6527,12.0716],[-4.621,12.0518],[-4.5336,12.0605],[-4.5043,12.0823],[-4.4655,12.0638],[-4.4708,12.0029],[-4.4316,11.9845],[-4.4587,11.8419],[-4.4908,11.7616],[-4.4874,11.7373],[-4.4685,11.7186],[-4.3842,11.7425],[-4.349,11.7276],[-4.3084,11.7421],[-4.2383,11.9002],[-4.2113,11.9249],[-4.116,11.9288],[-4.0652,11.9484],[-4.0112,11.9252],[-3.981,11.9327],[-3.96,11.9189],[-3.949,11.8511],[-3.9626,11.8035],[-3.9578,11.7357],[-3.9907,11.6377],[-3.9696,11.5401],[-3.9064,11.4664],[-3.8901,11.3807],[-3.8491,11.3594],[-3.8817,11.199],[-3.8756,11.1645],[-3.8595,11.1416],[-3.8015,11.1476],[-3.742,11.0704],[-3.642,10.98],[-3.6249,10.9688],[-3.5861,10.9721],[-3.6437,10.929],[-3.6597,10.8684],[-3.7145,10.8559],[-3.7258,10.8271],[-3.7854,10.82],[-3.8437,10.7533],[-3.8504,10.717],[-3.912,10.6885],[-4.0314,10.7263],[-4.0904,10.7777],[-4.2777,10.6999],[-4.3021,10.7283],[-4.4019,10.7544],[-4.4387,10.8357],[-4.4846,10.8679],[-4.5562,10.8608],[-4.6624,10.7778],[-4.6819,10.7762],[-4.7495,10.8054],[-4.7938,10.8709],[-4.756,10.9338],[-4.7581,10.9933],[-4.6563,11.0347],[-4.6459,11.0729],[-4.6582,11.111],[-4.7011,11.1681],[-4.776,11.2116],[-4.7885,11.2314],[-4.7938,11.2477],[-4.762,11.318],[-4.7559,11.3626],[-4.7302,11.3985],[-4.6598,11.4472],[-4.6295,11.4125],[-4.6033,11.4168],[-4.5596,11.4677],[-4.5466,11.5203],[-4.5917,11.6104],[-4.591,11.6849],[-4.6711,11.705],[-4.6643,11.7357],[-4.626,11.7599],[-4.6321,11.844],[-4.6211,11.8939],[-4.6376,11.9829],[-4.7323,12.0373],[-4.7146,12.059],[-4.6527,12.0716]]]}},{"type":"Feature","id":"Ioba","properties":{"id":"Ioba","iso_code":"BF-IOB","name":"Ioba","name_full":"Ioba","name_ja":"イオバ県","center_lonlat":[-2.982,11.0578]},"geometry":{"type":"Polygon","coordinates":[[[-2.7288,10.9861],[-2.8373,10.998],[-2.8158,10.9292],[-2.8214,10.9063],[-2.8642,10.8643],[-2.92,10.7111],[-2.9704,10.698],[-3.0044,10.7427],[-3.0528,10.7406],[-3.0882,10.7879],[-3.1911,10.7836],[-3.1815,10.8241],[-3.1997,10.8444],[-3.1913,10.8637],[-3.1593,10.8756],[-3.169,10.9245],[-3.1224,11.0604],[-3.1324,11.1019],[-3.1194,11.1787],[-3.1963,11.1959],[-3.3027,11.1712],[-3.2701,11.2654],[-3.1982,11.3384],[-3.1571,11.35],[-3.1155,11.3257],[-3.0052,11.3405],[-2.8586,11.2877],[-2.8784,11.2506],[-2.8042,11.2334],[-2.7891,11.1388],[-2.7553,11.1497],[-2.7334,11.1864],[-2.7145,11.1844],[-2.6367,11.1103],[-2.6534,11.0555],[-2.7141,11.0403],[-2.7288,10.9861]]]}},{"type":"Feature","id":"Kadiogo","properties":{"id":"Kadiogo","iso_code":"BF-KAD","name":"Kadiogo","name_full":"Kadiogo","name_ja":"カディオゴ県","center_lonlat":[-1.5061,12.3097]},"geometry":{"type":"Polygon","coordinates":[[[-1.0978,12.2598],[-1.0905,12.231],[-1.064,12.2123],[-1.0623,12.1837],[-1.1318,12.1533],[-1.2363,12.1429],[-1.2808,12.1235],[-1.3055,12.141],[-1.3264,12.1396],[-1.4117,12.1093],[-1.4423,12.1812],[-1.4594,12.1944],[-1.5156,12.192],[-1.54,12.1827],[-1.5696,12.1423],[-1.6797,12.0913],[-1.7146,12.0572],[-1.8039,12.0814],[-1.8703,12.1449],[-1.7934,12.2389],[-1.8207,12.3426],[-1.6809,12.3979],[-1.7208,12.5632],[-1.6209,12.5931],[-1.5957,12.6731],[-1.5568,12.6235],[-1.5649,12.5395],[-1.5211,12.5438],[-1.4837,12.5654],[-1.4538,12.5322],[-1.4499,12.5131],[-1.4722,12.4597],[-1.3957,12.4643],[-1.3257,12.5014],[-1.2704,12.4865],[-1.2485,12.4375],[-1.2699,12.3345],[-1.2284,12.3176],[-1.2044,12.2889],[-1.1235,12.2541],[-1.0978,12.2598]]]}},{"type":"Feature","id":"Kenedougou","properties":{"id":"Kenedougou","iso_code":"BF-KEN","name":"Kenedougou","name_full":"Kénédougou","name_ja":"ケネドゥグ県","center_lonlat":[-4.9762,11.4347]},"geometry":{"type":"Polygon","coordinates":[[[-4.7323,12.0373],[-4.6376,11.9829],[-4.6211,11.8939],[-4.6321,11.844],[-4.626,11.7599],[-4.6643,11.7357],[-4.6711,11.705],[-4.591,11.6849],[-4.5917,11.6104],[-4.5466,11.5203],[-4.5596,11.4677],[-4.6033,11.4168],[-4.6295,11.4125],[-4.6598,11.4472],[-4.7302,11.3985],[-4.7559,11.3626],[-4.762,11.318],[-4.7938,11.2477],[-4.7885,11.2314],[-4.776,11.2116],[-4.7011,11.1681],[-4.6582,11.111],[-4.6459,11.0729],[-4.6563,11.0347],[-4.7581,10.9933],[-4.756,10.9338],[-4.7938,10.8709],[-4.815,10.8832],[-4.9648,10.8885],[-5.0093,10.8525],[-5.0619,10.8322],[-5.1867,10.8101],[-5.2444,10.87],[-5.2807,10.9369],[-5.3789,11.0251],[-5.408,11.0411],[-5.5056,11.048],[-5.5042,11.0727],[-5.4898,11.0821],[-5.3901,11.0947],[-5.3325,11.1216],[-5.3067,11.1994],[-5.2629,11.2516],[-5.2635,11.3902],[-5.2183,11.4222],[-5.2339,11.576],[-5.3076,11.6176],[-5.2807,11.6995],[-5.2871,11.7589],[-5.3343,11.7908],[-5.3706,11.7911],[-5.4124,11.8285],[-5.3699,11.8202],[-5.3065,11.846],[-5.2752,11.8374],[-5.1678,11.9437],[-5.0893,11.9793],[-5.0047,11.9807],[-4.9538,12.0051],[-4.89,11.9979],[-4.8472,12.0131],[-4.8068,11.9963],[-4.7613,12.0066],[-4.7323,12.0373]]]}},{"type":"Feature","id":"Komondjari","properties":{"id":"Komondjari","iso_code":"BF-KMD","name":"Komondjari","name_full":"Komondjari","name_ja":"コモンジャリ県","center_lonlat":[0.7402,12.7362]},"geometry":{"type":"Polygon","coordinates":[[[0.9717,13.0858],[0.9835,13.0324],[1.114,12.9962],[1.3048,12.8385],[1.2688,12.7737],[1.1564,12.75],[1.1303,12.6817],[1.1037,12.6557],[1.012,12.6699],[0.9592,12.6086],[0.8808,12.5907],[0.856,12.5439],[0.8542,12.5064],[0.8328,12.5048],[0.8259,12.4682],[0.7626,12.4071],[0.7605,12.3812],[0.7349,12.3483],[0.6772,12.3163],[0.6542,12.3295],[0.5946,12.4398],[0.4792,12.513],[0.349,12.4439],[0.3011,12.7341],[0.2473,12.8098],[0.2758,12.8488],[0.279,12.9008],[0.2879,12.9118],[0.3152,12.9091],[0.3928,12.8775],[0.4736,12.8632],[0.5488,12.9014],[0.5589,12.9141],[0.5548,12.9409],[0.5744,12.954],[0.6992,12.9752],[0.7536,12.9629],[0.7965,13.002],[0.8229,13.0007],[0.9717,13.0858]]]}},{"type":"Feature","id":"Kompienga","properties":{"id":"Kompienga","iso_code":"BF-KMP","name":"Kompienga","name_full":"Kompienga","name_ja":"コンピエンガ県","center_lonlat":[0.8853,11.415]},"geometry":{"type":"Polygon","coordinates":[[[1.4232,11.4537],[1.3898,11.4284],[1.3981,11.3987],[1.3391,11.3661],[1.3304,11.3472],[1.3479,11.3035],[1.3304,11.2888],[1.3163,11.2999],[1.3025,11.2888],[1.2733,11.3182],[1.2826,11.2789],[1.2684,11.2479],[1.219,11.268],[1.1722,11.2615],[1.1563,11.2855],[1.1356,11.2601],[1.1584,11.1659],[1.1175,11.179],[1.1004,11.1516],[1.0623,11.1421],[1.0633,11.127],[1.0828,11.1318],[1.0828,11.1107],[1.097,11.1045],[1.1009,11.0704],[1.1186,11.0482],[1.1142,11.0277],[1.097,11.0493],[1.035,11.0493],[1.0079,11.0751],[0.9814,11.0801],[0.9524,11.0424],[0.9553,11.012],[0.9691,11.0029],[0.9633,10.9741],[0.9015,10.9927],[0.6753,10.9885],[0.4876,10.9332],[0.4997,10.9757],[0.4836,10.9797],[0.4888,11.0018],[0.3748,11.0258],[0.4297,11.1267],[0.4882,11.0807],[0.5052,11.1478],[0.5545,11.2079],[0.5582,11.2453],[0.5343,11.3214],[0.5762,11.3843],[0.5317,11.4961],[0.5294,11.6597],[0.5703,11.6996],[0.6965,11.7374],[0.7201,11.7564],[0.7227,11.8103],[0.8638,11.9181],[0.9694,11.9],[1.0138,11.8793],[1.0438,11.8391],[1.1032,11.8335],[1.1238,11.7916],[1.1598,11.7634],[1.1643,11.7397],[1.2044,11.7385],[1.2299,11.7165],[1.2328,11.6151],[1.2622,11.5727],[1.4232,11.4537]]]}},{"type":"Feature","id":"Kossi","properties":{"id":"Kossi","iso_code":"BF-KOS","name":"Kossi","name_full":"Kossi","name_ja":"コッシ県","center_lonlat":[-3.8822,12.9232]},"geometry":{"type":"Polygon","coordinates":[[[-3.4739,13.1676],[-3.4608,12.8417],[-3.4262,12.7865],[-3.4293,12.7497],[-3.4554,12.7447],[-3.4644,12.7238],[-3.5187,12.7289],[-3.541,12.7036],[-3.5135,12.6746],[-3.5358,12.6116],[-3.5358,12.5707],[-3.5482,12.5646],[-3.5426,12.5263],[-3.5637,12.4818],[-3.6961,12.5343],[-3.8207,12.5294],[-3.9115,12.5414],[-3.9572,12.518],[-4.0087,12.4016],[-4.0646,12.3763],[-4.0882,12.3831],[-4.1496,12.4421],[-4.1613,12.5224],[-4.1774,12.5462],[-4.1773,12.637],[-4.1545,12.6624],[-4.1555,12.679],[-4.2455,12.7289],[-4.2133,12.8072],[-4.2213,12.9213],[-4.2293,12.949],[-4.2897,13.0135],[-4.3511,13.1183],[-4.327,13.1686],[-4.2348,13.1756],[-4.23,13.1931],[-4.2581,13.2141],[-4.2535,13.2291],[-4.2055,13.273],[-4.166,13.2782],[-4.0875,13.398],[-3.9769,13.4606],[-3.9716,13.47],[-3.998,13.4805],[-3.9813,13.499],[-3.9561,13.4617],[-3.918,13.4511],[-3.984,13.3965],[-3.9716,13.3868],[-3.8926,13.3789],[-3.7986,13.3471],[-3.5969,13.1994],[-3.57,13.1968],[-3.545,13.1745],[-3.4739,13.1676]]]}},{"type":"Feature","id":"Koulpelogo","properties":{"id":"Koulpelogo","iso_code":"BF-KOP","name":"Koulpelogo","name_full":"Koulpélogo","name_ja":"クルペロゴ県","center_lonlat":[0.2139,11.405]},"geometry":{"type":"Polygon","coordinates":[[[0.3748,11.0258],[-0.1151,11.1247],[-0.0896,11.2014],[-0.053,11.2275],[0.0055,11.3228],[-0.0365,11.3486],[-0.1175,11.3327],[-0.166,11.3488],[-0.1584,11.4158],[-0.1369,11.4438],[-0.121,11.5226],[-0.1461,11.5663],[-0.0713,11.6877],[-0.0215,11.7237],[0.0481,11.7248],[0.0497,11.75],[0.0735,11.7472],[0.0863,11.7805],[0.1019,11.7852],[0.1732,11.7765],[0.2237,11.7466],[0.3157,11.7394],[0.4258,11.6649],[0.5294,11.6597],[0.5317,11.4961],[0.5762,11.3843],[0.5343,11.3214],[0.5582,11.2453],[0.5545,11.2079],[0.5052,11.1478],[0.4882,11.0807],[0.4297,11.1267],[0.3748,11.0258]]]}},{"type":"Feature","id":"Kouritenga","properties":{"id":"Kouritenga","iso_code":"BF-KOT","name":"Kouritenga","name_full":"Kouritenga","name_ja":"クリテンガ県","center_lonlat":[-0.2921,12.1678]},"geometry":{"type":"Polygon","coordinates":[[[-0.4645,11.9875],[-0.4365,12.0074],[-0.4211,12.0454],[-0.4229,12.1535],[-0.4774,12.2062],[-0.5169,12.3241],[-0.5071,12.3625],[-0.5282,12.4165],[-0.6045,12.4692],[-0.6137,12.5058],[-0.4376,12.4667],[-0.3891,12.4689],[-0.2074,12.5605],[-0.2346,12.4772],[-0.2239,12.4367],[-0.1452,12.388],[-0.147,12.3537],[-0.1775,12.3142],[-0.1835,12.2729],[-0.1522,12.2505],[-0.0846,12.2307],[0.0277,12.1248],[0.0306,12.0979],[-0.0825,12.0486],[-0.1055,12.0058],[-0.1103,11.9229],[-0.219,11.8471],[-0.2529,11.7934],[-0.2787,11.7963],[-0.3812,11.8211],[-0.4294,11.856],[-0.4702,11.9272],[-0.4645,11.9875]]]}},{"type":"Feature","id":"Kourweogo","properties":{"id":"Kourweogo","iso_code":"BF-KOW","name":"Kourweogo","name_full":"Kourwéogo","name_ja":"クルウェゴ県","center_lonlat":[-1.8111,12.6068]},"geometry":{"type":"Polygon","coordinates":[[[-1.9411,12.6773],[-1.9639,12.7238],[-1.961,12.7609],[-1.9407,12.797],[-1.8609,12.8699],[-1.7315,12.9007],[-1.7052,12.8775],[-1.6644,12.8648],[-1.6485,12.7376],[-1.6042,12.721],[-1.5957,12.6731],[-1.6209,12.5931],[-1.7208,12.5632],[-1.6809,12.3979],[-1.8207,12.3426],[-1.9171,12.3329],[-2.0264,12.268],[-2.0777,12.2975],[-2.0193,12.4229],[-1.9856,12.4614],[-1.9217,12.4607],[-1.8719,12.4353],[-1.8021,12.4574],[-1.7899,12.4731],[-1.8064,12.5594],[-1.8293,12.5871],[-1.9226,12.621],[-1.9273,12.6623],[-1.9411,12.6773]]]}},{"type":"Feature","id":"Leraba","properties":{"id":"Leraba","iso_code":"BF-LER","name":"Leraba","name_full":"Léraba","name_ja":"レラバ県","center_lonlat":[-5.2703,10.631]},"geometry":{"type":"Polygon","coordinates":[[[-5.5056,11.048],[-5.408,11.0411],[-5.3789,11.0251],[-5.2807,10.9369],[-5.2444,10.87],[-5.1867,10.8101],[-5.0619,10.8322],[-5.0508,10.8168],[-4.9486,10.7826],[-4.9579,10.7392],[-4.9472,10.6708],[-4.985,10.5856],[-5.0137,10.5929],[-5.0919,10.5707],[-5.1244,10.579],[-5.1361,10.5582],[-5.146,10.5359],[-5.1103,10.5093],[-5.0773,10.3779],[-5.0937,10.3137],[-5.1199,10.294],[-5.1521,10.3056],[-5.1684,10.2913],[-5.2176,10.3199],[-5.2966,10.323],[-5.3271,10.3026],[-5.4025,10.3006],[-5.4378,10.34],[-5.4742,10.3503],[-5.4875,10.3929],[-5.5226,10.4255],[-5.4681,10.5878],[-5.4774,10.6196],[-5.4606,10.6446],[-5.4759,10.6504],[-5.4826,10.6842],[-5.468,10.7527],[-5.4465,10.7687],[-5.4314,10.8447],[-5.4791,10.9755],[-5.5018,10.9702],[-5.5056,11.048]]]}},{"type":"Feature","id":"Loroum","properties":{"id":"Loroum","iso_code":"BF-LOR","name":"Loroum","name_full":"Loroum","name_ja":"ロルム県","center_lonlat":[-2.1532,13.9238]},"geometry":{"type":"Polygon","coordinates":[[[-2.085,14.1597],[-2.0398,14.1027],[-1.8638,13.9941],[-1.8706,13.8982],[-1.8149,13.7993],[-1.747,13.7293],[-1.7311,13.7088],[-1.7308,13.6817],[-1.833,13.6344],[-1.8678,13.6058],[-1.878,13.5418],[-2.0045,13.517],[-2.1156,13.528],[-2.1486,13.6593],[-2.2074,13.8002],[-2.1986,13.8649],[-2.2479,13.8915],[-2.2647,13.9162],[-2.2709,13.9698],[-2.31,13.9847],[-2.3864,14.0428],[-2.4198,14.0435],[-2.4713,13.9983],[-2.5031,14.0004],[-2.5313,13.9839],[-2.5685,13.991],[-2.5865,14.0461],[-2.6763,14.1417],[-2.5974,14.2223],[-2.5161,14.2679],[-2.4617,14.2809],[-2.3856,14.2647],[-2.1519,14.1561],[-2.1198,14.1488],[-2.085,14.1597]]]}},{"type":"Feature","id":"Mouhoun","properties":{"id":"Mouhoun","iso_code":"BF-MOU","name":"Mouhoun","name_full":"Mouhoun","name_ja":"ムフン県","center_lonlat":[-3.4194,12.1993]},"geometry":{"type":"Polygon","coordinates":[[[-2.8406,12.3669],[-2.8375,12.3392],[-2.869,12.3217],[-2.8873,12.2775],[-2.8308,12.2135],[-2.8166,12.15],[-2.7928,12.109],[-2.8079,12.0643],[-2.8964,12.1038],[-2.9194,12.053],[-2.9501,12.0324],[-2.986,12.0291],[-3.0432,12.0514],[-3.0596,12.0878],[-3.1288,12.0743],[-3.18,12.0997],[-3.2265,12.0812],[-3.2287,12.0293],[-3.1812,11.9691],[-3.1229,11.955],[-3.1042,11.938],[-3.0938,11.8898],[-3.1113,11.8784],[-3.1355,11.8752],[-3.1958,11.9066],[-3.244,11.8839],[-3.272,11.8875],[-3.2913,11.9045],[-3.2994,11.9587],[-3.3571,11.9881],[-3.4901,11.9768],[-3.4952,11.9243],[-3.528,11.8996],[-3.5734,11.888],[-3.5951,11.8595],[-3.6127,11.8078],[-3.5871,11.757],[-3.6782,11.7474],[-3.7324,11.7186],[-3.7731,11.7237],[-3.8722,11.7727],[-3.878,11.8073],[-3.9123,11.827],[-3.9193,11.8463],[-3.949,11.8511],[-3.96,11.9189],[-3.981,11.9327],[-3.9787,11.9458],[-3.9473,11.94],[-3.9518,11.9745],[-3.9268,11.9953],[-3.9405,12.0158],[-3.9077,12.0518],[-3.8995,12.0847],[-3.8809,12.0769],[-3.8685,12.1182],[-3.8216,12.1481],[-3.8234,12.2372],[-3.8134,12.2604],[-3.7644,12.2779],[-3.7419,12.3379],[-3.696,12.4012],[-3.6456,12.4273],[-3.591,12.3925],[-3.5778,12.4015],[-3.5637,12.4818],[-3.5426,12.5263],[-3.5482,12.5646],[-3.5358,12.5707],[-3.5358,12.6116],[-3.5135,12.6746],[-3.541,12.7036],[-3.5187,12.7289],[-3.4644,12.7238],[-3.4554,12.7447],[-3.4293,12.7497],[-3.4004,12.7399],[-3.3606,12.6638],[-3.3648,12.6347],[-3.3406,12.6312],[-3.3164,12.6723],[-3.2582,12.6862],[-3.2487,12.6768],[-3.2484,12.5297],[-3.1892,12.527],[-3.1665,12.5018],[-3.159,12.5092],[-3.118,12.4403],[-3.085,12.4102],[-2.9567,12.3479],[-2.8864,12.3932],[-2.8648,12.3925],[-2.8406,12.3669]]]}},{"type":"Feature","id":"Nahouri","properties":{"id":"Nahouri","iso_code":"BF-NAO","name":"Nahouri","name_full":"Nahouri","name_ja":"ナウリ県","center_lonlat":[-1.2061,11.1983]},"geometry":{"type":"Polygon","coordinates":[[[-1.4136,11.014],[-1.4249,11.0473],[-1.4608,11.0524],[-1.4689,11.0779],[-1.5067,11.0759],[-1.5497,11.0919],[-1.6386,11.1411],[-1.645,11.1608],[-1.5889,11.2712],[-1.5881,11.3224],[-1.5667,11.3494],[-1.5128,11.3627],[-1.4698,11.4119],[-1.3834,11.4619],[-1.3138,11.5348],[-1.2736,11.476],[-1.2136,11.4713],[-1.1762,11.4162],[-1.1005,11.3809],[-1.0656,11.3418],[-1.0432,11.3281],[-0.9843,11.331],[-0.9728,11.2826],[-0.9381,11.2618],[-0.8789,11.1949],[-0.8186,11.1669],[-0.7769,11.1965],[-0.7316,11.1109],[-0.697,11.0789],[-0.703,10.9942],[-0.817,10.9962],[-0.8278,11.0058],[-0.9006,10.9662],[-0.8939,10.9799],[-0.9325,11.0031],[-1.0703,11.0139],[-1.0987,11.0096],[-1.1076,10.9943],[-1.3553,10.9967],[-1.4136,11.014]]]}},{"type":"Feature","id":"Namentenga","properties":{"id":"Namentenga","iso_code":"BF-NAM","name":"Namentenga","name_full":"Namentenga","name_ja":"ナメテンガ県","center_lonlat":[-0.4922,13.1465]},"geometry":{"type":"Polygon","coordinates":[[[-0.6137,12.5058],[-0.616,12.5951],[-0.635,12.6448],[-0.6726,12.6763],[-0.6757,12.7386],[-0.7011,12.7912],[-0.7838,12.8987],[-0.8114,12.9818],[-0.7895,13.0003],[-0.7212,12.9601],[-0.6933,12.9663],[-0.6813,12.9855],[-0.6764,13.1442],[-0.65,13.2547],[-0.6884,13.4303],[-0.7237,13.4761],[-0.7503,13.6416],[-0.7379,13.6739],[-0.6928,13.6988],[-0.6727,13.7324],[-0.6567,13.885],[-0.6083,13.9226],[-0.5517,13.899],[-0.4665,13.8177],[-0.4447,13.7394],[-0.3683,13.6514],[-0.3287,13.6309],[-0.2196,13.6165],[-0.2454,13.5316],[-0.2263,13.4966],[-0.23,13.4717],[-0.2945,13.4158],[-0.2762,13.3567],[-0.2803,13.3166],[-0.3139,13.2281],[-0.3019,13.191],[-0.3105,13.163],[-0.3604,13.0782],[-0.366,12.9908],[-0.3048,12.8547],[-0.1989,12.7879],[-0.2222,12.7093],[-0.1974,12.6425],[-0.2074,12.5605],[-0.3891,12.4689],[-0.4376,12.4667],[-0.6137,12.5058]]]}},{"type":"Feature","id":"Nayala","properties":{"id":"Nayala","iso_code":"BF-NAY","name":"Nayala","name_full":"Nayala","name_ja":"ナヤラ県","center_lonlat":[-3.0179,12.698]},"geometry":{"type":"Polygon","coordinates":[[[-2.6371,12.7362],[-2.6661,12.693],[-2.7477,12.6219],[-2.7513,12.5918],[-2.7204,12.5116],[-2.7643,12.4348],[-2.8406,12.3669],[-2.8648,12.3925],[-2.8864,12.3932],[-2.9567,12.3479],[-3.085,12.4102],[-3.118,12.4403],[-3.159,12.5092],[-3.1665,12.5018],[-3.1892,12.527],[-3.2484,12.5297],[-3.2487,12.6768],[-3.2582,12.6862],[-3.3164,12.6723],[-3.3406,12.6312],[-3.3648,12.6347],[-3.3606,12.6638],[-3.4004,12.7399],[-3.4293,12.7497],[-3.4262,12.7865],[-3.4037,12.813],[-3.3875,12.8787],[-3.3115,12.9279],[-3.2979,12.963],[-3.2737,12.9828],[-3.1915,12.9994],[-3.1469,12.9467],[-3.0828,12.9493],[-3.0377,12.9276],[-3.0016,12.9531],[-2.9704,12.9537],[-2.9153,12.917],[-2.8583,12.8974],[-2.7958,12.8999],[-2.7649,12.9301],[-2.7399,12.9354],[-2.6902,12.927],[-2.7108,12.8084],[-2.6371,12.7362]]]}},{"type":"Feature","id":"Noumbiel","properties":{"id":"Noumbiel","iso_code":"BF-NOU","name":"Noumbiel","name_full":"Noumbiel","name_ja":"ヌンビエル県","center_lonlat":[-2.9286,9.812]},"geometry":{"type":"Polygon","coordinates":[[[-3.2026,9.9082],[-3.2076,9.9628],[-3.1811,10.0041],[-3.1841,10.0542],[-3.1546,10.0778],[-3.0514,10.0748],[-2.9806,10.01],[-2.9393,10.0041],[-2.9187,10.0188],[-2.8922,10.1014],[-2.8627,10.1102],[-2.7885,10.0924],[-2.7836,10.0185],[-2.7544,9.9668],[-2.7605,9.8705],[-2.7339,9.8228],[-2.7748,9.7743],[-2.7953,9.72],[-2.7402,9.6508],[-2.7615,9.6253],[-2.7663,9.5765],[-2.6892,9.4887],[-2.7637,9.3919],[-2.8104,9.4111],[-2.9102,9.5427],[-2.99,9.7084],[-3.0246,9.7286],[-3.0771,9.7194],[-3.0946,9.7339],[-3.1169,9.8053],[-3.1369,9.8295],[-3.2,9.8454],[-3.2026,9.9082]]]}},{"type":"Feature","id":"Oubritenga","properties":{"id":"Oubritenga","iso_code":"BF-OUB","name":"Oubritenga","name_full":"Oubritenga","name_ja":"ウブリテンガ県","center_lonlat":[-1.305,12.6224]},"geometry":{"type":"Polygon","coordinates":[[[-1.0978,12.2598],[-1.1235,12.2541],[-1.2044,12.2889],[-1.2284,12.3176],[-1.2699,12.3345],[-1.2485,12.4375],[-1.2704,12.4865],[-1.3257,12.5014],[-1.3957,12.4643],[-1.4722,12.4597],[-1.4499,12.5131],[-1.4538,12.5322],[-1.4837,12.5654],[-1.5211,12.5438],[-1.5649,12.5395],[-1.5568,12.6235],[-1.5957,12.6731],[-1.6042,12.721],[-1.6485,12.7376],[-1.6644,12.8648],[-1.7052,12.8775],[-1.7315,12.9007],[-1.6647,12.9277],[-1.5526,12.9041],[-1.4857,12.8652],[-1.3722,12.858],[-1.3483,12.8234],[-1.2175,12.7774],[-1.1717,12.7433],[-1.1517,12.6973],[-1.1337,12.6864],[-1.1306,12.6737],[-1.1537,12.6434],[-1.1443,12.6321],[-1.1322,12.6304],[-1.1124,12.6732],[-1.0303,12.6657],[-0.9869,12.6432],[-0.9206,12.5619],[-0.84,12.5242],[-0.8493,12.4834],[-0.8779,12.47],[-0.9103,12.4662],[-0.9792,12.5244],[-1.0124,12.5232],[-1.0362,12.4921],[-1.08,12.4843],[-1.0601,12.4477],[-1.0897,12.3789],[-1.1108,12.3721],[-1.1162,12.3304],[-1.0968,12.3077],[-1.0978,12.2598]]]}},{"type":"Feature","id":"Oudalan","properties":{"id":"Oudalan","iso_code":"BF-OUD","name":"Oudalan","name_full":"Oudalan","name_ja":"ウダラン県","center_lonlat":[-0.3497,14.6424]},"geometry":{"type":"Polygon","coordinates":[[[0.2024,14.4355],[0.1798,14.4097],[0.1424,14.3989],[0.1114,14.3198],[-0.001,14.1852],[-0.17,14.1805],[-0.2474,14.1935],[-0.3181,14.1599],[-0.5669,14.1426],[-0.6121,14.176],[-0.6353,14.3253],[-0.7848,14.4898],[-0.796,14.5423],[-0.8838,14.6716],[-1.0431,14.8181],[-0.7828,15.0484],[-0.7197,15.0785],[-0.4679,15.0799],[-0.4257,15.0026],[-0.3977,15.0021],[-0.2992,15.0547],[-0.2367,15.0656],[-0.167,15.0497],[0.2185,14.911],[0.2208,14.8882],[0.1858,14.8482],[0.1841,14.8196],[0.2197,14.7312],[0.1529,14.5467],[0.1588,14.4961],[0.2024,14.4355]]]}},{"type":"Feature","id":"Passore","properties":{"id":"Passore","iso_code":"BF-PAS","name":"Passore","name_full":"Passoré","name_ja":"パッソレ県","center_lonlat":[-2.1556,12.8921]},"geometry":{"type":"Polygon","coordinates":[[[-2.6371,12.7362],[-2.7108,12.8084],[-2.6902,12.927],[-2.6859,12.9705],[-2.5279,12.9582],[-2.4461,12.9702],[-2.4177,12.9784],[-2.3699,13.0292],[-2.2365,13.0913],[-2.129,13.0643],[-2.0902,13.0294],[-2.0182,13.0294],[-1.9796,13.0709],[-1.9218,13.0662],[-1.895,13.1269],[-1.8703,13.1415],[-1.8468,13.1282],[-1.8295,13.0979],[-1.742,13.1224],[-1.6439,13.0294],[-1.6208,13.0346],[-1.6147,13.0173],[-1.5893,13.0232],[-1.557,12.9971],[-1.5025,12.994],[-1.5526,12.9041],[-1.6647,12.9277],[-1.7315,12.9007],[-1.8609,12.8699],[-1.9407,12.797],[-1.961,12.7609],[-1.9639,12.7238],[-1.9411,12.6773],[-1.9722,12.672],[-2.0091,12.7076],[-2.0576,12.708],[-2.0873,12.692],[-2.1775,12.6976],[-2.2722,12.6716],[-2.3103,12.6481],[-2.4507,12.6182],[-2.4575,12.6346],[-2.4112,12.6967],[-2.5066,12.7045],[-2.511,12.7265],[-2.4865,12.7744],[-2.4913,12.7995],[-2.5104,12.8132],[-2.535,12.8117],[-2.6371,12.7362]]]}},{"type":"Feature","id":"Poni","properties":{"id":"Poni","iso_code":"BF-PON","name":"Poni","name_full":"Poni","name_ja":"ポニ県","center_lonlat":[-3.3348,10.2826]},"geometry":{"type":"Polygon","coordinates":[[[-3.8916,9.8939],[-3.8939,9.9349],[-3.9813,10.0119],[-3.9872,10.0519],[-3.9677,10.0995],[-3.8925,10.0934],[-3.8172,10.1236],[-3.756,10.2196],[-3.7512,10.2542],[-3.7774,10.3506],[-3.698,10.4675],[-3.6945,10.6441],[-3.5983,10.6634],[-3.4956,10.6298],[-3.3963,10.6473],[-3.3179,10.5926],[-3.1986,10.638],[-3.1292,10.6983],[-3.0528,10.7406],[-3.0044,10.7427],[-2.9704,10.698],[-2.92,10.7111],[-2.9051,10.6927],[-2.9325,10.6343],[-2.8915,10.5217],[-2.8596,10.4656],[-2.8244,10.435],[-2.7676,10.4212],[-2.781,10.4024],[-2.8223,10.3876],[-2.8413,10.3433],[-2.8332,10.306],[-2.7549,10.2608],[-2.7577,10.2346],[-2.7985,10.1895],[-2.7885,10.0924],[-2.8627,10.1102],[-2.8922,10.1014],[-2.9187,10.0188],[-2.9393,10.0041],[-2.9806,10.01],[-3.0514,10.0748],[-3.1546,10.0778],[-3.1841,10.0542],[-3.1811,10.0041],[-3.2076,9.9628],[-3.2026,9.9082],[-3.2148,9.9156],[-3.2779,9.8435],[-3.3017,9.8411],[-3.3172,9.9013],[-3.3483,9.887],[-3.3892,9.9132],[-3.5465,9.9261],[-3.6063,9.9182],[-3.6617,9.9489],[-3.6796,9.9322],[-3.7065,9.9418],[-3.7696,9.9313],[-3.8235,9.8957],[-3.8916,9.8939]]]}},{"type":"Feature","id":"Sanguie","properties":{"id":"Sanguie","iso_code":"BF-SNG","name":"Sanguie","name_full":"Sanguié","name_ja":"サンギエ県","center_lonlat":[-2.6048,12.2037]},"geometry":{"type":"Polygon","coordinates":[[[-2.9194,12.053],[-2.8964,12.1038],[-2.8079,12.0643],[-2.7928,12.109],[-2.8166,12.15],[-2.8308,12.2135],[-2.8873,12.2775],[-2.869,12.3217],[-2.8375,12.3392],[-2.8406,12.3669],[-2.7643,12.4348],[-2.7204,12.5116],[-2.7513,12.5918],[-2.7477,12.6219],[-2.6661,12.693],[-2.6371,12.7362],[-2.535,12.8117],[-2.5104,12.8132],[-2.4913,12.7995],[-2.4865,12.7744],[-2.511,12.7265],[-2.5066,12.7045],[-2.4112,12.6967],[-2.4575,12.6346],[-2.4507,12.6182],[-2.3103,12.6481],[-2.2813,12.5913],[-2.2339,12.6312],[-2.2222,12.6124],[-2.2594,12.5331],[-2.3488,12.4648],[-2.4153,12.445],[-2.4241,12.4265],[-2.4105,12.3984],[-2.3961,12.2251],[-2.4757,12.1555],[-2.4317,12.1082],[-2.4815,12.0601],[-2.4812,12.0386],[-2.4706,12.0038],[-2.4125,11.9902],[-2.3461,11.9387],[-2.2712,11.9664],[-2.2403,11.965],[-2.2533,11.9019],[-2.4183,11.8617],[-2.5117,11.8094],[-2.5364,11.7906],[-2.572,11.7257],[-2.5935,11.6118],[-2.6801,11.6099],[-2.762,11.7193],[-2.7731,11.7526],[-2.8902,11.767],[-2.9148,11.78],[-2.9237,11.7976],[-2.9058,11.8165],[-2.8757,11.8115],[-2.831,11.8815],[-2.8785,11.9301],[-2.8603,11.9859],[-2.8648,12.0083],[-2.8853,12.0083],[-2.9194,12.053]]]}},{"type":"Feature","id":"Sanmatenga","properties":{"id":"Sanmatenga","iso_code":"BF-SMT","name":"Sanmatenga","name_full":"Sanmatenga","name_ja":"サンマテンガ県","center_lonlat":[-1.015,13.2244]},"geometry":{"type":"Polygon","coordinates":[[[-0.6726,12.6763],[-0.7353,12.6747],[-0.7501,12.6505],[-0.7442,12.5925],[-0.84,12.5242],[-0.9206,12.5619],[-0.9869,12.6432],[-1.0303,12.6657],[-1.1124,12.6732],[-1.1322,12.6304],[-1.1443,12.6321],[-1.1537,12.6434],[-1.1306,12.6737],[-1.1337,12.6864],[-1.1517,12.6973],[-1.1717,12.7433],[-1.2175,12.7774],[-1.3483,12.8234],[-1.3722,12.858],[-1.4857,12.8652],[-1.5526,12.9041],[-1.5025,12.994],[-1.5237,13.047],[-1.5217,13.0779],[-1.488,13.11],[-1.3759,13.1405],[-1.2993,13.1354],[-1.3028,13.2045],[-1.2769,13.2868],[-1.3582,13.4233],[-1.3323,13.4552],[-1.3212,13.4939],[-1.3358,13.562],[-1.289,13.6501],[-1.3331,13.739],[-1.1519,13.7614],[-1.0763,13.7914],[-1.052,13.7875],[-0.9808,13.8225],[-0.8519,13.8513],[-0.7106,13.9213],[-0.6581,13.9701],[-0.642,13.9709],[-0.6083,13.9226],[-0.6567,13.885],[-0.6727,13.7324],[-0.6928,13.6988],[-0.7379,13.6739],[-0.7503,13.6416],[-0.7237,13.4761],[-0.6884,13.4303],[-0.65,13.2547],[-0.6764,13.1442],[-0.6813,12.9855],[-0.6933,12.9663],[-0.7212,12.9601],[-0.7895,13.0003],[-0.8114,12.9818],[-0.7838,12.8987],[-0.7011,12.7912],[-0.6757,12.7386],[-0.6726,12.6763]]]}},{"type":"Feature","id":"Seno","properties":{"id":"Seno","iso_code":"BF-SEN","name":"Seno","name_full":"Séno","name_ja":"セノ県","center_lonlat":[-0.0373,13.9419]},"geometry":{"type":"Polygon","coordinates":[[[0.2024,14.4355],[0.3464,14.3076],[0.3888,14.2516],[0.3722,14.1856],[0.3392,14.1258],[0.3785,14.0704],[0.3692,14.0391],[0.4019,14.0138],[0.4119,13.9784],[0.4567,13.9468],[0.4486,13.9096],[0.4999,13.851],[0.4682,13.813],[0.4002,13.8001],[0.3585,13.7496],[0.2687,13.7315],[0.2215,13.669],[0.1779,13.6559],[0.0615,13.5782],[-0.0581,13.5419],[-0.1719,13.5714],[-0.2263,13.4966],[-0.2454,13.5316],[-0.2196,13.6165],[-0.3287,13.6309],[-0.3683,13.6514],[-0.4447,13.7394],[-0.4665,13.8177],[-0.5517,13.899],[-0.6083,13.9226],[-0.642,13.9709],[-0.598,13.9831],[-0.571,14.0086],[-0.5508,14.0924],[-0.5669,14.1426],[-0.3181,14.1599],[-0.2474,14.1935],[-0.17,14.1805],[-0.001,14.1852],[0.1114,14.3198],[0.1424,14.3989],[0.1798,14.4097],[0.2024,14.4355]]]}},{"type":"Feature","id":"Sissili","properties":{"id":"Sissili","iso_code":"BF-SIS","name":"Sissili","name_full":"Sissili","name_ja":"シッシリ県","center_lonlat":[-2.233,11.2929]},"geometry":{"type":"Polygon","coordinates":[[[-1.4136,11.014],[-1.5624,11.0266],[-1.5987,10.9971],[-2.7288,10.9861],[-2.7141,11.0403],[-2.6534,11.0555],[-2.6367,11.1103],[-2.7145,11.1844],[-2.7334,11.1864],[-2.7553,11.1497],[-2.7891,11.1388],[-2.8042,11.2334],[-2.7826,11.2817],[-2.7431,11.3246],[-2.7163,11.3348],[-2.6239,11.3233],[-2.5249,11.389],[-2.5253,11.4109],[-2.5428,11.43],[-2.6659,11.5163],[-2.6801,11.6099],[-2.5935,11.6118],[-2.572,11.7257],[-2.5364,11.7906],[-2.5117,11.8094],[-2.4183,11.8617],[-2.2533,11.9019],[-2.2396,11.9095],[-2.2232,11.7263],[-2.2443,11.7157],[-2.3401,11.7204],[-2.35,11.6035],[-2.3356,11.5453],[-2.2858,11.5164],[-2.2108,11.5161],[-2.1906,11.5042],[-2.1605,11.4758],[-2.1526,11.4298],[-2.1176,11.3765],[-2.0543,11.3382],[-2.0213,11.2938],[-1.9748,11.2928],[-1.9183,11.3587],[-1.8708,11.3462],[-1.8311,11.2908],[-1.7873,11.2965],[-1.6962,11.3669],[-1.6362,11.363],[-1.6203,11.3382],[-1.5881,11.3224],[-1.5889,11.2712],[-1.645,11.1608],[-1.6386,11.1411],[-1.5497,11.0919],[-1.5067,11.0759],[-1.4689,11.0779],[-1.4608,11.0524],[-1.4249,11.0473],[-1.4136,11.014]]]}},{"type":"Feature","id":"Soum","properties":{"id":"Soum","iso_code":"BF-SOM","name":"Soum","name_full":"Soum","name_ja":"スム県","center_lonlat":[-1.2907,14.2281]},"geometry":{"type":"Polygon","coordinates":[[[-1.0431,14.8181],[-0.8838,14.6716],[-0.796,14.5423],[-0.7848,14.4898],[-0.6353,14.3253],[-0.6121,14.176],[-0.5669,14.1426],[-0.5508,14.0924],[-0.571,14.0086],[-0.598,13.9831],[-0.642,13.9709],[-0.6581,13.9701],[-0.7106,13.9213],[-0.8519,13.8513],[-0.9808,13.8225],[-1.052,13.7875],[-1.0763,13.7914],[-1.1519,13.7614],[-1.3331,13.739],[-1.4731,13.7919],[-1.5106,13.8328],[-1.5348,13.9027],[-1.6159,13.8614],[-1.6564,13.8571],[-1.6969,13.8256],[-1.747,13.7293],[-1.8149,13.7993],[-1.8706,13.8982],[-1.8638,13.9941],[-2.0398,14.1027],[-2.085,14.1597],[-2.0359,14.1812],[-2.0234,14.1986],[-1.9971,14.4707],[-1.967,14.4837],[-1.837,14.4796],[-1.6969,14.4961],[-1.3503,14.715],[-1.1167,14.7804],[-1.0431,14.8181]]]}},{"type":"Feature","id":"Sourou","properties":{"id":"Sourou","iso_code":"BF-SOR","name":"Sourou","name_full":"Sourou","name_ja":"スル県","center_lonlat":[-3.0083,13.2444]},"geometry":{"type":"Polygon","coordinates":[[[-2.9305,13.6385],[-2.8597,13.5578],[-2.7313,13.5202],[-2.6812,13.4716],[-2.6404,13.4579],[-2.6243,13.3608],[-2.5906,13.2931],[-2.5422,13.2661],[-2.4917,13.2701],[-2.4426,13.2531],[-2.549,13.0906],[-2.6829,13.0858],[-2.6958,13.0582],[-2.6859,12.9705],[-2.6902,12.927],[-2.7399,12.9354],[-2.7649,12.9301],[-2.7958,12.8999],[-2.8583,12.8974],[-2.9153,12.917],[-2.9704,12.9537],[-3.0016,12.9531],[-3.0377,12.9276],[-3.0828,12.9493],[-3.1469,12.9467],[-3.1915,12.9994],[-3.2737,12.9828],[-3.2979,12.963],[-3.3115,12.9279],[-3.3875,12.8787],[-3.4037,12.813],[-3.4262,12.7865],[-3.4608,12.8417],[-3.4739,13.1676],[-3.4495,13.1688],[-3.4395,13.1849],[-3.4485,13.2658],[-3.2486,13.2928],[-3.284,13.5422],[-3.2597,13.6583],[-3.2663,13.6823],[-3.287,13.6978],[-3.2671,13.717],[-3.1958,13.6749],[-3.1251,13.6773],[-3.0822,13.6462],[-3.0675,13.6068],[-3.0191,13.6375],[-2.9723,13.6245],[-2.9305,13.6385]]]}},{"type":"Feature","id":"Tapoa","properties":{"id":"Tapoa","iso_code":"BF-TAP","name":"Tapoa","name_full":"Tapoa","name_ja":"タポア県","center_lonlat":[1.7404,12.0644]},"geometry":{"type":"Polygon","coordinates":[[[1.4232,11.4537],[1.2622,11.5727],[1.2328,11.6151],[1.2299,11.7165],[1.2678,11.765],[1.2941,11.8445],[1.3302,12.1084],[1.3311,12.1393],[1.2237,12.1782],[1.2007,12.2302],[1.2186,12.3174],[1.1998,12.4715],[1.2427,12.5551],[1.28,12.7008],[1.2688,12.7737],[1.3048,12.8385],[1.5359,12.6475],[1.597,12.6237],[1.8437,12.6061],[1.9114,12.6966],[1.9345,12.6935],[1.9717,12.7242],[2.109,12.7056],[2.2,12.5959],[2.2109,12.5231],[2.2463,12.4659],[2.245,12.4242],[2.2233,12.4097],[2.145,12.4117],[2.1269,12.3951],[2.0693,12.3833],[2.0542,12.3709],[2.0518,12.3419],[2.3381,11.9401],[2.3902,11.8965],[2.3541,11.7998],[2.3016,11.7315],[2.2874,11.6653],[2.147,11.5637],[2.0108,11.4269],[1.9834,11.414],[1.8406,11.4455],[1.7822,11.426],[1.7191,11.4278],[1.6016,11.3887],[1.5806,11.4271],[1.5632,11.426],[1.5693,11.4533],[1.4396,11.4738],[1.4232,11.4537]]]}},{"type":"Feature","id":"Tuy","properties":{"id":"Tuy","iso_code":"BF-TUI","name":"Tuy","name_full":"Tuy","name_ja":"トゥイ県","center_lonlat":[-3.519,11.4208]},"geometry":{"type":"Polygon","coordinates":[[[-3.5871,11.757],[-3.5084,11.7115],[-3.3962,11.6784],[-3.4199,11.6003],[-3.352,11.5552],[-3.3098,11.5462],[-3.2977,11.4797],[-3.2771,11.4594],[-3.2302,11.4856],[-3.197,11.4834],[-3.05,11.5739],[-2.9618,11.534],[-2.9297,11.5432],[-2.8858,11.5241],[-2.8741,11.5407],[-2.8488,11.5333],[-2.8293,11.519],[-2.8301,11.4944],[-2.8505,11.4739],[-2.8284,11.4301],[-2.8437,11.3101],[-2.8586,11.2877],[-3.0052,11.3405],[-3.1155,11.3257],[-3.1571,11.35],[-3.1982,11.3384],[-3.2701,11.2654],[-3.3027,11.1712],[-3.418,11.1434],[-3.4465,11.1623],[-3.4556,11.1433],[-3.5029,11.1246],[-3.5245,11.089],[-3.5549,11.0759],[-3.5926,11.0364],[-3.579,11.0005],[-3.5861,10.9721],[-3.6249,10.9688],[-3.642,10.98],[-3.742,11.0704],[-3.8015,11.1476],[-3.8595,11.1416],[-3.8756,11.1645],[-3.8817,11.199],[-3.8491,11.3594],[-3.8901,11.3807],[-3.9064,11.4664],[-3.9696,11.5401],[-3.9907,11.6377],[-3.9578,11.7357],[-3.9626,11.8035],[-3.949,11.8511],[-3.9193,11.8463],[-3.9123,11.827],[-3.878,11.8073],[-3.8722,11.7727],[-3.7731,11.7237],[-3.7324,11.7186],[-3.6782,11.7474],[-3.5871,11.757]]]}},{"type":"Feature","id":"Yagha","properties":{"id":"Yagha","iso_code":"BF-YAG","name":"Yagha","name_full":"Yagha","name_ja":"ヤガ県","center_lonlat":[0.5953,13.3993]},"geometry":{"type":"Polygon","coordinates":[[[0.4999,13.851],[0.6005,13.7687],[0.5805,13.7138],[0.5943,13.6889],[0.7635,13.682],[0.7637,13.6464],[0.7757,13.6353],[0.8969,13.6149],[0.951,13.5832],[0.9914,13.5411],[0.9966,13.4961],[1.0482,13.4419],[1.1572,13.3926],[1.2343,13.3776],[1.2687,13.3461],[1.2415,13.3355],[1.1877,13.3641],[1.1607,13.3113],[0.9835,13.3684],[0.9704,13.3283],[0.9717,13.0858],[0.8229,13.0007],[0.7965,13.002],[0.7536,12.9629],[0.6992,12.9752],[0.5744,12.954],[0.5965,12.9722],[0.5847,13.0016],[0.4325,13.1676],[0.302,13.2084],[0.2572,13.2469],[0.2462,13.2825],[0.1838,13.3404],[0.1215,13.4484],[0.0696,13.4997],[0.0615,13.5782],[0.1779,13.6559],[0.2215,13.669],[0.2687,13.7315],[0.3585,13.7496],[0.4002,13.8001],[0.4682,13.813],[0.4999,13.851]]]}},{"type":"Feature","id":"Yatenga","properties":{"id":"Yatenga","iso_code":"BF-YAT","name":"Yatenga","name_full":"Yatenga","name_ja":"ヤテンガ県","center_lonlat":[-2.3843,13.6026]},"geometry":{"type":"Polygon","coordinates":[[[-2.6763,14.1417],[-2.5865,14.0461],[-2.5685,13.991],[-2.5313,13.9839],[-2.5031,14.0004],[-2.4713,13.9983],[-2.4198,14.0435],[-2.3864,14.0428],[-2.31,13.9847],[-2.2709,13.9698],[-2.2647,13.9162],[-2.2479,13.8915],[-2.1986,13.8649],[-2.2074,13.8002],[-2.1486,13.6593],[-2.1156,13.528],[-2.0045,13.517],[-1.878,13.5418],[-1.8393,13.464],[-1.8401,13.3406],[-1.7944,13.2775],[-1.7464,13.2593],[-1.7205,13.2023],[-1.7199,13.1721],[-1.742,13.1224],[-1.8295,13.0979],[-1.8468,13.1282],[-1.8703,13.1415],[-1.895,13.1269],[-1.9218,13.0662],[-1.9796,13.0709],[-2.0182,13.0294],[-2.0902,13.0294],[-2.129,13.0643],[-2.1493,13.0809],[-2.1448,13.1113],[-2.0988,13.155],[-2.1039,13.1945],[-2.0664,13.2629],[-2.0897,13.3361],[-2.1113,13.3424],[-2.1614,13.3224],[-2.2363,13.3328],[-2.3241,13.3627],[-2.3767,13.3662],[-2.4007,13.3884],[-2.4584,13.3637],[-2.4933,13.3273],[-2.5906,13.2931],[-2.6243,13.3608],[-2.6404,13.4579],[-2.6812,13.4716],[-2.7313,13.5202],[-2.8597,13.5578],[-2.9305,13.6385],[-2.8952,13.6516],[-2.9281,13.7996],[-2.8945,13.8666],[-2.8554,13.9962],[-2.8673,14.0005],[-2.8409,14.043],[-2.6763,14.1417]]]}},{"type":"Feature","id":"Ziro","properties":{"id":"Ziro","iso_code":"BF-ZIR","name":"Ziro","name_full":"Ziro","name_ja":"ジロ県","center_lonlat":[-1.8703,11.6138]},"geometry":{"type":"Polygon","coordinates":[[[-1.3477,11.5841],[-1.3138,11.5348],[-1.3834,11.4619],[-1.4698,11.4119],[-1.5128,11.3627],[-1.5667,11.3494],[-1.5881,11.3224],[-1.6203,11.3382],[-1.6362,11.363],[-1.6962,11.3669],[-1.7873,11.2965],[-1.8311,11.2908],[-1.8708,11.3462],[-1.9183,11.3587],[-1.9748,11.2928],[-2.0213,11.2938],[-2.0543,11.3382],[-2.1176,11.3765],[-2.1526,11.4298],[-2.1605,11.4758],[-2.1906,11.5042],[-2.2108,11.5161],[-2.2858,11.5164],[-2.3356,11.5453],[-2.35,11.6035],[-2.3401,11.7204],[-2.2443,11.7157],[-2.2232,11.7263],[-2.2396,11.9095],[-2.1851,11.9138],[-2.0975,11.945],[-2.0418,11.9817],[-2.0042,11.9545],[-1.969,11.9049],[-1.867,11.9142],[-1.8129,11.9387],[-1.7889,11.9264],[-1.635,11.7726],[-1.4832,11.6904],[-1.4277,11.6261],[-1.3477,11.5841]]]}},{"type":"Feature","id":"Zondoma","properties":{"id":"Zondoma","iso_code":"BF-ZON","name":"Zondoma","name_full":"Zondoma","name_ja":"ゾンドマ県","center_lonlat":[-2.3664,13.1693]},"geometry":{"type":"Polygon","coordinates":[[[-2.129,13.0643],[-2.2365,13.0913],[-2.3699,13.0292],[-2.4177,12.9784],[-2.4461,12.9702],[-2.5279,12.9582],[-2.6859,12.9705],[-2.6958,13.0582],[-2.6829,13.0858],[-2.549,13.0906],[-2.4426,13.2531],[-2.4917,13.2701],[-2.5422,13.2661],[-2.5906,13.2931],[-2.4933,13.3273],[-2.4584,13.3637],[-2.4007,13.3884],[-2.3767,13.3662],[-2.3241,13.3627],[-2.2363,13.3328],[-2.1614,13.3224],[-2.1113,13.3424],[-2.0897,13.3361],[-2.0664,13.2629],[-2.1039,13.1945],[-2.0988,13.155],[-2.1448,13.1113],[-2.1493,13.0809],[-2.129,13.0643]]]}},{"type":"Feature","id":"Zoundweogo","properties":{"id":"Zoundweogo","iso_code":"BF-ZOU","name":"Zoundweogo","name_full":"Zoundwéogo","name_ja":"ズンドウェオゴ県","center_lonlat":[-0.9751,11.5564]},"geometry":{"type":"Polygon","coordinates":[[[-0.888,11.8859],[-0.8329,11.8822],[-0.8189,11.8473],[-0.7985,11.8377],[-0.9103,11.7078],[-0.9239,11.6695],[-0.8678,11.5856],[-0.7455,11.5212],[-0.7023,11.5394],[-0.6259,11.5211],[-0.5621,11.4882],[-0.5328,11.4482],[-0.5488,11.4124],[-0.5474,11.367],[-0.5773,11.3777],[-0.6065,11.3661],[-0.7354,11.2732],[-0.7769,11.1965],[-0.8186,11.1669],[-0.8789,11.1949],[-0.9381,11.2618],[-0.9728,11.2826],[-0.9843,11.331],[-1.0432,11.3281],[-1.0656,11.3418],[-1.1005,11.3809],[-1.1762,11.4162],[-1.2136,11.4713],[-1.2736,11.476],[-1.3138,11.5348],[-1.3477,11.5841],[-1.3191,11.6788],[-1.2258,11.8322],[-1.1246,11.9104],[-1.073,11.9263],[-0.9383,11.8783],[-0.888,11.8859]]]}}]}
