{"type":"FeatureCollection","features":[{"type":"Feature","id":"Bubanza","properties":{"id":"Bubanza","iso_code":"BI-BB","name":"Bubanza","name_full":"Bubanza","name_ja":"ブバンザ県","center_lonlat":[29.4006,-3.1266]},"geometry":{"type":"Polygon","coordinates":[[[29.2361,-3.2707],[29.2169,-3.2331],[29.2141,-3.1665],[29.2415,-3.1042],[29.2869,-3.1028],[29.3167,-3.0724],[29.2892,-3.0214],[29.3569,-2.9869],[29.3718,-2.9509],[29.414,-2.9593],[29.4949,-2.911],[29.5202,-2.9455],[29.5587,-3.0908],[29.5456,-3.1349],[29.5586,-3.1603],[29.5555,-3.188],[29.5341,-3.2386],[29.543,-3.2543],[29.5231,-3.28],[29.4939,-3.2602],[29.3788,-3.2588],[29.3274,-3.2757],[29.2939,-3.3111],[29.2591,-3.2995],[29.2361,-3.2707]]]}},{"type":"Feature","id":"Bujumbura Mairie","properties":{"id":"Bujumbura Mairie","iso_code":"BI-BM","name":"Bujumbura Mairie","name_full":"Bujumbura Mairie","name_ja":"ブジュンブラ・メリー県","center_lonlat":[29.3119,-3.4478]},"geometry":{"type":"Polygon","coordinates":[[[29.2239,-3.5711],[29.2119,-3.4068],[29.3518,-3.3132],[29.3907,-3.3104],[29.4076,-3.3249],[29.4112,-3.3697],[29.3777,-3.5253],[29.3438,-3.5604],[29.3075,-3.5725],[29.2239,-3.5711]]]}},{"type":"Feature","id":"Bujumbura Rural","properties":{"id":"Bujumbura Rural","iso_code":"BI-BL","name":"Bujumbura Rural","name_full":"Bujumbura Rural","name_ja":"ブジュンブラ近郊県","center_lonlat":[29.4151,-3.5055]},"geometry":{"type":"Polygon","coordinates":[[[29.2119,-3.4068],[29.2087,-3.3053],[29.2361,-3.2707],[29.2591,-3.2995],[29.2939,-3.3111],[29.3274,-3.2757],[29.3788,-3.2588],[29.4939,-3.2602],[29.5231,-3.28],[29.5654,-3.4021],[29.5826,-3.3874],[29.5925,-3.3991],[29.6042,-3.4637],[29.584,-3.5463],[29.546,-3.5666],[29.4883,-3.717],[29.3101,-3.7295],[29.2171,-3.7093],[29.2239,-3.5711],[29.3075,-3.5725],[29.3438,-3.5604],[29.3777,-3.5253],[29.4112,-3.3697],[29.4076,-3.3249],[29.3907,-3.3104],[29.3518,-3.3132],[29.2119,-3.4068]]]}},{"type":"Feature","id":"Bururi","properties":{"id":"Bururi","iso_code":"BI-BR","name":"Bururi","name_full":"Bururi","name_ja":"ブルリ県","center_lonlat":[29.552,-3.8933]},"geometry":{"type":"Polygon","coordinates":[[[29.3672,-4.189],[29.3395,-4.0932],[29.215,-3.8999],[29.2066,-3.7819],[29.2171,-3.7093],[29.3101,-3.7295],[29.4883,-3.717],[29.546,-3.5666],[29.584,-3.5463],[29.6426,-3.6297],[29.6688,-3.6462],[29.675,-3.7159],[29.7261,-3.6403],[29.7819,-3.6503],[29.7556,-3.8015],[29.7727,-3.8195],[29.8198,-3.7781],[29.8415,-3.7275],[29.8681,-3.7637],[29.8536,-3.7886],[29.9128,-3.8028],[29.9283,-3.8204],[29.9076,-3.8374],[29.9277,-3.894],[29.8945,-3.9355],[29.8816,-4.0595],[29.8512,-4.0779],[29.8365,-4.0702],[29.8173,-3.9427],[29.8035,-3.9501],[29.7812,-4.0196],[29.7435,-4.0533],[29.6753,-4.0849],[29.6401,-4.1241],[29.5661,-4.1489],[29.5319,-4.1777],[29.3672,-4.189]]]}},{"type":"Feature","id":"Cankuzo","properties":{"id":"Cankuzo","iso_code":"BI-CA","name":"Cankuzo","name_full":"Cankuzo","name_ja":"カンクゾ県","center_lonlat":[30.5936,-3.1337]},"geometry":{"type":"Polygon","coordinates":[[[30.4883,-2.9432],[30.5389,-2.899],[30.6295,-2.9477],[30.6376,-2.9744],[30.6837,-2.97],[30.7321,-2.9935],[30.8255,-2.9786],[30.7783,-3.0474],[30.8177,-3.0991],[30.8123,-3.1235],[30.8329,-3.1477],[30.8094,-3.2168],[30.8148,-3.2477],[30.7757,-3.291],[30.7479,-3.2941],[30.7215,-3.281],[30.712,-3.3019],[30.6405,-3.3329],[30.6103,-3.3764],[30.5924,-3.3831],[30.5849,-3.3348],[30.5394,-3.2977],[30.5063,-3.3058],[30.4564,-3.2814],[30.44,-3.2312],[30.2889,-3.1852],[30.3381,-3.1451],[30.3582,-3.1358],[30.3841,-3.0576],[30.4103,-3.0505],[30.4154,-3.0109],[30.4883,-2.9432]]]}},{"type":"Feature","id":"Cibitoke","properties":{"id":"Cibitoke","iso_code":"BI-CI","name":"Cibitoke","name_full":"Cibitoke","name_ja":"チビトケ県","center_lonlat":[29.2202,-2.8255]},"geometry":{"type":"Polygon","coordinates":[[[29.4447,-2.807],[29.4625,-2.823],[29.4949,-2.911],[29.414,-2.9593],[29.3718,-2.9509],[29.3569,-2.9869],[29.2892,-3.0214],[29.3167,-3.0724],[29.2869,-3.1028],[29.2415,-3.1042],[29.2254,-3.0318],[29.1568,-3.0048],[29.1384,-2.9504],[29.0898,-2.9261],[29.0491,-2.8275],[28.9949,-2.8136],[28.9869,-2.7968],[28.9955,-2.7584],[29.0286,-2.7449],[29.0154,-2.7207],[29.0326,-2.6207],[29.0553,-2.5984],[29.1134,-2.5946],[29.2761,-2.6406],[29.3066,-2.6601],[29.3097,-2.691],[29.3375,-2.7238],[29.3181,-2.7626],[29.3397,-2.8264],[29.4074,-2.8055],[29.4447,-2.807]]]}},{"type":"Feature","id":"Gitega","properties":{"id":"Gitega","iso_code":"BI-GI","name":"Gitega","name_full":"Gitega","name_ja":"ギテガ県","center_lonlat":[29.9287,-3.5002]},"geometry":{"type":"Polygon","coordinates":[[[29.878,-3.0585],[29.9044,-3.068],[29.9076,-3.0869],[29.8911,-3.1494],[29.8983,-3.17],[29.9114,-3.1774],[29.929,-3.1563],[29.9607,-3.1604],[29.9734,-3.1905],[30.0153,-3.2318],[30.0184,-3.2785],[29.9802,-3.3345],[29.9861,-3.3546],[30.0205,-3.3753],[30.0381,-3.3466],[30.0823,-3.4248],[30.0743,-3.5075],[30.1039,-3.5794],[30.1035,-3.6359],[30.0813,-3.6864],[30.0151,-3.7163],[30.0002,-3.7573],[29.9553,-3.8028],[29.9516,-3.832],[29.9283,-3.8204],[29.9128,-3.8028],[29.8536,-3.7886],[29.8681,-3.7637],[29.8415,-3.7275],[29.8198,-3.7781],[29.7727,-3.8195],[29.7556,-3.8015],[29.7819,-3.6503],[29.7261,-3.6403],[29.7622,-3.6144],[29.809,-3.62],[29.798,-3.58],[29.7699,-3.5444],[29.8691,-3.4764],[29.8872,-3.4035],[29.8731,-3.375],[29.8434,-3.3561],[29.8386,-3.3147],[29.7971,-3.2898],[29.8228,-3.2546],[29.8658,-3.2331],[29.8346,-3.2142],[29.8147,-3.1793],[29.8407,-3.162],[29.8332,-3.1079],[29.878,-3.0585]]]}},{"type":"Feature","id":"Karuzi","properties":{"id":"Karuzi","iso_code":"BI-KR","name":"Karuzi","name_full":"Karuzi","name_ja":"カルジ県","center_lonlat":[30.1192,-3.1276]},"geometry":{"type":"Polygon","coordinates":[[[29.9076,-3.0869],[29.9475,-3.0772],[30.0149,-2.9976],[30.0926,-2.9791],[30.1577,-2.934],[30.1868,-2.898],[30.2714,-2.9249],[30.2881,-2.9604],[30.2884,-3.0003],[30.2438,-3.1094],[30.2828,-3.1397],[30.3079,-3.1328],[30.3381,-3.1451],[30.2889,-3.1852],[30.1564,-3.3174],[30.0381,-3.3466],[30.0205,-3.3753],[29.9861,-3.3546],[29.9802,-3.3345],[30.0184,-3.2785],[30.0153,-3.2318],[29.9734,-3.1905],[29.9607,-3.1604],[29.929,-3.1563],[29.9114,-3.1774],[29.8983,-3.17],[29.8911,-3.1494],[29.9076,-3.0869]]]}},{"type":"Feature","id":"Kayanza","properties":{"id":"Kayanza","iso_code":"BI-KY","name":"Kayanza","name_full":"Kayanza","name_ja":"カヤンザ県","center_lonlat":[29.6745,-2.9993]},"geometry":{"type":"Polygon","coordinates":[[[29.6371,-2.7916],[29.6418,-2.8423],[29.605,-2.8692],[29.6496,-2.8921],[29.7206,-2.9067],[29.7608,-2.896],[29.7817,-2.9052],[29.802,-2.9848],[29.8779,-3.01],[29.878,-3.0585],[29.8332,-3.1079],[29.8407,-3.162],[29.8147,-3.1793],[29.7399,-3.2003],[29.7218,-3.1906],[29.7074,-3.1469],[29.6596,-3.1599],[29.6572,-3.1189],[29.6446,-3.1099],[29.6293,-3.1147],[29.6096,-3.0979],[29.5587,-3.0908],[29.5202,-2.9455],[29.4949,-2.911],[29.4625,-2.823],[29.4447,-2.807],[29.5041,-2.8269],[29.6193,-2.7877],[29.6371,-2.7916]]]}},{"type":"Feature","id":"Kirundo","properties":{"id":"Kirundo","iso_code":"BI-KI","name":"Kirundo","name_full":"Kirundo","name_ja":"キルンド県","center_lonlat":[30.1539,-2.5315]},"geometry":{"type":"Polygon","coordinates":[[[30.3486,-2.3224],[30.3706,-2.3392],[30.3949,-2.4123],[30.4256,-2.4568],[30.4112,-2.499],[30.4262,-2.5362],[30.4156,-2.5765],[30.3741,-2.5902],[30.28,-2.6809],[30.2659,-2.6747],[30.1644,-2.7207],[30.1432,-2.7602],[30.0781,-2.781],[29.9785,-2.6546],[29.9037,-2.6379],[29.9079,-2.5354],[29.9296,-2.4598],[29.9224,-2.383],[29.9317,-2.3169],[29.9761,-2.3437],[30.0133,-2.3483],[30.073,-2.4088],[30.1168,-2.4315],[30.1562,-2.419],[30.2075,-2.3392],[30.2789,-2.3576],[30.3168,-2.3476],[30.3486,-2.3224]]]}},{"type":"Feature","id":"Makamba","properties":{"id":"Makamba","iso_code":"BI-MA","name":"Makamba","name_full":"Makamba","name_ja":"マカンバ県","center_lonlat":[29.716,-4.2462]},"geometry":{"type":"Polygon","coordinates":[[[30.1759,-4.04],[30.1196,-4.1235],[30.0515,-4.1802],[30.003,-4.2719],[29.8474,-4.3705],[29.8003,-4.3639],[29.7841,-4.3738],[29.7328,-4.4633],[29.6383,-4.4468],[29.4042,-4.4498],[29.3672,-4.189],[29.5319,-4.1777],[29.5661,-4.1489],[29.6401,-4.1241],[29.6753,-4.0849],[29.7435,-4.0533],[29.7812,-4.0196],[29.8035,-3.9501],[29.8173,-3.9427],[29.8365,-4.0702],[29.8512,-4.0779],[29.8816,-4.0595],[29.9531,-4.1355],[30.0406,-4.0662],[30.1255,-4.0628],[30.1759,-4.04]]]}},{"type":"Feature","id":"Muramvya","properties":{"id":"Muramvya","iso_code":"BI-MU","name":"Muramvya","name_full":"Muramvya","name_ja":"ムランヴィヤ県","center_lonlat":[29.6708,-3.2621]},"geometry":{"type":"Polygon","coordinates":[[[29.5587,-3.0908],[29.6096,-3.0979],[29.6293,-3.1147],[29.6446,-3.1099],[29.6572,-3.1189],[29.6596,-3.1599],[29.7074,-3.1469],[29.7218,-3.1906],[29.7399,-3.2003],[29.8147,-3.1793],[29.8346,-3.2142],[29.8658,-3.2331],[29.8228,-3.2546],[29.7971,-3.2898],[29.8386,-3.3147],[29.8434,-3.3561],[29.6772,-3.3846],[29.6577,-3.3977],[29.629,-3.3817],[29.5925,-3.3991],[29.5826,-3.3874],[29.5654,-3.4021],[29.5231,-3.28],[29.543,-3.2543],[29.5341,-3.2386],[29.5555,-3.188],[29.5586,-3.1603],[29.5456,-3.1349],[29.5587,-3.0908]]]}},{"type":"Feature","id":"Muyinga","properties":{"id":"Muyinga","iso_code":"BI-MY","name":"Muyinga","name_full":"Muyinga","name_ja":"ムインガ県","center_lonlat":[30.3416,-2.7723]},"geometry":{"type":"Polygon","coordinates":[[[30.4883,-2.9432],[30.4154,-3.0109],[30.4103,-3.0505],[30.3841,-3.0576],[30.3582,-3.1358],[30.3381,-3.1451],[30.3079,-3.1328],[30.2828,-3.1397],[30.2438,-3.1094],[30.2884,-3.0003],[30.2881,-2.9604],[30.2714,-2.9249],[30.1868,-2.898],[30.187,-2.8696],[30.1597,-2.8622],[30.1428,-2.86],[30.1056,-2.8951],[30.0824,-2.8831],[30.1191,-2.8203],[30.0781,-2.781],[30.1432,-2.7602],[30.1644,-2.7207],[30.2659,-2.6747],[30.28,-2.6809],[30.3741,-2.5902],[30.4156,-2.5765],[30.4262,-2.5362],[30.4112,-2.499],[30.4256,-2.4568],[30.3949,-2.4123],[30.3706,-2.3392],[30.3486,-2.3224],[30.3786,-2.3031],[30.4185,-2.3118],[30.4885,-2.3838],[30.5546,-2.4006],[30.5081,-2.4635],[30.4577,-2.598],[30.416,-2.6456],[30.4121,-2.6702],[30.4427,-2.6811],[30.5226,-2.6494],[30.4505,-2.7418],[30.4469,-2.7827],[30.4136,-2.8344],[30.4408,-2.884],[30.4742,-2.9032],[30.4883,-2.9432]]]}},{"type":"Feature","id":"Mwaro","properties":{"id":"Mwaro","iso_code":"BI-MW","name":"Mwaro","name_full":"Mwaro","name_ja":"ムワロ県","center_lonlat":[29.7231,-3.4958]},"geometry":{"type":"Polygon","coordinates":[[[29.8434,-3.3561],[29.8731,-3.375],[29.8872,-3.4035],[29.8691,-3.4764],[29.7699,-3.5444],[29.798,-3.58],[29.809,-3.62],[29.7622,-3.6144],[29.7261,-3.6403],[29.675,-3.7159],[29.6688,-3.6462],[29.6426,-3.6297],[29.584,-3.5463],[29.6042,-3.4637],[29.5925,-3.3991],[29.629,-3.3817],[29.6577,-3.3977],[29.6772,-3.3846],[29.8434,-3.3561]]]}},{"type":"Feature","id":"Ngozi","properties":{"id":"Ngozi","iso_code":"BI-NG","name":"Ngozi","name_full":"Ngozi","name_ja":"ンゴジ県","center_lonlat":[29.9187,-2.8621]},"geometry":{"type":"Polygon","coordinates":[[[29.9037,-2.6379],[29.9785,-2.6546],[30.0781,-2.781],[30.1191,-2.8203],[30.0824,-2.8831],[30.1056,-2.8951],[30.1428,-2.86],[30.1597,-2.8622],[30.187,-2.8696],[30.1868,-2.898],[30.1577,-2.934],[30.0926,-2.9791],[30.0149,-2.9976],[29.9475,-3.0772],[29.9076,-3.0869],[29.9044,-3.068],[29.878,-3.0585],[29.8779,-3.01],[29.802,-2.9848],[29.7817,-2.9052],[29.7608,-2.896],[29.7206,-2.9067],[29.6496,-2.8921],[29.605,-2.8692],[29.6418,-2.8423],[29.6371,-2.7916],[29.7199,-2.8055],[29.7447,-2.76],[29.8236,-2.7635],[29.8762,-2.7136],[29.9037,-2.6379]]]}},{"type":"Feature","id":"Rutana","properties":{"id":"Rutana","iso_code":"BI-RT","name":"Rutana","name_full":"Rutana","name_ja":"ルタナ県","center_lonlat":[30.1039,-3.865]},"geometry":{"type":"Polygon","coordinates":[[[30.3731,-3.7043],[30.3816,-3.7883],[30.337,-3.7738],[30.3117,-3.7899],[30.2733,-3.8562],[30.2088,-3.9305],[30.1759,-4.04],[30.1255,-4.0628],[30.0406,-4.0662],[29.9531,-4.1355],[29.8816,-4.0595],[29.8945,-3.9355],[29.9277,-3.894],[29.9076,-3.8374],[29.9283,-3.8204],[29.9516,-3.832],[29.9553,-3.8028],[30.0002,-3.7573],[30.0151,-3.7163],[30.0813,-3.6864],[30.1035,-3.6359],[30.15,-3.6428],[30.1735,-3.6701],[30.2282,-3.6386],[30.3731,-3.7043]]]}},{"type":"Feature","id":"Ruyigi","properties":{"id":"Ruyigi","iso_code":"BI-RY","name":"Ruyigi","name_full":"Ruyigi","name_ja":"ルイギ県","center_lonlat":[30.3162,-3.4385]},"geometry":{"type":"Polygon","coordinates":[[[30.6103,-3.3764],[30.6404,-3.3928],[30.6391,-3.4195],[30.545,-3.4891],[30.5115,-3.4977],[30.5072,-3.5111],[30.4689,-3.513],[30.4323,-3.5519],[30.4289,-3.6022],[30.3731,-3.7043],[30.2282,-3.6386],[30.1735,-3.6701],[30.15,-3.6428],[30.1035,-3.6359],[30.1039,-3.5794],[30.0743,-3.5075],[30.0823,-3.4248],[30.0381,-3.3466],[30.1564,-3.3174],[30.2889,-3.1852],[30.44,-3.2312],[30.4564,-3.2814],[30.5063,-3.3058],[30.5394,-3.2977],[30.5849,-3.3348],[30.5924,-3.3831],[30.6103,-3.3764]]]}}]}
