{"type":"FeatureCollection","features":[{"type":"Feature","id":"Banteay Meanchey","properties":{"id":"Banteay Meanchey","iso_code":"KH-1","name":"Banteay Meanchey","name_full":"Banteay Meanchey","name_ja":"バンテイメンチェイ州","center_lonlat":[103.0061,13.7372]},"geometry":{"type":"Polygon","coordinates":[[[103.0169,14.2389],[103.0992,14.1852],[103.1257,14.1338],[103.193,14.1193],[103.1842,14.0539],[103.2116,14.0542],[103.2638,14.0009],[103.3301,14.0636],[103.3435,14.0011],[103.4171,13.9412],[103.4332,13.8872],[103.4178,13.8504],[103.43,13.6972],[103.4035,13.6483],[103.4055,13.4282],[103.2521,13.4226],[103.1609,13.4584],[102.9638,13.4082],[102.8111,13.4355],[102.7625,13.4671],[102.7078,13.4173],[102.6685,13.4248],[102.6409,13.4612],[102.3295,13.4846],[102.3134,13.541],[102.3322,13.5646],[102.5132,13.5672],[102.5977,13.6054],[102.5411,13.6486],[102.5423,13.6697],[102.6986,13.7618],[102.7065,13.8019],[102.7728,13.9361],[102.8698,14.0206],[102.8762,14.0713],[102.9113,14.1321],[102.9186,14.1855],[103.0169,14.2389]]]}},{"type":"Feature","id":"Battambang","properties":{"id":"Battambang","iso_code":"KH-2","name":"Battambang","name_full":"Battambang","name_ja":"バタンバン州","center_lonlat":[103.0754,13.0122]},"geometry":{"type":"Polygon","coordinates":[[[102.7638,12.4253],[102.7506,12.449],[102.7048,12.4803],[102.6968,12.5131],[102.5885,12.6098],[102.4959,12.6542],[102.6603,12.6945],[102.7391,12.7417],[102.7582,12.8093],[102.7581,12.9394],[102.7405,13.043],[102.7215,13.0759],[102.6741,13.1134],[102.6499,13.1155],[102.6088,13.0956],[102.577,13.0064],[102.4901,12.9952],[102.3821,13.1366],[102.3282,13.2752],[102.3295,13.4846],[102.6409,13.4612],[102.6685,13.4248],[102.7078,13.4173],[102.7625,13.4671],[102.8111,13.4355],[102.9638,13.4082],[103.1609,13.4584],[103.2521,13.4226],[103.4055,13.4282],[103.4408,13.3945],[103.4888,13.3973],[103.5431,13.3792],[103.5747,13.349],[103.6696,13.3287],[103.749,13.208],[103.8087,13.1452],[103.6812,13.0272],[103.7032,12.9714],[103.6809,12.9381],[103.6778,12.8957],[103.6326,12.8666],[103.6225,12.8382],[103.6429,12.8105],[103.6225,12.7506],[103.6418,12.6694],[103.5862,12.5808],[103.5055,12.5587],[103.3192,12.5851],[103.2354,12.5622],[103.1508,12.5193],[103.0918,12.5128],[103.0621,12.4932],[103.0315,12.4932],[102.9924,12.516],[102.9579,12.4779],[102.8107,12.4096],[102.7638,12.4253]]]}},{"type":"Feature","id":"Kam","properties":{"id":"Kam","iso_code":"KH-5","name":"Kam","name_full":"Kam","name_ja":"コンポンスプー州","center_lonlat":[104.2926,11.5615]},"geometry":{"type":"Polygon","coordinates":[[[103.8635,11.9084],[103.9448,11.9824],[103.9951,11.9456],[104.0705,11.9753],[104.0592,11.9988],[104.1116,12.0811],[104.1676,12.0826],[104.1985,12.1078],[104.2117,12.0314],[104.2555,11.9967],[104.321,11.845],[104.3736,11.7914],[104.4209,11.7845],[104.5179,11.7361],[104.6284,11.7952],[104.761,11.8226],[104.7587,11.7699],[104.7106,11.7288],[104.6699,11.612],[104.6509,11.4456],[104.6664,11.4237],[104.6934,11.4144],[104.7841,11.4152],[104.7441,11.3555],[104.7053,11.3188],[104.6736,11.1001],[104.5612,11.0873],[104.4376,11.1213],[104.411,11.132],[104.262,11.1192],[104.1829,11.1359],[104.1447,11.1609],[104.1135,11.2503],[104.0927,11.2759],[104.1006,11.3276],[104.1179,11.3516],[104.0577,11.4626],[104.0727,11.5194],[104.0085,11.5565],[103.9388,11.5601],[103.7997,11.6649],[103.7767,11.7964],[103.7838,11.889],[103.8635,11.9084]]]}},{"type":"Feature","id":"Kampong Cham","properties":{"id":"Kampong Cham","iso_code":"KH-3","name":"Kampong Cham","name_full":"Kampong Cham","name_ja":"コンポンチャム州","center_lonlat":[105.59,12.034]},"geometry":{"type":"Polygon","coordinates":[[[105.821,11.6415],[105.8319,11.6705],[105.826,11.6951],[105.7673,11.694],[105.6995,11.746],[105.4601,11.7733],[105.4374,11.7881],[105.4073,11.8416],[105.3294,11.8688],[105.1545,11.7471],[105.0531,11.7721],[105.0527,11.8022],[105.0742,11.8216],[105.0301,11.846],[104.9991,11.889],[104.9804,11.8932],[104.9761,11.8719],[104.9493,11.8624],[104.9299,11.8186],[104.899,11.8096],[104.8431,11.8271],[104.8187,11.8918],[104.8627,11.9797],[104.9119,11.9862],[104.8946,12.0035],[104.8909,12.0536],[104.8675,12.0808],[104.9015,12.1803],[104.8874,12.2351],[104.9244,12.2608],[104.969,12.259],[105.0313,12.2239],[105.0979,12.2182],[105.1196,12.2049],[105.1654,12.2134],[105.1989,12.1925],[105.2028,12.2098],[105.1648,12.3178],[105.1372,12.3654],[105.1679,12.39],[105.2691,12.3913],[105.347,12.3518],[105.3667,12.3723],[105.3999,12.4837],[105.4473,12.4856],[105.5079,12.4579],[105.5615,12.4876],[105.752,12.5076],[105.781,12.3425],[105.7538,12.2983],[105.75,12.2642],[105.8312,12.2546],[105.845,12.2101],[105.9017,12.2235],[105.9737,12.2035],[106.0142,12.1785],[106.0243,12.1526],[106.0502,12.1479],[106.0624,12.1314],[106.057,12.0912],[106.1154,12.0697],[106.1656,12.0315],[106.1817,11.9999],[106.1625,11.9597],[106.2215,11.9553],[106.2408,11.9421],[106.3954,11.9658],[106.4388,11.8637],[106.3978,11.7621],[106.435,11.6773],[106.4258,11.6621],[106.3543,11.6901],[106.2741,11.6768],[106.2236,11.725],[106.0154,11.7705],[105.9341,11.6429],[105.8579,11.6616],[105.821,11.6415]]]}},{"type":"Feature","id":"Kampong Chhnang","properties":{"id":"Kampong Chhnang","iso_code":"KH-4","name":"Kampong Chhnang","name_full":"Kampong Chhnang","name_ja":"コンポンチュナン州","center_lonlat":[104.5677,12.1648]},"geometry":{"type":"Polygon","coordinates":[[[104.1985,12.1078],[104.1801,12.1834],[104.1916,12.2392],[104.2229,12.2805],[104.2663,12.2926],[104.3421,12.3438],[104.3591,12.3865],[104.3986,12.4335],[104.4051,12.5513],[104.4342,12.53],[104.504,12.5194],[104.5346,12.5623],[104.6298,12.601],[104.8304,12.5326],[104.8232,12.4915],[104.8675,12.4061],[104.864,12.3772],[104.9049,12.392],[104.9147,12.3752],[104.8983,12.3363],[104.8523,12.2998],[104.8874,12.2351],[104.9015,12.1803],[104.8675,12.0808],[104.8909,12.0536],[104.8946,12.0035],[104.9119,11.9862],[104.8627,11.9797],[104.8187,11.8918],[104.7822,11.8771],[104.761,11.8226],[104.6284,11.7952],[104.5179,11.7361],[104.4209,11.7845],[104.3736,11.7914],[104.321,11.845],[104.2555,11.9967],[104.2117,12.0314],[104.1985,12.1078]]]}},{"type":"Feature","id":"Kampong Thom","properties":{"id":"Kampong Thom","iso_code":"KH-6","name":"Kampong Thom","name_full":"Kampong Thom","name_ja":"コンポントム州","center_lonlat":[105.0429,12.8391]},"geometry":{"type":"Polygon","coordinates":[[[104.4051,12.5513],[104.2407,12.6911],[104.1917,12.7491],[104.2173,12.7651],[104.2314,12.8055],[104.2737,12.852],[104.3835,12.9175],[104.4451,13.0779],[104.4697,13.0815],[104.4844,13.2223],[104.5376,13.247],[104.5634,13.2837],[104.7272,13.3586],[104.8945,13.3355],[104.9019,13.3228],[104.8785,13.2305],[104.8943,13.1513],[104.9161,13.1288],[104.9973,13.1155],[105.0954,13.1627],[105.1895,13.2548],[105.387,13.3908],[105.5458,13.4687],[105.5456,13.3688],[105.5777,13.2698],[105.6102,13.1387],[105.6461,13.0915],[105.6376,13.0554],[105.6489,12.9792],[105.6742,12.9427],[105.6604,12.9102],[105.6899,12.8586],[105.6806,12.7784],[105.752,12.5076],[105.5615,12.4876],[105.5079,12.4579],[105.4473,12.4856],[105.3999,12.4837],[105.3667,12.3723],[105.347,12.3518],[105.2691,12.3913],[105.1679,12.39],[105.1372,12.3654],[105.1648,12.3178],[105.2028,12.2098],[105.1989,12.1925],[105.1654,12.2134],[105.1196,12.2049],[105.0979,12.2182],[105.0313,12.2239],[104.969,12.259],[104.9244,12.2608],[104.8874,12.2351],[104.8523,12.2998],[104.8983,12.3363],[104.9147,12.3752],[104.9049,12.392],[104.864,12.3772],[104.8675,12.4061],[104.8232,12.4915],[104.8304,12.5326],[104.6298,12.601],[104.5346,12.5623],[104.504,12.5194],[104.4342,12.53],[104.4051,12.5513]]]}},{"type":"Feature","id":"Kampot","properties":{"id":"Kampot","iso_code":"KH-7","name":"Kampot","name_full":"Kampot","name_ja":"カンポット州","center_lonlat":[104.313,10.8015]},"geometry":{"type":"Polygon","coordinates":[[[104.7006,10.5242],[104.5668,10.5281],[104.4837,10.418],[104.4513,10.4197],[104.4242,10.4511],[104.4035,10.5255],[104.3756,10.5657],[104.2831,10.576],[104.2686,10.5521],[104.2498,10.5703],[104.2227,10.5703],[104.207,10.55],[104.1301,10.5628],[104.0718,10.556],[103.9456,10.5881],[103.9169,10.616],[103.9549,10.693],[103.942,10.9889],[103.9954,11.0527],[104.0506,11.0545],[104.1012,11.1475],[104.1447,11.1609],[104.1829,11.1359],[104.262,11.1192],[104.411,11.132],[104.4376,11.1213],[104.444,11.0642],[104.5366,11.0256],[104.5556,10.954],[104.547,10.9011],[104.5776,10.8889],[104.6299,10.9048],[104.7025,10.8891],[104.7392,10.7928],[104.6971,10.7483],[104.6763,10.6956],[104.6883,10.6576],[104.7084,10.6412],[104.7006,10.5242]]]}},{"type":"Feature","id":"Kandal","properties":{"id":"Kandal","iso_code":"KH-8","name":"Kandal","name_full":"Kandal","name_ja":"カンダル州","center_lonlat":[104.9929,11.4452]},"geometry":{"type":"Polygon","coordinates":[[[105.2091,10.8916],[105.0975,10.9143],[105.0779,10.9469],[105.0385,10.9226],[105.0091,11.0095],[105.0265,11.1701],[104.9359,11.2653],[104.9314,11.3345],[104.8709,11.3533],[104.78,11.3359],[104.7441,11.3555],[104.7841,11.4152],[104.6934,11.4144],[104.6664,11.4237],[104.6509,11.4456],[104.6699,11.612],[104.7106,11.7288],[104.7587,11.7699],[104.761,11.8226],[104.7822,11.8771],[104.8187,11.8918],[104.8431,11.8271],[104.899,11.8096],[104.9299,11.8186],[104.9493,11.8624],[104.9761,11.8719],[104.9804,11.8932],[104.9991,11.889],[105.0301,11.846],[105.0742,11.8216],[105.0527,11.8022],[105.0531,11.7721],[105.1545,11.7471],[105.1575,11.7256],[105.1313,11.6817],[105.1375,11.6481],[105.1146,11.5856],[105.1491,11.5318],[105.295,11.4265],[105.2945,11.4039],[105.2634,11.3842],[105.2905,11.2331],[105.2366,11.155],[105.1939,11.0224],[105.2091,10.8916]],[[104.9235,11.4463],[104.9632,11.4955],[104.9676,11.5509],[104.944,11.5646],[104.9241,11.6732],[104.86,11.6783],[104.8697,11.6467],[104.8155,11.646],[104.789,11.5983],[104.7841,11.5521],[104.7974,11.5205],[104.7809,11.4588],[104.8081,11.4347],[104.8466,11.4408],[104.8833,11.4682],[104.9235,11.4463]]]}},{"type":"Feature","id":"Kep","properties":{"id":"Kep","iso_code":"KH-23","name":"Kep","name_full":"Kep","name_ja":"ケップ","center_lonlat":[104.348,10.5202]},"geometry":{"type":"Polygon","coordinates":[[[104.4242,10.4511],[104.4076,10.4461],[104.3631,10.4877],[104.2977,10.4809],[104.2863,10.5405],[104.2686,10.5521],[104.2831,10.576],[104.3756,10.5657],[104.4035,10.5255],[104.4242,10.4511]]]}},{"type":"Feature","id":"Koh Kong","properties":{"id":"Koh Kong","iso_code":"KH-9","name":"Koh Kong","name_full":"Koh Kong","name_ja":"ココン州","center_lonlat":[103.482,11.496]},"geometry":{"type":"MultiPolygon","coordinates":[[[[102.765,12.0446],[103.0008,12.0291],[103.0853,11.9908],[103.1461,11.9795],[103.3333,12.0508],[103.4037,12.1336],[103.4913,12.1423],[103.5771,12.0995],[103.65,12.0213],[103.7833,11.9629],[103.8635,11.9084],[103.7838,11.889],[103.7767,11.7964],[103.7997,11.6649],[103.9388,11.5601],[104.0085,11.5565],[104.0727,11.5194],[104.0577,11.4626],[104.1179,11.3516],[104.1006,11.3276],[104.0927,11.2759],[104.1135,11.2503],[104.1447,11.1609],[104.1012,11.1475],[104.0506,11.0545],[103.9954,11.0527],[103.942,10.9889],[103.8396,10.9065],[103.7929,10.9001],[103.7437,10.7855],[103.6887,10.743],[103.6722,10.7579],[103.6781,10.8012],[103.7244,10.856],[103.7224,10.8948],[103.6595,11.0298],[103.6746,11.0637],[103.604,11.0906],[103.5835,11.1341],[103.533,11.1627],[103.5027,11.1661],[103.51,11.1592],[103.4964,11.1388],[103.4685,11.1518],[103.4745,11.1337],[103.448,11.0904],[103.4683,11.0993],[103.4702,11.0891],[103.4308,11.0065],[103.4146,10.9464],[103.4212,10.9091],[103.4021,10.8843],[103.3523,10.8719],[103.3441,10.8955],[103.2774,10.9327],[103.219,10.8925],[103.2227,10.8781],[103.1812,10.8644],[103.1267,10.8813],[103.1401,10.8986],[103.0956,10.934],[103.1128,10.9709],[103.0985,11.0805],[103.1177,11.1491],[103.0886,11.2177],[103.0576,11.2208],[103.0793,11.2452],[103.0789,11.2735],[103.134,11.3161],[103.1532,11.3027],[103.1521,11.3181],[103.1401,11.3579],[103.1128,11.3437],[103.1003,11.356],[103.0923,11.3989],[103.0645,11.4473],[103.085,11.433],[103.1016,11.4526],[103.1299,11.4604],[103.1743,11.4262],[103.1333,11.4945],[103.1401,11.5087],[103.1128,11.4678],[103.0645,11.5036],[103.0576,11.5702],[103.0508,11.5634],[103.0576,11.5913],[103.0371,11.6049],[103.0303,11.5429],[102.9751,11.5292],[102.9546,11.5571],[102.9751,11.5702],[103.0029,11.5497],[102.9824,11.5838],[102.9824,11.6248],[102.9938,11.6357],[103.0433,11.6248],[103.0135,11.6394],[103.0168,11.6596],[102.9955,11.6527],[102.9893,11.6732],[102.9688,11.6385],[102.9863,11.7029],[103.0217,11.7205],[103.0667,11.7082],[103.085,11.7279],[103.056,11.7161],[103.0234,11.7347],[102.9824,11.7142],[102.9561,11.7669],[102.9326,11.7791],[102.8931,11.8303],[102.9688,11.7142],[102.9548,11.6679],[102.965,11.6099],[102.9546,11.5702],[102.9409,11.6152],[102.9136,11.6459],[102.9288,11.6687],[102.9138,11.7655],[102.843,11.866],[102.765,12.0446]]],[[[103.0371,11.3579],[103.0487,11.3309],[103.0433,11.2734],[103.0076,11.2551],[102.9885,11.3009],[102.9893,11.4262],[102.9955,11.4125],[103.0242,11.4172],[103.0371,11.3579]]],[[[103.2971,10.731],[103.3176,10.7211],[103.3182,10.7068],[103.2932,10.6966],[103.2774,10.6727],[103.2608,10.7092],[103.2136,10.7333],[103.1985,10.7624],[103.2285,10.7827],[103.2451,10.778],[103.2971,10.731]]],[[[103.0303,11.5019],[103.0508,11.4604],[103.0303,11.4262],[103.0204,11.4269],[103.0234,11.4604],[102.9959,11.5137],[103.0091,11.5292],[103.0303,11.5156],[103.0303,11.5019]]],[[[103.3342,10.5839],[103.3235,10.5452],[103.2922,10.5832],[103.2891,10.6127],[103.3195,10.6173],[103.3125,10.5791],[103.3342,10.5839]]]]}},{"type":"Feature","id":"Kratie","properties":{"id":"Kratie","iso_code":"KH-10","name":"Kratie","name_full":"Kratié","name_ja":"クラチエ州","center_lonlat":[106.1672,12.6331]},"geometry":{"type":"Polygon","coordinates":[[[106.7906,12.0674],[106.7492,12.0523],[106.7016,11.9708],[106.6805,11.9651],[106.6306,11.9762],[106.6386,11.9611],[106.5045,11.9734],[106.4737,11.9521],[106.4421,11.9749],[106.3954,11.9658],[106.2408,11.9421],[106.2215,11.9553],[106.1625,11.9597],[106.1817,11.9999],[106.1656,12.0315],[106.1154,12.0697],[106.057,12.0912],[106.0624,12.1314],[106.0502,12.1479],[106.0243,12.1526],[106.0142,12.1785],[105.9737,12.2035],[105.9017,12.2235],[105.845,12.2101],[105.8312,12.2546],[105.75,12.2642],[105.7538,12.2983],[105.781,12.3425],[105.752,12.5076],[105.6806,12.7784],[105.6899,12.8586],[105.6604,12.9102],[105.6742,12.9427],[105.6489,12.9792],[105.6376,13.0554],[105.6461,13.0915],[105.6102,13.1387],[105.5777,13.2698],[105.7166,13.2128],[105.8385,13.1271],[105.8945,13.1174],[105.9428,13.1375],[105.975,13.2091],[106.0252,13.2075],[106.038,13.2535],[106.1121,13.3525],[106.215,13.3614],[106.3084,13.4153],[106.3616,13.4222],[106.3648,13.2684],[106.3787,13.2304],[106.4288,13.1934],[106.4398,13.1667],[106.3618,13.1529],[106.3483,13.1321],[106.3506,13.095],[106.4282,13.009],[106.4867,12.9938],[106.6057,12.923],[106.6197,12.8596],[106.5669,12.7966],[106.4743,12.762],[106.4194,12.7233],[106.3968,12.6869],[106.3711,12.5917],[106.37,12.5254],[106.5526,12.4122],[106.5967,12.3149],[106.7082,12.2795],[106.7614,12.2374],[106.7879,12.1934],[106.7906,12.0674]]]}},{"type":"Feature","id":"Mondulkiri","properties":{"id":"Mondulkiri","iso_code":"KH-11","name":"Mondulkiri","name_full":"Mondulkiri","name_ja":"モンドルキリ州","center_lonlat":[106.9804,12.7671]},"geometry":{"type":"Polygon","coordinates":[[[106.7906,12.0674],[106.7879,12.1934],[106.7614,12.2374],[106.7082,12.2795],[106.5967,12.3149],[106.5526,12.4122],[106.37,12.5254],[106.3711,12.5917],[106.3968,12.6869],[106.4194,12.7233],[106.4743,12.762],[106.5669,12.7966],[106.6197,12.8596],[106.6057,12.923],[106.4867,12.9938],[106.4282,13.009],[106.3506,13.095],[106.3483,13.1321],[106.3618,13.1529],[106.4398,13.1667],[106.4288,13.1934],[106.3787,13.2304],[106.3648,13.2684],[106.3616,13.4222],[106.4389,13.4207],[106.5013,13.3778],[106.609,13.3356],[106.7385,13.2229],[106.787,13.191],[106.8677,13.1653],[107.045,13.1716],[107.0729,13.1962],[107.0842,13.2355],[107.0653,13.2912],[107.0824,13.3185],[107.2025,13.3154],[107.2314,13.3311],[107.254,13.3701],[107.2826,13.3552],[107.3071,13.3107],[107.3511,13.3175],[107.3799,13.2782],[107.4691,13.3311],[107.5096,13.3032],[107.5749,13.2936],[107.4604,13.0216],[107.4811,12.9888],[107.4661,12.9522],[107.4874,12.8706],[107.5359,12.7996],[107.5401,12.7167],[107.5651,12.6064],[107.5634,12.5436],[107.5496,12.5092],[107.5567,12.4727],[107.5143,12.3438],[107.4496,12.299],[107.4159,12.2541],[107.393,12.2528],[107.3202,12.3292],[107.2119,12.3057],[107.1525,12.277],[106.9534,12.0811],[106.8793,12.0627],[106.7906,12.0674]]]}},{"type":"Feature","id":"Oddar Meanchey","properties":{"id":"Oddar Meanchey","iso_code":"KH-22","name":"Oddar Meanchey","name_full":"Oddar Meanchey","name_ja":"ウドーミアンチェイ州","center_lonlat":[103.5387,14.196]},"geometry":{"type":"Polygon","coordinates":[[[104.0451,14.357],[104.0494,14.3098],[104.0829,14.2699],[104.0738,14.2446],[103.813,14.1246],[103.6727,13.986],[103.598,13.9578],[103.5388,13.9143],[103.4332,13.8872],[103.4171,13.9412],[103.3435,14.0011],[103.3301,14.0636],[103.2638,14.0009],[103.2116,14.0542],[103.1842,14.0539],[103.193,14.1193],[103.1257,14.1338],[103.0992,14.1852],[103.0169,14.2389],[103.118,14.3132],[103.2737,14.3511],[103.3629,14.3535],[103.4225,14.3848],[103.4497,14.3716],[103.5334,14.4191],[103.5961,14.4043],[103.6371,14.4433],[103.6715,14.4296],[103.6749,14.3865],[103.824,14.368],[103.8703,14.3433],[103.9028,14.3424],[103.9198,14.3646],[103.974,14.3673],[104.0014,14.3451],[104.0451,14.357]]]}},{"type":"Feature","id":"Pailin","properties":{"id":"Pailin","iso_code":"KH-24","name":"Pailin","name_full":"Pailin","name_ja":"パイリン","center_lonlat":[102.6198,12.8759]},"geometry":{"type":"Polygon","coordinates":[[[102.4959,12.6542],[102.4793,12.6771],[102.478,12.7196],[102.5066,12.7875],[102.4648,12.9275],[102.4789,12.9536],[102.4672,12.9695],[102.4901,12.9952],[102.577,13.0064],[102.6088,13.0956],[102.6499,13.1155],[102.6741,13.1134],[102.7215,13.0759],[102.7405,13.043],[102.7581,12.9394],[102.7582,12.8093],[102.7391,12.7417],[102.6603,12.6945],[102.4959,12.6542]]]}},{"type":"Feature","id":"Phnom Penh","properties":{"id":"Phnom Penh","iso_code":"KH-12","name":"Phnom Penh","name_full":"Phnom Penh","name_ja":"プノンペン","center_lonlat":[104.8705,11.5504]},"geometry":{"type":"Polygon","coordinates":[[[104.8715,11.681],[104.9241,11.6732],[104.944,11.5646],[104.9676,11.5509],[104.9632,11.4955],[104.9235,11.4463],[104.8833,11.4682],[104.8466,11.4408],[104.8081,11.4347],[104.7809,11.4588],[104.7974,11.5205],[104.7841,11.5521],[104.789,11.5983],[104.8155,11.646],[104.8697,11.6467],[104.86,11.6783],[104.8715,11.681]]]}},{"type":"Feature","id":"Preah Vihear","properties":{"id":"Preah Vihear","iso_code":"KH-13","name":"Preah Vihear","name_full":"Preah Vihear","name_ja":"プリアヴィヒア州","center_lonlat":[105.0059,13.8172]},"geometry":{"type":"Polygon","coordinates":[[[105.8956,13.9248],[105.7178,13.9103],[105.7029,13.8602],[105.666,13.8662],[105.6207,13.8495],[105.5849,13.8784],[105.5295,13.8398],[105.5273,13.7674],[105.5609,13.7225],[105.5799,13.6368],[105.567,13.4956],[105.5458,13.4687],[105.387,13.3908],[105.1895,13.2548],[105.0954,13.1627],[104.9973,13.1155],[104.9161,13.1288],[104.8943,13.1513],[104.8785,13.2305],[104.9019,13.3228],[104.8945,13.3355],[104.7272,13.3586],[104.5634,13.2837],[104.5844,13.4336],[104.6814,13.5761],[104.6223,13.5596],[104.422,13.6038],[104.4088,13.6375],[104.428,13.693],[104.4231,13.7542],[104.3785,13.8476],[104.3532,13.8579],[104.3983,13.9296],[104.4508,14.1334],[104.4985,14.1926],[104.439,14.2556],[104.4532,14.2783],[104.4585,14.357],[104.4926,14.374],[104.5428,14.3604],[104.5628,14.3685],[104.6104,14.419],[104.6684,14.4096],[104.6929,14.434],[104.7129,14.4068],[104.7883,14.4382],[104.8314,14.4118],[104.8666,14.4138],[104.9738,14.3806],[104.9759,14.3011],[105.0077,14.2438],[105.0473,14.2141],[105.1014,14.2305],[105.155,14.3305],[105.1843,14.3457],[105.1974,14.2703],[105.2569,14.1824],[105.3039,14.1524],[105.3378,14.11],[105.4222,14.1079],[105.5332,14.1643],[105.5614,14.1382],[105.5946,14.1363],[105.6173,14.103],[105.6431,14.1135],[105.744,14.0869],[105.7871,14.0102],[105.8956,13.9248]]]}},{"type":"Feature","id":"Prey Veng","properties":{"id":"Prey Veng","iso_code":"KH-14","name":"Prey Veng","name_full":"Prey Veng","name_ja":"プレイベン州","center_lonlat":[105.4337,11.4034]},"geometry":{"type":"Polygon","coordinates":[[[105.821,11.6415],[105.7934,11.6073],[105.7932,11.5829],[105.7,11.5581],[105.6782,11.5153],[105.6511,11.4076],[105.6635,11.2602],[105.6399,11.2538],[105.6221,11.2308],[105.6095,11.1785],[105.6261,11.1029],[105.6019,11.0664],[105.5887,11.0118],[105.6172,10.9708],[105.4739,10.9409],[105.4105,10.963],[105.3573,10.908],[105.3179,10.8388],[105.2533,10.8835],[105.2091,10.8916],[105.1939,11.0224],[105.2366,11.155],[105.2905,11.2331],[105.2634,11.3842],[105.2945,11.4039],[105.295,11.4265],[105.1491,11.5318],[105.1146,11.5856],[105.1375,11.6481],[105.1313,11.6817],[105.1575,11.7256],[105.1545,11.7471],[105.3294,11.8688],[105.4073,11.8416],[105.4374,11.7881],[105.4601,11.7733],[105.6995,11.746],[105.7673,11.694],[105.826,11.6951],[105.8319,11.6705],[105.821,11.6415]]]}},{"type":"Feature","id":"Pursat","properties":{"id":"Pursat","iso_code":"KH-15","name":"Pursat","name_full":"Pursat","name_ja":"ポーサット州","center_lonlat":[103.6315,12.4055]},"geometry":{"type":"Polygon","coordinates":[[[102.765,12.0446],[102.7,12.1387],[102.6922,12.1785],[102.7201,12.3612],[102.7638,12.4253],[102.8107,12.4096],[102.9579,12.4779],[102.9924,12.516],[103.0315,12.4932],[103.0621,12.4932],[103.0918,12.5128],[103.1508,12.5193],[103.2354,12.5622],[103.3192,12.5851],[103.5055,12.5587],[103.5862,12.5808],[103.6418,12.6694],[103.6225,12.7506],[103.6429,12.8105],[103.6225,12.8382],[103.6326,12.8666],[103.6778,12.8957],[103.6809,12.9381],[103.7032,12.9714],[103.6812,13.0272],[103.8087,13.1452],[104.156,12.7979],[104.1917,12.7491],[104.2407,12.6911],[104.4051,12.5513],[104.3986,12.4335],[104.3591,12.3865],[104.3421,12.3438],[104.2663,12.2926],[104.2229,12.2805],[104.1916,12.2392],[104.1801,12.1834],[104.1985,12.1078],[104.1676,12.0826],[104.1116,12.0811],[104.0592,11.9988],[104.0705,11.9753],[103.9951,11.9456],[103.9448,11.9824],[103.8635,11.9084],[103.7833,11.9629],[103.65,12.0213],[103.5771,12.0995],[103.4913,12.1423],[103.4037,12.1336],[103.3333,12.0508],[103.1461,11.9795],[103.0853,11.9908],[103.0008,12.0291],[102.765,12.0446]]]}},{"type":"Feature","id":"Ratanakiri","properties":{"id":"Ratanakiri","iso_code":"KH-16","name":"Ratanakiri","name_full":"Ratanakiri","name_ja":"ラタナキリ州","center_lonlat":[107.0515,13.8234]},"geometry":{"type":"Polygon","coordinates":[[[107.5749,13.2936],[107.5096,13.3032],[107.4691,13.3311],[107.3799,13.2782],[107.3511,13.3175],[107.3071,13.3107],[107.2826,13.3552],[107.254,13.3701],[107.2314,13.3311],[107.2025,13.3154],[107.0824,13.3185],[107.0653,13.2912],[107.0842,13.2355],[107.0729,13.1962],[107.045,13.1716],[106.8677,13.1653],[106.787,13.191],[106.7385,13.2229],[106.609,13.3356],[106.6167,13.364],[106.6014,13.3944],[106.6,13.4625],[106.5542,13.562],[106.562,13.6127],[106.6572,13.7864],[106.6645,13.8264],[106.6448,13.8894],[106.6293,14.0273],[106.5874,14.1244],[106.6248,14.2977],[106.6045,14.3857],[106.622,14.4576],[106.7072,14.4293],[106.8069,14.3129],[106.8358,14.3071],[106.8851,14.3355],[106.9461,14.3235],[106.9611,14.3604],[106.9779,14.3654],[107.0272,14.4353],[107.0786,14.4008],[107.1008,14.4076],[107.1587,14.4515],[107.1806,14.4962],[107.2197,14.498],[107.2339,14.5449],[107.2873,14.5985],[107.3057,14.5972],[107.3516,14.5616],[107.4149,14.5434],[107.4518,14.6322],[107.5204,14.7046],[107.5324,14.6779],[107.504,14.6021],[107.5053,14.541],[107.4647,14.449],[107.4431,14.4237],[107.4238,14.419],[107.4078,14.433],[107.3869,14.4219],[107.3518,14.342],[107.3638,14.2832],[107.3586,14.2386],[107.3199,14.1198],[107.3447,14.0813],[107.3431,14.0206],[107.3546,14.0024],[107.409,13.9999],[107.4307,13.9845],[107.448,13.9093],[107.4354,13.8697],[107.4462,13.8394],[107.4432,13.7835],[107.5143,13.6926],[107.5969,13.5351],[107.6105,13.4004],[107.5749,13.2936]]]}},{"type":"Feature","id":"Siem Reap","properties":{"id":"Siem Reap","iso_code":"KH-17","name":"Siem Reap","name_full":"Siem Reap","name_ja":"シェムリアップ州","center_lonlat":[104.0492,13.6085]},"geometry":{"type":"Polygon","coordinates":[[[104.4585,14.357],[104.4532,14.2783],[104.439,14.2556],[104.4985,14.1926],[104.4508,14.1334],[104.3983,13.9296],[104.3532,13.8579],[104.3785,13.8476],[104.4231,13.7542],[104.428,13.693],[104.4088,13.6375],[104.422,13.6038],[104.6223,13.5596],[104.6814,13.5761],[104.5844,13.4336],[104.5634,13.2837],[104.5376,13.247],[104.4844,13.2223],[104.4697,13.0815],[104.4451,13.0779],[104.3835,12.9175],[104.2737,12.852],[104.2314,12.8055],[104.2173,12.7651],[104.1917,12.7491],[104.156,12.7979],[103.8087,13.1452],[103.749,13.208],[103.6696,13.3287],[103.5747,13.349],[103.5431,13.3792],[103.4888,13.3973],[103.4408,13.3945],[103.4055,13.4282],[103.4035,13.6483],[103.43,13.6972],[103.4178,13.8504],[103.4332,13.8872],[103.5388,13.9143],[103.598,13.9578],[103.6727,13.986],[103.813,14.1246],[104.0738,14.2446],[104.0829,14.2699],[104.0494,14.3098],[104.0451,14.357],[104.1102,14.3804],[104.1409,14.366],[104.177,14.4042],[104.2013,14.378],[104.2475,14.4011],[104.4585,14.357]]]}},{"type":"Feature","id":"Sihanoukville","properties":{"id":"Sihanoukville","iso_code":"KH-18","name":"Sihanoukville","name_full":"Sihanoukville","name_ja":"シアヌークビル","center_lonlat":[103.7674,10.7041]},"geometry":{"type":"MultiPolygon","coordinates":[[[[103.9169,10.616],[103.8943,10.6584],[103.8734,10.6601],[103.8664,10.6994],[103.8628,10.6038],[103.8206,10.544],[103.7671,10.5355],[103.7019,10.5628],[103.7471,10.509],[103.6239,10.5009],[103.6106,10.5515],[103.5701,10.5551],[103.5438,10.5962],[103.5237,10.6112],[103.5071,10.6042],[103.5068,10.6354],[103.5281,10.6522],[103.5674,10.7265],[103.6887,10.743],[103.7437,10.7855],[103.7929,10.9001],[103.8396,10.9065],[103.942,10.9889],[103.9549,10.693],[103.9169,10.616]]],[[[103.7844,10.515],[103.8059,10.4843],[103.7947,10.4536],[103.7638,10.4565],[103.7434,10.4809],[103.7639,10.4945],[103.7604,10.5138],[103.7844,10.515]]]]}},{"type":"Feature","id":"Stung Treng","properties":{"id":"Stung Treng","iso_code":"KH-19","name":"Stung Treng","name_full":"Stung Treng","name_ja":"ストゥントレン州","center_lonlat":[106.1459,13.7859]},"geometry":{"type":"Polygon","coordinates":[[[106.622,14.4576],[106.6045,14.3857],[106.6248,14.2977],[106.5874,14.1244],[106.6293,14.0273],[106.6448,13.8894],[106.6645,13.8264],[106.6572,13.7864],[106.562,13.6127],[106.5542,13.562],[106.6,13.4625],[106.6014,13.3944],[106.6167,13.364],[106.609,13.3356],[106.5013,13.3778],[106.4389,13.4207],[106.3616,13.4222],[106.3084,13.4153],[106.215,13.3614],[106.1121,13.3525],[106.038,13.2535],[106.0252,13.2075],[105.975,13.2091],[105.9428,13.1375],[105.8945,13.1174],[105.8385,13.1271],[105.7166,13.2128],[105.5777,13.2698],[105.5456,13.3688],[105.5458,13.4687],[105.567,13.4956],[105.5799,13.6368],[105.5609,13.7225],[105.5273,13.7674],[105.5295,13.8398],[105.5849,13.8784],[105.6207,13.8495],[105.666,13.8662],[105.7029,13.8602],[105.7178,13.9103],[105.8956,13.9248],[105.9246,13.9171],[105.9974,13.9283],[106.0692,13.9165],[106.0838,13.934],[106.082,13.981],[106.1495,14.0536],[106.1017,14.1152],[106.0762,14.1745],[106.0125,14.2258],[106.0045,14.29],[105.9692,14.332],[105.974,14.3658],[106.0382,14.3477],[106.0554,14.3484],[106.0635,14.3729],[106.1732,14.3697],[106.2039,14.3999],[106.2301,14.4905],[106.3065,14.4455],[106.4192,14.4665],[106.4452,14.4995],[106.4336,14.5057],[106.4365,14.5238],[106.4848,14.5238],[106.4722,14.5641],[106.5125,14.5904],[106.531,14.566],[106.5438,14.5121],[106.5857,14.496],[106.622,14.4576]]]}},{"type":"Feature","id":"Svay Rieng","properties":{"id":"Svay Rieng","iso_code":"KH-20","name":"Svay Rieng","name_full":"Svay Rieng","name_ja":"スヴァイリエン州","center_lonlat":[105.8542,11.1411]},"geometry":{"type":"Polygon","coordinates":[[[105.7932,11.5829],[105.8578,11.5356],[105.8738,11.4282],[105.8444,11.2899],[105.8867,11.2679],[105.8999,11.2186],[105.9888,11.177],[106.0866,11.0563],[106.1135,11.0869],[106.1603,11.0535],[106.1879,10.9763],[106.1314,10.9693],[106.1218,10.9252],[106.1773,10.7669],[106.1551,10.7848],[106.0722,10.7969],[106.0179,10.8198],[105.9313,10.8964],[105.9087,10.8384],[105.8787,10.8281],[105.8475,10.8554],[105.8214,10.9197],[105.7529,11.0156],[105.6973,11.0102],[105.6172,10.9708],[105.5887,11.0118],[105.6019,11.0664],[105.6261,11.1029],[105.6095,11.1785],[105.6221,11.2308],[105.6399,11.2538],[105.6635,11.2602],[105.6511,11.4076],[105.6782,11.5153],[105.7,11.5581],[105.7932,11.5829]]]}},{"type":"Feature","id":"Takeo","properties":{"id":"Takeo","iso_code":"KH-21","name":"Takeo","name_full":"Takéo","name_ja":"タケオ州","center_lonlat":[104.8177,10.9502]},"geometry":{"type":"Polygon","coordinates":[[[105.0385,10.9226],[105.0114,10.8838],[105.0148,10.8492],[105.0662,10.7464],[105.0667,10.7139],[104.9314,10.6307],[104.8544,10.5313],[104.8188,10.5172],[104.7006,10.5242],[104.7084,10.6412],[104.6883,10.6576],[104.6763,10.6956],[104.6971,10.7483],[104.7392,10.7928],[104.7025,10.8891],[104.6299,10.9048],[104.5776,10.8889],[104.547,10.9011],[104.5556,10.954],[104.5366,11.0256],[104.444,11.0642],[104.4376,11.1213],[104.5612,11.0873],[104.6736,11.1001],[104.7053,11.3188],[104.7441,11.3555],[104.78,11.3359],[104.8709,11.3533],[104.9314,11.3345],[104.9359,11.2653],[105.0265,11.1701],[105.0091,11.0095],[105.0385,10.9226]]]}}]}
