{"type":"FeatureCollection","features":[{"type":"Feature","id":"Adamawa","properties":{"id":"Adamawa","iso_code":"CM-AD","name":"Adamawa","name_full":"Adamawa","name_ja":"アダマワ州","center_lonlat":[13.1282,6.8338]},"geometry":{"type":"Polygon","coordinates":[[[12.2337,8.1885],[12.2877,8.1197],[12.4785,7.9476],[12.5244,7.9288],[12.6163,7.9176],[12.6491,7.8628],[12.6331,7.8241],[12.6443,7.7548],[12.7549,7.6961],[12.9959,7.6492],[13.1253,7.5953],[13.252,7.6076],[13.2668,7.6798],[13.2949,7.708],[13.3652,7.6931],[13.4195,7.6455],[13.5247,7.5897],[13.6425,7.6532],[13.7227,7.6475],[13.8594,7.675],[13.8836,7.6607],[13.885,7.6168],[13.9035,7.599],[14.1038,7.5738],[14.1206,7.5615],[14.1385,7.5061],[14.2025,7.4492],[14.2238,7.4003],[14.3215,7.3106],[14.337,7.2784],[14.335,7.1977],[14.3451,7.173],[14.4924,7.1645],[14.5597,7.0772],[14.6215,7.0648],[14.6571,7.028],[14.7159,7.0336],[14.8022,7.0849],[15.0106,7.1757],[15.0967,7.1911],[15.1947,7.2667],[15.2466,7.2667],[15.2239,7.2475],[15.1866,7.1663],[15.1875,7.0886],[15.1362,7.0453],[15.0346,6.7768],[14.9325,6.7103],[14.8073,6.4278],[14.7822,6.3936],[14.7847,6.3478],[14.7723,6.3183],[14.719,6.2579],[14.5764,6.1898],[14.535,6.1901],[14.4327,6.0791],[14.3825,6.1152],[14.3381,6.0798],[14.1918,6.0532],[14.0574,6.0348],[13.9731,6.057],[13.854,6.0146],[13.7617,6.0032],[12.8829,6.0],[12.5227,6.0023],[12.4992,6.0119],[12.4399,6.1025],[12.3122,6.1957],[12.238,6.2061],[12.1547,6.1713],[12.0953,6.1703],[12.0414,6.1915],[11.9747,6.2586],[11.9376,6.2528],[11.9376,6.2317],[11.9137,6.2392],[11.8488,6.1976],[11.7886,6.1931],[11.6161,6.0696],[11.2917,5.9929],[11.3126,6.0536],[11.2831,6.1757],[11.2958,6.2539],[11.1877,6.2909],[11.2074,6.3572],[11.2023,6.4367],[11.3195,6.4373],[11.3894,6.4739],[11.4168,6.572],[11.4431,6.5933],[11.5098,6.6123],[11.5624,6.7125],[11.5715,6.7662],[11.5381,6.8239],[11.5618,6.8761],[11.6811,6.9686],[11.6925,6.9916],[11.7411,6.9975],[11.7515,7.024],[11.8089,7.0719],[11.834,7.083],[11.8722,7.0794],[11.8813,7.102],[11.8689,7.1271],[11.7802,7.2411],[11.7366,7.2633],[11.7827,7.3045],[11.8447,7.3964],[12.0211,7.5762],[12.0091,7.6763],[12.019,7.7189],[12.055,7.7839],[12.1921,7.9607],[12.1826,8.0935],[12.2337,8.1885]]]}},{"type":"Feature","id":"Centre","properties":{"id":"Centre","iso_code":"CM-CE","name":"Centre","name_full":"Centre","name_ja":"中央州","center_lonlat":[11.8292,4.671]},"geometry":{"type":"Polygon","coordinates":[[[12.8829,6.0],[12.8797,5.8927],[13.0004,5.6977],[13.0699,5.5412],[13.0213,5.409],[12.9671,5.3199],[12.8243,5.2993],[13.0151,5.1119],[13.0528,5.0391],[13.0485,4.9769],[13.1121,4.9497],[13.1593,4.9445],[13.1869,4.9226],[13.2379,4.8126],[13.2103,4.5879],[13.1925,4.5679],[13.148,4.5756],[13.1019,4.5632],[12.9603,4.5766],[12.8894,4.5302],[12.8457,4.4017],[12.8,4.3501],[12.8125,4.2936],[12.769,4.1373],[12.7951,4.0773],[12.7918,4.0557],[12.7262,4.0184],[12.6646,3.9547],[12.5677,3.9272],[12.504,3.869],[12.5185,3.817],[12.5986,3.7715],[12.612,3.7512],[12.6089,3.6496],[12.5694,3.5584],[12.5026,3.657],[12.4785,3.6652],[12.2695,3.4784],[12.2228,3.3297],[12.2031,3.3174],[12.1261,3.3048],[12.1341,3.3379],[12.1181,3.3561],[11.8993,3.462],[11.8594,3.3899],[11.7495,3.3292],[11.6838,3.1987],[11.5607,3.1477],[11.2173,3.1344],[11.163,3.1878],[11.1479,3.2368],[11.1068,3.2693],[11.0797,3.3695],[11.0371,3.4156],[10.9831,3.41],[10.9372,3.4258],[10.8478,3.4163],[10.8283,3.473],[10.7801,3.4812],[10.2956,3.3546],[10.2386,3.5223],[10.2476,3.5544],[10.2844,3.5484],[10.334,3.5895],[10.3742,3.7675],[10.409,3.8141],[10.4643,3.8406],[10.5005,3.8089],[10.5575,3.7878],[10.5947,3.7448],[10.627,3.752],[10.6529,3.8058],[10.6534,3.9318],[10.7213,4.0599],[10.7794,4.0866],[10.8135,4.0866],[10.9543,4.1389],[10.9712,4.135],[10.9963,4.1552],[11.0667,4.1766],[11.1212,4.219],[11.0039,4.3318],[10.9547,4.4147],[10.9218,4.4991],[10.9279,4.5922],[10.9152,4.6262],[10.8109,4.6159],[10.7741,4.5142],[10.7445,4.4847],[10.7069,4.5228],[10.6177,4.444],[10.5905,4.4337],[10.5503,4.4397],[10.4545,4.4916],[10.3974,4.4982],[10.4044,4.5517],[10.4937,4.6707],[10.5027,4.7101],[10.4861,4.7518],[10.3714,4.7046],[10.3713,4.7643],[10.3886,4.7911],[10.4635,4.8395],[10.5036,4.9084],[10.6076,4.8994],[10.7453,4.9653],[10.7974,5.0158],[10.866,4.9623],[10.9249,4.9565],[10.946,4.9694],[11.003,5.1438],[11.0347,5.1751],[11.0821,5.1947],[11.0812,5.3118],[11.129,5.3408],[11.1897,5.4198],[11.1774,5.4498],[11.2115,5.5308],[11.1903,5.6222],[11.219,5.6702],[11.2108,5.6836],[11.2728,5.7321],[11.3144,5.7901],[11.3105,5.8043],[11.2803,5.8071],[11.274,5.8194],[11.2803,5.8518],[11.2592,5.9238],[11.2801,5.9494],[11.266,5.971],[11.2917,5.9929],[11.6161,6.0696],[11.7886,6.1931],[11.8488,6.1976],[11.9137,6.2392],[11.9376,6.2317],[11.9376,6.2528],[11.9747,6.2586],[12.0414,6.1915],[12.0953,6.1703],[12.1547,6.1713],[12.238,6.2061],[12.3122,6.1957],[12.4399,6.1025],[12.4992,6.0119],[12.5227,6.0023],[12.8829,6.0]]]}},{"type":"Feature","id":"East","properties":{"id":"East","iso_code":"CM-ES","name":"East","name_full":"East","name_ja":"東部州","center_lonlat":[14.2073,3.7983]},"geometry":{"type":"Polygon","coordinates":[[[13.6623,2.1578],[13.6209,2.9063],[13.5323,2.8554],[13.5415,2.8328],[13.504,2.8432],[13.5046,2.7904],[13.4316,2.7856],[13.3666,2.8274],[13.3603,2.8126],[13.3388,2.8123],[13.2825,2.8523],[13.2746,2.8323],[13.2938,2.7919],[13.2698,2.7933],[13.2571,2.8238],[13.2255,2.8402],[13.2277,2.8548],[13.2031,2.8718],[13.1914,2.8607],[13.1217,2.8677],[13.1057,2.8458],[13.093,2.8668],[13.0753,2.8533],[12.997,2.8714],[12.9723,2.8949],[12.9518,2.8738],[12.8353,2.9028],[12.7972,2.9256],[12.7641,2.9811],[12.761,3.0937],[12.7356,3.1875],[12.6986,3.2516],[12.6027,3.3501],[12.5547,3.4215],[12.5694,3.5584],[12.6089,3.6496],[12.612,3.7512],[12.5986,3.7715],[12.5185,3.817],[12.504,3.869],[12.5677,3.9272],[12.6646,3.9547],[12.7262,4.0184],[12.7918,4.0557],[12.7951,4.0773],[12.769,4.1373],[12.8125,4.2936],[12.8,4.3501],[12.8457,4.4017],[12.8894,4.5302],[12.9603,4.5766],[13.1019,4.5632],[13.148,4.5756],[13.1925,4.5679],[13.2103,4.5879],[13.2379,4.8126],[13.1869,4.9226],[13.1593,4.9445],[13.1121,4.9497],[13.0485,4.9769],[13.0528,5.0391],[13.0151,5.1119],[12.8243,5.2993],[12.9671,5.3199],[13.0213,5.409],[13.0699,5.5412],[13.0004,5.6977],[12.8797,5.8927],[12.8829,6.0],[13.7617,6.0032],[13.854,6.0146],[13.9731,6.057],[14.0574,6.0348],[14.1918,6.0532],[14.3381,6.0798],[14.3825,6.1152],[14.4327,6.0791],[14.4182,6.0471],[14.3977,6.0539],[14.3873,6.039],[14.4469,5.97],[14.4657,5.9207],[14.5306,5.9059],[14.5848,5.9234],[14.6174,5.865],[14.6311,5.738],[14.5901,5.6083],[14.6172,5.5379],[14.6174,5.4953],[14.5928,5.4],[14.5796,5.3954],[14.5396,5.3036],[14.5199,5.2906],[14.5397,5.2618],[14.6245,5.224],[14.6589,5.1645],[14.6675,5.0528],[14.6595,4.997],[14.687,4.9089],[14.7015,4.8144],[14.6907,4.7621],[14.7173,4.622],[14.7797,4.545],[14.9383,4.4359],[14.9939,4.4133],[15.0638,4.2934],[15.0912,4.1218],[15.1329,4.1085],[15.1485,4.0739],[15.1898,4.0631],[15.1921,4.0522],[15.1113,4.0199],[15.026,4.0261],[15.0849,3.8858],[15.1713,3.759],[15.7856,3.108],[15.914,3.098],[15.9501,3.061],[15.9778,2.981],[16.0262,2.979],[16.0924,2.8633],[16.0952,2.8368],[16.0599,2.7862],[16.0562,2.7598],[16.0626,2.7032],[16.1105,2.7014],[16.0903,2.6619],[16.1115,2.5862],[16.0903,2.5105],[16.1209,2.3896],[16.1593,2.3329],[16.166,2.2948],[16.1865,2.2777],[16.1797,2.247],[16.2077,2.2231],[16.1593,2.1821],[16.1406,2.1998],[16.1044,2.1936],[16.0835,2.1378],[16.0925,2.1069],[16.0767,2.0859],[16.0817,2.0468],[16.0638,2.0159],[16.0649,1.9789],[16.1014,1.9328],[16.159,1.7348],[16.1451,1.7143],[16.1148,1.7191],[16.0699,1.6546],[16.022,1.7228],[16.0263,1.7523],[16.0138,1.7713],[15.9438,1.7816],[15.9259,1.8047],[15.8899,1.7933],[15.8757,1.8238],[15.8029,1.86],[15.7646,1.9087],[15.7068,1.932],[15.4829,1.9759],[15.4392,1.9698],[15.3374,1.9215],[15.3016,1.9436],[15.2954,1.9815],[15.2481,2.0033],[15.2337,2.0313],[15.2126,2.0396],[15.1836,2.0293],[15.1517,2.041],[15.1385,2.0115],[15.1178,2.017],[15.0749,1.9794],[15.0631,1.9972],[15.0283,1.9953],[14.9807,2.0331],[14.9538,2.0058],[14.8925,2.0064],[14.9073,2.0589],[14.857,2.1159],[14.8412,2.0759],[14.7648,2.0655],[14.7614,2.0996],[14.7273,2.0996],[14.7479,2.1132],[14.7209,2.1276],[14.7205,2.0996],[14.672,2.1343],[14.6363,2.1383],[14.6448,2.1542],[14.5879,2.2017],[14.5621,2.2088],[14.5478,2.1937],[14.5471,2.1665],[14.4329,2.1321],[14.3836,2.1621],[14.3203,2.1707],[14.267,2.1524],[13.6623,2.1578]]]}},{"type":"Feature","id":"Far North","properties":{"id":"Far North","iso_code":"CM-EN","name":"Far North","name_full":"Far North","name_ja":"極北州","center_lonlat":[14.5119,11.0643]},"geometry":{"type":"Polygon","coordinates":[[[14.1963,9.9791],[14.2037,10.0428],[14.1938,10.0586],[14.0556,10.0927],[13.9744,10.1827],[13.874,10.2128],[13.6805,10.2209],[13.6504,10.1833],[13.6693,10.1188],[13.5547,10.075],[13.4983,10.078],[13.4374,10.0631],[13.3927,10.117],[13.4232,10.1385],[13.4508,10.1872],[13.4448,10.2455],[13.5388,10.6214],[13.5663,10.679],[13.7444,10.9305],[13.757,10.9582],[13.7548,11.0167],[13.8201,11.0693],[13.9063,11.208],[13.9823,11.2763],[14.0525,11.2652],[14.1226,11.2357],[14.1655,11.2383],[14.2321,11.2903],[14.2792,11.3018],[14.3682,11.383],[14.4463,11.4117],[14.5249,11.4688],[14.5938,11.4964],[14.6162,11.5387],[14.6276,11.5844],[14.6214,11.6298],[14.5809,11.6833],[14.5524,11.689],[14.5419,11.7098],[14.5907,11.7832],[14.6271,11.9501],[14.6043,12.0304],[14.6222,12.042],[14.6372,12.1242],[14.6683,12.1781],[14.6515,12.1938],[14.6106,12.1835],[14.6041,12.2043],[14.5485,12.2416],[14.5621,12.2558],[14.5144,12.2894],[14.5144,12.3235],[14.4871,12.3378],[14.4231,12.3531],[14.2176,12.3593],[14.1889,12.3704],[14.1798,12.3856],[14.1774,12.5456],[14.0649,13.078],[14.4182,13.0811],[14.5047,12.969],[14.4901,12.8736],[14.549,12.8182],[14.5548,12.7669],[14.5694,12.7694],[14.5753,12.7449],[14.6184,12.7592],[14.6243,12.7419],[14.6645,12.716],[14.7099,12.7182],[14.7168,12.7018],[14.7021,12.669],[14.7137,12.6525],[14.7341,12.6804],[14.7688,12.6332],[14.8192,12.6388],[14.8638,12.4955],[14.8496,12.457],[14.8775,12.447],[14.9083,12.3269],[14.898,12.2075],[14.9116,12.1801],[14.8948,12.1674],[14.898,12.1528],[14.9648,12.0924],[15.0118,12.1086],[15.0494,12.0846],[15.0406,12.0556],[15.0531,12.038],[15.0494,12.0119],[15.0812,11.9717],[15.0483,11.9628],[15.0634,11.9273],[15.042,11.9024],[15.0442,11.8773],[15.051,11.8616],[15.0798,11.8512],[15.1109,11.7829],[15.0836,11.7482],[15.0972,11.7277],[15.0761,11.7215],[15.0665,11.6806],[15.0852,11.6159],[15.1356,11.5308],[15.067,11.4356],[15.0494,11.3487],[15.0631,11.3099],[15.0333,11.2603],[15.0212,11.1825],[15.0352,10.9946],[15.079,10.8981],[15.0659,10.7931],[15.1499,10.6231],[15.1323,10.5654],[15.1382,10.5217],[15.2183,10.4872],[15.2412,10.4329],[15.2784,10.3943],[15.3014,10.3117],[15.4392,10.1852],[15.4764,10.1327],[15.5361,10.0805],[15.6379,10.03],[15.6812,9.9913],[15.4394,9.9317],[15.383,9.9302],[15.2149,9.9841],[15.1555,9.9865],[15.1007,9.9789],[15.033,9.9429],[14.8981,9.9605],[14.7726,9.9217],[14.4405,9.9953],[14.1963,9.9791]]]}},{"type":"Feature","id":"Littoral","properties":{"id":"Littoral","iso_code":"CM-LT","name":"Littoral","name_full":"Littoral","name_ja":"リトラル州","center_lonlat":[10.1348,4.2706]},"geometry":{"type":"MultiPolygon","coordinates":[[[[9.9295,3.269],[9.888,3.2852],[9.7809,3.4368],[9.6421,3.539],[9.6887,3.5561],[9.7708,3.6187],[9.8196,3.6279],[9.7876,3.6371],[9.7069,3.6005],[9.6262,3.6],[9.626,3.6265],[9.6421,3.6347],[9.5459,3.8196],[9.5816,3.7878],[9.5942,3.7582],[9.6243,3.7502],[9.6626,3.7507],[9.611,3.7706],[9.5892,3.8096],[9.5921,3.8352],[9.6211,3.8748],[9.659,3.841],[9.6797,3.8361],[9.6898,3.8606],[9.7445,3.8196],[9.7505,3.8408],[9.7383,3.8606],[9.752,3.8606],[9.6829,3.8904],[9.6763,3.909],[9.715,3.9313],[9.7644,3.9363],[9.7644,3.9575],[9.6648,3.9404],[9.6346,3.9432],[9.6189,3.9604],[9.6399,4.0088],[9.6756,4.0338],[9.7189,4.0996],[9.7525,4.1198],[9.7546,4.1357],[9.7035,4.0939],[9.6966,4.1144],[9.6284,4.0319],[9.5794,4.013],[9.5593,4.0168],[9.5596,4.0394],[9.5459,4.0257],[9.5086,4.0542],[9.5028,4.1023],[9.5621,4.1653],[9.5529,4.1987],[9.5309,4.2185],[9.4395,4.2434],[9.4473,4.2976],[9.5165,4.4075],[9.5107,4.4709],[9.5222,4.5561],[9.5779,4.6413],[9.6223,4.6393],[9.6387,4.6515],[9.6454,4.6851],[9.7,4.747],[9.7164,4.8231],[9.7944,4.9125],[9.767,4.9606],[9.7779,4.9998],[9.808,5.0508],[9.8532,5.0696],[9.8308,5.1305],[9.779,5.2007],[9.7542,5.2886],[9.8012,5.3076],[9.8366,5.3494],[9.8704,5.3571],[9.8634,5.2837],[9.8899,5.2607],[9.9306,5.2796],[9.9838,5.2423],[10.004,5.1926],[9.9978,5.1191],[10.0205,5.0724],[10.0621,5.0463],[10.072,5.0008],[10.105,4.9692],[10.1196,4.9269],[10.1514,4.9286],[10.1766,4.9822],[10.2393,5.0361],[10.2602,5.0797],[10.3033,5.074],[10.3744,5.089],[10.4333,4.9554],[10.5036,4.9084],[10.4635,4.8395],[10.3886,4.7911],[10.3713,4.7643],[10.3714,4.7046],[10.4861,4.7518],[10.5027,4.7101],[10.4937,4.6707],[10.4044,4.5517],[10.3974,4.4982],[10.4545,4.4916],[10.5503,4.4397],[10.5905,4.4337],[10.6177,4.444],[10.7069,4.5228],[10.7445,4.4847],[10.7741,4.5142],[10.8109,4.6159],[10.9152,4.6262],[10.9279,4.5922],[10.9218,4.4991],[10.9547,4.4147],[11.0039,4.3318],[11.1212,4.219],[11.0667,4.1766],[10.9963,4.1552],[10.9712,4.135],[10.9543,4.1389],[10.8135,4.0866],[10.7794,4.0866],[10.7213,4.0599],[10.6534,3.9318],[10.6529,3.8058],[10.627,3.752],[10.5947,3.7448],[10.5575,3.7878],[10.5005,3.8089],[10.4643,3.8406],[10.409,3.8141],[10.3742,3.7675],[10.334,3.5895],[10.2844,3.5484],[10.2476,3.5544],[10.2405,3.574],[10.1907,3.6041],[10.1286,3.5784],[10.0652,3.5017],[10.0655,3.4314],[10.0249,3.3437],[9.9295,3.269]]],[[[9.4529,4.077],[9.4844,4.0599],[9.5325,3.9894],[9.5186,3.9704],[9.4971,3.9777],[9.4504,4.0319],[9.4292,4.0266],[9.4224,4.0084],[9.4566,3.9841],[9.4533,3.9321],[9.4769,3.9158],[9.4121,3.9022],[9.3316,3.9219],[9.3954,3.9685],[9.4529,4.077]]]]}},{"type":"Feature","id":"North","properties":{"id":"North","iso_code":"CM-NO","name":"North","name_full":"North","name_ja":"北部州","center_lonlat":[13.9074,8.4626]},"geometry":{"type":"Polygon","coordinates":[[[14.1963,9.9791],[14.1735,9.975],[14.1198,9.852],[14.0067,9.7393],[13.9459,9.6526],[13.9476,9.6378],[14.0365,9.5688],[14.3213,9.2432],[14.3495,9.1684],[14.7939,8.8136],[14.846,8.811],[14.8994,8.7743],[14.9401,8.7296],[14.9551,8.6762],[15.0519,8.6438],[15.1107,8.5551],[15.1837,8.4791],[15.3453,8.136],[15.4407,7.8394],[15.4879,7.805],[15.5629,7.7924],[15.5622,7.6902],[15.549,7.6308],[15.4195,7.4366],[15.4155,7.4208],[15.435,7.4029],[15.4328,7.3897],[15.4032,7.3864],[15.3382,7.3222],[15.2466,7.2667],[15.1947,7.2667],[15.0967,7.1911],[15.0106,7.1757],[14.8022,7.0849],[14.7159,7.0336],[14.6571,7.028],[14.6215,7.0648],[14.5597,7.0772],[14.4924,7.1645],[14.3451,7.173],[14.335,7.1977],[14.337,7.2784],[14.3215,7.3106],[14.2238,7.4003],[14.2025,7.4492],[14.1385,7.5061],[14.1206,7.5615],[14.1038,7.5738],[13.9035,7.599],[13.885,7.6168],[13.8836,7.6607],[13.8594,7.675],[13.7227,7.6475],[13.6425,7.6532],[13.5247,7.5897],[13.4195,7.6455],[13.3652,7.6931],[13.2949,7.708],[13.2668,7.6798],[13.252,7.6076],[13.1253,7.5953],[12.9959,7.6492],[12.7549,7.6961],[12.6443,7.7548],[12.6331,7.8241],[12.6491,7.8628],[12.6163,7.9176],[12.5244,7.9288],[12.4785,7.9476],[12.2877,8.1197],[12.2337,8.1885],[12.2193,8.3432],[12.227,8.3863],[12.25,8.4188],[12.2718,8.4278],[12.3313,8.4243],[12.4039,8.4965],[12.4005,8.5384],[12.3688,8.6096],[12.4244,8.5998],[12.4825,8.6232],[12.558,8.6057],[12.6604,8.6593],[12.7089,8.7509],[12.7729,8.7591],[12.7945,8.7886],[12.8282,9.02],[12.8221,9.0968],[12.8984,9.2624],[12.8913,9.332],[12.8816,9.3522],[12.8484,9.3599],[12.8554,9.3781],[12.929,9.4161],[12.9824,9.4746],[13.1955,9.5422],[13.2235,9.6131],[13.2413,9.7453],[13.2629,9.8017],[13.2127,9.8701],[13.2111,9.8928],[13.2464,9.9735],[13.2302,10.0453],[13.248,10.0794],[13.3927,10.117],[13.4374,10.0631],[13.4983,10.078],[13.5547,10.075],[13.6693,10.1188],[13.6504,10.1833],[13.6805,10.2209],[13.874,10.2128],[13.9744,10.1827],[14.0556,10.0927],[14.1938,10.0586],[14.2037,10.0428],[14.1963,9.9791]]]}},{"type":"Feature","id":"Northwest","properties":{"id":"Northwest","iso_code":"CM-NW","name":"Northwest","name_full":"Northwest","name_ja":"北西州","center_lonlat":[10.3643,6.3699]},"geometry":{"type":"Polygon","coordinates":[[[9.694,6.5343],[9.7698,6.7737],[9.7885,6.7948],[9.8512,6.7779],[9.8746,6.7877],[10.1429,7.0077],[10.165,6.9885],[10.1794,6.9149],[10.2108,6.8792],[10.496,6.8747],[10.5007,6.9128],[10.5374,6.9521],[10.5518,7.0663],[10.5787,7.1308],[10.5972,7.1073],[10.6025,7.0581],[10.6206,7.0438],[10.8319,6.9452],[10.8775,6.8161],[10.9094,6.7843],[11.0026,6.7673],[11.0367,6.7405],[11.0559,6.7004],[11.0606,6.574],[11.0971,6.4491],[11.1404,6.4303],[11.2023,6.4367],[11.2074,6.3572],[11.1877,6.2909],[11.1175,6.2377],[11.0113,6.2445],[10.9962,6.1102],[10.9681,6.0742],[10.9215,6.0489],[10.8545,6.0306],[10.8377,6.0075],[10.7235,6.0312],[10.6934,6.0237],[10.6438,5.9121],[10.5936,5.8397],[10.5001,5.8357],[10.3239,5.8034],[10.3078,5.7428],[10.2878,5.7234],[10.2496,5.7629],[10.1756,5.7823],[10.0957,5.7284],[9.9764,5.7634],[9.9197,5.7333],[9.7689,5.7954],[9.7337,5.8436],[9.6746,5.8492],[9.6087,5.9136],[9.6164,5.9774],[9.5918,6.0102],[9.5963,6.0231],[9.7071,6.1],[9.7308,6.1293],[9.7826,6.1328],[9.7956,6.1614],[9.8057,6.2658],[9.734,6.4826],[9.694,6.5343]]]}},{"type":"Feature","id":"South","properties":{"id":"South","iso_code":"CM-SU","name":"South","name_full":"South","name_ja":"南部州","center_lonlat":[11.5578,2.7611]},"geometry":{"type":"Polygon","coordinates":[[[9.9295,3.269],[10.0249,3.3437],[10.0655,3.4314],[10.0652,3.5017],[10.1286,3.5784],[10.1907,3.6041],[10.2405,3.574],[10.2476,3.5544],[10.2386,3.5223],[10.2956,3.3546],[10.7801,3.4812],[10.8283,3.473],[10.8478,3.4163],[10.9372,3.4258],[10.9831,3.41],[11.0371,3.4156],[11.0797,3.3695],[11.1068,3.2693],[11.1479,3.2368],[11.163,3.1878],[11.2173,3.1344],[11.5607,3.1477],[11.6838,3.1987],[11.7495,3.3292],[11.8594,3.3899],[11.8993,3.462],[12.1181,3.3561],[12.1341,3.3379],[12.1261,3.3048],[12.2031,3.3174],[12.2228,3.3297],[12.2695,3.4784],[12.4785,3.6652],[12.5026,3.657],[12.5694,3.5584],[12.5547,3.4215],[12.6027,3.3501],[12.6986,3.2516],[12.7356,3.1875],[12.761,3.0937],[12.7641,2.9811],[12.7972,2.9256],[12.8353,2.9028],[12.9518,2.8738],[12.9723,2.8949],[12.997,2.8714],[13.0753,2.8533],[13.093,2.8668],[13.1057,2.8458],[13.1217,2.8677],[13.1914,2.8607],[13.2031,2.8718],[13.2277,2.8548],[13.2255,2.8402],[13.2571,2.8238],[13.2698,2.7933],[13.2938,2.7919],[13.2746,2.8323],[13.2825,2.8523],[13.3388,2.8123],[13.3603,2.8126],[13.3666,2.8274],[13.4316,2.7856],[13.5046,2.7904],[13.504,2.8432],[13.5415,2.8328],[13.5323,2.8554],[13.6209,2.9063],[13.6623,2.1578],[13.2946,2.1611],[13.2984,2.2158],[13.2846,2.2422],[13.2429,2.2715],[13.2123,2.264],[13.1638,2.2832],[13.1333,2.2845],[13.093,2.2535],[13.0409,2.2442],[12.9969,2.26],[12.9722,2.2504],[12.9248,2.264],[12.9032,2.2504],[12.8764,2.2572],[12.8678,2.245],[12.8082,2.264],[12.7499,2.2367],[12.6146,2.2569],[12.5748,2.2777],[12.5515,2.2723],[12.4784,2.2959],[12.3849,2.2859],[12.3216,2.3141],[12.2026,2.2796],[11.9662,2.2887],[11.7681,2.2802],[11.6573,2.3225],[11.6186,2.3104],[11.3516,2.3006],[11.356,2.2652],[11.3221,2.1658],[9.9707,2.1689],[9.8721,2.2112],[9.8237,2.249],[9.8109,2.2649],[9.8111,2.3249],[9.7996,2.3417],[9.8192,2.3769],[9.8229,2.5629],[9.8743,2.7545],[9.8778,2.8814],[9.9033,2.9683],[9.9557,3.0505],[9.958,3.0822],[9.9197,3.2281],[9.9021,3.2517],[9.9295,3.269]]]}},{"type":"Feature","id":"Southwest","properties":{"id":"Southwest","iso_code":"CM-SW","name":"Southwest","name_full":"Southwest","name_ja":"南西州","center_lonlat":[9.2976,5.2092]},"geometry":{"type":"Polygon","coordinates":[[[9.694,6.5343],[9.734,6.4826],[9.8057,6.2658],[9.7956,6.1614],[9.7826,6.1328],[9.7308,6.1293],[9.7071,6.1],[9.5963,6.0231],[9.5918,6.0102],[9.6164,5.9774],[9.6087,5.9136],[9.6746,5.8492],[9.7337,5.8436],[9.7689,5.7954],[9.9197,5.7333],[9.9764,5.7634],[10.0957,5.7284],[10.1126,5.6894],[10.1079,5.6707],[10.0634,5.6541],[9.9688,5.5668],[9.9084,5.3859],[9.8704,5.3571],[9.8366,5.3494],[9.8012,5.3076],[9.7542,5.2886],[9.779,5.2007],[9.8308,5.1305],[9.8532,5.0696],[9.808,5.0508],[9.7779,4.9998],[9.767,4.9606],[9.7944,4.9125],[9.7164,4.8231],[9.7,4.747],[9.6454,4.6851],[9.6387,4.6515],[9.6223,4.6393],[9.5779,4.6413],[9.5222,4.5561],[9.5107,4.4709],[9.5165,4.4075],[9.4473,4.2976],[9.4395,4.2434],[9.5309,4.2185],[9.5529,4.1987],[9.5621,4.1653],[9.5028,4.1023],[9.4901,4.1159],[9.4785,4.1114],[9.4529,4.077],[9.3954,3.9685],[9.3316,3.9219],[9.3137,3.9309],[9.3026,3.965],[9.3262,4.0319],[9.3014,4.0264],[9.2503,3.9608],[9.2107,3.9643],[9.2106,4.0081],[9.1965,4.0189],[9.1234,4.0179],[8.9712,4.1008],[8.991,4.2175],[8.9603,4.2459],[8.919,4.3181],[8.8948,4.4605],[8.9357,4.5533],[8.9006,4.5216],[8.9016,4.5874],[8.8719,4.6025],[8.847,4.6397],[8.8357,4.6296],[8.8667,4.5827],[8.8678,4.5446],[8.8506,4.5474],[8.847,4.5632],[8.7986,4.6011],[8.8128,4.5664],[8.7884,4.5414],[8.7241,4.5805],[8.7059,4.6347],[8.6613,4.6988],[8.6551,4.7383],[8.6387,4.7131],[8.6454,4.6841],[8.6857,4.5612],[8.7166,4.539],[8.7227,4.5131],[8.7017,4.5013],[8.5767,4.4919],[8.5654,4.4973],[8.5703,4.5097],[8.5938,4.5328],[8.5706,4.5386],[8.5483,4.5078],[8.5103,4.527],[8.5099,4.5688],[8.5256,4.5664],[8.5521,4.6147],[8.5257,4.6044],[8.5112,4.6291],[8.5212,4.656],[8.5733,4.7041],[8.5784,4.8047],[8.6122,4.8319],[8.6022,4.8813],[8.6383,4.9168],[8.7483,5.1242],[8.7989,5.1596],[8.8257,5.2955],[8.8153,5.3435],[8.8498,5.4324],[8.8443,5.4924],[8.8995,5.571],[8.9039,5.5951],[8.8937,5.6218],[8.8193,5.7035],[8.8622,5.7523],[8.8666,5.7775],[8.8452,5.831],[8.9217,5.9045],[8.9827,5.8958],[8.9938,5.9441],[9.1362,6.0925],[9.2733,6.2028],[9.341,6.314],[9.4229,6.3394],[9.4531,6.3977],[9.549,6.4432],[9.603,6.5152],[9.6805,6.5214],[9.694,6.5343]]]}},{"type":"Feature","id":"West","properties":{"id":"West","iso_code":"CM-OU","name":"West","name_full":"West","name_ja":"西部州","center_lonlat":[10.656,5.5129]},"geometry":{"type":"Polygon","coordinates":[[[11.1877,6.2909],[11.2958,6.2539],[11.2831,6.1757],[11.3126,6.0536],[11.2917,5.9929],[11.266,5.971],[11.2801,5.9494],[11.2592,5.9238],[11.2803,5.8518],[11.274,5.8194],[11.2803,5.8071],[11.3105,5.8043],[11.3144,5.7901],[11.2728,5.7321],[11.2108,5.6836],[11.219,5.6702],[11.1903,5.6222],[11.2115,5.5308],[11.1774,5.4498],[11.1897,5.4198],[11.129,5.3408],[11.0812,5.3118],[11.0821,5.1947],[11.0347,5.1751],[11.003,5.1438],[10.946,4.9694],[10.9249,4.9565],[10.866,4.9623],[10.7974,5.0158],[10.7453,4.9653],[10.6076,4.8994],[10.5036,4.9084],[10.4333,4.9554],[10.3744,5.089],[10.3033,5.074],[10.2602,5.0797],[10.2393,5.0361],[10.1766,4.9822],[10.1514,4.9286],[10.1196,4.9269],[10.105,4.9692],[10.072,5.0008],[10.0621,5.0463],[10.0205,5.0724],[9.9978,5.1191],[10.004,5.1926],[9.9838,5.2423],[9.9306,5.2796],[9.8899,5.2607],[9.8634,5.2837],[9.8704,5.3571],[9.9084,5.3859],[9.9688,5.5668],[10.0634,5.6541],[10.1079,5.6707],[10.1126,5.6894],[10.0957,5.7284],[10.1756,5.7823],[10.2496,5.7629],[10.2878,5.7234],[10.3078,5.7428],[10.3239,5.8034],[10.5001,5.8357],[10.5936,5.8397],[10.6438,5.9121],[10.6934,6.0237],[10.7235,6.0312],[10.8377,6.0075],[10.8545,6.0306],[10.9215,6.0489],[10.9681,6.0742],[10.9962,6.1102],[11.0113,6.2445],[11.1175,6.2377],[11.1877,6.2909]]]}}]}
