{"type":"FeatureCollection","features":[{"type":"Feature","id":"Boa Vista","properties":{"id":"Boa Vista","iso_code":"CV-BV","name":"Boa Vista","name_full":"Boa Vista","name_ja":"ボア・ヴィスタ","center_lonlat":[-22.8177,16.1077]},"geometry":{"type":"Polygon","coordinates":[[[-22.6821,16.1136],[-22.6666,16.0915],[-22.6798,16.0632],[-22.8061,15.9859],[-22.8739,15.9839],[-22.9455,16.0197],[-22.964,16.0522],[-22.9578,16.089],[-22.9136,16.1256],[-22.9244,16.213],[-22.9156,16.244],[-22.8525,16.2066],[-22.8294,16.204],[-22.8117,16.2284],[-22.7938,16.2313],[-22.7239,16.2126],[-22.6825,16.1686],[-22.6821,16.1136]]]}},{"type":"Feature","id":"Brava","properties":{"id":"Brava","iso_code":"CV-BR","name":"Brava","name_full":"Brava","name_ja":"ブラヴァ","center_lonlat":[-24.7197,14.8554]},"geometry":{"type":"Polygon","coordinates":[[[-24.7043,14.9008],[-24.6868,14.8762],[-24.6833,14.8425],[-24.718,14.8039],[-24.7515,14.8388],[-24.7589,14.8319],[-24.7589,14.8666],[-24.7454,14.8666],[-24.7494,14.8855],[-24.7043,14.9008]]]}},{"type":"Feature","id":"Maio","properties":{"id":"Maio","iso_code":"CV-MA","name":"Maio","name_full":"Maio","name_ja":"マイオ","center_lonlat":[-23.1812,15.2228]},"geometry":{"type":"Polygon","coordinates":[[[-23.1278,15.3117],[-23.1119,15.1719],[-23.1688,15.1199],[-23.196,15.1221],[-23.2582,15.1745],[-23.2433,15.2113],[-23.2513,15.2229],[-23.2309,15.244],[-23.2513,15.2564],[-23.2098,15.3117],[-23.2172,15.3192],[-23.1898,15.3328],[-23.1898,15.3192],[-23.1763,15.3328],[-23.1619,15.3126],[-23.1278,15.3117]]]}},{"type":"Feature","id":"Mosteiros","properties":{"id":"Mosteiros","iso_code":"CV-MO","name":"Mosteiros","name_full":"Mosteiros","name_ja":"モシュテイホシュ","center_lonlat":[-24.3619,14.9957]},"geometry":{"type":"Polygon","coordinates":[[[-24.4297,15.025],[-24.3856,15.0435],[-24.3433,15.0407],[-24.3201,15.013],[-24.3015,14.9548],[-24.374,14.9449],[-24.4297,15.025]]]}},{"type":"Feature","id":"Paul","properties":{"id":"Paul","iso_code":"CV-PA","name":"Paul","name_full":"Paul","name_ja":"パウル","center_lonlat":[-25.0159,17.1146]},"geometry":{"type":"Polygon","coordinates":[[[-25.0259,17.1449],[-24.975,17.1145],[-24.9867,17.0789],[-25.0283,17.1056],[-25.073,17.1136],[-25.0259,17.1449]]]}},{"type":"Feature","id":"Porto Novo","properties":{"id":"Porto Novo","iso_code":"CV-PN","name":"Porto Novo","name_full":"Porto Novo","name_ja":"ポルト・ノボ","center_lonlat":[-25.1978,17.0326]},"geometry":{"type":"Polygon","coordinates":[[[-24.9867,17.0789],[-25.0151,17.0491],[-25.1159,16.9975],[-25.1879,16.9282],[-25.2987,16.9174],[-25.3134,16.9385],[-25.3139,17.005],[-25.3604,17.0552],[-25.3309,17.0968],[-25.2798,17.1073],[-25.2454,17.1367],[-25.1583,17.0858],[-25.073,17.1136],[-25.0283,17.1056],[-24.9867,17.0789]]]}},{"type":"Feature","id":"Praia","properties":{"id":"Praia","iso_code":"CV-PR","name":"Praia","name_full":"Praia","name_ja":"プライア市","center_lonlat":[-23.5165,14.948]},"geometry":{"type":"Polygon","coordinates":[[[-23.4715,14.9737],[-23.494,14.9187],[-23.5393,14.9076],[-23.5641,14.9607],[-23.491,14.9862],[-23.4715,14.9737]]]}},{"type":"Feature","id":"Ribeira Brava","properties":{"id":"Ribeira Brava","iso_code":"CV-RB","name":"Ribeira Brava","name_full":"Ribeira Brava","name_ja":"リベイラ・ブラヴァ","center_lonlat":[-24.2131,16.6057]},"geometry":{"type":"Polygon","coordinates":[[[-24.3756,16.6771],[-24.3406,16.6754],[-24.2928,16.6418],[-24.2268,16.6496],[-24.1725,16.6291],[-24.09,16.6225],[-24.0328,16.5968],[-24.0328,16.5624],[-24.0441,16.5599],[-24.1147,16.5593],[-24.2333,16.6021],[-24.2723,16.5872],[-24.3153,16.5204],[-24.3247,16.4827],[-24.3202,16.6128],[-24.3666,16.6294],[-24.3756,16.6771]]]}},{"type":"Feature","id":"Ribeira Grande","properties":{"id":"Ribeira Grande","iso_code":"CV-RG","name":"Ribeira Grande","name_full":"Ribeira Grande","name_ja":"リベイラ・グランデ","center_lonlat":[-25.1253,17.1424]},"geometry":{"type":"Polygon","coordinates":[[[-25.2454,17.1367],[-25.1026,17.1966],[-25.0395,17.1824],[-25.0259,17.1449],[-25.073,17.1136],[-25.1583,17.0858],[-25.2454,17.1367]]]}},{"type":"Feature","id":"Ribeira Grande de Santiago","properties":{"id":"Ribeira Grande de Santiago","iso_code":"CV-RS","name":"Ribeira Grande de Santiago","name_full":"Ribeira Grande de Santiago","name_ja":"リベイラ・グランデ・デ・サンティアゴ","center_lonlat":[-23.6265,14.9675]},"geometry":{"type":"Polygon","coordinates":[[[-23.5393,14.9076],[-23.6765,14.9355],[-23.7151,14.9685],[-23.6704,15.0072],[-23.6416,15.0139],[-23.6294,15.0393],[-23.612,15.0409],[-23.5962,15.0117],[-23.5807,14.9685],[-23.5641,14.9607],[-23.5393,14.9076]]]}},{"type":"Feature","id":"Sal","properties":{"id":"Sal","iso_code":"CV-SL","name":"Sal","name_full":"Sal","name_ja":"サル","center_lonlat":[-22.9345,16.7393]},"geometry":{"type":"Polygon","coordinates":[[[-22.9292,16.5934],[-22.9414,16.6694],[-22.9565,16.6994],[-22.9776,16.689],[-22.9818,16.7035],[-22.9708,16.7579],[-22.9892,16.7709],[-22.9908,16.8157],[-22.9224,16.8603],[-22.8951,16.8293],[-22.9098,16.8034],[-22.9047,16.7358],[-22.8813,16.6927],[-22.9018,16.6344],[-22.8951,16.6139],[-22.9292,16.5934]]]}},{"type":"Feature","id":"Santa Catarina","properties":{"id":"Santa Catarina","iso_code":"CV-CA","name":"Santa Catarina","name_full":"Santa Catarina","name_ja":"サンタ・カタリナ","center_lonlat":[-23.7098,15.0887]},"geometry":{"type":"Polygon","coordinates":[[[-23.7151,14.9685],[-23.7305,14.9858],[-23.7307,15.0185],[-23.7721,15.038],[-23.7926,15.0858],[-23.7721,15.1273],[-23.7858,15.1745],[-23.7701,15.184],[-23.6859,15.1844],[-23.687,15.1667],[-23.6504,15.1368],[-23.6482,15.1213],[-23.6266,15.1314],[-23.6183,15.1058],[-23.648,15.0819],[-23.6294,15.0393],[-23.6416,15.0139],[-23.6704,15.0072],[-23.7151,14.9685]]]}},{"type":"Feature","id":"Santa Catarina do Fogo","properties":{"id":"Santa Catarina do Fogo","iso_code":"CV-CF","name":"Santa Catarina do Fogo","name_full":"Santa Catarina do Fogo","name_ja":"サンタ・カタリナ・ド・フォゴ","center_lonlat":[-24.3378,14.9135]},"geometry":{"type":"Polygon","coordinates":[[[-24.3015,14.9548],[-24.2982,14.8955],[-24.3209,14.8728],[-24.353,14.8696],[-24.3834,14.9081],[-24.374,14.9449],[-24.3015,14.9548]]]}},{"type":"Feature","id":"Santa Cruz","properties":{"id":"Santa Cruz","iso_code":"CV-CR","name":"Santa Cruz","name_full":"Santa Cruz","name_ja":"サンタ・クルス","center_lonlat":[-23.5544,15.1104]},"geometry":{"type":"Polygon","coordinates":[[[-23.5916,15.1702],[-23.5114,15.1273],[-23.4847,15.064],[-23.5043,15.046],[-23.5264,15.0593],[-23.5496,15.0788],[-23.58,15.0816],[-23.5807,15.098],[-23.6183,15.1058],[-23.6266,15.1314],[-23.5916,15.1702]]]}},{"type":"Feature","id":"Sao Domingos","properties":{"id":"Sao Domingos","iso_code":"CV-SD","name":"Sao Domingos","name_full":"São Domingos","name_ja":"サン・ドミンゴス","center_lonlat":[-23.521,15.0103]},"geometry":{"type":"Polygon","coordinates":[[[-23.4847,15.064],[-23.4431,15.0107],[-23.4715,14.9737],[-23.491,14.9862],[-23.5641,14.9607],[-23.5807,14.9685],[-23.5962,15.0117],[-23.5264,15.0593],[-23.5043,15.046],[-23.4847,15.064]]]}},{"type":"Feature","id":"Sao Filipe","properties":{"id":"Sao Filipe","iso_code":"CV-SF","name":"Sao Filipe","name_full":"São Filipe","name_ja":"サン・フィリペ","center_lonlat":[-24.4277,14.9101]},"geometry":{"type":"Polygon","coordinates":[[[-24.2982,14.8955],[-24.2995,14.863],[-24.3345,14.8319],[-24.3765,14.816],[-24.4491,14.8381],[-24.5066,14.885],[-24.5262,14.9247],[-24.5206,14.9453],[-24.4889,14.9905],[-24.4297,15.025],[-24.374,14.9449],[-24.3834,14.9081],[-24.353,14.8696],[-24.3209,14.8728],[-24.2982,14.8955]]]}},{"type":"Feature","id":"Sao Lourenco dos Orgaos","properties":{"id":"Sao Lourenco dos Orgaos","iso_code":"CV-SO","name":"Sao Lourenco dos Orgaos","name_full":"São Lourenço dos Órgãos","name_ja":"サン・ローレンソ・ドス・オルガンス","center_lonlat":[-23.5714,15.0503]},"geometry":{"type":"Polygon","coordinates":[[[-23.612,15.0409],[-23.5851,15.0559],[-23.58,15.0816],[-23.5496,15.0788],[-23.5264,15.0593],[-23.5962,15.0117],[-23.612,15.0409]]]}},{"type":"Feature","id":"Sao Miguel","properties":{"id":"Sao Miguel","iso_code":"CV-SM","name":"Sao Miguel","name_full":"São Miguel","name_ja":"サン・ミゲル","center_lonlat":[-23.6421,15.1766]},"geometry":{"type":"Polygon","coordinates":[[[-23.6561,15.2297],[-23.6303,15.2192],[-23.5916,15.1702],[-23.6266,15.1314],[-23.6482,15.1213],[-23.6504,15.1368],[-23.687,15.1667],[-23.6859,15.1844],[-23.6561,15.2297]]]}},{"type":"Feature","id":"Sao Salvador do Mundo","properties":{"id":"Sao Salvador do Mundo","iso_code":"CV-SS","name":"Sao Salvador do Mundo","name_full":"São Salvador do Mundo","name_ja":"サン・サルバドル・ド・ムンド","center_lonlat":[-23.6119,15.0737]},"geometry":{"type":"Polygon","coordinates":[[[-23.6183,15.1058],[-23.5807,15.098],[-23.58,15.0816],[-23.5851,15.0559],[-23.612,15.0409],[-23.6294,15.0393],[-23.648,15.0819],[-23.6183,15.1058]]]}},{"type":"Feature","id":"Sao Vicente","properties":{"id":"Sao Vicente","iso_code":"CV-SV","name":"Sao Vicente","name_full":"São Vicente","name_ja":"サン・ビセンテ","center_lonlat":[-24.9775,16.8488]},"geometry":{"type":"MultiPolygon","coordinates":[[[[-24.9197,16.8951],[-24.8763,16.8498],[-24.8751,16.8262],[-24.8911,16.814],[-24.988,16.7851],[-25.0582,16.8096],[-25.0811,16.8323],[-25.0941,16.8262],[-25.0782,16.8651],[-25.006,16.8877],[-25.0122,16.9013],[-24.9781,16.923],[-24.9652,16.9089],[-24.9377,16.923],[-24.9197,16.8951]]],[[[-24.7735,16.8023],[-24.7489,16.7936],[-24.7258,16.7574],[-24.6838,16.756],[-24.6852,16.7429],[-24.7402,16.7343],[-24.788,16.7748],[-24.7735,16.8023]]],[[[-24.5927,16.6243],[-24.5695,16.62],[-24.5753,16.6055],[-24.6013,16.6098],[-24.6042,16.6214],[-24.5927,16.6243]]]]}},{"type":"Feature","id":"Tarrafal","properties":{"id":"Tarrafal","iso_code":"CV-TA","name":"Tarrafal","name_full":"Tarrafal","name_ja":"タラファル","center_lonlat":[-23.7217,15.2487]},"geometry":{"type":"Polygon","coordinates":[[[-23.7701,15.184],[-23.7516,15.2335],[-23.7633,15.2698],[-23.7858,15.2918],[-23.7584,15.3049],[-23.7795,15.3117],[-23.7516,15.3328],[-23.7379,15.3117],[-23.7192,15.3229],[-23.7032,15.3135],[-23.6978,15.2963],[-23.7107,15.2844],[-23.6485,15.2372],[-23.6561,15.2297],[-23.6859,15.1844],[-23.7701,15.184]]]}},{"type":"Feature","id":"Tarrafal de Sao Nicolau","properties":{"id":"Tarrafal de Sao Nicolau","iso_code":"CV-TS","name":"Tarrafal de Sao Nicolau","name_full":"Tarrafal de São Nicolau","name_ja":"タラファル・デ・サン・ニコラウ","center_lonlat":[-24.3672,16.6018]},"geometry":{"type":"Polygon","coordinates":[[[-24.3247,16.4827],[-24.3709,16.5871],[-24.4083,16.6002],[-24.4307,16.6395],[-24.4226,16.6623],[-24.3756,16.6771],[-24.3666,16.6294],[-24.3202,16.6128],[-24.3247,16.4827]]]}}]}
