{"type":"FeatureCollection","features":[{"type":"Feature","id":"Amazonas","properties":{"id":"Amazonas","iso_code":"CO-AMA","name":"Amazonas","name_full":"Amazonas","name_ja":"アマソナス県","center_lonlat":[-71.4984,-1.5305]},"geometry":{"type":"Polygon","coordinates":[[[-69.4211,-1.2393],[-69.4339,-1.4222],[-69.9472,-4.2011],[-69.965,-4.2365],[-70.0305,-4.1316],[-70.1884,-4.029],[-70.217,-3.925],[-70.3111,-3.8293],[-70.3777,-3.8188],[-70.4385,-3.8677],[-70.4909,-3.8785],[-70.5443,-3.8652],[-70.6906,-3.7868],[-70.7341,-3.782],[-70.0506,-2.7151],[-70.0758,-2.6914],[-70.095,-2.6326],[-70.1058,-2.6252],[-70.1505,-2.6692],[-70.1839,-2.6195],[-70.2175,-2.6321],[-70.2361,-2.6251],[-70.2739,-2.5463],[-70.2959,-2.5354],[-70.3646,-2.5576],[-70.3763,-2.5326],[-70.3496,-2.5183],[-70.3449,-2.4966],[-70.3575,-2.4869],[-70.4453,-2.4985],[-70.4845,-2.4525],[-70.5377,-2.4359],[-70.5786,-2.4055],[-70.5961,-2.4165],[-70.5986,-2.4466],[-70.6476,-2.4508],[-70.6637,-2.3982],[-70.699,-2.3701],[-70.7066,-2.3283],[-70.7879,-2.3074],[-70.9046,-2.2111],[-70.9253,-2.2203],[-71.0214,-2.1967],[-71.032,-2.2108],[-71.0206,-2.2589],[-71.0297,-2.264],[-71.0791,-2.2476],[-71.12,-2.2521],[-71.1428,-2.2629],[-71.1619,-2.3102],[-71.2091,-2.3392],[-71.2533,-2.3266],[-71.3076,-2.3478],[-71.3155,-2.3341],[-71.4208,-2.376],[-71.4321,-2.3552],[-71.4116,-2.3266],[-71.4565,-2.2551],[-71.4806,-2.2658],[-71.4981,-2.3151],[-71.521,-2.2921],[-71.5223,-2.2504],[-71.5384,-2.223],[-71.596,-2.2111],[-71.6785,-2.1695],[-71.7314,-2.1899],[-71.7461,-2.1323],[-71.8362,-2.1798],[-71.9487,-2.3241],[-72.0615,-2.32],[-72.0894,-2.331],[-72.1764,-2.4103],[-72.251,-2.3963],[-72.2819,-2.4057],[-72.2838,-2.4332],[-72.378,-2.4508],[-72.4143,-2.4371],[-72.4416,-2.4052],[-72.563,-2.3831],[-72.6443,-2.3341],[-72.6832,-2.4048],[-72.7124,-2.4221],[-72.7337,-2.3676],[-72.7617,-2.4023],[-72.8047,-2.3778],[-72.87,-2.4118],[-72.9354,-2.4253],[-72.9876,-2.3377],[-73.0564,-2.2999],[-73.0838,-2.3451],[-73.0989,-2.3149],[-73.1589,-2.293],[-73.1663,-2.2555],[-73.1978,-2.2136],[-73.1953,-2.1872],[-73.1499,-2.1436],[-73.1111,-2.0734],[-73.1687,-1.9593],[-73.1589,-1.8952],[-73.1936,-1.8368],[-73.193,-1.7887],[-73.2573,-1.7424],[-73.2677,-1.7722],[-73.3166,-1.7654],[-73.3505,-1.7906],[-73.3871,-1.7609],[-73.4401,-1.7587],[-73.4463,-1.7381],[-73.5109,-1.6986],[-73.531,-1.6737],[-73.5288,-1.6351],[-73.5088,-1.5868],[-73.4845,-1.5725],[-73.4972,-1.478],[-73.5371,-1.4343],[-73.5742,-1.4169],[-73.5834,-1.4017],[-73.5629,-1.3722],[-73.589,-1.3503],[-73.5971,-1.3061],[-73.6182,-1.3061],[-73.6366,-1.2552],[-73.7324,-1.2165],[-73.7547,-1.1833],[-73.8025,-1.2236],[-73.8572,-1.2105],[-73.8808,-1.191],[-73.9199,-1.1138],[-73.9813,-1.1075],[-73.9733,-1.0816],[-73.9828,-1.0662],[-74.0168,-1.0916],[-74.0372,-1.0797],[-74.0769,-0.9909],[-74.0924,-1.0201],[-74.1196,-1.021],[-74.2668,-0.9723],[-74.3034,-0.8978],[-74.3444,-0.8586],[-74.3376,-0.8468],[-74.2951,-0.8473],[-74.2891,-0.8363],[-74.3106,-0.8014],[-74.3028,-0.7854],[-74.3443,-0.7741],[-74.3851,-0.722],[-74.3649,-0.6762],[-74.4147,-0.5638],[-73.8641,-0.3929],[-73.7873,-0.4074],[-73.7284,-0.3865],[-73.6959,-0.3938],[-73.6436,-0.4219],[-73.6404,-0.4579],[-73.5861,-0.4706],[-73.5542,-0.5206],[-73.389,-0.5313],[-73.3318,-0.5073],[-73.3147,-0.5127],[-73.2055,-0.6047],[-73.0813,-0.5936],[-72.9974,-0.5266],[-72.8848,-0.6017],[-72.8154,-0.5884],[-72.7499,-0.5592],[-72.5904,-0.673],[-72.5498,-0.6833],[-72.4784,-0.594],[-72.4219,-0.5566],[-72.3245,-0.6293],[-72.2798,-0.6213],[-72.2424,-0.5869],[-72.2324,-0.4673],[-72.1286,-0.3263],[-72.0122,-0.2476],[-71.845,-0.2459],[-71.7742,-0.2247],[-71.7532,-0.2034],[-71.7276,-0.1296],[-71.6891,-0.0857],[-71.6259,-0.043],[-71.3897,0.0675],[-71.3223,0.1332],[-71.2994,0.1112],[-71.2517,0.096],[-71.1739,0.1158],[-71.14,0.0377],[-71.042,-0.0025],[-71.0093,0.009],[-70.9841,0.0009],[-70.9345,-0.071],[-70.939,-0.1457],[-70.9006,-0.1937],[-70.8473,-0.3213],[-70.7872,-0.3219],[-70.7605,-0.2806],[-70.7409,-0.2793],[-70.661,-0.3244],[-70.6158,-0.3211],[-70.5674,-0.3597],[-70.5009,-0.3596],[-70.4571,-0.4074],[-70.4483,-0.4656],[-70.3344,-0.4718],[-70.3296,-0.4339],[-70.2804,-0.4048],[-70.2161,-0.4234],[-70.2214,-0.4469],[-70.305,-0.5342],[-70.3037,-0.5567],[-70.2603,-0.5506],[-70.2445,-0.5641],[-70.2346,-0.7202],[-70.2731,-0.752],[-70.2642,-0.7881],[-70.2127,-0.8524],[-70.2797,-0.9337],[-70.2422,-0.988],[-70.186,-0.9561],[-70.1793,-0.9694],[-70.196,-1.0231],[-70.1384,-1.0714],[-70.0986,-1.0734],[-70.0724,-1.0441],[-70.1241,-0.9744],[-70.0999,-0.9424],[-70.0711,-0.9335],[-70.0339,-0.9469],[-70.0015,-0.9206],[-69.9711,-0.9357],[-69.9028,-0.9161],[-69.9012,-0.9368],[-69.9318,-0.9716],[-69.9474,-1.0292],[-69.9315,-1.055],[-69.9118,-1.057],[-69.8646,-1.0261],[-69.7742,-1.0438],[-69.7469,-0.9973],[-69.7164,-0.9951],[-69.6491,-1.0555],[-69.6599,-1.1225],[-69.6506,-1.1605],[-69.6307,-1.1654],[-69.5645,-1.1375],[-69.4653,-1.18],[-69.4211,-1.2393]]]}},{"type":"Feature","id":"Antioquia","properties":{"id":"Antioquia","iso_code":"CO-ANT","name":"Antioquia","name_full":"Antioquia","name_ja":"アンティオキア県","center_lonlat":[-75.5808,6.9231]},"geometry":{"type":"Polygon","coordinates":[[[-76.9855,8.2562],[-76.962,8.2665],[-76.9631,8.2037],[-76.9353,8.2054],[-76.9353,8.185],[-76.9217,8.1992],[-76.9176,8.189],[-76.9285,8.1577],[-76.949,8.1645],[-76.9425,8.1289],[-76.9183,8.1139],[-76.8957,8.1173],[-76.8937,8.1365],[-76.8323,8.1365],[-76.8465,8.0955],[-76.8254,8.103],[-76.8602,8.0825],[-76.8391,8.0546],[-76.8664,8.062],[-76.8323,8.0273],[-76.9077,8.0441],[-76.9217,8.0273],[-76.9337,7.9646],[-76.9071,7.9295],[-76.8536,7.9127],[-76.7913,7.9112],[-76.7572,7.9236],[-76.7306,8.0513],[-76.732,8.0793],[-76.7441,8.103],[-76.7504,8.0757],[-76.7592,8.1147],[-76.7479,8.1715],[-76.7702,8.2585],[-76.7748,8.4167],[-76.8021,8.4302],[-76.8386,8.5004],[-76.9065,8.5386],[-76.9353,8.5344],[-76.9472,8.5455],[-76.8937,8.6203],[-76.6602,8.6874],[-76.6405,8.7336],[-76.6473,8.7473],[-76.5605,8.7754],[-76.4448,8.8699],[-76.4123,8.8395],[-76.3888,8.7389],[-76.3463,8.6748],[-76.2775,8.6415],[-76.2291,8.5776],[-76.2137,8.4529],[-76.2173,8.4102],[-76.3179,8.2809],[-76.4194,8.0987],[-76.4195,7.9791],[-76.4326,7.9313],[-76.4683,7.8748],[-76.5051,7.7407],[-76.4976,7.6],[-76.4078,7.3804],[-75.857,7.3673],[-75.7694,7.4989],[-75.7404,7.52],[-75.59,7.5695],[-75.5654,7.6063],[-75.5467,7.6895],[-75.4903,7.7386],[-75.4586,7.8078],[-75.3617,7.8838],[-75.2288,8.046],[-75.1144,8.0676],[-75.0609,8.0591],[-75.0174,8.0747],[-74.9426,8.0726],[-74.8862,8.1542],[-74.8349,8.1887],[-74.5995,7.9982],[-74.5525,7.9292],[-74.5223,7.7715],[-74.4809,7.7242],[-74.499,7.6781],[-74.5606,7.6308],[-74.5736,7.606],[-74.5861,7.4926],[-74.5626,7.4236],[-74.508,7.3628],[-74.4687,7.3614],[-74.4327,7.3965],[-74.4044,7.4574],[-74.3644,7.4888],[-74.3474,7.4329],[-74.3583,7.3919],[-74.3965,7.3434],[-74.4051,7.2],[-74.3439,7.0104],[-74.2529,6.9961],[-73.9302,7.3008],[-73.9267,7.1261],[-73.8926,7.0609],[-73.8878,7.0199],[-73.9008,6.9929],[-74.0161,6.9278],[-74.1086,6.7903],[-74.2927,6.6544],[-74.3864,6.6263],[-74.4088,6.5671],[-74.4058,6.4753],[-74.3792,6.4235],[-74.3922,6.4026],[-74.4133,6.4042],[-74.4595,6.3335],[-74.5194,6.2823],[-74.5667,6.2412],[-74.6051,6.1361],[-74.5777,6.0788],[-74.5743,6.0016],[-74.6051,5.9784],[-74.5908,5.9182],[-74.6399,5.8618],[-74.6625,5.7719],[-74.7151,5.7728],[-74.7437,5.6996],[-74.7773,5.6897],[-74.8668,5.7438],[-74.9909,5.7139],[-75.0215,5.6765],[-75.0912,5.6596],[-75.0917,5.5963],[-75.1344,5.5354],[-75.2158,5.503],[-75.2713,5.4347],[-75.2914,5.4738],[-75.318,5.4636],[-75.3162,5.5171],[-75.3399,5.5866],[-75.3775,5.6192],[-75.3846,5.6742],[-75.4261,5.6943],[-75.4867,5.6697],[-75.5306,5.6881],[-75.5561,5.721],[-75.6011,5.7351],[-75.6132,5.7352],[-75.6125,5.7008],[-75.5925,5.6832],[-75.5857,5.5188],[-75.6874,5.529],[-75.7247,5.5589],[-75.8578,5.4894],[-75.9605,5.507],[-76.0425,5.5773],[-76.0979,5.6434],[-76.0876,5.7278],[-76.1236,5.7886],[-76.1356,5.8372],[-76.1051,5.93],[-76.1113,5.9756],[-76.1887,5.9985],[-76.217,6.0348],[-76.2582,6.174],[-76.2772,6.1873],[-76.3498,6.1922],[-76.6492,6.1586],[-76.7137,6.1784],[-76.7707,6.2869],[-76.798,6.3006],[-76.799,6.3362],[-76.7844,6.3627],[-76.798,6.3689],[-76.7887,6.3957],[-76.8055,6.4235],[-76.7844,6.4378],[-76.8033,6.4515],[-76.7881,6.4835],[-76.8526,6.5402],[-76.8663,6.5818],[-76.8932,6.5822],[-76.8961,6.6145],[-76.8874,6.6302],[-76.8686,6.625],[-76.8663,6.6398],[-76.9011,6.65],[-76.9057,6.6936],[-76.9322,6.6724],[-76.9449,6.7022],[-76.9699,6.7047],[-76.9488,6.732],[-76.9666,6.7524],[-76.9728,6.8102],[-76.8833,6.8446],[-76.8362,6.8406],[-76.8018,6.8745],[-76.8023,6.9268],[-76.8331,6.9778],[-76.8314,6.9997],[-76.7969,7.0157],[-76.704,7.0267],[-76.5461,6.991],[-76.5053,7.0744],[-76.5083,7.1863],[-76.5429,7.267],[-76.5979,7.3122],[-76.6462,7.3213],[-76.6925,7.3544],[-76.8769,7.5654],[-76.9809,7.6392],[-77.1264,7.7809],[-77.1133,7.7884],[-77.1202,7.8424],[-77.0934,7.8371],[-77.0217,7.8985],[-77.0035,7.9994],[-76.9599,8.0652],[-76.9605,8.1696],[-76.9855,8.2562]]]}},{"type":"Feature","id":"Arauca","properties":{"id":"Arauca","iso_code":"CO-ARA","name":"Arauca","name_full":"Arauca","name_ja":"アラウカ県","center_lonlat":[-70.9702,6.5631]},"geometry":{"type":"Polygon","coordinates":[[[-71.964,7.0059],[-71.8482,6.9839],[-71.7715,7.0111],[-71.774,7.0289],[-71.6696,7.0277],[-71.667,7.0515],[-71.6204,7.0521],[-71.5947,7.0301],[-71.5584,7.0412],[-71.5486,7.0283],[-71.5099,7.0346],[-71.4677,7.0124],[-71.4139,7.031],[-71.3494,7.0195],[-71.2925,7.0258],[-71.2755,6.9844],[-71.184,6.9626],[-71.136,6.9921],[-71.0113,6.9909],[-70.9613,7.0094],[-70.8955,7.0685],[-70.7033,7.0999],[-70.6393,7.0735],[-70.5786,7.0858],[-70.5107,7.0097],[-70.4517,7.0077],[-70.3191,6.9383],[-70.2876,6.9369],[-70.195,6.9776],[-70.1292,6.9725],[-69.4436,6.1222],[-69.432,6.1222],[-69.5324,6.0623],[-69.5719,6.0542],[-69.7849,6.0621],[-69.8558,6.0263],[-69.8881,6.0403],[-69.9083,6.0868],[-69.9396,6.1147],[-70.0389,6.1611],[-70.0526,6.1941],[-70.1181,6.25],[-70.1653,6.2675],[-70.2806,6.266],[-70.3477,6.279],[-70.5049,6.2247],[-70.6718,6.2089],[-70.7272,6.2091],[-70.7894,6.2325],[-70.8642,6.2153],[-70.9597,6.2223],[-71.0314,6.2478],[-71.1423,6.2558],[-71.2071,6.2741],[-71.2269,6.26],[-71.2715,6.2615],[-71.3437,6.2284],[-71.488,6.1952],[-71.5574,6.1907],[-71.6088,6.2104],[-71.722,6.2],[-71.8561,6.1545],[-71.9465,6.1499],[-72.058,6.1102],[-72.115,6.0688],[-72.1312,6.0691],[-72.2455,6.1267],[-72.3233,6.2257],[-72.3509,6.2882],[-72.3217,6.3513],[-72.2955,6.3752],[-72.2727,6.4321],[-72.2588,6.4384],[-72.2362,6.4264],[-72.1994,6.4622],[-72.1573,6.4747],[-72.1363,6.5044],[-72.1017,6.7291],[-72.053,6.7824],[-71.964,7.0059]]]}},{"type":"Feature","id":"Archipelago of Saint Andrews","properties":{"id":"Archipelago of Saint Andrews","iso_code":"CO-SAP","name":"Archipelago of Saint Andrews","name_full":"Archipelago of Saint Andréws","name_ja":"サン・アンドレス・イ・プロビデンシア県","center_lonlat":[-81.7064,12.544]},"geometry":{"type":"MultiPolygon","coordinates":[[[[-81.7115,12.5229],[-81.7169,12.5632],[-81.691,12.5913],[-81.7047,12.5045],[-81.7174,12.5024],[-81.7237,12.5115],[-81.7115,12.5229]]],[[[-81.3826,13.3192],[-81.3861,13.3415],[-81.3653,13.374],[-81.3463,13.3487],[-81.3826,13.3192]]]]}},{"type":"Feature","id":"Area_22","properties":{"id":"Area_22","iso_code":"CO-X01~","name":"Area_22","name_full":"Area_22","name_ja":"Area_22","center_lonlat":[-81.595,3.9776]},"geometry":{"type":"Polygon","coordinates":[[[-81.6117,3.959],[-81.6014,3.9883],[-81.5823,3.9915],[-81.5803,3.976],[-81.6117,3.959]]]}},{"type":"Feature","id":"Atlantico","properties":{"id":"Atlantico","iso_code":"CO-ATL","name":"Atlantico","name_full":"Atlántico","name_ja":"アトランティコ県","center_lonlat":[-74.9689,10.6818]},"geometry":{"type":"Polygon","coordinates":[[[-75.2563,10.7093],[-75.2222,10.7347],[-75.2297,10.7634],[-75.2287,10.8109],[-75.2157,10.8266],[-75.0495,10.9012],[-75.0236,10.9743],[-74.9628,10.9949],[-74.9257,11.0286],[-74.9236,11.0457],[-74.8615,11.0488],[-74.8453,11.0621],[-74.8475,11.0877],[-74.7743,11.01],[-74.759,10.9544],[-74.7286,10.9191],[-74.7423,10.8409],[-74.7226,10.7748],[-74.7258,10.6051],[-74.7481,10.5503],[-74.8067,10.5103],[-74.8361,10.4061],[-74.9175,10.2674],[-74.9827,10.3428],[-75.0765,10.4144],[-75.1327,10.4026],[-75.1768,10.4566],[-75.1713,10.4764],[-75.2538,10.4974],[-75.2664,10.5307],[-75.2271,10.6283],[-75.2629,10.674],[-75.2563,10.7093]]]}},{"type":"Feature","id":"Bogota","properties":{"id":"Bogota","iso_code":"CO-CUN","name":"Bogota","name_full":"Bogotá","name_ja":"ボゴタ","center_lonlat":[-74.1977,4.2832]},"geometry":{"type":"Polygon","coordinates":[[[-74.1544,4.0072],[-74.2085,4.0199],[-74.2236,4.0096],[-74.2564,3.9479],[-74.3096,3.8868],[-74.3174,3.8427],[-74.4278,3.6796],[-74.4645,3.6776],[-74.4936,3.704],[-74.4214,3.805],[-74.3701,3.9091],[-74.3613,3.9452],[-74.3716,4.0335],[-74.342,4.1125],[-74.3281,4.1261],[-74.2727,4.0985],[-74.2625,4.1095],[-74.2506,4.1965],[-74.214,4.2561],[-74.1915,4.3943],[-74.2164,4.3992],[-74.1793,4.5008],[-74.1888,4.582],[-74.2247,4.629],[-74.1661,4.6676],[-74.1749,4.699],[-74.1343,4.7309],[-74.1111,4.7843],[-74.0847,4.8066],[-74.0814,4.8355],[-74.0107,4.8154],[-74.0136,4.6815],[-74.0312,4.6506],[-74.0143,4.6309],[-73.995,4.6322],[-74.0137,4.5665],[-74.035,4.5534],[-74.1164,4.4303],[-74.1077,4.3422],[-74.1493,4.2771],[-74.153,4.2487],[-74.0939,4.142],[-74.1335,4.0879],[-74.1544,4.0072]]]}},{"type":"Feature","id":"Bolivar","properties":{"id":"Bolivar","iso_code":"CO-BOL","name":"Bolivar","name_full":"Bolívar","name_ja":"ボリーバル県","center_lonlat":[-74.5139,8.7451]},"geometry":{"type":"MultiPolygon","coordinates":[[[[-75.5816,10.092],[-75.5894,10.1283],[-75.5655,10.1445],[-75.5409,10.1885],[-75.5307,10.2407],[-75.604,10.1961],[-75.6438,10.1544],[-75.6849,10.1315],[-75.7036,10.1344],[-75.6889,10.168],[-75.6308,10.2134],[-75.6151,10.2695],[-75.5922,10.2686],[-75.5922,10.3027],[-75.5838,10.2824],[-75.5157,10.319],[-75.5238,10.3915],[-75.5392,10.3863],[-75.5511,10.4194],[-75.5785,10.3983],[-75.5655,10.4331],[-75.5028,10.4877],[-75.5222,10.4329],[-75.5065,10.4256],[-75.4933,10.4346],[-75.4891,10.5014],[-75.5102,10.5082],[-75.5045,10.5516],[-75.5245,10.5671],[-75.5196,10.5765],[-75.4639,10.6027],[-75.4549,10.6112],[-75.4618,10.631],[-75.4242,10.6433],[-75.4038,10.6801],[-75.3073,10.7095],[-75.2738,10.7443],[-75.2583,10.7371],[-75.2563,10.7093],[-75.2629,10.674],[-75.2271,10.6283],[-75.2664,10.5307],[-75.2538,10.4974],[-75.1713,10.4764],[-75.1768,10.4566],[-75.1327,10.4026],[-75.0765,10.4144],[-74.9827,10.3428],[-74.9175,10.2674],[-74.9446,10.1866],[-74.9435,10.1375],[-74.8527,10.0931],[-74.8044,10.0253],[-74.8123,9.9855],[-74.8705,9.9507],[-74.8789,9.9155],[-74.8741,9.849],[-74.8152,9.7687],[-74.8285,9.6858],[-74.7813,9.6313],[-74.8058,9.4868],[-74.7998,9.4486],[-74.7702,9.4531],[-74.7423,9.4183],[-74.7032,9.4296],[-74.6771,9.3947],[-74.6365,9.3822],[-74.6132,9.337],[-74.5571,9.2921],[-74.5327,9.243],[-74.5122,9.2408],[-74.4788,9.2693],[-74.4307,9.2675],[-74.4133,9.2265],[-74.3536,9.2312],[-74.3117,9.2139],[-74.295,9.1665],[-74.238,9.1543],[-74.197,9.0931],[-74.1415,9.0583],[-74.1533,9.049],[-74.0908,9.0292],[-74.0605,9.0325],[-74.0434,9.0552],[-74.0104,9.023],[-74.0161,9.0074],[-73.9841,8.9893],[-73.9001,8.9855],[-73.8721,8.9733],[-73.8849,8.9436],[-73.8704,8.8877],[-73.8076,8.8166],[-73.8079,8.7667],[-73.8311,8.7092],[-73.8296,8.6436],[-73.7999,8.5912],[-73.7916,8.5222],[-73.7622,8.4594],[-73.7547,8.3887],[-73.7674,8.3586],[-73.7554,8.329],[-73.7964,8.2129],[-73.7856,8.1615],[-73.8554,8.1054],[-73.8723,8.0449],[-73.8578,7.9386],[-73.8169,7.8014],[-73.836,7.6948],[-73.8233,7.672],[-73.8352,7.5953],[-73.9132,7.4949],[-73.8994,7.4213],[-73.9302,7.3008],[-74.2529,6.9961],[-74.3439,7.0104],[-74.4051,7.2],[-74.3965,7.3434],[-74.3583,7.3919],[-74.3474,7.4329],[-74.3644,7.4888],[-74.4044,7.4574],[-74.4327,7.3965],[-74.4687,7.3614],[-74.508,7.3628],[-74.5626,7.4236],[-74.5861,7.4926],[-74.5736,7.606],[-74.5606,7.6308],[-74.499,7.6781],[-74.4809,7.7242],[-74.5223,7.7715],[-74.5525,7.9292],[-74.5995,7.9982],[-74.8349,8.1887],[-74.801,8.2496],[-74.805,8.2799],[-74.74,8.3113],[-74.6571,8.3175],[-74.6209,8.3491],[-74.6037,8.405],[-74.5744,8.401],[-74.5675,8.4131],[-74.5505,8.4628],[-74.5623,8.5705],[-74.5858,8.6118],[-74.603,8.7271],[-74.5422,8.8145],[-74.6592,8.9657],[-74.8254,9.0765],[-74.8628,9.1493],[-74.9004,9.1769],[-74.9408,9.3467],[-74.904,9.4374],[-74.942,9.4693],[-74.9847,9.458],[-75.0205,9.4683],[-75.0295,9.4831],[-75.0084,9.5313],[-75.0678,9.5398],[-75.1828,9.6432],[-75.2354,9.6489],[-75.2979,9.6777],[-75.3351,9.6491],[-75.3563,9.6573],[-75.3745,9.6403],[-75.3272,9.8814],[-75.3751,9.8776],[-75.4782,9.9154],[-75.4827,9.9356],[-75.4639,9.9651],[-75.4757,10.0396],[-75.5241,10.033],[-75.5365,10.0472],[-75.4856,10.1431],[-75.5816,10.092]]],[[[-75.2297,10.7634],[-75.2495,10.7477],[-75.27,10.7591],[-75.2755,10.7778],[-75.2674,10.7953],[-75.2287,10.8109],[-75.2297,10.7634]]],[[[-75.5868,10.3678],[-75.5758,10.3779],[-75.5379,10.3627],[-75.5353,10.3506],[-75.5463,10.3393],[-75.5675,10.3437],[-75.5907,10.319],[-75.5868,10.3678]]]]}},{"type":"Feature","id":"Boyaca","properties":{"id":"Boyaca","iso_code":"CO-BOY","name":"Boyaca","name_full":"Boyacá","name_ja":"ボヤカ県","center_lonlat":[-73.1075,5.7719]},"geometry":{"type":"Polygon","coordinates":[[[-71.9938,7.0129],[-71.964,7.0059],[-72.053,6.7824],[-72.1017,6.7291],[-72.1363,6.5044],[-72.1573,6.4747],[-72.1994,6.4622],[-72.2362,6.4264],[-72.2588,6.4384],[-72.2727,6.4321],[-72.2955,6.3752],[-72.3217,6.3513],[-72.3544,6.3345],[-72.396,6.2675],[-72.4157,6.2041],[-72.3712,6.1091],[-72.341,6.0789],[-72.3928,5.9009],[-72.4411,5.8821],[-72.4474,5.8542],[-72.3111,5.774],[-72.3038,5.7505],[-72.2377,5.6831],[-72.2668,5.6594],[-72.3026,5.584],[-72.3193,5.5061],[-72.3481,5.5102],[-72.3985,5.5643],[-72.4206,5.5577],[-72.5547,5.4121],[-72.5901,5.3542],[-72.6902,5.2779],[-72.7096,5.2795],[-72.7882,5.3751],[-72.8085,5.384],[-72.8743,5.3276],[-72.9383,5.2405],[-72.9346,5.2052],[-72.9532,5.1605],[-72.9385,5.1154],[-72.9061,5.083],[-72.9273,5.0315],[-72.9737,4.9788],[-73.0114,4.9949],[-73.0309,4.9851],[-73.0686,4.8108],[-73.053,4.7348],[-73.0733,4.7285],[-73.0925,4.6787],[-73.1132,4.664],[-73.1545,4.6608],[-73.2181,4.6776],[-73.2284,4.7236],[-73.2468,4.7337],[-73.2964,4.7298],[-73.3291,4.7838],[-73.3683,4.7977],[-73.3658,4.8198],[-73.4027,4.8715],[-73.4409,4.8867],[-73.5233,4.8884],[-73.5453,4.9324],[-73.5143,4.9912],[-73.5176,5.0238],[-73.4759,5.0659],[-73.4915,5.0942],[-73.4931,5.1418],[-73.5251,5.211],[-73.5216,5.2373],[-73.5848,5.3046],[-73.5901,5.3856],[-73.6417,5.4307],[-73.6538,5.4617],[-73.6798,5.4602],[-73.7181,5.4876],[-73.7393,5.4827],[-73.7915,5.508],[-73.7983,5.564],[-73.8216,5.5585],[-73.8992,5.4819],[-73.9067,5.442],[-73.9348,5.4342],[-74.0001,5.3743],[-74.0887,5.4197],[-74.098,5.4556],[-74.1475,5.4529],[-74.2088,5.4842],[-74.2499,5.4908],[-74.2569,5.5447],[-74.3135,5.6138],[-74.2884,5.6816],[-74.3128,5.7932],[-74.3391,5.8257],[-74.4406,5.7672],[-74.5339,5.7906],[-74.6461,5.7525],[-74.6625,5.7719],[-74.6399,5.8618],[-74.5908,5.9182],[-74.6051,5.9784],[-74.5743,6.0016],[-74.5777,6.0788],[-74.6051,6.1361],[-74.5667,6.2412],[-74.5194,6.2823],[-74.4798,6.1552],[-74.4195,6.0736],[-74.3569,6.0391],[-74.2903,6.0707],[-74.27,6.0498],[-74.2392,5.9817],[-74.2696,5.8985],[-74.2575,5.8482],[-74.2338,5.8463],[-74.1745,5.9008],[-74.1108,5.8706],[-74.088,5.8241],[-74.0487,5.8137],[-74.0084,5.7521],[-73.9732,5.7326],[-73.894,5.7473],[-73.8774,5.7371],[-73.8785,5.7114],[-73.8339,5.7391],[-73.7371,5.7611],[-73.6943,5.752],[-73.6487,5.7154],[-73.6353,5.733],[-73.614,5.8449],[-73.6187,5.9048],[-73.5892,5.9889],[-73.5352,6.0421],[-73.4993,6.1071],[-73.4381,6.0696],[-73.3819,6.001],[-73.4008,5.9223],[-73.4381,5.8874],[-73.4419,5.8668],[-73.4716,5.8477],[-73.4683,5.8135],[-73.4288,5.7639],[-73.403,5.7562],[-73.3513,5.8625],[-73.2862,5.8559],[-73.2192,5.9825],[-73.1954,5.9911],[-73.127,5.9555],[-73.0169,5.9407],[-72.9924,5.9996],[-72.8937,6.1232],[-72.8174,6.1534],[-72.7993,6.2025],[-72.7546,6.2295],[-72.7427,6.2889],[-72.7557,6.3197],[-72.7353,6.376],[-72.7334,6.4566],[-72.7445,6.4859],[-72.7944,6.5332],[-72.8016,6.5519],[-72.7916,6.5671],[-72.7622,6.5736],[-72.7089,6.5288],[-72.6616,6.4348],[-72.6167,6.4381],[-72.5506,6.4904],[-72.5424,6.5614],[-72.4978,6.6458],[-72.4769,6.7598],[-72.4878,6.8092],[-72.478,6.8441],[-72.5049,6.9151],[-72.4228,6.8792],[-72.3832,6.8784],[-72.3264,6.928],[-72.2878,7.0057],[-72.2421,6.9789],[-72.2091,7.0263],[-72.1817,7.0401],[-72.1,7.0381],[-72.0337,7.0137],[-71.9938,7.0129]]]}},{"type":"Feature","id":"Caldas","properties":{"id":"Caldas","iso_code":"CO-CAL","name":"Caldas","name_full":"Caldas","name_ja":"カルダス県","center_lonlat":[-75.3104,5.3443]},"geometry":{"type":"Polygon","coordinates":[[[-74.6625,5.7719],[-74.6461,5.7525],[-74.6461,5.7184],[-74.6318,5.7025],[-74.6519,5.66],[-74.6374,5.6442],[-74.6604,5.5744],[-74.6407,5.5629],[-74.6801,5.5396],[-74.6604,5.526],[-74.6684,5.4923],[-74.6604,5.4583],[-74.675,5.4558],[-74.6734,5.427],[-74.7487,5.2908],[-74.8331,5.3144],[-75.0128,5.2939],[-75.0628,5.2689],[-75.1251,5.1637],[-75.1706,5.1737],[-75.2416,5.1363],[-75.2944,5.1318],[-75.3485,5.0602],[-75.3173,5.0275],[-75.3539,4.9391],[-75.3307,4.8789],[-75.378,4.8001],[-75.4924,4.9194],[-75.6107,4.9337],[-75.6381,4.9735],[-75.667,4.947],[-75.7056,4.9491],[-75.7484,5.0451],[-75.7834,5.0003],[-75.7905,4.948],[-75.8188,4.9202],[-75.8585,4.9323],[-75.8959,4.9732],[-75.9058,5.0178],[-75.9268,5.0435],[-75.8876,5.1244],[-75.8379,5.1111],[-75.8041,5.2084],[-75.8173,5.2723],[-75.7981,5.2878],[-75.752,5.2837],[-75.6925,5.257],[-75.6675,5.2657],[-75.6437,5.3044],[-75.6692,5.3526],[-75.7188,5.3963],[-75.8027,5.365],[-75.8392,5.3609],[-75.8564,5.3742],[-75.8578,5.4894],[-75.7247,5.5589],[-75.6874,5.529],[-75.5857,5.5188],[-75.5925,5.6832],[-75.6125,5.7008],[-75.6132,5.7352],[-75.6011,5.7351],[-75.5561,5.721],[-75.5306,5.6881],[-75.4867,5.6697],[-75.4261,5.6943],[-75.3846,5.6742],[-75.3775,5.6192],[-75.3399,5.5866],[-75.3162,5.5171],[-75.318,5.4636],[-75.2914,5.4738],[-75.2713,5.4347],[-75.2158,5.503],[-75.1344,5.5354],[-75.0917,5.5963],[-75.0912,5.6596],[-75.0215,5.6765],[-74.9909,5.7139],[-74.8668,5.7438],[-74.7773,5.6897],[-74.7437,5.6996],[-74.7151,5.7728],[-74.6625,5.7719]]]}},{"type":"Feature","id":"Caqueta","properties":{"id":"Caqueta","iso_code":"CO-CAQ","name":"Caqueta","name_full":"Caquetá","name_ja":"カケタ県","center_lonlat":[-73.9628,0.8061]},"geometry":{"type":"Polygon","coordinates":[[[-74.8975,2.9507],[-74.7126,2.897],[-74.6625,2.7956],[-74.5964,2.7212],[-74.6594,2.3826],[-74.6459,2.3182],[-74.5437,2.1819],[-74.5492,2.1429],[-74.6159,2.0431],[-74.6068,1.9624],[-74.5505,1.8714],[-74.5108,1.8439],[-73.9178,1.6347],[-73.7575,1.6382],[-73.6751,1.6245],[-73.6652,1.584],[-73.5639,1.4368],[-73.4969,1.3812],[-73.4432,1.3023],[-73.4257,1.2094],[-73.2473,1.0283],[-73.199,1.0094],[-73.1757,0.9685],[-73.1353,0.9415],[-73.0829,0.9243],[-73.0332,0.9322],[-72.9382,1.0247],[-72.8931,1.0466],[-72.885,1.1142],[-72.8579,1.174],[-72.8182,1.1978],[-72.7607,1.1534],[-72.7386,1.1973],[-72.7032,1.2039],[-72.5445,1.1036],[-72.4741,1.0851],[-72.4281,1.0424],[-72.4029,0.9473],[-72.3624,0.933],[-72.3471,0.8768],[-72.3122,0.8836],[-72.3115,0.8135],[-72.2641,0.7847],[-72.2381,0.7366],[-72.1525,0.7277],[-72.0984,0.7041],[-72.078,0.6692],[-72.0358,0.664],[-72.0086,0.6334],[-71.9951,0.5763],[-71.9791,0.5645],[-71.9608,0.5803],[-71.9328,0.5552],[-71.9364,0.4867],[-71.843,0.4172],[-71.847,0.3555],[-71.7871,0.3733],[-71.7572,0.3236],[-71.722,0.3079],[-71.689,0.2583],[-71.5385,0.1777],[-71.4214,0.1916],[-71.3528,0.1625],[-71.3223,0.1332],[-71.3897,0.0675],[-71.6259,-0.043],[-71.6891,-0.0857],[-71.7276,-0.1296],[-71.7532,-0.2034],[-71.7742,-0.2247],[-71.845,-0.2459],[-72.0122,-0.2476],[-72.1286,-0.3263],[-72.2324,-0.4673],[-72.2424,-0.5869],[-72.2798,-0.6213],[-72.3245,-0.6293],[-72.4219,-0.5566],[-72.4784,-0.594],[-72.5498,-0.6833],[-72.5904,-0.673],[-72.7499,-0.5592],[-72.8154,-0.5884],[-72.8848,-0.6017],[-72.9974,-0.5266],[-73.0813,-0.5936],[-73.2055,-0.6047],[-73.3147,-0.5127],[-73.3318,-0.5073],[-73.389,-0.5313],[-73.5542,-0.5206],[-73.5861,-0.4706],[-73.6404,-0.4579],[-73.6436,-0.4219],[-73.6959,-0.3938],[-73.7284,-0.3865],[-73.7873,-0.4074],[-73.8641,-0.3929],[-73.9897,-0.3495],[-74.1167,-0.2463],[-74.1688,-0.2583],[-74.1929,-0.2205],[-74.2516,-0.2214],[-74.282,-0.1494],[-74.3276,-0.1228],[-74.3995,-0.1323],[-74.4132,-0.0903],[-74.4296,-0.083],[-74.4698,-0.1258],[-74.505,-0.113],[-74.559,-0.1166],[-74.5927,-0.1021],[-74.6097,-0.0636],[-74.6638,-0.0542],[-74.6841,0.0063],[-74.6583,0.0538],[-74.6956,0.0746],[-74.6767,0.1099],[-74.6829,0.1509],[-74.7429,0.2003],[-74.8553,0.2219],[-74.9624,0.2708],[-74.989,0.3609],[-74.9851,0.4424],[-74.9962,0.4699],[-75.0723,0.4729],[-75.0957,0.5075],[-75.1649,0.4884],[-75.1867,0.4962],[-75.216,0.5519],[-75.2124,0.6195],[-75.2514,0.6797],[-75.2541,0.719],[-75.2739,0.7363],[-75.3176,0.7513],[-75.4591,0.7495],[-75.4986,0.7636],[-75.5599,0.8286],[-75.6001,0.8474],[-75.7323,0.8481],[-75.7878,0.8756],[-75.8281,0.8795],[-75.8996,0.9538],[-75.9178,1.0192],[-75.9327,1.0307],[-76.0605,1.0437],[-76.1596,1.1326],[-76.255,1.1375],[-76.2953,1.1848],[-76.2823,1.34],[-76.2271,1.4648],[-76.1453,1.5755],[-75.9806,1.5637],[-75.841,1.6806],[-75.6264,1.9646],[-75.5512,2.0329],[-75.4215,2.2474],[-75.306,2.3451],[-75.2314,2.5313],[-75.2079,2.5467],[-75.1556,2.5237],[-75.1224,2.5341],[-75.0032,2.6382],[-75.0035,2.6851],[-75.0496,2.7244],[-75.0529,2.7682],[-74.9768,2.8922],[-74.8975,2.9507]]]}},{"type":"Feature","id":"Casanare","properties":{"id":"Casanare","iso_code":"CO-CAS","name":"Casanare","name_full":"Casanare","name_ja":"カサナレ県","center_lonlat":[-71.6103,5.4043]},"geometry":{"type":"Polygon","coordinates":[[[-72.3217,6.3513],[-72.3509,6.2882],[-72.3233,6.2257],[-72.2455,6.1267],[-72.1312,6.0691],[-72.115,6.0688],[-72.058,6.1102],[-71.9465,6.1499],[-71.8561,6.1545],[-71.722,6.2],[-71.6088,6.2104],[-71.5574,6.1907],[-71.488,6.1952],[-71.3437,6.2284],[-71.2715,6.2615],[-71.2269,6.26],[-71.2071,6.2741],[-71.1423,6.2558],[-71.0314,6.2478],[-70.9597,6.2223],[-70.8642,6.2153],[-70.7894,6.2325],[-70.7272,6.2091],[-70.6718,6.2089],[-70.5049,6.2247],[-70.3477,6.279],[-70.2806,6.266],[-70.1653,6.2675],[-70.1181,6.25],[-70.0526,6.1941],[-70.0389,6.1611],[-69.9396,6.1147],[-69.9083,6.0868],[-69.8881,6.0403],[-69.8558,6.0263],[-69.8986,5.9708],[-69.9866,5.7792],[-70.0914,5.6453],[-70.1852,5.5874],[-70.3429,5.5682],[-70.4488,5.5331],[-70.6621,5.4046],[-70.6787,5.3894],[-70.6957,5.3137],[-70.8879,5.155],[-70.9448,5.1352],[-70.9603,5.1177],[-71.0271,4.9592],[-71.0603,4.9194],[-71.2152,4.8156],[-71.2745,4.8066],[-71.565,4.682],[-71.6857,4.6077],[-71.8094,4.5779],[-71.8974,4.4854],[-72.0122,4.3986],[-72.0699,4.3943],[-72.0892,4.4227],[-72.1499,4.4507],[-72.3235,4.41],[-72.3667,4.3436],[-72.3891,4.3378],[-72.4333,4.3547],[-72.5049,4.3214],[-72.5208,4.3437],[-72.5596,4.3547],[-72.5955,4.3062],[-72.6146,4.3206],[-72.6797,4.3206],[-72.7181,4.2982],[-72.748,4.3131],[-72.7532,4.3488],[-72.7842,4.3507],[-72.782,4.3711],[-72.8126,4.4263],[-72.8371,4.4303],[-72.9266,4.5253],[-72.9946,4.6496],[-73.0406,4.6943],[-73.053,4.7348],[-73.0686,4.8108],[-73.0309,4.9851],[-73.0114,4.9949],[-72.9737,4.9788],[-72.9273,5.0315],[-72.9061,5.083],[-72.9385,5.1154],[-72.9532,5.1605],[-72.9346,5.2052],[-72.9383,5.2405],[-72.8743,5.3276],[-72.8085,5.384],[-72.7882,5.3751],[-72.7096,5.2795],[-72.6902,5.2779],[-72.5901,5.3542],[-72.5547,5.4121],[-72.4206,5.5577],[-72.3985,5.5643],[-72.3481,5.5102],[-72.3193,5.5061],[-72.3026,5.584],[-72.2668,5.6594],[-72.2377,5.6831],[-72.3038,5.7505],[-72.3111,5.774],[-72.4474,5.8542],[-72.4411,5.8821],[-72.3928,5.9009],[-72.341,6.0789],[-72.3712,6.1091],[-72.4157,6.2041],[-72.396,6.2675],[-72.3544,6.3345],[-72.3217,6.3513]]]}},{"type":"Feature","id":"Cauca","properties":{"id":"Cauca","iso_code":"CO-CAU","name":"Cauca","name_full":"Cauca","name_ja":"カウカ県","center_lonlat":[-76.8468,2.3954]},"geometry":{"type":"MultiPolygon","coordinates":[[[[-78.0739,2.6468],[-77.9498,2.6745],[-77.9176,2.6323],[-77.8881,2.6347],[-77.9043,2.58],[-77.8397,2.5659],[-77.7604,2.5916],[-77.7515,2.6273],[-77.7689,2.6572],[-77.7987,2.6757],[-77.7782,2.6894],[-77.7976,2.6987],[-77.7925,2.7167],[-77.8063,2.7255],[-77.7987,2.744],[-77.8118,2.7485],[-77.8124,2.7645],[-77.7948,2.7573],[-77.7336,2.7861],[-77.7858,2.7948],[-77.7646,2.8157],[-77.7093,2.8122],[-77.6888,2.7917],[-77.6986,2.8131],[-77.7354,2.8225],[-77.7082,2.8485],[-77.6683,2.8675],[-77.6417,2.8464],[-77.6361,2.8696],[-77.6577,2.8769],[-77.7093,2.8607],[-77.7157,2.8975],[-77.6963,2.9289],[-77.6401,2.9001],[-77.6197,2.9316],[-77.6417,2.9562],[-77.6273,2.991],[-77.6547,3.0047],[-77.6654,2.9846],[-77.6854,2.9859],[-77.6888,2.9973],[-77.7235,2.9699],[-77.7218,2.982],[-77.6477,3.0739],[-77.5714,3.1381],[-77.5396,3.1968],[-77.5087,3.1946],[-77.5018,3.2234],[-77.4797,3.2275],[-77.5008,3.2448],[-77.5386,3.2371],[-77.5418,3.2461],[-77.5052,3.2825],[-77.4649,3.3016],[-77.4188,3.2587],[-77.3724,3.1697],[-77.3192,3.1755],[-77.2615,3.124],[-77.2342,3.1254],[-77.186,3.1694],[-77.1096,3.1919],[-77.0146,3.1682],[-76.9852,3.14],[-76.8696,3.0929],[-76.829,3.1054],[-76.7786,3.1839],[-76.6728,3.1078],[-76.6323,3.1246],[-76.6089,3.0982],[-76.5767,3.124],[-76.5533,3.1101],[-76.5155,3.1631],[-76.4668,3.1786],[-76.4476,3.204],[-76.4424,3.2549],[-76.4628,3.2853],[-76.4367,3.3179],[-76.354,3.2902],[-76.2559,3.2829],[-76.1766,3.2411],[-76.0758,3.2133],[-76.0915,3.2032],[-76.1128,3.0951],[-76.0446,3.0355],[-76.0302,2.9958],[-76.0312,2.9295],[-76.0244,2.9119],[-75.806,2.72],[-75.781,2.6696],[-75.8234,2.5304],[-75.7953,2.4747],[-75.8445,2.4281],[-75.8775,2.4266],[-75.9662,2.491],[-76.0501,2.4206],[-76.1544,2.3727],[-76.2337,2.3518],[-76.2777,2.3563],[-76.3487,2.4132],[-76.3789,2.42],[-76.3926,2.3668],[-76.3573,2.2715],[-76.3965,2.1862],[-76.4215,2.1638],[-76.4168,2.1314],[-76.4554,2.1128],[-76.5366,2.1291],[-76.5508,2.1216],[-76.567,2.1],[-76.565,2.0145],[-76.6001,1.9718],[-76.5977,1.9166],[-76.5769,1.8797],[-76.5041,1.8231],[-76.3818,1.6591],[-76.1453,1.5755],[-76.2271,1.4648],[-76.2823,1.34],[-76.2953,1.1848],[-76.255,1.1375],[-76.1596,1.1326],[-76.0605,1.0437],[-76.0864,1.0114],[-76.1485,1.0069],[-76.2098,0.9721],[-76.351,0.9769],[-76.4924,1.0246],[-76.5366,1.0756],[-76.5462,1.1176],[-76.5423,1.2055],[-76.5161,1.2747],[-76.5205,1.3015],[-76.5884,1.4075],[-76.6545,1.4377],[-76.6705,1.4337],[-76.7457,1.3295],[-76.7728,1.314],[-76.9117,1.3132],[-76.9245,1.503],[-76.8652,1.5444],[-76.8436,1.5989],[-76.9244,1.7198],[-76.9409,1.7275],[-77.0447,1.7043],[-77.0994,1.6679],[-77.1509,1.6868],[-77.233,1.6635],[-77.3251,1.6894],[-77.3001,1.7486],[-77.3004,1.8076],[-77.2834,1.8557],[-77.2476,1.8869],[-77.2359,1.9174],[-77.2137,1.9269],[-77.1993,1.961],[-77.214,1.9864],[-77.3264,2.0622],[-77.3013,2.1548],[-77.313,2.1714],[-77.4463,2.2214],[-77.5717,2.1873],[-77.6246,2.1578],[-77.7027,2.1426],[-77.7438,2.1445],[-77.8401,2.1772],[-77.8594,2.2374],[-77.9488,2.382],[-77.9317,2.467],[-77.9527,2.5557],[-78.0739,2.6468]]],[[[-77.8061,2.6621],[-77.7541,2.618],[-77.7591,2.6031],[-77.8017,2.614],[-77.8471,2.6484],[-77.8807,2.6962],[-77.8826,2.7246],[-77.8601,2.7099],[-77.8471,2.7241],[-77.8061,2.6621]]],[[[-77.9023,2.6962],[-77.8505,2.6381],[-77.785,2.5938],[-77.8399,2.5773],[-77.8881,2.5938],[-77.8675,2.6398],[-77.9141,2.6587],[-77.9164,2.6972],[-77.9023,2.6962]]],[[[-78.1866,2.9904],[-78.1643,3.0016],[-78.1671,2.9597],[-78.1932,2.9336],[-78.2203,2.9336],[-78.1866,2.9904]]]]}},{"type":"Feature","id":"Cesar","properties":{"id":"Cesar","iso_code":"CO-CES","name":"Cesar","name_full":"Cesar","name_ja":"セサール県","center_lonlat":[-73.5243,9.5303]},"geometry":{"type":"Polygon","coordinates":[[[-72.9152,10.4282],[-72.9356,10.1752],[-72.9877,9.9994],[-72.997,9.9007],[-72.9776,9.8381],[-72.9855,9.8122],[-73.0719,9.6641],[-73.1077,9.578],[-73.1784,9.523],[-73.2774,9.3618],[-73.3244,9.2559],[-73.3908,9.1945],[-73.3911,9.1728],[-73.3636,9.165],[-73.417,9.1507],[-73.4366,9.1163],[-73.4478,8.8655],[-73.4267,8.7819],[-73.4764,8.7365],[-73.4795,8.706],[-73.5471,8.645],[-73.5622,8.5879],[-73.4918,8.4622],[-73.5292,8.3855],[-73.4687,8.3568],[-73.462,8.3284],[-73.4063,8.3739],[-73.4199,8.4555],[-73.3745,8.4531],[-73.3567,8.4392],[-73.3671,8.3327],[-73.4131,8.2062],[-73.4086,8.1276],[-73.3798,8.0847],[-73.3755,8.0299],[-73.3627,8.0162],[-73.3194,8.0118],[-73.2893,7.9857],[-73.287,7.9604],[-73.3123,7.9192],[-73.3506,7.8965],[-73.3605,7.8007],[-73.4327,7.7087],[-73.505,7.6793],[-73.5887,7.7335],[-73.6403,7.7452],[-73.6254,7.7345],[-73.7519,7.7409],[-73.7442,7.8307],[-73.677,7.8934],[-73.6703,7.929],[-73.6824,7.9547],[-73.7285,7.9872],[-73.779,8.098],[-73.7856,8.1615],[-73.7964,8.2129],[-73.7554,8.329],[-73.7674,8.3586],[-73.7547,8.3887],[-73.7622,8.4594],[-73.7916,8.5222],[-73.7999,8.5912],[-73.8296,8.6436],[-73.8311,8.7092],[-73.8079,8.7667],[-73.8076,8.8166],[-73.8704,8.8877],[-73.7998,9.0556],[-73.855,9.118],[-73.8787,9.1845],[-73.9585,9.2029],[-73.9557,9.295],[-73.9947,9.3423],[-74.001,9.3991],[-74.1371,9.4982],[-74.0595,9.5744],[-74.0271,9.5912],[-73.8761,9.5693],[-73.8258,9.5972],[-73.8007,9.5778],[-73.7842,9.5975],[-73.8427,9.7398],[-73.8418,9.7899],[-73.8948,9.8373],[-73.9526,9.9152],[-74.008,9.9583],[-74.0662,10.0538],[-74.0691,10.0795],[-74.0505,10.1699],[-73.9202,10.3572],[-73.8935,10.3733],[-73.7705,10.3912],[-73.6914,10.4435],[-73.6554,10.4501],[-73.6375,10.4811],[-73.5709,10.5124],[-73.5976,10.549],[-73.5996,10.6166],[-73.6141,10.6505],[-73.5637,10.744],[-73.5897,10.7633],[-73.6456,10.7711],[-73.6058,10.8455],[-73.4522,10.8663],[-73.285,10.8525],[-73.2545,10.8101],[-73.2499,10.7339],[-73.1235,10.6785],[-73.0752,10.63],[-73.1251,10.5272],[-73.1813,10.4566],[-73.1515,10.4367],[-73.1396,10.4044],[-73.0777,10.4151],[-73.0126,10.4009],[-72.9152,10.4282]]]}},{"type":"Feature","id":"Choco","properties":{"id":"Choco","iso_code":"CO-CHO","name":"Choco","name_full":"Chocó","name_ja":"チョコ県","center_lonlat":[-76.9449,5.9863]},"geometry":{"type":"MultiPolygon","coordinates":[[[[-76.9855,8.2562],[-76.9605,8.1696],[-76.9599,8.0652],[-77.0035,7.9994],[-77.0217,7.8985],[-77.0934,7.8371],[-77.1202,7.8424],[-77.1133,7.7884],[-77.1264,7.7809],[-76.9809,7.6392],[-76.8769,7.5654],[-76.6925,7.3544],[-76.6462,7.3213],[-76.5979,7.3122],[-76.5429,7.267],[-76.5083,7.1863],[-76.5053,7.0744],[-76.5461,6.991],[-76.704,7.0267],[-76.7969,7.0157],[-76.8314,6.9997],[-76.8331,6.9778],[-76.8023,6.9268],[-76.8018,6.8745],[-76.8362,6.8406],[-76.8833,6.8446],[-76.9728,6.8102],[-76.9666,6.7524],[-76.9488,6.732],[-76.9699,6.7047],[-76.9449,6.7022],[-76.9322,6.6724],[-76.9057,6.6936],[-76.9011,6.65],[-76.8663,6.6398],[-76.8686,6.625],[-76.8874,6.6302],[-76.8961,6.6145],[-76.8932,6.5822],[-76.8663,6.5818],[-76.8526,6.5402],[-76.7881,6.4835],[-76.8033,6.4515],[-76.7844,6.4378],[-76.8055,6.4235],[-76.7887,6.3957],[-76.798,6.3689],[-76.7844,6.3627],[-76.799,6.3362],[-76.798,6.3006],[-76.7707,6.2869],[-76.7137,6.1784],[-76.6492,6.1586],[-76.3498,6.1922],[-76.2772,6.1873],[-76.2582,6.174],[-76.217,6.0348],[-76.1887,5.9985],[-76.1113,5.9756],[-76.1051,5.93],[-76.1356,5.8372],[-76.1236,5.7886],[-76.0876,5.7278],[-76.0979,5.6434],[-76.0425,5.5773],[-76.0802,5.5376],[-76.0933,5.4554],[-76.1656,5.4087],[-76.1829,5.3519],[-76.1799,5.3087],[-76.0976,5.175],[-76.0897,5.1099],[-76.075,5.0843],[-76.0759,5.0357],[-76.1411,4.97],[-76.1695,4.8894],[-76.2985,4.7641],[-76.3129,4.7258],[-76.3033,4.6999],[-76.3169,4.679],[-76.4273,4.5817],[-76.4503,4.5143],[-76.4423,4.4664],[-76.4557,4.4207],[-76.5037,4.3962],[-76.5457,4.3948],[-76.5283,4.3529],[-76.496,4.32],[-76.4965,4.2376],[-76.4396,4.2006],[-76.4733,4.1559],[-76.5208,4.137],[-76.5459,4.1105],[-76.575,4.0558],[-76.6543,4.0633],[-76.7304,3.9986],[-76.7614,3.9959],[-76.8226,4.0298],[-76.8927,4.0419],[-76.9568,4.1226],[-76.9873,4.124],[-77.0182,4.1016],[-77.0658,4.1039],[-77.1555,4.1829],[-77.2212,4.1681],[-77.2445,4.1909],[-77.2544,4.2422],[-77.2363,4.2653],[-77.3365,4.2687],[-77.3872,4.3472],[-77.359,4.3872],[-77.3451,4.4455],[-77.3127,4.4714],[-77.3332,4.4714],[-77.3196,4.5466],[-77.3189,4.6837],[-77.299,4.6557],[-77.2916,4.6821],[-77.295,4.6973],[-77.3188,4.7097],[-77.3258,4.7525],[-77.2858,4.737],[-77.258,4.7041],[-77.3122,4.7872],[-77.3189,4.8209],[-77.34,4.8134],[-77.3486,4.8542],[-77.3729,5.1492],[-77.3462,5.2448],[-77.3606,5.2535],[-77.3592,5.2973],[-77.373,5.3157],[-77.381,5.3751],[-77.3957,5.3703],[-77.4086,5.3862],[-77.4083,5.403],[-77.381,5.403],[-77.4083,5.4645],[-77.4356,5.4713],[-77.4621,5.501],[-77.5013,5.5024],[-77.5106,5.4849],[-77.5227,5.4956],[-77.5522,5.4918],[-77.5592,5.5031],[-77.5262,5.5302],[-77.4908,5.5948],[-77.4498,5.6016],[-77.4049,5.6284],[-77.3556,5.6079],[-77.3332,5.6153],[-77.3189,5.663],[-77.3017,5.6625],[-77.2611,5.7009],[-77.2459,5.7342],[-77.2464,5.7873],[-77.3127,5.8964],[-77.353,6.0262],[-77.3667,5.9989],[-77.3828,6.0426],[-77.4844,6.1888],[-77.4834,6.2943],[-77.4766,6.3005],[-77.4151,6.2391],[-77.381,6.3005],[-77.3779,6.3518],[-77.3993,6.3876],[-77.3735,6.4042],[-77.3605,6.3899],[-77.3599,6.4192],[-77.381,6.4445],[-77.3475,6.5216],[-77.3454,6.5661],[-77.4151,6.6363],[-77.4112,6.6938],[-77.4626,6.7207],[-77.4862,6.7151],[-77.5175,6.6848],[-77.5106,6.6711],[-77.538,6.6636],[-77.5318,6.7121],[-77.5933,6.8281],[-77.6711,6.8797],[-77.6963,6.8492],[-77.6922,6.9473],[-77.6527,6.9766],[-77.665,7.0156],[-77.6963,7.0745],[-77.6888,7.0472],[-77.7869,7.1489],[-77.8256,7.1628],[-77.8539,7.1918],[-77.8471,7.1981],[-77.8958,7.2351],[-77.8202,7.4765],[-77.7963,7.4713],[-77.7551,7.4861],[-77.7312,7.5303],[-77.7658,7.6265],[-77.7642,7.7057],[-77.7402,7.7189],[-77.6799,7.671],[-77.6748,7.6447],[-77.6255,7.5874],[-77.6133,7.5375],[-77.6027,7.5261],[-77.58,7.5284],[-77.5093,7.5941],[-77.3397,7.7072],[-77.3799,7.7744],[-77.3004,7.9021],[-77.2361,7.9292],[-77.1633,7.9393],[-77.2012,7.982],[-77.2311,8.0987],[-77.3169,8.2508],[-77.3632,8.2721],[-77.3744,8.2893],[-77.3913,8.3935],[-77.4223,8.4564],[-77.4887,8.4736],[-77.4804,8.5262],[-77.4291,8.5926],[-77.434,8.6283],[-77.3749,8.6509],[-77.3667,8.6784],[-77.3517,8.6693],[-77.3414,8.6325],[-77.2988,8.5743],[-77.2747,8.4958],[-77.1444,8.4211],[-77.0528,8.2763],[-77.0316,8.26],[-76.9855,8.2562]]],[[[-77.353,4.2653],[-77.3324,4.255],[-77.2717,4.2585],[-77.303,4.2176],[-77.3332,4.2448],[-77.3816,4.2316],[-77.4663,4.2374],[-77.5045,4.2106],[-77.5455,4.1964],[-77.5495,4.2048],[-77.5443,4.2316],[-77.4997,4.261],[-77.4356,4.2585],[-77.4629,4.2858],[-77.4281,4.2858],[-77.452,4.2917],[-77.4151,4.3205],[-77.4356,4.3273],[-77.4281,4.341],[-77.3861,4.3146],[-77.353,4.2653]]],[[[-77.4352,4.1528],[-77.4267,4.1804],[-77.3776,4.1936],[-77.3601,4.2211],[-77.3365,4.2206],[-77.3131,4.1989],[-77.2852,4.2113],[-77.2837,4.193],[-77.2986,4.1788],[-77.3502,4.1947],[-77.3946,4.1597],[-77.4352,4.1528]]]]}},{"type":"Feature","id":"Cordoba","properties":{"id":"Cordoba","iso_code":"CO-COR","name":"Cordoba","name_full":"Córdoba","name_ja":"コルドバ県","center_lonlat":[-75.8004,8.355]},"geometry":{"type":"Polygon","coordinates":[[[-76.4448,8.8699],[-76.4282,8.8845],[-76.4355,8.9026],[-76.4269,8.9105],[-76.324,8.9414],[-76.2643,8.9963],[-76.255,9.0708],[-76.1926,9.1349],[-76.1681,9.247],[-76.1169,9.2658],[-76.0961,9.3332],[-75.9769,9.3825],[-75.9533,9.4023],[-75.9438,9.4407],[-75.91,9.4282],[-75.811,9.4435],[-75.7982,9.4182],[-75.8267,9.426],[-75.8529,9.4121],[-75.8249,9.4121],[-75.8119,9.3915],[-75.762,9.4218],[-75.6983,9.4169],[-75.6991,9.3541],[-75.5809,9.3058],[-75.5485,9.2679],[-75.4653,9.238],[-75.458,9.1949],[-75.4302,9.1528],[-75.2128,9.0416],[-75.2224,9.0231],[-75.1977,8.9834],[-75.2092,8.9238],[-75.2968,8.8967],[-75.3566,8.8418],[-75.3599,8.8034],[-75.3408,8.7413],[-75.3445,8.6786],[-75.3053,8.4912],[-75.2205,8.4401],[-75.1835,8.4019],[-75.0781,8.4531],[-74.9433,8.4863],[-74.886,8.4413],[-74.8579,8.3951],[-74.8094,8.3507],[-74.805,8.2799],[-74.801,8.2496],[-74.8349,8.1887],[-74.8862,8.1542],[-74.9426,8.0726],[-75.0174,8.0747],[-75.0609,8.0591],[-75.1144,8.0676],[-75.2288,8.046],[-75.3617,7.8838],[-75.4586,7.8078],[-75.4903,7.7386],[-75.5467,7.6895],[-75.5654,7.6063],[-75.59,7.5695],[-75.7404,7.52],[-75.7694,7.4989],[-75.857,7.3673],[-76.4078,7.3804],[-76.4976,7.6],[-76.5051,7.7407],[-76.4683,7.8748],[-76.4326,7.9313],[-76.4195,7.9791],[-76.4194,8.0987],[-76.3179,8.2809],[-76.2173,8.4102],[-76.2137,8.4529],[-76.2291,8.5776],[-76.2775,8.6415],[-76.3463,8.6748],[-76.3888,8.7389],[-76.4123,8.8395],[-76.4448,8.8699]]]}},{"type":"Feature","id":"Cundinamarca","properties":{"id":"Cundinamarca","iso_code":"CO-CUN","name":"Cundinamarca","name_full":"Cundinamarca","name_ja":"クンディナマルカ県","center_lonlat":[-74.1057,4.8234]},"geometry":{"type":"Polygon","coordinates":[[[-74.4936,3.704],[-74.5635,3.7721],[-74.5513,3.8456],[-74.5114,3.937],[-74.5318,3.9843],[-74.5248,4.0522],[-74.4829,4.1105],[-74.4802,4.1334],[-74.5239,4.2425],[-74.5553,4.2693],[-74.5814,4.2726],[-74.617,4.2569],[-74.6546,4.2092],[-74.6993,4.2186],[-74.7321,4.2479],[-74.7492,4.2425],[-74.784,4.2836],[-74.8807,4.2691],[-74.8912,4.2796],[-74.8058,4.5046],[-74.818,4.5875],[-74.8044,4.5915],[-74.818,4.608],[-74.7907,4.6524],[-74.8112,4.6701],[-74.8279,4.7222],[-74.7875,4.7509],[-74.7672,4.7869],[-74.7708,4.8631],[-74.7497,4.8891],[-74.7628,4.9642],[-74.7286,4.9854],[-74.7497,5.0263],[-74.7355,5.1082],[-74.7487,5.2908],[-74.6734,5.427],[-74.675,5.4558],[-74.6604,5.4583],[-74.6684,5.4923],[-74.6604,5.526],[-74.6801,5.5396],[-74.6407,5.5629],[-74.6604,5.5744],[-74.6374,5.6442],[-74.6519,5.66],[-74.6318,5.7025],[-74.6461,5.7184],[-74.6461,5.7525],[-74.5339,5.7906],[-74.4406,5.7672],[-74.3391,5.8257],[-74.3128,5.7932],[-74.2884,5.6816],[-74.3135,5.6138],[-74.2569,5.5447],[-74.2499,5.4908],[-74.2088,5.4842],[-74.1475,5.4529],[-74.098,5.4556],[-74.0887,5.4197],[-74.0001,5.3743],[-73.9348,5.4342],[-73.9067,5.442],[-73.8992,5.4819],[-73.8216,5.5585],[-73.7983,5.564],[-73.7915,5.508],[-73.7393,5.4827],[-73.7181,5.4876],[-73.6798,5.4602],[-73.6538,5.4617],[-73.6417,5.4307],[-73.5901,5.3856],[-73.5848,5.3046],[-73.5216,5.2373],[-73.5251,5.211],[-73.4931,5.1418],[-73.4915,5.0942],[-73.4759,5.0659],[-73.5176,5.0238],[-73.5143,4.9912],[-73.5453,4.9324],[-73.5233,4.8884],[-73.4409,4.8867],[-73.4027,4.8715],[-73.3658,4.8198],[-73.3683,4.7977],[-73.3291,4.7838],[-73.2964,4.7298],[-73.2468,4.7337],[-73.2284,4.7236],[-73.2181,4.6776],[-73.1545,4.6608],[-73.1132,4.664],[-73.0925,4.6787],[-73.0733,4.7285],[-73.053,4.7348],[-73.1377,4.2298],[-73.198,4.2574],[-73.2206,4.283],[-73.3657,4.3223],[-73.4287,4.3157],[-73.4869,4.2857],[-73.5277,4.2999],[-73.5522,4.3207],[-73.5811,4.4213],[-73.6224,4.4838],[-73.6546,4.4896],[-73.6973,4.5213],[-73.8107,4.421],[-73.7874,4.2935],[-73.764,4.2615],[-73.7519,4.2022],[-73.8144,4.204],[-73.9192,4.1543],[-73.9599,4.1114],[-74.0226,4.0941],[-74.1233,4.0051],[-74.1544,4.0072],[-74.1335,4.0879],[-74.0939,4.142],[-74.153,4.2487],[-74.1493,4.2771],[-74.1077,4.3422],[-74.1164,4.4303],[-74.035,4.5534],[-74.0137,4.5665],[-73.995,4.6322],[-74.0143,4.6309],[-74.0312,4.6506],[-74.0136,4.6815],[-74.0107,4.8154],[-74.0814,4.8355],[-74.0847,4.8066],[-74.1111,4.7843],[-74.1343,4.7309],[-74.1749,4.699],[-74.1661,4.6676],[-74.2247,4.629],[-74.1888,4.582],[-74.1793,4.5008],[-74.2164,4.3992],[-74.1915,4.3943],[-74.214,4.2561],[-74.2506,4.1965],[-74.2625,4.1095],[-74.2727,4.0985],[-74.3281,4.1261],[-74.342,4.1125],[-74.3716,4.0335],[-74.3613,3.9452],[-74.3701,3.9091],[-74.4214,3.805],[-74.4936,3.704]]]}},{"type":"Feature","id":"Guainia","properties":{"id":"Guainia","iso_code":"CO-GUA","name":"Guainia","name_full":"Guainía","name_ja":"グアイニア県","center_lonlat":[-68.8161,2.7282]},"geometry":{"type":"Polygon","coordinates":[[[-69.8412,1.7076],[-69.9216,1.7406],[-69.9999,1.755],[-70.0502,1.781],[-70.1566,1.8693],[-70.162,1.9023],[-70.119,2.0071],[-70.105,2.1012],[-70.103,2.1222],[-69.9999,2.1977],[-69.9945,2.2134],[-70.0514,2.2868],[-70.1899,2.2519],[-70.2373,2.2656],[-70.2846,2.2583],[-70.3043,2.2264],[-70.4073,2.2633],[-70.4929,2.2448],[-70.5029,2.2759],[-70.5907,2.3014],[-70.6223,2.3276],[-70.6761,2.4379],[-70.7471,2.529],[-70.9094,2.6019],[-70.8957,2.6209],[-70.4997,2.7845],[-70.3591,2.8608],[-70.3333,2.91],[-70.2815,2.942],[-70.276,2.9837],[-70.2916,3.0303],[-70.2656,3.0451],[-70.2634,3.0629],[-70.3085,3.0839],[-70.2485,3.1594],[-70.203,3.1962],[-70.1762,3.1808],[-70.164,3.1863],[-70.1599,3.2277],[-70.1446,3.202],[-70.1293,3.2043],[-70.1416,3.2764],[-70.116,3.2902],[-70.1511,3.3479],[-70.1208,3.3915],[-70.1197,3.4166],[-70.0686,3.4246],[-70.0549,3.4845],[-70.0828,3.5255],[-70.0109,3.5286],[-69.963,3.505],[-69.9263,3.5559],[-69.8941,3.5664],[-69.8667,3.5306],[-69.8494,3.559],[-69.722,3.5686],[-69.6581,3.5325],[-69.6487,3.5947],[-69.6114,3.6188],[-69.6124,3.6863],[-69.523,3.6969],[-69.4743,3.7157],[-69.4307,3.6861],[-69.3463,3.7128],[-69.3015,3.7001],[-69.2924,3.7266],[-69.2795,3.7289],[-69.251,3.7012],[-69.2208,3.7004],[-69.1911,3.6799],[-69.1835,3.6521],[-69.1401,3.6745],[-69.1058,3.6558],[-69.1089,3.6279],[-69.0903,3.6094],[-69.0406,3.6552],[-68.9624,3.6409],[-68.9501,3.6491],[-68.9516,3.6889],[-68.9378,3.7073],[-68.9073,3.6886],[-68.8483,3.7098],[-68.8278,3.6894],[-68.8045,3.6901],[-68.8101,3.728],[-68.7977,3.7378],[-68.7442,3.7362],[-68.7396,3.7725],[-68.6888,3.7978],[-68.6432,3.7818],[-68.6121,3.7845],[-68.5796,3.8081],[-68.5464,3.7959],[-68.5049,3.8445],[-68.4385,3.8731],[-68.4513,3.9002],[-68.4449,3.9126],[-68.3725,3.9236],[-68.3514,3.9685],[-68.3684,3.9949],[-68.3697,4.0121],[-68.3555,4.0199],[-68.2679,4.0027],[-68.2524,3.9432],[-68.1881,3.9732],[-68.1773,3.9609],[-68.1835,3.9221],[-68.1566,3.9277],[-68.0927,4.0054],[-68.0487,3.9559],[-68.0134,3.9985],[-67.9991,3.9364],[-67.9507,3.9575],[-67.877,3.9227],[-67.8385,3.9243],[-67.7971,3.9538],[-67.7491,4.0216],[-67.7169,4.0399],[-67.7016,4.012],[-67.6939,3.9286],[-67.6444,3.8346],[-67.6318,3.7619],[-67.5948,3.7309],[-67.5374,3.7355],[-67.4998,3.7179],[-67.4714,3.6801],[-67.4039,3.5045],[-67.3046,3.4257],[-67.3095,3.3839],[-67.3958,3.2666],[-67.4522,3.2437],[-67.8386,2.8861],[-67.8553,2.8582],[-67.8559,2.7898],[-67.8233,2.8273],[-67.751,2.8421],[-67.6904,2.8063],[-67.6266,2.8134],[-67.5943,2.7761],[-67.5756,2.6911],[-67.5003,2.6753],[-67.4709,2.6271],[-67.3406,2.5105],[-67.3254,2.4746],[-67.1897,2.3944],[-67.1737,2.3364],[-67.2177,2.2845],[-67.2173,2.2661],[-67.1778,2.1545],[-67.121,2.1191],[-67.1146,2.103],[-67.1112,2.0488],[-67.1326,1.9908],[-67.0873,1.9388],[-66.9809,1.6659],[-66.9742,1.58],[-66.9336,1.5017],[-66.9327,1.4246],[-66.9017,1.3945],[-66.8835,1.3499],[-66.9009,1.289],[-66.8751,1.2225],[-67.0861,1.176],[-67.0982,1.2534],[-67.0736,1.5412],[-67.1172,1.7098],[-67.1557,1.7881],[-67.2648,1.9325],[-67.3406,2.0901],[-67.3658,2.115],[-67.4246,2.1381],[-67.5103,2.1074],[-67.593,2.0548],[-67.8208,1.784],[-67.9288,1.7413],[-67.9982,1.75],[-68.0318,1.7775],[-68.1111,1.9424],[-68.1771,1.9732],[-68.1922,2.0149],[-68.2802,1.8294],[-68.2483,1.8221],[-68.239,1.7703],[-68.1935,1.7637],[-68.1888,1.7358],[-68.1633,1.7213],[-69.3524,1.7202],[-69.542,1.7727],[-69.5803,1.7702],[-69.6491,1.7389],[-69.7292,1.739],[-69.8075,1.7074],[-69.8412,1.7076]]]}},{"type":"Feature","id":"Guaviare","properties":{"id":"Guaviare","iso_code":"CO-GUV","name":"Guaviare","name_full":"Guaviare","name_ja":"グアビアーレ県","center_lonlat":[-72.1194,1.9271]},"geometry":{"type":"Polygon","coordinates":[[[-73.6751,1.6245],[-73.6611,1.642],[-73.6603,2.2534],[-73.6546,2.2937],[-73.6247,2.3396],[-73.6266,2.3664],[-73.6067,2.3826],[-73.5927,2.3853],[-73.5775,2.3612],[-73.5304,2.3831],[-73.5103,2.3524],[-73.4551,2.3472],[-73.4447,2.3859],[-73.4269,2.331],[-73.3955,2.3441],[-73.3767,2.3294],[-73.3634,2.3538],[-73.3463,2.3491],[-73.3441,2.3286],[-73.3177,2.3472],[-73.2504,2.3438],[-73.2413,2.3503],[-73.2471,2.3719],[-73.2153,2.3884],[-73.1732,2.3851],[-73.1448,2.3617],[-73.1244,2.3942],[-73.1024,2.3821],[-73.0613,2.4131],[-73.0206,2.4113],[-72.9524,2.4636],[-72.9305,2.4678],[-72.9376,2.5136],[-72.9062,2.5476],[-72.8199,2.5967],[-72.7903,2.601],[-72.7623,2.5659],[-72.7372,2.5595],[-72.7033,2.6075],[-72.6704,2.6139],[-72.6576,2.6078],[-72.642,2.5628],[-72.61,2.6205],[-72.5767,2.5796],[-72.5734,2.6294],[-72.5357,2.6416],[-72.5537,2.6754],[-72.5073,2.6652],[-72.4748,2.6879],[-72.4219,2.6942],[-72.3665,2.7381],[-72.3098,2.7167],[-72.2951,2.7508],[-72.2837,2.7524],[-72.2523,2.6976],[-72.2478,2.7549],[-72.1935,2.773],[-72.1924,2.8479],[-72.121,2.8671],[-72.0788,2.8273],[-71.9804,2.7991],[-71.8373,2.8309],[-71.792,2.8612],[-71.7593,2.8167],[-71.7432,2.882],[-71.6831,2.8401],[-71.6495,2.8634],[-71.6437,2.8193],[-71.6226,2.8157],[-71.5615,2.8557],[-71.5104,2.8631],[-71.4687,2.8523],[-71.4434,2.8763],[-71.3824,2.8459],[-71.3569,2.8753],[-71.3296,2.8581],[-71.3035,2.9054],[-71.2647,2.8654],[-71.2251,2.8551],[-71.1691,2.8841],[-71.1281,2.8644],[-71.1118,2.877],[-71.0637,2.8686],[-71.041,2.8732],[-70.9865,2.8547],[-70.9801,2.813],[-70.9617,2.866],[-70.9236,2.8285],[-70.9041,2.8576],[-70.8908,2.8458],[-70.8896,2.8159],[-70.8486,2.8288],[-70.8113,2.792],[-70.7482,2.8139],[-70.7348,2.7825],[-70.6864,2.8234],[-70.6979,2.8633],[-70.6845,2.8694],[-70.6502,2.8323],[-70.6302,2.8458],[-70.5928,2.8419],[-70.4997,2.7845],[-70.8957,2.6209],[-70.9094,2.6019],[-70.7471,2.529],[-70.6761,2.4379],[-70.6223,2.3276],[-70.5907,2.3014],[-70.5029,2.2759],[-70.4929,2.2448],[-70.4073,2.2633],[-70.3043,2.2264],[-70.2846,2.2583],[-70.2373,2.2656],[-70.1899,2.2519],[-70.0514,2.2868],[-69.9945,2.2134],[-69.9999,2.1977],[-70.103,2.1222],[-70.105,2.1012],[-70.2017,2.0312],[-70.4445,1.9884],[-70.4993,1.9518],[-70.6553,1.9043],[-70.702,1.9017],[-70.7454,1.918],[-70.9045,1.9186],[-70.9677,1.8533],[-71.1598,1.7562],[-71.2638,1.6734],[-71.2926,1.6796],[-71.3749,1.7356],[-71.3908,1.7322],[-71.4052,1.5987],[-71.441,1.548],[-71.5524,1.262],[-71.5531,1.2165],[-71.5051,1.1151],[-71.5278,1.1165],[-71.5417,1.1578],[-71.5529,1.161],[-71.5603,1.1245],[-71.5822,1.1223],[-71.5869,1.0819],[-71.6099,1.0425],[-71.6731,0.982],[-71.7247,0.9866],[-71.7567,0.9713],[-71.7865,0.9169],[-72.0358,0.664],[-72.078,0.6692],[-72.0984,0.7041],[-72.1525,0.7277],[-72.2381,0.7366],[-72.2641,0.7847],[-72.3115,0.8135],[-72.3122,0.8836],[-72.3471,0.8768],[-72.3624,0.933],[-72.4029,0.9473],[-72.4281,1.0424],[-72.4741,1.0851],[-72.5445,1.1036],[-72.7032,1.2039],[-72.7386,1.1973],[-72.7607,1.1534],[-72.8182,1.1978],[-72.8579,1.174],[-72.885,1.1142],[-72.8931,1.0466],[-72.9382,1.0247],[-73.0332,0.9322],[-73.0829,0.9243],[-73.1353,0.9415],[-73.1757,0.9685],[-73.199,1.0094],[-73.2473,1.0283],[-73.4257,1.2094],[-73.4432,1.3023],[-73.4969,1.3812],[-73.5639,1.4368],[-73.6652,1.584],[-73.6751,1.6245]]]}},{"type":"Feature","id":"Huila","properties":{"id":"Huila","iso_code":"CO-HUI","name":"Huila","name_full":"Huila","name_ja":"ウイラ県","center_lonlat":[-75.6161,2.5433]},"geometry":{"type":"Polygon","coordinates":[[[-74.8975,2.9507],[-74.9768,2.8922],[-75.0529,2.7682],[-75.0496,2.7244],[-75.0035,2.6851],[-75.0032,2.6382],[-75.1224,2.5341],[-75.1556,2.5237],[-75.2079,2.5467],[-75.2314,2.5313],[-75.306,2.3451],[-75.4215,2.2474],[-75.5512,2.0329],[-75.6264,1.9646],[-75.841,1.6806],[-75.9806,1.5637],[-76.1453,1.5755],[-76.3818,1.6591],[-76.5041,1.8231],[-76.5769,1.8797],[-76.5977,1.9166],[-76.6001,1.9718],[-76.565,2.0145],[-76.567,2.1],[-76.5508,2.1216],[-76.5366,2.1291],[-76.4554,2.1128],[-76.4168,2.1314],[-76.4215,2.1638],[-76.3965,2.1862],[-76.3573,2.2715],[-76.3926,2.3668],[-76.3789,2.42],[-76.3487,2.4132],[-76.2777,2.3563],[-76.2337,2.3518],[-76.1544,2.3727],[-76.0501,2.4206],[-75.9662,2.491],[-75.8775,2.4266],[-75.8445,2.4281],[-75.7953,2.4747],[-75.8234,2.5304],[-75.781,2.6696],[-75.806,2.72],[-76.0244,2.9119],[-76.0312,2.9295],[-76.0011,2.9499],[-75.974,2.9482],[-75.9339,2.919],[-75.8547,2.8909],[-75.8125,2.8919],[-75.7816,2.9482],[-75.6275,3.0903],[-75.5696,3.2333],[-75.4923,3.3473],[-75.4776,3.3605],[-75.4372,3.3589],[-75.387,3.3787],[-75.3553,3.4087],[-75.3161,3.4118],[-75.2578,3.3736],[-75.2133,3.4101],[-75.178,3.3887],[-75.1776,3.4055],[-75.1426,3.4321],[-75.0356,3.4342],[-75.0608,3.3643],[-75.0678,3.3014],[-74.9661,3.2788],[-74.9089,3.2899],[-74.7771,3.4414],[-74.7745,3.5148],[-74.7378,3.5524],[-74.728,3.6087],[-74.5635,3.7721],[-74.4936,3.704],[-74.5207,3.621],[-74.6159,3.4851],[-74.6517,3.26],[-74.6814,3.2104],[-74.8246,3.1074],[-74.8694,3.0343],[-74.8975,2.9507]]]}},{"type":"Feature","id":"La Guajira","properties":{"id":"La Guajira","iso_code":"CO-LAG","name":"La Guajira","name_full":"La Guajira","name_ja":"ラ・グアヒーラ県","center_lonlat":[-72.4335,11.4913]},"geometry":{"type":"Polygon","coordinates":[[[-72.9152,10.4282],[-73.0126,10.4009],[-73.0777,10.4151],[-73.1396,10.4044],[-73.1515,10.4367],[-73.1813,10.4566],[-73.1251,10.5272],[-73.0752,10.63],[-73.1235,10.6785],[-73.2499,10.7339],[-73.2545,10.8101],[-73.285,10.8525],[-73.4522,10.8663],[-73.6058,10.8455],[-73.6501,11.0098],[-73.6383,11.0492],[-73.6378,11.1392],[-73.5818,11.1915],[-73.5656,11.2771],[-73.4025,11.2772],[-73.2924,11.294],[-73.0548,11.494],[-72.934,11.5568],[-72.7413,11.708],[-72.6439,11.7333],[-72.598,11.7619],[-72.5775,11.756],[-72.5116,11.7893],[-72.4335,11.7961],[-72.2631,11.886],[-72.2322,11.9197],[-72.2137,11.9748],[-72.1387,12.1046],[-72.1454,12.2008],[-72.1728,12.2213],[-72.1705,12.2343],[-72.1387,12.256],[-72.1075,12.245],[-72.0049,12.2629],[-71.9696,12.2551],[-72.0151,12.194],[-71.9673,12.153],[-71.9376,12.1664],[-71.9144,12.2028],[-71.868,12.2082],[-71.8711,12.256],[-71.9053,12.2827],[-71.9468,12.269],[-71.9605,12.2827],[-71.8779,12.3448],[-71.8712,12.3626],[-71.8291,12.3762],[-71.8091,12.3721],[-71.8431,12.3381],[-71.8229,12.3198],[-71.8028,12.3237],[-71.8032,12.3359],[-71.7511,12.3562],[-71.7408,12.3857],[-71.7518,12.3908],[-71.7325,12.4102],[-71.7134,12.4137],[-71.7198,12.396],[-71.6936,12.3653],[-71.6916,12.3934],[-71.6309,12.4274],[-71.6791,12.417],[-71.6588,12.4404],[-71.6936,12.4274],[-71.6861,12.4547],[-71.7345,12.4137],[-71.7305,12.4381],[-71.6973,12.4643],[-71.5113,12.4433],[-71.4391,12.3962],[-71.3902,12.3933],[-71.2423,12.3277],[-71.1139,12.0944],[-71.1137,12.0524],[-71.1381,12.0158],[-71.2541,11.937],[-71.2988,11.9202],[-71.3275,11.85],[-71.3576,11.8508],[-71.4097,11.8123],[-71.9906,11.6491],[-72.2671,11.1549],[-72.3413,11.1621],[-72.4993,11.1208],[-72.5075,11.083],[-72.5421,11.0411],[-72.5765,10.9574],[-72.683,10.8556],[-72.7544,10.6749],[-72.843,10.5606],[-72.8614,10.5081],[-72.9152,10.4282]]]}},{"type":"Feature","id":"Magdalena","properties":{"id":"Magdalena","iso_code":"CO-MAG","name":"Magdalena","name_full":"Magdalena","name_ja":"マグダレーナ県","center_lonlat":[-74.2566,10.2352]},"geometry":{"type":"Polygon","coordinates":[[[-74.8475,11.0877],[-74.8444,11.1097],[-74.523,10.9959],[-74.4035,10.9829],[-74.2978,10.9915],[-74.3618,10.9717],[-74.4916,10.9795],[-74.5174,10.9267],[-74.4818,10.8508],[-74.525,10.8834],[-74.5364,10.8719],[-74.5814,10.8881],[-74.597,10.8678],[-74.6064,10.8037],[-74.5985,10.7819],[-74.5846,10.7869],[-74.5643,10.831],[-74.5609,10.8134],[-74.5438,10.8092],[-74.5438,10.762],[-74.5123,10.756],[-74.4954,10.7819],[-74.5156,10.7782],[-74.5233,10.803],[-74.5096,10.8445],[-74.4897,10.8411],[-74.4566,10.748],[-74.4021,10.748],[-74.3622,10.7757],[-74.2804,10.9897],[-74.2181,11.0791],[-74.236,11.1251],[-74.2336,11.2412],[-74.1875,11.317],[-74.1518,11.3197],[-74.1534,11.3437],[-74.1391,11.3237],[-74.1261,11.3437],[-74.1124,11.3374],[-74.1124,11.3579],[-74.0839,11.3306],[-74.0654,11.3518],[-74.0497,11.3437],[-74.038,11.3564],[-74.0046,11.3553],[-73.951,11.3203],[-73.826,11.2768],[-73.7051,11.2683],[-73.5656,11.2771],[-73.5818,11.1915],[-73.6378,11.1392],[-73.6383,11.0492],[-73.6501,11.0098],[-73.6058,10.8455],[-73.6456,10.7711],[-73.5897,10.7633],[-73.5637,10.744],[-73.6141,10.6505],[-73.5996,10.6166],[-73.5976,10.549],[-73.5709,10.5124],[-73.6375,10.4811],[-73.6554,10.4501],[-73.6914,10.4435],[-73.7705,10.3912],[-73.8935,10.3733],[-73.9202,10.3572],[-74.0505,10.1699],[-74.0691,10.0795],[-74.0662,10.0538],[-74.008,9.9583],[-73.9526,9.9152],[-73.8948,9.8373],[-73.8418,9.7899],[-73.8427,9.7398],[-73.7842,9.5975],[-73.8007,9.5778],[-73.8258,9.5972],[-73.8761,9.5693],[-74.0271,9.5912],[-74.0595,9.5744],[-74.1371,9.4982],[-74.001,9.3991],[-73.9947,9.3423],[-73.9557,9.295],[-73.9585,9.2029],[-73.8787,9.1845],[-73.855,9.118],[-73.7998,9.0556],[-73.8704,8.8877],[-73.8849,8.9436],[-73.8721,8.9733],[-73.9001,8.9855],[-73.9841,8.9893],[-74.0161,9.0074],[-74.0104,9.023],[-74.0434,9.0552],[-74.0605,9.0325],[-74.0908,9.0292],[-74.1533,9.049],[-74.1415,9.0583],[-74.197,9.0931],[-74.238,9.1543],[-74.295,9.1665],[-74.3117,9.2139],[-74.3536,9.2312],[-74.4133,9.2265],[-74.4307,9.2675],[-74.4788,9.2693],[-74.5122,9.2408],[-74.5327,9.243],[-74.5571,9.2921],[-74.6132,9.337],[-74.6365,9.3822],[-74.6771,9.3947],[-74.7032,9.4296],[-74.7423,9.4183],[-74.7702,9.4531],[-74.7998,9.4486],[-74.8058,9.4868],[-74.7813,9.6313],[-74.8285,9.6858],[-74.8152,9.7687],[-74.8741,9.849],[-74.8789,9.9155],[-74.8705,9.9507],[-74.8123,9.9855],[-74.8044,10.0253],[-74.8527,10.0931],[-74.9435,10.1375],[-74.9446,10.1866],[-74.9175,10.2674],[-74.8361,10.4061],[-74.8067,10.5103],[-74.7481,10.5503],[-74.7258,10.6051],[-74.7226,10.7748],[-74.7423,10.8409],[-74.7286,10.9191],[-74.759,10.9544],[-74.7743,11.01],[-74.8475,11.0877]]]}},{"type":"Feature","id":"Meta","properties":{"id":"Meta","iso_code":"CO-MET","name":"Meta","name_full":"Meta","name_ja":"メタ県","center_lonlat":[-72.9372,3.3549]},"geometry":{"type":"Polygon","coordinates":[[[-74.8975,2.9507],[-74.8694,3.0343],[-74.8246,3.1074],[-74.6814,3.2104],[-74.6517,3.26],[-74.6159,3.4851],[-74.5207,3.621],[-74.4936,3.704],[-74.4645,3.6776],[-74.4278,3.6796],[-74.3174,3.8427],[-74.3096,3.8868],[-74.2564,3.9479],[-74.2236,4.0096],[-74.2085,4.0199],[-74.1544,4.0072],[-74.1233,4.0051],[-74.0226,4.0941],[-73.9599,4.1114],[-73.9192,4.1543],[-73.8144,4.204],[-73.7519,4.2022],[-73.764,4.2615],[-73.7874,4.2935],[-73.8107,4.421],[-73.6973,4.5213],[-73.6546,4.4896],[-73.6224,4.4838],[-73.5811,4.4213],[-73.5522,4.3207],[-73.5277,4.2999],[-73.4869,4.2857],[-73.4287,4.3157],[-73.3657,4.3223],[-73.2206,4.283],[-73.198,4.2574],[-73.1377,4.2298],[-73.053,4.7348],[-73.0406,4.6943],[-72.9946,4.6496],[-72.9266,4.5253],[-72.8371,4.4303],[-72.8126,4.4263],[-72.782,4.3711],[-72.7842,4.3507],[-72.7532,4.3488],[-72.748,4.3131],[-72.7181,4.2982],[-72.6797,4.3206],[-72.6146,4.3206],[-72.5955,4.3062],[-72.5596,4.3547],[-72.5208,4.3437],[-72.5049,4.3214],[-72.4333,4.3547],[-72.3891,4.3378],[-72.3667,4.3436],[-72.3235,4.41],[-72.1499,4.4507],[-72.0892,4.4227],[-72.0699,4.3943],[-72.0122,4.3986],[-71.8974,4.4854],[-71.8094,4.5779],[-71.6857,4.6077],[-71.565,4.682],[-71.2745,4.8066],[-71.2152,4.8156],[-71.0603,4.9194],[-71.0637,2.8686],[-71.1118,2.877],[-71.1281,2.8644],[-71.1691,2.8841],[-71.2251,2.8551],[-71.2647,2.8654],[-71.3035,2.9054],[-71.3296,2.8581],[-71.3569,2.8753],[-71.3824,2.8459],[-71.4434,2.8763],[-71.4687,2.8523],[-71.5104,2.8631],[-71.5615,2.8557],[-71.6226,2.8157],[-71.6437,2.8193],[-71.6495,2.8634],[-71.6831,2.8401],[-71.7432,2.882],[-71.7593,2.8167],[-71.792,2.8612],[-71.8373,2.8309],[-71.9804,2.7991],[-72.0788,2.8273],[-72.121,2.8671],[-72.1924,2.8479],[-72.1935,2.773],[-72.2478,2.7549],[-72.2523,2.6976],[-72.2837,2.7524],[-72.2951,2.7508],[-72.3098,2.7167],[-72.3665,2.7381],[-72.4219,2.6942],[-72.4748,2.6879],[-72.5073,2.6652],[-72.5537,2.6754],[-72.5357,2.6416],[-72.5734,2.6294],[-72.5767,2.5796],[-72.61,2.6205],[-72.642,2.5628],[-72.6576,2.6078],[-72.6704,2.6139],[-72.7033,2.6075],[-72.7372,2.5595],[-72.7623,2.5659],[-72.7903,2.601],[-72.8199,2.5967],[-72.9062,2.5476],[-72.9376,2.5136],[-72.9305,2.4678],[-72.9524,2.4636],[-73.0206,2.4113],[-73.0613,2.4131],[-73.1024,2.3821],[-73.1244,2.3942],[-73.1448,2.3617],[-73.1732,2.3851],[-73.2153,2.3884],[-73.2471,2.3719],[-73.2413,2.3503],[-73.2504,2.3438],[-73.3177,2.3472],[-73.3441,2.3286],[-73.3463,2.3491],[-73.3634,2.3538],[-73.3767,2.3294],[-73.3955,2.3441],[-73.4269,2.331],[-73.4447,2.3859],[-73.4551,2.3472],[-73.5103,2.3524],[-73.5304,2.3831],[-73.5775,2.3612],[-73.5927,2.3853],[-73.6067,2.3826],[-73.6266,2.3664],[-73.6247,2.3396],[-73.6546,2.2937],[-73.6603,2.2534],[-73.6611,1.642],[-73.6751,1.6245],[-73.7575,1.6382],[-73.9178,1.6347],[-74.5108,1.8439],[-74.5505,1.8714],[-74.6068,1.9624],[-74.6159,2.0431],[-74.5492,2.1429],[-74.5437,2.1819],[-74.6459,2.3182],[-74.6594,2.3826],[-74.5964,2.7212],[-74.6625,2.7956],[-74.7126,2.897],[-74.8975,2.9507]]]}},{"type":"Feature","id":"Narino","properties":{"id":"Narino","iso_code":"CO-NAR","name":"Narino","name_full":"Nariño","name_ja":"ナリーニョ県","center_lonlat":[-77.873,1.553]},"geometry":{"type":"MultiPolygon","coordinates":[[[[-78.0739,2.6468],[-77.9527,2.5557],[-77.9317,2.467],[-77.9488,2.382],[-77.8594,2.2374],[-77.8401,2.1772],[-77.7438,2.1445],[-77.7027,2.1426],[-77.6246,2.1578],[-77.5717,2.1873],[-77.4463,2.2214],[-77.313,2.1714],[-77.3013,2.1548],[-77.3264,2.0622],[-77.214,1.9864],[-77.1993,1.961],[-77.2137,1.9269],[-77.2359,1.9174],[-77.2476,1.8869],[-77.2834,1.8557],[-77.3004,1.8076],[-77.3001,1.7486],[-77.3251,1.6894],[-77.233,1.6635],[-77.1509,1.6868],[-77.0994,1.6679],[-77.0447,1.7043],[-76.9409,1.7275],[-76.9244,1.7198],[-76.8436,1.5989],[-76.8652,1.5444],[-76.9245,1.503],[-76.9117,1.3132],[-76.942,1.2872],[-76.9701,1.2952],[-76.9733,1.2478],[-76.991,1.2257],[-77.0887,1.1861],[-77.0867,1.0734],[-77.0321,1.0413],[-77.0288,1.0232],[-77.1188,0.8352],[-77.2386,0.6972],[-77.1122,0.5943],[-77.1097,0.5679],[-77.1246,0.54],[-77.085,0.3968],[-77.1039,0.3541],[-77.2069,0.3342],[-77.3975,0.3876],[-77.4347,0.4338],[-77.4681,0.6509],[-77.5434,0.6564],[-77.6456,0.7163],[-77.6668,0.7477],[-77.6733,0.8196],[-77.7032,0.8431],[-77.8277,0.8089],[-77.8693,0.8141],[-77.9032,0.8321],[-77.9183,0.8744],[-78.007,0.8982],[-78.0779,0.9008],[-78.2502,1.0196],[-78.3492,1.0558],[-78.4852,1.1926],[-78.5406,1.2054],[-78.5701,1.1958],[-78.6021,1.2636],[-78.6413,1.2594],[-78.6843,1.2819],[-78.7195,1.3411],[-78.8287,1.4343],[-78.8129,1.4418],[-78.8545,1.4902],[-78.8607,1.5585],[-78.8996,1.5453],[-78.998,1.6079],[-79.0215,1.6383],[-79.0088,1.6648],[-78.9558,1.6922],[-78.9264,1.7412],[-78.8461,1.8216],[-78.7594,1.8305],[-78.6126,1.8013],[-78.5712,1.7822],[-78.5463,1.8599],[-78.5541,1.8762],[-78.5454,1.9147],[-78.5914,1.8968],[-78.5982,1.9286],[-78.5863,2.0004],[-78.608,2.028],[-78.629,2.0253],[-78.6475,1.9806],[-78.6656,1.9829],[-78.7032,2.1898],[-78.6723,2.2672],[-78.6454,2.2783],[-78.559,2.4492],[-78.559,2.3815],[-78.525,2.4955],[-78.5065,2.4909],[-78.4322,2.587],[-78.372,2.6323],[-78.334,2.647],[-78.2775,2.5425],[-78.2548,2.5419],[-78.2701,2.635],[-78.2469,2.6636],[-78.2284,2.6155],[-78.2349,2.5933],[-78.2078,2.5373],[-78.1325,2.4927],[-78.0867,2.5106],[-78.0814,2.5775],[-78.1054,2.6422],[-78.0739,2.6468]]],[[[-78.1314,2.6273],[-78.0973,2.5722],[-78.0962,2.54],[-78.1073,2.5125],[-78.1344,2.5044],[-78.207,2.5753],[-78.2164,2.5969],[-78.195,2.6321],[-78.2149,2.6819],[-78.1659,2.6855],[-78.1451,2.6737],[-78.1314,2.6273]]]]}},{"type":"Feature","id":"Norte de Santander","properties":{"id":"Norte de Santander","iso_code":"CO-NSA","name":"Norte de Santander","name_full":"Norte de Santander","name_ja":"ノルテ・デ・サンタンデール県","center_lonlat":[-72.8869,8.0931]},"geometry":{"type":"Polygon","coordinates":[[[-71.9938,7.0129],[-72.0337,7.0137],[-72.1,7.0381],[-72.1817,7.0401],[-72.2091,7.0263],[-72.2421,6.9789],[-72.2878,7.0057],[-72.3264,6.928],[-72.3832,6.8784],[-72.4228,6.8792],[-72.5049,6.9151],[-72.5221,6.8906],[-72.5466,6.885],[-72.5515,6.9804],[-72.5669,7.002],[-72.6556,6.9943],[-72.6701,6.9734],[-72.6888,7.0051],[-72.7448,6.9892],[-72.793,7.0308],[-72.8794,7.0599],[-72.8859,7.0738],[-72.83,7.1621],[-72.8372,7.2079],[-72.8815,7.2564],[-72.8445,7.301],[-72.8423,7.3575],[-72.8976,7.4287],[-72.9031,7.4763],[-72.9839,7.5468],[-72.9913,7.6132],[-73.0277,7.6212],[-73.0566,7.6076],[-73.2164,7.63],[-73.2478,7.5971],[-73.2607,7.5449],[-73.3603,7.5496],[-73.3938,7.5736],[-73.4967,7.6009],[-73.5443,7.6698],[-73.6254,7.7345],[-73.6403,7.7452],[-73.5887,7.7335],[-73.505,7.6793],[-73.4327,7.7087],[-73.3605,7.8007],[-73.3506,7.8965],[-73.3123,7.9192],[-73.287,7.9604],[-73.2893,7.9857],[-73.3194,8.0118],[-73.3627,8.0162],[-73.3755,8.0299],[-73.3798,8.0847],[-73.4086,8.1276],[-73.4131,8.2062],[-73.3671,8.3327],[-73.3567,8.4392],[-73.3745,8.4531],[-73.4199,8.4555],[-73.4063,8.3739],[-73.462,8.3284],[-73.4687,8.3568],[-73.5292,8.3855],[-73.4918,8.4622],[-73.5622,8.5879],[-73.5471,8.645],[-73.4795,8.706],[-73.4764,8.7365],[-73.4267,8.7819],[-73.4478,8.8655],[-73.4366,9.1163],[-73.417,9.1507],[-73.3636,9.165],[-73.2122,9.1734],[-73.076,9.2543],[-73.0327,9.2946],[-73.0097,9.2954],[-72.9801,9.2165],[-72.9732,9.1284],[-72.9553,9.104],[-72.9364,9.0992],[-72.874,9.1334],[-72.8267,9.1417],[-72.791,9.1139],[-72.7856,9.1024],[-72.8,9.0794],[-72.7831,9.0599],[-72.6754,8.6515],[-72.4563,8.4039],[-72.4151,8.3824],[-72.3935,8.3554],[-72.384,8.3218],[-72.396,8.2566],[-72.3358,8.1039],[-72.3338,8.0655],[-72.3501,8.0426],[-72.4071,8.0438],[-72.4301,7.9905],[-72.4912,7.9375],[-72.4586,7.8935],[-72.4518,7.8328],[-72.4741,7.7542],[-72.4833,7.6494],[-72.4634,7.5708],[-72.4787,7.4845],[-72.4513,7.4402],[-72.4146,7.4138],[-72.3218,7.39],[-72.2062,7.3819],[-72.164,7.3289],[-72.1742,7.2796],[-72.1641,7.2208],[-72.0983,7.0868],[-71.9938,7.0129]]]}},{"type":"Feature","id":"Putumayo","properties":{"id":"Putumayo","iso_code":"CO-PUT","name":"Putumayo","name_full":"Putumayo","name_ja":"プトゥマヨ県","center_lonlat":[-75.855,0.4552]},"geometry":{"type":"Polygon","coordinates":[[[-77.1039,0.3541],[-77.085,0.3968],[-77.1246,0.54],[-77.1097,0.5679],[-77.1122,0.5943],[-77.2386,0.6972],[-77.1188,0.8352],[-77.0288,1.0232],[-77.0321,1.0413],[-77.0867,1.0734],[-77.0887,1.1861],[-76.991,1.2257],[-76.9733,1.2478],[-76.9701,1.2952],[-76.942,1.2872],[-76.9117,1.3132],[-76.7728,1.314],[-76.7457,1.3295],[-76.6705,1.4337],[-76.6545,1.4377],[-76.5884,1.4075],[-76.5205,1.3015],[-76.5161,1.2747],[-76.5423,1.2055],[-76.5462,1.1176],[-76.5366,1.0756],[-76.4924,1.0246],[-76.351,0.9769],[-76.2098,0.9721],[-76.1485,1.0069],[-76.0864,1.0114],[-76.0605,1.0437],[-75.9327,1.0307],[-75.9178,1.0192],[-75.8996,0.9538],[-75.8281,0.8795],[-75.7878,0.8756],[-75.7323,0.8481],[-75.6001,0.8474],[-75.5599,0.8286],[-75.4986,0.7636],[-75.4591,0.7495],[-75.3176,0.7513],[-75.2739,0.7363],[-75.2541,0.719],[-75.2514,0.6797],[-75.2124,0.6195],[-75.216,0.5519],[-75.1867,0.4962],[-75.1649,0.4884],[-75.0957,0.5075],[-75.0723,0.4729],[-74.9962,0.4699],[-74.9851,0.4424],[-74.989,0.3609],[-74.9624,0.2708],[-74.8553,0.2219],[-74.7429,0.2003],[-74.6829,0.1509],[-74.6767,0.1099],[-74.6956,0.0746],[-74.6583,0.0538],[-74.6841,0.0063],[-74.6638,-0.0542],[-74.6097,-0.0636],[-74.5927,-0.1021],[-74.559,-0.1166],[-74.505,-0.113],[-74.4698,-0.1258],[-74.4296,-0.083],[-74.4132,-0.0903],[-74.3995,-0.1323],[-74.3276,-0.1228],[-74.282,-0.1494],[-74.2516,-0.2214],[-74.1929,-0.2205],[-74.1688,-0.2583],[-74.1167,-0.2463],[-73.9897,-0.3495],[-73.8641,-0.3929],[-74.4147,-0.5638],[-74.4229,-0.5383],[-74.4419,-0.5355],[-74.4756,-0.4965],[-74.5624,-0.4394],[-74.6423,-0.3398],[-74.6866,-0.3534],[-74.7181,-0.3273],[-74.7907,-0.3126],[-74.7553,-0.2783],[-74.7895,-0.209],[-74.8247,-0.1705],[-74.8727,-0.2219],[-74.9335,-0.2094],[-75.0154,-0.1405],[-75.0507,-0.1343],[-75.1016,-0.0691],[-75.1417,-0.0435],[-75.2221,-0.0324],[-75.2401,-0.0748],[-75.2835,-0.107],[-75.4649,-0.0397],[-75.6268,0.0789],[-75.7316,0.0712],[-75.7897,0.0844],[-75.952,0.204],[-75.9725,0.2519],[-76.0535,0.3635],[-76.1196,0.3518],[-76.1363,0.3967],[-76.2237,0.4067],[-76.3005,0.4616],[-76.3654,0.407],[-76.4164,0.4019],[-76.408,0.2545],[-76.5508,0.2179],[-76.5843,0.2226],[-76.6269,0.2585],[-76.7245,0.2776],[-76.7369,0.2729],[-76.7344,0.2331],[-76.7979,0.25],[-76.8825,0.2401],[-76.9459,0.2871],[-77.0446,0.3057],[-77.0829,0.3489],[-77.1039,0.3541]]]}},{"type":"Feature","id":"Quindio","properties":{"id":"Quindio","iso_code":"CO-QUI","name":"Quindio","name_full":"Quindío","name_ja":"キンディオ県","center_lonlat":[-75.6901,4.4618]},"geometry":{"type":"Polygon","coordinates":[[[-75.3904,4.7168],[-75.4284,4.6268],[-75.505,4.5703],[-75.5591,4.4758],[-75.5821,4.4271],[-75.6014,4.2965],[-75.7622,4.0785],[-75.8382,4.1218],[-75.8281,4.2103],[-75.7903,4.2884],[-75.7879,4.3508],[-75.8091,4.3975],[-75.8904,4.4236],[-75.8669,4.4582],[-75.8768,4.5526],[-75.8621,4.6129],[-75.8248,4.6644],[-75.716,4.6588],[-75.714,4.7129],[-75.6954,4.7198],[-75.6594,4.7029],[-75.5327,4.6991],[-75.4846,4.6714],[-75.3904,4.7168]]]}},{"type":"Feature","id":"Risaralda","properties":{"id":"Risaralda","iso_code":"CO-RIS","name":"Risaralda","name_full":"Risaralda","name_ja":"リサラルダ県","center_lonlat":[-75.9916,5.0821]},"geometry":{"type":"Polygon","coordinates":[[[-75.8578,5.4894],[-75.8564,5.3742],[-75.8392,5.3609],[-75.8027,5.365],[-75.7188,5.3963],[-75.6692,5.3526],[-75.6437,5.3044],[-75.6675,5.2657],[-75.6925,5.257],[-75.752,5.2837],[-75.7981,5.2878],[-75.8173,5.2723],[-75.8041,5.2084],[-75.8379,5.1111],[-75.8876,5.1244],[-75.9268,5.0435],[-75.9058,5.0178],[-75.8959,4.9732],[-75.8585,4.9323],[-75.8188,4.9202],[-75.7905,4.948],[-75.7834,5.0003],[-75.7484,5.0451],[-75.7056,4.9491],[-75.667,4.947],[-75.6381,4.9735],[-75.6107,4.9337],[-75.4924,4.9194],[-75.378,4.8001],[-75.3904,4.7168],[-75.4846,4.6714],[-75.5327,4.6991],[-75.6594,4.7029],[-75.6954,4.7198],[-75.714,4.7129],[-75.8536,4.732],[-75.8519,4.7766],[-75.8943,4.7608],[-75.9193,4.7701],[-75.9403,4.822],[-75.9236,4.8426],[-75.9222,4.8724],[-75.9811,4.8726],[-75.9863,4.9111],[-76.0224,4.9415],[-76.0759,5.0357],[-76.075,5.0843],[-76.0897,5.1099],[-76.0976,5.175],[-76.1799,5.3087],[-76.1829,5.3519],[-76.1656,5.4087],[-76.0933,5.4554],[-76.0802,5.5376],[-76.0425,5.5773],[-75.9605,5.507],[-75.8578,5.4894]]]}},{"type":"Feature","id":"Santander","properties":{"id":"Santander","iso_code":"CO-SAN","name":"Santander","name_full":"Santander","name_ja":"サンタンデール県","center_lonlat":[-73.4901,6.6959]},"geometry":{"type":"Polygon","coordinates":[[[-73.6254,7.7345],[-73.5443,7.6698],[-73.4967,7.6009],[-73.3938,7.5736],[-73.3603,7.5496],[-73.2607,7.5449],[-73.2478,7.5971],[-73.2164,7.63],[-73.0566,7.6076],[-73.0277,7.6212],[-72.9913,7.6132],[-72.9839,7.5468],[-72.9031,7.4763],[-72.8976,7.4287],[-72.8423,7.3575],[-72.8445,7.301],[-72.8815,7.2564],[-72.8372,7.2079],[-72.83,7.1621],[-72.8859,7.0738],[-72.8794,7.0599],[-72.793,7.0308],[-72.7448,6.9892],[-72.6888,7.0051],[-72.6701,6.9734],[-72.6556,6.9943],[-72.5669,7.002],[-72.5515,6.9804],[-72.5466,6.885],[-72.5221,6.8906],[-72.5049,6.9151],[-72.478,6.8441],[-72.4878,6.8092],[-72.4769,6.7598],[-72.4978,6.6458],[-72.5424,6.5614],[-72.5506,6.4904],[-72.6167,6.4381],[-72.6616,6.4348],[-72.7089,6.5288],[-72.7622,6.5736],[-72.7916,6.5671],[-72.8016,6.5519],[-72.7944,6.5332],[-72.7445,6.4859],[-72.7334,6.4566],[-72.7353,6.376],[-72.7557,6.3197],[-72.7427,6.2889],[-72.7546,6.2295],[-72.7993,6.2025],[-72.8174,6.1534],[-72.8937,6.1232],[-72.9924,5.9996],[-73.0169,5.9407],[-73.127,5.9555],[-73.1954,5.9911],[-73.2192,5.9825],[-73.2862,5.8559],[-73.3513,5.8625],[-73.403,5.7562],[-73.4288,5.7639],[-73.4683,5.8135],[-73.4716,5.8477],[-73.4419,5.8668],[-73.4381,5.8874],[-73.4008,5.9223],[-73.3819,6.001],[-73.4381,6.0696],[-73.4993,6.1071],[-73.5352,6.0421],[-73.5892,5.9889],[-73.6187,5.9048],[-73.614,5.8449],[-73.6353,5.733],[-73.6487,5.7154],[-73.6943,5.752],[-73.7371,5.7611],[-73.8339,5.7391],[-73.8785,5.7114],[-73.8774,5.7371],[-73.894,5.7473],[-73.9732,5.7326],[-74.0084,5.7521],[-74.0487,5.8137],[-74.088,5.8241],[-74.1108,5.8706],[-74.1745,5.9008],[-74.2338,5.8463],[-74.2575,5.8482],[-74.2696,5.8985],[-74.2392,5.9817],[-74.27,6.0498],[-74.2903,6.0707],[-74.3569,6.0391],[-74.4195,6.0736],[-74.4798,6.1552],[-74.5194,6.2823],[-74.4595,6.3335],[-74.4133,6.4042],[-74.3922,6.4026],[-74.3792,6.4235],[-74.4058,6.4753],[-74.4088,6.5671],[-74.3864,6.6263],[-74.2927,6.6544],[-74.1086,6.7903],[-74.0161,6.9278],[-73.9008,6.9929],[-73.8878,7.0199],[-73.8926,7.0609],[-73.9267,7.1261],[-73.9302,7.3008],[-73.8994,7.4213],[-73.9132,7.4949],[-73.8352,7.5953],[-73.8233,7.672],[-73.836,7.6948],[-73.8169,7.8014],[-73.8578,7.9386],[-73.8723,8.0449],[-73.8554,8.1054],[-73.7856,8.1615],[-73.779,8.098],[-73.7285,7.9872],[-73.6824,7.9547],[-73.6703,7.929],[-73.677,7.8934],[-73.7442,7.8307],[-73.7519,7.7409],[-73.6254,7.7345]]]}},{"type":"Feature","id":"Sucre","properties":{"id":"Sucre","iso_code":"CO-SUC","name":"Sucre","name_full":"Sucre","name_ja":"スクレ県","center_lonlat":[-75.1173,9.0728]},"geometry":{"type":"Polygon","coordinates":[[[-75.6983,9.4169],[-75.6726,9.41],[-75.6206,9.4529],[-75.5772,9.5622],[-75.5764,9.6211],[-75.618,9.6893],[-75.6578,9.7052],[-75.7028,9.6907],[-75.7051,9.7007],[-75.6493,9.7565],[-75.6399,9.7833],[-75.5895,9.9642],[-75.5738,10.074],[-75.5816,10.092],[-75.4856,10.1431],[-75.5365,10.0472],[-75.5241,10.033],[-75.4757,10.0396],[-75.4639,9.9651],[-75.4827,9.9356],[-75.4782,9.9154],[-75.3751,9.8776],[-75.3272,9.8814],[-75.3745,9.6403],[-75.3563,9.6573],[-75.3351,9.6491],[-75.2979,9.6777],[-75.2354,9.6489],[-75.1828,9.6432],[-75.0678,9.5398],[-75.0084,9.5313],[-75.0295,9.4831],[-75.0205,9.4683],[-74.9847,9.458],[-74.942,9.4693],[-74.904,9.4374],[-74.9408,9.3467],[-74.9004,9.1769],[-74.8628,9.1493],[-74.8254,9.0765],[-74.6592,8.9657],[-74.5422,8.8145],[-74.603,8.7271],[-74.5858,8.6118],[-74.5623,8.5705],[-74.5505,8.4628],[-74.5675,8.4131],[-74.5744,8.401],[-74.6037,8.405],[-74.6209,8.3491],[-74.6571,8.3175],[-74.74,8.3113],[-74.805,8.2799],[-74.8094,8.3507],[-74.8579,8.3951],[-74.886,8.4413],[-74.9433,8.4863],[-75.0781,8.4531],[-75.1835,8.4019],[-75.2205,8.4401],[-75.3053,8.4912],[-75.3445,8.6786],[-75.3408,8.7413],[-75.3599,8.8034],[-75.3566,8.8418],[-75.2968,8.8967],[-75.2092,8.9238],[-75.1977,8.9834],[-75.2224,9.0231],[-75.2128,9.0416],[-75.4302,9.1528],[-75.458,9.1949],[-75.4653,9.238],[-75.5485,9.2679],[-75.5809,9.3058],[-75.6991,9.3541],[-75.6983,9.4169]]]}},{"type":"Feature","id":"Tolima","properties":{"id":"Tolima","iso_code":"CO-TOL","name":"Tolima","name_full":"Tolima","name_ja":"トリマ県","center_lonlat":[-75.2624,4.0355]},"geometry":{"type":"Polygon","coordinates":[[[-74.5635,3.7721],[-74.728,3.6087],[-74.7378,3.5524],[-74.7745,3.5148],[-74.7771,3.4414],[-74.9089,3.2899],[-74.9661,3.2788],[-75.0678,3.3014],[-75.0608,3.3643],[-75.0356,3.4342],[-75.1426,3.4321],[-75.1776,3.4055],[-75.178,3.3887],[-75.2133,3.4101],[-75.2578,3.3736],[-75.3161,3.4118],[-75.3553,3.4087],[-75.387,3.3787],[-75.4372,3.3589],[-75.4776,3.3605],[-75.4923,3.3473],[-75.5696,3.2333],[-75.6275,3.0903],[-75.7816,2.9482],[-75.8125,2.8919],[-75.8547,2.8909],[-75.9339,2.919],[-75.974,2.9482],[-76.0011,2.9499],[-76.0312,2.9295],[-76.0302,2.9958],[-76.0446,3.0355],[-76.1128,3.0951],[-76.0915,3.2032],[-76.0758,3.2133],[-76.0607,3.2947],[-76.0439,3.3141],[-76.065,3.3578],[-76.0494,3.4424],[-75.9968,3.5592],[-75.9888,3.6468],[-75.9617,3.7122],[-75.8577,3.8699],[-75.7961,4.0081],[-75.7454,4.0415],[-75.7622,4.0785],[-75.6014,4.2965],[-75.5821,4.4271],[-75.5591,4.4758],[-75.505,4.5703],[-75.4284,4.6268],[-75.3904,4.7168],[-75.378,4.8001],[-75.3307,4.8789],[-75.3539,4.9391],[-75.3173,5.0275],[-75.3485,5.0602],[-75.2944,5.1318],[-75.2416,5.1363],[-75.1706,5.1737],[-75.1251,5.1637],[-75.0628,5.2689],[-75.0128,5.2939],[-74.8331,5.3144],[-74.7487,5.2908],[-74.7355,5.1082],[-74.7497,5.0263],[-74.7286,4.9854],[-74.7628,4.9642],[-74.7497,4.8891],[-74.7708,4.8631],[-74.7672,4.7869],[-74.7875,4.7509],[-74.8279,4.7222],[-74.8112,4.6701],[-74.7907,4.6524],[-74.818,4.608],[-74.8044,4.5915],[-74.818,4.5875],[-74.8058,4.5046],[-74.8912,4.2796],[-74.8807,4.2691],[-74.784,4.2836],[-74.7492,4.2425],[-74.7321,4.2479],[-74.6993,4.2186],[-74.6546,4.2092],[-74.617,4.2569],[-74.5814,4.2726],[-74.5553,4.2693],[-74.5239,4.2425],[-74.4802,4.1334],[-74.4829,4.1105],[-74.5248,4.0522],[-74.5318,3.9843],[-74.5114,3.937],[-74.5513,3.8456],[-74.5635,3.7721]]]}},{"type":"Feature","id":"Valle del Cauca","properties":{"id":"Valle del Cauca","iso_code":"CO-VAC","name":"Valle del Cauca","name_full":"Valle del Cauca","name_ja":"バジェ・デル・カウカ県","center_lonlat":[-76.5098,3.8729]},"geometry":{"type":"Polygon","coordinates":[[[-77.4649,3.3016],[-77.4777,3.3132],[-77.4687,3.3447],[-77.381,3.3876],[-77.3437,3.3294],[-77.3189,3.32],[-77.3671,3.4021],[-77.353,3.4298],[-77.3332,3.4118],[-77.3462,3.436],[-77.3263,3.4907],[-77.3332,3.5118],[-77.3127,3.5118],[-77.3162,3.4804],[-77.2828,3.4852],[-77.2643,3.4709],[-77.2848,3.4975],[-77.2717,3.505],[-77.299,3.5118],[-77.291,3.5237],[-77.2779,3.518],[-77.2749,3.5328],[-77.3258,3.5322],[-77.3218,3.5478],[-77.2779,3.5459],[-77.299,3.559],[-77.2779,3.5664],[-77.2848,3.5806],[-77.2438,3.5869],[-77.2486,3.5715],[-77.2096,3.5806],[-77.2272,3.591],[-77.1892,3.6626],[-77.1695,3.6522],[-77.1183,3.678],[-77.1708,3.6772],[-77.1749,3.6927],[-77.1265,3.7172],[-77.1854,3.7036],[-77.1987,3.71],[-77.2008,3.7435],[-77.1954,3.7582],[-77.1674,3.7379],[-77.1256,3.7335],[-77.1749,3.7582],[-77.1444,3.7596],[-77.1265,3.7787],[-77.1515,3.8004],[-77.1504,3.8137],[-77.1339,3.8271],[-77.1203,3.7991],[-77.1056,3.8135],[-77.1145,3.8526],[-77.0686,3.8677],[-77.0316,3.9158],[-77.093,3.909],[-77.0793,3.9221],[-77.1265,3.9295],[-77.123,3.8861],[-77.1811,3.853],[-77.2532,3.8408],[-77.2916,3.8606],[-77.2717,3.8854],[-77.3118,3.9084],[-77.3002,3.9691],[-77.2704,3.9864],[-77.26,3.9754],[-77.2717,3.9643],[-77.2096,3.9773],[-77.2438,3.9773],[-77.1892,4.0673],[-77.2249,4.077],[-77.2643,4.1082],[-77.2643,4.0673],[-77.299,4.0673],[-77.299,4.0456],[-77.3189,4.053],[-77.3263,3.9814],[-77.3462,3.9295],[-77.3621,3.928],[-77.3798,3.95],[-77.3735,3.9643],[-77.4308,4.0126],[-77.4304,4.044],[-77.4083,4.0456],[-77.4311,4.0944],[-77.4352,4.1528],[-77.3946,4.1597],[-77.3502,4.1947],[-77.2986,4.1788],[-77.2837,4.193],[-77.2852,4.2113],[-77.2544,4.2422],[-77.2445,4.1909],[-77.2212,4.1681],[-77.1555,4.1829],[-77.0658,4.1039],[-77.0182,4.1016],[-76.9873,4.124],[-76.9568,4.1226],[-76.8927,4.0419],[-76.8226,4.0298],[-76.7614,3.9959],[-76.7304,3.9986],[-76.6543,4.0633],[-76.575,4.0558],[-76.5459,4.1105],[-76.5208,4.137],[-76.4733,4.1559],[-76.4396,4.2006],[-76.4965,4.2376],[-76.496,4.32],[-76.5283,4.3529],[-76.5457,4.3948],[-76.5037,4.3962],[-76.4557,4.4207],[-76.4423,4.4664],[-76.4503,4.5143],[-76.4273,4.5817],[-76.3169,4.679],[-76.3033,4.6999],[-76.3129,4.7258],[-76.2985,4.7641],[-76.1695,4.8894],[-76.1411,4.97],[-76.0759,5.0357],[-76.0224,4.9415],[-75.9863,4.9111],[-75.9811,4.8726],[-75.9222,4.8724],[-75.9236,4.8426],[-75.9403,4.822],[-75.9193,4.7701],[-75.8943,4.7608],[-75.8519,4.7766],[-75.8536,4.732],[-75.714,4.7129],[-75.716,4.6588],[-75.8248,4.6644],[-75.8621,4.6129],[-75.8768,4.5526],[-75.8669,4.4582],[-75.8904,4.4236],[-75.8091,4.3975],[-75.7879,4.3508],[-75.7903,4.2884],[-75.8281,4.2103],[-75.8382,4.1218],[-75.7622,4.0785],[-75.7454,4.0415],[-75.7961,4.0081],[-75.8577,3.8699],[-75.9617,3.7122],[-75.9888,3.6468],[-75.9968,3.5592],[-76.0494,3.4424],[-76.065,3.3578],[-76.0439,3.3141],[-76.0607,3.2947],[-76.0758,3.2133],[-76.1766,3.2411],[-76.2559,3.2829],[-76.354,3.2902],[-76.4367,3.3179],[-76.4628,3.2853],[-76.4424,3.2549],[-76.4476,3.204],[-76.4668,3.1786],[-76.5155,3.1631],[-76.5533,3.1101],[-76.5767,3.124],[-76.6089,3.0982],[-76.6323,3.1246],[-76.6728,3.1078],[-76.7786,3.1839],[-76.829,3.1054],[-76.8696,3.0929],[-76.9852,3.14],[-77.0146,3.1682],[-77.1096,3.1919],[-77.186,3.1694],[-77.2342,3.1254],[-77.2615,3.124],[-77.3192,3.1755],[-77.3724,3.1697],[-77.4188,3.2587],[-77.4649,3.3016]]]}},{"type":"Feature","id":"Vaupes","properties":{"id":"Vaupes","iso_code":"CO-VAU","name":"Vaupes","name_full":"Vaupés","name_ja":"バウペス県","center_lonlat":[-70.578,0.6696]},"geometry":{"type":"Polygon","coordinates":[[[-69.8412,1.7076],[-69.8562,1.7077],[-69.8522,1.0594],[-69.8294,1.0572],[-69.7877,1.0842],[-69.7497,1.0905],[-69.7281,1.083],[-69.7265,1.061],[-69.716,1.0586],[-69.6199,1.0728],[-69.543,1.0556],[-69.4783,1.0607],[-69.4182,1.0286],[-69.3709,1.063],[-69.3388,1.0641],[-69.2743,1.0282],[-69.2328,0.9884],[-69.2262,0.9572],[-69.2043,0.9437],[-69.21,0.9075],[-69.1524,0.8678],[-69.1523,0.8543],[-69.1754,0.8444],[-69.1678,0.756],[-69.1923,0.7289],[-69.1412,0.6682],[-69.1437,0.6375],[-69.1623,0.6314],[-69.2006,0.6395],[-69.2262,0.6148],[-69.2971,0.6181],[-69.3021,0.6565],[-69.3626,0.6409],[-69.4397,0.7158],[-69.4781,0.7328],[-69.5941,0.6893],[-69.6192,0.6507],[-69.6947,0.6687],[-69.8053,0.6069],[-69.9529,0.5858],[-69.9992,0.5898],[-70.0394,0.5746],[-70.0542,0.5881],[-70.068,-0.1601],[-69.9336,-0.3143],[-69.8581,-0.3414],[-69.8348,-0.3832],[-69.7465,-0.453],[-69.6495,-0.492],[-69.6198,-0.5246],[-69.6045,-0.6063],[-69.5842,-0.6446],[-69.6284,-0.7334],[-69.5727,-0.8135],[-69.5732,-0.8492],[-69.5373,-0.8895],[-69.5326,-0.9341],[-69.4931,-0.9562],[-69.4429,-1.0084],[-69.4482,-1.0921],[-69.3995,-1.1827],[-69.4211,-1.2393],[-69.4653,-1.18],[-69.5645,-1.1375],[-69.6307,-1.1654],[-69.6506,-1.1605],[-69.6599,-1.1225],[-69.6491,-1.0555],[-69.7164,-0.9951],[-69.7469,-0.9973],[-69.7742,-1.0438],[-69.8646,-1.0261],[-69.9118,-1.057],[-69.9315,-1.055],[-69.9474,-1.0292],[-69.9318,-0.9716],[-69.9012,-0.9368],[-69.9028,-0.9161],[-69.9711,-0.9357],[-70.0015,-0.9206],[-70.0339,-0.9469],[-70.0711,-0.9335],[-70.0999,-0.9424],[-70.1241,-0.9744],[-70.0724,-1.0441],[-70.0986,-1.0734],[-70.1384,-1.0714],[-70.196,-1.0231],[-70.1793,-0.9694],[-70.186,-0.9561],[-70.2422,-0.988],[-70.2797,-0.9337],[-70.2127,-0.8524],[-70.2642,-0.7881],[-70.2731,-0.752],[-70.2346,-0.7202],[-70.2445,-0.5641],[-70.2603,-0.5506],[-70.3037,-0.5567],[-70.305,-0.5342],[-70.2214,-0.4469],[-70.2161,-0.4234],[-70.2804,-0.4048],[-70.3296,-0.4339],[-70.3344,-0.4718],[-70.4483,-0.4656],[-70.4571,-0.4074],[-70.5009,-0.3596],[-70.5674,-0.3597],[-70.6158,-0.3211],[-70.661,-0.3244],[-70.7409,-0.2793],[-70.7605,-0.2806],[-70.7872,-0.3219],[-70.8473,-0.3213],[-70.9006,-0.1937],[-70.939,-0.1457],[-70.9345,-0.071],[-70.9841,0.0009],[-71.0093,0.009],[-71.042,-0.0025],[-71.14,0.0377],[-71.1739,0.1158],[-71.2517,0.096],[-71.2994,0.1112],[-71.3223,0.1332],[-71.3528,0.1625],[-71.4214,0.1916],[-71.5385,0.1777],[-71.689,0.2583],[-71.722,0.3079],[-71.7572,0.3236],[-71.7871,0.3733],[-71.847,0.3555],[-71.843,0.4172],[-71.9364,0.4867],[-71.9328,0.5552],[-71.9608,0.5803],[-71.9791,0.5645],[-71.9951,0.5763],[-72.0086,0.6334],[-72.0358,0.664],[-71.7865,0.9169],[-71.7567,0.9713],[-71.7247,0.9866],[-71.6731,0.982],[-71.6099,1.0425],[-71.5869,1.0819],[-71.5822,1.1223],[-71.5603,1.1245],[-71.5529,1.161],[-71.5417,1.1578],[-71.5278,1.1165],[-71.5051,1.1151],[-71.5531,1.2165],[-71.5524,1.262],[-71.441,1.548],[-71.4052,1.5987],[-71.3908,1.7322],[-71.3749,1.7356],[-71.2926,1.6796],[-71.2638,1.6734],[-71.1598,1.7562],[-70.9677,1.8533],[-70.9045,1.9186],[-70.7454,1.918],[-70.702,1.9017],[-70.6553,1.9043],[-70.4993,1.9518],[-70.4445,1.9884],[-70.2017,2.0312],[-70.105,2.1012],[-70.119,2.0071],[-70.162,1.9023],[-70.1566,1.8693],[-70.0502,1.781],[-69.9999,1.755],[-69.9216,1.7406],[-69.8412,1.7076]]]}},{"type":"Feature","id":"Vichada","properties":{"id":"Vichada","iso_code":"CO-VID","name":"Vichada","name_full":"Vichada","name_ja":"ビチャーダ県","center_lonlat":[-69.4074,4.7267]},"geometry":{"type":"Polygon","coordinates":[[[-67.7169,4.0399],[-67.7491,4.0216],[-67.7971,3.9538],[-67.8385,3.9243],[-67.877,3.9227],[-67.9507,3.9575],[-67.9991,3.9364],[-68.0134,3.9985],[-68.0487,3.9559],[-68.0927,4.0054],[-68.1566,3.9277],[-68.1835,3.9221],[-68.1773,3.9609],[-68.1881,3.9732],[-68.2524,3.9432],[-68.2679,4.0027],[-68.3555,4.0199],[-68.3697,4.0121],[-68.3684,3.9949],[-68.3514,3.9685],[-68.3725,3.9236],[-68.4449,3.9126],[-68.4513,3.9002],[-68.4385,3.8731],[-68.5049,3.8445],[-68.5464,3.7959],[-68.5796,3.8081],[-68.6121,3.7845],[-68.6432,3.7818],[-68.6888,3.7978],[-68.7396,3.7725],[-68.7442,3.7362],[-68.7977,3.7378],[-68.8101,3.728],[-68.8045,3.6901],[-68.8278,3.6894],[-68.8483,3.7098],[-68.9073,3.6886],[-68.9378,3.7073],[-68.9516,3.6889],[-68.9501,3.6491],[-68.9624,3.6409],[-69.0406,3.6552],[-69.0903,3.6094],[-69.1089,3.6279],[-69.1058,3.6558],[-69.1401,3.6745],[-69.1835,3.6521],[-69.1911,3.6799],[-69.2208,3.7004],[-69.251,3.7012],[-69.2795,3.7289],[-69.2924,3.7266],[-69.3015,3.7001],[-69.3463,3.7128],[-69.4307,3.6861],[-69.4743,3.7157],[-69.523,3.6969],[-69.6124,3.6863],[-69.6114,3.6188],[-69.6487,3.5947],[-69.6581,3.5325],[-69.722,3.5686],[-69.8494,3.559],[-69.8667,3.5306],[-69.8941,3.5664],[-69.9263,3.5559],[-69.963,3.505],[-70.0109,3.5286],[-70.0828,3.5255],[-70.0549,3.4845],[-70.0686,3.4246],[-70.1197,3.4166],[-70.1208,3.3915],[-70.1511,3.3479],[-70.116,3.2902],[-70.1416,3.2764],[-70.1293,3.2043],[-70.1446,3.202],[-70.1599,3.2277],[-70.164,3.1863],[-70.1762,3.1808],[-70.203,3.1962],[-70.2485,3.1594],[-70.3085,3.0839],[-70.2634,3.0629],[-70.2656,3.0451],[-70.2916,3.0303],[-70.276,2.9837],[-70.2815,2.942],[-70.3333,2.91],[-70.3591,2.8608],[-70.4997,2.7845],[-70.5928,2.8419],[-70.6302,2.8458],[-70.6502,2.8323],[-70.6845,2.8694],[-70.6979,2.8633],[-70.6864,2.8234],[-70.7348,2.7825],[-70.7482,2.8139],[-70.8113,2.792],[-70.8486,2.8288],[-70.8896,2.8159],[-70.8908,2.8458],[-70.9041,2.8576],[-70.9236,2.8285],[-70.9617,2.866],[-70.9801,2.813],[-70.9865,2.8547],[-71.041,2.8732],[-71.0637,2.8686],[-71.0603,4.9194],[-71.0271,4.9592],[-70.9603,5.1177],[-70.9448,5.1352],[-70.8879,5.155],[-70.6957,5.3137],[-70.6787,5.3894],[-70.6621,5.4046],[-70.4488,5.5331],[-70.3429,5.5682],[-70.1852,5.5874],[-70.0914,5.6453],[-69.9866,5.7792],[-69.8986,5.9708],[-69.8558,6.0263],[-69.7849,6.0621],[-69.5719,6.0542],[-69.5324,6.0623],[-69.432,6.1222],[-69.3314,6.1564],[-69.2461,6.0807],[-69.1892,6.1126],[-69.0802,6.2094],[-69.0369,6.2188],[-68.8929,6.1843],[-68.8079,6.1843],[-68.6353,6.1359],[-68.5847,6.17],[-68.5225,6.1733],[-68.449,6.195],[-68.3042,6.177],[-68.1465,6.2238],[-67.978,6.2178],[-67.9241,6.2346],[-67.9043,6.2751],[-67.8681,6.2799],[-67.8272,6.3134],[-67.574,6.2662],[-67.4905,6.2016],[-67.45,6.1979],[-67.487,6.1668],[-67.4912,6.1145],[-67.4543,6.0568],[-67.4286,6.0385],[-67.4225,5.9782],[-67.4852,5.9441],[-67.6251,5.7845],[-67.6412,5.7448],[-67.6491,5.6561],[-67.636,5.5776],[-67.6143,5.5537],[-67.617,5.5416],[-67.6525,5.478],[-67.8098,5.3788],[-67.8437,5.2972],[-67.8147,5.2103],[-67.8245,5.1106],[-67.7931,5.0633],[-67.8264,4.8948],[-67.8135,4.8405],[-67.8229,4.7436],[-67.8456,4.6897],[-67.8552,4.5662],[-67.8751,4.5326],[-67.8566,4.5042],[-67.8291,4.4914],[-67.8135,4.4433],[-67.7931,4.429],[-67.7999,4.3989],[-67.7794,4.3508],[-67.7999,4.3061],[-67.7994,4.2353],[-67.7862,4.173],[-67.7402,4.1187],[-67.7169,4.0399]]]}}]}
