{"type":"FeatureCollection","features":[{"type":"Feature","id":"Alajuela","properties":{"id":"Alajuela","iso_code":"CR-A","name":"Alajuela","name_full":"Alajuela","name_ja":"アラフエラ州","center_lonlat":[-84.603,10.5595]},"geometry":{"type":"Polygon","coordinates":[[[-84.1577,10.7884],[-84.1658,10.1584],[-84.1776,10.0044],[-84.201,9.9772],[-84.2,9.9572],[-84.2147,9.9415],[-84.3092,9.914],[-84.3922,9.9256],[-84.461,9.9173],[-84.5376,9.87],[-84.5711,9.8245],[-84.6018,9.8601],[-84.6744,9.8844],[-84.636,9.9413],[-84.5501,9.9977],[-84.57,10.0217],[-84.5935,10.0132],[-84.6604,10.1138],[-84.669,10.1821],[-84.6489,10.2398],[-84.6839,10.2788],[-84.7495,10.2667],[-84.7866,10.3153],[-84.7706,10.3455],[-84.7794,10.3871],[-84.764,10.4422],[-84.7933,10.4966],[-84.8685,10.5491],[-84.9373,10.5688],[-84.9836,10.6163],[-85.023,10.6993],[-85.1227,10.7298],[-85.1796,10.7675],[-85.2827,10.7596],[-85.3161,10.8209],[-85.3808,10.8464],[-85.4388,10.9086],[-85.437,10.922],[-85.3939,10.9284],[-85.3105,10.9902],[-85.2627,11.0434],[-85.2365,11.0531],[-84.9084,10.9394],[-84.7078,11.063],[-84.6765,11.0704],[-84.6207,11.0358],[-84.5817,11.0345],[-84.4982,11.002],[-84.4382,10.9522],[-84.3555,10.9946],[-84.3107,10.9194],[-84.2084,10.861],[-84.2046,10.837],[-84.2271,10.8193],[-84.2189,10.806],[-84.1916,10.7817],[-84.1577,10.7884]]]}},{"type":"Feature","id":"Cartago","properties":{"id":"Cartago","iso_code":"CR-C","name":"Cartago","name_full":"Cartago","name_ja":"カルタゴ州","center_lonlat":[-83.6813,9.808]},"geometry":{"type":"Polygon","coordinates":[[[-83.9427,10.1362],[-83.5891,9.9772],[-83.3189,9.9696],[-83.3449,9.9139],[-83.3292,9.8383],[-83.3359,9.821],[-83.4088,9.7321],[-83.4391,9.6633],[-83.5109,9.5664],[-83.5101,9.514],[-83.4869,9.4676],[-83.6045,9.5364],[-83.6387,9.5699],[-83.667,9.547],[-83.7142,9.5369],[-83.722,9.5648],[-83.7633,9.5957],[-83.815,9.6013],[-83.8461,9.6564],[-83.9135,9.6728],[-83.9508,9.7251],[-83.9755,9.7361],[-83.9882,9.7677],[-84.0776,9.7586],[-84.0688,9.7887],[-84.0026,9.8668],[-84.0281,9.879],[-84.0,9.9303],[-83.953,9.947],[-83.9085,9.9446],[-83.8682,9.9699],[-83.8751,10.0348],[-83.9264,10.0847],[-83.9427,10.1362]]]}},{"type":"Feature","id":"Guanacaste","properties":{"id":"Guanacaste","iso_code":"CR-G","name":"Guanacaste","name_full":"Guanacaste","name_ja":"グアナカステ州","center_lonlat":[-85.393,10.4481]},"geometry":{"type":"Polygon","coordinates":[[[-85.2365,11.0531],[-85.2627,11.0434],[-85.3105,10.9902],[-85.3939,10.9284],[-85.437,10.922],[-85.4388,10.9086],[-85.3808,10.8464],[-85.3161,10.8209],[-85.2827,10.7596],[-85.1796,10.7675],[-85.1227,10.7298],[-85.023,10.6993],[-84.9836,10.6163],[-84.9373,10.5688],[-84.8685,10.5491],[-84.7933,10.4966],[-84.764,10.4422],[-84.7794,10.3871],[-84.7706,10.3455],[-84.7866,10.3153],[-84.8292,10.3308],[-84.873,10.2963],[-84.8625,10.2662],[-84.8779,10.2121],[-84.8701,10.1852],[-84.9201,10.1467],[-84.9199,10.1112],[-84.9842,10.1568],[-85.0686,10.1558],[-85.0899,10.1724],[-85.1935,10.1701],[-85.2345,10.2071],[-85.2288,10.2316],[-85.2462,10.2526],[-85.2892,10.2823],[-85.2831,10.262],[-85.2542,10.2412],[-85.2271,10.1246],[-85.2383,10.1024],[-85.1959,10.0788],[-85.1719,10.0421],[-85.1541,10.0427],[-85.1861,10.0421],[-85.1674,10.0194],[-85.1834,9.9788],[-85.2408,9.9555],[-85.2653,9.9575],[-85.3033,9.9297],[-85.2902,9.9139],[-85.2175,9.8989],[-85.195,9.8595],[-85.1738,9.8518],[-85.186,9.7788],[-85.2293,9.7248],[-85.2386,9.742],[-85.273,9.758],[-85.2755,9.782],[-85.2993,9.808],[-85.3324,9.8266],[-85.44,9.8645],[-85.4704,9.8502],[-85.5252,9.8774],[-85.5356,9.8708],[-85.6386,9.9055],[-85.6638,9.9001],[-85.6761,9.9555],[-85.7786,10.0799],[-85.844,10.231],[-85.8577,10.2891],[-85.8403,10.3201],[-85.875,10.355],[-85.8304,10.412],[-85.8133,10.4053],[-85.7755,10.4473],[-85.8092,10.4945],[-85.7956,10.5082],[-85.8092,10.515],[-85.782,10.543],[-85.7612,10.5318],[-85.7001,10.5491],[-85.6778,10.5921],[-85.6619,10.5901],[-85.6317,10.6212],[-85.6523,10.6447],[-85.6932,10.6038],[-85.7001,10.6112],[-85.6727,10.6379],[-85.687,10.6379],[-85.6629,10.679],[-85.6653,10.7788],[-85.6803,10.7963],[-85.7465,10.8162],[-85.7675,10.8061],[-85.8031,10.8372],[-85.7924,10.8383],[-85.7956,10.8509],[-85.8304,10.8509],[-85.9464,10.8911],[-85.8577,10.9259],[-85.8782,10.9464],[-85.8162,10.9464],[-85.8146,10.9223],[-85.7956,10.9055],[-85.782,10.9129],[-85.7934,10.9302],[-85.7825,10.9374],[-85.7106,10.9283],[-85.7137,10.9538],[-85.6989,10.9593],[-85.6981,10.9832],[-85.746,11.023],[-85.7189,11.0429],[-85.6996,11.0286],[-85.6675,11.0399],[-85.7017,11.0809],[-85.6312,11.1962],[-85.5978,11.2099],[-85.5086,11.1524],[-85.2365,11.0531]]]}},{"type":"Feature","id":"Heredia","properties":{"id":"Heredia","iso_code":"CR-H","name":"Heredia","name_full":"Heredia","name_ja":"エレディア州","center_lonlat":[-84.0115,10.4275]},"geometry":{"type":"Polygon","coordinates":[[[-83.7638,10.7737],[-83.7327,10.7546],[-83.731,10.7146],[-83.7036,10.6881],[-83.7726,10.6791],[-83.827,10.6392],[-83.8362,10.5356],[-83.8234,10.4846],[-83.8717,10.4021],[-83.8429,10.3332],[-83.8472,10.292],[-83.8665,10.2487],[-83.9136,10.199],[-83.9505,10.1951],[-83.9808,10.1626],[-84.0714,10.1515],[-84.0104,10.0423],[-84.028,9.982],[-84.1513,9.9456],[-84.2,9.9572],[-84.201,9.9772],[-84.1776,10.0044],[-84.1658,10.1584],[-84.1577,10.7884],[-84.0764,10.7638],[-84.0092,10.7894],[-83.9936,10.765],[-83.9173,10.7135],[-83.8869,10.7271],[-83.8595,10.7218],[-83.8353,10.7476],[-83.7638,10.7737]]]}},{"type":"Feature","id":"Limon","properties":{"id":"Limon","iso_code":"CR-L","name":"Limon","name_full":"Limón","name_ja":"リモン州","center_lonlat":[-83.1678,9.943]},"geometry":{"type":"Polygon","coordinates":[[[-82.9395,9.0706],[-82.9858,9.1029],[-83.0025,9.1358],[-83.0531,9.155],[-83.0743,9.2318],[-83.1194,9.26],[-83.1657,9.3168],[-83.2277,9.3178],[-83.3135,9.3666],[-83.388,9.3267],[-83.4,9.3441],[-83.4294,9.3537],[-83.4536,9.3773],[-83.4869,9.4676],[-83.5101,9.514],[-83.5109,9.5664],[-83.4391,9.6633],[-83.4088,9.7321],[-83.3359,9.821],[-83.3292,9.8383],[-83.3449,9.9139],[-83.3189,9.9696],[-83.5891,9.9772],[-83.9427,10.1362],[-83.9136,10.199],[-83.8665,10.2487],[-83.8472,10.292],[-83.8429,10.3332],[-83.8717,10.4021],[-83.8234,10.4846],[-83.8362,10.5356],[-83.827,10.6392],[-83.7726,10.6791],[-83.7036,10.6881],[-83.731,10.7146],[-83.7327,10.7546],[-83.7638,10.7737],[-83.663,10.807],[-83.6699,10.8917],[-83.6965,10.9366],[-83.6444,10.9259],[-83.5806,10.8073],[-83.5829,10.7757],[-83.6239,10.8576],[-83.6086,10.7455],[-83.6375,10.7211],[-83.5891,10.7477],[-83.5891,10.7211],[-83.5754,10.7683],[-83.4662,10.4945],[-83.3945,10.376],[-83.2037,10.1293],[-83.0853,10.0021],[-83.0615,10.0153],[-83.026,10.005],[-83.0093,9.9493],[-82.8773,9.7801],[-82.8338,9.7395],[-82.8083,9.7472],[-82.7878,9.6728],[-82.7052,9.6379],[-82.6359,9.6345],[-82.5736,9.5762],[-82.5628,9.5387],[-82.6011,9.5487],[-82.6124,9.4995],[-82.6321,9.4847],[-82.678,9.4978],[-82.7117,9.545],[-82.7294,9.5449],[-82.7711,9.5799],[-82.829,9.6027],[-82.866,9.5851],[-82.8793,9.5599],[-82.8464,9.4925],[-82.9333,9.4703],[-82.9417,9.4563],[-82.9395,9.0706]]]}},{"type":"Feature","id":"Puntarenas","properties":{"id":"Puntarenas","iso_code":"CR-P","name":"Puntarenas","name_full":"Puntarenas","name_ja":"プンタレナス州","center_lonlat":[-83.2259,9.083]},"geometry":{"type":"MultiPolygon","coordinates":[[[[-82.9395,9.0706],[-82.9394,9.0596],[-82.9002,9.0721],[-82.8824,9.0453],[-82.7491,8.9741],[-82.7194,8.9215],[-82.7638,8.8799],[-82.8786,8.8298],[-82.8883,8.8169],[-82.8758,8.7939],[-82.923,8.7562],[-82.9192,8.7271],[-82.8622,8.6557],[-82.8419,8.5995],[-82.836,8.5298],[-82.8483,8.4652],[-82.8704,8.4381],[-82.9535,8.4021],[-83.0521,8.3276],[-83.0532,8.3151],[-82.9955,8.2648],[-82.968,8.268],[-82.9437,8.2486],[-82.8864,8.1022],[-82.8976,8.0347],[-82.9112,8.0454],[-82.9004,8.105],[-82.9685,8.2212],[-83.1509,8.3693],[-83.0927,8.4467],[-83.1372,8.5146],[-83.1377,8.5293],[-83.1024,8.548],[-83.1577,8.5555],[-83.185,8.6027],[-83.1714,8.617],[-83.1533,8.5772],[-83.1236,8.5965],[-83.1714,8.6375],[-83.1858,8.6252],[-83.2403,8.6238],[-83.2593,8.6513],[-83.2874,8.6511],[-83.3191,8.6696],[-83.3222,8.7057],[-83.3358,8.7057],[-83.3317,8.7221],[-83.3459,8.7299],[-83.3837,8.7398],[-83.3895,8.7281],[-83.4115,8.7337],[-83.4217,8.7152],[-83.4683,8.7175],[-83.4867,8.6927],[-83.473,8.6989],[-83.4048,8.589],[-83.3392,8.5692],[-83.2997,8.5344],[-83.2874,8.5418],[-83.2949,8.4934],[-83.2798,8.4729],[-83.2764,8.4016],[-83.2874,8.3767],[-83.3098,8.3759],[-83.3809,8.4041],[-83.3972,8.4177],[-83.3694,8.4109],[-83.4048,8.432],[-83.4048,8.4177],[-83.4624,8.4427],[-83.5756,8.445],[-83.7058,8.5794],[-83.7368,8.5927],[-83.7399,8.6238],[-83.7024,8.6784],[-83.6609,8.6898],[-83.63,8.7337],[-83.6426,8.7495],[-83.6275,8.7674],[-83.5754,8.7883],[-83.6079,8.796],[-83.6387,8.7723],[-83.6426,8.7819],[-83.6238,8.8156],[-83.5829,8.8466],[-83.6139,8.8732],[-83.6164,8.8907],[-83.5754,8.8776],[-83.63,8.9118],[-83.6179,8.919],[-83.6255,8.9427],[-83.6034,8.9664],[-83.6348,9.0441],[-83.6512,9.062],[-83.658,9.0552],[-83.7272,9.1443],[-83.7672,9.1514],[-83.7649,9.1772],[-83.7869,9.1992],[-83.8395,9.2203],[-83.9181,9.2947],[-84.0074,9.3397],[-84.1787,9.3978],[-84.168,9.4162],[-84.2084,9.465],[-84.2334,9.4735],[-84.2054,9.453],[-84.2314,9.4575],[-84.2727,9.4816],[-84.4579,9.526],[-84.535,9.5213],[-84.5554,9.5524],[-84.5691,9.5554],[-84.563,9.5412],[-84.6166,9.5781],[-84.6273,9.6067],[-84.6579,9.6243],[-84.6627,9.6517],[-84.6784,9.651],[-84.6784,9.6926],[-84.6344,9.757],[-84.6346,9.7834],[-84.6984,9.8688],[-84.7259,9.8845],[-84.7097,9.9226],[-84.7343,9.9426],[-84.7336,9.9669],[-84.7623,9.9757],[-84.8509,9.9669],[-84.7882,9.9875],[-84.8485,9.994],[-84.8981,10.0153],[-85.0139,10.116],[-85.0461,10.1361],[-85.0762,10.1383],[-85.0686,10.1558],[-84.9842,10.1568],[-84.9199,10.1112],[-84.9201,10.1467],[-84.8701,10.1852],[-84.8779,10.2121],[-84.8625,10.2662],[-84.873,10.2963],[-84.8292,10.3308],[-84.7866,10.3153],[-84.7495,10.2667],[-84.6839,10.2788],[-84.6489,10.2398],[-84.669,10.1821],[-84.6604,10.1138],[-84.5935,10.0132],[-84.57,10.0217],[-84.5501,9.9977],[-84.636,9.9413],[-84.6744,9.8844],[-84.6018,9.8601],[-84.5711,9.8245],[-84.58,9.8173],[-84.5555,9.8027],[-84.5418,9.7742],[-84.5489,9.7581],[-84.5907,9.7506],[-84.5816,9.6832],[-84.5293,9.5715],[-84.4527,9.574],[-84.4281,9.5622],[-84.3951,9.5982],[-84.397,9.629],[-84.3508,9.6366],[-84.2933,9.6374],[-84.2652,9.6182],[-84.1455,9.6144],[-84.1378,9.5693],[-84.1191,9.5556],[-84.0757,9.5519],[-84.0748,9.5105],[-84.0102,9.4414],[-83.9447,9.3982],[-83.9024,9.3962],[-83.8885,9.3578],[-83.8459,9.3102],[-83.8278,9.2452],[-83.7638,9.2149],[-83.7394,9.2352],[-83.7153,9.2305],[-83.6786,9.1896],[-83.6562,9.1386],[-83.5631,9.0793],[-83.5122,9.0663],[-83.4823,9.0946],[-83.4719,9.1678],[-83.4778,9.1843],[-83.5094,9.197],[-83.4998,9.2501],[-83.4294,9.3537],[-83.4,9.3441],[-83.388,9.3267],[-83.3135,9.3666],[-83.2277,9.3178],[-83.1657,9.3168],[-83.1194,9.26],[-83.0743,9.2318],[-83.0531,9.155],[-83.0025,9.1358],[-82.9858,9.1029],[-82.9395,9.0706]]],[[[-85.1674,10.0194],[-85.1445,9.9993],[-85.0145,9.945],[-84.9596,9.9465],[-84.9111,9.9117],[-84.9311,9.9007],[-84.9302,9.8863],[-84.9049,9.8571],[-84.9329,9.8366],[-84.8646,9.8229],[-84.912,9.7958],[-84.9596,9.7274],[-85.0076,9.7441],[-85.0148,9.7308],[-84.995,9.7033],[-85.0626,9.6653],[-85.1105,9.5554],[-85.2293,9.7248],[-85.186,9.7788],[-85.1738,9.8518],[-85.195,9.8595],[-85.2175,9.8989],[-85.2902,9.9139],[-85.3033,9.9297],[-85.2653,9.9575],[-85.2408,9.9555],[-85.1834,9.9788],[-85.1674,10.0194]]],[[[-85.1313,10.0987],[-85.0973,10.0836],[-85.1588,10.0762],[-85.1991,10.1177],[-85.1719,10.1246],[-85.1105,10.1103],[-85.1451,10.1035],[-85.1313,10.0987]]],[[[-87.099,5.516],[-87.1177,5.5151],[-87.1046,5.5374],[-87.0646,5.5578],[-87.0655,5.5346],[-87.099,5.516]]],[[[-83.8966,8.7065],[-83.8691,8.7136],[-83.8781,8.6988],[-83.8966,8.7065]]]]}},{"type":"Feature","id":"San Jose","properties":{"id":"San Jose","iso_code":"CR-SJ","name":"San Jose","name_full":"San José","name_ja":"サンホセ州","center_lonlat":[-83.9899,9.609]},"geometry":{"type":"Polygon","coordinates":[[[-83.9136,10.199],[-83.9427,10.1362],[-83.9264,10.0847],[-83.8751,10.0348],[-83.8682,9.9699],[-83.9085,9.9446],[-83.953,9.947],[-84.0,9.9303],[-84.0281,9.879],[-84.0026,9.8668],[-84.0688,9.7887],[-84.0776,9.7586],[-83.9882,9.7677],[-83.9755,9.7361],[-83.9508,9.7251],[-83.9135,9.6728],[-83.8461,9.6564],[-83.815,9.6013],[-83.7633,9.5957],[-83.722,9.5648],[-83.7142,9.5369],[-83.667,9.547],[-83.6387,9.5699],[-83.6045,9.5364],[-83.4869,9.4676],[-83.4536,9.3773],[-83.4294,9.3537],[-83.4998,9.2501],[-83.5094,9.197],[-83.4778,9.1843],[-83.4719,9.1678],[-83.4823,9.0946],[-83.5122,9.0663],[-83.5631,9.0793],[-83.6562,9.1386],[-83.6786,9.1896],[-83.7153,9.2305],[-83.7394,9.2352],[-83.7638,9.2149],[-83.8278,9.2452],[-83.8459,9.3102],[-83.8885,9.3578],[-83.9024,9.3962],[-83.9447,9.3982],[-84.0102,9.4414],[-84.0748,9.5105],[-84.0757,9.5519],[-84.1191,9.5556],[-84.1378,9.5693],[-84.1455,9.6144],[-84.2652,9.6182],[-84.2933,9.6374],[-84.3508,9.6366],[-84.397,9.629],[-84.3951,9.5982],[-84.4281,9.5622],[-84.4527,9.574],[-84.5293,9.5715],[-84.5816,9.6832],[-84.5907,9.7506],[-84.5489,9.7581],[-84.5418,9.7742],[-84.5555,9.8027],[-84.58,9.8173],[-84.5711,9.8245],[-84.5376,9.87],[-84.461,9.9173],[-84.3922,9.9256],[-84.3092,9.914],[-84.2147,9.9415],[-84.2,9.9572],[-84.1513,9.9456],[-84.028,9.982],[-84.0104,10.0423],[-84.0714,10.1515],[-83.9808,10.1626],[-83.9505,10.1951],[-83.9136,10.199]]]}}]}
