{"type":"FeatureCollection","features":[{"type":"Feature","id":"Bjelovar-Bilogora","properties":{"id":"Bjelovar-Bilogora","iso_code":"HR-07","name":"Bjelovar-Bilogora","name_full":"Bjelovar-Bilogora","name_ja":"ビェロヴァル＝ビロゴラ郡","center_lonlat":[16.9882,45.7351]},"geometry":{"type":"Polygon","coordinates":[[[17.1404,45.8703],[17.2772,45.8033],[17.283,45.7773],[17.3218,45.7505],[17.3579,45.7536],[17.3671,45.737],[17.3596,45.7214],[17.3852,45.7025],[17.4322,45.7186],[17.4898,45.693],[17.492,45.6751],[17.4245,45.5924],[17.4305,45.5747],[17.4423,45.5581],[17.4287,45.5233],[17.3993,45.5092],[17.3351,45.5175],[17.2229,45.5067],[17.1804,45.5283],[17.1598,45.5163],[17.0259,45.5032],[16.9652,45.5224],[16.9594,45.5429],[16.9442,45.547],[16.9292,45.4759],[16.907,45.4677],[16.8947,45.4803],[16.8432,45.4891],[16.8292,45.5078],[16.8673,45.5265],[16.8173,45.5666],[16.7867,45.6132],[16.6561,45.6597],[16.6168,45.6628],[16.5647,45.6973],[16.5051,45.7155],[16.5115,45.754],[16.4967,45.7651],[16.5318,45.7884],[16.5993,45.7816],[16.6005,45.8173],[16.6286,45.8447],[16.6375,45.8225],[16.6741,45.8261],[16.6936,45.8537],[16.6926,45.9242],[16.6972,45.9811],[16.7411,46.0457],[16.7841,46.0587],[16.8052,46.0464],[16.8347,46.0784],[16.8518,46.081],[16.9158,46.0328],[16.9107,46.0007],[16.9943,45.961],[16.9962,45.9271],[17.0505,45.9348],[17.1404,45.8703]]]}},{"type":"Feature","id":"Brod-Posavina","properties":{"id":"Brod-Posavina","iso_code":"HR-12","name":"Brod-Posavina","name_full":"Brod-Posavina","name_ja":"ブロド＝ポサヴィナ郡","center_lonlat":[18.1292,45.2086]},"geometry":{"type":"Polygon","coordinates":[[[17.1246,45.1691],[17.083,45.2119],[17.0842,45.2257],[17.1508,45.2811],[17.1989,45.2922],[17.1781,45.3141],[17.19,45.327],[17.1812,45.3479],[17.2373,45.3788],[17.2901,45.3698],[17.3916,45.3873],[17.5771,45.2768],[17.7016,45.2587],[17.7216,45.2127],[17.7088,45.1935],[17.7454,45.1856],[17.7756,45.192],[17.7851,45.2181],[17.8547,45.2294],[17.8905,45.2556],[17.8835,45.2719],[17.9021,45.2863],[18.0816,45.2715],[18.201,45.2254],[18.2547,45.2246],[18.3267,45.2464],[18.5369,45.1935],[18.508,45.1675],[18.5023,45.1393],[18.5348,45.0884],[18.5411,45.0553],[18.517,45.0559],[18.4661,45.074],[18.412,45.1124],[18.3223,45.1229],[18.2379,45.1575],[18.2023,45.1441],[18.1925,45.1085],[18.1537,45.0976],[18.0903,45.108],[18.035,45.1433],[18.0035,45.1493],[17.9112,45.0811],[17.8357,45.0644],[17.6847,45.164],[17.63,45.1573],[17.5724,45.1204],[17.4819,45.1144],[17.4962,45.1417],[17.4478,45.1343],[17.4581,45.1461],[17.4433,45.1621],[17.4341,45.1486],[17.3824,45.1396],[17.269,45.1895],[17.2455,45.1554],[17.1871,45.1486],[17.1246,45.1691]]]}},{"type":"Feature","id":"Dubrovnik-Neretva","properties":{"id":"Dubrovnik-Neretva","iso_code":"HR-19","name":"Dubrovnik-Neretva","name_full":"Dubrovnik-Neretva","name_ja":"ドゥブロヴニク＝ネレトヴァ郡","center_lonlat":[17.8918,42.7968]},"geometry":{"type":"MultiPolygon","coordinates":[[[[18.4374,42.5592],[18.4371,42.4934],[18.4549,42.4647],[18.4929,42.4424],[18.4964,42.4163],[18.4745,42.4414],[18.4131,42.4619],[18.4119,42.476],[18.2389,42.5591],[18.2206,42.5792],[18.2175,42.6201],[18.076,42.6513],[18.0574,42.6679],[18.0773,42.6679],[18.0432,42.7021],[18.0283,42.6913],[17.9016,42.7519],[17.8807,42.7687],[17.8928,42.7908],[17.8067,42.8119],[17.7801,42.7969],[17.721,42.8262],[17.7619,42.7787],[17.7487,42.772],[17.7489,42.7908],[17.7288,42.8008],[17.4404,42.8734],[17.4427,42.8986],[17.4172,42.9112],[17.3509,42.9218],[17.2139,42.9826],[17.0462,42.9951],[17.0179,43.0138],[17.0282,43.031],[17.0016,43.0515],[17.0733,43.0242],[17.2402,43.0228],[17.3905,42.9777],[17.4541,42.9423],[17.4602,42.9218],[17.5077,42.9091],[17.5261,42.9218],[17.5589,42.9128],[17.7415,42.8393],[17.7019,42.8685],[17.7074,42.887],[17.6787,42.8794],[17.6533,42.8909],[17.7016,42.9195],[17.7867,42.9014],[17.8118,42.9099],[17.8262,42.8886],[17.8272,42.8531],[17.8585,42.817],[17.9045,42.8045],[17.9953,42.7404],[18.2241,42.6281],[18.3387,42.6025],[18.3853,42.5665],[18.4374,42.5592]]],[[[17.4509,43.1482],[17.5874,43.0821],[17.6284,43.0466],[17.6627,42.9657],[17.5807,42.9421],[17.5345,42.9506],[17.4746,43.0012],[17.4709,43.0134],[17.502,43.031],[17.4336,43.0174],[17.4602,43.031],[17.4323,43.0362],[17.4261,43.0652],[17.4046,43.0515],[17.3654,43.0792],[17.4063,43.1005],[17.3705,43.1359],[17.3459,43.142],[17.3494,43.1562],[17.4118,43.1402],[17.4509,43.1482]]],[[[17.1318,42.9695],[17.2002,42.9218],[17.1074,42.9143],[16.9729,42.9267],[16.8514,42.9007],[16.6554,42.9263],[16.6384,42.9348],[16.7068,42.9695],[16.6317,42.9826],[16.7205,42.9901],[16.8241,42.9621],[17.0321,42.9826],[17.1318,42.9695]]],[[[17.6589,42.743],[17.7489,42.6946],[17.3859,42.7709],[17.3738,42.76],[17.3237,42.7908],[17.3923,42.8017],[17.3716,42.7908],[17.486,42.7822],[17.5975,42.7498],[17.5907,42.743],[17.6589,42.743]]],[[[16.8582,42.784],[16.9211,42.7772],[16.9364,42.7555],[16.9054,42.7318],[16.8582,42.743],[16.8208,42.7361],[16.8098,42.7498],[16.8241,42.7641],[16.803,42.7635],[16.8102,42.7753],[16.8582,42.784]]]]}},{"type":"Feature","id":"Istria","properties":{"id":"Istria","iso_code":"HR-18","name":"Istria","name_full":"Istria","name_ja":"イストラ郡","center_lonlat":[13.8924,45.2056]},"geometry":{"type":"Polygon","coordinates":[[[14.1173,45.473],[14.1299,45.4409],[14.2036,45.4039],[14.2105,45.3278],[14.1941,45.2921],[14.2015,45.178],[14.2347,45.1546],[14.2092,45.1264],[14.1794,45.1345],[14.1953,45.1206],[14.1931,45.1056],[14.1644,45.0799],[14.1582,45.0873],[14.1582,45.0532],[14.1439,45.0594],[14.1662,45.0189],[14.1514,44.9775],[14.1013,44.9743],[14.0689,44.9495],[14.0838,44.9864],[14.0545,45.0185],[14.0519,45.038],[14.0403,45.039],[14.0443,45.0014],[14.0757,44.9837],[14.0444,44.9514],[14.0347,44.9564],[14.0391,44.9318],[14.0225,44.9235],[14.0205,44.9011],[13.9727,44.9011],[13.993,44.8676],[13.9727,44.8472],[13.9727,44.8266],[14.0,44.8131],[13.9248,44.8131],[13.9187,44.829],[13.8901,44.8335],[13.8831,44.8266],[13.9043,44.8173],[13.918,44.7783],[13.9032,44.7724],[13.897,44.8131],[13.8491,44.8266],[13.856,44.8403],[13.8423,44.8403],[13.8423,44.8546],[13.7871,44.8751],[13.8196,44.8677],[13.8423,44.8881],[13.8153,44.8835],[13.7946,44.895],[13.8081,44.9154],[13.7741,44.9638],[13.6813,45.0464],[13.6232,45.0731],[13.6369,45.0936],[13.6126,45.1179],[13.6385,45.13],[13.7262,45.1345],[13.6006,45.1373],[13.5994,45.1713],[13.5823,45.1966],[13.5945,45.2126],[13.5952,45.2508],[13.5755,45.2649],[13.6027,45.2853],[13.5755,45.3065],[13.6095,45.3201],[13.5618,45.3264],[13.5413,45.3461],[13.5549,45.3673],[13.5134,45.4362],[13.5208,45.4573],[13.5015,45.4986],[13.5134,45.5119],[13.5895,45.4888],[13.6241,45.4627],[13.7593,45.4632],[13.8199,45.4326],[13.889,45.4236],[13.9826,45.4753],[13.9615,45.4931],[13.9719,45.5142],[14.1173,45.473]]]}},{"type":"Feature","id":"Karlovac","properties":{"id":"Karlovac","iso_code":"HR-04","name":"Karlovac","name_full":"Karlovac","name_ja":"カルロヴァツ郡","center_lonlat":[15.4537,45.2851]},"geometry":{"type":"Polygon","coordinates":[[[15.8026,45.1965],[15.781,45.168],[15.7838,45.1009],[15.756,45.0422],[15.7636,44.9755],[15.7341,44.9344],[15.7114,44.9297],[15.6603,44.9481],[15.6183,44.9288],[15.5525,44.9491],[15.5328,44.9275],[15.5668,44.8786],[15.5118,44.9183],[15.4642,44.9242],[15.3765,45.0263],[15.2425,45.0847],[15.1942,45.1258],[15.1591,45.1066],[15.1255,45.1053],[15.008,45.1241],[14.9683,45.158],[14.9813,45.1694],[14.9862,45.2411],[14.9706,45.2735],[14.9886,45.3042],[15.0336,45.3286],[15.1224,45.2933],[15.1388,45.3131],[15.1809,45.3291],[15.1855,45.3492],[15.221,45.3748],[15.2344,45.4132],[15.2258,45.4365],[15.3252,45.4528],[15.3614,45.482],[15.2967,45.523],[15.2686,45.6017],[15.2974,45.6257],[15.3738,45.6402],[15.35,45.6696],[15.3829,45.6904],[15.4305,45.6941],[15.568,45.602],[15.6122,45.6241],[15.7267,45.5887],[15.746,45.5969],[15.7524,45.5763],[15.7409,45.5542],[15.784,45.5206],[15.8129,45.5234],[15.8425,45.4659],[15.8209,45.4021],[15.7864,45.3934],[15.716,45.4208],[15.6575,45.4187],[15.6725,45.4022],[15.6651,45.3766],[15.6807,45.3506],[15.6619,45.3352],[15.6616,45.2681],[15.6305,45.2357],[15.6394,45.2107],[15.7049,45.2009],[15.7617,45.21],[15.8026,45.1965]]]}},{"type":"Feature","id":"Koprivnica-Krizevci","properties":{"id":"Koprivnica-Krizevci","iso_code":"HR-06","name":"Koprivnica-Krizevci","name_full":"Koprivnica-Križevci","name_ja":"コプリヴニツァ＝クリジェヴツィ郡","center_lonlat":[16.8167,46.089]},"geometry":{"type":"Polygon","coordinates":[[[17.3066,45.9799],[17.2271,45.983],[17.1925,45.9696],[17.1351,45.9159],[17.1404,45.8703],[17.0505,45.9348],[16.9962,45.9271],[16.9943,45.961],[16.9107,46.0007],[16.9158,46.0328],[16.8518,46.081],[16.8347,46.0784],[16.8052,46.0464],[16.7841,46.0587],[16.7411,46.0457],[16.6972,45.9811],[16.6926,45.9242],[16.6038,45.9257],[16.5141,45.9777],[16.4694,45.9588],[16.4716,45.9764],[16.4436,46.0041],[16.3592,46.0246],[16.3496,46.1225],[16.4312,46.146],[16.4466,46.1354],[16.4851,46.1429],[16.5001,46.1618],[16.596,46.2031],[16.6955,46.2102],[16.7489,46.2379],[16.7706,46.2689],[16.7723,46.2874],[16.7452,46.3057],[16.779,46.3024],[16.8119,46.2819],[16.8594,46.3648],[16.8892,46.2922],[16.9748,46.2106],[17.1012,46.1282],[17.2086,46.1166],[17.2486,46.0802],[17.2759,46.012],[17.3168,45.9977],[17.2901,45.9915],[17.3066,45.9799]]]}},{"type":"Feature","id":"Krapina-Zagorje","properties":{"id":"Krapina-Zagorje","iso_code":"HR-02","name":"Krapina-Zagorje","name_full":"Krapina-Zagorje","name_ja":"クラピナ＝ザゴリエ郡","center_lonlat":[15.9263,46.0921]},"geometry":{"type":"Polygon","coordinates":[[[15.8793,46.2593],[15.8875,46.2327],[15.9441,46.2151],[15.96,46.1937],[16.1581,46.1876],[16.1949,46.2124],[16.2457,46.191],[16.2559,46.0611],[16.1904,46.0585],[16.2081,46.0334],[16.1862,46.022],[16.2047,46.0042],[16.1651,46.0038],[16.1721,45.9829],[16.1363,45.9704],[15.9656,45.911],[15.9395,45.9338],[15.9196,45.9571],[15.8225,45.9821],[15.7637,45.9683],[15.6754,45.9725],[15.6742,45.9932],[15.698,46.0362],[15.6038,46.091],[15.59,46.1387],[15.6043,46.167],[15.6398,46.2077],[15.6613,46.2153],[15.7498,46.2108],[15.8031,46.2505],[15.8793,46.2593]]]}},{"type":"Feature","id":"Lika-Senj","properties":{"id":"Lika-Senj","iso_code":"HR-09","name":"Lika-Senj","name_full":"Lika-Senj","name_ja":"リカ＝セニ郡","center_lonlat":[15.2475,44.7412]},"geometry":{"type":"MultiPolygon","coordinates":[[[[15.2938,44.3648],[15.0801,44.5361],[15.0073,44.5697],[14.9014,44.6902],[14.8838,44.7236],[14.8952,44.7362],[14.8814,44.8441],[14.9216,44.9588],[14.8813,45.0356],[14.8873,45.0588],[14.9265,45.0776],[15.0189,45.0739],[15.0272,45.0974],[15.008,45.1241],[15.1255,45.1053],[15.1591,45.1066],[15.1942,45.1258],[15.2425,45.0847],[15.3765,45.0263],[15.4642,44.9242],[15.5118,44.9183],[15.5668,44.8786],[15.5255,44.8333],[15.597,44.8038],[15.5995,44.7894],[15.5263,44.7527],[15.4754,44.7505],[15.4727,44.7378],[15.5278,44.6889],[15.5357,44.6481],[15.5558,44.6309],[15.5628,44.5817],[15.6231,44.5413],[15.6535,44.495],[15.5911,44.4572],[15.634,44.4217],[15.6309,44.4015],[15.6,44.3642],[15.5537,44.3471],[15.546,44.3305],[15.5019,44.3674],[15.411,44.3754],[15.3443,44.4134],[15.3203,44.4049],[15.2938,44.3648]]],[[[14.877,44.5598],[14.7615,44.6586],[14.7337,44.7032],[14.8452,44.6005],[14.8838,44.5797],[14.8801,44.6092],[14.9041,44.61],[15.0039,44.5361],[15.0412,44.5275],[15.0755,44.4841],[15.0073,44.5045],[15.0142,44.5187],[14.9729,44.5361],[14.9111,44.5523],[14.966,44.5239],[15.048,44.4394],[15.0967,44.4152],[15.065,44.4379],[15.0415,44.4766],[15.0833,44.4619],[15.2544,44.34],[15.2351,44.3362],[15.1651,44.3674],[15.2158,44.3381],[15.2271,44.3264],[15.2066,44.3264],[15.2202,44.3127],[15.1309,44.3326],[15.1724,44.2991],[15.1288,44.312],[15.0967,44.34],[15.1104,44.3537],[15.0892,44.3742],[15.1172,44.3872],[15.083,44.4015],[15.049,44.3947],[15.0208,44.43],[14.8975,44.4909],[14.9186,44.5045],[14.877,44.5598]]]]}},{"type":"Feature","id":"Međimurje","properties":{"id":"Međimurje","iso_code":"HR-20","name":"Međimurje","name_full":"Međimurje","name_ja":"メジムリェ郡","center_lonlat":[16.5085,46.4069]},"geometry":{"type":"Polygon","coordinates":[[[16.8594,46.3648],[16.8119,46.2819],[16.779,46.3024],[16.7452,46.3057],[16.5951,46.3179],[16.4838,46.3018],[16.3613,46.32],[16.3302,46.3618],[16.2799,46.3787],[16.2509,46.405],[16.2349,46.4933],[16.2639,46.5159],[16.3579,46.547],[16.4063,46.5395],[16.4404,46.519],[16.4813,46.519],[16.5776,46.4707],[16.5943,46.483],[16.6377,46.4745],[16.7551,46.3819],[16.7693,46.3961],[16.8275,46.374],[16.8377,46.3819],[16.8594,46.3648]]]}},{"type":"Feature","id":"Osijek-Baranja","properties":{"id":"Osijek-Baranja","iso_code":"HR-14","name":"Osijek-Baranja","name_full":"Osijek-Baranja","name_ja":"オシエク＝バラニャ郡","center_lonlat":[18.5115,45.5682]},"geometry":{"type":"Polygon","coordinates":[[[19.0023,45.4437],[18.9436,45.4306],[18.8955,45.4711],[18.8611,45.4813],[18.7883,45.4603],[18.8032,45.4286],[18.7869,45.4136],[18.7141,45.4161],[18.6614,45.3956],[18.6294,45.3189],[18.5897,45.3186],[18.5119,45.2926],[18.5074,45.2496],[18.5667,45.2326],[18.5585,45.1954],[18.5369,45.1935],[18.3267,45.2464],[18.2547,45.2246],[18.201,45.2254],[18.0816,45.2715],[18.1096,45.3123],[18.0759,45.3506],[18.163,45.4125],[18.2376,45.4263],[18.3044,45.4618],[18.3473,45.4547],[18.444,45.4752],[18.4278,45.5045],[18.3943,45.523],[18.3647,45.4942],[18.3047,45.4928],[18.2804,45.5109],[18.2255,45.5135],[18.1943,45.5351],[18.1939,45.5591],[18.223,45.5732],[18.2077,45.5977],[18.0832,45.6303],[18.0769,45.6456],[18.0099,45.6748],[17.9882,45.7139],[17.9437,45.7266],[17.9062,45.7921],[17.9754,45.7921],[18.0805,45.7717],[18.1289,45.7854],[18.2112,45.7854],[18.3177,45.7473],[18.3672,45.7582],[18.4044,45.7418],[18.4818,45.7914],[18.5303,45.7908],[18.5735,45.8167],[18.6556,45.9076],[18.7755,45.8828],[18.8049,45.9136],[18.8283,45.9057],[18.9013,45.9312],[18.907,45.9157],[18.8729,45.8952],[18.907,45.868],[18.8553,45.8574],[18.845,45.8157],[18.9002,45.7649],[18.9173,45.7066],[18.9627,45.6831],[18.9685,45.6687],[18.9124,45.6192],[18.9036,45.5731],[18.9417,45.5389],[19.0181,45.5674],[19.1063,45.5116],[19.0772,45.4916],[19.0096,45.4987],[18.9964,45.4738],[19.0023,45.4437]]]}},{"type":"Feature","id":"Pozega-Slavonia","properties":{"id":"Pozega-Slavonia","iso_code":"HR-12","name":"Pozega-Slavonia","name_full":"Požega-Slavonia","name_ja":"ポジェガ＝スラヴォニア郡","center_lonlat":[17.6997,45.424]},"geometry":{"type":"Polygon","coordinates":[[[18.0832,45.6303],[18.2077,45.5977],[18.223,45.5732],[18.1939,45.5591],[18.1943,45.5351],[18.2255,45.5135],[18.2804,45.5109],[18.3047,45.4928],[18.3647,45.4942],[18.3943,45.523],[18.4278,45.5045],[18.444,45.4752],[18.3473,45.4547],[18.3044,45.4618],[18.2376,45.4263],[18.163,45.4125],[18.0759,45.3506],[18.1096,45.3123],[18.0816,45.2715],[17.9021,45.2863],[17.8835,45.2719],[17.8905,45.2556],[17.8547,45.2294],[17.7851,45.2181],[17.7756,45.192],[17.7454,45.1856],[17.7088,45.1935],[17.7216,45.2127],[17.7016,45.2587],[17.5771,45.2768],[17.3916,45.3873],[17.2901,45.3698],[17.2373,45.3788],[17.1812,45.3479],[17.1438,45.3419],[17.062,45.3782],[17.0493,45.388],[17.0609,45.4228],[17.0229,45.4186],[16.9987,45.4435],[16.9292,45.4759],[16.9442,45.547],[16.9594,45.5429],[16.9652,45.5224],[17.0259,45.5032],[17.1598,45.5163],[17.1804,45.5283],[17.2229,45.5067],[17.3351,45.5175],[17.3993,45.5092],[17.4287,45.5233],[17.4423,45.5581],[17.4305,45.5747],[17.5004,45.5554],[17.5171,45.5763],[17.6504,45.5155],[17.7794,45.4907],[17.7993,45.4714],[17.8791,45.4707],[17.9324,45.4972],[17.9634,45.5429],[18.0579,45.6238],[18.0832,45.6303]]]}},{"type":"Feature","id":"Primorje-Gorski","properties":{"id":"Primorje-Gorski","iso_code":"HR-08","name":"Primorje-Gorski","name_full":"Primorje-Gorski","name_ja":"プリモリェ＝ゴルスキ・コタル郡","center_lonlat":[14.6931,45.3612]},"geometry":{"type":"MultiPolygon","coordinates":[[[[15.2258,45.4365],[15.2344,45.4132],[15.221,45.3748],[15.1855,45.3492],[15.1809,45.3291],[15.1388,45.3131],[15.1224,45.2933],[15.0336,45.3286],[14.9886,45.3042],[14.9706,45.2735],[14.9862,45.2411],[14.9813,45.1694],[14.9683,45.158],[15.008,45.1241],[15.0272,45.0974],[15.0189,45.0739],[14.9265,45.0776],[14.8873,45.0588],[14.8813,45.0356],[14.8425,45.1055],[14.6579,45.1966],[14.576,45.2623],[14.5686,45.2759],[14.5822,45.2853],[14.5708,45.2936],[14.5344,45.3127],[14.5554,45.2959],[14.5331,45.2839],[14.3459,45.3516],[14.3115,45.344],[14.272,45.2901],[14.2347,45.1546],[14.2015,45.178],[14.1941,45.2921],[14.2105,45.3278],[14.2036,45.4039],[14.1299,45.4409],[14.1173,45.473],[14.2187,45.4972],[14.3268,45.4749],[14.4112,45.4932],[14.4689,45.5256],[14.4986,45.5962],[14.5809,45.6678],[14.5919,45.6634],[14.6031,45.6036],[14.6698,45.5646],[14.6685,45.534],[14.7814,45.4932],[14.7972,45.4652],[14.8388,45.459],[14.8816,45.4698],[14.9044,45.5144],[14.9226,45.5149],[15.0074,45.4808],[15.0562,45.4799],[15.1393,45.43],[15.2258,45.4365]]],[[[14.5139,44.6622],[14.5086,44.6453],[14.5275,44.6479],[14.5344,44.6343],[14.5134,44.6188],[14.473,44.6203],[14.4279,44.6566],[14.3945,44.7076],[14.3972,44.7516],[14.3682,44.7611],[14.3616,44.816],[14.3298,44.8339],[14.3141,44.8938],[14.2942,44.9086],[14.3015,44.9223],[14.2925,44.9403],[14.3015,44.9434],[14.3596,44.9086],[14.3874,44.909],[14.3972,44.9291],[14.3903,44.9604],[14.4041,44.9495],[14.4114,44.9564],[14.3767,44.9869],[14.3408,45.0556],[14.2785,45.1133],[14.2886,45.1488],[14.3137,45.1724],[14.3562,45.1693],[14.363,45.0936],[14.3877,45.039],[14.4177,44.998],[14.4735,44.9714],[14.4519,44.9223],[14.4519,44.8509],[14.4666,44.8048],[14.4519,44.7988],[14.4729,44.7652],[14.4722,44.708],[14.5139,44.6622]]],[[[14.7234,44.9433],[14.6289,44.9782],[14.6209,45.0456],[14.6033,45.039],[14.617,45.0246],[14.5105,45.0322],[14.4601,45.0524],[14.4251,45.0873],[14.4627,45.101],[14.4763,45.1284],[14.5301,45.1348],[14.5213,45.1488],[14.5396,45.1704],[14.5369,45.2017],[14.5498,45.2214],[14.5344,45.2375],[14.5488,45.2487],[14.5959,45.2375],[14.584,45.2302],[14.6238,45.1755],[14.5974,45.1664],[14.6653,45.1618],[14.6653,45.0873],[14.7405,45.0731],[14.74,45.0443],[14.7998,45.0052],[14.815,44.9775],[14.7847,44.9693],[14.7609,44.9775],[14.7472,44.97],[14.7568,44.9487],[14.7234,44.9433]]],[[[14.7405,44.7783],[14.7541,44.7578],[14.6995,44.7652],[14.6579,44.7988],[14.7057,44.7925],[14.6995,44.8131],[14.7268,44.7988],[14.6858,44.8472],[14.7268,44.8403],[14.72,44.8546],[14.7533,44.8459],[14.7405,44.8205],[14.8224,44.7714],[14.8591,44.7174],[14.8496,44.7032],[14.7405,44.7783]]],[[[14.4456,44.566],[14.5266,44.5037],[14.5344,44.4841],[14.512,44.4822],[14.485,44.5006],[14.4382,44.5386],[14.4661,44.5386],[14.4226,44.5739],[14.363,44.5734],[14.3826,44.6033],[14.3494,44.6553],[14.3358,44.7168],[14.3975,44.6856],[14.3904,44.6622],[14.4041,44.6103],[14.4456,44.566]]],[[[14.2442,44.6614],[14.2804,44.6776],[14.2573,44.6567],[14.2712,44.6125],[14.2326,44.626],[14.2442,44.6614]]]]}},{"type":"Feature","id":"Sibenik-Knin","properties":{"id":"Sibenik-Knin","iso_code":"HR-15","name":"Sibenik-Knin","name_full":"Šibenik-Knin","name_ja":"シベニク＝クニン郡","center_lonlat":[16.0403,43.7974]},"geometry":{"type":"MultiPolygon","coordinates":[[[[16.0128,43.504],[15.9595,43.504],[15.9837,43.5211],[15.9873,43.5449],[15.9595,43.5382],[15.9253,43.5586],[15.9442,43.5667],[15.918,43.5729],[15.9321,43.5866],[15.918,43.5933],[15.919,43.6287],[15.9663,43.6412],[15.9048,43.648],[15.953,43.6509],[15.9321,43.6684],[15.9505,43.6885],[15.939,43.6964],[15.9312,43.6765],[15.7922,43.7545],[15.7063,43.7634],[15.6821,43.7972],[15.6174,43.8255],[15.6789,43.8193],[15.5469,43.8766],[15.5752,43.8966],[15.6332,43.8637],[15.6818,43.8894],[15.7399,43.8692],[15.7859,43.9151],[15.7725,43.9349],[15.7817,43.9439],[15.8742,43.9298],[15.9065,43.9094],[15.9532,43.9394],[16.0015,43.9497],[16.0027,43.9704],[16.0296,43.982],[16.0233,43.9999],[16.0327,44.0127],[16.0923,44.0113],[16.1414,44.0347],[16.1541,43.9445],[16.1701,43.9269],[16.2312,43.9184],[16.3246,43.9412],[16.3509,43.9262],[16.3429,43.8848],[16.3867,43.8658],[16.432,43.8188],[16.3504,43.7732],[16.3394,43.7399],[16.3506,43.7159],[16.2387,43.6716],[16.1606,43.6829],[16.0917,43.6183],[16.0484,43.6025],[16.0512,43.5781],[16.0827,43.5457],[16.0396,43.531],[16.0562,43.5132],[16.0128,43.504]]],[[[15.2612,43.8671],[15.3957,43.7724],[15.3089,43.8056],[15.2278,43.8745],[15.2407,43.8808],[15.2612,43.8671]]],[[[15.6789,43.648],[15.7404,43.6275],[15.672,43.6374],[15.6038,43.6747],[15.6502,43.673],[15.6789,43.648]]]]}},{"type":"Feature","id":"Sisak-Moslavina","properties":{"id":"Sisak-Moslavina","iso_code":"HR-03","name":"Sisak-Moslavina","name_full":"Sisak-Moslavina","name_ja":"シサク＝モスラヴィナ郡","center_lonlat":[16.3895,45.385]},"geometry":{"type":"Polygon","coordinates":[[[15.8026,45.1965],[15.7617,45.21],[15.7049,45.2009],[15.6394,45.2107],[15.6305,45.2357],[15.6616,45.2681],[15.6619,45.3352],[15.6807,45.3506],[15.6651,45.3766],[15.6725,45.4022],[15.6575,45.4187],[15.716,45.4208],[15.7864,45.3934],[15.8209,45.4021],[15.8425,45.4659],[15.8129,45.5234],[15.8599,45.549],[15.8718,45.5324],[15.9229,45.5113],[15.9359,45.4748],[16.0152,45.4861],[16.0465,45.4759],[16.0745,45.4997],[16.1108,45.5064],[16.0995,45.5388],[16.047,45.5838],[16.0492,45.5975],[16.0928,45.6006],[16.1479,45.6341],[16.2271,45.5984],[16.2782,45.613],[16.2973,45.6423],[16.2939,45.7279],[16.315,45.7478],[16.344,45.7395],[16.3726,45.7474],[16.3816,45.812],[16.4371,45.8225],[16.4967,45.7651],[16.5115,45.754],[16.5051,45.7155],[16.5647,45.6973],[16.6168,45.6628],[16.6561,45.6597],[16.7867,45.6132],[16.8173,45.5666],[16.8673,45.5265],[16.8292,45.5078],[16.8432,45.4891],[16.8947,45.4803],[16.907,45.4677],[16.9292,45.4759],[16.9987,45.4435],[17.0229,45.4186],[17.0609,45.4228],[17.0493,45.388],[17.062,45.3782],[17.1438,45.3419],[17.1812,45.3479],[17.19,45.327],[17.1781,45.3141],[17.1989,45.2922],[17.1508,45.2811],[17.0842,45.2257],[17.083,45.2119],[17.1246,45.1691],[17.0557,45.2004],[17.0363,45.2305],[17.0083,45.2162],[17.0083,45.2442],[16.9987,45.2314],[16.9612,45.2509],[16.968,45.2373],[16.9473,45.2357],[16.9244,45.2845],[16.8307,45.217],[16.8117,45.1812],[16.5289,45.2223],[16.4819,45.1995],[16.4355,45.1329],[16.3892,45.1168],[16.3406,45.0059],[16.3162,45.0012],[16.213,45.0315],[16.1215,45.0962],[16.0675,45.1696],[16.0244,45.1843],[16.0204,45.2139],[15.8789,45.2172],[15.8248,45.211],[15.8026,45.1965]]]}},{"type":"Feature","id":"Split-Dalmatia","properties":{"id":"Split-Dalmatia","iso_code":"HR-17","name":"Split-Dalmatia","name_full":"Split-Dalmatia","name_ja":"スプリト＝ダルマチア郡","center_lonlat":[16.7381,43.5522]},"geometry":{"type":"MultiPolygon","coordinates":[[[[16.5274,43.9679],[16.6786,43.8407],[16.7126,43.7715],[16.8238,43.7073],[17.0305,43.5485],[17.1428,43.4893],[17.2395,43.4784],[17.2705,43.4632],[17.2864,43.4374],[17.2676,43.3533],[17.2899,43.3034],[17.3287,43.2604],[17.4002,43.216],[17.4268,43.1657],[17.4509,43.1482],[17.4118,43.1402],[17.3494,43.1562],[17.3459,43.142],[17.3705,43.1359],[17.4063,43.1005],[17.3654,43.0792],[17.3163,43.1273],[17.1724,43.1818],[17.0735,43.239],[17.0495,43.278],[16.8806,43.406],[16.7525,43.4195],[16.6258,43.449],[16.5247,43.5108],[16.3914,43.5108],[16.4734,43.5382],[16.4568,43.5459],[16.3368,43.5512],[16.2396,43.5266],[16.1177,43.5245],[16.1649,43.5041],[16.1724,43.4897],[16.1108,43.4897],[16.1131,43.4789],[16.0128,43.504],[16.0562,43.5132],[16.0396,43.531],[16.0827,43.5457],[16.0512,43.5781],[16.0484,43.6025],[16.0917,43.6183],[16.1606,43.6829],[16.2387,43.6716],[16.3506,43.7159],[16.3394,43.7399],[16.3504,43.7732],[16.432,43.8188],[16.3867,43.8658],[16.3429,43.8848],[16.3509,43.9262],[16.3998,43.9199],[16.4703,43.9643],[16.5274,43.9679]]],[[[16.5007,43.2842],[16.4058,43.3327],[16.4263,43.3252],[16.4398,43.3327],[16.4349,43.3464],[16.4535,43.3532],[16.4263,43.3941],[16.6877,43.377],[16.8098,43.3532],[16.7962,43.3464],[16.8303,43.3464],[16.8923,43.3122],[16.8723,43.288],[16.8132,43.2678],[16.6283,43.2637],[16.5007,43.2842]]],[[[16.6931,43.1273],[16.5598,43.143],[16.3716,43.1955],[16.4964,43.2181],[16.5549,43.1879],[16.5833,43.1887],[16.5205,43.229],[16.5628,43.229],[16.5833,43.216],[16.6595,43.216],[16.6931,43.1887],[16.6863,43.1818],[16.7277,43.1646],[16.8644,43.1688],[16.8967,43.1548],[17.1553,43.1403],[17.1934,43.1273],[16.6931,43.1273]]],[[[16.2412,43.072],[16.2534,43.0779],[16.2521,43.0624],[16.2103,43.0333],[16.0872,43.0115],[16.0632,43.0174],[16.0845,43.0259],[16.0791,43.0533],[16.0488,43.0652],[16.1302,43.0884],[16.2412,43.072]]],[[[16.3914,43.3464],[16.376,43.3334],[16.3486,43.3387],[16.207,43.3873],[16.2132,43.3941],[16.2005,43.407],[16.277,43.4119],[16.2982,43.4036],[16.3027,43.3873],[16.3298,43.3897],[16.3914,43.3464]]],[[[16.3103,43.5078],[16.3753,43.4902],[16.3333,43.4814],[16.2114,43.4901],[16.2435,43.4949],[16.2644,43.5129],[16.3103,43.5078]]]]}},{"type":"Feature","id":"Varazdin","properties":{"id":"Varazdin","iso_code":"HR-05","name":"Varazdin","name_full":"Varaždin","name_ja":"ヴァラジュディン郡","center_lonlat":[16.3178,46.2419]},"geometry":{"type":"Polygon","coordinates":[[[16.2799,46.3787],[16.3302,46.3618],[16.3613,46.32],[16.4838,46.3018],[16.5951,46.3179],[16.7452,46.3057],[16.7723,46.2874],[16.7706,46.2689],[16.7489,46.2379],[16.6955,46.2102],[16.596,46.2031],[16.5001,46.1618],[16.4851,46.1429],[16.4466,46.1354],[16.4312,46.146],[16.3496,46.1225],[16.3592,46.0246],[16.2938,46.0128],[16.2559,46.0611],[16.2457,46.191],[16.1949,46.2124],[16.1581,46.1876],[15.96,46.1937],[15.9441,46.2151],[15.8875,46.2327],[15.8793,46.2593],[16.0389,46.3084],[16.0596,46.3323],[16.058,46.3775],[16.106,46.3737],[16.1439,46.3947],[16.2087,46.3671],[16.2799,46.3787]]]}},{"type":"Feature","id":"Virovitica-Podravina","properties":{"id":"Virovitica-Podravina","iso_code":"HR-10","name":"Virovitica-Podravina","name_full":"Virovitica-Podravina","name_ja":"ヴィロヴィティツァ＝ポドラヴィナ郡","center_lonlat":[17.6148,45.73]},"geometry":{"type":"Polygon","coordinates":[[[17.3066,45.9799],[17.3271,45.972],[17.3379,45.9846],[17.3453,45.9557],[17.3892,45.9631],[17.4062,45.9437],[17.4267,45.9567],[17.5543,45.9478],[17.6384,45.9013],[17.6647,45.8416],[17.8092,45.8144],[17.8581,45.7717],[17.9062,45.7921],[17.9437,45.7266],[17.9882,45.7139],[18.0099,45.6748],[18.0769,45.6456],[18.0832,45.6303],[18.0579,45.6238],[17.9634,45.5429],[17.9324,45.4972],[17.8791,45.4707],[17.7993,45.4714],[17.7794,45.4907],[17.6504,45.5155],[17.5171,45.5763],[17.5004,45.5554],[17.4305,45.5747],[17.4245,45.5924],[17.492,45.6751],[17.4898,45.693],[17.4322,45.7186],[17.3852,45.7025],[17.3596,45.7214],[17.3671,45.737],[17.3579,45.7536],[17.3218,45.7505],[17.283,45.7773],[17.2772,45.8033],[17.1404,45.8703],[17.1351,45.9159],[17.1925,45.9696],[17.2271,45.983],[17.3066,45.9799]]]}},{"type":"Feature","id":"Vukovar-Syrmia","properties":{"id":"Vukovar-Syrmia","iso_code":"HR-16","name":"Vukovar-Syrmia","name_full":"Vukovar-Syrmia","name_ja":"ヴコヴァル＝スリイェム郡","center_lonlat":[18.8838,45.179]},"geometry":{"type":"Polygon","coordinates":[[[18.5348,45.0884],[18.5023,45.1393],[18.508,45.1675],[18.5369,45.1935],[18.5585,45.1954],[18.5667,45.2326],[18.5074,45.2496],[18.5119,45.2926],[18.5897,45.3186],[18.6294,45.3189],[18.6614,45.3956],[18.7141,45.4161],[18.7869,45.4136],[18.8032,45.4286],[18.7883,45.4603],[18.8611,45.4813],[18.8955,45.4711],[18.9436,45.4306],[19.0023,45.4437],[19.0313,45.4162],[19.0226,45.4024],[18.9755,45.3911],[18.9775,45.3712],[19.0302,45.3451],[19.083,45.3392],[19.1041,45.2987],[19.1585,45.2762],[19.2898,45.2363],[19.3973,45.2233],[19.4054,45.1797],[19.3907,45.1693],[19.3043,45.1665],[19.2867,45.1795],[19.2678,45.1658],[19.2045,45.1629],[19.1439,45.1995],[19.1219,45.1958],[19.1417,45.1622],[19.1377,45.146],[19.0601,45.1469],[19.0449,45.1372],[19.0823,45.0849],[19.0954,45.0209],[19.0872,44.9771],[19.1186,44.9755],[19.1317,44.9532],[19.0667,44.9057],[19.0184,44.9257],[18.9914,44.9149],[19.0158,44.8656],[19.005,44.8633],[18.8896,44.8612],[18.8178,44.8875],[18.7834,44.9137],[18.7726,44.9425],[18.8046,44.9738],[18.789,45.0057],[18.7383,45.0159],[18.6841,45.0848],[18.6713,45.0869],[18.6487,45.0627],[18.6091,45.1001],[18.5348,45.0884]]]}},{"type":"Feature","id":"Zadar","properties":{"id":"Zadar","iso_code":"HR-13","name":"Zadar","name_full":"Zadar","name_ja":"ザダル郡","center_lonlat":[15.7849,44.2834]},"geometry":{"type":"MultiPolygon","coordinates":[[[[15.7341,44.9344],[15.7343,44.9021],[15.7734,44.845],[15.7687,44.8273],[15.7161,44.8032],[15.7285,44.7691],[15.8057,44.6967],[15.8564,44.7036],[15.8888,44.7242],[15.9054,44.6901],[15.9481,44.6781],[15.969,44.6392],[16.0283,44.6247],[16.0447,44.5894],[16.0061,44.541],[16.0266,44.5252],[16.0837,44.5349],[16.1165,44.5215],[16.1597,44.4161],[16.1383,44.3776],[16.1713,44.3771],[16.2029,44.3598],[16.1876,44.2824],[16.2158,44.2082],[16.2755,44.1574],[16.3269,44.0824],[16.3672,44.0581],[16.414,44.0558],[16.4396,44.014],[16.4835,44.0025],[16.5274,43.9679],[16.4703,43.9643],[16.3998,43.9199],[16.3509,43.9262],[16.3246,43.9412],[16.2312,43.9184],[16.1701,43.9269],[16.1541,43.9445],[16.1414,44.0347],[16.0923,44.0113],[16.0327,44.0127],[16.0233,43.9999],[16.0296,43.982],[16.0027,43.9704],[16.0015,43.9497],[15.9532,43.9394],[15.9065,43.9094],[15.8742,43.9298],[15.7817,43.9439],[15.7725,43.9349],[15.7859,43.9151],[15.7399,43.8692],[15.6818,43.8894],[15.6332,43.8637],[15.5752,43.8966],[15.5469,43.8766],[15.5122,43.9111],[15.4551,43.928],[15.3581,44.0257],[15.3195,44.0452],[15.2129,44.131],[15.2127,44.1483],[15.1445,44.1955],[15.1604,44.2132],[15.1522,44.2353],[15.1104,44.2644],[15.1406,44.2825],[15.1576,44.2803],[15.1766,44.2499],[15.2078,44.2728],[15.1854,44.2854],[15.2066,44.2854],[15.1981,44.3017],[15.2953,44.2507],[15.2817,44.2854],[15.3027,44.2991],[15.2612,44.3326],[15.4085,44.2723],[15.5252,44.2607],[15.5287,44.2718],[15.5148,44.2785],[15.4492,44.2854],[15.4141,44.3166],[15.2938,44.3648],[15.3203,44.4049],[15.3443,44.4134],[15.411,44.3754],[15.5019,44.3674],[15.546,44.3305],[15.5537,44.3471],[15.6,44.3642],[15.6309,44.4015],[15.634,44.4217],[15.5911,44.4572],[15.6535,44.495],[15.6231,44.5413],[15.5628,44.5817],[15.5558,44.6309],[15.5357,44.6481],[15.5278,44.6889],[15.4727,44.7378],[15.4754,44.7505],[15.5263,44.7527],[15.5995,44.7894],[15.597,44.8038],[15.5255,44.8333],[15.5668,44.8786],[15.5328,44.9275],[15.5525,44.9491],[15.6183,44.9288],[15.6603,44.9481],[15.7114,44.9297],[15.7341,44.9344]]],[[[15.1445,43.9497],[15.2168,43.9128],[15.2202,43.9012],[15.1955,43.8952],[15.1333,43.9212],[15.1968,43.8864],[15.1945,43.8726],[15.1066,43.9254],[15.0428,43.9904],[15.0031,44.0523],[14.8701,44.1408],[14.8496,44.1756],[14.9391,44.1271],[14.9544,44.1032],[15.0073,44.093],[15.0005,44.0794],[15.0227,44.0722],[15.0414,44.0264],[15.1138,43.9838],[15.1445,43.9497]]],[[[15.3027,43.9664],[15.2612,44.0111],[15.384,43.9702],[15.3916,43.9422],[15.4268,43.9221],[15.4461,43.8875],[15.3587,43.9194],[15.3568,43.9354],[15.3027,43.9664]]],[[[15.2544,44.0179],[15.2233,44.0503],[15.2066,44.0452],[15.1991,44.0588],[15.1891,44.0478],[15.1218,44.0922],[15.0687,44.134],[15.0755,44.1408],[15.0625,44.1619],[15.2258,44.0662],[15.2471,44.0467],[15.2544,44.0179]]],[[[14.7979,44.3777],[14.8112,44.35],[14.801,44.3431],[14.7562,44.364],[14.7682,44.3842],[14.7634,44.4154],[14.7829,44.4189],[14.8032,44.4055],[14.7979,44.3777]]],[[[14.7598,44.2921],[14.7897,44.2669],[14.7485,44.2617],[14.7396,44.2802],[14.7598,44.2921]]],[[[14.6135,44.3408],[14.6614,44.3087],[14.5951,44.3471],[14.6135,44.3408]]],[[[14.8428,44.1483],[14.8692,44.1405],[14.8352,44.1417],[14.8198,44.153],[14.8224,44.1687],[14.8428,44.1483]]]]}},{"type":"Feature","id":"Zagreb","properties":{"id":"Zagreb","iso_code":"HR-01","name":"Zagreb","name_full":"Zagreb","name_ja":"ザグレブ郡","center_lonlat":[15.6106,45.7687]},"geometry":{"type":"Polygon","coordinates":[[[15.6754,45.9725],[15.7637,45.9683],[15.8225,45.9821],[15.9196,45.9571],[15.9395,45.9338],[15.8206,45.9137],[15.8143,45.878],[15.7714,45.8675],[15.7658,45.8463],[15.8101,45.841],[15.8469,45.8094],[15.8132,45.7757],[15.8337,45.7553],[15.8132,45.7246],[15.7824,45.7381],[15.7731,45.7004],[15.8813,45.6542],[15.9215,45.6224],[15.9385,45.6428],[15.9462,45.6939],[15.9666,45.7169],[16.0893,45.7732],[16.1381,45.8083],[16.1898,45.7912],[16.2268,45.8496],[16.1363,45.9704],[16.1721,45.9829],[16.1651,46.0038],[16.2047,46.0042],[16.1862,46.022],[16.2081,46.0334],[16.1904,46.0585],[16.2559,46.0611],[16.2938,46.0128],[16.3592,46.0246],[16.4436,46.0041],[16.4716,45.9764],[16.4694,45.9588],[16.5141,45.9777],[16.6038,45.9257],[16.6926,45.9242],[16.6936,45.8537],[16.6741,45.8261],[16.6375,45.8225],[16.6286,45.8447],[16.6005,45.8173],[16.5993,45.7816],[16.5318,45.7884],[16.4967,45.7651],[16.4371,45.8225],[16.3816,45.812],[16.3726,45.7474],[16.344,45.7395],[16.315,45.7478],[16.2939,45.7279],[16.2973,45.6423],[16.2782,45.613],[16.2271,45.5984],[16.1479,45.6341],[16.0928,45.6006],[16.0492,45.5975],[16.047,45.5838],[16.0995,45.5388],[16.1108,45.5064],[16.0745,45.4997],[16.0465,45.4759],[16.0152,45.4861],[15.9359,45.4748],[15.9229,45.5113],[15.8718,45.5324],[15.8599,45.549],[15.8129,45.5234],[15.784,45.5206],[15.7409,45.5542],[15.7524,45.5763],[15.746,45.5969],[15.7267,45.5887],[15.6122,45.6241],[15.568,45.602],[15.4305,45.6941],[15.3829,45.6904],[15.35,45.6696],[15.3308,45.6846],[15.2919,45.6756],[15.2489,45.7118],[15.2635,45.7304],[15.3038,45.7461],[15.4291,45.7753],[15.4513,45.8151],[15.4854,45.8102],[15.5235,45.8268],[15.6261,45.8202],[15.6661,45.8317],[15.6755,45.856],[15.6594,45.8888],[15.6756,45.9252],[15.6754,45.9725]]]}},{"type":"Feature","id":"Zagreb (HR-21)","properties":{"id":"Zagreb (HR-21)","iso_code":"HR-21","name":"Zagreb (HR-21)","name_full":"Zagreb","name_ja":"ザグレブ","center_lonlat":[15.981,45.8207]},"geometry":{"type":"Polygon","coordinates":[[[16.1363,45.9704],[16.2268,45.8496],[16.1898,45.7912],[16.1381,45.8083],[16.0893,45.7732],[15.9666,45.7169],[15.9462,45.6939],[15.9385,45.6428],[15.9215,45.6224],[15.8813,45.6542],[15.7731,45.7004],[15.7824,45.7381],[15.8132,45.7246],[15.8337,45.7553],[15.8132,45.7757],[15.8469,45.8094],[15.8101,45.841],[15.7658,45.8463],[15.7714,45.8675],[15.8143,45.878],[15.8206,45.9137],[15.9395,45.9338],[15.9656,45.911],[16.1363,45.9704]]]}}]}
