{"type":"FeatureCollection","features":[{"type":"Feature","id":"Artemisa","properties":{"id":"Artemisa","iso_code":"CU-15","name":"Artemisa","name_full":"Artemisa","name_ja":"アルテミサ州","center_lonlat":[-82.6843,22.8592]},"geometry":{"type":"MultiPolygon","coordinates":[[[[-82.9444,22.9851],[-82.9176,23.0325],[-82.7127,23.0349],[-82.5755,23.054],[-82.5387,23.0736],[-82.5172,23.0597],[-82.485,23.0695],[-82.4736,23.0477],[-82.503,23.0183],[-82.4473,22.993],[-82.4359,22.9573],[-82.4578,22.8021],[-82.4169,22.7367],[-82.3913,22.7222],[-82.3916,22.6884],[-82.6329,22.6802],[-82.7599,22.706],[-82.7909,22.6799],[-82.8007,22.6227],[-82.8246,22.6106],[-82.9006,22.7286],[-82.978,22.8071],[-82.9397,22.8162],[-82.9159,22.8406],[-82.9192,22.8738],[-82.9444,22.919],[-82.9444,22.9851]]],[[[-82.5145,22.6251],[-82.5077,22.5901],[-82.5229,22.5593],[-82.5283,22.64],[-82.5145,22.6251]]]]}},{"type":"Feature","id":"Camaguey","properties":{"id":"Camaguey","iso_code":"CU-09","name":"Camaguey","name_full":"Camagüey","name_ja":"カマグエイ州","center_lonlat":[-77.8626,21.3621]},"geometry":{"type":"MultiPolygon","coordinates":[[[[-78.0818,22.0828],[-78.0556,22.0775],[-77.9932,21.9797],[-77.9154,21.9143],[-77.8881,21.8699],[-77.8704,21.8815],[-77.8601,21.9661],[-77.8061,21.9661],[-77.8539,21.9418],[-77.8485,21.9106],[-77.822,21.8803],[-77.7779,21.87],[-77.7516,21.8046],[-77.6647,21.7812],[-77.5864,21.7879],[-77.525,21.7538],[-77.5166,21.7746],[-77.4908,21.7812],[-77.4742,21.765],[-77.4629,21.7668],[-77.4697,21.7812],[-77.4556,21.7768],[-77.422,21.7464],[-77.4525,21.7507],[-77.456,21.7333],[-77.4303,21.6576],[-77.3568,21.6365],[-77.3365,21.6501],[-77.3524,21.6795],[-77.3892,21.7038],[-77.4071,21.7566],[-77.4424,21.7777],[-77.4488,21.8019],[-77.4766,21.801],[-77.4908,21.8153],[-77.5044,21.8035],[-77.5937,21.8887],[-77.6143,21.8842],[-77.5716,21.9308],[-77.5212,21.9012],[-77.5076,21.8625],[-77.4014,21.7905],[-77.3301,21.7663],[-77.1807,21.6643],[-77.1339,21.6645],[-77.1417,21.6456],[-77.1203,21.616],[-77.1238,21.5962],[-77.1544,21.5546],[-77.1854,21.5819],[-77.2497,21.6098],[-77.2848,21.616],[-77.2938,21.6025],[-77.3332,21.6234],[-77.3642,21.6118],[-77.3127,21.5751],[-77.2551,21.5675],[-77.2572,21.5342],[-77.2776,21.5185],[-77.258,21.4764],[-77.2085,21.4761],[-77.2165,21.4584],[-77.1619,21.4801],[-77.1155,21.5932],[-77.0883,21.6062],[-76.9448,21.4578],[-77.0124,21.4162],[-77.1005,21.4165],[-77.1316,21.3391],[-77.1178,21.3139],[-77.0717,21.3092],[-77.1297,21.2567],[-77.1311,21.1735],[-77.187,21.099],[-77.2489,21.0784],[-77.2918,20.995],[-77.3336,21.0095],[-77.3566,20.9807],[-77.3698,20.9971],[-77.3639,21.0201],[-77.4114,21.0285],[-77.4377,21.0761],[-77.466,21.057],[-77.4797,21.0041],[-77.5268,21.0001],[-77.5322,20.9823],[-77.577,20.9694],[-77.5874,20.9378],[-77.617,20.9413],[-77.6474,20.9652],[-77.6581,20.8969],[-77.7658,20.8762],[-77.8177,20.8073],[-77.8311,20.7256],[-77.8992,20.7273],[-77.942,20.698],[-78.0411,20.7045],[-78.0519,20.726],[-78.0655,20.7117],[-78.0984,20.7481],[-78.1441,20.7683],[-78.1908,20.8276],[-78.211,20.8395],[-78.2377,20.8334],[-78.272,20.9011],[-78.3427,20.9494],[-78.4039,20.958],[-78.4299,20.9997],[-78.4879,21.0386],[-78.5044,21.1471],[-78.5382,21.2316],[-78.5317,21.2604],[-78.5115,21.2488],[-78.4982,21.27],[-78.5454,21.2976],[-78.5924,21.4618],[-78.6416,21.5339],[-78.4968,21.6154],[-78.4772,21.6197],[-78.4594,21.6059],[-78.4295,21.6699],[-78.3524,21.6712],[-78.3608,21.6904],[-78.3249,21.7298],[-78.3338,21.7846],[-78.2991,21.818],[-78.2836,21.8196],[-78.2415,21.7629],[-78.1832,21.7692],[-78.1861,21.7998],[-78.1561,21.8181],[-78.2519,21.9256],[-78.2404,21.9547],[-78.1713,21.9695],[-78.0789,22.033],[-78.0709,22.0599],[-78.0818,22.0828]]],[[[-77.6342,22.0543],[-77.6244,22.0297],[-77.6487,21.9711],[-77.6342,21.945],[-77.6826,21.9251],[-77.6779,21.943],[-77.6951,21.9481],[-77.7031,21.9108],[-77.7515,21.9661],[-77.7873,21.9641],[-77.8226,21.9831],[-77.8171,22.0313],[-77.8471,22.0412],[-77.8471,22.007],[-77.8539,22.0275],[-77.8702,22.0133],[-77.9018,22.0152],[-77.9471,22.0728],[-77.9495,22.1026],[-77.8717,22.0756],[-77.8085,22.0996],[-77.7677,22.0685],[-77.7372,22.0822],[-77.6826,22.0543],[-77.6517,22.0703],[-77.6342,22.0543]]],[[[-78.1965,22.3292],[-78.1754,22.3416],[-78.2052,22.368],[-78.2215,22.3399],[-78.2375,22.336],[-78.2442,22.3591],[-78.2307,22.3633],[-78.2305,22.3808],[-78.2463,22.4006],[-78.2698,22.4101],[-78.2921,22.3969],[-78.3126,22.4043],[-78.2987,22.4204],[-78.2116,22.4366],[-78.1897,22.4247],[-78.1697,22.435],[-78.1442,22.4289],[-78.0907,22.3845],[-78.067,22.3105],[-78.0457,22.2882],[-78.011,22.2814],[-78.0277,22.266],[-78.1003,22.3019],[-78.1715,22.3107],[-78.1965,22.3292]]],[[[-77.9973,22.1474],[-78.0457,22.1989],[-78.0079,22.2338],[-78.0033,22.2864],[-78.0178,22.3149],[-77.9749,22.2989],[-77.97,22.2848],[-77.9934,22.2531],[-77.9874,22.2367],[-77.942,22.233],[-77.9234,22.2064],[-77.9086,22.205],[-77.9216,22.2125],[-77.9023,22.233],[-77.8849,22.2148],[-77.8676,22.2268],[-77.8596,22.2096],[-77.9023,22.192],[-77.826,22.1579],[-77.8634,22.0992],[-77.8744,22.1095],[-77.8949,22.1026],[-77.9128,22.1432],[-77.9508,22.1422],[-77.942,22.1169],[-77.9973,22.1474]]],[[[-78.3331,20.5546],[-78.3261,20.5351],[-78.339,20.518],[-78.3966,20.5465],[-78.4098,20.5736],[-78.4634,20.6024],[-78.4335,20.6095],[-78.3842,20.5622],[-78.3673,20.5546],[-78.3553,20.5734],[-78.3331,20.5546]]],[[[-77.8471,22.2603],[-77.8396,22.2737],[-77.8807,22.3087],[-77.8561,22.3124],[-77.8342,22.2959],[-77.8057,22.2282],[-77.7577,22.1784],[-77.7817,22.1778],[-77.8471,22.2603]]],[[[-78.4361,20.726],[-78.5118,20.6911],[-78.5454,20.7042],[-78.484,20.7322],[-78.4361,20.726]]],[[[-78.5817,20.6616],[-78.5857,20.6436],[-78.6134,20.6579],[-78.5817,20.6616]]],[[[-78.6515,20.6649],[-78.6312,20.6531],[-78.6465,20.6523],[-78.6515,20.6649]]]]}},{"type":"Feature","id":"Ciego de Avila","properties":{"id":"Ciego de Avila","iso_code":"CU-08","name":"Ciego de Avila","name_full":"Ciego de Ávila","name_ja":"シエゴ・デ・アビラ州","center_lonlat":[-78.6469,21.965]},"geometry":{"type":"MultiPolygon","coordinates":[[[[-78.9272,22.3987],[-78.7819,22.3906],[-78.7576,22.3223],[-78.7446,22.3292],[-78.7346,22.3162],[-78.7099,22.3559],[-78.7378,22.3906],[-78.7081,22.3869],[-78.6761,22.357],[-78.5669,22.321],[-78.484,22.2603],[-78.3815,22.2466],[-78.3815,22.2193],[-78.3673,22.2268],[-78.3439,22.1889],[-78.3014,22.1638],[-78.1724,22.1436],[-78.1556,22.1095],[-78.1217,22.1079],[-78.1178,22.0935],[-78.0818,22.0828],[-78.0709,22.0599],[-78.0789,22.033],[-78.1713,21.9695],[-78.2404,21.9547],[-78.2519,21.9256],[-78.1561,21.8181],[-78.1861,21.7998],[-78.1832,21.7692],[-78.2415,21.7629],[-78.2836,21.8196],[-78.2991,21.818],[-78.3338,21.7846],[-78.3249,21.7298],[-78.3608,21.6904],[-78.3524,21.6712],[-78.4295,21.6699],[-78.4594,21.6059],[-78.4772,21.6197],[-78.4968,21.6154],[-78.6416,21.5339],[-78.681,21.5566],[-78.7463,21.5681],[-78.7446,21.5893],[-78.6891,21.5864],[-78.7137,21.6186],[-78.7593,21.6406],[-78.8784,21.616],[-78.8988,21.5955],[-78.96,21.5996],[-78.9707,21.6902],[-79.0173,21.7149],[-79.0435,21.6654],[-79.1002,21.6538],[-79.109,21.6654],[-79.0988,21.7106],[-79.1221,21.7499],[-79.0406,21.9392],[-78.9983,21.9421],[-78.9605,22.0032],[-78.9648,22.044],[-79.0464,22.0964],[-79.0478,22.1168],[-79.0347,22.1765],[-78.9343,22.3541],[-78.9272,22.3987]]],[[[-78.4262,22.4626],[-78.4728,22.4512],[-78.5408,22.4585],[-78.6384,22.492],[-78.656,22.5031],[-78.6416,22.5141],[-78.657,22.53],[-78.6936,22.5075],[-78.6962,22.5414],[-78.6832,22.5346],[-78.6706,22.5565],[-78.5726,22.5305],[-78.4664,22.5299],[-78.4368,22.5554],[-78.3964,22.5598],[-78.352,22.543],[-78.3406,22.5285],[-78.3536,22.5346],[-78.3491,22.5211],[-78.2785,22.4487],[-78.2815,22.4388],[-78.3058,22.4453],[-78.4299,22.4186],[-78.4195,22.4459],[-78.402,22.4453],[-78.4011,22.4547],[-78.4128,22.4688],[-78.4262,22.4626]]],[[[-79.0736,20.9177],[-79.0941,20.9177],[-79.0872,20.8973],[-79.1156,20.9108],[-79.1692,20.9649],[-79.1518,20.9661],[-79.1146,20.9308],[-79.1498,20.9768],[-79.1971,20.9997],[-79.1896,20.9792],[-79.201,20.9824],[-79.2244,21.0058],[-79.1821,21.008],[-79.1377,20.9827],[-79.0736,20.9177]]],[[[-78.9259,20.8078],[-78.8766,20.8092],[-78.847,20.7731],[-78.9416,20.7926],[-78.9643,20.8141],[-78.9327,20.8389],[-78.9259,20.8078]]],[[[-79.0252,20.8867],[-78.9712,20.8735],[-78.9889,20.8391],[-79.0798,20.8973],[-79.0252,20.8867]]],[[[-79.3889,21.1232],[-79.3573,21.1276],[-79.2926,21.0748],[-79.3407,21.0729],[-79.3541,21.0822],[-79.3268,21.0822],[-79.3312,21.093],[-79.3541,21.0959],[-79.3889,21.1232]]],[[[-78.8266,20.7532],[-78.807,20.7572],[-78.7508,20.726],[-78.7681,20.7122],[-78.7923,20.7199],[-78.8266,20.7532]]],[[[-78.7377,22.5484],[-78.7283,22.5479],[-78.7388,22.5243],[-78.766,22.5188],[-78.7681,22.5417],[-78.7377,22.5484]]]]}},{"type":"Feature","id":"Cienfuegos","properties":{"id":"Cienfuegos","iso_code":"CU-06","name":"Cienfuegos","name_full":"Cienfuegos","name_ja":"シエンフエーゴス州","center_lonlat":[-80.4497,22.2412]},"geometry":{"type":"Polygon","coordinates":[[[-80.101,21.8248],[-80.2699,21.887],[-80.4099,22.0207],[-80.4167,22.0412],[-80.4481,22.0503],[-80.4509,22.0685],[-80.4193,22.0666],[-80.3888,22.0822],[-80.4099,22.076],[-80.3963,22.1095],[-80.4254,22.1101],[-80.4242,22.1231],[-80.4565,22.1304],[-80.4434,22.1579],[-80.4844,22.192],[-80.5036,22.1782],[-80.5328,22.1858],[-80.5382,22.1645],[-80.4709,22.0891],[-80.4708,22.0412],[-80.5137,22.0563],[-80.5934,22.0542],[-80.6182,22.1213],[-80.7056,22.1275],[-80.7448,22.1169],[-80.8323,22.1575],[-80.8974,22.2115],[-80.8973,22.249],[-80.9236,22.2495],[-80.9309,22.2691],[-80.9121,22.3501],[-80.943,22.3549],[-80.9154,22.4068],[-80.9287,22.4192],[-80.8371,22.482],[-80.6237,22.4595],[-80.5761,22.4744],[-80.5197,22.542],[-80.4462,22.5864],[-80.4172,22.5665],[-80.384,22.5693],[-80.3875,22.5224],[-80.3754,22.5162],[-80.32,22.5333],[-80.3035,22.5686],[-80.2575,22.5785],[-80.2555,22.5429],[-80.2702,22.5178],[-80.2365,22.4785],[-80.2385,22.4467],[-80.2208,22.4278],[-80.2425,22.3847],[-80.1966,22.3374],[-80.1433,22.3326],[-80.1214,22.2714],[-80.0841,22.2456],[-80.1036,22.1902],[-80.0999,22.1234],[-80.0841,22.0703],[-80.0534,22.0365],[-80.0484,21.9772],[-80.0241,21.9385],[-80.0977,21.8715],[-80.101,21.8248]]]}},{"type":"Feature","id":"Granma","properties":{"id":"Granma","iso_code":"CU-12","name":"Granma","name_full":"Granma","name_ja":"グランマ州","center_lonlat":[-76.9242,20.2944]},"geometry":{"type":"Polygon","coordinates":[[[-77.0346,19.8878],[-77.088,19.8854],[-77.1634,19.9081],[-77.2273,19.9111],[-77.2438,19.8967],[-77.3241,19.9003],[-77.34,19.8825],[-77.3127,19.8756],[-77.3585,19.8645],[-77.6115,19.8446],[-77.6732,19.8289],[-77.706,19.83],[-77.7372,19.8557],[-77.7162,19.9166],[-77.6821,19.9296],[-77.6204,20.0203],[-77.5727,20.0611],[-77.5864,20.0885],[-77.551,20.0798],[-77.5219,20.0946],[-77.497,20.1295],[-77.4366,20.1624],[-77.4014,20.1981],[-77.2665,20.2532],[-77.2363,20.3008],[-77.2233,20.3008],[-77.223,20.2834],[-77.1954,20.2865],[-77.1712,20.3073],[-77.1619,20.3383],[-77.1134,20.3685],[-77.1103,20.4164],[-77.0824,20.4653],[-77.1134,20.5124],[-77.1501,20.5379],[-77.1957,20.5522],[-77.1954,20.5341],[-77.2399,20.5631],[-77.2404,20.5921],[-77.2165,20.6024],[-77.1954,20.6365],[-77.251,20.6621],[-77.258,20.6434],[-77.3148,20.7091],[-77.3367,20.7163],[-77.3108,20.7306],[-77.2853,20.7816],[-77.2682,20.7675],[-77.2386,20.7842],[-77.2025,20.7661],[-77.1044,20.7634],[-77.0469,20.7388],[-76.971,20.7536],[-76.8361,20.7433],[-76.812,20.7326],[-76.7829,20.691],[-76.7219,20.7223],[-76.7073,20.7062],[-76.6772,20.7132],[-76.658,20.691],[-76.6279,20.6824],[-76.5703,20.6965],[-76.5598,20.6382],[-76.3961,20.5764],[-76.3745,20.5813],[-76.3726,20.5458],[-76.2444,20.5095],[-76.1797,20.4376],[-76.2273,20.3933],[-76.2432,20.45],[-76.2703,20.4591],[-76.2689,20.4183],[-76.2933,20.3705],[-76.3632,20.3666],[-76.3891,20.2587],[-76.4196,20.2311],[-76.4083,20.1053],[-76.4624,20.0512],[-76.4984,20.0373],[-76.5571,20.0426],[-76.5625,20.0038],[-76.6045,20.0145],[-76.6135,20.0022],[-76.6689,19.9998],[-76.72,20.0273],[-76.7628,20.0113],[-76.8007,20.0379],[-76.8432,20.0083],[-76.9258,20.0034],[-76.9738,19.9496],[-77.0478,19.9389],[-77.0346,19.8878]]]}},{"type":"Feature","id":"Guantanamo","properties":{"id":"Guantanamo","iso_code":"CU-14","name":"Guantanamo","name_full":"Guantánamo","name_ja":"グァンタナモ州","center_lonlat":[-74.9063,20.2115]},"geometry":{"type":"Polygon","coordinates":[[[-75.3821,19.8825],[-75.4837,20.0095],[-75.4897,20.0617],[-75.4288,20.1036],[-75.4481,20.1235],[-75.4505,20.1615],[-75.481,20.2273],[-75.4621,20.2946],[-75.4791,20.34],[-75.437,20.3672],[-75.4192,20.4079],[-75.3936,20.4042],[-75.3755,20.4229],[-75.3372,20.4399],[-75.2911,20.4049],[-75.2602,20.4126],[-75.2405,20.3968],[-75.2124,20.4592],[-75.1105,20.4847],[-75.0483,20.4337],[-75.0159,20.4312],[-74.9888,20.4132],[-74.978,20.4222],[-75.0005,20.4397],[-75.0034,20.4648],[-74.9688,20.4721],[-74.8387,20.4068],[-74.8264,20.4273],[-74.7832,20.4448],[-74.7903,20.491],[-74.7725,20.526],[-74.7152,20.5561],[-74.6735,20.541],[-74.67,20.5277],[-74.6052,20.4857],[-74.495,20.3552],[-74.4234,20.3276],[-74.393,20.2865],[-74.3722,20.3005],[-74.3104,20.2939],[-74.2572,20.3196],[-74.2136,20.311],[-74.1475,20.2592],[-74.1329,20.2046],[-74.142,20.1826],[-74.2251,20.1357],[-74.236,20.0947],[-74.2674,20.0683],[-74.393,20.081],[-74.5805,20.0476],[-74.7131,20.0518],[-74.813,20.0373],[-74.8878,19.9841],[-74.9473,19.9759],[-74.9779,19.923],[-75.0457,19.9076],[-75.0582,19.923],[-75.0663,19.9049],[-75.0918,19.8971],[-75.0949,19.9716],[-75.137,19.9716],[-75.1021,19.9929],[-75.0849,20.0259],[-75.0924,20.0612],[-75.1128,20.0575],[-75.1358,20.0213],[-75.1694,20.0256],[-75.1741,19.9935],[-75.1533,19.9992],[-75.147,19.9843],[-75.229,19.9374],[-75.2329,19.9001],[-75.3821,19.8825]]]}},{"type":"Feature","id":"Havana","properties":{"id":"Havana","iso_code":"CU-03","name":"Havana","name_full":"Havana","name_ja":"ハバナ","center_lonlat":[-82.3072,23.0815]},"geometry":{"type":"Polygon","coordinates":[[[-82.5387,23.0736],[-82.4069,23.1474],[-82.321,23.1715],[-82.2194,23.1942],[-82.1503,23.1789],[-82.1001,23.1876],[-82.0762,23.1394],[-82.0932,23.1314],[-82.111,23.0676],[-82.1649,23.1125],[-82.1885,23.0791],[-82.2114,23.0927],[-82.2021,23.0281],[-82.2498,22.9726],[-82.3558,22.9767],[-82.3888,22.9478],[-82.4121,22.9655],[-82.4359,22.9573],[-82.4473,22.993],[-82.503,23.0183],[-82.4736,23.0477],[-82.485,23.0695],[-82.5172,23.0597],[-82.5387,23.0736]]]}},{"type":"Feature","id":"Holguin","properties":{"id":"Holguin","iso_code":"CU-11","name":"Holguin","name_full":"Holguín","name_ja":"オルギン州","center_lonlat":[-75.8817,20.7513]},"geometry":{"type":"MultiPolygon","coordinates":[[[[-76.3135,21.2519],[-76.1378,21.1672],[-76.1168,21.0915],[-76.0727,21.113],[-76.041,21.0967],[-76.0372,21.0748],[-76.0235,21.0891],[-76.0082,21.0703],[-76.003,21.0959],[-75.9553,21.0959],[-75.9249,21.1157],[-75.8999,21.1128],[-75.8735,21.0888],[-75.8734,21.1021],[-75.8218,21.1369],[-75.794,21.119],[-75.704,21.119],[-75.6843,21.1031],[-75.6754,21.0686],[-75.6359,21.0764],[-75.6131,21.0626],[-75.5785,21.0134],[-75.6349,20.9125],[-75.6815,20.8904],[-75.6964,20.9249],[-75.7236,20.9234],[-75.7355,20.9177],[-75.7157,20.9035],[-75.744,20.9016],[-75.7434,20.8894],[-75.7218,20.855],[-75.6781,20.8782],[-75.6263,20.8768],[-75.5849,20.8568],[-75.5733,20.8275],[-75.5511,20.8215],[-75.5591,20.7977],[-75.5731,20.7977],[-75.6102,20.8166],[-75.6306,20.8431],[-75.7047,20.8287],[-75.7703,20.8358],[-75.7839,20.7464],[-75.7631,20.716],[-75.7245,20.6955],[-75.7089,20.6906],[-75.6331,20.7806],[-75.6077,20.7532],[-75.6126,20.7185],[-75.5775,20.7185],[-75.5836,20.6982],[-75.5511,20.6844],[-75.5567,20.7064],[-75.4978,20.6934],[-75.4822,20.7117],[-75.4481,20.6911],[-75.4407,20.7117],[-75.4761,20.7185],[-75.4397,20.7406],[-75.3942,20.739],[-75.356,20.7199],[-75.3492,20.7085],[-75.373,20.7042],[-75.3594,20.6776],[-75.3458,20.6911],[-75.3372,20.6697],[-75.3128,20.6647],[-75.2563,20.6707],[-75.3314,20.7042],[-75.2943,20.7231],[-75.1943,20.7156],[-75.1786,20.7022],[-75.1949,20.6911],[-75.1153,20.6866],[-75.1061,20.6633],[-75.0987,20.6844],[-75.0719,20.6732],[-75.0646,20.6776],[-75.0788,20.6911],[-74.9984,20.7008],[-74.9511,20.6836],[-74.9407,20.6684],[-74.9001,20.6707],[-74.8509,20.6346],[-74.7512,20.6196],[-74.7356,20.6093],[-74.7499,20.6024],[-74.7349,20.5676],[-74.7152,20.5561],[-74.7725,20.526],[-74.7903,20.491],[-74.7832,20.4448],[-74.8264,20.4273],[-74.8387,20.4068],[-74.9688,20.4721],[-75.0034,20.4648],[-75.0005,20.4397],[-74.978,20.4222],[-74.9888,20.4132],[-75.0159,20.4312],[-75.0483,20.4337],[-75.1105,20.4847],[-75.2124,20.4592],[-75.2405,20.3968],[-75.2602,20.4126],[-75.2911,20.4049],[-75.3372,20.4399],[-75.3755,20.4229],[-75.4246,20.4804],[-75.395,20.5084],[-75.3927,20.5475],[-75.4672,20.533],[-75.5074,20.5518],[-75.5779,20.5007],[-75.6114,20.5106],[-75.6156,20.4698],[-75.6588,20.4415],[-75.7443,20.4411],[-75.8247,20.4076],[-75.8563,20.4101],[-75.8767,20.4217],[-75.8836,20.444],[-75.9372,20.4729],[-75.9333,20.5005],[-75.9772,20.5058],[-75.9856,20.5348],[-76.0467,20.5736],[-76.0434,20.5296],[-76.0969,20.496],[-76.0817,20.4644],[-76.0926,20.4175],[-76.1113,20.4006],[-76.1068,20.4303],[-76.1797,20.4376],[-76.2444,20.5095],[-76.3726,20.5458],[-76.3745,20.5813],[-76.3961,20.5764],[-76.5598,20.6382],[-76.5703,20.6965],[-76.6279,20.6824],[-76.658,20.691],[-76.6772,20.7132],[-76.7073,20.7062],[-76.7219,20.7223],[-76.6995,20.7366],[-76.7211,20.7843],[-76.6879,20.8515],[-76.6873,20.9361],[-76.6747,20.9703],[-76.6368,20.9511],[-76.5208,20.9784],[-76.4836,21.0423],[-76.3385,21.1341],[-76.3135,21.2519]]],[[[-75.5171,20.7943],[-75.4822,20.7378],[-75.5518,20.749],[-75.5777,20.7695],[-75.5785,20.7874],[-75.5171,20.7943]]]]}},{"type":"Feature","id":"Isla de la Juventud","properties":{"id":"Isla de la Juventud","iso_code":"CU-99","name":"Isla de la Juventud","name_full":"Isla de la Juventud","name_ja":"青年の島","center_lonlat":[-82.8492,21.6817]},"geometry":{"type":"MultiPolygon","coordinates":[[[[-82.568,21.6365],[-82.5671,21.612],[-82.5408,21.5955],[-82.5946,21.5418],[-82.8356,21.4447],[-82.9062,21.4375],[-82.9272,21.451],[-83.0785,21.4692],[-83.1621,21.5493],[-83.1918,21.6303],[-83.082,21.5515],[-83.0239,21.5484],[-82.9659,21.5993],[-82.9591,21.562],[-82.941,21.5931],[-82.9461,21.6046],[-82.9877,21.6198],[-83.0735,21.7606],[-83.0856,21.8003],[-83.0752,21.8432],[-83.0187,21.8977],[-82.9591,21.9251],[-83.0047,21.9376],[-82.9895,21.9484],[-82.859,21.9337],[-82.7037,21.8928],[-82.6847,21.8662],[-82.6925,21.824],[-82.633,21.7736],[-82.6096,21.7696],[-82.5926,21.7368],[-82.6164,21.6986],[-82.6164,21.6645],[-82.568,21.6365]]],[[[-81.3723,21.7054],[-81.4967,21.6185],[-81.5607,21.603],[-81.5514,21.6276],[-81.5235,21.6234],[-81.4935,21.6571],[-81.4545,21.6518],[-81.4173,21.6972],[-81.3777,21.7189],[-81.3723,21.7054]]],[[[-81.9812,21.6478],[-81.9728,21.6222],[-81.9898,21.6088],[-82.0743,21.5722],[-82.1142,21.5703],[-81.9967,21.6266],[-81.9812,21.6478]]],[[[-81.8525,21.6636],[-81.8378,21.6611],[-81.9014,21.6156],[-81.9324,21.6285],[-81.9357,21.6419],[-81.9056,21.631],[-81.8525,21.6636]]],[[[-82.6452,21.9545],[-82.5912,21.9267],[-82.6301,21.9207],[-82.6579,21.9321],[-82.6681,21.9491],[-82.6452,21.9545]]]]}},{"type":"Feature","id":"Las Tunas","properties":{"id":"Las Tunas","iso_code":"CU-10","name":"Las Tunas","name_full":"Las Tunas","name_ja":"ラス・トゥーナス州","center_lonlat":[-77.027,21.0139]},"geometry":{"type":"Polygon","coordinates":[[[-76.9448,21.4578],[-76.8384,21.4206],[-76.8254,21.4112],[-76.8323,21.3975],[-76.8118,21.3975],[-76.8256,21.3666],[-76.8975,21.3461],[-76.8873,21.3074],[-76.8362,21.3325],[-76.8391,21.3076],[-76.8295,21.3141],[-76.8056,21.3901],[-76.6715,21.3559],[-76.6366,21.3214],[-76.7162,21.2877],[-76.7123,21.3026],[-76.7314,21.3119],[-76.7347,21.2855],[-76.6131,21.2467],[-76.6415,21.2646],[-76.6536,21.2941],[-76.6168,21.3018],[-76.5579,21.2666],[-76.5449,21.2877],[-76.5599,21.2345],[-76.6131,21.2256],[-76.5927,21.2256],[-76.6063,21.2187],[-76.5983,21.2059],[-76.5653,21.212],[-76.5375,21.1846],[-76.5146,21.2053],[-76.4561,21.2256],[-76.517,21.2392],[-76.529,21.2526],[-76.5255,21.2821],[-76.5073,21.2877],[-76.3876,21.2843],[-76.3135,21.2519],[-76.3385,21.1341],[-76.4836,21.0423],[-76.5208,20.9784],[-76.6368,20.9511],[-76.6747,20.9703],[-76.6873,20.9361],[-76.6879,20.8515],[-76.7211,20.7843],[-76.6995,20.7366],[-76.7219,20.7223],[-76.7829,20.691],[-76.812,20.7326],[-76.8361,20.7433],[-76.971,20.7536],[-77.0469,20.7388],[-77.1044,20.7634],[-77.2025,20.7661],[-77.2386,20.7842],[-77.2682,20.7675],[-77.2853,20.7816],[-77.3108,20.7306],[-77.3367,20.7163],[-77.4032,20.7092],[-77.4424,20.6844],[-77.5045,20.6776],[-77.5727,20.698],[-77.6205,20.6776],[-77.6493,20.6926],[-77.7784,20.7008],[-77.8311,20.7256],[-77.8177,20.8073],[-77.7658,20.8762],[-77.6581,20.8969],[-77.6474,20.9652],[-77.617,20.9413],[-77.5874,20.9378],[-77.577,20.9694],[-77.5322,20.9823],[-77.5268,21.0001],[-77.4797,21.0041],[-77.466,21.057],[-77.4377,21.0761],[-77.4114,21.0285],[-77.3639,21.0201],[-77.3698,20.9971],[-77.3566,20.9807],[-77.3336,21.0095],[-77.2918,20.995],[-77.2489,21.0784],[-77.187,21.099],[-77.1311,21.1735],[-77.1297,21.2567],[-77.0717,21.3092],[-77.1178,21.3139],[-77.1316,21.3391],[-77.1005,21.4165],[-77.0124,21.4162],[-76.9448,21.4578]]]}},{"type":"Feature","id":"Matanzas","properties":{"id":"Matanzas","iso_code":"CU-04","name":"Matanzas","name_full":"Matanzas","name_ja":"マタンサス州","center_lonlat":[-81.2196,22.6138]},"geometry":{"type":"MultiPolygon","coordinates":[[[[-81.6839,23.1569],[-81.5812,23.1578],[-81.5356,23.1294],[-81.5353,23.0863],[-81.5526,23.0543],[-81.5288,23.0472],[-81.5027,23.0554],[-81.4807,23.1003],[-81.2714,23.1496],[-81.1492,23.2124],[-81.1306,23.2056],[-81.2179,23.1727],[-81.2863,23.1305],[-81.2419,23.1137],[-81.1849,23.0521],[-81.1492,23.0349],[-81.1207,23.039],[-81.0781,23.1038],[-81.0399,23.1107],[-80.9875,23.1059],[-80.9778,23.0644],[-80.9594,23.059],[-80.7593,23.097],[-80.6632,23.0895],[-80.6235,23.1129],[-80.618,23.1317],[-80.6365,23.151],[-80.6099,23.1582],[-80.5875,23.1448],[-80.6222,23.0895],[-80.5931,23.068],[-80.6153,23.0372],[-80.618,22.9873],[-80.6302,22.974],[-80.7259,22.9707],[-80.7297,22.9],[-80.7484,22.8805],[-80.7085,22.8259],[-80.6675,22.796],[-80.6047,22.8203],[-80.5849,22.8136],[-80.5503,22.7407],[-80.5731,22.7157],[-80.558,22.6908],[-80.5617,22.6278],[-80.5197,22.542],[-80.5761,22.4744],[-80.6237,22.4595],[-80.8371,22.482],[-80.9287,22.4192],[-80.9154,22.4068],[-80.943,22.3549],[-80.9121,22.3501],[-80.9309,22.2691],[-80.9236,22.2495],[-80.8973,22.249],[-80.8974,22.2115],[-80.8323,22.1575],[-80.7448,22.1169],[-80.7056,22.1275],[-80.6182,22.1213],[-80.5934,22.0542],[-80.7611,22.0611],[-80.9053,22.0461],[-80.9921,22.0543],[-81.0884,22.0858],[-81.143,22.1715],[-81.1361,22.2299],[-81.1671,22.2708],[-81.194,22.2816],[-81.2118,22.2678],[-81.1976,22.2125],[-81.2047,22.0603],[-81.2255,22.0617],[-81.2113,22.0835],[-81.2154,22.115],[-81.2391,22.1511],[-81.2733,22.1374],[-81.2795,22.1026],[-81.3143,22.1095],[-81.3379,22.089],[-81.3741,22.1042],[-81.3961,22.1707],[-81.5235,22.205],[-81.5712,22.1784],[-81.5812,22.192],[-81.6515,22.213],[-81.6666,22.1979],[-81.732,22.205],[-81.7411,22.1896],[-81.7599,22.192],[-81.7525,22.1784],[-81.8102,22.1838],[-81.8497,22.215],[-81.8797,22.2604],[-82.0882,22.3422],[-82.1056,22.3702],[-82.1376,22.3721],[-82.164,22.3969],[-82.1464,22.4222],[-82.1187,22.4318],[-81.8411,22.4308],[-81.6835,22.4636],[-81.6516,22.4878],[-81.6426,22.562],[-81.6507,22.5751],[-81.6059,22.6325],[-81.5981,22.705],[-81.6521,22.7399],[-81.6466,22.7961],[-81.6955,22.8506],[-81.6807,22.9307],[-81.7164,22.9728],[-81.7472,22.9868],[-81.6998,23.0348],[-81.7137,23.0533],[-81.7046,23.0674],[-81.6806,23.0645],[-81.6953,23.1365],[-81.6839,23.1569]]],[[[-80.8282,23.1789],[-80.8048,23.1529],[-80.8306,23.1356],[-80.8978,23.1417],[-80.9717,23.1107],[-80.8998,23.1592],[-80.8413,23.1578],[-80.855,23.1789],[-80.8481,23.1851],[-80.8282,23.1652],[-80.8282,23.1789]]],[[[-80.4919,23.1926],[-80.4708,23.1889],[-80.4952,23.1684],[-80.5806,23.1789],[-80.5597,23.2051],[-80.4919,23.1926]]],[[[-80.775,23.2066],[-80.7125,23.1999],[-80.7119,23.1908],[-80.7408,23.1843],[-80.81,23.1966],[-80.8614,23.2204],[-80.775,23.2066]]],[[[-80.8788,23.2504],[-80.8786,23.2321],[-80.9427,23.2573],[-80.913,23.2656],[-80.8788,23.2504]]],[[[-81.5563,22.066],[-81.547,22.0446],[-81.5819,22.0506],[-81.5889,22.0727],[-81.5563,22.066]]],[[[-80.6685,23.2122],[-80.6747,23.1868],[-80.7043,23.1803],[-80.6949,23.2039],[-80.6685,23.2122]]]]}},{"type":"Feature","id":"Mayabeque","properties":{"id":"Mayabeque","iso_code":"CU-16","name":"Mayabeque","name_full":"Mayabeque","name_ja":"マヤベケ州","center_lonlat":[-82.0047,22.88]},"geometry":{"type":"Polygon","coordinates":[[[-82.1001,23.1876],[-82.0332,23.2005],[-81.9858,23.1715],[-81.8624,23.151],[-81.6839,23.1569],[-81.6953,23.1365],[-81.6806,23.0645],[-81.7046,23.0674],[-81.7137,23.0533],[-81.6998,23.0348],[-81.7472,22.9868],[-81.7164,22.9728],[-81.6807,22.9307],[-81.6955,22.8506],[-81.6466,22.7961],[-81.6521,22.7399],[-81.5981,22.705],[-81.6059,22.6325],[-81.6507,22.5751],[-81.6726,22.5777],[-81.7534,22.638],[-81.8775,22.6797],[-82.0988,22.6549],[-82.1989,22.6858],[-82.339,22.6787],[-82.3916,22.6884],[-82.3913,22.7222],[-82.4169,22.7367],[-82.4578,22.8021],[-82.4359,22.9573],[-82.4121,22.9655],[-82.3888,22.9478],[-82.3558,22.9767],[-82.2498,22.9726],[-82.2021,23.0281],[-82.2114,23.0927],[-82.1885,23.0791],[-82.1649,23.1125],[-82.111,23.0676],[-82.0932,23.1314],[-82.0762,23.1394],[-82.1001,23.1876]]]}},{"type":"Feature","id":"Pinar del Rio","properties":{"id":"Pinar del Rio","iso_code":"CU-01","name":"Pinar del Rio","name_full":"Pinar del Río","name_ja":"ピナール・デル・リオ州","center_lonlat":[-83.7201,22.442]},"geometry":{"type":"Polygon","coordinates":[[[-82.8246,22.6106],[-82.9213,22.5483],[-82.9594,22.5421],[-83.0587,22.4894],[-83.1669,22.3395],[-83.2601,22.3422],[-83.2618,22.322],[-83.2858,22.3227],[-83.2874,22.3019],[-83.3358,22.2678],[-83.3541,22.2258],[-83.3679,22.2256],[-83.3756,22.207],[-83.3982,22.2193],[-83.4155,22.1861],[-83.517,22.1882],[-83.5611,22.205],[-83.5555,22.2236],[-83.5754,22.2466],[-83.6144,22.1957],[-83.671,22.1715],[-83.6648,22.1858],[-83.7809,22.1715],[-83.7877,22.192],[-83.8256,22.1715],[-83.9254,22.1715],[-83.9665,22.134],[-83.9801,22.089],[-83.9726,22.0617],[-83.984,22.0705],[-84.0018,22.0576],[-83.993,22.028],[-83.959,22.035],[-83.9647,22.0133],[-83.9993,21.9895],[-84.0074,21.9692],[-83.9975,21.9418],[-84.0294,21.9199],[-84.1204,21.945],[-84.1992,21.9108],[-84.2401,21.9108],[-84.3052,21.8845],[-84.4232,21.7923],[-84.4662,21.7705],[-84.5084,21.7668],[-84.5214,21.7866],[-84.4735,21.9046],[-84.4962,21.9338],[-84.536,21.9402],[-84.66,21.9121],[-84.7997,21.8321],[-84.8399,21.8229],[-84.9254,21.8358],[-84.9473,21.8603],[-84.946,21.8935],[-84.9312,21.9147],[-84.8776,21.8903],[-84.8487,21.9084],[-84.8646,21.932],[-84.8476,21.9406],[-84.8229,21.9309],[-84.823,21.9108],[-84.5833,22.0075],[-84.5214,22.048],[-84.4959,22.0473],[-84.494,22.035],[-84.4626,22.022],[-84.3873,22.048],[-84.3558,22.0341],[-84.331,22.0046],[-84.2886,22.0207],[-84.2743,22.076],[-84.3082,22.0367],[-84.3221,22.048],[-84.3302,22.0933],[-84.35,22.1026],[-84.3358,22.1306],[-84.3928,22.1485],[-84.4293,22.2017],[-84.4457,22.205],[-84.4154,22.2474],[-84.391,22.3528],[-84.2886,22.4658],[-84.3091,22.4732],[-84.2303,22.5036],[-84.2058,22.5412],[-84.2012,22.5628],[-84.2129,22.5831],[-84.1924,22.5756],[-84.1646,22.5876],[-84.1446,22.5694],[-84.1304,22.6165],[-84.0893,22.6271],[-84.0783,22.6662],[-84.0416,22.6584],[-84.0211,22.6787],[-84.039,22.6971],[-84.0688,22.6985],[-84.057,22.7133],[-84.0223,22.7147],[-84.0072,22.6904],[-83.984,22.6871],[-83.9112,22.7333],[-83.8976,22.7202],[-83.8728,22.7508],[-83.8127,22.7567],[-83.7091,22.8007],[-83.6511,22.7968],[-83.63,22.8083],[-83.6512,22.8158],[-83.6299,22.8283],[-83.558,22.8362],[-83.535,22.877],[-83.4935,22.8773],[-83.5004,22.8636],[-83.4808,22.8603],[-83.4376,22.9035],[-83.3973,22.8841],[-83.4044,22.8738],[-83.3935,22.8769],[-83.3297,22.9511],[-83.2262,23.0019],[-83.1782,22.9865],[-83.1893,22.9478],[-83.1694,22.9301],[-83.1434,22.953],[-83.1617,22.9669],[-83.1605,22.98],[-83.0553,23.0212],[-83.0206,23.0076],[-82.9926,23.0144],[-82.9863,23.0041],[-83.0069,22.994],[-82.9967,22.9802],[-82.9796,22.994],[-82.9817,22.9742],[-82.9444,22.9851],[-82.9444,22.919],[-82.9192,22.8738],[-82.9159,22.8406],[-82.9397,22.8162],[-82.978,22.8071],[-82.9006,22.7286],[-82.8246,22.6106]]]}},{"type":"Feature","id":"Sancti Spiritus","properties":{"id":"Sancti Spiritus","iso_code":"CU-07","name":"Sancti Spiritus","name_full":"Sancti Spíritus","name_ja":"サンクティ・スピリトゥス州","center_lonlat":[-79.4176,21.9537]},"geometry":{"type":"MultiPolygon","coordinates":[[[[-79.4167,22.4725],[-79.3418,22.4132],[-79.3125,22.4003],[-79.2859,22.4043],[-79.2388,22.3764],[-79.2198,22.3884],[-79.1487,22.3776],[-79.1207,22.3969],[-79.0835,22.3838],[-79.0053,22.4043],[-78.9272,22.3987],[-78.9343,22.3541],[-79.0347,22.1765],[-79.0478,22.1168],[-79.0464,22.0964],[-78.9648,22.044],[-78.9605,22.0032],[-78.9983,21.9421],[-79.0406,21.9392],[-79.1221,21.7499],[-79.0988,21.7106],[-79.109,21.6654],[-79.1002,21.6538],[-79.0435,21.6654],[-79.0173,21.7149],[-78.9707,21.6902],[-78.96,21.5996],[-79.0756,21.5861],[-79.1693,21.5517],[-79.2494,21.5519],[-79.3296,21.5737],[-79.3647,21.5993],[-79.4723,21.602],[-79.5153,21.6486],[-79.5397,21.622],[-79.6137,21.6513],[-79.6521,21.6917],[-79.8158,21.7112],[-79.8339,21.6777],[-79.8508,21.6801],[-79.8954,21.6986],[-79.8749,21.7191],[-79.8904,21.7224],[-79.8954,21.76],[-79.93,21.7433],[-80.0127,21.7538],[-79.991,21.7333],[-80.0032,21.7209],[-80.0388,21.7471],[-80.0673,21.817],[-80.101,21.8248],[-80.0977,21.8715],[-80.0241,21.9385],[-79.9432,21.9717],[-79.9145,22.009],[-79.7907,21.9818],[-79.7659,22.0016],[-79.7236,22.0939],[-79.7502,22.105],[-79.7729,22.1493],[-79.7796,22.1769],[-79.7666,22.1928],[-79.7336,22.1921],[-79.6924,22.1588],[-79.649,22.1733],[-79.5784,22.1672],[-79.542,22.1507],[-79.5077,22.1643],[-79.4813,22.2194],[-79.4514,22.2424],[-79.4216,22.2493],[-79.3611,22.2312],[-79.3535,22.2968],[-79.4354,22.4165],[-79.4167,22.4725]]],[[[-78.9842,22.6377],[-79.0045,22.6567],[-79.0872,22.6718],[-78.9608,22.6601],[-78.9842,22.6377]]],[[[-79.2245,22.6397],[-79.1769,22.6447],[-79.2064,22.6244],[-79.2245,22.6397]]]]}},{"type":"Feature","id":"Santiago de Cuba","properties":{"id":"Santiago de Cuba","iso_code":"CU-13","name":"Santiago de Cuba","name_full":"Santiago de Cuba","name_ja":"サンティアーゴ・デ・クーバ州","center_lonlat":[-75.9648,20.1867]},"geometry":{"type":"Polygon","coordinates":[[[-75.3821,19.8825],[-75.4444,19.8967],[-75.4889,19.8791],[-75.5716,19.8967],[-75.6047,19.892],[-75.7218,19.9575],[-75.8938,19.9718],[-75.9801,19.9524],[-76.2023,19.9923],[-76.3661,19.965],[-76.4603,19.9621],[-76.5244,19.9439],[-76.6516,19.9511],[-76.8017,19.9307],[-76.8664,19.9377],[-76.9353,19.8967],[-77.0346,19.8878],[-77.0478,19.9389],[-76.9738,19.9496],[-76.9258,20.0034],[-76.8432,20.0083],[-76.8007,20.0379],[-76.7628,20.0113],[-76.72,20.0273],[-76.6689,19.9998],[-76.6135,20.0022],[-76.6045,20.0145],[-76.5625,20.0038],[-76.5571,20.0426],[-76.4984,20.0373],[-76.4624,20.0512],[-76.4083,20.1053],[-76.4196,20.2311],[-76.3891,20.2587],[-76.3632,20.3666],[-76.2933,20.3705],[-76.2689,20.4183],[-76.2703,20.4591],[-76.2432,20.45],[-76.2273,20.3933],[-76.1797,20.4376],[-76.1068,20.4303],[-76.1113,20.4006],[-76.0926,20.4175],[-76.0817,20.4644],[-76.0969,20.496],[-76.0434,20.5296],[-76.0467,20.5736],[-75.9856,20.5348],[-75.9772,20.5058],[-75.9333,20.5005],[-75.9372,20.4729],[-75.8836,20.444],[-75.8767,20.4217],[-75.8563,20.4101],[-75.8247,20.4076],[-75.7443,20.4411],[-75.6588,20.4415],[-75.6156,20.4698],[-75.6114,20.5106],[-75.5779,20.5007],[-75.5074,20.5518],[-75.4672,20.533],[-75.3927,20.5475],[-75.395,20.5084],[-75.4246,20.4804],[-75.3755,20.4229],[-75.3936,20.4042],[-75.4192,20.4079],[-75.437,20.3672],[-75.4791,20.34],[-75.4621,20.2946],[-75.481,20.2273],[-75.4505,20.1615],[-75.4481,20.1235],[-75.4288,20.1036],[-75.4897,20.0617],[-75.4837,20.0095],[-75.3821,19.8825]]]}},{"type":"Feature","id":"Villa Clara","properties":{"id":"Villa Clara","iso_code":"CU-05","name":"Villa Clara","name_full":"Villa Clara","name_ja":"ビジャ・クララ州","center_lonlat":[-80.0028,22.5328]},"geometry":{"type":"MultiPolygon","coordinates":[[[[-80.5931,23.068],[-80.5568,23.0074],[-80.5362,22.994],[-80.4645,22.9803],[-80.4315,22.9499],[-80.3569,22.9456],[-80.2796,22.912],[-80.2157,22.9171],[-80.1561,22.9387],[-80.1636,22.9626],[-80.1467,22.9631],[-80.0701,22.9318],[-80.05,22.9352],[-80.0462,22.9592],[-80.0161,22.9381],[-79.9879,22.8841],[-79.9198,22.8613],[-79.9165,22.8493],[-79.8631,22.8837],[-79.793,22.8978],[-79.8209,22.8704],[-79.8439,22.8807],[-79.855,22.8725],[-79.868,22.8362],[-79.8572,22.8207],[-79.7719,22.7966],[-79.7002,22.7469],[-79.6831,22.7612],[-79.6517,22.7588],[-79.627,22.6575],[-79.5773,22.6271],[-79.5175,22.5391],[-79.4565,22.5285],[-79.4167,22.4725],[-79.4354,22.4165],[-79.3535,22.2968],[-79.3611,22.2312],[-79.4216,22.2493],[-79.4514,22.2424],[-79.4813,22.2194],[-79.5077,22.1643],[-79.542,22.1507],[-79.5784,22.1672],[-79.649,22.1733],[-79.6924,22.1588],[-79.7336,22.1921],[-79.7666,22.1928],[-79.7796,22.1769],[-79.7729,22.1493],[-79.7502,22.105],[-79.7236,22.0939],[-79.7659,22.0016],[-79.7907,21.9818],[-79.9145,22.009],[-79.9432,21.9717],[-80.0241,21.9385],[-80.0484,21.9772],[-80.0534,22.0365],[-80.0841,22.0703],[-80.0999,22.1234],[-80.1036,22.1902],[-80.0841,22.2456],[-80.1214,22.2714],[-80.1433,22.3326],[-80.1966,22.3374],[-80.2425,22.3847],[-80.2208,22.4278],[-80.2385,22.4467],[-80.2365,22.4785],[-80.2702,22.5178],[-80.2555,22.5429],[-80.2575,22.5785],[-80.3035,22.5686],[-80.32,22.5333],[-80.3754,22.5162],[-80.3875,22.5224],[-80.384,22.5693],[-80.4172,22.5665],[-80.4462,22.5864],[-80.5197,22.542],[-80.5617,22.6278],[-80.558,22.6908],[-80.5731,22.7157],[-80.5503,22.7407],[-80.5849,22.8136],[-80.6047,22.8203],[-80.6675,22.796],[-80.7085,22.8259],[-80.7484,22.8805],[-80.7297,22.9],[-80.7259,22.9707],[-80.6302,22.974],[-80.618,22.9873],[-80.6153,23.0372],[-80.5931,23.068]]],[[[-79.3575,22.6377],[-79.3889,22.6513],[-79.4374,22.6985],[-79.4737,22.6943],[-79.5201,22.7207],[-79.5718,22.7883],[-79.6337,22.7838],[-79.6353,22.8022],[-79.57,22.8041],[-79.4963,22.7331],[-79.372,22.6767],[-79.3268,22.6165],[-79.3575,22.6377]]],[[[-80.3205,22.9865],[-80.2497,23.0109],[-80.2318,23.0001],[-80.2516,22.9865],[-80.2318,22.9592],[-80.3478,22.9865],[-80.3205,22.9865]]],[[[-80.197,23.1243],[-80.1665,23.0925],[-80.1313,23.087],[-80.1624,23.0673],[-80.225,23.0895],[-80.197,23.1243]]],[[[-79.6801,22.8594],[-79.6608,22.8452],[-79.6853,22.8337],[-79.7309,22.8661],[-79.7399,22.8758],[-79.7275,22.904],[-79.7154,22.8961],[-79.7183,22.88],[-79.6801,22.8594]]],[[[-79.8263,22.9647],[-79.817,22.9473],[-79.8422,22.9318],[-79.8274,22.9191],[-79.8465,22.9103],[-79.8645,22.926],[-79.8529,22.9416],[-79.8712,22.9477],[-79.8611,22.9626],[-79.8263,22.9647]]],[[[-80.2447,23.1075],[-80.2394,23.091],[-80.2503,23.0849],[-80.3057,23.1345],[-80.2725,23.14],[-80.2447,23.1075]]],[[[-79.8954,22.9592],[-79.8878,22.9463],[-79.8985,22.9367],[-79.9198,22.9493],[-79.9497,22.9284],[-79.9574,22.953],[-79.9272,22.9663],[-79.8954,22.9592]]],[[[-80.4014,23.1546],[-80.3763,23.1522],[-80.4598,23.1286],[-80.4461,23.1506],[-80.4014,23.1546]]],[[[-80.0614,23.0498],[-80.0563,23.0267],[-80.0948,23.0483],[-80.0768,23.0699],[-80.0614,23.0498]]]]}}]}
