{"type":"FeatureCollection","features":[{"type":"Feature","id":"Curacao","properties":{"id":"Curacao","iso_code":"CW-X01~","name":"Curacao","name_full":"Curaçao","name_ja":"キュラソー","center_lonlat":[-68.9679,12.1906]},"geometry":{"type":"Polygon","coordinates":[[[-68.7808,12.0978],[-68.7397,12.053],[-68.8148,12.0432],[-68.9778,12.1246],[-69.0074,12.1482],[-69.0272,12.1901],[-69.0786,12.2043],[-69.1227,12.269],[-69.1595,12.2934],[-69.1661,12.3878],[-69.0715,12.3414],[-69.0408,12.256],[-69.004,12.2217],[-68.8353,12.171],[-68.7808,12.0978]]]}}]}
