{"type":"FeatureCollection","features":[{"type":"Feature","id":"Famagusta","properties":{"id":"Famagusta","iso_code":"CY-04","name":"Famagusta","name_full":"Famagusta","name_ja":"ファマグスタ地区","center_lonlat":[33.9476,35.0179]},"geometry":{"type":"Polygon","coordinates":[[[33.8963,34.962],[33.866,35.0003],[33.8294,35.0012],[33.8302,35.023],[33.799,35.0385],[33.8271,35.0613],[33.8551,35.0534],[33.8801,35.0731],[33.8981,35.0613],[34.0123,35.0638],[34.051,35.033],[34.0991,34.9652],[34.0345,34.9725],[34.0116,34.9876],[33.8963,34.962]]]}},{"type":"Feature","id":"Larnaca","properties":{"id":"Larnaca","iso_code":"CY-03","name":"Larnaca","name_full":"Larnaca","name_ja":"ラルナカ地区","center_lonlat":[33.446,34.8837]},"geometry":{"type":"MultiPolygon","coordinates":[[[[33.2726,34.7073],[33.2722,34.7731],[33.2531,34.8018],[33.2105,34.8379],[33.1367,34.8556],[33.1307,34.8797],[33.1805,34.9106],[33.2075,34.8995],[33.2371,34.905],[33.2568,34.8899],[33.3197,34.9324],[33.3962,34.9277],[33.4162,34.9658],[33.4449,34.9558],[33.4924,34.9625],[33.5206,35.0001],[33.5028,35.0309],[33.5075,35.0441],[33.4909,35.0496],[33.5002,35.0613],[33.5352,35.0566],[33.5469,35.0731],[33.579,35.0355],[33.6141,35.0464],[33.6375,35.0308],[33.6794,35.0339],[33.7022,35.0223],[33.6997,35.0027],[33.7154,34.9973],[33.7015,34.9729],[33.6541,34.9447],[33.6348,34.8976],[33.6326,34.8525],[33.6056,34.8218],[33.5442,34.815],[33.5132,34.7855],[33.4387,34.7628],[33.4152,34.7585],[33.4002,34.7734],[33.3992,34.7453],[33.2726,34.7073]]],[[[33.8294,35.0012],[33.866,35.0003],[33.8963,34.962],[33.8381,34.9637],[33.859,34.9747],[33.859,34.9918],[33.8294,35.0012]]]]}},{"type":"Feature","id":"Limassol","properties":{"id":"Limassol","iso_code":"CY-02","name":"Limassol","name_full":"Limassol","name_ja":"リマソール地区","center_lonlat":[32.9526,34.7864]},"geometry":{"type":"Polygon","coordinates":[[[32.6417,34.6609],[32.6387,34.6966],[32.7058,34.7414],[32.7049,34.7887],[32.7815,34.8677],[32.7674,34.9025],[32.7735,34.941],[32.7952,34.9543],[32.9061,34.9326],[32.9699,34.9608],[33.0564,34.8904],[33.1307,34.8797],[33.1367,34.8556],[33.2105,34.8379],[33.2531,34.8018],[33.2722,34.7731],[33.2726,34.7073],[33.0864,34.6948],[33.0156,34.6344],[32.9625,34.625],[32.954,34.643],[32.9898,34.6461],[32.9875,34.6734],[32.9547,34.6773],[32.9361,34.6577],[32.9137,34.6603],[32.8656,34.6787],[32.8597,34.7006],[32.8323,34.7009],[32.7986,34.671],[32.7668,34.6761],[32.7492,34.6498],[32.7074,34.6454],[32.6417,34.6609]]]}},{"type":"Feature","id":"Nicosia","properties":{"id":"Nicosia","iso_code":"CY-01","name":"Nicosia","name_full":"Nicosia","name_ja":"ニコシア地区","center_lonlat":[33.0685,35.0395]},"geometry":{"type":"Polygon","coordinates":[[[33.4909,35.0496],[33.5075,35.0441],[33.5028,35.0309],[33.5206,35.0001],[33.4924,34.9625],[33.4449,34.9558],[33.4162,34.9658],[33.3962,34.9277],[33.3197,34.9324],[33.2568,34.8899],[33.2371,34.905],[33.2075,34.8995],[33.1805,34.9106],[33.1307,34.8797],[33.0564,34.8904],[32.9699,34.9608],[32.9061,34.9326],[32.7952,34.9543],[32.7735,34.941],[32.7674,34.9025],[32.7389,34.9102],[32.691,34.8894],[32.6635,34.9094],[32.6574,34.9261],[32.6745,34.9495],[32.6729,34.9816],[32.6081,35.0621],[32.6279,35.0706],[32.6298,35.1059],[32.5665,35.1727],[32.6019,35.1786],[32.6152,35.1634],[32.6407,35.1871],[32.7114,35.1816],[32.7315,35.1432],[32.7948,35.1268],[32.8392,35.0799],[32.8549,35.0792],[32.8704,35.098],[32.9469,35.1026],[33.0311,35.1494],[33.0958,35.1697],[33.1201,35.1603],[33.1575,35.1853],[33.1903,35.1899],[33.3153,35.1619],[33.3745,35.1743],[33.4135,35.1994],[33.4768,35.0948],[33.4666,35.0051],[33.4768,35.0027],[33.4909,35.0496]]]}},{"type":"Feature","id":"Paphos","properties":{"id":"Paphos","iso_code":"CY-05","name":"Paphos","name_full":"Paphos","name_ja":"パフォス地区","center_lonlat":[32.5281,34.9078]},"geometry":{"type":"Polygon","coordinates":[[[32.6417,34.6609],[32.5567,34.6994],[32.4758,34.7132],[32.4133,34.7535],[32.3792,34.8491],[32.3234,34.8984],[32.3314,34.9242],[32.3122,34.9503],[32.3059,35.0014],[32.2717,35.0728],[32.2866,35.0972],[32.3534,35.0479],[32.4138,35.043],[32.4797,35.083],[32.5482,35.176],[32.5665,35.1727],[32.6298,35.1059],[32.6279,35.0706],[32.6081,35.0621],[32.6729,34.9816],[32.6745,34.9495],[32.6574,34.9261],[32.6635,34.9094],[32.691,34.8894],[32.7389,34.9102],[32.7674,34.9025],[32.7815,34.8677],[32.7049,34.7887],[32.7058,34.7414],[32.6387,34.6966],[32.6417,34.6609]]]}}]}
