{"type":"FeatureCollection","features":[{"type":"Feature","id":"Central Bohemian","properties":{"id":"Central Bohemian","iso_code":"CZ-ST","name":"Central Bohemian","name_full":"Central Bohemian","name_ja":"中央ボヘミア州","center_lonlat":[14.5384,49.9946]},"geometry":{"type":"Polygon","coordinates":[[[15.485,49.8756],[15.4831,49.8517],[15.4547,49.8366],[15.4307,49.7952],[15.383,49.7934],[15.2656,49.746],[15.2176,49.7444],[15.168,49.6868],[15.2302,49.6469],[15.2355,49.6152],[15.1286,49.5877],[14.9824,49.5983],[14.9793,49.5807],[14.9228,49.5443],[14.8846,49.5712],[14.8365,49.5752],[14.8215,49.5932],[14.7668,49.6139],[14.7363,49.5913],[14.7259,49.553],[14.6233,49.5176],[14.5757,49.5307],[14.4159,49.5375],[14.3305,49.5185],[14.2812,49.5502],[14.248,49.5541],[14.1308,49.5277],[14.0298,49.5431],[13.9961,49.5138],[13.917,49.4927],[13.8193,49.5121],[13.7556,49.4895],[13.7636,49.5362],[13.7413,49.5612],[13.739,49.6018],[13.7011,49.625],[13.71,49.6448],[13.6938,49.6563],[13.7095,49.6656],[13.689,49.6822],[13.8055,49.7414],[13.7825,49.763],[13.8052,49.8562],[13.8354,49.8673],[13.8251,49.9133],[13.6545,49.9941],[13.5723,49.9961],[13.5149,50.0298],[13.4679,50.041],[13.4103,50.0327],[13.4181,50.0628],[13.4057,50.0872],[13.4914,50.1285],[13.5295,50.1687],[13.6625,50.2175],[13.7212,50.2183],[13.8165,50.2502],[13.8541,50.2442],[13.9426,50.2874],[13.9817,50.2918],[14.0042,50.3318],[14.2376,50.3252],[14.2799,50.3433],[14.3491,50.3493],[14.3701,50.3754],[14.3578,50.4273],[14.3934,50.4232],[14.4516,50.4494],[14.4753,50.4944],[14.572,50.4951],[14.5972,50.4726],[14.7043,50.4884],[14.8263,50.5376],[14.9045,50.6004],[14.9517,50.6034],[15.0055,50.5953],[15.0434,50.5732],[15.076,50.5767],[15.0953,50.535],[15.1309,50.5146],[15.1214,50.4867],[15.1461,50.4137],[15.118,50.3694],[15.1202,50.3444],[15.1847,50.323],[15.2086,50.2857],[15.3468,50.2786],[15.3821,50.1836],[15.3567,50.1539],[15.3952,50.129],[15.4099,50.1032],[15.39,50.0866],[15.3928,50.0478],[15.3402,50.0341],[15.5047,49.9555],[15.485,49.8756]],[[14.5881,49.995],[14.6467,49.9999],[14.6542,50.0118],[14.6412,50.051],[14.6845,50.0874],[14.5442,50.1658],[14.346,50.1406],[14.3307,50.1146],[14.2832,50.1209],[14.2135,50.0994],[14.2445,50.0799],[14.2404,50.0593],[14.3144,49.9868],[14.3229,49.9528],[14.4956,49.9792],[14.5423,49.9999],[14.5881,49.995]]]}},{"type":"Feature","id":"Hradec Kralove","properties":{"id":"Hradec Kralove","iso_code":"CZ-KR","name":"Hradec Kralove","name_full":"Hradec Králové","name_ja":"フラデツ・クラーロヴェー州","center_lonlat":[15.8593,50.3707]},"geometry":{"type":"Polygon","coordinates":[[[15.5221,50.7824],[15.6419,50.7558],[15.6843,50.7314],[15.7922,50.7427],[15.8546,50.6737],[15.958,50.6869],[15.9986,50.6356],[15.982,50.6036],[16.0245,50.6086],[16.0865,50.6468],[16.1755,50.6241],[16.232,50.6609],[16.3316,50.644],[16.4168,50.5866],[16.4259,50.5676],[16.3945,50.5593],[16.3912,50.5218],[16.3526,50.4928],[16.2877,50.4928],[16.2112,50.4513],[16.218,50.4371],[16.198,50.44],[16.1902,50.4242],[16.1996,50.4063],[16.232,50.4026],[16.2625,50.3644],[16.3437,50.37],[16.3532,50.3335],[16.4378,50.298],[16.535,50.2077],[16.5573,50.1547],[16.5842,50.1274],[16.4784,50.1494],[16.4545,50.1088],[16.3511,50.0772],[16.3219,50.0434],[16.1888,50.0223],[16.0588,50.0974],[15.9934,50.1086],[15.9825,50.1498],[15.9493,50.1578],[15.8982,50.1543],[15.8288,50.1123],[15.7912,50.1602],[15.7415,50.1509],[15.7061,50.1072],[15.6525,50.1273],[15.6072,50.1216],[15.5682,50.134],[15.5336,50.127],[15.4727,50.0902],[15.4099,50.1032],[15.3952,50.129],[15.3567,50.1539],[15.3821,50.1836],[15.3468,50.2786],[15.2086,50.2857],[15.1847,50.323],[15.1202,50.3444],[15.118,50.3694],[15.1461,50.4137],[15.1214,50.4867],[15.1309,50.5146],[15.1621,50.5143],[15.2304,50.4819],[15.3,50.5173],[15.3436,50.5061],[15.4226,50.4604],[15.4394,50.4702],[15.4482,50.5145],[15.4796,50.523],[15.5292,50.5015],[15.6187,50.4968],[15.6217,50.5211],[15.5861,50.5751],[15.5913,50.6183],[15.564,50.6557],[15.5695,50.7109],[15.5221,50.7824]]]}},{"type":"Feature","id":"Karlovy Vary","properties":{"id":"Karlovy Vary","iso_code":"CZ-KA","name":"Karlovy Vary","name_full":"Karlovy Vary","name_ja":"カルロヴィ・ヴァリ州","center_lonlat":[12.7347,50.1708]},"geometry":{"type":"Polygon","coordinates":[[[12.9606,50.4092],[13.0112,50.3851],[13.0766,50.3803],[13.1143,50.3523],[13.2196,50.3332],[13.2314,50.3049],[13.2316,50.2183],[13.2722,50.16],[13.2468,50.133],[13.2899,50.1085],[13.2694,50.0959],[13.2795,50.0634],[13.2132,50.0499],[13.2233,50.0053],[13.2126,49.9974],[13.1862,50.0005],[13.1504,50.0265],[13.0814,50.0352],[12.9469,49.9796],[12.9252,49.9287],[12.8725,49.939],[12.836,49.925],[12.8067,49.9417],[12.7291,49.9428],[12.6875,49.9156],[12.6207,49.9222],[12.5809,49.9003],[12.5241,49.905],[12.4627,49.9313],[12.4682,49.9702],[12.4513,49.9806],[12.4145,49.983],[12.2469,50.045],[12.2325,50.0805],[12.1792,50.118],[12.1856,50.1557],[12.1751,50.1826],[12.0796,50.2427],[12.111,50.2766],[12.0761,50.3152],[12.1493,50.3117],[12.1685,50.303],[12.178,50.2688],[12.2396,50.2566],[12.2299,50.2348],[12.2543,50.2174],[12.2732,50.1723],[12.3004,50.1608],[12.3144,50.1673],[12.3087,50.2171],[12.3365,50.2586],[12.3982,50.3152],[12.4668,50.3419],[12.4751,50.3694],[12.5102,50.3888],[12.6918,50.3947],[12.7379,50.4315],[12.8174,50.443],[12.9184,50.4054],[12.9606,50.4092]]]}},{"type":"Feature","id":"Liberec","properties":{"id":"Liberec","iso_code":"CZ-LI","name":"Liberec","name_full":"Liberec","name_ja":"リベレツ州","center_lonlat":[14.9938,50.6954]},"geometry":{"type":"Polygon","coordinates":[[[14.6083,50.8531],[14.7004,50.816],[14.7592,50.8102],[14.7851,50.8201],[14.8104,50.8584],[14.9821,50.8591],[14.9811,50.9091],[14.9978,50.9302],[14.9966,50.9592],[14.961,50.9927],[15.004,51.0207],[15.1079,50.981],[15.1444,51.0116],[15.1702,50.978],[15.2271,50.9774],[15.2698,50.9527],[15.2561,50.8999],[15.2878,50.8549],[15.341,50.8317],[15.3561,50.7755],[15.3703,50.7726],[15.4001,50.798],[15.4418,50.8002],[15.5221,50.7824],[15.5695,50.7109],[15.564,50.6557],[15.5913,50.6183],[15.5861,50.5751],[15.6217,50.5211],[15.6187,50.4968],[15.5292,50.5015],[15.4796,50.523],[15.4482,50.5145],[15.4394,50.4702],[15.4226,50.4604],[15.3436,50.5061],[15.3,50.5173],[15.2304,50.4819],[15.1621,50.5143],[15.1309,50.5146],[15.0953,50.535],[15.076,50.5767],[15.0434,50.5732],[15.0055,50.5953],[14.9517,50.6034],[14.9045,50.6004],[14.8263,50.5376],[14.7043,50.4884],[14.5972,50.4726],[14.572,50.4951],[14.4753,50.4944],[14.4675,50.5173],[14.3963,50.5548],[14.3404,50.6772],[14.4103,50.7405],[14.4488,50.8222],[14.5304,50.7869],[14.5493,50.8016],[14.5595,50.8332],[14.5987,50.8387],[14.6083,50.8531]]]}},{"type":"Feature","id":"Moravian-Silesian","properties":{"id":"Moravian-Silesian","iso_code":"CZ-MO","name":"Moravian-Silesian","name_full":"Moravian-Silesian","name_ja":"モラヴィア・スレスコ州","center_lonlat":[17.9477,49.8099]},"geometry":{"type":"Polygon","coordinates":[[[18.387,49.3776],[18.3599,49.3863],[18.341,49.4329],[18.285,49.4823],[18.1919,49.4858],[18.1456,49.5039],[17.9897,49.4938],[17.9687,49.501],[17.9544,49.5253],[17.9063,49.5273],[17.85,49.5498],[17.84,49.5789],[17.7644,49.6169],[17.7282,49.6624],[17.6795,49.6586],[17.6797,49.7079],[17.652,49.7254],[17.6231,49.7343],[17.5613,49.7279],[17.5189,49.7441],[17.4903,49.7308],[17.4396,49.7326],[17.348,49.7911],[17.2988,49.7823],[17.2132,49.8105],[17.1975,49.8311],[17.1368,49.8417],[17.1401,49.892],[17.1736,49.9246],[17.1428,49.9481],[17.1372,49.9698],[17.2065,50.0384],[17.196,50.0772],[17.2169,50.1235],[17.3161,50.1684],[17.3442,50.1931],[17.3769,50.1883],[17.3957,50.1986],[17.4038,50.2136],[17.388,50.2726],[17.4296,50.2398],[17.4694,50.2656],[17.6064,50.2582],[17.6467,50.2711],[17.6845,50.3124],[17.7136,50.3077],[17.7345,50.2895],[17.7192,50.2528],[17.7476,50.2175],[17.7382,50.2024],[17.6753,50.1747],[17.5894,50.1632],[17.5842,50.1459],[17.6328,50.1063],[17.732,50.0949],[17.7195,50.0809],[17.7633,50.0252],[17.8394,49.9736],[17.8757,49.9687],[17.9416,49.9928],[18.0324,50.0028],[18.0357,50.0172],[18.0069,50.0241],[18.0024,50.0468],[18.0916,50.0172],[18.0851,49.9988],[18.0982,49.989],[18.162,49.9812],[18.2559,49.946],[18.2925,49.9078],[18.3285,49.9288],[18.3688,49.932],[18.4818,49.8966],[18.5592,49.9072],[18.5673,49.8615],[18.5938,49.8522],[18.5663,49.8316],[18.5668,49.8048],[18.6177,49.7139],[18.7277,49.6689],[18.7884,49.6686],[18.8345,49.5476],[18.8332,49.5103],[18.7736,49.5049],[18.7325,49.4803],[18.6359,49.4967],[18.5562,49.4902],[18.5356,49.4817],[18.5147,49.4406],[18.4168,49.3855],[18.3876,49.3898],[18.387,49.3776]]]}},{"type":"Feature","id":"Olomouc","properties":{"id":"Olomouc","iso_code":"CZ-OL","name":"Olomouc","name_full":"Olomouc","name_ja":"オロモウツ州","center_lonlat":[17.1725,49.7721]},"geometry":{"type":"Polygon","coordinates":[[[17.388,50.2726],[17.4038,50.2136],[17.3957,50.1986],[17.3769,50.1883],[17.3442,50.1931],[17.3161,50.1684],[17.2169,50.1235],[17.196,50.0772],[17.2065,50.0384],[17.1372,49.9698],[17.1428,49.9481],[17.1736,49.9246],[17.1401,49.892],[17.1368,49.8417],[17.1975,49.8311],[17.2132,49.8105],[17.2988,49.7823],[17.348,49.7911],[17.4396,49.7326],[17.4903,49.7308],[17.5189,49.7441],[17.5613,49.7279],[17.6231,49.7343],[17.652,49.7254],[17.6797,49.7079],[17.6795,49.6586],[17.7282,49.6624],[17.7644,49.6169],[17.84,49.5789],[17.85,49.5498],[17.9063,49.5273],[17.8913,49.5011],[17.8237,49.508],[17.7863,49.4748],[17.7863,49.4448],[17.7594,49.437],[17.645,49.4481],[17.6273,49.44],[17.6377,49.4194],[17.6281,49.405],[17.5359,49.4023],[17.4698,49.364],[17.3216,49.4062],[17.3159,49.373],[17.3326,49.3489],[17.3202,49.334],[17.2681,49.2993],[17.1887,49.2972],[17.1703,49.262],[17.1484,49.2723],[17.1489,49.2918],[17.1182,49.3281],[17.0381,49.3594],[17.0329,49.3939],[16.9831,49.427],[16.9397,49.4926],[16.8759,49.4986],[16.8711,49.4764],[16.9013,49.4285],[16.8697,49.3932],[16.8435,49.386],[16.7891,49.4135],[16.7834,49.4235],[16.8037,49.4523],[16.7745,49.5117],[16.7906,49.5242],[16.7455,49.555],[16.7273,49.5828],[16.7751,49.5844],[16.7892,49.6079],[16.8103,49.657],[16.8412,49.6777],[16.8337,49.7116],[16.8026,49.7289],[16.7331,49.8286],[16.7487,49.8675],[16.7483,49.9185],[16.7236,49.9879],[16.8122,50.0379],[16.8068,50.0734],[16.8698,50.1897],[16.919,50.2171],[16.9553,50.2135],[16.9603,50.232],[16.9963,50.2129],[17.0148,50.2185],[16.9878,50.2849],[16.9265,50.3193],[16.8979,50.3782],[16.8659,50.4084],[16.8658,50.4224],[16.893,50.4329],[17.0847,50.398],[17.1317,50.3768],[17.1876,50.3785],[17.2109,50.3364],[17.3375,50.313],[17.3191,50.3082],[17.3341,50.2957],[17.3417,50.2597],[17.355,50.2533],[17.3659,50.2716],[17.388,50.2726]]]}},{"type":"Feature","id":"Pardubice","properties":{"id":"Pardubice","iso_code":"CZ-PA","name":"Pardubice","name_full":"Pardubice","name_ja":"パルドゥビツェ州","center_lonlat":[16.181,49.8985]},"geometry":{"type":"Polygon","coordinates":[[[16.5842,50.1274],[16.6606,50.093],[16.7012,50.0949],[16.7953,50.1744],[16.8698,50.1897],[16.8068,50.0734],[16.8122,50.0379],[16.7236,49.9879],[16.7483,49.9185],[16.7487,49.8675],[16.7331,49.8286],[16.8026,49.7289],[16.8337,49.7116],[16.8412,49.6777],[16.8103,49.657],[16.7892,49.6079],[16.7048,49.6282],[16.5636,49.6339],[16.5346,49.6034],[16.392,49.5973],[16.2963,49.6267],[16.2126,49.6763],[16.1047,49.6909],[16.084,49.7086],[16.0006,49.7315],[15.9339,49.6926],[15.8588,49.6998],[15.8293,49.7325],[15.7833,49.7516],[15.7697,49.7735],[15.6834,49.8064],[15.5839,49.8075],[15.5283,49.857],[15.485,49.8756],[15.5047,49.9555],[15.3402,50.0341],[15.3928,50.0478],[15.39,50.0866],[15.4099,50.1032],[15.4727,50.0902],[15.5336,50.127],[15.5682,50.134],[15.6072,50.1216],[15.6525,50.1273],[15.7061,50.1072],[15.7415,50.1509],[15.7912,50.1602],[15.8288,50.1123],[15.8982,50.1543],[15.9493,50.1578],[15.9825,50.1498],[15.9934,50.1086],[16.0588,50.0974],[16.1888,50.0223],[16.3219,50.0434],[16.3511,50.0772],[16.4545,50.1088],[16.4784,50.1494],[16.5842,50.1274]]]}},{"type":"Feature","id":"Plzen-","properties":{"id":"Plzen-","iso_code":"CZ-PL","name":"Plzen-","name_full":"Plzeň-","name_ja":"プルゼニ","center_lonlat":[13.212,49.592]},"geometry":{"type":"Polygon","coordinates":[[[12.5241,49.905],[12.5809,49.9003],[12.6207,49.9222],[12.6875,49.9156],[12.7291,49.9428],[12.8067,49.9417],[12.836,49.925],[12.8725,49.939],[12.9252,49.9287],[12.9469,49.9796],[13.0814,50.0352],[13.1504,50.0265],[13.1862,50.0005],[13.2126,49.9974],[13.2233,50.0053],[13.2132,50.0499],[13.2795,50.0634],[13.2694,50.0959],[13.2899,50.1085],[13.3256,50.0848],[13.3844,50.0774],[13.4057,50.0872],[13.4181,50.0628],[13.4103,50.0327],[13.4679,50.041],[13.5149,50.0298],[13.5723,49.9961],[13.6545,49.9941],[13.8251,49.9133],[13.8354,49.8673],[13.8052,49.8562],[13.7825,49.763],[13.8055,49.7414],[13.689,49.6822],[13.7095,49.6656],[13.6938,49.6563],[13.71,49.6448],[13.7011,49.625],[13.739,49.6018],[13.7413,49.5612],[13.7636,49.5362],[13.7556,49.4895],[13.7825,49.4365],[13.7742,49.3888],[13.7831,49.3503],[13.7364,49.2796],[13.7053,49.2637],[13.71,49.2414],[13.6951,49.2206],[13.7181,49.1932],[13.6852,49.1778],[13.6491,49.1364],[13.609,49.1249],[13.5924,49.0525],[13.5429,49.0094],[13.5224,48.9693],[13.5021,48.9661],[13.4823,48.9376],[13.4273,48.96],[13.3842,48.993],[13.3724,49.0385],[13.2995,49.0936],[13.1785,49.1183],[13.0113,49.2678],[12.9998,49.2949],[12.9399,49.3268],[12.8847,49.3396],[12.8709,49.3367],[12.8754,49.3239],[12.8567,49.3222],[12.7779,49.3325],[12.7293,49.3911],[12.6435,49.4295],[12.6272,49.4602],[12.623,49.5098],[12.5829,49.5224],[12.5466,49.5956],[12.502,49.6197],[12.4964,49.67],[12.4196,49.7002],[12.3836,49.7429],[12.4527,49.7797],[12.4625,49.8312],[12.4825,49.8272],[12.5241,49.905]]]}},{"type":"Feature","id":"Prague","properties":{"id":"Prague","iso_code":"CZ-PR","name":"Prague","name_full":"Prague","name_ja":"プラハ","center_lonlat":[14.4525,50.0638]},"geometry":{"type":"Polygon","coordinates":[[[14.527,50.1688],[14.6831,50.0924],[14.6412,50.051],[14.6542,50.0118],[14.6467,49.9999],[14.5423,49.9999],[14.4956,49.9792],[14.3262,49.9519],[14.3144,49.9868],[14.2404,50.0593],[14.2461,50.078],[14.213,50.0965],[14.2832,50.1209],[14.3307,50.1146],[14.346,50.1406],[14.527,50.1688]]]}},{"type":"Feature","id":"South Bohemian","properties":{"id":"South Bohemian","iso_code":"CZ-JC","name":"South Bohemian","name_full":"South Bohemian","name_ja":"南ボヘミア州","center_lonlat":[14.4278,49.0873]},"geometry":{"type":"Polygon","coordinates":[[[13.5224,48.9693],[13.5429,49.0094],[13.5924,49.0525],[13.609,49.1249],[13.6491,49.1364],[13.6852,49.1778],[13.7181,49.1932],[13.6951,49.2206],[13.71,49.2414],[13.7053,49.2637],[13.7364,49.2796],[13.7831,49.3503],[13.7742,49.3888],[13.7825,49.4365],[13.7556,49.4895],[13.8193,49.5121],[13.917,49.4927],[13.9961,49.5138],[14.0298,49.5431],[14.1308,49.5277],[14.248,49.5541],[14.2812,49.5502],[14.3305,49.5185],[14.4159,49.5375],[14.5757,49.5307],[14.6233,49.5176],[14.7259,49.553],[14.7363,49.5913],[14.7668,49.6139],[14.8215,49.5932],[14.8365,49.5752],[14.8846,49.5712],[14.9228,49.5443],[14.9436,49.5205],[14.8895,49.4995],[14.9071,49.4482],[14.885,49.3685],[14.9113,49.3444],[14.9206,49.3003],[14.9771,49.2698],[15.0297,49.2827],[15.1634,49.2097],[15.2001,49.2327],[15.3317,49.2046],[15.3491,49.159],[15.4052,49.1237],[15.5427,49.1292],[15.5983,49.0867],[15.5495,49.076],[15.4979,49.0037],[15.5747,48.9662],[15.5442,48.9026],[15.4504,48.9448],[15.2745,48.9867],[15.2381,48.9508],[15.1419,48.9375],[15.149,48.9653],[15.1374,48.993],[14.9821,49.0079],[14.9646,48.9717],[14.9682,48.885],[14.9381,48.8028],[14.9511,48.7803],[14.9396,48.7628],[14.8004,48.7765],[14.7754,48.724],[14.7038,48.6731],[14.6957,48.5895],[14.6592,48.577],[14.6347,48.6023],[14.6051,48.6003],[14.5942,48.6213],[14.522,48.6106],[14.4582,48.6432],[14.4054,48.5863],[14.3157,48.5579],[14.0408,48.6012],[14.0062,48.6395],[14.0329,48.6549],[14.0321,48.6673],[13.9823,48.7065],[13.8157,48.7664],[13.7247,48.8673],[13.6544,48.8822],[13.6218,48.9091],[13.6087,48.9462],[13.5224,48.9693]]]}},{"type":"Feature","id":"South Moravian","properties":{"id":"South Moravian","iso_code":"CZ-JM","name":"South Moravian","name_full":"South Moravian","name_ja":"南モラヴィア州","center_lonlat":[16.6341,49.0731]},"geometry":{"type":"Polygon","coordinates":[[[15.5442,48.9026],[15.5747,48.9662],[15.6021,48.9713],[15.6341,48.9453],[15.68,48.9737],[15.7358,48.9544],[15.8082,48.9976],[15.8774,49.0061],[15.8913,49.0292],[15.9483,49.0561],[15.9864,49.0359],[16.0449,49.0479],[16.1138,49.0405],[16.1573,49.07],[16.2277,49.0849],[16.2564,49.1122],[16.247,49.1481],[16.2737,49.1799],[16.2427,49.2137],[16.2524,49.2432],[16.2814,49.2539],[16.2707,49.2811],[16.2772,49.3006],[16.3915,49.3597],[16.3625,49.4773],[16.4086,49.5044],[16.4025,49.5273],[16.3725,49.5495],[16.392,49.5973],[16.5346,49.6034],[16.5636,49.6339],[16.7048,49.6282],[16.7892,49.6079],[16.7751,49.5844],[16.7273,49.5828],[16.7455,49.555],[16.7906,49.5242],[16.7745,49.5117],[16.8037,49.4523],[16.7834,49.4235],[16.7891,49.4135],[16.8435,49.386],[16.8697,49.3932],[16.9013,49.4285],[16.8711,49.4764],[16.8759,49.4986],[16.9397,49.4926],[16.9831,49.427],[17.0329,49.3939],[17.0381,49.3594],[17.1182,49.3281],[17.1489,49.2918],[17.1484,49.2723],[17.1286,49.2443],[17.1383,49.2163],[17.2019,49.1578],[17.1513,49.1334],[17.1105,49.0907],[17.1417,49.0771],[17.221,49.0851],[17.2278,49.0332],[17.341,49.0068],[17.3531,48.978],[17.4237,48.9452],[17.4707,48.957],[17.5232,48.9483],[17.5446,48.9145],[17.6225,48.8901],[17.646,48.8418],[17.5351,48.813],[17.4985,48.8168],[17.4533,48.8428],[17.3744,48.8196],[17.2603,48.8578],[17.1675,48.8598],[17.1137,48.8339],[17.0987,48.8058],[17.0253,48.7463],[16.945,48.6042],[16.9105,48.6308],[16.8967,48.697],[16.873,48.719],[16.7989,48.7092],[16.729,48.7331],[16.6751,48.7339],[16.6431,48.7783],[16.624,48.7834],[16.5195,48.8056],[16.4531,48.8022],[16.385,48.7371],[16.3583,48.7273],[16.1778,48.7465],[16.0854,48.7429],[15.9318,48.8064],[15.8996,48.8347],[15.8758,48.8331],[15.886,48.842],[15.8333,48.852],[15.8185,48.8723],[15.7038,48.855],[15.5442,48.9026]]]}},{"type":"Feature","id":"Usti nad Labem","properties":{"id":"Usti nad Labem","iso_code":"CZ-US","name":"Usti nad Labem","name_full":"Ústí nad Labem","name_ja":"ウースチー州","center_lonlat":[13.8365,50.5216]},"geometry":{"type":"Polygon","coordinates":[[[14.6083,50.8531],[14.5987,50.8387],[14.5595,50.8332],[14.5493,50.8016],[14.5304,50.7869],[14.4488,50.8222],[14.4103,50.7405],[14.3404,50.6772],[14.3963,50.5548],[14.4675,50.5173],[14.4753,50.4944],[14.4516,50.4494],[14.3934,50.4232],[14.3578,50.4273],[14.3701,50.3754],[14.3491,50.3493],[14.2799,50.3433],[14.2376,50.3252],[14.0042,50.3318],[13.9817,50.2918],[13.9426,50.2874],[13.8541,50.2442],[13.8165,50.2502],[13.7212,50.2183],[13.6625,50.2175],[13.5295,50.1687],[13.4914,50.1285],[13.4057,50.0872],[13.3844,50.0774],[13.3256,50.0848],[13.2899,50.1085],[13.2468,50.133],[13.2722,50.16],[13.2316,50.2183],[13.2314,50.3049],[13.2196,50.3332],[13.1143,50.3523],[13.0766,50.3803],[13.0112,50.3851],[12.9606,50.4092],[12.9966,50.4337],[13.0096,50.4927],[13.1601,50.497],[13.1991,50.5253],[13.2323,50.582],[13.2846,50.569],[13.3056,50.5758],[13.3219,50.6024],[13.3688,50.6283],[13.407,50.6013],[13.4479,50.5973],[13.4982,50.6292],[13.4933,50.6432],[13.5233,50.6622],[13.5156,50.691],[13.5566,50.7067],[13.8345,50.7237],[13.8822,50.7427],[13.8791,50.7635],[13.8925,50.7804],[13.9233,50.78],[13.9596,50.8021],[14.0349,50.8026],[14.1908,50.8479],[14.2321,50.8794],[14.3465,50.8802],[14.3759,50.896],[14.3819,50.9209],[14.3183,50.9375],[14.2928,50.9535],[14.3038,50.9697],[14.2383,50.9825],[14.2875,51.0368],[14.3566,51.0323],[14.3978,51.0131],[14.4621,51.0197],[14.4821,51.0372],[14.5029,51.0085],[14.5743,50.9755],[14.5756,50.9507],[14.5504,50.9121],[14.6292,50.9207],[14.6346,50.9094],[14.6083,50.8531]]]}},{"type":"Feature","id":"Vysocina","properties":{"id":"Vysocina","iso_code":"CZ-VY","name":"Vysocina","name_full":"Vysočina","name_ja":"ヴィソチナ州","center_lonlat":[15.6815,49.4113]},"geometry":{"type":"Polygon","coordinates":[[[16.392,49.5973],[16.3725,49.5495],[16.4025,49.5273],[16.4086,49.5044],[16.3625,49.4773],[16.3915,49.3597],[16.2772,49.3006],[16.2707,49.2811],[16.2814,49.2539],[16.2524,49.2432],[16.2427,49.2137],[16.2737,49.1799],[16.247,49.1481],[16.2564,49.1122],[16.2277,49.0849],[16.1573,49.07],[16.1138,49.0405],[16.0449,49.0479],[15.9864,49.0359],[15.9483,49.0561],[15.8913,49.0292],[15.8774,49.0061],[15.8082,48.9976],[15.7358,48.9544],[15.68,48.9737],[15.6341,48.9453],[15.6021,48.9713],[15.5747,48.9662],[15.4979,49.0037],[15.5495,49.076],[15.5983,49.0867],[15.5427,49.1292],[15.4052,49.1237],[15.3491,49.159],[15.3317,49.2046],[15.2001,49.2327],[15.1634,49.2097],[15.0297,49.2827],[14.9771,49.2698],[14.9206,49.3003],[14.9113,49.3444],[14.885,49.3685],[14.9071,49.4482],[14.8895,49.4995],[14.9436,49.5205],[14.9228,49.5443],[14.9793,49.5807],[14.9824,49.5983],[15.1286,49.5877],[15.2355,49.6152],[15.2302,49.6469],[15.168,49.6868],[15.2176,49.7444],[15.2656,49.746],[15.383,49.7934],[15.4307,49.7952],[15.4547,49.8366],[15.4831,49.8517],[15.485,49.8756],[15.5283,49.857],[15.5839,49.8075],[15.6834,49.8064],[15.7697,49.7735],[15.7833,49.7516],[15.8293,49.7325],[15.8588,49.6998],[15.9339,49.6926],[16.0006,49.7315],[16.084,49.7086],[16.1047,49.6909],[16.2126,49.6763],[16.2963,49.6267],[16.392,49.5973]]]}},{"type":"Feature","id":"Zlin","properties":{"id":"Zlin","iso_code":"CZ-ZL","name":"Zlin","name_full":"Zlín","name_ja":"ズリン","center_lonlat":[17.7334,49.2134]},"geometry":{"type":"Polygon","coordinates":[[[17.646,48.8418],[17.6225,48.8901],[17.5446,48.9145],[17.5232,48.9483],[17.4707,48.957],[17.4237,48.9452],[17.3531,48.978],[17.341,49.0068],[17.2278,49.0332],[17.221,49.0851],[17.1417,49.0771],[17.1105,49.0907],[17.1513,49.1334],[17.2019,49.1578],[17.1383,49.2163],[17.1286,49.2443],[17.1484,49.2723],[17.1703,49.262],[17.1887,49.2972],[17.2681,49.2993],[17.3202,49.334],[17.3326,49.3489],[17.3159,49.373],[17.3216,49.4062],[17.4698,49.364],[17.5359,49.4023],[17.6281,49.405],[17.6377,49.4194],[17.6273,49.44],[17.645,49.4481],[17.7594,49.437],[17.7863,49.4448],[17.7863,49.4748],[17.8237,49.508],[17.8913,49.5011],[17.9063,49.5273],[17.9544,49.5253],[17.9687,49.501],[17.9897,49.4938],[18.1456,49.5039],[18.1919,49.4858],[18.285,49.4823],[18.341,49.4329],[18.3599,49.3863],[18.387,49.3776],[18.3852,49.3423],[18.1606,49.2587],[18.1178,49.2026],[18.1051,49.1698],[18.1029,49.0922],[18.0755,49.0472],[18.0129,49.0191],[17.9141,49.0105],[17.8787,48.9336],[17.8603,48.9217],[17.7955,48.9206],[17.7272,48.8629],[17.646,48.8418]]]}}]}
