{"type":"FeatureCollection","features":[{"type":"Feature","id":"Azua","properties":{"id":"Azua","iso_code":"DO-02","name":"Azua","name_full":"Azua","name_ja":"アスア州","center_lonlat":[-70.8341,18.5809]},"geometry":{"type":"Polygon","coordinates":[[[-70.5794,18.2718],[-70.5968,18.2891],[-70.5718,18.3341],[-70.5795,18.3856],[-70.6147,18.4208],[-70.6825,18.4356],[-70.7038,18.4301],[-70.712,18.3834],[-70.7417,18.3554],[-70.846,18.3422],[-70.9183,18.2696],[-70.9656,18.2621],[-70.9507,18.2861],[-70.9594,18.354],[-71.0332,18.3739],[-71.0524,18.4038],[-71.0015,18.4539],[-71.0148,18.502],[-70.9936,18.5096],[-70.9933,18.5273],[-71.1138,18.5703],[-71.1613,18.6159],[-71.1174,18.6271],[-71.0911,18.6644],[-71.0558,18.6788],[-71.0594,18.7664],[-71.0269,18.7761],[-71.0039,18.7531],[-70.9903,18.7656],[-70.9753,18.8837],[-70.8912,18.9885],[-70.8387,18.9545],[-70.8274,18.8623],[-70.7848,18.8073],[-70.7238,18.7778],[-70.6858,18.734],[-70.7,18.6768],[-70.6503,18.5724],[-70.6106,18.533],[-70.5219,18.4887],[-70.4791,18.4132],[-70.4725,18.3948],[-70.49,18.3496],[-70.4874,18.3212],[-70.5237,18.2819],[-70.5794,18.2718]]]}},{"type":"Feature","id":"Baoruco","properties":{"id":"Baoruco","iso_code":"DO-03","name":"Baoruco","name_full":"Baoruco","name_ja":"バオルコ州","center_lonlat":[-71.3313,18.5133]},"geometry":{"type":"Polygon","coordinates":[[[-71.535,18.6508],[-71.3935,18.6032],[-71.3449,18.5996],[-71.3002,18.6202],[-71.1977,18.6354],[-71.1613,18.6159],[-71.1138,18.5703],[-70.9933,18.5273],[-70.9936,18.5096],[-71.0148,18.502],[-71.0344,18.5259],[-71.0634,18.4753],[-71.1803,18.3971],[-71.2008,18.3384],[-71.2367,18.336],[-71.2646,18.3579],[-71.2906,18.4042],[-71.3384,18.407],[-71.3767,18.3927],[-71.4155,18.4021],[-71.5926,18.478],[-71.6207,18.5653],[-71.6043,18.6215],[-71.5995,18.6326],[-71.535,18.6508]]]}},{"type":"Feature","id":"Barahona","properties":{"id":"Barahona","iso_code":"DO-04","name":"Barahona","name_full":"Barahona","name_ja":"バラオナ","center_lonlat":[-71.2101,18.1696]},"geometry":{"type":"Polygon","coordinates":[[[-70.9656,18.2621],[-71.0049,18.301],[-71.084,18.3044],[-71.1033,18.255],[-71.0611,18.1421],[-71.2043,17.9111],[-71.2459,17.8851],[-71.2678,17.8466],[-71.281,17.8531],[-71.2817,17.8946],[-71.2977,17.9295],[-71.3529,17.9251],[-71.4022,17.9639],[-71.4237,18.015],[-71.3909,18.0419],[-71.3912,18.119],[-71.4219,18.1359],[-71.4176,18.163],[-71.3993,18.1816],[-71.351,18.178],[-71.3814,18.2901],[-71.3371,18.2992],[-71.2866,18.2828],[-71.2339,18.2963],[-71.2008,18.3384],[-71.1803,18.3971],[-71.0634,18.4753],[-71.0344,18.5259],[-71.0148,18.502],[-71.0015,18.4539],[-71.0524,18.4038],[-71.0332,18.3739],[-70.9594,18.354],[-70.9507,18.2861],[-70.9656,18.2621]]]}},{"type":"Feature","id":"Dajabon","properties":{"id":"Dajabon","iso_code":"DO-05","name":"Dajabon","name_full":"Dajabón","name_ja":"ダハボン","center_lonlat":[-71.6012,19.437]},"geometry":{"type":"Polygon","coordinates":[[[-71.746,19.649],[-71.6377,19.6073],[-71.5074,19.6129],[-71.4923,19.5868],[-71.4131,19.5445],[-71.4487,19.4658],[-71.4662,19.3586],[-71.5151,19.338],[-71.4883,19.2988],[-71.5258,19.2702],[-71.5741,19.284],[-71.5938,19.2519],[-71.6517,19.2179],[-71.7165,19.2478],[-71.7537,19.2838],[-71.7765,19.3275],[-71.7335,19.3555],[-71.7039,19.4146],[-71.7151,19.5375],[-71.7431,19.6001],[-71.746,19.649]]]}},{"type":"Feature","id":"Duarte","properties":{"id":"Duarte","iso_code":"DO-06","name":"Duarte","name_full":"Duarte","name_ja":"ドゥアルテ州","center_lonlat":[-70.0855,19.2429]},"geometry":{"type":"Polygon","coordinates":[[[-70.2151,19.4974],[-70.1457,19.4552],[-70.1187,19.3471],[-70.0839,19.323],[-70.0535,19.3193],[-69.9913,19.2571],[-69.7861,19.1981],[-69.7373,19.2201],[-69.6768,19.2065],[-69.6767,19.1794],[-69.719,19.1527],[-69.7361,19.1054],[-69.7558,19.0876],[-69.8749,19.084],[-69.8934,19.0383],[-69.9203,19.0393],[-69.9078,19.0935],[-69.9291,19.1064],[-70.0169,19.1161],[-70.0891,19.1443],[-70.2664,19.1556],[-70.2814,19.1464],[-70.3313,19.1776],[-70.3636,19.2249],[-70.3627,19.2675],[-70.3211,19.3994],[-70.2506,19.4417],[-70.2366,19.4992],[-70.2151,19.4974]]]}},{"type":"Feature","id":"El Seibo","properties":{"id":"El Seibo","iso_code":"DO-08","name":"El Seibo","name_full":"El Seibo","name_ja":"エル・セイボ州","center_lonlat":[-69.056,18.819]},"geometry":{"type":"Polygon","coordinates":[[[-69.2117,19.021],[-69.1575,19.0122],[-69.1387,19.0223],[-69.1575,19.0464],[-69.1395,19.0512],[-69.1029,19.0054],[-69.0544,18.9775],[-68.9754,19.0331],[-68.9186,19.0273],[-68.8763,18.9986],[-68.7851,18.9799],[-68.8324,18.9357],[-68.8452,18.8693],[-68.818,18.82],[-68.8387,18.7634],[-68.8899,18.7248],[-68.9389,18.7081],[-68.9353,18.6657],[-68.979,18.6495],[-69.0425,18.557],[-69.0927,18.5273],[-69.0802,18.5765],[-69.1409,18.5751],[-69.1937,18.6204],[-69.2536,18.6402],[-69.2198,18.7578],[-69.2353,18.7979],[-69.2926,18.8545],[-69.3286,18.9241],[-69.272,18.9336],[-69.1895,18.9153],[-69.2171,18.9624],[-69.2117,19.021]]]}},{"type":"Feature","id":"Espaillat","properties":{"id":"Espaillat","iso_code":"DO-09","name":"Espaillat","name_full":"Espaillat","name_ja":"エスパイジャト州","center_lonlat":[-70.3936,19.5391]},"geometry":{"type":"Polygon","coordinates":[[[-70.3727,19.7142],[-70.3362,19.6776],[-70.2808,19.6518],[-70.1314,19.6221],[-70.094,19.6367],[-70.112,19.5787],[-70.1615,19.5514],[-70.2062,19.5516],[-70.2151,19.4974],[-70.2366,19.4992],[-70.2883,19.5586],[-70.3624,19.4987],[-70.3743,19.5254],[-70.4089,19.5395],[-70.4423,19.5003],[-70.4457,19.3773],[-70.4673,19.3188],[-70.4955,19.3136],[-70.5156,19.3615],[-70.5585,19.349],[-70.6139,19.3688],[-70.5837,19.3905],[-70.5805,19.4603],[-70.5477,19.5178],[-70.5098,19.6373],[-70.4942,19.6507],[-70.3982,19.6592],[-70.3727,19.7142]]]}},{"type":"Feature","id":"Hato Mayor","properties":{"id":"Hato Mayor","iso_code":"DO-30","name":"Hato Mayor","name_full":"Hato Mayor","name_ja":"アト・マジョール州","center_lonlat":[-69.3433,18.874]},"geometry":{"type":"Polygon","coordinates":[[[-69.6209,19.102],[-69.6085,19.0935],[-69.5105,19.102],[-69.4634,19.0847],[-69.4386,19.0873],[-69.4734,19.1085],[-69.4044,19.1085],[-69.3561,19.0532],[-69.2117,19.021],[-69.2171,18.9624],[-69.1895,18.9153],[-69.272,18.9336],[-69.3286,18.9241],[-69.2926,18.8545],[-69.2353,18.7979],[-69.2198,18.7578],[-69.2536,18.6402],[-69.2877,18.6176],[-69.3537,18.522],[-69.4285,18.6541],[-69.4591,18.8026],[-69.3809,18.8711],[-69.3993,18.8888],[-69.4356,18.8933],[-69.5917,18.9697],[-69.6378,19.0089],[-69.6186,19.0679],[-69.6209,19.102]]]}},{"type":"Feature","id":"Hermanas Mirabal","properties":{"id":"Hermanas Mirabal","iso_code":"DO-19","name":"Hermanas Mirabal","name_full":"Hermanas Mirabal","name_ja":"エルマーナス・ミラバル州","center_lonlat":[-70.3676,19.4078]},"geometry":{"type":"Polygon","coordinates":[[[-70.2366,19.4992],[-70.2506,19.4417],[-70.3211,19.3994],[-70.3627,19.2675],[-70.3636,19.2249],[-70.4045,19.2276],[-70.4325,19.2533],[-70.4673,19.3188],[-70.4457,19.3773],[-70.4423,19.5003],[-70.4089,19.5395],[-70.3743,19.5254],[-70.3624,19.4987],[-70.2883,19.5586],[-70.2366,19.4992]]]}},{"type":"Feature","id":"Independencia","properties":{"id":"Independencia","iso_code":"DO-10","name":"Independencia","name_full":"Independencia","name_ja":"インデペンデンシア州","center_lonlat":[-71.6285,18.4229]},"geometry":{"type":"Polygon","coordinates":[[[-71.7849,18.6847],[-71.535,18.6508],[-71.5995,18.6326],[-71.6043,18.6215],[-71.6207,18.5653],[-71.5926,18.478],[-71.4155,18.4021],[-71.3767,18.3927],[-71.3384,18.407],[-71.2906,18.4042],[-71.2646,18.3579],[-71.2367,18.336],[-71.2008,18.3384],[-71.2339,18.2963],[-71.2866,18.2828],[-71.3371,18.2992],[-71.3814,18.2901],[-71.351,18.178],[-71.3993,18.1816],[-71.4176,18.163],[-71.4219,18.1359],[-71.4805,18.1855],[-71.5516,18.2076],[-71.7217,18.293],[-71.7093,18.3133],[-71.7207,18.324],[-71.8264,18.3762],[-71.8582,18.4136],[-71.9122,18.4307],[-71.9182,18.4492],[-71.9041,18.4848],[-72.0098,18.5988],[-71.9555,18.6186],[-71.8803,18.6054],[-71.8416,18.618],[-71.7849,18.6847]]]}},{"type":"Feature","id":"La Altagracia","properties":{"id":"La Altagracia","iso_code":"DO-11","name":"La Altagracia","name_full":"La Altagracia","name_ja":"ラ・アルタグラシア州","center_lonlat":[-68.6606,18.5831]},"geometry":{"type":"MultiPolygon","coordinates":[[[[-68.7851,18.9799],[-68.7397,18.9644],[-68.5808,18.8126],[-68.3562,18.6566],[-68.3286,18.6165],[-68.3341,18.5773],[-68.4413,18.429],[-68.4557,18.3579],[-68.5166,18.3475],[-68.5889,18.3823],[-68.6055,18.3717],[-68.5975,18.3366],[-68.6415,18.2252],[-68.6584,18.2109],[-68.7602,18.2104],[-68.7625,18.247],[-68.8201,18.3425],[-68.9011,18.4037],[-68.852,18.5186],[-68.8531,18.5498],[-68.8993,18.5964],[-68.9353,18.6657],[-68.9389,18.7081],[-68.8899,18.7248],[-68.8387,18.7634],[-68.818,18.82],[-68.8452,18.8693],[-68.8324,18.9357],[-68.7851,18.9799]]],[[[-68.6641,18.1693],[-68.5988,18.1662],[-68.5718,18.1079],[-68.6361,18.1284],[-68.7019,18.1147],[-68.737,18.1236],[-68.7621,18.1452],[-68.7869,18.1967],[-68.7545,18.1977],[-68.7108,18.1754],[-68.6641,18.1693]]]]}},{"type":"Feature","id":"La Estrelleta","properties":{"id":"La Estrelleta","iso_code":"DO-07","name":"La Estrelleta","name_full":"La Estrelleta","name_ja":"ラ・エストレリータ","center_lonlat":[-71.6002,19.0027]},"geometry":{"type":"Polygon","coordinates":[[[-71.6517,19.2179],[-71.5938,19.2519],[-71.5741,19.284],[-71.5258,19.2702],[-71.4883,19.2988],[-71.4468,19.2736],[-71.4159,19.2345],[-71.3274,19.1911],[-71.3363,19.13],[-71.3678,19.1072],[-71.4058,19.1051],[-71.4711,19.1284],[-71.5188,19.0181],[-71.578,19.0067],[-71.6248,18.9378],[-71.6332,18.8838],[-71.6159,18.8629],[-71.6279,18.8142],[-71.585,18.7834],[-71.5779,18.7359],[-71.5323,18.711],[-71.5207,18.6826],[-71.535,18.6508],[-71.7849,18.6847],[-71.7441,18.7114],[-71.7253,18.747],[-71.7279,18.8641],[-71.7963,18.9571],[-71.8625,18.9471],[-71.8654,18.9644],[-71.7837,18.9963],[-71.7104,19.0817],[-71.6614,19.1176],[-71.6437,19.1525],[-71.6391,19.2121],[-71.6517,19.2179]]]}},{"type":"Feature","id":"La Romana","properties":{"id":"La Romana","iso_code":"DO-12","name":"La Romana","name_full":"La Romana","name_ja":"ラ・ロマーナ州","center_lonlat":[-68.9789,18.5091]},"geometry":{"type":"Polygon","coordinates":[[[-68.9011,18.4037],[-68.9643,18.418],[-69.0126,18.3991],[-69.0854,18.3959],[-69.1218,18.4756],[-69.0927,18.5273],[-69.0425,18.557],[-68.979,18.6495],[-68.9353,18.6657],[-68.8993,18.5964],[-68.8531,18.5498],[-68.852,18.5186],[-68.9011,18.4037]]]}},{"type":"Feature","id":"La Vega","properties":{"id":"La Vega","iso_code":"DO-13","name":"La Vega","name_full":"La Vega","name_ja":"ラ・ベガ州","center_lonlat":[-70.632,19.052]},"geometry":{"type":"Polygon","coordinates":[[[-70.6139,19.3688],[-70.5585,19.349],[-70.5156,19.3615],[-70.4955,19.3136],[-70.4673,19.3188],[-70.4325,19.2533],[-70.4045,19.2276],[-70.3636,19.2249],[-70.3313,19.1776],[-70.2814,19.1464],[-70.3641,19.1033],[-70.3923,19.0723],[-70.3998,19.0983],[-70.4237,19.1117],[-70.4542,19.0865],[-70.5018,19.0742],[-70.5226,19.0374],[-70.5235,18.969],[-70.5833,18.9225],[-70.5924,18.8532],[-70.5337,18.7879],[-70.548,18.7436],[-70.6105,18.6774],[-70.7,18.6768],[-70.6858,18.734],[-70.7238,18.7778],[-70.7848,18.8073],[-70.8274,18.8623],[-70.8387,18.9545],[-70.8912,18.9885],[-70.9162,19.0259],[-70.9192,19.0694],[-70.7949,19.1251],[-70.7425,19.1628],[-70.7303,19.1897],[-70.6825,19.186],[-70.6783,19.2488],[-70.694,19.275],[-70.7488,19.3006],[-70.7416,19.3209],[-70.6139,19.3688]]]}},{"type":"Feature","id":"Maria Trinidad Sanchez","properties":{"id":"Maria Trinidad Sanchez","iso_code":"DO-14","name":"Maria Trinidad Sanchez","name_full":"María Trinidad Sánchez","name_ja":"マリア・トリニダード・サンチェス州","center_lonlat":[-69.9835,19.4436]},"geometry":{"type":"Polygon","coordinates":[[[-70.094,19.6367],[-70.0421,19.6785],[-69.9595,19.6801],[-69.8979,19.636],[-69.8878,19.5873],[-69.9042,19.5324],[-69.8765,19.5067],[-69.8744,19.4411],[-69.7715,19.3033],[-69.7928,19.2216],[-69.7861,19.1981],[-69.9913,19.2571],[-70.0535,19.3193],[-70.0839,19.323],[-70.1187,19.3471],[-70.1457,19.4552],[-70.2151,19.4974],[-70.2062,19.5516],[-70.1615,19.5514],[-70.112,19.5787],[-70.094,19.6367]]]}},{"type":"Feature","id":"Monsenor Nouel","properties":{"id":"Monsenor Nouel","iso_code":"DO-28","name":"Monsenor Nouel","name_full":"Monseñor Nouel","name_ja":"モンセニョール・ノウエル州","center_lonlat":[-70.4183,18.8916]},"geometry":{"type":"Polygon","coordinates":[[[-70.3923,19.0723],[-70.3671,18.9984],[-70.3418,18.9868],[-70.3139,18.9413],[-70.2499,18.8976],[-70.2238,18.8548],[-70.2444,18.833],[-70.2512,18.8017],[-70.2854,18.7861],[-70.3131,18.7195],[-70.35,18.7202],[-70.4023,18.7474],[-70.4515,18.7366],[-70.5337,18.7879],[-70.5924,18.8532],[-70.5833,18.9225],[-70.5235,18.969],[-70.5226,19.0374],[-70.5018,19.0742],[-70.4542,19.0865],[-70.4237,19.1117],[-70.3998,19.0983],[-70.3923,19.0723]]]}},{"type":"Feature","id":"Monte Cristi","properties":{"id":"Monte Cristi","iso_code":"DO-15","name":"Monte Cristi","name_full":"Monte Cristi","name_ja":"モンテ・クリスティ州","center_lonlat":[-71.444,19.7216]},"geometry":{"type":"Polygon","coordinates":[[[-71.746,19.649],[-71.7574,19.7101],[-71.7203,19.6975],[-71.7408,19.7732],[-71.7676,19.7745],[-71.7711,19.7851],[-71.74,19.8203],[-71.6588,19.862],[-71.6614,19.8936],[-71.4785,19.9069],[-71.3572,19.8513],[-71.3026,19.8557],[-71.2681,19.8355],[-71.2218,19.8346],[-71.1951,19.7716],[-71.134,19.7518],[-71.1537,19.6925],[-71.1484,19.6263],[-71.1727,19.6286],[-71.1842,19.5365],[-71.2478,19.535],[-71.279,19.5523],[-71.3522,19.5376],[-71.3998,19.5605],[-71.4131,19.5445],[-71.4923,19.5868],[-71.5074,19.6129],[-71.6377,19.6073],[-71.746,19.649]]]}},{"type":"Feature","id":"Monte Plata","properties":{"id":"Monte Plata","iso_code":"DO-29","name":"Monte Plata","name_full":"Monte Plata","name_ja":"モンテ・プラタ州","center_lonlat":[-69.8043,18.8324]},"geometry":{"type":"Polygon","coordinates":[[[-70.2512,18.8017],[-70.2444,18.833],[-70.2238,18.8548],[-70.1296,18.8749],[-70.0841,18.8972],[-70.0454,18.8905],[-70.0331,18.908],[-69.9806,18.8894],[-69.9525,18.91],[-69.9203,19.0393],[-69.8934,19.0383],[-69.8749,19.084],[-69.7558,19.0876],[-69.6378,19.0089],[-69.5917,18.9697],[-69.4356,18.8933],[-69.3993,18.8888],[-69.3809,18.8711],[-69.4591,18.8026],[-69.5183,18.7434],[-69.5753,18.6482],[-69.6111,18.6612],[-69.6451,18.6543],[-69.7439,18.6177],[-69.79,18.5718],[-69.8246,18.6393],[-69.8883,18.7013],[-69.9591,18.699],[-69.9663,18.6809],[-70.0088,18.6622],[-70.1207,18.6907],[-70.139,18.722],[-70.1672,18.7317],[-70.2172,18.7625],[-70.2512,18.8017]]]}},{"type":"Feature","id":"Nacional","properties":{"id":"Nacional","iso_code":"DO-01","name":"Nacional","name_full":"Nacional","name_ja":"ドミニカ共和国国家地区","center_lonlat":[-69.9451,18.4822]},"geometry":{"type":"Polygon","coordinates":[[[-69.8794,18.4712],[-69.9809,18.4265],[-69.9752,18.4626],[-69.9974,18.4939],[-69.9948,18.5224],[-69.968,18.5368],[-69.9435,18.5018],[-69.8778,18.501],[-69.8794,18.4712]]]}},{"type":"Feature","id":"Pedernales","properties":{"id":"Pedernales","iso_code":"DO-16","name":"Pedernales","name_full":"Pedernales","name_ja":"ペデルナレス州","center_lonlat":[-71.5339,17.9679]},"geometry":{"type":"MultiPolygon","coordinates":[[[[-71.7217,18.293],[-71.5516,18.2076],[-71.4805,18.1855],[-71.4219,18.1359],[-71.3912,18.119],[-71.3909,18.0419],[-71.4237,18.015],[-71.4022,17.9639],[-71.3529,17.9251],[-71.2977,17.9295],[-71.2817,17.8946],[-71.281,17.8531],[-71.3319,17.7724],[-71.3655,17.6784],[-71.4172,17.6048],[-71.4461,17.6293],[-71.5316,17.7551],[-71.5653,17.7675],[-71.6451,17.7573],[-71.6793,17.7653],[-71.6309,17.8168],[-71.6366,17.8535],[-71.6649,17.9035],[-71.6588,17.9533],[-71.7203,18.0191],[-71.7762,18.0393],[-71.7607,18.0868],[-71.774,18.2015],[-71.7217,18.293]]],[[[-71.5245,17.5456],[-71.5412,17.5546],[-71.5414,17.5762],[-71.5211,17.6213],[-71.4671,17.5803],[-71.5245,17.5456]]]]}},{"type":"Feature","id":"Peravia","properties":{"id":"Peravia","iso_code":"DO-17","name":"Peravia","name_full":"Peravia","name_ja":"ペラビア州","center_lonlat":[-70.3714,18.333]},"geometry":{"type":"Polygon","coordinates":[[[-70.1804,18.2341],[-70.2331,18.2239],[-70.2696,18.2381],[-70.3976,18.2376],[-70.4602,18.2089],[-70.5528,18.2042],[-70.5703,18.2189],[-70.5491,18.2376],[-70.5519,18.2484],[-70.5794,18.2718],[-70.5237,18.2819],[-70.4874,18.3212],[-70.49,18.3496],[-70.4725,18.3948],[-70.4791,18.4132],[-70.4521,18.4513],[-70.4031,18.4649],[-70.3566,18.5036],[-70.237,18.433],[-70.2389,18.4089],[-70.2648,18.3947],[-70.2697,18.3688],[-70.1908,18.2759],[-70.1804,18.2341]]]}},{"type":"Feature","id":"Puerto Plata","properties":{"id":"Puerto Plata","iso_code":"DO-18","name":"Puerto Plata","name_full":"Puerto Plata","name_ja":"プエルト・プラタ州","center_lonlat":[-70.8021,19.7453]},"geometry":{"type":"Polygon","coordinates":[[[-71.2218,19.8346],[-71.1918,19.8697],[-71.1722,19.8341],[-71.1517,19.8557],[-71.1654,19.8688],[-71.107,19.8688],[-71.0783,19.9091],[-71.0009,19.9377],[-70.9694,19.9252],[-70.9662,19.8967],[-70.9469,19.8893],[-70.9469,19.9103],[-70.8433,19.9103],[-70.787,19.8529],[-70.7886,19.8341],[-70.751,19.8338],[-70.6985,19.7968],[-70.6237,19.7665],[-70.5187,19.7598],[-70.4727,19.7869],[-70.4337,19.7752],[-70.3727,19.7142],[-70.3982,19.6592],[-70.4942,19.6507],[-70.5098,19.6373],[-70.5477,19.5178],[-70.6086,19.5361],[-70.6588,19.6287],[-70.7121,19.6511],[-70.7158,19.5924],[-70.7605,19.5904],[-70.8052,19.6273],[-70.8641,19.6417],[-70.9062,19.647],[-70.9777,19.6905],[-71.134,19.7518],[-71.1951,19.7716],[-71.2218,19.8346]]]}},{"type":"Feature","id":"Samana","properties":{"id":"Samana","iso_code":"DO-20","name":"Samana","name_full":"Samaná","name_ja":"サマナ州","center_lonlat":[-69.4994,19.233]},"geometry":{"type":"Polygon","coordinates":[[[-69.7715,19.3033],[-69.7132,19.2897],[-69.5894,19.3128],[-69.528,19.3418],[-69.4833,19.3276],[-69.4374,19.333],[-69.4286,19.3192],[-69.4107,19.3276],[-69.3356,19.2934],[-69.3059,19.3311],[-69.2313,19.3633],[-69.2244,19.3518],[-69.2468,19.2996],[-69.2043,19.2928],[-69.1643,19.307],[-69.1584,19.2851],[-69.2143,19.2006],[-69.2537,19.1835],[-69.3321,19.1972],[-69.4181,19.191],[-69.4755,19.214],[-69.6173,19.2252],[-69.6335,19.1237],[-69.6209,19.102],[-69.6186,19.0679],[-69.6378,19.0089],[-69.7558,19.0876],[-69.7361,19.1054],[-69.719,19.1527],[-69.6767,19.1794],[-69.6768,19.2065],[-69.7373,19.2201],[-69.7861,19.1981],[-69.7928,19.2216],[-69.7715,19.3033]]]}},{"type":"Feature","id":"San Cristobal","properties":{"id":"San Cristobal","iso_code":"DO-21","name":"San Cristobal","name_full":"San Cristóbal","name_ja":"サン・クリストバル州","center_lonlat":[-70.2107,18.5227]},"geometry":{"type":"Polygon","coordinates":[[[-70.004,18.4175],[-70.0389,18.3925],[-70.0677,18.3291],[-70.1804,18.2341],[-70.1908,18.2759],[-70.2697,18.3688],[-70.2648,18.3947],[-70.2389,18.4089],[-70.237,18.433],[-70.3566,18.5036],[-70.3788,18.5657],[-70.3687,18.6795],[-70.35,18.7202],[-70.3131,18.7195],[-70.2854,18.7861],[-70.2512,18.8017],[-70.2172,18.7625],[-70.1672,18.7317],[-70.1664,18.6869],[-70.1393,18.6453],[-70.1528,18.5986],[-70.1421,18.5632],[-70.0663,18.4634],[-70.0212,18.4632],[-70.004,18.4175]]]}},{"type":"Feature","id":"San Jose de Ocoa","properties":{"id":"San Jose de Ocoa","iso_code":"DO-31","name":"San Jose de Ocoa","name_full":"San José de Ocoa","name_ja":"サン・ホセ・デ・オコア州","center_lonlat":[-70.4991,18.6103]},"geometry":{"type":"Polygon","coordinates":[[[-70.5337,18.7879],[-70.4515,18.7366],[-70.4023,18.7474],[-70.35,18.7202],[-70.3687,18.6795],[-70.3788,18.5657],[-70.3566,18.5036],[-70.4031,18.4649],[-70.4521,18.4513],[-70.4791,18.4132],[-70.5219,18.4887],[-70.6106,18.533],[-70.6503,18.5724],[-70.7,18.6768],[-70.6105,18.6774],[-70.548,18.7436],[-70.5337,18.7879]]]}},{"type":"Feature","id":"San Juan","properties":{"id":"San Juan","iso_code":"DO-22","name":"San Juan","name_full":"San Juan","name_ja":"サン・フアン州","center_lonlat":[-71.2866,18.8794]},"geometry":{"type":"Polygon","coordinates":[[[-71.3274,19.1911],[-71.2841,19.1707],[-71.2308,19.1702],[-71.1357,19.1219],[-71.1241,19.0823],[-71.0605,19.0389],[-71.0154,19.0256],[-70.9681,19.0415],[-70.9162,19.0259],[-70.8912,18.9885],[-70.9753,18.8837],[-70.9903,18.7656],[-71.0039,18.7531],[-71.0269,18.7761],[-71.0594,18.7664],[-71.0558,18.6788],[-71.0911,18.6644],[-71.1174,18.6271],[-71.1613,18.6159],[-71.1977,18.6354],[-71.3002,18.6202],[-71.3449,18.5996],[-71.3935,18.6032],[-71.535,18.6508],[-71.5207,18.6826],[-71.5323,18.711],[-71.5779,18.7359],[-71.585,18.7834],[-71.6279,18.8142],[-71.6159,18.8629],[-71.6332,18.8838],[-71.6248,18.9378],[-71.578,19.0067],[-71.5188,19.0181],[-71.4711,19.1284],[-71.4058,19.1051],[-71.3678,19.1072],[-71.3363,19.13],[-71.3274,19.1911]]]}},{"type":"Feature","id":"San Pedro de Macoris","properties":{"id":"San Pedro de Macoris","iso_code":"DO-23","name":"San Pedro de Macoris","name_full":"San Pedro de Macorís","name_ja":"サン・ペテロ・デ・マコリス州","center_lonlat":[-69.3693,18.5476]},"geometry":{"type":"Polygon","coordinates":[[[-69.0854,18.3959],[-69.1853,18.4217],[-69.2363,18.4505],[-69.295,18.439],[-69.3151,18.4505],[-69.336,18.4321],[-69.5281,18.4103],[-69.5183,18.4685],[-69.577,18.4798],[-69.6166,18.52],[-69.5799,18.5715],[-69.5825,18.6216],[-69.5935,18.6198],[-69.5753,18.6482],[-69.5183,18.7434],[-69.4591,18.8026],[-69.4285,18.6541],[-69.3537,18.522],[-69.2877,18.6176],[-69.2536,18.6402],[-69.1937,18.6204],[-69.1409,18.5751],[-69.0802,18.5765],[-69.0927,18.5273],[-69.1218,18.4756],[-69.0854,18.3959]]]}},{"type":"Feature","id":"Sanchez Ramirez","properties":{"id":"Sanchez Ramirez","iso_code":"DO-24","name":"Sanchez Ramirez","name_full":"Sánchez Ramírez","name_ja":"サンチェス・ラミレス州","center_lonlat":[-70.1461,19.0177]},"geometry":{"type":"Polygon","coordinates":[[[-70.2238,18.8548],[-70.2499,18.8976],[-70.3139,18.9413],[-70.3418,18.9868],[-70.3671,18.9984],[-70.3923,19.0723],[-70.3641,19.1033],[-70.2814,19.1464],[-70.2664,19.1556],[-70.0891,19.1443],[-70.0169,19.1161],[-69.9291,19.1064],[-69.9078,19.0935],[-69.9203,19.0393],[-69.9525,18.91],[-69.9806,18.8894],[-70.0331,18.908],[-70.0454,18.8905],[-70.0841,18.8972],[-70.1296,18.8749],[-70.2238,18.8548]]]}},{"type":"Feature","id":"Santiago","properties":{"id":"Santiago","iso_code":"DO-25","name":"Santiago","name_full":"Santiago","name_ja":"サンティアゴ県","center_lonlat":[-70.9019,19.3246]},"geometry":{"type":"Polygon","coordinates":[[[-70.5477,19.5178],[-70.5805,19.4603],[-70.5837,19.3905],[-70.6139,19.3688],[-70.7416,19.3209],[-70.7488,19.3006],[-70.694,19.275],[-70.6783,19.2488],[-70.6825,19.186],[-70.7303,19.1897],[-70.7425,19.1628],[-70.7949,19.1251],[-70.9192,19.0694],[-70.9162,19.0259],[-70.9681,19.0415],[-71.0154,19.0256],[-71.0605,19.0389],[-71.1241,19.0823],[-71.1357,19.1219],[-71.2308,19.1702],[-71.2269,19.232],[-71.247,19.2679],[-71.2409,19.329],[-71.1809,19.3848],[-71.1432,19.3839],[-71.0687,19.4125],[-71.0905,19.4312],[-71.0752,19.4681],[-71.0036,19.4387],[-70.9708,19.4641],[-70.9295,19.4473],[-70.8856,19.4475],[-70.8816,19.4653],[-70.9044,19.4815],[-70.8965,19.5378],[-70.9258,19.5531],[-70.9356,19.5912],[-70.9108,19.5746],[-70.8852,19.5778],[-70.8641,19.6417],[-70.8052,19.6273],[-70.7605,19.5904],[-70.7158,19.5924],[-70.7121,19.6511],[-70.6588,19.6287],[-70.6086,19.5361],[-70.5477,19.5178]]]}},{"type":"Feature","id":"Santiago Rodriguez","properties":{"id":"Santiago Rodriguez","iso_code":"DO-26","name":"Santiago Rodriguez","name_full":"Santiago Rodríguez","name_ja":"サンティアーゴ・ロドリゲス州","center_lonlat":[-71.3094,19.3831]},"geometry":{"type":"Polygon","coordinates":[[[-71.1842,19.5365],[-71.1488,19.4806],[-71.0752,19.4681],[-71.0905,19.4312],[-71.0687,19.4125],[-71.1432,19.3839],[-71.1809,19.3848],[-71.2409,19.329],[-71.247,19.2679],[-71.2269,19.232],[-71.2308,19.1702],[-71.2841,19.1707],[-71.3274,19.1911],[-71.4159,19.2345],[-71.4468,19.2736],[-71.4883,19.2988],[-71.5151,19.338],[-71.4662,19.3586],[-71.4487,19.4658],[-71.4131,19.5445],[-71.3998,19.5605],[-71.3522,19.5376],[-71.279,19.5523],[-71.2478,19.535],[-71.1842,19.5365]]]}},{"type":"Feature","id":"Santo Domingo","properties":{"id":"Santo Domingo","iso_code":"DO-32","name":"Santo Domingo","name_full":"Santo Domingo","name_ja":"サント・ドミンゴ州","center_lonlat":[-69.8607,18.5647]},"geometry":{"type":"Polygon","coordinates":[[[-69.9809,18.4265],[-70.004,18.4175],[-70.0212,18.4632],[-70.0663,18.4634],[-70.1421,18.5632],[-70.1528,18.5986],[-70.1393,18.6453],[-70.1664,18.6869],[-70.1672,18.7317],[-70.139,18.722],[-70.1207,18.6907],[-70.0088,18.6622],[-69.9663,18.6809],[-69.9591,18.699],[-69.8883,18.7013],[-69.8246,18.6393],[-69.79,18.5718],[-69.7439,18.6177],[-69.6451,18.6543],[-69.6111,18.6612],[-69.5753,18.6482],[-69.5935,18.6198],[-69.5825,18.6216],[-69.5799,18.5715],[-69.6166,18.52],[-69.577,18.4798],[-69.5183,18.4685],[-69.5281,18.4103],[-69.6021,18.4557],[-69.6232,18.448],[-69.6236,18.4163],[-69.6466,18.4136],[-69.6974,18.4564],[-69.8794,18.4712],[-69.8778,18.501],[-69.9435,18.5018],[-69.968,18.5368],[-69.9948,18.5224],[-69.9974,18.4939],[-69.9752,18.4626],[-69.9809,18.4265]]]}},{"type":"Feature","id":"Valverde","properties":{"id":"Valverde","iso_code":"DO-27","name":"Valverde","name_full":"Valverde","name_ja":"バルベルデ州","center_lonlat":[-71.0351,19.583]},"geometry":{"type":"Polygon","coordinates":[[[-71.134,19.7518],[-70.9777,19.6905],[-70.9062,19.647],[-70.8641,19.6417],[-70.8852,19.5778],[-70.9108,19.5746],[-70.9356,19.5912],[-70.9258,19.5531],[-70.8965,19.5378],[-70.9044,19.4815],[-70.8816,19.4653],[-70.8856,19.4475],[-70.9295,19.4473],[-70.9708,19.4641],[-71.0036,19.4387],[-71.0752,19.4681],[-71.1488,19.4806],[-71.1842,19.5365],[-71.1727,19.6286],[-71.1484,19.6263],[-71.1537,19.6925],[-71.134,19.7518]]]}}]}
