{"type":"FeatureCollection","features":[{"type":"Feature","id":"Saint Andrew","properties":{"id":"Saint Andrew","iso_code":"DM-02","name":"Saint Andrew","name_full":"Saint Andrew","name_ja":"セント・アンドルー","center_lonlat":[-61.3525,15.5343]},"geometry":{"type":"Polygon","coordinates":[[[-61.4492,15.6331],[-61.4259,15.6285],[-61.3846,15.5884],[-61.3573,15.5983],[-61.3077,15.5793],[-61.2686,15.5099],[-61.2749,15.4758],[-61.3174,15.4449],[-61.3381,15.4702],[-61.3845,15.4778],[-61.4057,15.4945],[-61.4077,15.503],[-61.4192,15.5785],[-61.4403,15.5951],[-61.4492,15.6331]]]}},{"type":"Feature","id":"Saint David","properties":{"id":"Saint David","iso_code":"DM-03","name":"Saint David","name_full":"Saint David","name_ja":"セント・デイヴィッド郡","center_lonlat":[-61.2894,15.3957]},"geometry":{"type":"Polygon","coordinates":[[[-61.2686,15.5099],[-61.2577,15.4726],[-61.2629,15.4079],[-61.2493,15.4011],[-61.2541,15.3327],[-61.3082,15.3167],[-61.3079,15.3322],[-61.3276,15.3455],[-61.3346,15.405],[-61.3174,15.4449],[-61.2749,15.4758],[-61.2686,15.5099]]]}},{"type":"Feature","id":"Saint George","properties":{"id":"Saint George","iso_code":"DM-04","name":"Saint George","name_full":"Saint George","name_ja":"セント・ジョージ","center_lonlat":[-61.3478,15.3005]},"geometry":{"type":"Polygon","coordinates":[[[-61.3732,15.2603],[-61.3936,15.3136],[-61.3741,15.3135],[-61.3276,15.3455],[-61.3079,15.3322],[-61.3082,15.3167],[-61.3166,15.2922],[-61.3566,15.2538],[-61.3732,15.2603]]]}},{"type":"Feature","id":"Saint John","properties":{"id":"Saint John","iso_code":"DM-05","name":"Saint John","name_full":"Saint John","name_ja":"セント・ジョン郡","center_lonlat":[-61.4495,15.5666]},"geometry":{"type":"Polygon","coordinates":[[[-61.484,15.5296],[-61.4889,15.5451],[-61.4621,15.573],[-61.4889,15.5793],[-61.469,15.6339],[-61.4492,15.6331],[-61.4403,15.5951],[-61.4192,15.5785],[-61.4077,15.503],[-61.4632,15.5318],[-61.484,15.5296]]]}},{"type":"Feature","id":"Saint Joseph","properties":{"id":"Saint Joseph","iso_code":"DM-06","name":"Saint Joseph","name_full":"Saint Joseph","name_ja":"セント・ジョゼフ教区","center_lonlat":[-61.386,15.4389]},"geometry":{"type":"Polygon","coordinates":[[[-61.416,15.3901],[-61.4553,15.4663],[-61.4057,15.4945],[-61.3845,15.4778],[-61.3381,15.4702],[-61.3174,15.4449],[-61.3346,15.405],[-61.368,15.3897],[-61.416,15.3901]]]}},{"type":"Feature","id":"Saint Luke","properties":{"id":"Saint Luke","iso_code":"DM-07","name":"Saint Luke","name_full":"Saint Luke","name_ja":"セント・ルーク","center_lonlat":[-61.3657,15.2487]},"geometry":{"type":"Polygon","coordinates":[[[-61.3728,15.2372],[-61.3732,15.2603],[-61.3566,15.2538],[-61.3557,15.2438],[-61.3728,15.2372]]]}},{"type":"Feature","id":"Saint Mark","properties":{"id":"Saint Mark","iso_code":"DM-08","name":"Saint Mark","name_full":"Saint Mark","name_ja":"セント・マーク","center_lonlat":[-61.3619,15.2232]},"geometry":{"type":"Polygon","coordinates":[[[-61.3464,15.2117],[-61.3741,15.2048],[-61.3728,15.2372],[-61.3557,15.2438],[-61.3464,15.2117]]]}},{"type":"Feature","id":"Saint Patrick","properties":{"id":"Saint Patrick","iso_code":"DM-09","name":"Saint Patrick","name_full":"Saint Patrick","name_ja":"セント・パトリック","center_lonlat":[-61.3013,15.2767]},"geometry":{"type":"Polygon","coordinates":[[[-61.2541,15.3327],[-61.2567,15.2853],[-61.2772,15.2502],[-61.3182,15.2434],[-61.3464,15.2117],[-61.3557,15.2438],[-61.3566,15.2538],[-61.3166,15.2922],[-61.3082,15.3167],[-61.2541,15.3327]]]}},{"type":"Feature","id":"Saint Paul","properties":{"id":"Saint Paul","iso_code":"DM-10","name":"Saint Paul","name_full":"Saint Paul","name_ja":"セント・ポール","center_lonlat":[-61.3695,15.3593]},"geometry":{"type":"Polygon","coordinates":[[[-61.3936,15.3136],[-61.416,15.3901],[-61.368,15.3897],[-61.3346,15.405],[-61.3276,15.3455],[-61.3741,15.3135],[-61.3936,15.3136]]]}},{"type":"Feature","id":"Saint Peter","properties":{"id":"Saint Peter","iso_code":"DM-11","name":"Saint Peter","name_full":"Saint Peter","name_ja":"セント・ピーター","center_lonlat":[-61.4495,15.5006]},"geometry":{"type":"Polygon","coordinates":[[[-61.4553,15.4663],[-61.4721,15.4814],[-61.484,15.5296],[-61.4632,15.5318],[-61.4077,15.503],[-61.4057,15.4945],[-61.4553,15.4663]]]}}]}
