{"type":"FeatureCollection","features":[{"type":"Feature","id":"Bandundu","properties":{"id":"Bandundu","iso_code":"CD-BN","name":"Bandundu","name_full":"Bandundu","name_ja":"バンドゥンドゥ州","center_lonlat":[18.3607,-4.4005]},"geometry":{"type":"Polygon","coordinates":[[[16.525,-1.8585],[16.6274,-1.9956],[16.8994,-1.9961],[16.8952,-1.8904],[16.88,-1.8689],[16.8157,-1.8329],[16.8206,-1.7934],[17.0768,-1.8076],[17.184,-1.7253],[17.521,-1.5263],[17.68,-1.4739],[17.7665,-1.4223],[17.9308,-1.3739],[18.0717,-1.2572],[18.1502,-1.1335],[18.3496,-1.1563],[18.4418,-1.2351],[18.5218,-1.2657],[18.5794,-1.2637],[18.6868,-1.2332],[18.8089,-1.2285],[18.8689,-1.1572],[18.8761,-1.1309],[18.7985,-1.0218],[18.7971,-0.9299],[18.8201,-0.8971],[18.9346,-0.8337],[18.9706,-0.7567],[18.9905,-0.7431],[19.0481,-0.8085],[19.0859,-0.9981],[19.2136,-1.1882],[19.2945,-1.2731],[19.368,-1.4348],[19.4735,-1.5951],[19.5181,-1.7831],[19.6045,-1.7949],[19.696,-1.6784],[19.7283,-1.6669],[19.7538,-1.6733],[19.8163,-1.7239],[19.8891,-1.9017],[19.92,-1.9339],[19.9987,-1.9485],[20.1861,-1.9485],[20.2199,-1.9677],[20.282,-2.0346],[20.4255,-2.0837],[20.4576,-2.0804],[20.5467,-2.0341],[20.6322,-2.0428],[20.6603,-2.0183],[20.6912,-2.023],[20.9869,-2.3714],[21.0071,-2.4888],[20.9635,-2.5781],[20.9522,-2.6869],[20.8414,-2.8275],[20.6647,-3.2803],[20.6424,-3.5084],[20.664,-3.7455],[20.6709,-4.1308],[20.5991,-4.2081],[20.517,-4.2442],[20.4606,-4.2532],[20.4417,-4.2803],[20.3939,-4.2782],[20.3655,-4.3125],[20.3424,-4.3893],[20.2662,-4.3906],[20.2216,-4.3329],[20.2021,-4.3206],[20.1846,-4.3291],[20.1338,-4.2803],[20.0454,-4.2751],[20.0365,-4.2895],[20.0425,-4.3541],[20.0877,-4.4277],[20.093,-4.4706],[20.1186,-4.4981],[20.0652,-4.5915],[20.0554,-4.7658],[20.0824,-4.8102],[20.1113,-4.9395],[20.1459,-4.9874],[20.144,-5.0379],[20.1664,-5.0689],[20.191,-5.1546],[20.1954,-5.2685],[20.1766,-5.2869],[20.1484,-5.363],[20.1501,-5.5518],[20.1768,-5.6144],[20.1779,-5.6805],[20.1604,-5.7503],[20.1203,-5.795],[20.1096,-5.838],[20.0534,-5.8653],[20.0002,-5.9619],[19.9619,-5.9882],[19.9288,-5.9877],[19.9085,-6.0079],[19.8866,-6.0018],[19.8689,-6.0252],[19.8415,-6.0321],[19.6994,-6.1513],[19.6898,-6.19],[19.7294,-6.5495],[19.8056,-6.6845],[19.9332,-6.8462],[19.9631,-7.0019],[19.5218,-7.0019],[19.5426,-7.0523],[19.4872,-7.1539],[19.4764,-7.3159],[19.5132,-7.4794],[19.4687,-7.5211],[19.4439,-7.5752],[19.3556,-7.5741],[19.3814,-7.7039],[19.3309,-7.8986],[19.3555,-8.002],[18.7738,-8.002],[18.7385,-7.9323],[18.5165,-7.9322],[18.5043,-7.9407],[18.5076,-7.9975],[18.4205,-7.9983],[18.3666,-8.0168],[18.3162,-8.0017],[18.1927,-7.9969],[18.1204,-8.0225],[18.0929,-8.0564],[18.0982,-8.1093],[17.9819,-8.1053],[17.9308,-8.0621],[17.868,-8.0445],[17.7895,-8.0818],[17.7133,-8.0683],[17.6284,-8.098],[17.5443,-8.0848],[17.5284,-8.0606],[17.5365,-8.0151],[17.4962,-7.9872],[17.4819,-7.9457],[17.4683,-7.9599],[17.4683,-7.9395],[17.4341,-7.9158],[17.4524,-7.884],[17.4409,-7.8711],[17.4264,-7.8755],[17.4206,-7.8439],[17.3907,-7.8392],[17.4,-7.8234],[17.381,-7.8232],[17.3754,-7.7923],[17.3424,-7.784],[17.316,-7.7536],[17.3204,-7.7136],[17.3038,-7.7067],[17.3038,-7.6924],[17.2889,-7.6995],[17.2864,-7.6252],[17.2178,-7.586],[17.1728,-7.4938],[17.1485,-7.4726],[17.1515,-7.4512],[17.1749,-7.4416],[17.1766,-7.4282],[17.1322,-7.4096],[17.1182,-7.4255],[17.104,-7.4161],[17.0934,-7.3523],[16.9961,-7.298],[16.9891,-7.2549],[16.9457,-7.2046],[16.9291,-7.0607],[16.9612,-7.0692],[16.9732,-7.0148],[16.9553,-6.9815],[16.9287,-6.9687],[16.9345,-6.9457],[16.915,-6.8641],[16.8329,-6.8278],[16.8231,-6.7851],[16.7604,-6.692],[16.7308,-6.5698],[16.7473,-6.522],[16.7217,-6.4918],[16.7278,-6.466],[16.7061,-6.465],[16.7189,-6.4153],[16.693,-6.3984],[16.6974,-6.3498],[16.721,-6.3424],[16.7148,-6.2316],[16.7268,-6.1892],[16.6959,-6.1409],[16.6601,-6.124],[16.631,-6.0917],[16.6111,-6.0898],[16.6322,-6.0653],[16.6284,-6.0553],[16.6043,-6.0619],[16.6012,-6.0506],[16.5953,-5.9785],[16.5807,-5.9554],[16.5974,-5.9247],[16.4973,-5.8828],[16.3961,-5.8941],[16.3157,-5.8546],[16.1009,-5.8581],[16.1837,-5.7825],[16.2223,-5.7004],[16.2295,-5.5163],[16.2208,-5.4359],[16.2584,-5.2209],[16.2503,-5.1021],[16.2787,-5.0],[16.2605,-4.7945],[16.4306,-4.521],[16.49,-4.5058],[16.5425,-4.3963],[16.5402,-4.2778],[16.4593,-4.1987],[16.3896,-4.0997],[16.2161,-4.0011],[16.1482,-3.9814],[15.9882,-3.9873],[15.888,-3.9405],[15.9121,-3.9174],[15.9303,-3.8586],[16.0533,-3.62],[16.1155,-3.5442],[16.2256,-3.3132],[16.2275,-3.2899],[16.1934,-3.2384],[16.1992,-3.1718],[16.1857,-3.1364],[16.1883,-2.9764],[16.177,-2.8825],[16.2256,-2.6352],[16.1917,-2.3469],[16.1749,-2.3031],[16.1874,-2.2046],[16.2313,-2.129],[16.47,-1.9127],[16.514,-1.8874],[16.525,-1.8585]]]}},{"type":"Feature","id":"Equateur","properties":{"id":"Equateur","iso_code":"CD-EQ","name":"Equateur","name_full":"Équateur","name_ja":"赤道州","center_lonlat":[20.6063,1.0468]},"geometry":{"type":"Polygon","coordinates":[[[22.4515,4.1467],[22.5627,4.0998],[22.6858,3.9998],[22.755,3.9827],[22.7788,3.9018],[22.8397,3.8659],[22.9089,3.8545],[22.986,3.8893],[23.0392,3.8607],[23.0724,3.8856],[23.1491,3.9023],[23.3509,3.8135],[23.4084,3.8375],[23.51,3.8214],[23.4852,3.7384],[23.3696,3.6172],[23.3452,3.6114],[23.3009,3.6387],[23.2425,3.6415],[23.1713,3.675],[23.0378,3.5496],[22.9869,3.5352],[22.9291,3.5442],[22.8509,3.5045],[22.6786,3.4528],[22.6415,3.4165],[22.6276,3.365],[22.6557,3.3198],[22.7533,3.2928],[22.7864,3.2677],[22.7977,3.2053],[22.7801,3.0634],[22.8116,2.9992],[22.8555,3.0051],[22.9973,3.1586],[23.0385,3.172],[23.0714,3.1549],[23.0746,3.0773],[23.0306,2.977],[23.02,2.9163],[22.986,2.8574],[22.9962,2.7491],[22.9643,2.6695],[23.0389,2.5581],[23.0771,2.5231],[23.1271,2.5036],[23.3103,2.5351],[23.36,2.522],[23.4224,2.4539],[23.542,2.393],[23.6253,2.3296],[23.6469,2.1949],[23.6165,2.1841],[23.51,2.2232],[23.3432,2.2492],[23.2251,2.1649],[23.0914,2.0959],[23.0551,2.1103],[22.9775,2.1839],[22.9688,2.1574],[22.9368,2.1493],[22.9257,2.1043],[22.8886,2.0981],[22.8865,2.0724],[22.8614,2.0477],[22.7588,2.0111],[22.7038,2.0333],[22.6524,2.0955],[22.5849,2.1164],[22.5742,2.0987],[22.5798,2.033],[22.511,1.8972],[22.4721,1.6944],[22.4331,1.647],[22.3129,1.5576],[22.2899,1.5059],[22.3656,1.504],[22.4881,1.4645],[22.5428,1.4304],[22.6299,1.3472],[22.679,1.2351],[22.7295,1.1641],[22.8118,0.9998],[22.8172,0.8967],[22.8585,0.794],[22.8532,0.6969],[22.9184,0.6007],[22.9732,0.4137],[23.0836,0.2718],[23.1423,0.1538],[23.2473,0.0323],[23.4067,-0.2148],[23.3949,-0.2595],[23.3348,-0.2778],[23.2931,-0.3137],[23.1669,-0.279],[23.13,-0.2822],[22.9794,-0.4035],[23.2056,-0.4265],[23.2666,-0.4905],[23.4452,-0.438],[23.4799,-0.4635],[23.6177,-0.6254],[23.6211,-0.6467],[23.6016,-0.6628],[23.4945,-0.6939],[23.3724,-0.7866],[23.3673,-0.814],[23.3826,-0.837],[23.5687,-0.9994],[23.7192,-1.0795],[23.778,-1.1774],[23.8359,-1.2036],[23.9843,-1.3254],[24.1171,-1.3864],[24.293,-1.3895],[24.3713,-1.5302],[24.4215,-1.7868],[24.0828,-1.7462],[23.986,-1.765],[23.8277,-1.7693],[23.7858,-1.8066],[23.7738,-1.8963],[23.7011,-1.9507],[23.6888,-2.0152],[23.5426,-2.0061],[23.2633,-2.0609],[23.2242,-2.0783],[23.2008,-2.0639],[23.1344,-1.965],[23.0971,-1.9403],[23.0129,-1.9321],[22.9382,-1.9593],[22.9059,-1.9105],[22.8706,-1.884],[22.8152,-1.8569],[22.7643,-1.8529],[22.6827,-1.8083],[22.6243,-1.8087],[22.5366,-1.9382],[22.4971,-1.9588],[22.3278,-1.9499],[22.1761,-1.9139],[22.1699,-1.9417],[22.2074,-2.0362],[22.229,-2.1801],[22.2916,-2.4031],[22.2885,-2.4356],[22.2356,-2.4709],[22.199,-2.4512],[22.1855,-2.4116],[22.183,-2.3073],[22.1676,-2.2877],[22.1383,-2.2824],[22.046,-2.3719],[21.9698,-2.4117],[21.8991,-2.4904],[21.8157,-2.5202],[21.6866,-2.4574],[21.6463,-2.4222],[21.602,-2.4107],[21.5549,-2.3671],[21.4799,-2.339],[21.4655,-2.3548],[21.454,-2.4566],[21.4168,-2.48],[21.2574,-2.5118],[21.0071,-2.4888],[20.9869,-2.3714],[20.6912,-2.023],[20.6603,-2.0183],[20.6322,-2.0428],[20.5467,-2.0341],[20.4576,-2.0804],[20.4255,-2.0837],[20.282,-2.0346],[20.2199,-1.9677],[20.1861,-1.9485],[19.9987,-1.9485],[19.92,-1.9339],[19.8891,-1.9017],[19.8163,-1.7239],[19.7538,-1.6733],[19.7283,-1.6669],[19.696,-1.6784],[19.6045,-1.7949],[19.5181,-1.7831],[19.4735,-1.5951],[19.368,-1.4348],[19.2945,-1.2731],[19.2136,-1.1882],[19.0859,-0.9981],[19.0481,-0.8085],[18.9905,-0.7431],[18.9706,-0.7567],[18.9346,-0.8337],[18.8201,-0.8971],[18.7971,-0.9299],[18.7985,-1.0218],[18.8761,-1.1309],[18.8689,-1.1572],[18.8089,-1.2285],[18.6868,-1.2332],[18.5794,-1.2637],[18.5218,-1.2657],[18.4418,-1.2351],[18.3496,-1.1563],[18.1502,-1.1335],[18.0717,-1.2572],[17.9308,-1.3739],[17.7665,-1.4223],[17.68,-1.4739],[17.521,-1.5263],[17.184,-1.7253],[17.0768,-1.8076],[16.8206,-1.7934],[16.8157,-1.8329],[16.88,-1.8689],[16.8952,-1.8904],[16.8994,-1.9961],[16.6274,-1.9956],[16.525,-1.8585],[16.6042,-1.7541],[16.6362,-1.6208],[16.7255,-1.48],[16.8332,-1.269],[16.9092,-1.2111],[17.0226,-1.097],[17.308,-1.015],[17.4115,-0.9183],[17.7495,-0.5234],[17.7408,-0.3462],[17.7163,-0.2462],[17.7164,-0.1958],[17.7571,-0.0095],[17.854,0.2411],[17.9455,0.3773],[17.9499,0.4915],[17.9184,0.5352],[17.8932,0.6077],[17.9077,0.7405],[17.8779,0.8679],[17.8666,1.0166],[17.9562,1.1717],[18.0123,1.422],[18.0714,1.5515],[18.0661,1.859],[18.0817,1.9424],[18.0724,2.16],[18.1112,2.2653],[18.1467,2.3159],[18.1638,2.321],[18.1991,2.3891],[18.233,2.5026],[18.3137,2.576],[18.3932,2.7137],[18.4252,2.8222],[18.4718,2.9092],[18.5284,3.0648],[18.6131,3.1282],[18.6311,3.179],[18.6424,3.3238],[18.6346,3.4492],[18.593,3.7098],[18.6137,3.9015],[18.6416,3.9583],[18.6465,4.046],[18.6197,4.1696],[18.5725,4.2657],[18.545,4.289],[18.5419,4.3279],[18.5765,4.3728],[18.6541,4.3572],[18.7211,4.3774],[18.7533,4.4006],[18.8282,4.56],[18.8865,4.6214],[18.8979,4.6506],[18.9282,4.6664],[18.9623,4.7244],[19.0116,4.765],[19.0197,4.8033],[19.0441,4.8269],[19.0833,4.9093],[19.133,4.9469],[19.1957,4.9503],[19.237,5.0108],[19.3731,5.0875],[19.409,5.1304],[19.5171,5.136],[19.5688,5.1552],[19.6056,5.1383],[19.7196,5.136],[19.8386,5.0875],[19.8909,5.0021],[20.004,4.9745],[20.0863,4.9163],[20.1717,4.8784],[20.2366,4.8063],[20.3389,4.7719],[20.3955,4.6771],[20.4565,4.6215],[20.4631,4.6009],[20.4421,4.5505],[20.4523,4.5289],[20.5803,4.415],[20.7679,4.4228],[20.8324,4.4507],[20.8715,4.4534],[21.0761,4.3955],[21.1136,4.3408],[21.2109,4.2916],[21.2883,4.3334],[21.3748,4.2782],[21.4731,4.2693],[21.4972,4.2515],[21.5381,4.2447],[21.6342,4.2942],[21.7229,4.2951],[21.771,4.2735],[21.8199,4.2719],[21.8916,4.2372],[22.0015,4.2447],[22.1279,4.2031],[22.2073,4.1503],[22.3033,4.1287],[22.4226,4.1348],[22.4515,4.1467]]]}},{"type":"Feature","id":"Kasai-Occidental","properties":{"id":"Kasai-Occidental","iso_code":"CD-KW","name":"Kasai-Occidental","name_full":"Kasaï-Occidental","name_ja":"西カサイ州","center_lonlat":[21.6215,-5.4131]},"geometry":{"type":"Polygon","coordinates":[[[19.9631,-7.0019],[19.9332,-6.8462],[19.8056,-6.6845],[19.7294,-6.5495],[19.6898,-6.19],[19.6994,-6.1513],[19.8415,-6.0321],[19.8689,-6.0252],[19.8866,-6.0018],[19.9085,-6.0079],[19.9288,-5.9877],[19.9619,-5.9882],[20.0002,-5.9619],[20.0534,-5.8653],[20.1096,-5.838],[20.1203,-5.795],[20.1604,-5.7503],[20.1779,-5.6805],[20.1768,-5.6144],[20.1501,-5.5518],[20.1484,-5.363],[20.1766,-5.2869],[20.1954,-5.2685],[20.191,-5.1546],[20.1664,-5.0689],[20.144,-5.0379],[20.1459,-4.9874],[20.1113,-4.9395],[20.0824,-4.8102],[20.0554,-4.7658],[20.0652,-4.5915],[20.1186,-4.4981],[20.093,-4.4706],[20.0877,-4.4277],[20.0425,-4.3541],[20.0365,-4.2895],[20.0454,-4.2751],[20.1338,-4.2803],[20.1846,-4.3291],[20.2021,-4.3206],[20.2216,-4.3329],[20.2662,-4.3906],[20.3424,-4.3893],[20.3655,-4.3125],[20.3939,-4.2782],[20.4417,-4.2803],[20.4606,-4.2532],[20.517,-4.2442],[20.5991,-4.2081],[20.6709,-4.1308],[20.664,-3.7455],[20.6424,-3.5084],[20.6647,-3.2803],[20.8414,-2.8275],[20.9522,-2.6869],[20.9635,-2.5781],[21.0071,-2.4888],[21.2574,-2.5118],[21.4168,-2.48],[21.454,-2.4566],[21.4655,-2.3548],[21.4799,-2.339],[21.5549,-2.3671],[21.602,-2.4107],[21.6463,-2.4222],[21.6866,-2.4574],[21.8157,-2.5202],[21.8991,-2.4904],[21.9698,-2.565],[21.9935,-2.6799],[22.1569,-2.8921],[22.1946,-3.0016],[22.1127,-3.2453],[22.064,-3.3275],[22.0436,-3.4128],[21.9819,-3.4863],[21.9758,-3.5804],[21.9861,-3.6285],[22.0071,-3.6521],[22.1113,-3.6844],[22.1329,-3.7028],[22.1974,-3.8576],[22.1974,-3.8925],[22.1773,-3.9081],[22.0623,-3.915],[22.0385,-3.9286],[22.0192,-3.9668],[22.0839,-3.9751],[22.109,-4.0081],[22.1497,-4.0298],[22.194,-4.0259],[22.214,-4.0065],[22.2937,-3.9887],[22.4227,-4.137],[22.4969,-4.1935],[22.6265,-4.2553],[22.676,-4.2927],[22.8503,-4.4854],[23.119,-4.5339],[23.1569,-4.5856],[23.1769,-4.7368],[23.1389,-4.7745],[23.0029,-4.8095],[22.9795,-4.8285],[22.9547,-4.8849],[22.9671,-4.9873],[23.1607,-5.1524],[23.2379,-5.2457],[23.288,-5.2534],[23.419,-5.2173],[23.4551,-5.2675],[23.6882,-5.3691],[23.7254,-5.3968],[23.7378,-5.4257],[23.739,-5.6004],[23.727,-5.619],[23.6702,-5.6189],[23.5243,-5.6825],[23.4742,-5.736],[23.4247,-5.7615],[23.3854,-5.7522],[23.3802,-5.7005],[23.2794,-5.7409],[23.0158,-5.7656],[22.9818,-5.7875],[22.956,-5.8472],[22.9567,-5.9848],[22.9781,-6.0632],[23.0205,-6.1249],[23.0712,-6.1642],[23.0892,-6.1997],[23.0385,-6.2972],[23.0188,-6.4088],[22.9326,-6.5721],[22.9329,-6.6516],[22.9492,-6.6766],[23.0205,-6.7262],[23.0849,-6.8259],[23.1995,-6.8912],[23.2441,-6.9609],[23.1964,-7.0996],[23.2127,-7.3812],[23.1581,-7.7974],[23.0886,-7.8395],[22.9441,-7.8914],[22.8765,-7.9014],[22.696,-7.868],[22.6705,-7.8338],[22.6526,-7.7549],[22.6179,-7.7225],[22.5951,-7.7223],[22.538,-7.7707],[22.4859,-7.7867],[22.2474,-7.805],[22.1795,-7.7993],[22.0767,-7.7752],[22.0142,-7.7435],[21.9655,-7.7007],[21.8266,-7.6456],[21.8541,-7.586],[21.8459,-7.5268],[21.8609,-7.4698],[21.8467,-7.4491],[21.8516,-7.4165],[21.8329,-7.3908],[21.8424,-7.3699],[21.785,-7.2834],[20.5205,-7.2864],[20.5245,-7.1431],[20.6115,-6.916],[20.3195,-6.9185],[20.2986,-6.9545],[20.2943,-7.0019],[19.9631,-7.0019]]]}},{"type":"Feature","id":"Kasai-Oriental","properties":{"id":"Kasai-Oriental","iso_code":"CD-KE","name":"Kasai-Oriental","name_full":"Kasaï-Oriental","name_ja":"東カサイ州","center_lonlat":[23.9454,-4.5449]},"geometry":{"type":"Polygon","coordinates":[[[24.4215,-1.7868],[24.4507,-1.9387],[24.4937,-2.1082],[24.5842,-2.2316],[24.6813,-2.4108],[24.7247,-2.4642],[25.0998,-2.4478],[25.0774,-2.5879],[25.1112,-2.7732],[25.0633,-2.9119],[25.0248,-2.9798],[25.0192,-3.0358],[25.0335,-3.0668],[25.0254,-3.0744],[25.0056,-3.06],[24.9979,-3.0696],[25.0172,-3.0912],[25.013,-3.1338],[24.9669,-3.2137],[24.9609,-3.2555],[24.9005,-3.2715],[24.9066,-3.3517],[24.8644,-3.3765],[24.8237,-3.447],[24.7803,-3.4583],[24.8017,-3.5149],[24.7977,-3.5358],[24.7721,-3.5508],[24.7962,-3.6859],[24.7319,-3.7657],[24.7435,-3.7981],[24.7728,-3.8141],[24.7592,-3.8278],[24.814,-3.8389],[24.8001,-3.8551],[24.8049,-3.8709],[24.8343,-3.9171],[24.8479,-3.9029],[24.8616,-3.9376],[24.8957,-3.9683],[24.8957,-4.0096],[24.9299,-4.0407],[24.9503,-4.0264],[24.9598,-4.033],[24.9798,-4.0931],[24.9962,-4.1046],[24.9851,-4.1424],[25.0107,-4.1755],[24.9971,-4.2066],[25.0124,-4.266],[24.9748,-4.3901],[25.0124,-4.4447],[24.964,-4.4925],[24.9268,-4.5546],[24.8756,-4.5932],[24.856,-4.6371],[24.8616,-4.6837],[24.8821,-4.698],[24.9027,-4.751],[24.964,-4.7936],[25.0026,-4.8468],[25.0588,-4.9881],[25.0782,-4.9941],[26.2694,-5.0],[26.2063,-5.1624],[26.1239,-5.2807],[26.0863,-5.3795],[26.0907,-5.4146],[26.1419,-5.5046],[26.0916,-5.5727],[26.0677,-5.6415],[26.0953,-5.6928],[26.1537,-5.7452],[26.1685,-5.795],[26.163,-5.9266],[26.1728,-6.0167],[26.1377,-6.0998],[26.1767,-6.1985],[26.1592,-6.2486],[26.1374,-6.2611],[26.0479,-6.2584],[25.9896,-6.3023],[25.9672,-6.3052],[25.924,-6.2269],[25.8358,-6.1959],[25.7878,-6.192],[25.6505,-6.3048],[25.5802,-6.3179],[25.5214,-6.3521],[25.3194,-6.3333],[25.2801,-6.3609],[25.2571,-6.3995],[25.2874,-6.4452],[25.3606,-6.5251],[25.4028,-6.5476],[25.4987,-6.535],[25.5181,-6.5524],[25.517,-6.5725],[25.4673,-6.6061],[25.4649,-6.6438],[25.4333,-6.7114],[25.3023,-6.7612],[25.2179,-6.6994],[25.1437,-6.6702],[25.0698,-6.6596],[24.9606,-6.6654],[24.9128,-6.709],[24.8996,-6.7904],[24.7569,-6.9004],[24.671,-6.9324],[24.5981,-6.9881],[24.5086,-7.0033],[24.4788,-7.0529],[24.4538,-7.0703],[24.37,-7.055],[24.2446,-6.9923],[24.2316,-6.974],[24.2285,-6.9132],[24.2133,-6.8915],[24.1878,-6.8776],[24.1354,-6.8804],[24.154,-6.9272],[24.1309,-6.9323],[24.1217,-6.9489],[24.149,-6.9802],[24.1354,-6.9933],[24.149,-7.0007],[24.1363,-7.0427],[24.0596,-7.0758],[24.0118,-7.1615],[23.9681,-7.2062],[23.9756,-7.271],[23.9585,-7.3235],[24.001,-7.3623],[23.9804,-7.3882],[23.9574,-7.4943],[23.9293,-7.5311],[23.9231,-7.73],[23.9506,-7.7862],[23.9518,-7.8304],[23.8538,-7.8338],[23.7732,-7.9034],[23.7335,-7.88],[23.6691,-7.908],[23.5668,-7.9043],[23.4756,-7.927],[23.2951,-7.8979],[23.2251,-7.9381],[23.1881,-7.9079],[23.1581,-7.7974],[23.2127,-7.3812],[23.1964,-7.0996],[23.2441,-6.9609],[23.1995,-6.8912],[23.0849,-6.8259],[23.0205,-6.7262],[22.9492,-6.6766],[22.9329,-6.6516],[22.9326,-6.5721],[23.0188,-6.4088],[23.0385,-6.2972],[23.0892,-6.1997],[23.0712,-6.1642],[23.0205,-6.1249],[22.9781,-6.0632],[22.9567,-5.9848],[22.956,-5.8472],[22.9818,-5.7875],[23.0158,-5.7656],[23.2794,-5.7409],[23.3802,-5.7005],[23.3854,-5.7522],[23.4247,-5.7615],[23.4742,-5.736],[23.5243,-5.6825],[23.6702,-5.6189],[23.727,-5.619],[23.739,-5.6004],[23.7378,-5.4257],[23.7254,-5.3968],[23.6882,-5.3691],[23.4551,-5.2675],[23.419,-5.2173],[23.288,-5.2534],[23.2379,-5.2457],[23.1607,-5.1524],[22.9671,-4.9873],[22.9547,-4.8849],[22.9795,-4.8285],[23.0029,-4.8095],[23.1389,-4.7745],[23.1769,-4.7368],[23.1569,-4.5856],[23.119,-4.5339],[22.8503,-4.4854],[22.676,-4.2927],[22.6265,-4.2553],[22.4969,-4.1935],[22.4227,-4.137],[22.2937,-3.9887],[22.214,-4.0065],[22.194,-4.0259],[22.1497,-4.0298],[22.109,-4.0081],[22.0839,-3.9751],[22.0192,-3.9668],[22.0385,-3.9286],[22.0623,-3.915],[22.1773,-3.9081],[22.1974,-3.8925],[22.1974,-3.8576],[22.1329,-3.7028],[22.1113,-3.6844],[22.0071,-3.6521],[21.9861,-3.6285],[21.9758,-3.5804],[21.9819,-3.4863],[22.0436,-3.4128],[22.064,-3.3275],[22.1127,-3.2453],[22.1946,-3.0016],[22.1569,-2.8921],[21.9935,-2.6799],[21.9698,-2.565],[21.8991,-2.4904],[21.9698,-2.4117],[22.046,-2.3719],[22.1383,-2.2824],[22.1676,-2.2877],[22.183,-2.3073],[22.1855,-2.4116],[22.199,-2.4512],[22.2356,-2.4709],[22.2885,-2.4356],[22.2916,-2.4031],[22.229,-2.1801],[22.2074,-2.0362],[22.1699,-1.9417],[22.1761,-1.9139],[22.3278,-1.9499],[22.4971,-1.9588],[22.5366,-1.9382],[22.6243,-1.8087],[22.6827,-1.8083],[22.7643,-1.8529],[22.8152,-1.8569],[22.8706,-1.884],[22.9059,-1.9105],[22.9382,-1.9593],[23.0129,-1.9321],[23.0971,-1.9403],[23.1344,-1.965],[23.2008,-2.0639],[23.2242,-2.0783],[23.2633,-2.0609],[23.5426,-2.0061],[23.6888,-2.0152],[23.7011,-1.9507],[23.7738,-1.8963],[23.7858,-1.8066],[23.8277,-1.7693],[23.986,-1.765],[24.0828,-1.7462],[24.4215,-1.7868]]]}},{"type":"Feature","id":"Katanga","properties":{"id":"Katanga","iso_code":"CD-KA","name":"Katanga","name_full":"Katanga","name_ja":"カタンガ州","center_lonlat":[26.388,-8.7579]},"geometry":{"type":"Polygon","coordinates":[[[29.3428,-5.0],[29.4556,-5.23],[29.4964,-5.3917],[29.5935,-5.6203],[29.6124,-5.7044],[29.603,-5.7817],[29.4961,-5.9387],[29.4761,-6.0021],[29.5377,-6.3124],[29.6339,-6.4469],[29.707,-6.6193],[29.8731,-6.7542],[30.0127,-6.8252],[30.0909,-6.89],[30.2347,-7.0571],[30.2945,-7.1494],[30.3696,-7.3102],[30.4416,-7.5963],[30.655,-7.9274],[30.7281,-8.1041],[30.7521,-8.1941],[28.8892,-8.4831],[28.9355,-8.5908],[28.9305,-8.6799],[28.8931,-8.7658],[28.7654,-8.934],[28.5991,-9.0964],[28.5062,-9.1644],[28.3723,-9.2351],[28.3525,-9.272],[28.3685,-9.3086],[28.4605,-9.335],[28.516,-9.3783],[28.5197,-9.4456],[28.5628,-9.4849],[28.5741,-9.5392],[28.6178,-9.5433],[28.5836,-9.5638],[28.6218,-9.6383],[28.6313,-9.7156],[28.6985,-9.792],[28.6685,-9.8216],[28.6279,-9.9294],[28.6285,-10.1027],[28.6196,-10.1419],[28.5699,-10.2196],[28.6239,-10.2764],[28.6209,-10.3733],[28.6461,-10.4384],[28.6305,-10.481],[28.6349,-10.5195],[28.6723,-10.5643],[28.6655,-10.609],[28.6996,-10.6432],[28.6659,-10.6974],[28.6232,-10.7169],[28.5544,-10.835],[28.5472,-10.9138],[28.5079,-10.9821],[28.5079,-11.0236],[28.4768,-11.078],[28.4873,-11.1534],[28.4737,-11.1812],[28.4737,-11.2257],[28.4362,-11.2891],[28.4396,-11.3482],[28.4086,-11.3724],[28.357,-11.4469],[28.3557,-11.5182],[28.4055,-11.6052],[28.4184,-11.6789],[28.4427,-11.7116],[28.4525,-11.7808],[28.4889,-11.8087],[28.5079,-11.8728],[28.5406,-11.872],[28.5692,-11.9137],[28.5927,-11.9005],[28.6239,-11.9478],[28.686,-11.9841],[28.7511,-11.9922],[28.7599,-12.0352],[28.8215,-12.0757],[28.8595,-12.1418],[28.9187,-12.1743],[28.9447,-12.2061],[29.0351,-12.3789],[29.0672,-12.3848],[29.1002,-12.374],[29.1111,-12.3935],[29.1734,-12.3676],[29.255,-12.3662],[29.3049,-12.4048],[29.3644,-12.4093],[29.4326,-12.4413],[29.4997,-12.4531],[29.5247,-12.4292],[29.5234,-12.3925],[29.4805,-12.3805],[29.4466,-12.3351],[29.4743,-12.2427],[29.5767,-12.1881],[29.6319,-12.216],[29.7349,-12.1648],[29.7993,-12.1541],[29.7976,-13.4242],[29.7822,-13.4557],[29.7029,-13.4576],[29.6174,-13.4212],[29.6017,-13.3744],[29.6251,-13.3642],[29.6266,-13.3264],[29.6589,-13.3095],[29.6692,-13.2812],[29.6575,-13.2601],[29.6291,-13.2615],[29.5744,-13.2254],[29.528,-13.2341],[29.4496,-13.3003],[29.3083,-13.3537],[29.1841,-13.4369],[29.1221,-13.3843],[28.994,-13.3959],[28.9504,-13.351],[28.9341,-13.3096],[28.9034,-13.1623],[28.8919,-13.1473],[28.8537,-13.1371],[28.8442,-13.1024],[28.8258,-13.0928],[28.8309,-13.0518],[28.8094,-13.0384],[28.7934,-12.9916],[28.708,-12.8898],[28.6679,-12.8493],[28.6212,-12.8394],[28.584,-12.8887],[28.5534,-12.8949],[28.5428,-12.8856],[28.5394,-12.8338],[28.4809,-12.7621],[28.474,-12.7365],[28.5116,-12.6944],[28.5123,-12.6684],[28.4683,-12.6146],[28.4227,-12.5213],[28.3225,-12.4411],[28.2375,-12.4371],[28.1858,-12.4024],[28.1313,-12.4292],[28.0877,-12.3775],[27.9587,-12.3678],[27.9339,-12.3033],[27.8567,-12.2624],[27.8314,-12.2599],[27.7883,-12.2965],[27.7567,-12.3043],[27.6382,-12.2936],[27.5205,-12.1796],[27.4676,-12.0016],[27.4207,-11.922],[27.2342,-11.8091],[27.21,-11.722],[27.2076,-11.6394],[27.1801,-11.5696],[27.0644,-11.5971],[27.0238,-11.5956],[27.0103,-11.6098],[27.0215,-11.6979],[26.9811,-11.749],[26.9673,-11.8704],[26.9477,-11.9091],[26.8742,-11.9643],[26.7594,-11.9687],[26.7174,-12.013],[26.6971,-12.0175],[26.6435,-11.9855],[26.4891,-11.9608],[26.4146,-11.9118],[26.3391,-11.919],[26.298,-11.9412],[26.2296,-11.9331],[26.1667,-11.9024],[25.9811,-11.903],[25.9636,-11.8951],[25.9498,-11.864],[25.8507,-11.7938],[25.7256,-11.8005],[25.6215,-11.7289],[25.5757,-11.7273],[25.561,-11.7533],[25.4956,-11.7765],[25.4741,-11.7562],[25.4812,-11.7153],[25.3864,-11.6498],[25.3449,-11.6422],[25.3004,-11.535],[25.2977,-11.5079],[25.3167,-11.473],[25.279,-11.3963],[25.278,-11.3718],[25.3065,-11.3331],[25.2847,-11.3073],[25.3249,-11.2837],[25.3225,-11.2054],[25.3103,-11.1948],[25.184,-11.2467],[24.9429,-11.2686],[24.8267,-11.3176],[24.7125,-11.326],[24.6741,-11.3416],[24.6352,-11.3859],[24.5933,-11.3996],[24.5647,-11.4447],[24.4909,-11.4615],[24.4465,-11.4636],[24.3702,-11.4102],[24.2939,-11.3992],[24.2855,-11.3812],[24.3399,-11.3581],[24.3922,-11.2791],[24.3966,-11.2174],[24.3617,-11.1647],[24.3818,-11.1206],[24.3705,-11.1002],[24.2938,-11.0503],[24.1813,-11.0345],[24.1242,-11.0433],[24.108,-10.955],[24.1142,-10.9192],[24.0915,-10.8978],[24.0015,-10.8734],[23.9486,-10.8815],[23.928,-10.9454],[23.8878,-10.9744],[23.8674,-11.0164],[23.8337,-11.0285],[23.7523,-11.0082],[23.6416,-11.0045],[23.456,-10.961],[23.3733,-10.9751],[23.1968,-11.0719],[23.0143,-11.1025],[22.9311,-11.0968],[22.8531,-11.0531],[22.8292,-11.0521],[22.7642,-11.0905],[22.7277,-11.0968],[22.6509,-11.0823],[22.5376,-11.0372],[22.501,-11.0424],[22.4694,-11.1224],[22.4403,-11.1469],[22.3403,-11.1802],[22.2818,-11.2367],[22.2376,-11.2495],[22.2555,-11.1666],[22.2438,-11.0783],[22.2172,-11.0128],[22.1961,-10.9923],[22.1961,-10.9542],[22.1655,-10.8524],[22.224,-10.7971],[22.3195,-10.7613],[22.3264,-10.6946],[22.3101,-10.6688],[22.306,-10.5507],[22.2718,-10.4817],[22.3134,-10.3686],[22.2028,-10.1306],[22.2097,-10.0982],[22.1599,-9.9315],[22.091,-9.8771],[22.0558,-9.8754],[21.9984,-9.8091],[21.9844,-9.7488],[21.9565,-9.7618],[21.9424,-9.7229],[21.8789,-9.6571],[21.8541,-9.6178],[21.8199,-9.4477],[21.792,-9.4061],[21.8516,-9.2338],[21.8397,-9.0924],[21.8599,-8.8464],[21.8848,-8.7823],[21.9069,-8.6455],[21.936,-8.5831],[21.9162,-8.5768],[21.9439,-8.4559],[21.936,-8.413],[21.8999,-8.3488],[21.9206,-8.329],[21.8732,-8.2641],[21.8573,-8.1569],[21.8151,-8.0968],[21.7996,-8.0409],[21.7585,-8.0151],[21.7539,-7.9973],[21.7511,-7.9292],[21.7721,-7.8882],[21.7705,-7.8068],[21.8266,-7.6456],[21.9655,-7.7007],[22.0142,-7.7435],[22.0767,-7.7752],[22.1795,-7.7993],[22.2474,-7.805],[22.4859,-7.7867],[22.538,-7.7707],[22.5951,-7.7223],[22.6179,-7.7225],[22.6526,-7.7549],[22.6705,-7.8338],[22.696,-7.868],[22.8765,-7.9014],[22.9441,-7.8914],[23.0886,-7.8395],[23.1581,-7.7974],[23.1881,-7.9079],[23.2251,-7.9381],[23.2951,-7.8979],[23.4756,-7.927],[23.5668,-7.9043],[23.6691,-7.908],[23.7335,-7.88],[23.7732,-7.9034],[23.8538,-7.8338],[23.9518,-7.8304],[23.9506,-7.7862],[23.9231,-7.73],[23.9293,-7.5311],[23.9574,-7.4943],[23.9804,-7.3882],[24.001,-7.3623],[23.9585,-7.3235],[23.9756,-7.271],[23.9681,-7.2062],[24.0118,-7.1615],[24.0596,-7.0758],[24.1363,-7.0427],[24.149,-7.0007],[24.1354,-6.9933],[24.149,-6.9802],[24.1217,-6.9489],[24.1309,-6.9323],[24.154,-6.9272],[24.1354,-6.8804],[24.1878,-6.8776],[24.2133,-6.8915],[24.2285,-6.9132],[24.2316,-6.974],[24.2446,-6.9923],[24.37,-7.055],[24.4538,-7.0703],[24.4788,-7.0529],[24.5086,-7.0033],[24.5981,-6.9881],[24.671,-6.9324],[24.7569,-6.9004],[24.8996,-6.7904],[24.9128,-6.709],[24.9606,-6.6654],[25.0698,-6.6596],[25.1437,-6.6702],[25.2179,-6.6994],[25.3023,-6.7612],[25.4333,-6.7114],[25.4649,-6.6438],[25.4673,-6.6061],[25.517,-6.5725],[25.5181,-6.5524],[25.4987,-6.535],[25.4028,-6.5476],[25.3606,-6.5251],[25.2874,-6.4452],[25.2571,-6.3995],[25.2801,-6.3609],[25.3194,-6.3333],[25.5214,-6.3521],[25.5802,-6.3179],[25.6505,-6.3048],[25.7878,-6.192],[25.8358,-6.1959],[25.924,-6.2269],[25.9672,-6.3052],[25.9896,-6.3023],[26.0479,-6.2584],[26.1374,-6.2611],[26.1592,-6.2486],[26.1767,-6.1985],[26.1377,-6.0998],[26.1728,-6.0167],[26.163,-5.9266],[26.1685,-5.795],[26.1537,-5.7452],[26.0953,-5.6928],[26.0677,-5.6415],[26.0916,-5.5727],[26.1419,-5.5046],[26.0907,-5.4146],[26.0863,-5.3795],[26.1239,-5.2807],[26.2063,-5.1624],[26.2694,-5.0],[28.8245,-5.0],[29.3428,-5.0]]]}},{"type":"Feature","id":"Kinshasa","properties":{"id":"Kinshasa","iso_code":"CD-KN","name":"Kinshasa","name_full":"Kinshasa","name_ja":"キンシャサ","center_lonlat":[15.9212,-4.4425]},"geometry":{"type":"Polygon","coordinates":[[[15.1507,-4.4252],[15.204,-4.339],[15.4589,-4.2138],[15.4904,-4.1752],[15.5212,-4.0768],[15.5491,-4.0462],[15.7112,-3.9922],[15.8442,-3.9656],[15.888,-3.9405],[15.9882,-3.9873],[16.1482,-3.9814],[16.2161,-4.0011],[16.3896,-4.0997],[16.4593,-4.1987],[16.5402,-4.2778],[16.5425,-4.3963],[16.49,-4.5058],[16.4306,-4.521],[16.2605,-4.7945],[16.2787,-5.0],[16.0343,-4.9873],[15.9447,-4.9514],[15.8953,-4.9166],[15.8793,-5.0019],[15.8587,-5.0239],[15.8081,-5.0315],[15.7331,-5.0122],[15.649,-4.9544],[15.6234,-4.9161],[15.6281,-4.8896],[15.6875,-4.8769],[15.7177,-4.8539],[15.7522,-4.7124],[15.7431,-4.6863],[15.6681,-4.6223],[15.6828,-4.5618],[15.4448,-4.534],[15.4073,-4.5687],[15.3998,-4.639],[15.3819,-4.6552],[15.3469,-4.6578],[15.2758,-4.6013],[15.1507,-4.4252]]]}},{"type":"Feature","id":"Kongo Central","properties":{"id":"Kongo Central","iso_code":"CD-BC","name":"Kongo Central","name_full":"Kongo Central","name_ja":"コンゴ中央州","center_lonlat":[14.316,-5.2757]},"geometry":{"type":"MultiPolygon","coordinates":[[[[15.1507,-4.4252],[15.2758,-4.6013],[15.3469,-4.6578],[15.3819,-4.6552],[15.3998,-4.639],[15.4073,-4.5687],[15.4448,-4.534],[15.6828,-4.5618],[15.6681,-4.6223],[15.7431,-4.6863],[15.7522,-4.7124],[15.7177,-4.8539],[15.6875,-4.8769],[15.6281,-4.8896],[15.6234,-4.9161],[15.649,-4.9544],[15.7331,-5.0122],[15.8081,-5.0315],[15.8587,-5.0239],[15.8793,-5.0019],[15.8953,-4.9166],[15.9447,-4.9514],[16.0343,-4.9873],[16.2787,-5.0],[16.2503,-5.1021],[16.2584,-5.2209],[16.2208,-5.4359],[16.2295,-5.5163],[16.2223,-5.7004],[16.1837,-5.7825],[16.1009,-5.8581],[14.7037,-5.8814],[14.5766,-5.9047],[14.4821,-5.8855],[14.2418,-5.8896],[14.1401,-5.8635],[14.0212,-5.8725],[13.9436,-5.8416],[13.6415,-5.8658],[13.3805,-5.8564],[13.3425,-5.8906],[13.2693,-5.8635],[13.1707,-5.8499],[13.0672,-5.8626],[12.8962,-5.8145],[12.8224,-5.8298],[12.7665,-5.8653],[12.7175,-5.9313],[12.7226,-5.9793],[12.672,-6.0001],[12.607,-5.998],[12.5564,-6.0255],[12.4495,-6.0519],[12.4352,-6.0509],[12.4319,-6.0344],[12.4572,-6.0136],[12.4572,-5.9818],[12.4142,-5.9785],[12.3966,-6.006],[12.3762,-5.9587],[12.2666,-5.8508],[12.2105,-5.7634],[12.259,-5.7367],[12.3444,-5.7246],[12.509,-5.7263],[12.5307,-5.1627],[12.5241,-5.1291],[12.4447,-5.0935],[12.4444,-5.0551],[12.5504,-5.0242],[12.5877,-5.0003],[12.607,-4.9422],[12.6789,-4.9243],[12.697,-4.8756],[12.7662,-4.8252],[12.7748,-4.7795],[12.8029,-4.7398],[12.8332,-4.7227],[13.0653,-4.664],[13.0715,-4.6016],[13.088,-4.5795],[13.1124,-4.5769],[13.1821,-4.6861],[13.274,-4.7558],[13.3588,-4.7948],[13.3926,-4.8853],[13.4935,-4.7997],[13.4823,-4.7748],[13.5262,-4.7543],[13.5707,-4.7859],[13.5914,-4.7794],[13.6131,-4.7392],[13.634,-4.7257],[13.6753,-4.7318],[13.6819,-4.6954],[13.7125,-4.6857],[13.6991,-4.6427],[13.7218,-4.561],[13.715,-4.453],[13.8105,-4.4267],[13.8671,-4.4893],[13.9445,-4.4981],[14.0211,-4.4154],[14.1847,-4.3775],[14.28,-4.3128],[14.3871,-4.2771],[14.3927,-4.3528],[14.4286,-4.4004],[14.4697,-4.4293],[14.4246,-4.5023],[14.3748,-4.5302],[14.3508,-4.559],[14.3658,-4.6273],[14.4069,-4.676],[14.4109,-4.7011],[14.399,-4.7375],[14.4126,-4.7782],[14.4007,-4.8863],[14.4373,-4.8802],[14.4819,-4.8459],[14.5199,-4.8413],[14.6345,-4.9036],[14.7022,-4.8896],[14.8312,-4.8151],[14.931,-4.6469],[15.0228,-4.5471],[15.0979,-4.4999],[15.1507,-4.4252]]],[[[12.9053,-5.8695],[12.9946,-5.8682],[12.9693,-5.888],[12.8393,-5.9276],[12.8074,-5.954],[12.7611,-5.9584],[12.7451,-5.9402],[12.8282,-5.8718],[12.9053,-5.8695]]]]}},{"type":"Feature","id":"Maniema","properties":{"id":"Maniema","iso_code":"CD-MA","name":"Maniema","name_full":"Maniema","name_ja":"マニエマ州","center_lonlat":[26.4108,-3.0961]},"geometry":{"type":"Polygon","coordinates":[[[24.4507,-1.9387],[24.8358,-1.9562],[25.0043,-1.9363],[25.0714,-1.9913],[25.0739,-2.0219],[25.0534,-2.0631],[25.0635,-2.0833],[25.1401,-2.1068],[25.2328,-2.1092],[25.3211,-2.084],[25.4936,-1.8964],[25.5408,-1.8624],[25.6016,-1.8474],[25.6927,-1.8749],[25.8092,-1.8556],[25.8423,-1.7994],[25.8423,-1.7137],[25.8634,-1.6281],[25.8596,-1.3917],[25.9332,-1.4656],[25.9357,-1.4826],[25.9923,-1.491],[26.0168,-1.4754],[26.0351,-1.4355],[26.0275,-1.3994],[26.0698,-1.3612],[26.0712,-1.2859],[26.1233,-1.2549],[26.1244,-1.2278],[26.138,-1.2179],[26.1386,-1.1696],[26.1586,-1.1253],[26.1388,-1.0812],[26.1567,-0.9661],[26.2878,-0.8774],[26.2676,-0.6102],[26.4026,-0.4616],[26.3939,-0.4248],[26.366,-0.3911],[26.2583,-0.317],[26.1165,-0.1897],[26.112,-0.1526],[26.157,-0.0904],[26.2324,-0.1331],[26.2813,-0.185],[26.31,-0.1922],[26.3333,-0.2447],[26.3856,-0.2874],[26.4211,-0.2995],[26.4353,-0.3402],[26.4667,-0.3705],[26.5654,-0.3634],[26.6423,-0.3092],[26.6979,-0.3036],[26.7876,-0.2523],[26.8293,-0.2565],[26.839,-0.2433],[26.8314,-0.2129],[26.8469,-0.2013],[26.9529,-0.258],[27.0021,-0.2648],[27.0624,-0.3124],[27.0764,-0.3583],[27.1656,-0.4264],[27.3183,-0.4545],[27.3797,-0.5024],[27.48,-0.4805],[27.5155,-0.5202],[27.5948,-0.5204],[27.7303,-0.567],[27.8122,-0.6452],[27.8215,-0.6823],[27.763,-0.8743],[27.6708,-0.9272],[27.5504,-0.9372],[27.5011,-0.9036],[27.4394,-0.9167],[27.3916,-0.9506],[27.3445,-0.9468],[27.2781,-0.983],[27.2585,-1.0674],[27.2846,-1.0953],[27.2887,-1.1248],[27.3309,-1.1579],[27.3322,-1.1874],[27.2792,-1.188],[27.2533,-1.1754],[27.2059,-1.212],[27.2422,-1.2838],[27.45,-1.5227],[27.5194,-1.633],[27.7098,-1.807],[27.7225,-1.9347],[27.76,-2.0009],[27.4343,-2.0183],[27.3991,-2.0467],[27.3786,-2.1214],[27.347,-2.1568],[27.2776,-2.2023],[27.176,-2.2431],[27.149,-2.2231],[27.1297,-2.2351],[27.1047,-2.21],[27.0722,-2.2078],[27.0276,-2.1635],[26.9196,-2.1465],[26.8769,-2.1267],[26.8607,-2.1383],[26.8307,-2.2958],[26.8212,-2.4421],[26.8335,-2.5172],[26.9196,-2.7575],[26.9263,-2.8181],[27.0455,-2.9391],[27.0632,-2.9784],[27.0585,-3.0164],[27.0702,-3.0535],[27.1099,-3.1078],[27.0961,-3.1481],[27.1197,-3.166],[27.1173,-3.2439],[27.1316,-3.2817],[27.0871,-3.3469],[27.0956,-3.3838],[27.1153,-3.3993],[27.1284,-3.4895],[27.0894,-3.7004],[27.0936,-3.75],[27.1592,-3.8506],[27.2023,-3.8797],[27.4916,-3.9745],[27.6626,-3.9731],[27.7352,-3.9909],[27.871,-4.0922],[27.9903,-4.1342],[28.0338,-4.1293],[28.0307,-4.1784],[28.0689,-4.181],[28.0958,-4.2008],[28.1244,-4.1571],[28.1773,-4.1355],[28.2948,-4.2065],[28.3534,-4.2766],[28.4557,-4.3425],[28.4911,-4.3823],[28.6552,-4.686],[28.7425,-4.907],[28.8245,-5.0],[26.2694,-5.0],[25.0782,-4.9941],[25.0588,-4.9881],[25.0026,-4.8468],[24.964,-4.7936],[24.9027,-4.751],[24.8821,-4.698],[24.8616,-4.6837],[24.856,-4.6371],[24.8756,-4.5932],[24.9268,-4.5546],[24.964,-4.4925],[25.0124,-4.4447],[24.9748,-4.3901],[25.0124,-4.266],[24.9971,-4.2066],[25.0107,-4.1755],[24.9851,-4.1424],[24.9962,-4.1046],[24.9798,-4.0931],[24.9598,-4.033],[24.9503,-4.0264],[24.9299,-4.0407],[24.8957,-4.0096],[24.8957,-3.9683],[24.8616,-3.9376],[24.8479,-3.9029],[24.8343,-3.9171],[24.8049,-3.8709],[24.8001,-3.8551],[24.814,-3.8389],[24.7592,-3.8278],[24.7728,-3.8141],[24.7435,-3.7981],[24.7319,-3.7657],[24.7962,-3.6859],[24.7721,-3.5508],[24.7977,-3.5358],[24.8017,-3.5149],[24.7803,-3.4583],[24.8237,-3.447],[24.8644,-3.3765],[24.9066,-3.3517],[24.9005,-3.2715],[24.9609,-3.2555],[24.9669,-3.2137],[25.013,-3.1338],[25.0172,-3.0912],[24.9979,-3.0696],[25.0056,-3.06],[25.0254,-3.0744],[25.0335,-3.0668],[25.0192,-3.0358],[25.0248,-2.9798],[25.0633,-2.9119],[25.1112,-2.7732],[25.0774,-2.5879],[25.0998,-2.4478],[24.7247,-2.4642],[24.6813,-2.4108],[24.5842,-2.2316],[24.4937,-2.1082],[24.4507,-1.9387]]]}},{"type":"Feature","id":"North Kivu","properties":{"id":"North Kivu","iso_code":"CD-NK","name":"North Kivu","name_full":"North Kivu","name_ja":"北キヴ州","center_lonlat":[28.675,-0.5989]},"geometry":{"type":"Polygon","coordinates":[[[29.1866,-1.7396],[29.0526,-1.7273],[28.9421,-1.7342],[28.9127,-1.7216],[28.8884,-1.6702],[28.8658,-1.669],[28.7693,-1.7779],[28.652,-1.7928],[28.6087,-1.8898],[28.5592,-1.9264],[28.5094,-1.9286],[28.4505,-1.9071],[28.4245,-1.8315],[28.3843,-1.811],[28.3485,-1.8343],[28.3281,-1.9656],[28.3032,-1.9945],[28.1684,-2.0213],[28.0635,-2.0619],[27.9604,-2.0474],[27.8572,-1.9633],[27.8131,-1.9716],[27.76,-2.0009],[27.7225,-1.9347],[27.7098,-1.807],[27.5194,-1.633],[27.45,-1.5227],[27.2422,-1.2838],[27.2059,-1.212],[27.2533,-1.1754],[27.2792,-1.188],[27.3322,-1.1874],[27.3309,-1.1579],[27.2887,-1.1248],[27.2846,-1.0953],[27.2585,-1.0674],[27.2781,-0.983],[27.3445,-0.9468],[27.3916,-0.9506],[27.4394,-0.9167],[27.5011,-0.9036],[27.5504,-0.9372],[27.6708,-0.9272],[27.763,-0.8743],[27.8215,-0.6823],[27.8122,-0.6452],[27.7303,-0.567],[27.8164,-0.5113],[27.8718,-0.4521],[27.9556,-0.3249],[28.0246,-0.2942],[28.1056,-0.2287],[28.1224,-0.1609],[28.0898,0.0194],[28.105,0.1055],[28.1408,0.1533],[28.121,0.1904],[28.121,0.2201],[28.0884,0.236],[28.0632,0.2727],[28.0553,0.3695],[28.0389,0.3904],[28.0443,0.4257],[28.0187,0.4616],[27.9956,0.478],[27.957,0.4746],[27.9151,0.4919],[27.8773,0.4822],[27.8417,0.492],[27.7529,0.5393],[27.7416,0.5654],[27.7487,0.5757],[27.8936,0.5975],[27.9731,0.6674],[28.0626,0.7005],[28.3353,0.7396],[28.3899,0.7264],[28.4816,0.6285],[28.5579,0.5868],[28.8168,0.6313],[29.0137,0.6139],[29.1687,0.6865],[29.2106,0.6778],[29.2486,0.6501],[29.3076,0.6579],[29.4013,0.6182],[29.4505,0.6397],[29.4781,0.6673],[29.4696,0.6897],[29.3966,0.7164],[29.3619,0.7563],[29.3794,0.8184],[29.4154,0.8576],[29.5124,0.8217],[29.5524,0.8187],[29.5687,0.8255],[29.5981,0.8801],[29.7186,0.8806],[29.7928,0.9387],[29.8493,0.9606],[29.9058,0.8881],[29.9822,0.849],[29.9473,0.8246],[29.9268,0.7749],[29.9195,0.6181],[29.9405,0.4983],[29.9229,0.4602],[29.8396,0.3585],[29.7971,0.1648],[29.7872,0.1585],[29.7613,0.1721],[29.7031,0.0725],[29.7143,-0.0075],[29.694,-0.0631],[29.6294,-0.4424],[29.6497,-0.5043],[29.6531,-0.5656],[29.6509,-0.5796],[29.6188,-0.5994],[29.6306,-0.622],[29.6155,-0.6441],[29.603,-0.7229],[29.6108,-0.864],[29.5967,-0.8919],[29.5672,-0.9019],[29.5547,-0.9286],[29.5603,-0.9721],[29.5485,-1.0026],[29.5701,-1.0779],[29.557,-1.1818],[29.5814,-1.2348],[29.5715,-1.2792],[29.5871,-1.3106],[29.5779,-1.3884],[29.4987,-1.4311],[29.4374,-1.5062],[29.3428,-1.5165],[29.3038,-1.5879],[29.2454,-1.641],[29.1866,-1.7396]]]}},{"type":"Feature","id":"Orientale","properties":{"id":"Orientale","iso_code":"CD-OR","name":"Orientale","name_full":"Orientale","name_ja":"東部州","center_lonlat":[26.356,2.0912]},"geometry":{"type":"Polygon","coordinates":[[[29.9822,0.849],[29.9058,0.8881],[29.8493,0.9606],[29.7928,0.9387],[29.7186,0.8806],[29.5981,0.8801],[29.5687,0.8255],[29.5524,0.8187],[29.5124,0.8217],[29.4154,0.8576],[29.3794,0.8184],[29.3619,0.7563],[29.3966,0.7164],[29.4696,0.6897],[29.4781,0.6673],[29.4505,0.6397],[29.4013,0.6182],[29.3076,0.6579],[29.2486,0.6501],[29.2106,0.6778],[29.1687,0.6865],[29.0137,0.6139],[28.8168,0.6313],[28.5579,0.5868],[28.4816,0.6285],[28.3899,0.7264],[28.3353,0.7396],[28.0626,0.7005],[27.9731,0.6674],[27.8936,0.5975],[27.7487,0.5757],[27.7416,0.5654],[27.7529,0.5393],[27.8417,0.492],[27.8773,0.4822],[27.9151,0.4919],[27.957,0.4746],[27.9956,0.478],[28.0187,0.4616],[28.0443,0.4257],[28.0389,0.3904],[28.0553,0.3695],[28.0632,0.2727],[28.0884,0.236],[28.121,0.2201],[28.121,0.1904],[28.1408,0.1533],[28.105,0.1055],[28.0898,0.0194],[28.1224,-0.1609],[28.1056,-0.2287],[28.0246,-0.2942],[27.9556,-0.3249],[27.8718,-0.4521],[27.8164,-0.5113],[27.7303,-0.567],[27.5948,-0.5204],[27.5155,-0.5202],[27.48,-0.4805],[27.3797,-0.5024],[27.3183,-0.4545],[27.1656,-0.4264],[27.0764,-0.3583],[27.0624,-0.3124],[27.0021,-0.2648],[26.9529,-0.258],[26.8469,-0.2013],[26.8314,-0.2129],[26.839,-0.2433],[26.8293,-0.2565],[26.7876,-0.2523],[26.6979,-0.3036],[26.6423,-0.3092],[26.5654,-0.3634],[26.4667,-0.3705],[26.4353,-0.3402],[26.4211,-0.2995],[26.3856,-0.2874],[26.3333,-0.2447],[26.31,-0.1922],[26.2813,-0.185],[26.2324,-0.1331],[26.157,-0.0904],[26.112,-0.1526],[26.1165,-0.1897],[26.2583,-0.317],[26.366,-0.3911],[26.3939,-0.4248],[26.4026,-0.4616],[26.2676,-0.6102],[26.2878,-0.8774],[26.1567,-0.9661],[26.1388,-1.0812],[26.1586,-1.1253],[26.1386,-1.1696],[26.138,-1.2179],[26.1244,-1.2278],[26.1233,-1.2549],[26.0712,-1.2859],[26.0698,-1.3612],[26.0275,-1.3994],[26.0351,-1.4355],[26.0168,-1.4754],[25.9923,-1.491],[25.9357,-1.4826],[25.9332,-1.4656],[25.8596,-1.3917],[25.8634,-1.6281],[25.8423,-1.7137],[25.8423,-1.7994],[25.8092,-1.8556],[25.6927,-1.8749],[25.6016,-1.8474],[25.5408,-1.8624],[25.4936,-1.8964],[25.3211,-2.084],[25.2328,-2.1092],[25.1401,-2.1068],[25.0635,-2.0833],[25.0534,-2.0631],[25.0739,-2.0219],[25.0714,-1.9913],[25.0043,-1.9363],[24.8358,-1.9562],[24.4507,-1.9387],[24.4215,-1.7868],[24.3713,-1.5302],[24.293,-1.3895],[24.1171,-1.3864],[23.9843,-1.3254],[23.8359,-1.2036],[23.778,-1.1774],[23.7192,-1.0795],[23.5687,-0.9994],[23.3826,-0.837],[23.3673,-0.814],[23.3724,-0.7866],[23.4945,-0.6939],[23.6016,-0.6628],[23.6211,-0.6467],[23.6177,-0.6254],[23.4799,-0.4635],[23.4452,-0.438],[23.2666,-0.4905],[23.2056,-0.4265],[22.9794,-0.4035],[23.13,-0.2822],[23.1669,-0.279],[23.2931,-0.3137],[23.3348,-0.2778],[23.3949,-0.2595],[23.4067,-0.2148],[23.2473,0.0323],[23.1423,0.1538],[23.0836,0.2718],[22.9732,0.4137],[22.9184,0.6007],[22.8532,0.6969],[22.8585,0.794],[22.8172,0.8967],[22.8118,0.9998],[22.7295,1.1641],[22.679,1.2351],[22.6299,1.3472],[22.5428,1.4304],[22.4881,1.4645],[22.3656,1.504],[22.2899,1.5059],[22.3129,1.5576],[22.4331,1.647],[22.4721,1.6944],[22.511,1.8972],[22.5798,2.033],[22.5742,2.0987],[22.5849,2.1164],[22.6524,2.0955],[22.7038,2.0333],[22.7588,2.0111],[22.8614,2.0477],[22.8865,2.0724],[22.8886,2.0981],[22.9257,2.1043],[22.9368,2.1493],[22.9688,2.1574],[22.9775,2.1839],[23.0551,2.1103],[23.0914,2.0959],[23.2251,2.1649],[23.3432,2.2492],[23.51,2.2232],[23.6165,2.1841],[23.6469,2.1949],[23.6253,2.3296],[23.542,2.393],[23.4224,2.4539],[23.36,2.522],[23.3103,2.5351],[23.1271,2.5036],[23.0771,2.5231],[23.0389,2.5581],[22.9643,2.6695],[22.9962,2.7491],[22.986,2.8574],[23.02,2.9163],[23.0306,2.977],[23.0746,3.0773],[23.0714,3.1549],[23.0385,3.172],[22.9973,3.1586],[22.8555,3.0051],[22.8116,2.9992],[22.7801,3.0634],[22.7977,3.2053],[22.7864,3.2677],[22.7533,3.2928],[22.6557,3.3198],[22.6276,3.365],[22.6415,3.4165],[22.6786,3.4528],[22.8509,3.5045],[22.9291,3.5442],[22.9869,3.5352],[23.0378,3.5496],[23.1713,3.675],[23.2425,3.6415],[23.3009,3.6387],[23.3452,3.6114],[23.3696,3.6172],[23.4852,3.7384],[23.51,3.8214],[23.4084,3.8375],[23.3509,3.8135],[23.1491,3.9023],[23.0724,3.8856],[23.0392,3.8607],[22.986,3.8893],[22.9089,3.8545],[22.8397,3.8659],[22.7788,3.9018],[22.755,3.9827],[22.6858,3.9998],[22.5627,4.0998],[22.4515,4.1467],[22.5405,4.2273],[22.5393,4.2782],[22.5686,4.3315],[22.6093,4.3634],[22.589,4.422],[22.5924,4.4737],[22.6895,4.4917],[22.697,4.5357],[22.7311,4.5873],[22.7236,4.6288],[22.7574,4.6608],[22.786,4.7246],[22.8029,4.7306],[22.8538,4.7113],[22.8956,4.7654],[22.8829,4.8007],[22.8984,4.8236],[22.9774,4.8343],[23.0173,4.7505],[23.0994,4.7117],[23.1687,4.7381],[23.2086,4.6905],[23.2518,4.663],[23.2649,4.6351],[23.3164,4.6077],[23.4145,4.5908],[23.4483,4.6594],[23.5061,4.6764],[23.588,4.734],[23.76,4.7874],[23.8167,4.8206],[23.9483,4.8177],[23.9508,4.8678],[23.978,4.8541],[24.0896,4.9202],[24.1528,4.9026],[24.2096,4.9562],[24.2462,4.9541],[24.2592,4.9299],[24.2966,5.0033],[24.3685,5.0124],[24.3986,5.036],[24.3969,5.0482],[24.3612,5.0629],[24.3964,5.1223],[24.4115,5.0819],[24.4307,5.0674],[24.4367,5.1006],[24.4596,5.1074],[24.5137,5.0872],[24.5535,5.0391],[24.6012,5.0261],[24.6155,4.9851],[24.6708,4.9572],[24.6542,4.9294],[24.7306,4.9175],[24.7664,4.9299],[24.7894,4.9199],[24.8195,4.9445],[24.8483,4.9367],[24.9581,4.9913],[25.0761,4.9518],[25.1295,5.0186],[25.1637,5.0056],[25.2275,5.0096],[25.2485,5.0241],[25.3076,5.0323],[25.3493,5.1417],[25.3145,5.1633],[25.3077,5.1853],[25.3355,5.2284],[25.3434,5.2719],[25.3765,5.293],[25.3636,5.3106],[25.3957,5.334],[25.4351,5.3287],[25.482,5.3569],[25.5045,5.3423],[25.5408,5.3544],[25.5328,5.3722],[25.5437,5.3753],[25.5813,5.3749],[25.6005,5.3404],[25.6229,5.3408],[25.6092,5.3203],[25.6234,5.3099],[25.6501,5.3203],[25.6911,5.2998],[25.7437,5.2506],[25.7717,5.2455],[25.7811,5.2589],[25.7693,5.2652],[25.7923,5.2628],[25.7947,5.2384],[25.8146,5.2446],[25.8261,5.1947],[25.8494,5.2179],[25.8724,5.2171],[25.9109,5.1701],[25.9125,5.1904],[25.9256,5.2018],[25.9586,5.1974],[25.9719,5.2277],[26.0269,5.19],[26.0678,5.2008],[26.0771,5.2163],[26.0952,5.2111],[26.0884,5.2446],[26.1125,5.2384],[26.13,5.2589],[26.1573,5.2325],[26.1709,5.2384],[26.1845,5.2253],[26.1983,5.2384],[26.2136,5.1991],[26.2262,5.2043],[26.2262,5.1831],[26.2466,5.19],[26.2725,5.1591],[26.3533,5.1478],[26.3627,5.136],[26.3906,5.149],[26.4419,5.1043],[26.4627,5.0596],[26.5025,5.0475],[26.5614,5.0671],[26.5682,5.0596],[26.5984,5.0806],[26.6297,5.0671],[26.6917,5.0944],[26.7394,5.0944],[26.7606,5.0881],[26.8084,5.0391],[26.8327,5.0534],[26.8671,5.0375],[26.9616,5.1512],[27.0737,5.2033],[27.1164,5.2003],[27.2397,5.1449],[27.3019,5.132],[27.3428,5.1006],[27.4413,5.0707],[27.4363,5.0132],[27.5013,4.9633],[27.5146,4.9224],[27.5527,4.9005],[27.641,4.8909],[27.6719,4.8559],[27.6859,4.7979],[27.6991,4.7874],[27.7442,4.7878],[27.7669,4.7354],[27.7588,4.6772],[27.7724,4.5958],[27.8092,4.588],[27.8491,4.5532],[27.914,4.5493],[27.9292,4.57],[27.9445,4.5573],[28.014,4.55],[28.0112,4.4801],[28.0497,4.4191],[28.1017,4.4421],[28.1402,4.3793],[28.1776,4.3472],[28.3032,4.3522],[28.3369,4.3275],[28.3574,4.2829],[28.3815,4.2753],[28.4254,4.2908],[28.4968,4.369],[28.5573,4.3735],[28.5705,4.4051],[28.6386,4.4321],[28.6952,4.5326],[28.7245,4.534],[28.7554,4.554],[28.7836,4.5304],[28.79,4.4886],[28.8153,4.4783],[28.9036,4.4786],[28.9862,4.4959],[29.0532,4.4508],[29.056,4.4365],[29.1098,4.4124],[29.1735,4.348],[29.2213,4.3407],[29.2428,4.3874],[29.3039,4.3871],[29.3389,4.4495],[29.3902,4.4938],[29.4427,4.5834],[29.4576,4.6695],[29.6185,4.6416],[29.7153,4.5797],[29.7451,4.5839],[29.7967,4.556],[29.7777,4.5239],[29.787,4.4897],[29.7762,4.4056],[29.7878,4.3688],[29.8149,4.3468],[29.8827,4.344],[29.9303,4.3087],[29.9401,4.2883],[29.9241,4.2456],[29.9894,4.2178],[30.0429,4.1331],[30.1227,4.1025],[30.1894,3.9561],[30.2709,3.9495],[30.3379,3.9279],[30.4568,3.8676],[30.5252,3.8675],[30.5629,3.6949],[30.543,3.6129],[30.5924,3.6035],[30.6538,3.6306],[30.6934,3.6319],[30.7469,3.6749],[30.7651,3.6617],[30.7791,3.6026],[30.8377,3.5627],[30.8277,3.5111],[30.8395,3.4902],[30.8964,3.52],[30.9093,3.4961],[30.91,3.3934],[30.8042,3.246],[30.7438,3.0555],[30.7571,3.0215],[30.8209,2.9732],[30.844,2.9328],[30.8534,2.8534],[30.8287,2.7861],[30.8016,2.7691],[30.7353,2.5931],[30.737,2.5195],[30.7077,2.4623],[30.7106,2.4451],[30.8049,2.4344],[30.8198,2.376],[30.8718,2.3321],[30.9006,2.346],[30.9309,2.4056],[30.968,2.4054],[31.0413,2.3312],[31.0355,2.3069],[31.0552,2.2902],[31.1126,2.2821],[31.1776,2.3029],[31.1901,2.2215],[31.2675,2.1733],[31.2804,2.1534],[31.2715,2.103],[31.2428,2.0512],[31.0258,1.7782],[30.6817,1.5003],[30.4583,1.2217],[30.4127,1.202],[30.3649,1.202],[30.3238,1.1558],[30.2957,1.1726],[30.2693,1.1673],[30.2389,1.136],[30.2153,1.0771],[30.2141,0.9985],[30.1548,0.9087],[30.0384,0.8789],[29.9822,0.849]]]}},{"type":"Feature","id":"South Kivu","properties":{"id":"South Kivu","iso_code":"CD-SK","name":"South Kivu","name_full":"South Kivu","name_ja":"南キヴ州","center_lonlat":[28.2462,-3.2169]},"geometry":{"type":"Polygon","coordinates":[[[29.3428,-5.0],[28.8245,-5.0],[28.7425,-4.907],[28.6552,-4.686],[28.4911,-4.3823],[28.4557,-4.3425],[28.3534,-4.2766],[28.2948,-4.2065],[28.1773,-4.1355],[28.1244,-4.1571],[28.0958,-4.2008],[28.0689,-4.181],[28.0307,-4.1784],[28.0338,-4.1293],[27.9903,-4.1342],[27.871,-4.0922],[27.7352,-3.9909],[27.6626,-3.9731],[27.4916,-3.9745],[27.2023,-3.8797],[27.1592,-3.8506],[27.0936,-3.75],[27.0894,-3.7004],[27.1284,-3.4895],[27.1153,-3.3993],[27.0956,-3.3838],[27.0871,-3.3469],[27.1316,-3.2817],[27.1173,-3.2439],[27.1197,-3.166],[27.0961,-3.1481],[27.1099,-3.1078],[27.0702,-3.0535],[27.0585,-3.0164],[27.0632,-2.9784],[27.0455,-2.9391],[26.9263,-2.8181],[26.9196,-2.7575],[26.8335,-2.5172],[26.8212,-2.4421],[26.8307,-2.2958],[26.8607,-2.1383],[26.8769,-2.1267],[26.9196,-2.1465],[27.0276,-2.1635],[27.0722,-2.2078],[27.1047,-2.21],[27.1297,-2.2351],[27.149,-2.2231],[27.176,-2.2431],[27.2776,-2.2023],[27.347,-2.1568],[27.3786,-2.1214],[27.3991,-2.0467],[27.4343,-2.0183],[27.76,-2.0009],[27.8131,-1.9716],[27.8572,-1.9633],[27.9604,-2.0474],[28.0635,-2.0619],[28.1684,-2.0213],[28.3032,-1.9945],[28.3281,-1.9656],[28.3485,-1.8343],[28.3843,-1.811],[28.4245,-1.8315],[28.4505,-1.9071],[28.5094,-1.9286],[28.5592,-1.9264],[28.6087,-1.8898],[28.652,-1.7928],[28.7693,-1.7779],[28.8658,-1.669],[28.8884,-1.6702],[28.9127,-1.7216],[28.9421,-1.7342],[29.0526,-1.7273],[29.1866,-1.7396],[29.1493,-1.7993],[29.1255,-1.8791],[29.1563,-2.1087],[29.1348,-2.1977],[29.0754,-2.2639],[28.9937,-2.2777],[28.9454,-2.3542],[28.8663,-2.3919],[28.8609,-2.4396],[28.8782,-2.4897],[28.8572,-2.5183],[28.8981,-2.5763],[28.8913,-2.6527],[28.9364,-2.6851],[29.0001,-2.7037],[29.0286,-2.7449],[28.9955,-2.7584],[28.9869,-2.7968],[28.9949,-2.8136],[29.0491,-2.8275],[29.0898,-2.9261],[29.1384,-2.9504],[29.1568,-3.0048],[29.2115,-3.0212],[29.2346,-3.0466],[29.2423,-3.1108],[29.2141,-3.1665],[29.2169,-3.2331],[29.2409,-3.2663],[29.2131,-3.2919],[29.2067,-3.3345],[29.2252,-3.5886],[29.2066,-3.7819],[29.215,-3.8999],[29.3395,-4.0932],[29.3728,-4.2082],[29.4109,-4.5023],[29.4013,-4.5869],[29.321,-4.8363],[29.3238,-4.9202],[29.3428,-5.0]]]}}]}
