{"type":"FeatureCollection","features":[{"type":"Feature","id":"Aileu","properties":{"id":"Aileu","iso_code":"TL-AL","name":"Aileu","name_full":"Aileu","name_ja":"アイレウ県","center_lonlat":[125.6216,-8.7073]},"geometry":{"type":"Polygon","coordinates":[[[125.7637,-8.5828],[125.7575,-8.6171],[125.8011,-8.7056],[125.8052,-8.7532],[125.7623,-8.7564],[125.6883,-8.7946],[125.6914,-8.7709],[125.6451,-8.7725],[125.5988,-8.7938],[125.5719,-8.8366],[125.488,-8.8556],[125.4752,-8.8221],[125.4336,-8.794],[125.4576,-8.7521],[125.4442,-8.724],[125.4979,-8.7008],[125.5095,-8.67],[125.4947,-8.6498],[125.5119,-8.6202],[125.5211,-8.627],[125.6161,-8.6057],[125.6959,-8.565],[125.7637,-8.5828]]]}},{"type":"Feature","id":"Ainaro","properties":{"id":"Ainaro","iso_code":"TL-AN","name":"Ainaro","name_full":"Ainaro","name_ja":"アイナロ県","center_lonlat":[125.5554,-9.0062]},"geometry":{"type":"Polygon","coordinates":[[[125.6701,-9.1933],[125.593,-9.1896],[125.488,-9.2408],[125.5111,-9.1645],[125.4599,-9.1341],[125.446,-9.07],[125.4106,-9.0341],[125.4131,-8.9822],[125.4427,-8.9737],[125.4433,-8.9495],[125.4896,-8.8899],[125.488,-8.8556],[125.5719,-8.8366],[125.5988,-8.7938],[125.6451,-8.7725],[125.6914,-8.7709],[125.6883,-8.7946],[125.6719,-8.9067],[125.6004,-8.928],[125.5789,-8.9991],[125.5955,-9.0553],[125.6647,-9.094],[125.6701,-9.1933]]]}},{"type":"Feature","id":"Baucau","properties":{"id":"Baucau","iso_code":"TL-BA","name":"Baucau","name_full":"Baucau","name_ja":"バウカウ県","center_lonlat":[126.4637,-8.5712]},"geometry":{"type":"Polygon","coordinates":[[[126.1418,-8.5028],[126.2402,-8.4948],[126.305,-8.4535],[126.4116,-8.4191],[126.4509,-8.4407],[126.512,-8.4521],[126.5488,-8.4867],[126.6882,-8.4312],[126.7106,-8.4784],[126.7375,-8.4993],[126.7264,-8.5297],[126.8117,-8.6202],[126.739,-8.6965],[126.7067,-8.6646],[126.6511,-8.6487],[126.6025,-8.6899],[126.5595,-8.6766],[126.5188,-8.6832],[126.4917,-8.67],[126.4554,-8.6072],[126.4494,-8.6936],[126.4322,-8.7064],[126.3311,-8.6754],[126.2344,-8.6959],[126.14,-8.6811],[126.1792,-8.6237],[126.1713,-8.5375],[126.1418,-8.5028]]]}},{"type":"Feature","id":"Bobonaro","properties":{"id":"Bobonaro","iso_code":"TL-BO","name":"Bobonaro","name_full":"Bobonaro","name_ja":"ボボナロ県","center_lonlat":[125.1694,-8.9784]},"geometry":{"type":"Polygon","coordinates":[[[125.1029,-8.7403],[125.1424,-8.7562],[125.1792,-8.7545],[125.1864,-8.7719],[125.2393,-8.787],[125.3077,-8.9181],[125.3263,-8.9914],[125.4131,-8.9822],[125.4106,-9.0341],[125.3606,-9.0603],[125.342,-9.1427],[125.292,-9.1454],[125.3193,-9.1793],[125.3112,-9.2095],[125.218,-9.2141],[125.2064,-9.1905],[125.1527,-9.1708],[125.145,-9.1452],[125.1624,-9.0606],[125.1394,-9.0248],[125.0915,-8.9886],[125.0765,-8.9908],[125.0518,-9.035],[124.9659,-9.0773],[124.933,-9.0745],[124.9079,-9.0375],[124.9195,-8.962],[124.9748,-8.9221],[125.0369,-8.8248],[125.0964,-8.7958],[125.1029,-8.7403]]]}},{"type":"Feature","id":"Cova Lima","properties":{"id":"Cova Lima","iso_code":"TL-CO","name":"Cova Lima","name_full":"Cova Lima","name_ja":"コヴァ・リマ県","center_lonlat":[125.2216,-9.2625]},"geometry":{"type":"Polygon","coordinates":[[[125.1527,-9.1708],[125.2064,-9.1905],[125.218,-9.2141],[125.3112,-9.2095],[125.3193,-9.1793],[125.292,-9.1454],[125.342,-9.1427],[125.3606,-9.0603],[125.4106,-9.0341],[125.446,-9.07],[125.4599,-9.1341],[125.5111,-9.1645],[125.488,-9.2408],[125.3788,-9.281],[125.2637,-9.3574],[125.2111,-9.4196],[125.1305,-9.4338],[125.0616,-9.4858],[125.0234,-9.3456],[124.966,-9.2934],[124.9579,-9.2119],[124.9745,-9.1919],[125.0072,-9.1861],[125.0739,-9.2113],[125.107,-9.1885],[125.1506,-9.1854],[125.1527,-9.1708]]]}},{"type":"Feature","id":"Dili","properties":{"id":"Dili","iso_code":"TL-DI","name":"Dili","name_full":"Dili","name_ja":"ディリ県","center_lonlat":[125.6605,-8.5596]},"geometry":{"type":"MultiPolygon","coordinates":[[[[125.4898,-8.5682],[125.5415,-8.545],[125.6035,-8.5489],[125.6309,-8.5216],[125.6789,-8.5304],[125.8285,-8.4909],[125.846,-8.5135],[125.7889,-8.5758],[125.7637,-8.5828],[125.6959,-8.565],[125.6161,-8.6057],[125.5211,-8.627],[125.5119,-8.6202],[125.4975,-8.6097],[125.4898,-8.5682]]],[[[125.5693,-8.1964],[125.6325,-8.135],[125.6506,-8.1428],[125.5967,-8.2992],[125.5736,-8.3173],[125.5176,-8.2922],[125.5037,-8.2708],[125.5693,-8.1964]]]]}},{"type":"Feature","id":"Ermera","properties":{"id":"Ermera","iso_code":"TL-ER","name":"Ermera","name_full":"Ermera","name_ja":"エルメラ県","center_lonlat":[125.371,-8.8215]},"geometry":{"type":"Polygon","coordinates":[[[125.4947,-8.6498],[125.5095,-8.67],[125.4979,-8.7008],[125.4442,-8.724],[125.4576,-8.7521],[125.4336,-8.794],[125.4752,-8.8221],[125.488,-8.8556],[125.4896,-8.8899],[125.4433,-8.9495],[125.4427,-8.9737],[125.4131,-8.9822],[125.3263,-8.9914],[125.3077,-8.9181],[125.2393,-8.787],[125.1864,-8.7719],[125.1792,-8.7545],[125.3875,-8.6954],[125.4681,-8.6485],[125.4947,-8.6498]]]}},{"type":"Feature","id":"Lautem","properties":{"id":"Lautem","iso_code":"TL-LA","name":"Lautem","name_full":"Lautém","name_ja":"ラウテン県","center_lonlat":[126.9692,-8.5119]},"geometry":{"type":"Polygon","coordinates":[[[126.6882,-8.4312],[126.7202,-8.4129],[126.7993,-8.4101],[126.9671,-8.309],[127.0889,-8.3627],[127.138,-8.3627],[127.1863,-8.3325],[127.2061,-8.3326],[127.2204,-8.3576],[127.306,-8.3952],[127.3132,-8.4152],[127.0212,-8.6757],[126.9392,-8.6922],[126.8462,-8.7525],[126.7284,-8.761],[126.739,-8.6965],[126.8117,-8.6202],[126.7264,-8.5297],[126.7375,-8.4993],[126.7106,-8.4784],[126.6882,-8.4312]]]}},{"type":"Feature","id":"Liquica","properties":{"id":"Liquica","iso_code":"TL-LI","name":"Liquica","name_full":"Liquiçá","name_ja":"リキシャ県","center_lonlat":[125.2951,-8.6583]},"geometry":{"type":"Polygon","coordinates":[[[125.1029,-8.7403],[125.115,-8.6659],[125.1443,-8.6314],[125.2373,-8.6056],[125.2739,-8.6109],[125.381,-8.5715],[125.4898,-8.5682],[125.4975,-8.6097],[125.5119,-8.6202],[125.4947,-8.6498],[125.4681,-8.6485],[125.3875,-8.6954],[125.1792,-8.7545],[125.1424,-8.7562],[125.1029,-8.7403]]]}},{"type":"Feature","id":"Manatuto","properties":{"id":"Manatuto","iso_code":"TL-MT","name":"Manatuto","name_full":"Manatuto","name_ja":"マナトゥト県","center_lonlat":[125.9669,-8.7205]},"geometry":{"type":"Polygon","coordinates":[[[126.138,-8.9999],[126.0475,-9.0573],[126.032,-9.0227],[125.945,-8.967],[125.9061,-8.915],[125.8104,-8.8569],[125.7987,-8.812],[125.8052,-8.7532],[125.8011,-8.7056],[125.7575,-8.6171],[125.7637,-8.5828],[125.7889,-8.5758],[125.846,-8.5135],[125.8285,-8.4909],[125.8977,-8.4811],[126.0691,-8.5216],[126.1418,-8.5028],[126.1713,-8.5375],[126.1792,-8.6237],[126.14,-8.6811],[126.1114,-8.675],[126.092,-8.688],[126.0337,-8.794],[126.0783,-8.8685],[126.0942,-8.9412],[126.138,-8.9999]]]}},{"type":"Feature","id":"Manufahi","properties":{"id":"Manufahi","iso_code":"TL-MF","name":"Manufahi","name_full":"Manufahi","name_ja":"マヌファヒ県","center_lonlat":[125.7865,-8.9943]},"geometry":{"type":"Polygon","coordinates":[[[126.0475,-9.0573],[125.9471,-9.1257],[125.8499,-9.1242],[125.8169,-9.1482],[125.7427,-9.1573],[125.6701,-9.1933],[125.6647,-9.094],[125.5955,-9.0553],[125.5789,-8.9991],[125.6004,-8.928],[125.6719,-8.9067],[125.6883,-8.7946],[125.7623,-8.7564],[125.8052,-8.7532],[125.7987,-8.812],[125.8104,-8.8569],[125.9061,-8.915],[125.945,-8.967],[126.032,-9.0227],[126.0475,-9.0573]]]}},{"type":"Feature","id":"Oe-Cusse Ambeno","properties":{"id":"Oe-Cusse Ambeno","iso_code":"TL-OE","name":"Oe-Cusse Ambeno","name_full":"Oe-Cusse Ambeno","name_ja":"オエクシ＝アンベノ","center_lonlat":[124.2659,-9.3278]},"geometry":{"type":"Polygon","coordinates":[[[124.4505,-9.1802],[124.4279,-9.2995],[124.3479,-9.3746],[124.3286,-9.433],[124.3323,-9.4666],[124.3101,-9.4887],[124.2575,-9.5012],[124.254,-9.4387],[124.2107,-9.3789],[124.1672,-9.3806],[124.1211,-9.4269],[124.0903,-9.4215],[124.03,-9.342],[124.1594,-9.2965],[124.1908,-9.2551],[124.2212,-9.2411],[124.4505,-9.1802]]]}},{"type":"Feature","id":"Viqueque","properties":{"id":"Viqueque","iso_code":"TL-VI","name":"Viqueque","name_full":"Viqueque","name_ja":"ヴィケケ県","center_lonlat":[126.3469,-8.8083]},"geometry":{"type":"Polygon","coordinates":[[[126.7284,-8.761],[126.6724,-8.7686],[126.624,-8.799],[126.5833,-8.8058],[126.5078,-8.9119],[126.4724,-8.9428],[126.138,-8.9999],[126.0942,-8.9412],[126.0783,-8.8685],[126.0337,-8.794],[126.092,-8.688],[126.1114,-8.675],[126.14,-8.6811],[126.2344,-8.6959],[126.3311,-8.6754],[126.4322,-8.7064],[126.4494,-8.6936],[126.4554,-8.6072],[126.4917,-8.67],[126.5188,-8.6832],[126.5595,-8.6766],[126.6025,-8.6899],[126.6511,-8.6487],[126.7067,-8.6646],[126.739,-8.6965],[126.7284,-8.761]]]}}]}
