{"type":"FeatureCollection","features":[{"type":"Feature","id":"Al Sharqia","properties":{"id":"Al Sharqia","iso_code":"EG-SHR","name":"Al Sharqia","name_full":"Al Sharqia","name_ja":"シャルキーヤ県","center_lonlat":[31.7305,30.6645]},"geometry":{"type":"MultiPolygon","coordinates":[[[[32.0523,31.1288],[32.0701,31.1069],[32.044,31.0865],[32.0838,31.0844],[32.0938,31.0585],[32.1321,31.0598],[32.1074,31.0728],[32.098,31.0933],[32.1426,31.0803],[32.1922,31.036],[32.2018,30.9938],[32.1179,30.8334],[32.13,30.7421],[32.0986,30.6773],[32.0321,30.6018],[31.974,30.5596],[31.8773,30.548],[31.7638,30.5572],[31.8097,30.4792],[31.8431,30.339],[31.5939,30.1904],[31.3857,30.2805],[31.3427,30.3592],[31.2725,30.437],[31.2941,30.5282],[31.3529,30.5738],[31.3807,30.6167],[31.3575,30.7262],[31.3756,30.7802],[31.4209,30.7957],[31.5757,30.8054],[31.6223,30.8482],[31.6203,30.8844],[31.6682,30.9086],[31.7835,31.0659],[31.9482,31.0841],[32.0523,31.1288]]],[[[32.1418,31.0874],[32.1594,31.0933],[32.1528,31.1066],[32.1663,31.1144],[32.1799,31.1069],[32.1838,31.1249],[32.2185,31.1052],[32.2722,31.1189],[32.2805,31.155],[32.2625,31.1696],[32.2874,31.1702],[32.29,31.1138],[32.1418,31.0874]]]]}},{"type":"Feature","id":"Alexandria","properties":{"id":"Alexandria","iso_code":"EG-ALX","name":"Alexandria","name_full":"Alexandria","name_ja":"アレクサンドリア県","center_lonlat":[29.7913,30.8366]},"geometry":{"type":"Polygon","coordinates":[[[29.5981,31.0095],[29.766,31.1216],[29.7815,31.1479],[29.8093,31.1423],[29.8384,31.1541],[29.8846,31.1895],[29.8757,31.2009],[29.8635,31.1964],[29.877,31.2136],[29.8982,31.2032],[30.0491,31.3131],[30.0422,31.3205],[30.0696,31.3335],[30.0667,31.3049],[30.0985,31.2847],[30.0114,31.1487],[29.8676,31.0756],[29.9098,31.0051],[29.8642,30.9397],[29.8671,30.9167],[29.9848,30.7605],[30.0127,30.6983],[29.9284,30.5909],[29.7287,30.5028],[29.6845,30.4622],[29.6249,30.3371],[29.5981,31.0095]]]}},{"type":"Feature","id":"Aswan","properties":{"id":"Aswan","iso_code":"EG-ASN","name":"Aswan","name_full":"Aswan","name_ja":"アスワン県","center_lonlat":[32.9143,23.2362]},"geometry":{"type":"Polygon","coordinates":[[[31.4947,21.9954],[31.4355,21.9954],[31.4906,22.1482],[31.4829,22.1954],[31.4609,22.2155],[31.4233,22.227],[31.3853,22.2145],[31.3144,22.1023],[31.2323,22.1754],[31.225,22.1969],[31.2357,22.2256],[31.264,22.2593],[31.3025,22.2805],[31.4267,22.297],[31.4918,22.3237],[31.5973,22.4325],[31.6203,22.5027],[31.5936,22.6484],[31.6369,22.7192],[31.7031,22.7443],[31.834,22.7226],[32.1933,22.8721],[32.297,22.8137],[32.3749,22.8136],[32.4146,22.7715],[32.436,22.7727],[32.4916,22.8599],[32.5232,22.9714],[32.6337,23.2155],[32.7619,23.3618],[32.7648,23.3962],[32.7477,23.4195],[32.6009,23.4026],[32.501,23.4058],[32.4378,23.4226],[32.4264,23.4489],[32.479,23.6511],[32.5277,23.714],[32.5847,23.751],[32.7329,23.7725],[32.7629,23.7942],[32.7451,23.836],[32.6456,23.8958],[32.6387,23.9267],[32.6552,23.9991],[32.6945,24.0243],[32.8311,24.0378],[32.874,24.0803],[32.8864,24.1263],[32.8707,24.1991],[32.8826,24.3161],[32.878,24.49],[32.9303,24.649],[32.9184,24.7055],[32.8497,24.8571],[32.8348,24.9739],[32.8084,25.033],[32.7702,25.0785],[32.6539,25.1457],[32.6937,25.1792],[32.7048,25.2699],[32.9076,25.129],[32.9796,25.0312],[33.0091,24.9138],[33.0187,24.7441],[33.1315,24.5238],[33.1081,24.4415],[33.0021,24.3031],[32.9721,24.1559],[33.0095,23.9622],[33.0685,23.8362],[33.1583,23.7461],[33.1684,23.6309],[33.1422,23.5735],[33.14,23.5314],[33.162,23.4382],[33.2081,23.3592],[33.2128,23.3296],[33.1622,23.1985],[33.1152,23.1572],[33.0559,23.057],[33.0753,23.0254],[33.215,22.9603],[33.2831,22.8841],[33.3315,22.7431],[33.3297,22.7063],[33.2902,22.7093],[33.1214,22.844],[33.0728,22.8535],[32.9599,22.8454],[32.8699,22.9197],[32.8378,22.9275],[32.7799,22.8402],[32.7844,22.7545],[32.7615,22.7023],[32.5373,22.4993],[32.4548,22.4657],[32.3383,22.4615],[32.2776,22.4863],[32.1812,22.5719],[32.137,22.5807],[32.1091,22.5421],[32.0442,22.3724],[31.9961,22.312],[31.9446,22.2786],[31.8603,22.2649],[31.7986,22.1938],[31.5695,22.0913],[31.5244,22.0504],[31.4947,21.9954]]]}},{"type":"Feature","id":"Asyut","properties":{"id":"Asyut","iso_code":"EG-AST","name":"Asyut","name_full":"Asyut","name_ja":"アシュート県","center_lonlat":[31.1154,27.2332]},"geometry":{"type":"Polygon","coordinates":[[[30.6712,27.634],[30.6984,27.6236],[30.7654,27.6309],[30.8345,27.6087],[30.9412,27.6201],[30.9392,27.5025],[30.9656,27.4365],[31.0719,27.3732],[31.2367,27.3172],[31.2884,27.2834],[31.3407,27.1905],[31.489,27.0678],[31.619,26.8332],[31.5528,26.8372],[31.5002,26.9118],[31.462,26.9401],[31.4448,26.9364],[31.3931,26.8825],[31.3,26.8374],[31.1621,27.0798],[31.0804,27.1495],[30.9394,27.209],[30.7909,27.3375],[30.681,27.5366],[30.6712,27.634]]]}},{"type":"Feature","id":"Beheira","properties":{"id":"Beheira","iso_code":"EG-BH","name":"Beheira","name_full":"Beheira","name_ja":"ブハイラ県","center_lonlat":[30.2983,30.6239]},"geometry":{"type":"Polygon","coordinates":[[[30.0985,31.2847],[30.1726,31.2714],[30.1401,31.2372],[30.1652,31.2168],[30.2068,31.2379],[30.2017,31.2265],[30.2205,31.2202],[30.2546,31.2516],[30.2614,31.2441],[30.2688,31.2653],[30.2887,31.2379],[30.303,31.2714],[30.2876,31.2782],[30.2409,31.2653],[30.2546,31.2783],[30.1795,31.2783],[30.2517,31.3034],[30.3128,31.3506],[30.3484,31.4213],[30.3439,31.498],[30.3646,31.4601],[30.3982,31.4436],[30.4248,31.4291],[30.4261,31.3849],[30.4486,31.3751],[30.4583,31.348],[30.4738,31.3399],[30.4833,31.3546],[30.5182,31.3281],[30.5202,31.2895],[30.4943,31.2381],[30.5148,31.2381],[30.5254,31.1965],[30.5702,31.1996],[30.652,31.1146],[30.6993,31.0922],[30.7277,31.0525],[30.7277,31.019],[30.7636,30.9836],[30.7516,30.9768],[30.7823,30.9228],[30.7571,30.886],[30.7938,30.8683],[30.7898,30.847],[30.7619,30.8272],[30.8165,30.8272],[30.7761,30.8061],[30.7532,30.7755],[30.7685,30.7601],[30.7924,30.7636],[30.7966,30.7474],[30.7744,30.7164],[30.7961,30.6802],[30.8047,30.6135],[30.8376,30.587],[30.8213,30.5686],[30.8239,30.5522],[30.8512,30.546],[30.8308,30.4976],[30.8512,30.4532],[30.8444,30.4014],[30.8795,30.3729],[30.8332,30.3617],[30.8331,30.3338],[30.369,29.9708],[30.3286,29.8982],[29.6718,30.252],[29.6249,30.3371],[29.6845,30.4622],[29.7287,30.5028],[29.9284,30.5909],[30.0127,30.6983],[29.9848,30.7605],[29.8671,30.9167],[29.8642,30.9397],[29.9098,31.0051],[29.8676,31.0756],[30.0114,31.1487],[30.0985,31.2847]]]}},{"type":"Feature","id":"Beni Suef","properties":{"id":"Beni Suef","iso_code":"EG-BNS","name":"Beni Suef","name_full":"Beni Suef","name_ja":"ベニ・スエフ県","center_lonlat":[30.564,28.9718]},"geometry":{"type":"Polygon","coordinates":[[[31.1019,29.4001],[31.1726,29.3979],[31.2263,29.3779],[31.2559,29.3393],[31.2553,29.2988],[31.2533,29.2027],[31.217,29.1221],[30.9929,28.846],[30.953,28.7654],[30.9442,28.7157],[30.7865,28.7641],[30.7687,28.781],[29.7492,28.7593],[29.7742,28.836],[29.8149,29.0884],[30.2498,29.0181],[30.3164,28.9762],[30.3637,28.9798],[30.7802,29.0824],[30.8643,29.1206],[30.9323,29.186],[31.0618,29.3649],[31.1019,29.4001]]]}},{"type":"Feature","id":"Cairo","properties":{"id":"Cairo","iso_code":"EG-C","name":"Cairo","name_full":"Cairo","name_ja":"カイロ県","center_lonlat":[31.6062,29.9977]},"geometry":{"type":"Polygon","coordinates":[[[31.8873,30.2324],[31.9364,29.8725],[31.9289,29.7832],[31.2916,29.7599],[31.2888,29.8851],[31.2212,30.0079],[31.2376,30.1148],[31.3096,30.1391],[31.3262,30.1646],[31.3448,30.1586],[31.4403,30.1844],[31.5939,30.1904],[31.8431,30.339],[31.8873,30.2324]]]}},{"type":"Feature","id":"Dakahlia","properties":{"id":"Dakahlia","iso_code":"EG-DK","name":"Dakahlia","name_full":"Dakahlia","name_ja":"ダカリーヤ県","center_lonlat":[31.5067,31.0936]},"geometry":{"type":"MultiPolygon","coordinates":[[[[31.7949,31.2777],[31.7902,31.2851],[31.8286,31.2741],[31.8342,31.2516],[31.8858,31.2236],[31.9063,31.2516],[31.9063,31.2236],[31.8926,31.2168],[31.9063,31.2168],[31.8994,31.2032],[31.9266,31.2106],[31.9264,31.187],[31.9866,31.2303],[32.0093,31.2236],[31.995,31.2236],[32.0093,31.2106],[32.0228,31.2236],[32.0371,31.2168],[32.0369,31.1503],[32.0161,31.1281],[32.044,31.1417],[32.0523,31.1288],[31.9482,31.0841],[31.7835,31.0659],[31.6682,30.9086],[31.6203,30.8844],[31.6223,30.8482],[31.5757,30.8054],[31.4209,30.7957],[31.3756,30.7802],[31.3575,30.7262],[31.3807,30.6167],[31.3529,30.5738],[31.2958,30.5703],[31.2537,30.5884],[31.2704,30.661],[31.2309,30.814],[31.2139,30.837],[31.2548,30.8537],[31.2348,30.8818],[31.2553,30.8886],[31.2418,30.8993],[31.2622,30.9228],[31.2553,30.9637],[31.2969,30.9842],[31.3057,31.017],[31.3015,31.0322],[31.2475,31.0178],[31.2184,31.0311],[31.2362,31.1128],[31.2485,31.1099],[31.2995,31.131],[31.2735,31.1622],[31.2854,31.2102],[31.2825,31.349],[31.2481,31.4727],[31.3499,31.5297],[31.5237,31.4497],[31.5716,31.4438],[31.5003,31.365],[31.5596,31.3513],[31.5643,31.3258],[31.6122,31.3109],[31.6339,31.2906],[31.6502,31.2996],[31.6511,31.326],[31.682,31.3334],[31.6931,31.2911],[31.6662,31.2927],[31.6594,31.2784],[31.678,31.2704],[31.6763,31.259],[31.6256,31.2432],[31.6321,31.217],[31.5968,31.1909],[31.6031,31.1694],[31.6223,31.1656],[31.6781,31.2067],[31.7489,31.2283],[31.7796,31.246],[31.7949,31.2777]]],[[[32.0938,31.3657],[32.1996,31.2951],[32.0701,31.354],[32.0906,31.3472],[32.0829,31.359],[32.0938,31.3657]]],[[[32.2565,31.2762],[32.2141,31.2783],[32.207,31.2951],[32.2566,31.2888],[32.2565,31.2762]]]]}},{"type":"Feature","id":"Damietta","properties":{"id":"Damietta","iso_code":"EG-DT","name":"Damietta","name_full":"Damietta","name_ja":"ディムヤート県","center_lonlat":[31.7222,31.3729]},"geometry":{"type":"Polygon","coordinates":[[[32.0829,31.359],[31.995,31.395],[31.9683,31.4365],[31.9935,31.4378],[31.918,31.524],[31.8652,31.5253],[31.8447,31.498],[31.8652,31.498],[31.8789,31.4291],[31.8416,31.4645],[31.8242,31.4433],[31.8584,31.4433],[31.8548,31.4232],[31.8789,31.4161],[31.8304,31.4086],[31.8447,31.395],[31.8279,31.3684],[31.8584,31.354],[31.7922,31.3536],[31.8027,31.3313],[31.7902,31.3266],[31.7959,31.311],[31.7691,31.2988],[31.7669,31.2847],[31.7949,31.2777],[31.7796,31.246],[31.7489,31.2283],[31.6781,31.2067],[31.6223,31.1656],[31.6031,31.1694],[31.5968,31.1909],[31.6321,31.217],[31.6256,31.2432],[31.6763,31.259],[31.678,31.2704],[31.6594,31.2784],[31.6662,31.2927],[31.6931,31.2911],[31.682,31.3334],[31.6511,31.326],[31.6502,31.2996],[31.6339,31.2906],[31.6122,31.3109],[31.5643,31.3258],[31.5596,31.3513],[31.5003,31.365],[31.5716,31.4438],[31.7483,31.4816],[31.8744,31.5356],[31.9129,31.5349],[31.9448,31.5209],[32.0249,31.4001],[32.057,31.3751],[32.0938,31.3657],[32.0829,31.359]]]}},{"type":"Feature","id":"Faiyum","properties":{"id":"Faiyum","iso_code":"EG-FYM","name":"Faiyum","name_full":"Faiyum","name_ja":"ファイユーム県","center_lonlat":[30.5585,29.3312]},"geometry":{"type":"Polygon","coordinates":[[[31.1019,29.4001],[31.0618,29.3649],[30.9323,29.186],[30.8643,29.1206],[30.7802,29.0824],[30.3637,28.9798],[30.3164,28.9762],[30.2498,29.0181],[29.8149,29.0884],[30.355,29.5364],[30.5363,29.6304],[30.746,29.7143],[30.9558,29.7371],[31.0024,29.7054],[31.0305,29.6805],[31.1019,29.4001]]]}},{"type":"Feature","id":"Gharbia","properties":{"id":"Gharbia","iso_code":"EG-GH","name":"Gharbia","name_full":"Gharbia","name_ja":"ガルビーヤ県","center_lonlat":[31.0449,30.8611]},"geometry":{"type":"Polygon","coordinates":[[[30.7961,30.6802],[30.7744,30.7164],[30.7966,30.7474],[30.7924,30.7636],[30.7685,30.7601],[30.7532,30.7755],[30.7761,30.8061],[30.8165,30.8272],[30.7619,30.8272],[30.7898,30.847],[30.7938,30.8683],[30.7571,30.886],[30.7823,30.9228],[30.7516,30.9768],[30.7636,30.9836],[30.7802,31.0045],[30.8491,30.9825],[30.9085,30.9901],[30.9518,31.0152],[31.0401,31.0257],[31.0708,31.1212],[31.1573,31.1106],[31.2016,31.1331],[31.2485,31.1099],[31.2362,31.1128],[31.2184,31.0311],[31.2475,31.0178],[31.3015,31.0322],[31.3057,31.017],[31.2969,30.9842],[31.2553,30.9637],[31.2622,30.9228],[31.2418,30.8993],[31.2553,30.8886],[31.2348,30.8818],[31.2548,30.8537],[31.2139,30.837],[31.2309,30.814],[31.2704,30.661],[31.2537,30.5884],[31.2512,30.5651],[31.1721,30.635],[31.0903,30.6462],[31.0606,30.6881],[30.9965,30.6796],[30.9276,30.7167],[30.7961,30.6802]]]}},{"type":"Feature","id":"Giza","properties":{"id":"Giza","iso_code":"EG-GZ","name":"Giza","name_full":"Giza","name_ja":"ギーザ県","center_lonlat":[29.4993,28.8476]},"geometry":{"type":"Polygon","coordinates":[[[29.7492,28.7593],[29.5871,28.3844],[29.4599,28.2361],[29.3085,28.1364],[28.8461,27.9208],[28.7749,27.8732],[28.7247,27.8062],[28.6532,27.6679],[27.3248,27.6679],[27.7571,28.4836],[27.8319,28.5665],[27.9062,28.5929],[28.6992,28.7751],[28.901,28.9089],[29.5506,29.4828],[30.3286,29.8982],[30.369,29.9708],[30.8331,30.3338],[30.8512,30.3263],[30.8827,30.3458],[30.917,30.3362],[30.927,30.2918],[30.9699,30.2735],[30.9788,30.2258],[30.9912,30.2154],[31.0294,30.2096],[31.0598,30.2239],[31.1454,30.1754],[31.1796,30.1502],[31.2286,30.1412],[31.2376,30.1148],[31.2212,30.0079],[31.2888,29.8851],[31.2916,29.7599],[31.9289,29.7832],[31.8691,28.9682],[31.5011,29.0659],[31.4524,29.0898],[31.3934,29.1395],[31.3562,29.1971],[31.2553,29.2988],[31.2559,29.3393],[31.2263,29.3779],[31.1726,29.3979],[31.1019,29.4001],[31.0305,29.6805],[31.0024,29.7054],[30.9558,29.7371],[30.746,29.7143],[30.5363,29.6304],[30.355,29.5364],[29.8149,29.0884],[29.7742,28.836],[29.7492,28.7593]]]}},{"type":"Feature","id":"Ismailia","properties":{"id":"Ismailia","iso_code":"EG-IS","name":"Ismailia","name_full":"Ismailia","name_ja":"イスマイリア県","center_lonlat":[32.3137,30.5833]},"geometry":{"type":"Polygon","coordinates":[[[32.1426,31.0803],[32.1418,31.0874],[32.29,31.1138],[32.3112,31.1188],[32.6021,30.9737],[32.652,30.5041],[32.7457,30.3729],[32.7987,30.254],[32.5774,30.2633],[32.4591,30.2038],[32.3772,30.2153],[32.3341,30.2371],[32.2476,30.243],[31.8873,30.2324],[31.8431,30.339],[31.8097,30.4792],[31.7638,30.5572],[31.8773,30.548],[31.974,30.5596],[32.0321,30.6018],[32.0986,30.6773],[32.13,30.7421],[32.1179,30.8334],[32.2018,30.9938],[32.1922,31.036],[32.1426,31.0803]]]}},{"type":"Feature","id":"Kafr el-Sheikh","properties":{"id":"Kafr el-Sheikh","iso_code":"EG-KFS","name":"Kafr el-Sheikh","name_full":"Kafr el-Sheikh","name_ja":"カフル・アッシャイフ県","center_lonlat":[30.9113,31.2911]},"geometry":{"type":"Polygon","coordinates":[[[30.3982,31.4436],[30.3706,31.4616],[30.3557,31.4911],[30.3622,31.5087],[30.4564,31.4627],[30.5358,31.4639],[30.9739,31.5867],[30.8664,31.5483],[30.6281,31.4343],[30.5579,31.4222],[30.5427,31.395],[30.6267,31.3887],[30.6538,31.3958],[30.6751,31.4216],[30.7344,31.3881],[30.7562,31.423],[30.7985,31.4465],[30.8374,31.4291],[30.8737,31.4345],[30.8924,31.4191],[30.9397,31.4433],[30.9397,31.457],[30.9807,31.4365],[31.0291,31.5185],[31.0807,31.5142],[31.1111,31.4912],[31.1292,31.5045],[31.1111,31.5123],[31.1304,31.517],[31.0708,31.5654],[30.978,31.5843],[31.0974,31.6079],[31.221,31.5799],[31.3499,31.5297],[31.2481,31.4727],[31.2825,31.349],[31.2854,31.2102],[31.2735,31.1622],[31.2995,31.131],[31.2485,31.1099],[31.2016,31.1331],[31.1573,31.1106],[31.0708,31.1212],[31.0401,31.0257],[30.9518,31.0152],[30.9085,30.9901],[30.8491,30.9825],[30.7802,31.0045],[30.7636,30.9836],[30.7277,31.019],[30.7277,31.0525],[30.6993,31.0922],[30.652,31.1146],[30.5702,31.1996],[30.5254,31.1965],[30.5148,31.2381],[30.4943,31.2381],[30.5202,31.2895],[30.5182,31.3281],[30.4833,31.3546],[30.4738,31.3399],[30.4583,31.348],[30.4486,31.3751],[30.4261,31.3849],[30.4248,31.4291],[30.3982,31.4436]]]}},{"type":"Feature","id":"Luxor","properties":{"id":"Luxor","iso_code":"EG-LX","name":"Luxor","name_full":"Luxor","name_ja":"ルクソール県","center_lonlat":[32.6483,25.7049]},"geometry":{"type":"Polygon","coordinates":[[[32.6497,25.7299],[32.6694,25.7211],[32.6514,25.6831],[32.6249,25.6872],[32.6497,25.7299]]]}},{"type":"Feature","id":"Matrouh","properties":{"id":"Matrouh","iso_code":"EG-MT","name":"Matrouh","name_full":"Matrouh","name_ja":"マトルーフ県","center_lonlat":[26.9606,29.703]},"geometry":{"type":"Polygon","coordinates":[[[29.5981,31.0095],[29.6249,30.3371],[29.6718,30.252],[30.3286,29.8982],[29.5506,29.4828],[28.901,28.9089],[28.6992,28.7751],[27.9062,28.5929],[27.8319,28.5665],[27.7571,28.4836],[27.3248,27.6679],[24.9812,27.6665],[24.9812,29.1814],[24.9566,29.2927],[24.8638,29.5029],[24.8707,29.6383],[24.8049,29.7548],[24.7982,29.7964],[24.8149,29.8486],[24.8116,29.8909],[24.6973,30.1226],[24.6887,30.1828],[24.7724,30.331],[24.8297,30.3876],[24.9077,30.4987],[24.9949,30.7851],[24.8826,31.0391],[24.8595,31.146],[24.849,31.3486],[24.8613,31.3804],[25.0237,31.4944],[25.0604,31.5794],[25.0884,31.6135],[25.1509,31.6565],[25.1618,31.5836],[25.1909,31.5315],[25.2634,31.5237],[25.3021,31.5065],[25.4019,31.5032],[25.8241,31.6149],[25.9668,31.6166],[26.3622,31.5219],[26.6831,31.4762],[26.7532,31.4775],[26.8657,31.4368],[26.9655,31.4497],[27.0544,31.4086],[27.2262,31.3677],[27.2461,31.3813],[27.3206,31.381],[27.3423,31.3682],[27.3936,31.2547],[27.4463,31.2232],[27.5877,31.1931],[27.6099,31.2032],[27.6603,31.1802],[27.7195,31.1893],[27.8529,31.2403],[27.8971,31.1144],[27.9269,31.099],[28.1546,31.0933],[28.2039,31.0705],[28.3184,31.0598],[28.3821,31.0828],[28.4243,31.0834],[28.4785,31.0518],[28.5276,31.0501],[28.812,30.9568],[28.8357,30.9108],[29.0281,30.8271],[29.2189,30.838],[29.5033,30.9567],[29.5981,31.0095]]]}},{"type":"Feature","id":"Minya","properties":{"id":"Minya","iso_code":"EG-MN","name":"Minya","name_full":"Minya","name_ja":"ミニヤー県","center_lonlat":[30.0559,28.1397]},"geometry":{"type":"Polygon","coordinates":[[[28.6532,27.6679],[28.7247,27.8062],[28.7749,27.8732],[28.8461,27.9208],[29.3085,28.1364],[29.4599,28.2361],[29.5871,28.3844],[29.7492,28.7593],[30.7687,28.781],[30.7865,28.7641],[30.9442,28.7157],[30.9072,28.451],[30.8526,28.3659],[30.8154,28.2587],[30.8334,28.1481],[30.9074,28.0027],[30.9209,27.881],[30.9547,27.7857],[30.9592,27.7157],[30.9412,27.6201],[30.8345,27.6087],[30.7654,27.6309],[30.6984,27.6236],[30.6712,27.634],[30.6878,27.6676],[28.6532,27.6679]]]}},{"type":"Feature","id":"Monufia","properties":{"id":"Monufia","iso_code":"EG-MNF","name":"Monufia","name_full":"Monufia","name_ja":"ミヌーフィーヤ県","center_lonlat":[31.0024,30.4892]},"geometry":{"type":"Polygon","coordinates":[[[30.8331,30.3338],[30.8332,30.3617],[30.8795,30.3729],[30.8444,30.4014],[30.8512,30.4532],[30.8308,30.4976],[30.8512,30.546],[30.8239,30.5522],[30.8213,30.5686],[30.8376,30.587],[30.8047,30.6135],[30.7961,30.6802],[30.9276,30.7167],[30.9965,30.6796],[31.0606,30.6881],[31.0903,30.6462],[31.1721,30.635],[31.2512,30.5651],[31.2622,30.5522],[31.228,30.5597],[31.228,30.5181],[31.1791,30.4882],[31.1796,30.4697],[31.1361,30.4464],[31.1252,30.4028],[31.1013,30.4164],[31.1067,30.3825],[31.0871,30.3703],[31.0561,30.3747],[31.1039,30.3325],[31.1113,30.227],[31.1454,30.1754],[31.0598,30.2239],[31.0294,30.2096],[30.9912,30.2154],[30.9788,30.2258],[30.9699,30.2735],[30.927,30.2918],[30.917,30.3362],[30.8827,30.3458],[30.8512,30.3263],[30.8331,30.3338]]]}},{"type":"Feature","id":"New Valley","properties":{"id":"New Valley","iso_code":"EG-WAD","name":"New Valley","name_full":"New Valley","name_ja":"ニューバレー県","center_lonlat":[28.5817,24.7714]},"geometry":{"type":"Polygon","coordinates":[[[24.9812,27.6665],[27.3248,27.6679],[28.6532,27.6679],[30.6878,27.6676],[30.6712,27.634],[30.681,27.5366],[30.7909,27.3375],[30.9394,27.209],[31.0804,27.1495],[31.1621,27.0798],[31.3,26.8374],[31.4389,26.6835],[31.534,26.6106],[31.9523,26.1399],[32.1209,25.9984],[32.1958,25.9713],[32.3611,26.0001],[32.6187,26.1041],[32.6961,26.1058],[32.7358,26.0766],[32.7481,26.0012],[32.6871,25.8942],[32.6584,25.7926],[32.4941,25.6648],[32.443,25.5971],[32.5193,25.2603],[32.5589,25.2117],[32.6539,25.1457],[32.7702,25.0785],[32.8084,25.033],[32.8348,24.9739],[32.8497,24.8571],[32.9184,24.7055],[32.9303,24.649],[32.878,24.49],[32.8826,24.3161],[32.8707,24.1991],[32.8864,24.1263],[32.874,24.0803],[32.8311,24.0378],[32.6945,24.0243],[32.6552,23.9991],[32.6387,23.9267],[32.6456,23.8958],[32.7451,23.836],[32.7629,23.7942],[32.7329,23.7725],[32.5847,23.751],[32.5277,23.714],[32.479,23.6511],[32.4264,23.4489],[32.4378,23.4226],[32.501,23.4058],[32.6009,23.4026],[32.7477,23.4195],[32.7648,23.3962],[32.7619,23.3618],[32.6337,23.2155],[32.5232,22.9714],[32.4916,22.8599],[32.436,22.7727],[32.4146,22.7715],[32.3749,22.8136],[32.297,22.8137],[32.1933,22.8721],[31.834,22.7226],[31.7031,22.7443],[31.6369,22.7192],[31.5936,22.6484],[31.6203,22.5027],[31.5973,22.4325],[31.4918,22.3237],[31.4267,22.297],[31.3025,22.2805],[31.264,22.2593],[31.2357,22.2256],[31.225,22.1969],[31.2323,22.1754],[31.3144,22.1023],[31.2484,21.9944],[24.9812,21.9954],[24.9812,27.6665]]]}},{"type":"Feature","id":"North Sinai","properties":{"id":"North Sinai","iso_code":"EG-SIN","name":"North Sinai","name_full":"North Sinai","name_ja":"北シナイ県","center_lonlat":[33.7241,30.4203]},"geometry":{"type":"MultiPolygon","coordinates":[[[[34.8855,29.4895],[34.4682,29.5465],[34.0244,29.7072],[33.7683,29.827],[33.1303,29.9252],[32.8548,29.9138],[32.8299,29.9576],[32.8176,30.1611],[32.7987,30.254],[32.7457,30.3729],[32.652,30.5041],[32.6021,30.9737],[32.5997,31.0615],[32.762,31.0812],[32.9273,31.1554],[32.8396,31.1012],[32.6665,31.0523],[32.715,31.0523],[32.7007,31.0387],[32.7313,31.0388],[32.7492,31.0523],[32.7695,31.0456],[32.8931,31.1008],[32.9177,31.0922],[32.9067,31.0797],[32.9409,31.0933],[32.9136,31.1008],[32.9271,31.1118],[32.9688,31.0865],[32.9751,31.066],[32.9613,31.066],[33.0099,31.0563],[33.0234,31.0734],[33.0091,31.0865],[33.0575,31.1008],[33.0643,31.1349],[33.0303,31.1144],[33.0303,31.1008],[32.9544,31.1069],[32.9846,31.1095],[33.0303,31.1622],[33.1094,31.1964],[33.1265,31.1895],[33.0986,31.1833],[33.1577,31.1179],[33.119,31.1069],[33.1447,31.0779],[33.1333,31.0456],[33.2214,31.0598],[33.1948,31.0734],[33.2625,31.1008],[33.2698,31.0865],[33.2854,31.0927],[33.304,31.0797],[33.3032,31.0998],[33.3176,31.1008],[33.2772,31.1069],[33.3865,31.1144],[33.3777,31.1326],[33.4064,31.1373],[33.4064,31.1554],[33.4995,31.1281],[33.648,31.1173],[33.8543,31.1635],[34.047,31.2292],[34.2003,31.3143],[34.4804,30.6512],[34.5044,30.5303],[34.5362,30.4822],[34.5269,30.4096],[34.5995,30.3445],[34.7332,30.0126],[34.7414,29.9402],[34.8244,29.7417],[34.8501,29.6388],[34.8482,29.5696],[34.8855,29.4895]]],[[[33.0786,31.2271],[33.1047,31.2403],[33.2625,31.2236],[33.1026,31.2268],[32.9347,31.1479],[33.0786,31.2271]]],[[[33.376,31.1895],[33.433,31.1721],[33.4759,31.1417],[33.2698,31.2168],[33.376,31.1895]]]]}},{"type":"Feature","id":"Port Said","properties":{"id":"Port Said","iso_code":"EG-PTS","name":"Port Said","name_full":"Port Said","name_ja":"ポートサイド県","center_lonlat":[32.4221,31.1283]},"geometry":{"type":"Polygon","coordinates":[[[32.2566,31.2888],[32.3314,31.2714],[32.3442,31.2419],[32.3899,31.2265],[32.4812,31.1489],[32.5095,31.1069],[32.5997,31.0615],[32.6021,30.9737],[32.3112,31.1188],[32.29,31.1138],[32.2874,31.1702],[32.2951,31.2134],[32.2705,31.2576],[32.283,31.2653],[32.2565,31.2762],[32.2566,31.2888]]]}},{"type":"Feature","id":"Qalyubia","properties":{"id":"Qalyubia","iso_code":"EG-KB","name":"Qalyubia","name_full":"Qalyubia","name_ja":"カリュービーヤ県","center_lonlat":[31.2621,30.3069]},"geometry":{"type":"Polygon","coordinates":[[[31.5939,30.1904],[31.4403,30.1844],[31.3448,30.1586],[31.3262,30.1646],[31.3096,30.1391],[31.2376,30.1148],[31.2286,30.1412],[31.1796,30.1502],[31.1454,30.1754],[31.1113,30.227],[31.1039,30.3325],[31.0561,30.3747],[31.0871,30.3703],[31.1067,30.3825],[31.1013,30.4164],[31.1252,30.4028],[31.1361,30.4464],[31.1796,30.4697],[31.1791,30.4882],[31.228,30.5181],[31.228,30.5597],[31.2622,30.5522],[31.2512,30.5651],[31.2537,30.5884],[31.2958,30.5703],[31.3529,30.5738],[31.2941,30.5282],[31.2725,30.437],[31.3427,30.3592],[31.3857,30.2805],[31.5939,30.1904]]]}},{"type":"Feature","id":"Qena","properties":{"id":"Qena","iso_code":"EG-KN","name":"Qena","name_full":"Qena","name_ja":"ケナ県","center_lonlat":[32.7978,25.8672]},"geometry":{"type":"Polygon","coordinates":[[[32.3075,26.1582],[32.5398,26.2517],[32.6844,26.2589],[32.8064,26.2135],[32.8803,26.1368],[32.9049,26.0911],[32.9299,25.9713],[32.915,25.8585],[32.8452,25.7395],[32.6606,25.5719],[32.623,25.499],[32.623,25.4315],[32.6402,25.3566],[32.6641,25.3072],[32.7048,25.2699],[32.6937,25.1792],[32.6539,25.1457],[32.5589,25.2117],[32.5193,25.2603],[32.443,25.5971],[32.4941,25.6648],[32.6584,25.7926],[32.6871,25.8942],[32.7481,26.0012],[32.7358,26.0766],[32.6961,26.1058],[32.6187,26.1041],[32.3611,26.0001],[32.1958,25.9713],[32.1209,25.9984],[31.9523,26.1399],[32.013,26.1841],[32.0855,26.195],[32.1371,26.2368],[32.1618,26.2235],[32.2112,26.1588],[32.2565,26.1317],[32.2805,26.1321],[32.3075,26.1582]],[[32.6514,25.6831],[32.6694,25.7211],[32.6497,25.7299],[32.6249,25.6872],[32.6514,25.6831]]]}},{"type":"Feature","id":"Red Sea","properties":{"id":"Red Sea","iso_code":"EG-BA","name":"Red Sea","name_full":"Red Sea","name_ja":"紅海県","center_lonlat":[33.495,25.1682]},"geometry":{"type":"MultiPolygon","coordinates":[[[[31.4947,21.9954],[31.5244,22.0504],[31.5695,22.0913],[31.7986,22.1938],[31.8603,22.2649],[31.9446,22.2786],[31.9961,22.312],[32.0442,22.3724],[32.1091,22.5421],[32.137,22.5807],[32.1812,22.5719],[32.2776,22.4863],[32.3383,22.4615],[32.4548,22.4657],[32.5373,22.4993],[32.7615,22.7023],[32.7844,22.7545],[32.7799,22.8402],[32.8378,22.9275],[32.8699,22.9197],[32.9599,22.8454],[33.0728,22.8535],[33.1214,22.844],[33.2902,22.7093],[33.3297,22.7063],[33.3315,22.7431],[33.2831,22.8841],[33.215,22.9603],[33.0753,23.0254],[33.0559,23.057],[33.1152,23.1572],[33.1622,23.1985],[33.2128,23.3296],[33.2081,23.3592],[33.162,23.4382],[33.14,23.5314],[33.1422,23.5735],[33.1684,23.6309],[33.1583,23.7461],[33.0685,23.8362],[33.0095,23.9622],[32.9721,24.1559],[33.0021,24.3031],[33.1081,24.4415],[33.1315,24.5238],[33.0187,24.7441],[33.0091,24.9138],[32.9796,25.0312],[32.9076,25.129],[32.7048,25.2699],[32.6641,25.3072],[32.6402,25.3566],[32.623,25.4315],[32.623,25.499],[32.6606,25.5719],[32.8452,25.7395],[32.915,25.8585],[32.9299,25.9713],[32.9049,26.0911],[32.8803,26.1368],[32.8064,26.2135],[32.6844,26.2589],[32.5398,26.2517],[32.3075,26.1582],[32.1553,26.3468],[32.0327,26.3839],[31.9745,26.421],[31.9194,26.4994],[31.9064,26.5709],[31.831,26.69],[31.619,26.8332],[31.489,27.0678],[31.3407,27.1905],[31.2884,27.2834],[31.2367,27.3172],[31.0719,27.3732],[30.9656,27.4365],[30.9392,27.5025],[30.9412,27.6201],[30.9592,27.7157],[30.9547,27.7857],[30.9209,27.881],[30.9074,28.0027],[30.8334,28.1481],[30.8154,28.2587],[30.8526,28.3659],[30.9072,28.451],[30.9442,28.7157],[30.953,28.7654],[30.9929,28.846],[31.217,29.1221],[31.2533,29.2027],[31.2553,29.2988],[31.3562,29.1971],[31.3934,29.1395],[31.4524,29.0898],[31.5011,29.0659],[31.8691,28.9682],[31.9115,28.9513],[32.0489,28.9692],[32.145,28.9679],[32.4997,29.1061],[32.6562,29.1206],[32.6597,29.0891],[32.6247,29.0482],[32.6255,28.9727],[32.6733,28.9215],[32.6808,28.8806],[32.7492,28.8048],[32.7845,28.7994],[32.8069,28.7781],[32.8689,28.5789],[32.9273,28.5516],[32.9729,28.4998],[33.0029,28.4895],[33.0508,28.4069],[33.0432,28.4008],[33.1067,28.3471],[33.1053,28.3256],[33.1265,28.2875],[33.2122,28.1899],[33.242,28.1749],[33.2494,28.1429],[33.2832,28.1324],[33.3381,28.0854],[33.3436,28.0506],[33.4417,28.0165],[33.5125,27.9591],[33.5544,27.8965],[33.5921,27.7912],[33.5715,27.7912],[33.5601,27.8134],[33.4889,27.8459],[33.4735,27.8232],[33.5227,27.7519],[33.5579,27.7599],[33.5368,27.7081],[33.575,27.6814],[33.5921,27.6466],[33.5505,27.6814],[33.5579,27.6597],[33.5442,27.6792],[33.5265,27.6776],[33.4963,27.6466],[33.5197,27.6358],[33.5647,27.5715],[33.5579,27.5368],[33.633,27.4958],[33.6404,27.4548],[33.6712,27.4204],[33.6917,27.3419],[33.8384,27.2426],[33.8384,27.1942],[33.8247,27.1805],[33.8368,27.1208],[33.9014,27.0587],[33.9009,27.0142],[33.9517,26.931],[33.9961,26.8966],[33.9961,26.8379],[33.9596,26.8498],[33.9483,26.831],[33.9519,26.7434],[33.9321,26.6826],[33.9414,26.6535],[34.014,26.6116],[34.3387,26.0018],[34.5466,25.725],[34.6335,25.5694],[34.6819,25.4287],[34.7433,25.3513],[34.8069,25.2116],[34.9391,25.0034],[34.9537,24.9441],[34.9898,24.905],[35.0022,24.8156],[35.0635,24.7641],[35.1095,24.6438],[35.1603,24.5746],[35.1446,24.5002],[35.1857,24.4857],[35.2355,24.4001],[35.3919,24.2828],[35.4286,24.186],[35.4938,24.1089],[35.5105,24.1112],[35.4938,24.139],[35.5039,24.1405],[35.5884,24.0758],[35.6053,24.0188],[35.6356,24.0019],[35.6668,24.0073],[35.7386,23.9833],[35.7925,23.9023],[35.7858,23.893],[35.7504,23.9324],[35.6845,23.9109],[35.5985,23.9294],[35.5139,23.9771],[35.4839,23.9178],[35.4907,23.87],[35.4748,23.7979],[35.4832,23.7725],[35.5101,23.7564],[35.5037,23.5556],[35.4894,23.497],[35.5475,23.394],[35.5747,23.2126],[35.6546,23.0738],[35.6678,22.9826],[35.6953,22.9321],[35.7637,22.8704],[35.7234,22.9319],[35.7557,22.9223],[35.7849,22.8332],[35.886,22.7357],[35.9695,22.698],[36.1206,22.6757],[36.2261,22.6354],[36.2905,22.5682],[36.3134,22.4916],[36.3745,22.4453],[36.4048,22.4329],[36.4069,22.4486],[36.4281,22.426],[36.4228,22.3976],[36.4398,22.3564],[36.5628,22.2967],[36.7137,22.1691],[36.7476,22.161],[36.7568,22.1769],[36.7822,22.1645],[36.8182,22.1088],[36.8954,22.0661],[36.8984,22.0175],[36.8836,21.9957],[31.4947,21.9954]]],[[[34.0066,27.5095],[34.0285,27.502],[34.0513,27.4486],[33.9564,27.5044],[33.9338,27.4947],[33.9136,27.5237],[33.9331,27.5364],[33.9641,27.5341],[34.0066,27.5095]]],[[[33.9551,26.79],[33.9756,26.79],[34.0036,26.7082],[33.9551,26.79]]]]}},{"type":"Feature","id":"Sohag","properties":{"id":"Sohag","iso_code":"EG-SHG","name":"Sohag","name_full":"Sohag","name_ja":"ソハーグ県","center_lonlat":[31.7747,26.5245]},"geometry":{"type":"Polygon","coordinates":[[[31.9523,26.1399],[31.534,26.6106],[31.4389,26.6835],[31.3,26.8374],[31.3931,26.8825],[31.4448,26.9364],[31.462,26.9401],[31.5002,26.9118],[31.5528,26.8372],[31.619,26.8332],[31.831,26.69],[31.9064,26.5709],[31.9194,26.4994],[31.9745,26.421],[32.0327,26.3839],[32.1553,26.3468],[32.3075,26.1582],[32.2805,26.1321],[32.2565,26.1317],[32.2112,26.1588],[32.1618,26.2235],[32.1371,26.2368],[32.0855,26.195],[32.013,26.1841],[31.9523,26.1399]]]}},{"type":"Feature","id":"South Sinai","properties":{"id":"South Sinai","iso_code":"EG-JS","name":"South Sinai","name_full":"South Sinai","name_ja":"南シナイ県","center_lonlat":[33.8018,29.0144]},"geometry":{"type":"MultiPolygon","coordinates":[[[[34.8855,29.4895],[34.8254,29.4286],[34.8328,29.4211],[34.8052,29.3964],[34.8123,29.3876],[34.7366,29.3113],[34.7453,29.2913],[34.729,29.2505],[34.729,29.1989],[34.695,29.1645],[34.6746,29.1065],[34.6857,28.9887],[34.6467,28.9674],[34.6403,28.9488],[34.6471,28.8629],[34.6205,28.8459],[34.6205,28.7906],[34.6335,28.7707],[34.6245,28.736],[34.5106,28.538],[34.5236,28.5073],[34.469,28.4554],[34.4753,28.4479],[34.4543,28.4289],[34.4412,28.3735],[34.4102,28.32],[34.4206,28.2562],[34.4129,28.2331],[34.4553,28.1749],[34.4268,28.0815],[34.444,28.0535],[34.4274,27.9831],[34.4349,27.9756],[34.4007,27.9687],[34.3709,27.9237],[34.3313,27.9141],[34.3387,27.9067],[34.321,27.8613],[34.3113,27.852],[34.2795,27.8583],[34.2635,27.8248],[34.2717,27.8124],[34.2591,27.8017],[34.2141,27.7915],[34.2212,27.7698],[34.2573,27.7695],[34.2498,27.7565],[34.2635,27.736],[34.2498,27.7428],[34.2498,27.7286],[34.1898,27.7868],[34.0785,27.8007],[34.0545,27.8145],[33.9876,27.8867],[33.904,27.9418],[33.8794,27.9346],[33.8656,27.9613],[33.8589,27.9551],[33.7937,28.0131],[33.7634,28.024],[33.7639,28.049],[33.716,28.0753],[33.7155,28.0929],[33.6725,28.146],[33.6746,28.1605],[33.6348,28.1813],[33.6182,28.2333],[33.5647,28.2971],[33.4339,28.3664],[33.3692,28.4479],[33.3052,28.4897],[33.2562,28.5441],[33.2698,28.5441],[33.2629,28.5771],[33.2461,28.5795],[33.2376,28.5661],[33.2562,28.5516],[33.2287,28.5694],[33.219,28.628],[33.1948,28.6751],[33.2283,28.7639],[33.1746,28.837],[33.1673,28.9004],[33.1776,28.9184],[33.1659,28.9761],[33.1779,28.9896],[33.145,29.0317],[33.1265,29.0314],[33.0786,29.0649],[33.0612,29.1014],[32.9579,29.2021],[32.8856,29.2431],[32.8683,29.2974],[32.8394,29.3162],[32.8174,29.3598],[32.8172,29.414],[32.7415,29.456],[32.7285,29.4696],[32.7347,29.4838],[32.7214,29.4675],[32.7285,29.456],[32.715,29.456],[32.7241,29.5395],[32.7124,29.5805],[32.6808,29.5999],[32.6931,29.7228],[32.6518,29.79],[32.8548,29.9138],[33.1303,29.9252],[33.7683,29.827],[34.0244,29.7072],[34.4682,29.5465],[34.8855,29.4895]]],[[[34.5851,27.9551],[34.6205,27.9204],[34.5181,27.9304],[34.4963,27.9551],[34.4895,27.996],[34.5174,28.0165],[34.5442,27.996],[34.5068,27.9862],[34.5119,27.9675],[34.5706,27.9741],[34.5851,27.9551]]],[[[34.7319,27.9571],[34.7322,27.9189],[34.7047,27.9084],[34.6618,27.9302],[34.6818,27.9587],[34.7319,27.9571]]]]}},{"type":"Feature","id":"Suez","properties":{"id":"Suez","iso_code":"EG-SUZ","name":"Suez","name_full":"Suez","name_ja":"スエズ県","center_lonlat":[32.2667,29.6585]},"geometry":{"type":"Polygon","coordinates":[[[32.6518,29.79],[32.6045,29.8242],[32.6255,29.8463],[32.6253,29.8743],[32.5715,29.9289],[32.5855,29.9525],[32.5616,29.9764],[32.5778,29.9835],[32.5715,30.0114],[32.5575,29.9765],[32.5715,29.9426],[32.554,29.9621],[32.5134,29.9616],[32.4769,29.9322],[32.4729,29.882],[32.5095,29.8668],[32.3928,29.7344],[32.3639,29.6882],[32.3574,29.6306],[32.3377,29.5925],[32.3877,29.5256],[32.4513,29.4873],[32.5812,29.3691],[32.6323,29.2431],[32.6287,29.2189],[32.6562,29.1206],[32.4997,29.1061],[32.145,28.9679],[32.0489,28.9692],[31.9115,28.9513],[31.8691,28.9682],[31.9289,29.7832],[31.9364,29.8725],[31.8873,30.2324],[32.2476,30.243],[32.3341,30.2371],[32.3772,30.2153],[32.4591,30.2038],[32.5774,30.2633],[32.7987,30.254],[32.8176,30.1611],[32.8299,29.9576],[32.8548,29.9138],[32.6518,29.79]]]}}]}
