{"type":"FeatureCollection","features":[{"type":"Feature","id":"Ahuachapan","properties":{"id":"Ahuachapan","iso_code":"SV-AH","name":"Ahuachapan","name_full":"Ahuachapán","name_ja":"アワチャパン県","center_lonlat":[-89.9039,13.8584]},"geometry":{"type":"Polygon","coordinates":[[[-89.748,14.0449],[-89.7179,14.0273],[-89.6959,13.9937],[-89.7188,13.909],[-89.7756,13.8893],[-89.7683,13.8392],[-89.7911,13.7996],[-89.7816,13.768],[-89.8198,13.6797],[-89.8694,13.6796],[-89.9106,13.7092],[-89.9535,13.6651],[-90.0983,13.7314],[-90.1143,13.7963],[-90.107,13.8441],[-90.0474,13.8943],[-90.023,13.937],[-89.8801,14.0427],[-89.8211,14.0601],[-89.7623,14.03],[-89.748,14.0449]]]}},{"type":"Feature","id":"Cabanas","properties":{"id":"Cabanas","iso_code":"SV-CA","name":"Cabanas","name_full":"Cabañas","name_ja":"カバーニャス県","center_lonlat":[-88.7093,13.8854]},"geometry":{"type":"Polygon","coordinates":[[[-88.6908,14.0118],[-88.6339,14.0145],[-88.5044,13.9837],[-88.4954,13.9751],[-88.5023,13.9171],[-88.4887,13.8813],[-88.4968,13.8512],[-88.4982,13.8214],[-88.5323,13.7594],[-88.5486,13.7487],[-88.5832,13.7542],[-88.6461,13.7967],[-88.7356,13.8123],[-88.8147,13.7822],[-88.8442,13.7861],[-88.8503,13.7506],[-88.8938,13.7649],[-88.974,13.8847],[-88.9742,13.8992],[-88.9297,13.9479],[-88.8604,13.9497],[-88.7838,13.9749],[-88.7369,14.005],[-88.6908,14.0118]]]}},{"type":"Feature","id":"Chalatenango","properties":{"id":"Chalatenango","iso_code":"SV-CH","name":"Chalatenango","name_full":"Chalatenango","name_ja":"チャラテナンゴ県","center_lonlat":[-89.0778,14.1475]},"geometry":{"type":"Polygon","coordinates":[[[-89.3462,14.4131],[-89.154,14.3513],[-89.1222,14.3947],[-89.1075,14.396],[-89.0918,14.3748],[-89.0945,14.3449],[-89.033,14.3237],[-89.0181,14.2717],[-88.9835,14.2421],[-88.966,14.1914],[-88.906,14.1996],[-88.8813,14.1842],[-88.8388,14.1004],[-88.7464,14.1113],[-88.7466,14.0525],[-88.7049,14.038],[-88.6908,14.0118],[-88.7369,14.005],[-88.7838,13.9749],[-88.8604,13.9497],[-88.9297,13.9479],[-89.005,13.9663],[-89.0216,14.0046],[-89.0738,14.0576],[-89.1171,14.0755],[-89.1413,14.067],[-89.169,14.0546],[-89.1944,14.0682],[-89.2008,14.0558],[-89.2354,14.0648],[-89.2673,14.0521],[-89.3248,14.0716],[-89.3714,14.0406],[-89.4241,14.0502],[-89.408,14.1358],[-89.3867,14.1355],[-89.3663,14.1643],[-89.3302,14.1766],[-89.3089,14.2074],[-89.3093,14.2423],[-89.2633,14.2665],[-89.2465,14.3228],[-89.3462,14.4131]]]}},{"type":"Feature","id":"Cuscatlan","properties":{"id":"Cuscatlan","iso_code":"SV-CU","name":"Cuscatlan","name_full":"Cuscatlán","name_ja":"クスカトラン県","center_lonlat":[-89.0188,13.8515]},"geometry":{"type":"Polygon","coordinates":[[[-88.9297,13.9479],[-88.9742,13.8992],[-88.974,13.8847],[-88.8938,13.7649],[-88.8503,13.7506],[-88.8719,13.6892],[-88.8961,13.6626],[-88.9434,13.6423],[-89.0236,13.6729],[-89.0514,13.7823],[-89.1062,13.8297],[-89.1356,13.878],[-89.1203,13.8904],[-89.1608,13.9686],[-89.1413,14.067],[-89.1171,14.0755],[-89.0738,14.0576],[-89.0216,14.0046],[-89.005,13.9663],[-88.9297,13.9479]]]}},{"type":"Feature","id":"La Libertad","properties":{"id":"La Libertad","iso_code":"SV-LI","name":"La Libertad","name_full":"La Libertad","name_ja":"ラリベルタ県","center_lonlat":[-89.3522,13.7048]},"geometry":{"type":"Polygon","coordinates":[[[-89.1357,13.4145],[-89.2515,13.4723],[-89.3249,13.4893],[-89.5271,13.4942],[-89.6094,13.5131],[-89.517,13.6464],[-89.5091,13.7043],[-89.4376,13.7564],[-89.4566,13.7751],[-89.4345,13.8495],[-89.4309,13.9212],[-89.3863,13.9454],[-89.3714,14.0406],[-89.3248,14.0716],[-89.2673,14.0521],[-89.2733,13.988],[-89.2513,13.9544],[-89.1962,13.9344],[-89.2133,13.9181],[-89.2208,13.8534],[-89.2384,13.8365],[-89.2624,13.7381],[-89.2337,13.6791],[-89.2035,13.6527],[-89.2114,13.5287],[-89.1883,13.4897],[-89.1444,13.4893],[-89.1379,13.4688],[-89.1119,13.4573],[-89.1357,13.4145]]]}},{"type":"Feature","id":"La Paz","properties":{"id":"La Paz","iso_code":"SV-PA","name":"La Paz","name_full":"La Paz","name_ja":"ラ・パス県","center_lonlat":[-88.9564,13.4789]},"geometry":{"type":"Polygon","coordinates":[[[-88.8316,13.2661],[-89.1357,13.4145],[-89.1119,13.4573],[-89.1379,13.4688],[-89.1444,13.4893],[-89.1162,13.5535],[-89.1282,13.6031],[-89.0949,13.5987],[-89.0236,13.6729],[-88.9434,13.6423],[-88.8961,13.6626],[-88.8864,13.5988],[-88.8365,13.6028],[-88.8092,13.5481],[-88.8221,13.4562],[-88.7813,13.4055],[-88.7954,13.378],[-88.7913,13.3283],[-88.8262,13.304],[-88.8316,13.2661]]]}},{"type":"Feature","id":"La Union","properties":{"id":"La Union","iso_code":"SV-UN","name":"La Union","name_full":"La Unión","name_ja":"ラ・ウニオン県","center_lonlat":[-87.8892,13.5258]},"geometry":{"type":"MultiPolygon","coordinates":[[[[-88.0915,13.1727],[-88.082,13.2687],[-88.0413,13.2539],[-88.0259,13.2979],[-88.0142,13.386],[-88.0316,13.456],[-88.0128,13.4824],[-88.0085,13.5514],[-87.9703,13.5945],[-87.9396,13.698],[-87.9526,13.892],[-87.9253,13.8796],[-87.9001,13.8941],[-87.8609,13.8902],[-87.8179,13.9159],[-87.7906,13.8705],[-87.7036,13.815],[-87.7378,13.7388],[-87.7314,13.7222],[-87.755,13.6899],[-87.7601,13.6169],[-87.7899,13.5328],[-87.7795,13.51],[-87.7334,13.5077],[-87.7212,13.4608],[-87.7384,13.4417],[-87.8172,13.4066],[-87.8383,13.4409],[-87.8664,13.3933],[-87.8738,13.3653],[-87.7915,13.305],[-87.7899,13.287],[-87.818,13.2504],[-87.9125,13.1982],[-87.916,13.1822],[-87.8929,13.1666],[-87.9282,13.1586],[-88.0915,13.1727]]],[[[-87.7263,13.1984],[-87.7199,13.2162],[-87.7061,13.2117],[-87.6932,13.1679],[-87.7231,13.1641],[-87.7263,13.1984]]],[[[-87.7658,13.248],[-87.7514,13.2289],[-87.7638,13.2143],[-87.7802,13.2416],[-87.7658,13.248]]]]}},{"type":"Feature","id":"Morazan","properties":{"id":"Morazan","iso_code":"SV-MO","name":"Morazan","name_full":"Morazán","name_ja":"モラサン県","center_lonlat":[-88.1035,13.7686]},"geometry":{"type":"Polygon","coordinates":[[[-87.9526,13.892],[-87.9396,13.698],[-87.9703,13.5945],[-88.0085,13.5514],[-88.0919,13.5425],[-88.12,13.5668],[-88.1372,13.6065],[-88.2056,13.5965],[-88.1974,13.6132],[-88.2594,13.6858],[-88.2598,13.7157],[-88.2065,13.7572],[-88.2601,13.8033],[-88.2461,13.8533],[-88.2742,13.9191],[-88.2364,13.9381],[-88.2449,13.9893],[-88.099,13.9898],[-88.0153,13.8664],[-87.9526,13.892]]]}},{"type":"Feature","id":"San Miguel","properties":{"id":"San Miguel","iso_code":"SV-SM","name":"San Miguel","name_full":"San Miguel","name_ja":"サンミゲル県","center_lonlat":[-88.2507,13.5475]},"geometry":{"type":"Polygon","coordinates":[[[-88.2742,13.9191],[-88.2461,13.8533],[-88.2601,13.8033],[-88.2065,13.7572],[-88.2598,13.7157],[-88.2594,13.6858],[-88.1974,13.6132],[-88.2056,13.5965],[-88.1372,13.6065],[-88.12,13.5668],[-88.0919,13.5425],[-88.0085,13.5514],[-88.0128,13.4824],[-88.0316,13.456],[-88.0142,13.386],[-88.0259,13.2979],[-88.0413,13.2539],[-88.082,13.2687],[-88.0915,13.1727],[-88.1125,13.1712],[-88.1738,13.2407],[-88.2139,13.2408],[-88.205,13.2656],[-88.2271,13.3088],[-88.26,13.3025],[-88.3449,13.3503],[-88.3682,13.4178],[-88.3815,13.4212],[-88.3878,13.4627],[-88.3622,13.5052],[-88.3802,13.5819],[-88.3621,13.6019],[-88.3629,13.6494],[-88.4045,13.6594],[-88.4345,13.6921],[-88.4873,13.6883],[-88.5297,13.7358],[-88.5323,13.7594],[-88.4982,13.8214],[-88.4968,13.8512],[-88.3929,13.8798],[-88.3601,13.8724],[-88.3551,13.891],[-88.3262,13.8851],[-88.2742,13.9191]]]}},{"type":"Feature","id":"San Salvador","properties":{"id":"San Salvador","iso_code":"SV-SS","name":"San Salvador","name_full":"San Salvador","name_ja":"サン・サルバドル県","center_lonlat":[-89.1621,13.772]},"geometry":{"type":"Polygon","coordinates":[[[-89.1413,14.067],[-89.1608,13.9686],[-89.1203,13.8904],[-89.1356,13.878],[-89.1062,13.8297],[-89.0514,13.7823],[-89.0236,13.6729],[-89.0949,13.5987],[-89.1282,13.6031],[-89.1162,13.5535],[-89.1444,13.4893],[-89.1883,13.4897],[-89.2114,13.5287],[-89.2035,13.6527],[-89.2337,13.6791],[-89.2624,13.7381],[-89.2384,13.8365],[-89.2208,13.8534],[-89.2133,13.9181],[-89.1962,13.9344],[-89.2513,13.9544],[-89.2733,13.988],[-89.2673,14.0521],[-89.2354,14.0648],[-89.2008,14.0558],[-89.1944,14.0682],[-89.169,14.0546],[-89.1413,14.067]]]}},{"type":"Feature","id":"San Vicente","properties":{"id":"San Vicente","iso_code":"SV-SV","name":"San Vicente","name_full":"San Vicente","name_ja":"サン・ビセンテ県","center_lonlat":[-88.7205,13.6171]},"geometry":{"type":"Polygon","coordinates":[[[-88.8166,13.2593],[-88.8316,13.2661],[-88.8262,13.304],[-88.7913,13.3283],[-88.7954,13.378],[-88.7813,13.4055],[-88.8221,13.4562],[-88.8092,13.5481],[-88.8365,13.6028],[-88.8864,13.5988],[-88.8961,13.6626],[-88.8719,13.6892],[-88.8503,13.7506],[-88.8442,13.7861],[-88.8147,13.7822],[-88.7356,13.8123],[-88.6461,13.7967],[-88.5832,13.7542],[-88.5486,13.7487],[-88.5323,13.7594],[-88.5297,13.7358],[-88.4873,13.6883],[-88.5501,13.6437],[-88.5706,13.6061],[-88.5908,13.5937],[-88.6128,13.5987],[-88.6429,13.5577],[-88.6594,13.555],[-88.6759,13.4872],[-88.7257,13.392],[-88.7319,13.3415],[-88.7741,13.2929],[-88.8056,13.2858],[-88.8166,13.2593]]]}},{"type":"Feature","id":"Santa Ana","properties":{"id":"Santa Ana","iso_code":"SV-SA","name":"Santa Ana","name_full":"Santa Ana","name_ja":"サンタ・アナ県","center_lonlat":[-89.5056,14.1195]},"geometry":{"type":"Polygon","coordinates":[[[-89.748,14.0449],[-89.7526,14.0752],[-89.6898,14.17],[-89.6383,14.2006],[-89.5245,14.2318],[-89.5586,14.3028],[-89.5922,14.3138],[-89.5984,14.328],[-89.5761,14.3531],[-89.5906,14.386],[-89.5841,14.4018],[-89.5552,14.4108],[-89.5414,14.3815],[-89.503,14.4201],[-89.4311,14.4187],[-89.3982,14.4454],[-89.3969,14.426],[-89.3906,14.436],[-89.3462,14.4131],[-89.2465,14.3228],[-89.2633,14.2665],[-89.3093,14.2423],[-89.3089,14.2074],[-89.3302,14.1766],[-89.3663,14.1643],[-89.3867,14.1355],[-89.408,14.1358],[-89.4241,14.0502],[-89.3714,14.0406],[-89.3863,13.9454],[-89.4309,13.9212],[-89.4345,13.8495],[-89.4566,13.7751],[-89.517,13.7882],[-89.5769,13.8427],[-89.5911,13.8106],[-89.6121,13.8071],[-89.6361,13.8292],[-89.6262,13.8537],[-89.6482,13.8836],[-89.6749,13.9054],[-89.7188,13.909],[-89.6959,13.9937],[-89.7179,14.0273],[-89.748,14.0449]]]}},{"type":"Feature","id":"Sonsonate","properties":{"id":"Sonsonate","iso_code":"SV-SO","name":"Sonsonate","name_full":"Sonsonate","name_ja":"ソンソナーテ県","center_lonlat":[-89.6834,13.6958]},"geometry":{"type":"Polygon","coordinates":[[[-89.6094,13.5131],[-89.6798,13.5347],[-89.808,13.5269],[-89.8233,13.5371],[-89.8371,13.5968],[-89.9535,13.6651],[-89.9106,13.7092],[-89.8694,13.6796],[-89.8198,13.6797],[-89.7816,13.768],[-89.7911,13.7996],[-89.7683,13.8392],[-89.7756,13.8893],[-89.7188,13.909],[-89.6749,13.9054],[-89.6482,13.8836],[-89.6262,13.8537],[-89.6361,13.8292],[-89.6121,13.8071],[-89.5911,13.8106],[-89.5769,13.8427],[-89.517,13.7882],[-89.4566,13.7751],[-89.4376,13.7564],[-89.5091,13.7043],[-89.517,13.6464],[-89.6094,13.5131]]]}},{"type":"Feature","id":"Usulutan","properties":{"id":"Usulutan","iso_code":"SV-US","name":"Usulutan","name_full":"Usulután","name_ja":"ウスルタン県","center_lonlat":[-88.4874,13.3884]},"geometry":{"type":"Polygon","coordinates":[[[-88.1125,13.1712],[-88.2083,13.1604],[-88.3009,13.1742],[-88.3249,13.1666],[-88.3523,13.174],[-88.3297,13.1817],[-88.3281,13.1971],[-88.3584,13.2287],[-88.3379,13.1945],[-88.3918,13.1939],[-88.4069,13.1877],[-88.3659,13.1802],[-88.4148,13.1716],[-88.4348,13.1837],[-88.441,13.2082],[-88.4274,13.2014],[-88.4137,13.2212],[-88.4496,13.2546],[-88.4621,13.2622],[-88.4547,13.215],[-88.5298,13.2429],[-88.554,13.2764],[-88.5987,13.2839],[-88.7228,13.2696],[-88.6666,13.2558],[-88.5774,13.2628],[-88.5366,13.2212],[-88.5987,13.2287],[-88.4739,13.1986],[-88.4547,13.1802],[-88.4617,13.1683],[-88.5275,13.1984],[-88.8166,13.2593],[-88.8056,13.2858],[-88.7741,13.2929],[-88.7319,13.3415],[-88.7257,13.392],[-88.6759,13.4872],[-88.6594,13.555],[-88.6429,13.5577],[-88.6128,13.5987],[-88.5908,13.5937],[-88.5706,13.6061],[-88.5501,13.6437],[-88.4873,13.6883],[-88.4345,13.6921],[-88.4045,13.6594],[-88.3629,13.6494],[-88.3621,13.6019],[-88.3802,13.5819],[-88.3622,13.5052],[-88.3878,13.4627],[-88.3815,13.4212],[-88.3682,13.4178],[-88.3449,13.3503],[-88.26,13.3025],[-88.2271,13.3088],[-88.205,13.2656],[-88.2139,13.2408],[-88.1738,13.2407],[-88.1125,13.1712]]]}}]}
