{"type":"FeatureCollection","features":[{"type":"Feature","id":"Annobon","properties":{"id":"Annobon","iso_code":"GQ-AN","name":"Annobon","name_full":"Annobón","name_ja":"アンノボン県","center_lonlat":[5.6306,-1.4455]},"geometry":{"type":"Polygon","coordinates":[[[5.6262,-1.4562],[5.6187,-1.433],[5.6331,-1.4158],[5.6463,-1.4384],[5.6289,-1.4757],[5.612,-1.4636],[5.6262,-1.4562]]]}},{"type":"Feature","id":"Bioko Norte","properties":{"id":"Bioko Norte","iso_code":"GQ-BN","name":"Bioko Norte","name_full":"Bioko Norte","name_ja":"北ビオコ県","center_lonlat":[8.8062,3.6628]},"geometry":{"type":"Polygon","coordinates":[[[8.6268,3.6331],[8.641,3.6835],[8.7024,3.7609],[8.7434,3.7724],[8.7372,3.7582],[8.8467,3.7464],[8.9085,3.7582],[8.9592,3.7008],[8.9616,3.6605],[8.9431,3.6142],[8.907,3.5821],[8.8635,3.5151],[8.8328,3.5685],[8.7392,3.5813],[8.6686,3.625],[8.6268,3.6331]]]}},{"type":"Feature","id":"Bioko Sur","properties":{"id":"Bioko Sur","iso_code":"GQ-BS","name":"Bioko Sur","name_full":"Bioko Sur","name_ja":"南ビオコ県","center_lonlat":[8.6448,3.4058]},"geometry":{"type":"Polygon","coordinates":[[[8.8635,3.5151],[8.8159,3.4155],[8.7849,3.3951],[8.7747,3.3166],[8.6862,3.1973],[8.5999,3.238],[8.5596,3.2306],[8.5277,3.2488],[8.4694,3.258],[8.4502,3.2729],[8.422,3.3393],[8.4421,3.4213],[8.4739,3.4631],[8.5796,3.4633],[8.5733,3.5118],[8.6211,3.5559],[8.6268,3.6331],[8.6686,3.625],[8.7392,3.5813],[8.8328,3.5685],[8.8635,3.5151]]]}},{"type":"Feature","id":"Centro Sur","properties":{"id":"Centro Sur","iso_code":"GQ-CS","name":"Centro Sur","name_full":"Centro Sur","name_ja":"中南部県","center_lonlat":[10.4312,1.4794]},"geometry":{"type":"Polygon","coordinates":[[[10.19,2.1656],[10.4097,2.1657],[10.4112,2.1159],[10.4372,2.0265],[10.423,1.9435],[10.4405,1.9236],[10.4939,1.9257],[10.5174,1.9149],[10.6158,1.8138],[10.602,1.7484],[10.5722,1.6958],[10.5904,1.6523],[10.5749,1.5872],[10.6663,1.5601],[10.7661,1.5907],[10.8028,1.5829],[10.8274,1.5969],[10.8407,1.573],[10.8824,1.6003],[10.9119,1.574],[10.981,1.573],[10.9748,1.5563],[10.918,1.5294],[10.8728,1.4805],[10.7901,1.3537],[10.7755,1.3113],[10.7853,1.2818],[10.8502,1.2098],[10.9155,1.1685],[10.942,1.0826],[10.9799,1.0431],[10.9638,1.0004],[10.0004,0.9997],[10.0217,1.0503],[10.0558,1.0736],[10.1061,1.0915],[10.1633,1.0816],[10.2198,1.0908],[10.2641,1.1143],[10.2763,1.1396],[10.2574,1.1784],[10.2296,1.1608],[10.2083,1.1678],[10.1835,1.2583],[10.1494,1.2749],[10.1381,1.3756],[10.0982,1.4211],[10.1114,1.4916],[10.0641,1.5203],[9.9298,1.558],[9.9179,1.5771],[9.9323,1.596],[9.9816,1.6146],[10.0976,1.7975],[10.1212,1.9592],[10.1925,2.045],[10.19,2.1656]]]}},{"type":"Feature","id":"Kie-Ntem","properties":{"id":"Kie-Ntem","iso_code":"GQ-KN","name":"Kie-Ntem","name_full":"Kié-Ntem","name_ja":"キエンテム県","center_lonlat":[10.95,1.999]},"geometry":{"type":"Polygon","coordinates":[[[10.4097,2.1657],[11.3221,2.1658],[11.332,1.7326],[11.2277,1.7465],[11.1608,1.7328],[11.0019,1.7415],[10.9884,1.7624],[10.9591,1.9495],[10.9392,1.9745],[10.89,1.9367],[10.8601,1.9302],[10.6652,1.9956],[10.5174,1.9149],[10.4939,1.9257],[10.4405,1.9236],[10.423,1.9435],[10.4372,2.0265],[10.4112,2.1159],[10.4097,2.1657]]]}},{"type":"Feature","id":"Litoral","properties":{"id":"Litoral","iso_code":"GQ-LI","name":"Litoral","name_full":"Litoral","name_ja":"リトラル県","center_lonlat":[9.8522,1.5234]},"geometry":{"type":"Polygon","coordinates":[[[10.19,2.1656],[10.1925,2.045],[10.1212,1.9592],[10.0976,1.7975],[9.9816,1.6146],[9.9323,1.596],[9.9179,1.5771],[9.9298,1.558],[10.0641,1.5203],[10.1114,1.4916],[10.0982,1.4211],[10.1381,1.3756],[10.1494,1.2749],[10.1835,1.2583],[10.2083,1.1678],[10.2296,1.1608],[10.2574,1.1784],[10.2763,1.1396],[10.2641,1.1143],[10.2198,1.0908],[10.1633,1.0816],[10.1061,1.0915],[10.0558,1.0736],[10.0217,1.0503],[10.0004,0.9997],[9.9808,0.9972],[9.9718,0.9398],[9.9263,0.9275],[9.8496,0.9892],[9.8044,0.9984],[9.7991,1.0582],[9.8475,1.0725],[9.7551,1.1059],[9.7035,1.0998],[9.7178,1.1333],[9.6764,1.1054],[9.6421,1.0616],[9.5843,1.043],[9.5408,1.1251],[9.5065,1.1376],[9.4053,1.1059],[9.3602,1.147],[9.3467,1.1817],[9.374,1.1999],[9.4076,1.2838],[9.4483,1.3191],[9.464,1.3598],[9.4653,1.4145],[9.4928,1.4266],[9.5527,1.4865],[9.5942,1.5722],[9.6148,1.588],[9.6592,1.5653],[9.6859,1.5688],[9.7445,1.6],[9.6834,1.5714],[9.6657,1.5756],[9.6073,1.6444],[9.6175,1.6715],[9.7181,1.7718],[9.7468,1.8399],[9.7991,1.9011],[9.8097,1.935],[9.7644,2.0963],[9.7781,2.124],[9.7864,2.2481],[9.7669,2.3105],[9.7798,2.3279],[9.7996,2.3417],[9.8111,2.3249],[9.8109,2.2649],[9.8468,2.2285],[9.9707,2.1689],[10.19,2.1656]]]}},{"type":"Feature","id":"Wele-Nzas","properties":{"id":"Wele-Nzas","iso_code":"GQ-WN","name":"Wele-Nzas","name_full":"Wele-Nzas","name_ja":"ウェレンザス県","center_lonlat":[11.0027,1.4922]},"geometry":{"type":"Polygon","coordinates":[[[11.332,1.7326],[11.3363,0.9992],[10.9638,1.0004],[10.9799,1.0431],[10.942,1.0826],[10.9155,1.1685],[10.8502,1.2098],[10.7853,1.2818],[10.7755,1.3113],[10.7901,1.3537],[10.8728,1.4805],[10.918,1.5294],[10.9748,1.5563],[10.981,1.573],[10.9119,1.574],[10.8824,1.6003],[10.8407,1.573],[10.8274,1.5969],[10.8028,1.5829],[10.7661,1.5907],[10.6663,1.5601],[10.5749,1.5872],[10.5904,1.6523],[10.5722,1.6958],[10.602,1.7484],[10.6158,1.8138],[10.5174,1.9149],[10.6652,1.9956],[10.8601,1.9302],[10.89,1.9367],[10.9392,1.9745],[10.9591,1.9495],[10.9884,1.7624],[11.0019,1.7415],[11.1608,1.7328],[11.2277,1.7465],[11.332,1.7326]]]}}]}
