{"type":"FeatureCollection","features":[{"type":"Feature","id":"Anseba","properties":{"id":"Anseba","iso_code":"ER-AN","name":"Anseba","name_full":"Anseba","name_ja":"アンセバ地方","center_lonlat":[38.9674,15.3203]},"geometry":{"type":"Polygon","coordinates":[[[38.7882,15.1556],[38.7863,15.5568],[38.8063,15.5666],[38.8468,15.5507],[38.9587,15.5757],[39.0004,15.4862],[39.0915,15.3502],[39.1979,15.2469],[39.3263,15.176],[39.2948,15.1538],[38.7882,15.1556]]]}},{"type":"Feature","id":"Debub","properties":{"id":"Debub","iso_code":"ER-DU","name":"Debub","name_full":"Debub","name_ja":"デブブ地方","center_lonlat":[39.0754,16.1466]},"geometry":{"type":"MultiPolygon","coordinates":[[[[40.5723,14.9512],[40.593,14.817],[40.5911,14.7388],[40.4867,14.5781],[40.3537,14.3352],[40.2771,14.4046],[40.1944,14.4446],[40.1046,14.466],[40.0375,14.4515],[39.9798,14.4587],[39.9112,14.4234],[39.8771,14.4336],[39.7969,14.4951],[39.723,14.5017],[39.3263,15.176],[39.1979,15.2469],[39.0915,15.3502],[39.0004,15.4862],[38.9587,15.5757],[38.9247,15.6981],[38.8218,15.8597],[38.6266,15.8987],[38.531,15.9497],[38.5093,15.9771],[38.4961,16.0913],[38.5225,16.1836],[38.5155,16.236],[38.4745,16.3201],[38.403,16.3935],[38.3782,16.4727],[38.3246,16.5778],[38.0858,16.626],[38.0383,16.6613],[38.0489,16.8108],[37.9859,16.9135],[38.0062,17.0073],[38.0233,17.4174],[38.0144,17.5393],[38.0618,17.5481],[38.0765,17.4799],[38.108,17.4938],[38.1195,17.5456],[38.1606,17.5573],[38.2097,17.5223],[38.2334,17.5257],[38.2502,17.5418],[38.2566,17.6025],[38.3437,17.6559],[38.3713,17.6988],[38.4316,17.852],[38.4593,17.8907],[38.6016,18.0048],[38.6204,17.9526],[38.6629,17.895],[38.6698,17.854],[38.7897,17.6689],[38.8596,17.5133],[38.929,17.3971],[38.9647,17.2923],[38.9526,17.2535],[39.0125,17.1654],[39.095,16.8677],[39.1497,16.7169],[39.136,16.7238],[39.1614,16.6572],[39.1633,16.6282],[39.1449,16.6094],[39.161,16.5638],[39.1509,16.5294],[39.177,16.5214],[39.1906,16.3874],[39.2048,16.3498],[39.1974,16.2986],[39.2356,16.1087],[39.2941,15.9288],[39.3135,15.8939],[39.437,15.812],[39.4233,15.7676],[39.4509,15.6905],[39.4779,15.6611],[39.4606,15.6596],[39.4446,15.6352],[39.4507,15.6196],[39.464,15.6383],[39.4849,15.6339],[39.4828,15.6149],[39.4302,15.6031],[39.4575,15.5246],[39.5169,15.5201],[39.5518,15.5423],[39.5872,15.5314],[39.6113,15.5],[39.6636,15.3362],[39.6908,15.3222],[39.7183,15.2639],[39.6983,15.1236],[39.7156,15.0941],[39.7523,15.0926],[39.7737,15.071],[39.8113,15.0789],[39.8262,15.1082],[39.8197,15.1258],[39.8547,15.1735],[39.8568,15.1929],[39.8177,15.2812],[39.8045,15.2814],[39.7897,15.2575],[39.7809,15.2781],[39.7734,15.3905],[39.8071,15.4589],[39.8281,15.4489],[39.8356,15.4761],[39.8416,15.4631],[39.8753,15.5041],[39.91,15.4574],[40.0051,15.381],[40.0508,15.3661],[40.0799,15.3407],[40.0813,15.3192],[40.0472,15.2844],[40.0266,15.2372],[40.052,15.2296],[40.0415,15.205],[40.0813,15.1645],[40.1018,15.113],[40.1018,15.0646],[40.1279,15.0662],[40.1543,15.0373],[40.1496,15.0001],[40.1594,14.9822],[40.2726,14.9376],[40.2868,14.9135],[40.3472,14.9441],[40.3898,15.0032],[40.4014,14.9661],[40.4177,14.9691],[40.4227,14.999],[40.4544,15.0045],[40.4631,14.9797],[40.499,14.9622],[40.5202,14.9827],[40.5127,15.0175],[40.527,14.997],[40.5542,14.9902],[40.5559,14.9641],[40.5723,14.9512]]],[[[40.3864,15.6413],[40.4063,15.6381],[40.4142,15.5983],[40.3939,15.5723],[40.3566,15.5862],[40.2874,15.573],[40.2083,15.5997],[40.1587,15.5895],[40.1228,15.614],[40.1022,15.5891],[40.0853,15.5876],[40.0015,15.6113],[39.9789,15.6065],[39.9373,15.7021],[39.9557,15.6997],[39.9509,15.6884],[39.9714,15.6611],[40.0266,15.6474],[40.0813,15.6611],[40.0386,15.719],[40.0088,15.7366],[39.9304,15.7396],[39.9236,15.7573],[39.9338,15.7882],[39.99,15.7699],[39.9753,15.8154],[40.0335,15.8262],[40.0374,15.8384],[40.0194,15.8681],[39.9744,15.8718],[39.9509,15.8939],[40.0262,15.8826],[40.0916,15.8498],[40.1056,15.8287],[40.0902,15.8031],[40.0957,15.7846],[40.1228,15.7921],[40.1154,15.809],[40.1365,15.8062],[40.1331,15.7112],[40.1638,15.6444],[40.2321,15.627],[40.2616,15.6632],[40.2191,15.6854],[40.2669,15.7035],[40.3115,15.6953],[40.3299,15.6643],[40.3864,15.6413]]],[[[40.0954,16.0473],[40.0774,16.019],[40.1145,15.9859],[40.0967,15.981],[39.99,16.0177],[39.9982,16.0496],[40.0472,16.0635],[40.0505,16.1072],[40.111,16.074],[40.1188,16.062],[40.0954,16.0473]]]]}},{"type":"Feature","id":"Gash-Barka","properties":{"id":"Gash-Barka","iso_code":"ER-GB","name":"Gash-Barka","name_full":"Gash-Barka","name_ja":"ガシュ・バルカ地方","center_lonlat":[37.4193,15.1872]},"geometry":{"type":"Polygon","coordinates":[[[36.9273,16.4354],[36.9551,16.4309],[36.9748,16.403],[37.0026,16.2747],[37.0699,16.1749],[37.2515,16.1202],[37.3135,16.0839],[37.3517,16.0466],[37.4173,15.9356],[37.5205,15.8872],[37.536,15.8512],[37.7503,15.8484],[37.8349,15.8012],[37.9516,15.7827],[38.1249,15.6883],[38.2515,15.7322],[38.3118,15.7219],[38.3923,15.6603],[38.4465,15.5732],[38.5008,15.5501],[38.6839,15.5449],[38.7863,15.5568],[38.7882,15.1556],[38.7214,15.163],[38.5622,15.1209],[38.4584,15.1115],[38.4253,15.0944],[38.3368,14.9865],[38.2591,14.9435],[38.2129,14.836],[38.2215,14.784],[38.2529,14.7164],[38.2577,14.6801],[38.2458,14.6525],[38.2139,14.6859],[38.1152,14.681],[38.0067,14.7244],[37.8915,14.8795],[37.5537,14.1055],[37.5253,14.1288],[37.5165,14.1806],[37.4754,14.1996],[37.4526,14.2606],[37.3977,14.3017],[37.3902,14.3582],[37.3371,14.4264],[37.2938,14.4574],[37.1842,14.4496],[37.1211,14.4208],[37.0978,14.3795],[37.091,14.3142],[37.0602,14.2768],[36.9954,14.2641],[36.9469,14.3047],[36.8485,14.3278],[36.7481,14.3321],[36.5657,14.2929],[36.5457,14.2632],[36.5264,14.2635],[36.4251,15.1334],[36.5249,15.2479],[36.5756,15.3934],[36.5951,15.4243],[36.6279,15.4456],[36.6141,15.4893],[36.6167,15.5315],[36.671,15.7231],[36.7595,15.8375],[36.8859,16.1849],[36.9543,16.2783],[36.9282,16.3611],[36.9273,16.4354]]]}},{"type":"Feature","id":"Maekel","properties":{"id":"Maekel","iso_code":"ER-MA","name":"Maekel","name_full":"Maekel","name_ja":"マアカル地方","center_lonlat":[38.9022,14.7988]},"geometry":{"type":"Polygon","coordinates":[[[38.2458,14.6525],[38.2577,14.6801],[38.2529,14.7164],[38.2215,14.784],[38.2129,14.836],[38.2591,14.9435],[38.3368,14.9865],[38.4253,15.0944],[38.4584,15.1115],[38.5622,15.1209],[38.7214,15.163],[38.7882,15.1556],[39.2948,15.1538],[39.3263,15.176],[39.723,14.5017],[39.6777,14.4942],[39.5995,14.5116],[39.5521,14.5567],[39.515,14.5678],[39.4894,14.5245],[39.4486,14.5051],[39.3666,14.4829],[39.2685,14.4864],[39.2332,14.4404],[39.2082,14.4402],[39.1585,14.5601],[39.1275,14.6022],[39.0855,14.6335],[39.0097,14.6512],[38.9968,14.6389],[38.9938,14.5852],[38.9797,14.5671],[38.8661,14.4937],[38.7429,14.4611],[38.6685,14.4677],[38.5694,14.4268],[38.4352,14.4163],[38.4144,14.4263],[38.3943,14.4643],[38.325,14.5046],[38.2893,14.5877],[38.2576,14.6104],[38.2458,14.6525]]]}},{"type":"Feature","id":"Northern Red Sea","properties":{"id":"Northern Red Sea","iso_code":"ER-SK","name":"Northern Red Sea","name_full":"Northern Red Sea","name_ja":"セメナウィ・ケイバハリ地方","center_lonlat":[37.7986,16.4299]},"geometry":{"type":"Polygon","coordinates":[[[38.0144,17.5393],[38.0233,17.4174],[38.0062,17.0073],[37.9859,16.9135],[38.0489,16.8108],[38.0383,16.6613],[38.0858,16.626],[38.3246,16.5778],[38.3782,16.4727],[38.403,16.3935],[38.4745,16.3201],[38.5155,16.236],[38.5225,16.1836],[38.4961,16.0913],[38.5093,15.9771],[38.531,15.9497],[38.6266,15.8987],[38.8218,15.8597],[38.9247,15.6981],[38.9587,15.5757],[38.8468,15.5507],[38.8063,15.5666],[38.7863,15.5568],[38.6839,15.5449],[38.5008,15.5501],[38.4465,15.5732],[38.3923,15.6603],[38.3118,15.7219],[38.2515,15.7322],[38.1249,15.6883],[37.9516,15.7827],[37.8349,15.8012],[37.7503,15.8484],[37.536,15.8512],[37.5205,15.8872],[37.4173,15.9356],[37.3517,16.0466],[37.3135,16.0839],[37.2515,16.1202],[37.0699,16.1749],[37.0026,16.2747],[36.9748,16.403],[36.9551,16.4309],[36.9273,16.4354],[36.8834,16.4904],[36.8773,16.5273],[36.8924,16.6369],[36.9604,16.7056],[36.9997,16.8421],[36.9906,16.9136],[36.9681,16.9466],[36.997,16.9995],[36.9713,17.0541],[36.9801,17.07],[37.0005,17.0726],[37.134,17.0164],[37.2334,17.0246],[37.281,17.053],[37.3098,17.0553],[37.4034,17.0299],[37.4598,17.0947],[37.4947,17.1746],[37.5056,17.2368],[37.496,17.3122],[37.7204,17.3838],[37.7639,17.4591],[37.7989,17.4771],[37.8492,17.444],[37.8959,17.4426],[37.9469,17.4957],[38.0144,17.5393]]]}},{"type":"Feature","id":"Southern Red Sea","properties":{"id":"Southern Red Sea","iso_code":"ER-DK","name":"Southern Red Sea","name_full":"Southern Red Sea","name_ja":"デブバウィ・ケイバハリ地方","center_lonlat":[41.692,13.6167]},"geometry":{"type":"Polygon","coordinates":[[[40.3537,14.3352],[40.4867,14.5781],[40.5911,14.7388],[40.593,14.817],[40.5723,14.9512],[40.6164,14.9487],[40.6277,14.892],[40.6566,14.8803],[40.6604,14.9026],[40.6945,14.8962],[40.6927,14.8819],[40.6709,14.8803],[40.7324,14.8257],[40.7239,14.7571],[40.7664,14.7146],[40.7664,14.6953],[40.8081,14.7028],[40.8081,14.7221],[40.8845,14.7145],[40.9727,14.6696],[41.0402,14.6674],[41.1675,14.6369],[41.2088,14.5681],[41.3068,14.4889],[41.3359,14.402],[41.369,14.3848],[41.3997,14.3467],[41.4128,14.3065],[41.5059,14.2134],[41.5418,14.1262],[41.6209,14.0636],[41.6765,13.9403],[41.7534,13.9207],[41.7981,13.9344],[41.849,13.8762],[41.9043,13.8798],[41.9697,13.8456],[41.9937,13.7836],[42.0892,13.688],[42.1066,13.6435],[42.1438,13.6504],[42.1712,13.6265],[42.1848,13.5856],[42.2239,13.5539],[42.2295,13.5639],[42.1987,13.5987],[42.219,13.606],[42.2197,13.6326],[42.1599,13.6566],[42.1848,13.6675],[42.2559,13.592],[42.2884,13.5746],[42.3059,13.4761],[42.3425,13.4181],[42.3794,13.2226],[42.4313,13.1984],[42.4768,13.1945],[42.5075,13.207],[42.5207,13.2355],[42.5339,13.2326],[42.5418,13.2082],[42.6205,13.1293],[42.6554,13.0723],[42.7297,13.0331],[42.7813,12.8519],[42.8358,12.8649],[42.8689,12.8214],[42.9321,12.8109],[42.9185,12.7905],[42.928,12.7897],[42.978,12.824],[43.001,12.8649],[43.001,12.9003],[43.0864,12.8209],[43.0972,12.7625],[43.1239,12.7153],[42.9004,12.6164],[42.8688,12.6262],[42.8288,12.5576],[42.7852,12.5172],[42.7923,12.4292],[42.7499,12.4171],[42.7278,12.3888],[42.6915,12.3788],[42.6783,12.36],[42.5216,12.4962],[42.4757,12.5163],[42.4309,12.5203],[42.3795,12.4659],[42.2502,12.624],[42.1849,12.733],[42.1373,12.7733],[41.9466,12.8762],[41.8943,12.948],[41.7848,13.1646],[41.7118,13.2479],[41.5307,13.3938],[41.192,13.6159],[41.0436,13.8725],[40.8332,14.106],[40.7723,14.1484],[40.5859,14.1947],[40.4798,14.2444],[40.4216,14.2738],[40.3537,14.3352]]]}}]}
