{"type":"FeatureCollection","features":[{"type":"Feature","id":"Harju","properties":{"id":"Harju","iso_code":"EE-37","name":"Harju","name_full":"Harju","name_ja":"ハリュ県","center_lonlat":[24.9252,59.3103]},"geometry":{"type":"MultiPolygon","coordinates":[[[[23.7185,59.2314],[23.7422,59.2394],[23.7236,59.2651],[23.7568,59.2836],[23.8888,59.2788],[24.0386,59.2933],[24.0806,59.2713],[24.1001,59.2945],[24.0921,59.3126],[24.0194,59.3673],[24.0348,59.3887],[24.0806,59.3955],[24.1649,59.3541],[24.2219,59.3552],[24.2134,59.3723],[24.1631,59.4023],[24.3062,59.4191],[24.3338,59.4706],[24.4225,59.4774],[24.4983,59.4438],[24.5482,59.463],[24.6426,59.4364],[24.6605,59.4406],[24.6566,59.4499],[24.6218,59.4706],[24.6585,59.4721],[24.675,59.496],[24.6975,59.491],[24.7444,59.4472],[24.7726,59.4501],[24.8158,59.4893],[24.7835,59.5198],[24.7726,59.56],[24.8035,59.5705],[24.9344,59.508],[25.0122,59.5184],[25.0978,59.4979],[25.1165,59.5031],[25.1079,59.529],[25.1455,59.5391],[25.4094,59.491],[25.4024,59.5143],[25.4158,59.5271],[25.5437,59.5351],[25.4971,59.5709],[25.4819,59.6112],[25.4849,59.6698],[25.6223,59.5805],[25.6768,59.5661],[25.7059,59.5693],[25.7185,59.5876],[25.6848,59.6286],[25.6907,59.6494],[25.6707,59.6555],[25.6947,59.6709],[25.7254,59.6658],[25.7805,59.6357],[25.7731,59.6282],[25.7937,59.5912],[25.8369,59.5765],[25.8373,59.5491],[25.8132,59.5269],[25.8412,59.4968],[25.851,59.4507],[25.8919,59.4258],[25.9011,59.3807],[25.9445,59.2994],[25.9441,59.2849],[25.9259,59.2763],[25.7987,59.2921],[25.666,59.2727],[25.6584,59.2586],[25.5935,59.2722],[25.4894,59.2638],[25.5169,59.2116],[25.4585,59.132],[25.4897,59.0858],[25.4652,59.0713],[25.4014,59.0698],[25.3974,59.0159],[25.3205,58.9922],[25.2025,59.0366],[25.1845,59.0808],[25.1676,59.0898],[25.1184,59.0931],[25.0605,59.1097],[25.0461,59.1257],[24.9565,59.1465],[24.8993,59.1924],[24.9036,59.2257],[24.8661,59.2266],[24.7756,59.209],[24.6639,59.2169],[24.5736,59.1662],[24.555,59.1346],[24.5728,59.1103],[24.5658,59.0967],[24.3744,59.0862],[24.2902,59.0153],[24.1683,59.0228],[24.1045,58.9847],[24.0895,58.9958],[24.0926,59.0102],[24.1478,59.0581],[24.1222,59.0776],[24.115,59.1069],[24.0218,59.137],[23.9082,59.1314],[23.8604,59.1599],[23.796,59.176],[23.7185,59.2314]]],[[[24.5159,59.5981],[24.5501,59.5578],[24.5428,59.5478],[24.5163,59.5443],[24.4891,59.5596],[24.4873,59.5785],[24.5159,59.5981]]]]}},{"type":"Feature","id":"Hiiu","properties":{"id":"Hiiu","iso_code":"EE-39","name":"Hiiu","name_full":"Hiiu","name_ja":"ヒーウ県","center_lonlat":[22.62,58.8938]},"geometry":{"type":"Polygon","coordinates":[[[22.2918,58.8952],[22.195,58.888],[22.0447,58.9362],[22.0555,58.9527],[22.0942,58.956],[22.1682,58.9504],[22.4631,58.9709],[22.4421,58.9847],[22.4885,58.9811],[22.4876,59.0164],[22.5593,59.0384],[22.5872,59.087],[22.6667,59.0849],[22.7141,59.0696],[22.6916,59.0412],[22.7367,59.0051],[22.8372,59.0086],[22.9341,58.984],[22.9496,58.9709],[22.9496,58.9362],[23.0151,58.8918],[23.0405,58.8408],[23.0191,58.8291],[22.9568,58.8474],[22.9422,58.8342],[22.8796,58.8327],[22.8672,58.8201],[22.887,58.8118],[22.8867,58.7905],[22.8454,58.7765],[22.7901,58.781],[22.7783,58.7922],[22.8269,58.8192],[22.8193,58.8297],[22.7776,58.8244],[22.7367,58.8065],[22.655,58.7028],[22.5557,58.687],[22.5017,58.6948],[22.4631,58.7165],[22.4972,58.7375],[22.4495,58.7868],[22.4299,58.8524],[22.3547,58.8921],[22.2918,58.8952]]]}},{"type":"Feature","id":"Ida-Viru","properties":{"id":"Ida-Viru","iso_code":"EE-44","name":"Ida-Viru","name_full":"Ida-Viru","name_ja":"イダ＝ヴィル県","center_lonlat":[27.3284,59.1781]},"geometry":{"type":"Polygon","coordinates":[[[27.4463,58.8189],[26.9249,58.8672],[26.8467,58.8927],[26.7517,58.8816],[26.728,58.9417],[26.703,58.9559],[26.7767,58.9805],[26.7888,59.0071],[26.8105,59.0201],[26.7992,59.0404],[26.8015,59.1119],[26.9413,59.1499],[26.93,59.1657],[26.9387,59.1947],[26.8607,59.2197],[26.8435,59.2551],[26.7747,59.2434],[26.7417,59.261],[26.7477,59.2843],[26.7989,59.3405],[26.7086,59.3606],[26.7449,59.3791],[26.7398,59.3993],[26.7502,59.4076],[26.7944,59.4046],[26.7902,59.4393],[26.7657,59.4799],[26.7809,59.5025],[26.8269,59.477],[26.9377,59.4501],[27.1162,59.442],[27.409,59.4519],[27.8733,59.4076],[27.9535,59.4282],[28.0191,59.4818],[28.0386,59.463],[28.1048,59.4392],[28.1378,59.4004],[28.1865,59.3749],[28.1818,59.3561],[28.1575,59.364],[28.1136,59.3454],[28.0006,59.3337],[28.0969,59.3194],[28.0766,59.3053],[27.9597,59.3065],[27.8823,59.2757],[27.8908,59.258],[27.8424,59.1612],[27.7133,58.9919],[27.4778,58.8754],[27.4463,58.8189]]]}},{"type":"Feature","id":"Jarva","properties":{"id":"Jarva","iso_code":"EE-51","name":"Jarva","name_full":"Järva","name_ja":"イェルヴァ県","center_lonlat":[25.6664,58.9396]},"geometry":{"type":"Polygon","coordinates":[[[25.7771,58.6898],[25.4378,58.6137],[25.349,58.6151],[25.2585,58.6333],[25.2925,58.7077],[25.1998,58.7258],[25.223,58.7605],[25.2001,58.7966],[25.2473,58.8144],[25.27,58.8418],[25.2773,58.8539],[25.238,58.8794],[25.2582,58.9062],[25.301,58.9251],[25.301,58.9563],[25.2854,58.97],[25.3205,58.9922],[25.3974,59.0159],[25.4014,59.0698],[25.4652,59.0713],[25.4897,59.0858],[25.4585,59.132],[25.5169,59.2116],[25.4894,59.2638],[25.5935,59.2722],[25.6584,59.2586],[25.666,59.2727],[25.7987,59.2921],[25.9259,59.2763],[25.9177,59.2509],[25.96,59.2143],[25.9568,59.1958],[26.0187,59.1787],[26.0114,59.156],[25.9391,59.1024],[25.9309,59.0588],[26.0409,59.0449],[26.0662,59.0176],[26.1351,58.9813],[26.1643,58.937],[26.1537,58.8872],[26.1165,58.8681],[26.1138,58.8353],[25.9768,58.8166],[25.9556,58.7735],[25.9273,58.7615],[25.8873,58.7674],[25.8358,58.7473],[25.7771,58.6898]]]}},{"type":"Feature","id":"Jogeva","properties":{"id":"Jogeva","iso_code":"EE-49","name":"Jogeva","name_full":"Jõgeva","name_ja":"ヨゲヴァ県","center_lonlat":[26.5368,58.7221]},"geometry":{"type":"Polygon","coordinates":[[[27.4463,58.8189],[27.4106,58.7549],[27.4288,58.7094],[27.0909,58.6762],[27.0137,58.647],[27.0135,58.6024],[26.8621,58.6331],[26.8118,58.5614],[26.7209,58.5499],[26.6644,58.5625],[26.6174,58.522],[26.5083,58.5409],[26.4605,58.5284],[26.4121,58.5342],[26.3795,58.5181],[26.3424,58.5354],[26.2178,58.4934],[26.1315,58.4847],[26.0643,58.5136],[26.0128,58.5568],[25.9686,58.5594],[25.9166,58.5965],[25.7507,58.6071],[25.7917,58.6355],[25.7771,58.6898],[25.8358,58.7473],[25.8873,58.7674],[25.9273,58.7615],[25.9556,58.7735],[25.9768,58.8166],[26.1138,58.8353],[26.1165,58.8681],[26.1537,58.8872],[26.3146,58.9185],[26.4104,58.8855],[26.4518,58.8951],[26.4569,58.9202],[26.505,58.9388],[26.5584,58.9314],[26.703,58.9559],[26.728,58.9417],[26.7517,58.8816],[26.8467,58.8927],[26.9249,58.8672],[27.4463,58.8189]]]}},{"type":"Feature","id":"Laane","properties":{"id":"Laane","iso_code":"EE-57","name":"Laane","name_full":"Lääne","name_ja":"レーネ県","center_lonlat":[23.783,58.896]},"geometry":{"type":"MultiPolygon","coordinates":[[[[23.5858,58.5442],[23.5612,58.5832],[23.5164,58.5546],[23.4981,58.5722],[23.5182,58.6037],[23.4932,58.6734],[23.4977,58.6966],[23.5466,58.7096],[23.53,58.7228],[23.5331,58.7475],[23.5845,58.7379],[23.697,58.7512],[23.8025,58.7307],[23.8049,58.748],[23.7834,58.7558],[23.7855,58.778],[23.8162,58.7846],[23.8744,58.7717],[23.8157,58.8],[23.7842,58.801],[23.7577,58.7853],[23.7395,58.798],[23.6034,58.7948],[23.5427,58.7754],[23.4295,58.7648],[23.4666,58.8007],[23.5261,58.8198],[23.4636,58.8642],[23.4224,58.9087],[23.422,58.9287],[23.4437,58.944],[23.5845,58.9536],[23.6248,58.9726],[23.6281,58.9914],[23.6055,59.0327],[23.5598,59.0528],[23.6144,59.0113],[23.5803,59.0051],[23.553,58.9709],[23.4613,58.9924],[23.4084,59.0256],[23.4363,59.0256],[23.4349,59.0561],[23.4907,59.0883],[23.5182,59.0733],[23.5194,59.125],[23.4709,59.2121],[23.5256,59.2304],[23.5785,59.2263],[23.6419,59.2574],[23.7185,59.2314],[23.796,59.176],[23.8604,59.1599],[23.9082,59.1314],[24.0218,59.137],[24.115,59.1069],[24.1222,59.0776],[24.1478,59.0581],[24.0926,59.0102],[24.0895,58.9958],[24.1045,58.9847],[24.0847,58.9649],[24.0888,58.9503],[24.1869,58.8447],[24.1424,58.8198],[24.1607,58.7943],[24.0702,58.7511],[24.1512,58.7386],[24.1332,58.7015],[24.0221,58.671],[23.9645,58.673],[23.9537,58.6464],[23.916,58.6253],[23.8614,58.6341],[23.8652,58.5862],[23.9028,58.5556],[23.6511,58.5562],[23.5858,58.5442]]],[[[23.364,59.029],[23.3897,59.0075],[23.3848,58.9805],[23.3401,58.984],[23.2991,58.9709],[23.2234,58.984],[23.1633,58.9689],[23.1141,59.0218],[23.1314,59.0407],[23.1702,59.0459],[23.278,59.0324],[23.3442,59.0393],[23.364,59.029]]]]}},{"type":"Feature","id":"Laane-Viru","properties":{"id":"Laane-Viru","iso_code":"EE-59","name":"Laane-Viru","name_full":"Lääne-Viru","name_ja":"レーネ＝ヴィル県","center_lonlat":[26.3559,59.2654]},"geometry":{"type":"Polygon","coordinates":[[[25.8369,59.5765],[25.8762,59.6009],[25.8688,59.6077],[25.8831,59.6313],[25.9445,59.5947],[25.965,59.5973],[25.9644,59.6214],[25.9885,59.6343],[26.0364,59.6232],[26.091,59.5856],[26.28,59.5873],[26.4978,59.54],[26.6263,59.5581],[26.7023,59.5414],[26.7809,59.5025],[26.7657,59.4799],[26.7902,59.4393],[26.7944,59.4046],[26.7502,59.4076],[26.7398,59.3993],[26.7449,59.3791],[26.7086,59.3606],[26.7989,59.3405],[26.7477,59.2843],[26.7417,59.261],[26.7747,59.2434],[26.8435,59.2551],[26.8607,59.2197],[26.9387,59.1947],[26.93,59.1657],[26.9413,59.1499],[26.8015,59.1119],[26.7992,59.0404],[26.8105,59.0201],[26.7888,59.0071],[26.7767,58.9805],[26.703,58.9559],[26.5584,58.9314],[26.505,58.9388],[26.4569,58.9202],[26.4518,58.8951],[26.4104,58.8855],[26.3146,58.9185],[26.1537,58.8872],[26.1643,58.937],[26.1351,58.9813],[26.0662,59.0176],[26.0409,59.0449],[25.9309,59.0588],[25.9391,59.1024],[26.0114,59.156],[26.0187,59.1787],[25.9568,59.1958],[25.96,59.2143],[25.9177,59.2509],[25.9259,59.2763],[25.9441,59.2849],[25.9445,59.2994],[25.9011,59.3807],[25.8919,59.4258],[25.851,59.4507],[25.8412,59.4968],[25.8132,59.5269],[25.8373,59.5491],[25.8369,59.5765]]]}},{"type":"Feature","id":"Parnu","properties":{"id":"Parnu","iso_code":"EE-67","name":"Parnu","name_full":"Pärnu","name_ja":"ペルヌ県","center_lonlat":[24.5516,58.398]},"geometry":{"type":"MultiPolygon","coordinates":[[[[25.0349,58.0486],[24.9493,58.0064],[24.8725,58.0004],[24.8168,57.9767],[24.7335,57.9922],[24.6848,57.9476],[24.5338,57.9451],[24.4416,57.9081],[24.4015,57.8665],[24.3782,57.8594],[24.3062,57.8682],[24.3983,58.0233],[24.4641,58.0722],[24.4729,58.1547],[24.4548,58.1964],[24.471,58.2509],[24.5485,58.2893],[24.5604,58.3123],[24.551,58.3337],[24.4442,58.3861],[24.3618,58.3973],[24.3159,58.38],[24.2869,58.3185],[24.2433,58.2802],[24.156,58.2768],[24.1209,58.2452],[24.0941,58.2447],[23.9802,58.3184],[23.8547,58.3397],[23.8335,58.3539],[23.741,58.3431],[23.7189,58.3996],[23.6774,58.4352],[23.679,58.5242],[23.6638,58.5362],[23.6224,58.5291],[23.5858,58.5442],[23.6511,58.5562],[23.9028,58.5556],[23.8652,58.5862],[23.8614,58.6341],[23.916,58.6253],[23.9537,58.6464],[23.9645,58.673],[24.0221,58.671],[24.1332,58.7015],[24.1616,58.6887],[24.3635,58.6703],[24.4296,58.6817],[24.4615,58.7142],[24.525,58.7365],[24.5517,58.7338],[24.554,58.7184],[24.5784,58.7117],[24.6544,58.724],[24.6906,58.7512],[24.7865,58.7414],[24.8557,58.75],[24.8976,58.7358],[24.9162,58.6723],[25.0081,58.717],[25.0573,58.7184],[25.0628,58.7282],[25.1998,58.7258],[25.2925,58.7077],[25.2585,58.6333],[25.225,58.6196],[25.232,58.588],[25.0321,58.5157],[24.9876,58.4859],[25.0067,58.4349],[24.973,58.4111],[24.9766,58.3889],[24.955,58.3363],[24.9669,58.3237],[24.9904,58.3185],[25.0216,58.3347],[25.1206,58.3226],[25.2495,58.2637],[25.2318,58.2527],[25.2298,58.2004],[25.1522,58.2018],[25.1373,58.1892],[25.1416,58.1643],[25.1096,58.1655],[25.0903,58.152],[25.1123,58.126],[25.0602,58.1254],[25.0115,58.0911],[25.0349,58.0486]]],[[[23.9434,58.1132],[23.938,58.1373],[23.9553,58.1518],[24.0134,58.1535],[24.0221,58.1299],[24.0025,58.1085],[23.9707,58.0996],[23.9434,58.1132]]]]}},{"type":"Feature","id":"Polva","properties":{"id":"Polva","iso_code":"EE-65","name":"Polva","name_full":"Põlva","name_ja":"ポルヴァ県","center_lonlat":[27.1638,58.0443]},"geometry":{"type":"Polygon","coordinates":[[[27.5196,58.1945],[27.6304,58.0883],[27.6316,58.0042],[27.6691,57.992],[27.6752,57.9678],[27.6594,57.9325],[27.665,57.9184],[27.7744,57.8907],[27.7993,57.8611],[27.7635,57.8387],[27.7007,57.8248],[27.5563,57.8131],[27.3942,57.8444],[27.2984,57.8316],[27.2492,57.8531],[27.2652,57.876],[27.299,57.8922],[27.2809,57.9175],[27.2314,57.9124],[27.095,57.9571],[27.0422,57.9455],[27.0391,57.9179],[26.928,57.9405],[26.7669,57.9302],[26.6825,57.9446],[26.6045,57.9402],[26.5402,57.9556],[26.5542,58.0763],[26.595,58.1234],[26.6386,58.1436],[26.6361,58.1745],[26.6656,58.1723],[26.6984,58.1901],[26.7201,58.1779],[26.8122,58.1887],[26.876,58.2424],[26.9505,58.2458],[26.9969,58.2328],[27.034,58.2628],[27.0928,58.25],[27.1285,58.2634],[27.1553,58.2514],[27.2438,58.2519],[27.2855,58.2164],[27.5196,58.1945]]]}},{"type":"Feature","id":"Rapla","properties":{"id":"Rapla","iso_code":"EE-70","name":"Rapla","name_full":"Rapla","name_ja":"ラプラ県","center_lonlat":[24.7034,58.9231]},"geometry":{"type":"Polygon","coordinates":[[[24.1332,58.7015],[24.1512,58.7386],[24.0702,58.7511],[24.1607,58.7943],[24.1424,58.8198],[24.1869,58.8447],[24.0888,58.9503],[24.0847,58.9649],[24.1045,58.9847],[24.1683,59.0228],[24.2902,59.0153],[24.3744,59.0862],[24.5658,59.0967],[24.5728,59.1103],[24.555,59.1346],[24.5736,59.1662],[24.6639,59.2169],[24.7756,59.209],[24.8661,59.2266],[24.9036,59.2257],[24.8993,59.1924],[24.9565,59.1465],[25.0461,59.1257],[25.0605,59.1097],[25.1184,59.0931],[25.1676,59.0898],[25.1845,59.0808],[25.2025,59.0366],[25.3205,58.9922],[25.2854,58.97],[25.301,58.9563],[25.301,58.9251],[25.2582,58.9062],[25.238,58.8794],[25.2773,58.8539],[25.27,58.8418],[25.2473,58.8144],[25.2001,58.7966],[25.223,58.7605],[25.1998,58.7258],[25.0628,58.7282],[25.0573,58.7184],[25.0081,58.717],[24.9162,58.6723],[24.8976,58.7358],[24.8557,58.75],[24.7865,58.7414],[24.6906,58.7512],[24.6544,58.724],[24.5784,58.7117],[24.554,58.7184],[24.5517,58.7338],[24.525,58.7365],[24.4615,58.7142],[24.4296,58.6817],[24.3635,58.6703],[24.1616,58.6887],[24.1332,58.7015]]]}},{"type":"Feature","id":"Saare","properties":{"id":"Saare","iso_code":"EE-74","name":"Saare","name_full":"Saare","name_ja":"サーレ県","center_lonlat":[22.4853,58.3798]},"geometry":{"type":"MultiPolygon","coordinates":[[[[23.2306,58.5048],[23.2886,58.4882],[23.3333,58.4564],[23.325,58.4423],[23.2614,58.4659],[23.2376,58.4564],[23.278,58.4365],[23.2349,58.4399],[23.1819,58.4747],[23.1565,58.4775],[23.1304,58.4395],[23.0842,58.4296],[23.0868,58.395],[23.0425,58.3715],[23.022,58.3632],[22.9548,58.381],[22.9475,58.3726],[22.9695,58.3602],[22.9027,58.3118],[22.8112,58.2734],[22.7212,58.2703],[22.7101,58.2578],[22.7567,58.2423],[22.7232,58.2254],[22.6692,58.2215],[22.655,58.2447],[22.6213,58.2528],[22.565,58.2352],[22.535,58.2541],[22.5042,58.2235],[22.491,58.2447],[22.4768,58.2451],[22.2951,58.1929],[22.2717,58.1743],[22.2568,58.0932],[22.1999,58.026],[22.203,57.994],[22.0483,57.9151],[22.0169,57.9145],[21.9901,57.9356],[21.9907,57.9582],[21.9641,57.9714],[21.9634,57.984],[21.9976,57.984],[22.0857,58.0826],[22.1477,58.0796],[22.1651,58.1169],[22.203,58.1479],[22.1419,58.1695],[22.0723,58.1758],[22.0169,58.2339],[21.8965,58.2507],[21.8438,58.2936],[21.8556,58.3069],[21.9082,58.2987],[21.8733,58.3416],[21.8945,58.3465],[21.9446,58.3188],[21.9634,58.3266],[21.9549,58.3441],[21.968,58.3546],[22.0112,58.3539],[21.946,58.4323],[21.8324,58.511],[21.9014,58.498],[21.9285,58.5184],[21.9956,58.5125],[22.0894,58.4222],[22.0985,58.4261],[22.1037,58.4872],[22.1719,58.5216],[22.1878,58.5429],[22.2129,58.5464],[22.2289,58.5106],[22.2732,58.502],[22.2883,58.5693],[22.322,58.5848],[22.4631,58.5929],[22.5503,58.6296],[22.5832,58.6345],[22.6481,58.5867],[22.6821,58.6003],[22.758,58.5929],[22.8114,58.623],[22.922,58.6174],[23.0911,58.571],[23.1483,58.5216],[23.2306,58.5048]]],[[[23.3816,58.5799],[23.4002,58.5554],[23.3622,58.5325],[23.2786,58.5464],[23.2238,58.5355],[23.0593,58.6035],[23.0628,58.6246],[23.0755,58.6298],[23.1209,58.6283],[23.1346,58.6618],[23.1546,58.6759],[23.1978,58.6806],[23.3303,58.6531],[23.3491,58.6351],[23.3475,58.6072],[23.3816,58.5799]]],[[[23.2605,57.8135],[23.2751,57.7987],[23.2702,57.7856],[23.2178,57.8009],[23.2243,57.8237],[23.2605,57.8135]]]]}},{"type":"Feature","id":"Tartu","properties":{"id":"Tartu","iso_code":"EE-78","name":"Tartu","name_full":"Tartu","name_ja":"タルトゥ県","center_lonlat":[26.8306,58.3931]},"geometry":{"type":"Polygon","coordinates":[[[27.4288,58.7094],[27.5549,58.3952],[27.4941,58.3195],[27.4828,58.2686],[27.4954,58.2215],[27.5196,58.1945],[27.2855,58.2164],[27.2438,58.2519],[27.1553,58.2514],[27.1285,58.2634],[27.0928,58.25],[27.034,58.2628],[26.9969,58.2328],[26.9505,58.2458],[26.876,58.2424],[26.8122,58.1887],[26.7201,58.1779],[26.6984,58.1901],[26.6656,58.1723],[26.6361,58.1745],[26.6386,58.1436],[26.595,58.1234],[26.5194,58.1676],[26.4189,58.1493],[26.3786,58.1754],[26.239,58.1206],[26.0715,58.1277],[26.045,58.2237],[26.0387,58.3001],[26.1654,58.4128],[26.1315,58.4847],[26.2178,58.4934],[26.3424,58.5354],[26.3795,58.5181],[26.4121,58.5342],[26.4605,58.5284],[26.5083,58.5409],[26.6174,58.522],[26.6644,58.5625],[26.7209,58.5499],[26.8118,58.5614],[26.8621,58.6331],[27.0135,58.6024],[27.0137,58.647],[27.0909,58.6762],[27.4288,58.7094]]]}},{"type":"Feature","id":"Valga","properties":{"id":"Valga","iso_code":"EE-82","name":"Valga","name_full":"Valga","name_ja":"ヴァルガ県","center_lonlat":[26.1434,57.9337]},"geometry":{"type":"Polygon","coordinates":[[[25.5518,57.9499],[25.6091,58.0101],[25.6112,58.0364],[25.6783,58.0441],[25.8149,58.0987],[25.8229,58.1267],[25.8533,58.1512],[25.8918,58.1402],[25.9299,58.1089],[26.0715,58.1277],[26.239,58.1206],[26.3786,58.1754],[26.4189,58.1493],[26.5194,58.1676],[26.595,58.1234],[26.5542,58.0763],[26.5402,57.9556],[26.3924,57.9403],[26.3832,57.9052],[26.3649,57.8876],[26.4028,57.8644],[26.3899,57.8453],[26.393,57.8091],[26.4561,57.7842],[26.452,57.7634],[26.4283,57.7498],[26.4356,57.7264],[26.4687,57.7006],[26.4256,57.6664],[26.4616,57.6412],[26.4252,57.6125],[26.4307,57.5618],[26.2972,57.5991],[26.1685,57.7041],[26.0247,57.7744],[26.0131,57.8073],[26.0253,57.8284],[26.0145,57.8428],[25.7926,57.856],[25.7675,57.8689],[25.7303,57.9231],[25.6015,57.9122],[25.5583,57.9342],[25.5518,57.9499]]]}},{"type":"Feature","id":"Viljandi","properties":{"id":"Viljandi","iso_code":"EE-84","name":"Viljandi","name_full":"Viljandi","name_ja":"ヴィリャンディ県","center_lonlat":[25.558,58.3368]},"geometry":{"type":"Polygon","coordinates":[[[25.0349,58.0486],[25.0115,58.0911],[25.0602,58.1254],[25.1123,58.126],[25.0903,58.152],[25.1096,58.1655],[25.1416,58.1643],[25.1373,58.1892],[25.1522,58.2018],[25.2298,58.2004],[25.2318,58.2527],[25.2495,58.2637],[25.1206,58.3226],[25.0216,58.3347],[24.9904,58.3185],[24.9669,58.3237],[24.955,58.3363],[24.9766,58.3889],[24.973,58.4111],[25.0067,58.4349],[24.9876,58.4859],[25.0321,58.5157],[25.232,58.588],[25.225,58.6196],[25.2585,58.6333],[25.349,58.6151],[25.4378,58.6137],[25.7771,58.6898],[25.7917,58.6355],[25.7507,58.6071],[25.9166,58.5965],[25.9686,58.5594],[26.0128,58.5568],[26.0643,58.5136],[26.1315,58.4847],[26.1654,58.4128],[26.0387,58.3001],[26.045,58.2237],[26.0715,58.1277],[25.9299,58.1089],[25.8918,58.1402],[25.8533,58.1512],[25.8229,58.1267],[25.8149,58.0987],[25.6783,58.0441],[25.6112,58.0364],[25.6091,58.0101],[25.5518,57.9499],[25.532,57.9664],[25.4572,57.9841],[25.3966,58.0232],[25.3246,58.0348],[25.2817,58.0734],[25.2507,58.0685],[25.2495,58.0512],[25.2844,58.0081],[25.2325,57.9854],[25.2021,57.992],[25.167,58.0587],[25.141,58.068],[25.0706,58.0636],[25.0349,58.0486]]]}},{"type":"Feature","id":"Voru","properties":{"id":"Voru","iso_code":"EE-86","name":"Voru","name_full":"Võru","name_ja":"ヴォル県","center_lonlat":[26.9109,57.7475]},"geometry":{"type":"Polygon","coordinates":[[[26.4307,57.5618],[26.4252,57.6125],[26.4616,57.6412],[26.4256,57.6664],[26.4687,57.7006],[26.4356,57.7264],[26.4283,57.7498],[26.452,57.7634],[26.4561,57.7842],[26.393,57.8091],[26.3899,57.8453],[26.4028,57.8644],[26.3649,57.8876],[26.3832,57.9052],[26.3924,57.9403],[26.5402,57.9556],[26.6045,57.9402],[26.6825,57.9446],[26.7669,57.9302],[26.928,57.9405],[27.0391,57.9179],[27.0422,57.9455],[27.095,57.9571],[27.2314,57.9124],[27.2809,57.9175],[27.299,57.8922],[27.2652,57.876],[27.2492,57.8531],[27.2984,57.8316],[27.3942,57.8444],[27.5563,57.8131],[27.5246,57.8073],[27.5539,57.7948],[27.5024,57.7725],[27.5078,57.7148],[27.3847,57.6744],[27.3849,57.607],[27.328,57.5832],[27.3529,57.5276],[27.32,57.5161],[27.1657,57.5467],[27.0854,57.5494],[26.9811,57.609],[26.8961,57.615],[26.8727,57.6272],[26.7958,57.5713],[26.667,57.5649],[26.5799,57.5178],[26.5422,57.5282],[26.4995,57.5158],[26.4307,57.5618]]]}}]}
