{"type":"FeatureCollection","features":[{"type":"Feature","id":"Hhohho","properties":{"id":"Hhohho","iso_code":"SZ-HH","name":"Hhohho","name_full":"Hhohho","name_ja":"ホホ","center_lonlat":[31.3184,-26.0824]},"geometry":{"type":"Polygon","coordinates":[[[31.747,-25.9308],[31.6688,-25.9522],[31.6797,-26.1175],[31.6698,-26.1519],[31.5621,-26.1712],[31.5087,-26.2164],[31.4901,-26.2512],[31.4088,-26.2812],[31.3603,-26.2789],[31.2911,-26.314],[31.2862,-26.3545],[31.268,-26.375],[31.2687,-26.4462],[31.253,-26.4565],[31.1921,-26.4255],[31.083,-26.4169],[31.0568,-26.3807],[30.8973,-26.2917],[30.9699,-26.2091],[31.0378,-26.1001],[31.1198,-25.91],[31.3374,-25.7447],[31.4269,-25.7436],[31.747,-25.9308]]]}},{"type":"Feature","id":"Lubombo","properties":{"id":"Lubombo","iso_code":"SZ-LU","name":"Lubombo","name_full":"Lubombo","name_ja":"ルボンボ","center_lonlat":[31.8319,-26.5388]},"geometry":{"type":"Polygon","coordinates":[[[31.9442,-27.1623],[31.9106,-27.16],[31.9061,-27.1404],[31.8657,-27.1346],[31.8625,-27.1043],[31.8006,-27.0856],[31.7708,-27.0357],[31.6952,-27.037],[31.5813,-26.9624],[31.5387,-26.9573],[31.4966,-26.8968],[31.5453,-26.8225],[31.5584,-26.7679],[31.4882,-26.7621],[31.5225,-26.6619],[31.6001,-26.6162],[31.5787,-26.5204],[31.6077,-26.5047],[31.606,-26.4085],[31.6771,-26.3309],[31.6977,-26.2491],[31.6698,-26.1519],[31.6797,-26.1175],[31.6688,-25.9522],[31.747,-25.9308],[31.8634,-25.9899],[31.9492,-25.9581],[32.004,-25.9944],[32.0706,-26.0098],[32.0575,-26.0412],[32.0814,-26.1488],[32.0399,-26.2837],[32.0598,-26.4148],[32.1071,-26.5003],[32.1174,-26.5823],[32.1139,-26.84],[32.0732,-26.8114],[31.9901,-26.8083],[31.9421,-27.1007],[31.9442,-27.1623]]]}},{"type":"Feature","id":"Manzini","properties":{"id":"Manzini","iso_code":"SZ-MA","name":"Manzini","name_full":"Manzini","name_ja":"マンジニ地方","center_lonlat":[31.2233,-26.5381]},"geometry":{"type":"Polygon","coordinates":[[[30.8973,-26.2917],[31.0568,-26.3807],[31.083,-26.4169],[31.1921,-26.4255],[31.253,-26.4565],[31.2687,-26.4462],[31.268,-26.375],[31.2862,-26.3545],[31.2911,-26.314],[31.3603,-26.2789],[31.4088,-26.2812],[31.4901,-26.2512],[31.5087,-26.2164],[31.5621,-26.1712],[31.6698,-26.1519],[31.6977,-26.2491],[31.6771,-26.3309],[31.606,-26.4085],[31.6077,-26.5047],[31.5787,-26.5204],[31.6001,-26.6162],[31.5225,-26.6619],[31.4882,-26.7621],[31.4274,-26.7595],[31.3903,-26.7873],[31.3273,-26.7973],[31.2998,-26.8463],[31.2226,-26.8078],[31.171,-26.8199],[31.0686,-26.8777],[31.0725,-26.8479],[31.0556,-26.8266],[31.0573,-26.7883],[31.0438,-26.7701],[30.9678,-26.7759],[30.9386,-26.7603],[30.8853,-26.7856],[30.8802,-26.7722],[30.8364,-26.8051],[30.8024,-26.8089],[30.7857,-26.7169],[30.7829,-26.4724],[30.8046,-26.3975],[30.8973,-26.2917]]]}},{"type":"Feature","id":"Shiselweni","properties":{"id":"Shiselweni","iso_code":"SZ-SH","name":"Shiselweni","name_full":"Shiselweni","name_ja":"シセルウェニ","center_lonlat":[31.4122,-27.0591]},"geometry":{"type":"Polygon","coordinates":[[[30.8853,-26.7856],[30.9386,-26.7603],[30.9678,-26.7759],[31.0438,-26.7701],[31.0573,-26.7883],[31.0556,-26.8266],[31.0725,-26.8479],[31.0686,-26.8777],[31.171,-26.8199],[31.2226,-26.8078],[31.2998,-26.8463],[31.3273,-26.7973],[31.3903,-26.7873],[31.4274,-26.7595],[31.4882,-26.7621],[31.5584,-26.7679],[31.5453,-26.8225],[31.4966,-26.8968],[31.5387,-26.9573],[31.5813,-26.9624],[31.6952,-27.037],[31.7708,-27.0357],[31.8006,-27.0856],[31.8625,-27.1043],[31.8657,-27.1346],[31.9061,-27.1404],[31.9106,-27.16],[31.9442,-27.1623],[31.9474,-27.2555],[31.9683,-27.3163],[31.5265,-27.3109],[31.157,-27.2056],[31.0788,-27.1182],[30.9761,-27.035],[30.9536,-27.0003],[30.9551,-26.8914],[30.9026,-26.8313],[30.8853,-26.7856]]]}}]}
