{"type":"FeatureCollection","features":[{"type":"Feature","id":"Addis Ababa","properties":{"id":"Addis Ababa","iso_code":"ET-AA","name":"Addis Ababa","name_full":"Addis Ababa","name_ja":"アディスアベバ","center_lonlat":[38.7859,8.9767]},"geometry":{"type":"Polygon","coordinates":[[[38.8183,9.0969],[38.83,9.0789],[38.8765,9.0777],[38.9079,8.9845],[38.8999,8.9375],[38.8579,8.9454],[38.8747,8.8755],[38.8346,8.8679],[38.8166,8.8326],[38.7764,8.8458],[38.6938,8.9136],[38.655,8.9966],[38.7101,9.0815],[38.7752,9.0956],[38.792,9.0745],[38.8183,9.0969]]]}},{"type":"Feature","id":"Afar","properties":{"id":"Afar","iso_code":"ET-AF","name":"Afar","name_full":"Afar","name_ja":"アファール州","center_lonlat":[40.7556,12.0315]},"geometry":{"type":"Polygon","coordinates":[[[41.7665,10.9895],[41.6911,10.9643],[41.2923,10.9671],[41.2504,10.9398],[41.2325,10.8614],[41.2041,10.8156],[41.1268,10.7407],[41.0833,10.6793],[41.0866,10.5912],[40.9432,10.047],[40.9521,9.9967],[41.0218,9.9511],[40.826,9.7597],[40.7371,9.6236],[40.6951,9.4444],[40.6417,9.4026],[40.5279,9.3824],[40.4636,9.3429],[40.4053,9.2776],[40.3239,9.1514],[40.2608,9.0898],[40.2369,9.0063],[40.188,8.9702],[40.155,8.9677],[40.1201,8.9043],[40.039,8.8429],[40.0264,8.8465],[40.0206,8.8688],[40.0445,8.935],[40.0442,8.9785],[40.0258,8.9985],[39.9499,9.0059],[39.9534,9.0246],[39.9307,9.0564],[39.9113,9.1341],[39.8907,9.1449],[39.8107,9.139],[39.8942,9.2682],[39.8953,9.3153],[39.7947,9.3768],[39.7974,9.3929],[39.869,9.4596],[39.8883,9.5046],[39.8922,9.6068],[39.8555,9.701],[39.8524,9.7411],[39.8927,9.7516],[40.0154,9.7281],[40.0291,9.7559],[40.0128,9.8042],[40.0773,9.8977],[40.0865,9.9571],[40.077,9.9785],[40.0045,10.0273],[39.9901,10.0658],[40.0171,10.104],[40.1317,10.1041],[40.1209,10.203],[40.1779,10.4892],[40.1538,10.5676],[40.164,10.6625],[40.1268,10.713],[40.1149,10.762],[40.1651,10.8869],[40.1286,10.9408],[40.1849,11.0251],[40.1966,11.0757],[40.172,11.2106],[40.1319,11.2829],[40.0674,11.3523],[40.0613,11.4658],[40.0002,11.5806],[39.9877,11.6536],[39.9365,11.6913],[39.8832,11.7751],[39.8835,11.9193],[39.8503,11.9473],[39.8327,11.9823],[39.8264,12.0555],[39.8017,12.0957],[39.8028,12.135],[39.7622,12.2432],[39.7797,12.325],[39.7974,12.3402],[39.8081,12.3833],[39.7883,12.4745],[39.7926,12.5245],[39.8043,12.5661],[39.8755,12.6682],[39.8919,12.7611],[39.8603,12.8335],[39.7867,12.8647],[39.7545,12.8942],[39.7691,12.9718],[39.7654,13.0384],[39.7913,13.0531],[39.8078,13.0878],[39.7886,13.1173],[39.7731,13.1938],[39.7232,13.2526],[39.7442,13.3908],[39.7241,13.4815],[39.7562,13.5714],[39.7941,13.5539],[39.823,13.5717],[39.828,13.6146],[39.7976,13.7353],[39.8196,13.9302],[39.7921,13.9736],[39.7957,14.0418],[39.7849,14.0802],[39.7726,14.091],[39.7313,14.0829],[39.7236,14.1012],[39.7614,14.1453],[39.6904,14.1651],[39.7202,14.2349],[39.7684,14.2955],[39.753,14.3092],[39.692,14.304],[39.6682,14.3245],[39.7348,14.3736],[39.8044,14.3867],[39.9636,14.3684],[39.9841,14.3978],[39.9825,14.4452],[39.9998,14.4552],[40.1046,14.466],[40.2377,14.4274],[40.4216,14.2738],[40.5859,14.1947],[40.7723,14.1484],[40.8332,14.106],[41.0436,13.8725],[41.192,13.6159],[41.5307,13.3938],[41.7118,13.2479],[41.7848,13.1646],[41.8943,12.948],[41.9466,12.8762],[42.1373,12.7733],[42.1849,12.733],[42.2502,12.624],[42.3795,12.4659],[42.1323,12.0935],[42.0977,12.0702],[41.9364,11.8274],[41.8778,11.7901],[41.8623,11.7631],[41.8082,11.7362],[41.7924,11.7045],[41.7491,11.538],[41.788,11.2597],[41.7856,11.0674],[41.7665,10.9895]]]}},{"type":"Feature","id":"Amhara","properties":{"id":"Amhara","iso_code":"ET-AM","name":"Amhara","name_full":"Amhara","name_ja":"アムハラ州","center_lonlat":[38.0473,11.5832]},"geometry":{"type":"Polygon","coordinates":[[[36.4399,13.7762],[36.5385,13.5991],[36.7062,13.558],[36.8963,13.3966],[37.032,13.3734],[37.0531,13.3728],[37.1325,13.4223],[37.1931,13.4318],[37.2478,13.4144],[37.299,13.3699],[37.5159,13.3674],[37.6703,13.444],[37.7187,13.5481],[37.7423,13.5656],[37.8916,13.5395],[38.0585,13.4688],[38.1113,13.4965],[38.1365,13.5249],[38.2811,13.5126],[38.3799,13.5258],[38.4357,13.582],[38.4638,13.5872],[38.4853,13.5371],[38.4549,13.4678],[38.5839,13.4974],[38.6751,13.4917],[38.705,13.3936],[38.7461,13.3749],[38.9958,13.1271],[39.0144,13.015],[39.0452,13.0034],[39.2055,13.0236],[39.2243,13.0158],[39.2655,12.8534],[39.2637,12.7978],[39.1903,12.6659],[39.1847,12.6324],[39.233,12.4964],[39.248,12.364],[39.2727,12.3126],[39.2989,12.2963],[39.3727,12.2991],[39.3775,12.3251],[39.408,12.3323],[39.5337,12.3277],[39.5457,12.2909],[39.5391,12.2511],[39.6296,12.3038],[39.7797,12.325],[39.7622,12.2432],[39.8028,12.135],[39.8017,12.0957],[39.8264,12.0555],[39.8327,11.9823],[39.8503,11.9473],[39.8835,11.9193],[39.8832,11.7751],[39.9365,11.6913],[39.9877,11.6536],[40.0002,11.5806],[40.0613,11.4658],[40.0674,11.3523],[40.1319,11.2829],[40.172,11.2106],[40.1966,11.0757],[40.1849,11.0251],[40.1286,10.9408],[40.1651,10.8869],[40.1149,10.762],[40.1268,10.713],[40.164,10.6625],[40.1538,10.5676],[40.1779,10.4892],[40.1209,10.203],[40.1317,10.1041],[40.0171,10.104],[39.9901,10.0658],[40.0045,10.0273],[40.077,9.9785],[40.0865,9.9571],[40.0773,9.8977],[40.0128,9.8042],[40.0291,9.7559],[40.0154,9.7281],[39.8927,9.7516],[39.8524,9.7411],[39.8555,9.701],[39.8922,9.6068],[39.8883,9.5046],[39.869,9.4596],[39.7974,9.3929],[39.7947,9.3768],[39.8953,9.3153],[39.8942,9.2682],[39.8107,9.139],[39.7662,9.1035],[39.769,8.9001],[39.7588,8.8714],[39.5218,8.7561],[39.4963,8.7701],[39.4606,8.8245],[39.4301,8.8351],[39.3634,8.7793],[39.3111,8.7906],[39.2789,8.8559],[39.2762,8.9488],[39.3627,9.0874],[39.3716,9.1498],[39.2774,9.1927],[39.2516,9.2906],[39.3842,9.3052],[39.446,9.3461],[39.5084,9.3389],[39.4429,9.4079],[39.4468,9.4322],[39.3363,9.4556],[39.2203,9.6309],[39.1043,9.6811],[38.9218,9.7177],[38.858,9.749],[38.8076,9.8341],[38.7968,9.94],[38.7573,9.9841],[38.6656,10.0313],[38.6634,10.0613],[38.7037,10.053],[38.742,10.0617],[38.821,10.1112],[38.8636,10.3119],[38.8648,10.3484],[38.8472,10.3627],[38.7315,10.3822],[38.4979,10.3709],[38.483,10.3537],[38.4563,10.2458],[38.4264,10.2178],[38.4351,10.1725],[38.4188,10.1421],[38.371,10.1269],[38.3116,10.1342],[38.2463,10.1165],[38.1922,10.0554],[38.1231,10.0355],[37.9348,9.9369],[37.8976,9.9304],[37.867,9.8985],[37.7961,9.8593],[37.7621,9.8617],[37.7028,9.8428],[37.6093,9.9118],[37.5314,10.0067],[37.4359,10.0484],[37.3677,10.0625],[37.3528,10.0571],[37.3335,10.0184],[37.3147,10.0218],[37.2892,10.0946],[37.2195,10.1048],[37.1861,10.1345],[37.173,10.1682],[37.1996,10.227],[37.1963,10.2543],[37.1137,10.2617],[37.0461,10.3027],[36.7943,10.3517],[36.7568,10.3766],[36.5543,10.3793],[36.5209,10.4059],[36.5221,10.4582],[36.5117,10.4728],[36.4161,10.4539],[36.3501,10.5264],[36.3277,10.6243],[36.3928,10.771],[36.3794,10.788],[36.3569,10.7882],[36.3116,10.7464],[36.312,10.8228],[36.3519,10.9288],[36.4642,11.0342],[36.4889,11.0778],[36.459,11.1409],[36.4708,11.1709],[36.4612,11.2303],[36.5048,11.3063],[36.5073,11.3459],[36.4059,11.4372],[36.446,11.494],[36.3408,11.6421],[36.334,11.8084],[36.2722,11.7732],[36.1905,11.6952],[36.1516,11.6811],[36.1316,11.6905],[36.0992,11.8098],[35.9592,11.9874],[35.9299,12.0059],[35.8602,12.0138],[35.8376,12.0343],[35.7592,12.0333],[35.716,11.9464],[35.5443,11.8069],[35.4112,11.784],[35.3663,11.7957],[35.3131,11.8463],[35.2749,11.9357],[35.2484,11.9579],[35.2604,11.9804],[35.3174,12.0237],[35.3537,12.146],[35.4125,12.1986],[35.4288,12.267],[35.6169,12.5752],[35.6724,12.6043],[35.6877,12.6592],[35.7284,12.6744],[36.03,12.7172],[36.0994,12.6957],[36.115,12.7018],[36.1433,12.8326],[36.1144,12.9339],[36.1499,12.9802],[36.1369,13.0324],[36.2336,13.3616],[36.3821,13.571],[36.3984,13.676],[36.4399,13.7762]]]}},{"type":"Feature","id":"Benishangul-Gumuz","properties":{"id":"Benishangul-Gumuz","iso_code":"ET-BE","name":"Benishangul-Gumuz","name_full":"Benishangul-Gumuz","name_ja":"ベニシャングル・グムズ州","center_lonlat":[35.4529,10.5834]},"geometry":{"type":"MultiPolygon","coordinates":[[[[35.2484,11.9579],[35.2749,11.9357],[35.3131,11.8463],[35.3663,11.7957],[35.4112,11.784],[35.5443,11.8069],[35.716,11.9464],[35.7592,12.0333],[35.8376,12.0343],[35.8602,12.0138],[35.9299,12.0059],[35.9592,11.9874],[36.0992,11.8098],[36.1316,11.6905],[36.1516,11.6811],[36.1905,11.6952],[36.2722,11.7732],[36.334,11.8084],[36.3408,11.6421],[36.446,11.494],[36.4059,11.4372],[36.5073,11.3459],[36.5048,11.3063],[36.4612,11.2303],[36.4708,11.1709],[36.459,11.1409],[36.4889,11.0778],[36.4642,11.0342],[36.3519,10.9288],[36.312,10.8228],[36.3116,10.7464],[36.3569,10.7882],[36.3794,10.788],[36.3928,10.771],[36.3277,10.6243],[36.3501,10.5264],[36.4161,10.4539],[36.5117,10.4728],[36.5221,10.4582],[36.5209,10.4059],[36.5543,10.3793],[36.7568,10.3766],[36.7943,10.3517],[37.0461,10.3027],[37.0164,10.2298],[36.9934,10.2095],[36.8714,10.2427],[36.7348,10.3083],[36.6467,10.265],[36.6115,10.2092],[36.5904,10.2056],[36.5335,10.2288],[36.5705,10.3379],[36.5024,10.3353],[36.4266,10.2738],[36.3255,10.1327],[36.1966,10.0475],[36.1575,10.039],[36.1281,10.0515],[36.1302,9.7815],[36.1478,9.7167],[36.1184,9.6803],[36.2637,9.5348],[36.2701,9.4799],[36.2298,9.3277],[36.0839,9.1387],[36.0615,9.148],[36.0471,9.2104],[36.0314,9.2293],[35.9883,9.2273],[35.9782,9.2396],[35.9267,9.3348],[35.8043,9.3461],[35.7939,9.3586],[35.7924,9.4264],[35.7588,9.4876],[35.7037,9.4816],[35.518,9.6951],[35.2792,9.9223],[35.1723,9.9436],[35.0354,9.9348],[35.0193,10.0112],[34.8751,10.0256],[34.8695,10.0169],[34.902,9.963],[34.8437,9.782],[34.8051,9.7114],[34.6928,9.5914],[34.6616,9.5873],[34.5661,9.6571],[34.4893,9.6536],[34.4641,9.6391],[34.4439,9.4546],[34.4051,9.2808],[34.3636,9.2038],[34.3167,9.1883],[34.0831,9.2051],[34.0669,9.5312],[34.0982,9.6797],[34.2219,10.026],[34.3035,10.1135],[34.3018,10.1603],[34.3259,10.2236],[34.2762,10.4887],[34.2795,10.5655],[34.42,10.7808],[34.5578,10.8778],[34.5871,10.8793],[34.7507,10.7439],[34.7544,10.6841],[34.7648,10.6803],[34.7985,10.7297],[34.8385,10.7291],[34.8616,10.7876],[34.9507,10.8692],[34.9528,10.9184],[34.9136,10.953],[34.9841,11.1864],[34.954,11.2261],[34.9471,11.2749],[35.0769,11.5686],[35.0463,11.6486],[35.0412,11.7476],[35.088,11.8382],[35.2156,11.8966],[35.2457,11.9299],[35.2484,11.9579]]],[[[36.0644,9.0352],[36.1777,9.0165],[36.1873,9.0102],[36.1722,8.9904],[36.1913,8.9672],[36.2291,8.9661],[36.215,8.8867],[36.2177,8.8652],[36.2415,8.8462],[36.2272,8.8262],[36.2457,8.7871],[36.2113,8.7974],[36.2052,8.8315],[36.161,8.878],[36.1217,8.8437],[36.0859,8.8568],[36.0392,8.847],[36.0122,8.8645],[36.0094,8.9317],[36.0388,8.9741],[36.0418,9.024],[36.0644,9.0352]]],[[[36.4419,9.5222],[36.4926,9.4937],[36.4974,9.4737],[36.4497,9.4484],[36.4394,9.429],[36.4648,9.3607],[36.4314,9.3668],[36.4111,9.3392],[36.3757,9.4376],[36.3918,9.491],[36.4419,9.5222]]],[[[36.2898,8.997],[36.3355,8.9604],[36.2775,8.9324],[36.2376,8.9621],[36.2898,8.997]]]]}},{"type":"Feature","id":"Dire Dawa","properties":{"id":"Dire Dawa","iso_code":"ET-DD","name":"Dire Dawa","name_full":"Dire Dawa","name_ja":"ディレ・ダワ","center_lonlat":[42.0085,9.6065]},"geometry":{"type":"Polygon","coordinates":[[[42.341,9.7204],[42.2695,9.6642],[42.2017,9.652],[42.1337,9.6173],[42.1517,9.5658],[42.1473,9.5419],[42.0767,9.4749],[42.0171,9.5045],[41.9901,9.5051],[41.9224,9.4772],[41.8693,9.4891],[41.7682,9.4878],[41.7369,9.4738],[41.7406,9.5849],[41.763,9.6401],[41.8185,9.6475],[41.892,9.6839],[41.9955,9.6352],[42.0404,9.629],[42.1563,9.7441],[42.2031,9.7744],[42.2543,9.7806],[42.3027,9.7626],[42.341,9.7204]]]}},{"type":"Feature","id":"Gambela","properties":{"id":"Gambela","iso_code":"ET-GA","name":"Gambela","name_full":"Gambela","name_ja":"ガンベラ州","center_lonlat":[34.2218,7.8207]},"geometry":{"type":"Polygon","coordinates":[[[34.1073,8.6015],[34.1614,8.5624],[34.2451,8.6077],[34.3016,8.5922],[34.4886,8.4359],[34.5892,8.3859],[34.6745,8.2884],[34.7825,8.249],[34.8184,8.1919],[34.8761,8.1809],[35.0061,8.1945],[35.0599,8.1877],[35.0904,8.1655],[35.0827,8.1513],[34.8925,8.0575],[34.9557,8.0207],[34.8873,7.9186],[34.8706,7.8773],[34.8714,7.8303],[34.8921,7.7873],[34.9935,7.6966],[35.018,7.6074],[35.1469,7.5477],[35.1039,7.4832],[35.1967,7.4635],[35.2527,7.5002],[35.2635,7.5396],[35.2725,7.4785],[35.3416,7.4419],[35.3656,7.4055],[35.3233,7.204],[35.3374,7.1562],[35.3299,7.1325],[35.2483,7.1407],[35.1572,7.1153],[35.065,7.1643],[35.0291,7.1344],[34.9859,7.136],[34.9732,7.1121],[34.9469,7.1044],[34.82,7.0995],[34.7176,7.0281],[34.6623,7.0127],[34.5986,7.0178],[34.5131,7.0717],[34.4758,7.0806],[34.3996,7.0726],[34.3256,7.0465],[34.2997,7.049],[34.218,7.107],[34.1958,7.0977],[34.1814,7.1672],[34.1678,7.1754],[34.1324,7.1634],[34.0336,7.2503],[34.0306,7.3487],[34.0065,7.4099],[33.8824,7.5361],[33.8115,7.561],[33.7611,7.5981],[33.7161,7.6572],[33.6372,7.6913],[33.5509,7.6913],[33.5168,7.7261],[33.4623,7.7495],[33.3933,7.7397],[33.3471,7.719],[33.2916,7.7331],[33.2339,7.7832],[33.1645,7.8011],[33.1209,7.7833],[33.0583,7.798],[33.0235,7.8351],[32.9898,7.9172],[33.0311,7.9963],[33.1175,8.1042],[33.1648,8.1171],[33.1851,8.1411],[33.1699,8.2055],[33.2083,8.2537],[33.1644,8.2928],[33.1741,8.3431],[33.1619,8.3615],[33.1741,8.4045],[33.2029,8.4141],[33.2352,8.4556],[33.3614,8.4343],[33.3921,8.4519],[33.4805,8.4576],[33.4848,8.474],[33.5051,8.4749],[33.5521,8.4468],[33.6204,8.4607],[33.6955,8.3729],[33.7519,8.3688],[33.8241,8.4195],[33.9317,8.4281],[33.9708,8.4454],[34.0902,8.5565],[34.1073,8.6015]]]}},{"type":"Feature","id":"Harari","properties":{"id":"Harari","iso_code":"ET-HA","name":"Harari","name_full":"Harari","name_ja":"ハラリ州","center_lonlat":[42.1767,9.2905]},"geometry":{"type":"Polygon","coordinates":[[[42.2566,9.3848],[42.2719,9.3629],[42.2516,9.2723],[42.2741,9.2179],[42.2659,9.1988],[42.2487,9.1887],[42.192,9.2214],[42.1508,9.2085],[42.1188,9.2319],[42.0637,9.2298],[42.0763,9.3086],[42.1287,9.3837],[42.1897,9.364],[42.2566,9.3848]]]}},{"type":"Feature","id":"Oromia","properties":{"id":"Oromia","iso_code":"ET-OR","name":"Oromia","name_full":"Oromia","name_ja":"オロミア州","center_lonlat":[38.7039,7.5195]},"geometry":{"type":"Polygon","coordinates":[[[34.1073,8.6015],[34.0831,9.2051],[34.3167,9.1883],[34.3636,9.2038],[34.4051,9.2808],[34.4439,9.4546],[34.4641,9.6391],[34.4893,9.6536],[34.5661,9.6571],[34.6616,9.5873],[34.6928,9.5914],[34.8051,9.7114],[34.8437,9.782],[34.902,9.963],[34.8695,10.0169],[34.8751,10.0256],[35.0193,10.0112],[35.0354,9.9348],[35.1723,9.9436],[35.2792,9.9223],[35.518,9.6951],[35.7037,9.4816],[35.7588,9.4876],[35.7924,9.4264],[35.7939,9.3586],[35.8043,9.3461],[35.9267,9.3348],[35.9782,9.2396],[35.9883,9.2273],[36.0314,9.2293],[36.0471,9.2104],[36.0615,9.148],[36.0839,9.1387],[36.2298,9.3277],[36.2701,9.4799],[36.2637,9.5348],[36.1184,9.6803],[36.1478,9.7167],[36.1302,9.7815],[36.1281,10.0515],[36.1575,10.039],[36.1966,10.0475],[36.3255,10.1327],[36.4266,10.2738],[36.5024,10.3353],[36.5705,10.3379],[36.5335,10.2288],[36.5904,10.2056],[36.6115,10.2092],[36.6467,10.265],[36.7348,10.3083],[36.8714,10.2427],[36.9934,10.2095],[37.0164,10.2298],[37.0461,10.3027],[37.1137,10.2617],[37.1963,10.2543],[37.1996,10.227],[37.173,10.1682],[37.1861,10.1345],[37.2195,10.1048],[37.2892,10.0946],[37.3147,10.0218],[37.3335,10.0184],[37.3528,10.0571],[37.3677,10.0625],[37.4359,10.0484],[37.5314,10.0067],[37.6093,9.9118],[37.7028,9.8428],[37.7621,9.8617],[37.7961,9.8593],[37.867,9.8985],[37.8976,9.9304],[37.9348,9.9369],[38.1231,10.0355],[38.1922,10.0554],[38.2463,10.1165],[38.3116,10.1342],[38.371,10.1269],[38.4188,10.1421],[38.4351,10.1725],[38.4264,10.2178],[38.4563,10.2458],[38.483,10.3537],[38.4979,10.3709],[38.7315,10.3822],[38.8472,10.3627],[38.8648,10.3484],[38.8636,10.3119],[38.821,10.1112],[38.742,10.0617],[38.7037,10.053],[38.6634,10.0613],[38.6656,10.0313],[38.7573,9.9841],[38.7968,9.94],[38.8076,9.8341],[38.858,9.749],[38.9218,9.7177],[39.1043,9.6811],[39.2203,9.6309],[39.3363,9.4556],[39.4468,9.4322],[39.4429,9.4079],[39.5084,9.3389],[39.446,9.3461],[39.3842,9.3052],[39.2516,9.2906],[39.2774,9.1927],[39.3716,9.1498],[39.3627,9.0874],[39.2762,8.9488],[39.2789,8.8559],[39.3111,8.7906],[39.3634,8.7793],[39.4301,8.8351],[39.4606,8.8245],[39.4963,8.7701],[39.5218,8.7561],[39.7588,8.8714],[39.769,8.9001],[39.7662,9.1035],[39.8107,9.139],[39.8907,9.1449],[39.9113,9.1341],[39.9307,9.0564],[39.9534,9.0246],[39.9499,9.0059],[40.0258,8.9985],[40.0442,8.9785],[40.0445,8.935],[40.0206,8.8688],[40.0264,8.8465],[40.039,8.8429],[40.1201,8.9043],[40.155,8.9677],[40.188,8.9702],[40.2369,9.0063],[40.2608,9.0898],[40.3239,9.1514],[40.4053,9.2776],[40.4636,9.3429],[40.5279,9.3824],[40.6417,9.4026],[40.6951,9.4444],[40.8669,9.457],[40.9145,9.4292],[40.924,9.409],[40.9105,9.3959],[40.7977,9.3946],[40.8092,9.3287],[40.8464,9.3071],[41.0111,9.3582],[41.1718,9.4446],[41.2309,9.4966],[41.2699,9.5059],[41.4932,9.4597],[41.5665,9.5092],[41.6152,9.5176],[41.6375,9.514],[41.6863,9.47],[41.7369,9.4738],[41.7682,9.4878],[41.8693,9.4891],[41.9224,9.4772],[41.9901,9.5051],[42.0171,9.5045],[42.0767,9.4749],[42.1473,9.5419],[42.1517,9.5658],[42.1337,9.6173],[42.2017,9.652],[42.2695,9.6642],[42.341,9.7204],[42.3809,9.7083],[42.3935,9.6656],[42.3871,9.5677],[42.4188,9.5616],[42.455,9.5252],[42.5519,9.3515],[42.5923,9.2102],[42.6259,9.1643],[42.6257,9.1198],[42.644,9.0802],[42.7053,8.9832],[42.8569,8.8404],[42.8655,8.8003],[42.8333,8.7073],[42.844,8.6623],[42.9059,8.5898],[42.9134,8.511],[42.8969,8.4124],[42.7704,8.3655],[42.7438,8.3273],[42.7039,8.1819],[42.6684,8.1408],[42.6345,8.1476],[42.5804,8.2308],[42.5334,8.4504],[42.5036,8.4925],[42.4466,8.5162],[42.3267,8.5387],[42.2741,8.6228],[42.2071,8.6048],[42.1127,8.5252],[42.0323,8.4337],[42.0293,8.3252],[41.9612,8.22],[41.9313,8.1156],[41.9177,7.8736],[41.9534,7.7514],[41.8765,7.5525],[41.8751,7.5108],[41.9015,7.4123],[42.2075,7.293],[42.2271,7.2227],[42.2084,7.13],[42.1846,7.091],[42.1829,7.0446],[42.137,6.9516],[42.0931,6.9192],[42.0688,6.8144],[42.0791,6.7957],[42.0414,6.7319],[42.0242,6.6622],[41.9858,6.5957],[41.9315,6.5525],[41.8611,6.5371],[41.8458,6.5699],[41.8068,6.566],[41.7637,6.5413],[41.7019,6.4448],[41.622,6.364],[41.4593,6.5294],[41.4161,6.5569],[41.3414,6.5728],[41.122,6.6927],[41.0735,6.6902],[41.0284,6.6563],[40.9044,6.5123],[40.8585,6.4199],[40.8836,6.238],[40.8655,6.1104],[40.8801,5.8117],[40.9225,5.6995],[40.7043,5.5654],[40.5288,5.4155],[40.1874,5.3546],[40.1154,5.3688],[40.0511,5.3997],[40.0145,5.3832],[39.9195,5.2465],[39.8204,5.0151],[39.7704,4.8515],[39.742,4.657],[39.5851,4.2938],[39.5415,4.2345],[39.4838,4.041],[39.4986,3.9797],[39.4698,3.9175],[39.3007,3.6426],[39.0952,3.5363],[39.1021,3.5287],[39.0904,3.5183],[39.0679,3.5266],[38.8952,3.5136],[38.722,3.5604],[38.661,3.622],[38.6603,3.5945],[38.5471,3.6095],[38.509,3.6508],[38.4969,3.6239],[38.446,3.6017],[38.3899,3.5969],[38.1769,3.6209],[38.1019,3.6126],[38.0362,3.6489],[37.9767,3.7264],[37.0948,4.2849],[37.0759,4.3311],[37.0484,4.332],[37.0157,4.3706],[36.8441,4.4322],[36.6489,4.4312],[36.7206,4.4732],[36.7569,4.5605],[36.9027,4.7782],[36.909,4.8362],[36.8744,4.959],[36.9208,5.1079],[36.9715,5.1861],[37.0187,5.2017],[37.1185,5.1901],[37.2291,5.2044],[37.2856,5.1944],[37.3507,5.1621],[37.4035,5.1652],[37.6226,5.2644],[37.6482,5.2958],[37.6857,5.313],[37.8044,5.2749],[37.862,5.2352],[37.9006,5.2493],[37.9046,5.3603],[37.9525,5.4975],[37.944,5.6367],[38.073,5.6898],[38.0917,5.7308],[38.0848,5.7544],[38.0261,5.7901],[37.9717,5.9421],[37.7942,6.0087],[37.7875,6.0226],[37.7799,6.1463],[37.8361,6.2438],[37.8573,6.348],[37.8043,6.4248],[37.8025,6.4666],[37.8844,6.5901],[37.9023,6.5909],[37.9304,6.5686],[38.0215,6.5745],[38.1229,6.504],[38.1675,6.4574],[38.2403,6.4657],[38.2943,6.4289],[38.2964,6.3873],[38.2711,6.3508],[38.1948,6.3121],[38.1768,6.2538],[38.1955,6.2161],[38.193,6.1916],[38.1766,6.1693],[38.1556,6.1612],[38.0965,6.1752],[38.0888,6.1537],[38.0921,6.1053],[38.2343,5.8648],[38.3194,5.8707],[38.3922,5.9182],[38.3851,5.9413],[38.3261,5.9742],[38.2937,6.0116],[38.3268,6.0528],[38.3845,6.1724],[38.4364,6.2142],[38.4325,6.3784],[38.4529,6.4123],[38.488,6.4322],[38.5787,6.4388],[38.7011,6.4081],[38.7649,6.412],[38.7865,6.3777],[38.8619,6.3426],[38.9384,6.2231],[38.9453,6.1935],[38.9934,6.1519],[39.135,6.1616],[39.0947,6.2415],[39.0925,6.2644],[39.1285,6.3248],[39.1288,6.3699],[39.0929,6.5234],[38.9374,6.661],[38.847,6.6748],[38.6479,6.7764],[38.6371,6.8225],[38.6656,6.9734],[38.6124,7.0784],[38.5807,7.1041],[38.5215,7.0851],[38.3311,7.1614],[38.2453,7.0565],[38.1538,7.0364],[38.0918,7.0593],[38.0696,7.096],[38.0947,7.1989],[38.2596,7.3086],[38.3427,7.4752],[38.4298,7.5272],[38.4259,7.6915],[38.4586,7.7672],[38.5928,7.9504],[38.6186,8.0203],[38.5826,8.1699],[38.5452,8.2339],[38.6039,8.253],[38.6394,8.1362],[38.676,8.0933],[38.6857,8.1139],[38.683,8.1836],[38.6997,8.2508],[38.6634,8.2804],[38.6704,8.3464],[38.6589,8.3916],[38.6463,8.4104],[38.567,8.4553],[38.5041,8.4468],[38.4564,8.3911],[38.4333,8.302],[38.3614,8.2636],[38.3248,8.2699],[38.2961,8.3777],[38.2398,8.4145],[37.8337,8.3368],[37.6066,8.3642],[37.5607,8.4283],[37.5172,8.4187],[37.489,8.3832],[37.4672,8.3111],[37.5046,8.2603],[37.6045,8.2296],[37.5922,8.0596],[37.6191,7.991],[37.6166,7.9645],[37.5481,7.955],[37.5132,8.0064],[37.4875,8.0179],[37.3945,7.9967],[37.3945,7.969],[37.4305,7.9296],[37.4375,7.9015],[37.408,7.8307],[37.4049,7.7099],[37.4373,7.5819],[37.395,7.4041],[37.3789,7.3688],[37.3665,7.3729],[37.2341,7.3073],[37.1394,7.2406],[36.9186,7.2242],[36.8272,7.2411],[36.6122,7.3735],[36.4925,7.4136],[36.3841,7.4277],[36.2618,7.4743],[36.1425,7.5484],[36.047,7.5709],[36.0461,7.6592],[36.0,7.7442],[35.8589,7.8387],[35.858,7.8571],[35.8988,7.9118],[35.9053,7.9581],[35.8701,8.0677],[35.8346,8.0831],[35.7666,8.0777],[35.729,8.0272],[35.7284,8.0088],[35.8028,7.9361],[35.7422,7.8695],[35.6827,7.8544],[35.6092,7.8135],[35.5604,7.8239],[35.5333,7.8828],[35.4381,7.8785],[35.3918,7.8466],[35.3567,7.8419],[35.3406,7.7797],[35.2995,7.7536],[35.2425,7.6768],[35.2635,7.5396],[35.2527,7.5002],[35.1967,7.4635],[35.1039,7.4832],[35.1469,7.5477],[35.018,7.6074],[34.9935,7.6966],[34.8921,7.7873],[34.8714,7.8303],[34.8706,7.8773],[34.8873,7.9186],[34.9557,8.0207],[34.8925,8.0575],[35.0827,8.1513],[35.0904,8.1655],[35.0599,8.1877],[35.0061,8.1945],[34.8761,8.1809],[34.8184,8.1919],[34.7825,8.249],[34.6745,8.2884],[34.5892,8.3859],[34.4886,8.4359],[34.3016,8.5922],[34.2451,8.6077],[34.1614,8.5624],[34.1073,8.6015]],[[38.83,9.0789],[38.8183,9.0969],[38.792,9.0745],[38.7752,9.0956],[38.7101,9.0815],[38.655,8.9966],[38.6938,8.9136],[38.7764,8.8458],[38.8166,8.8326],[38.8346,8.8679],[38.8747,8.8755],[38.8579,8.9454],[38.8999,8.9375],[38.9079,8.9845],[38.8765,9.0777],[38.83,9.0789]],[[36.2775,8.9324],[36.3355,8.9604],[36.2898,8.997],[36.2376,8.9621],[36.2775,8.9324]],[[36.4648,9.3607],[36.4394,9.429],[36.4497,9.4484],[36.4897,9.4658],[36.4976,9.4855],[36.4419,9.5222],[36.3918,9.491],[36.3757,9.4376],[36.4111,9.3392],[36.4314,9.3668],[36.4648,9.3607]],[[36.1238,9.0215],[36.049,9.0343],[36.0388,8.9741],[36.0094,8.9317],[36.0122,8.8645],[36.0392,8.847],[36.0859,8.8568],[36.1217,8.8437],[36.161,8.878],[36.2052,8.8315],[36.2113,8.7974],[36.2457,8.7871],[36.2272,8.8262],[36.2415,8.8462],[36.2177,8.8652],[36.215,8.8867],[36.2291,8.9661],[36.1913,8.9672],[36.1722,8.9904],[36.1873,9.0102],[36.1777,9.0165],[36.1238,9.0215]],[[42.2487,9.1887],[42.2741,9.2179],[42.2516,9.2723],[42.2719,9.3629],[42.2566,9.3848],[42.1897,9.364],[42.1287,9.3837],[42.0763,9.3086],[42.0637,9.2298],[42.1188,9.2319],[42.1508,9.2085],[42.192,9.2214],[42.2487,9.1887]]]}},{"type":"Feature","id":"Somali","properties":{"id":"Somali","iso_code":"ET-SO","name":"Somali","name_full":"Somali","name_ja":"ソマリ州","center_lonlat":[43.3236,6.9384]},"geometry":{"type":"Polygon","coordinates":[[[39.0904,3.5183],[39.1021,3.5287],[39.0952,3.5363],[39.3007,3.6426],[39.4698,3.9175],[39.4986,3.9797],[39.4838,4.041],[39.5415,4.2345],[39.5851,4.2938],[39.742,4.657],[39.7704,4.8515],[39.8204,5.0151],[39.9195,5.2465],[40.0145,5.3832],[40.0511,5.3997],[40.1154,5.3688],[40.1874,5.3546],[40.5288,5.4155],[40.7043,5.5654],[40.9225,5.6995],[40.8801,5.8117],[40.8655,6.1104],[40.8836,6.238],[40.8585,6.4199],[40.9044,6.5123],[41.0284,6.6563],[41.0735,6.6902],[41.122,6.6927],[41.3414,6.5728],[41.4161,6.5569],[41.4593,6.5294],[41.622,6.364],[41.7019,6.4448],[41.7637,6.5413],[41.8068,6.566],[41.8458,6.5699],[41.8611,6.5371],[41.9315,6.5525],[41.9858,6.5957],[42.0242,6.6622],[42.0414,6.7319],[42.0791,6.7957],[42.0688,6.8144],[42.0931,6.9192],[42.137,6.9516],[42.1829,7.0446],[42.1846,7.091],[42.2084,7.13],[42.2271,7.2227],[42.2075,7.293],[41.9015,7.4123],[41.8751,7.5108],[41.8765,7.5525],[41.9534,7.7514],[41.9177,7.8736],[41.9313,8.1156],[41.9612,8.22],[42.0293,8.3252],[42.0323,8.4337],[42.1127,8.5252],[42.2071,8.6048],[42.2741,8.6228],[42.3267,8.5387],[42.4466,8.5162],[42.5036,8.4925],[42.5334,8.4504],[42.5804,8.2308],[42.6345,8.1476],[42.6684,8.1408],[42.7039,8.1819],[42.7438,8.3273],[42.7704,8.3655],[42.8969,8.4124],[42.9134,8.511],[42.9059,8.5898],[42.844,8.6623],[42.8333,8.7073],[42.8655,8.8003],[42.8569,8.8404],[42.7053,8.9832],[42.644,9.0802],[42.6257,9.1198],[42.6259,9.1643],[42.5923,9.2102],[42.5519,9.3515],[42.455,9.5252],[42.4188,9.5616],[42.3871,9.5677],[42.3935,9.6656],[42.3809,9.7083],[42.341,9.7204],[42.3027,9.7626],[42.2543,9.7806],[42.2031,9.7744],[42.1563,9.7441],[42.0404,9.629],[41.9955,9.6352],[41.892,9.6839],[41.8185,9.6475],[41.763,9.6401],[41.7406,9.5849],[41.7369,9.4738],[41.6863,9.47],[41.6375,9.514],[41.6152,9.5176],[41.5665,9.5092],[41.4932,9.4597],[41.2699,9.5059],[41.2309,9.4966],[41.1718,9.4446],[41.0111,9.3582],[40.8464,9.3071],[40.8092,9.3287],[40.7977,9.3946],[40.9105,9.3959],[40.924,9.409],[40.9145,9.4292],[40.8669,9.457],[40.6951,9.4444],[40.7371,9.6236],[40.826,9.7597],[41.0218,9.9511],[40.9521,9.9967],[40.9432,10.047],[41.0866,10.5912],[41.0833,10.6793],[41.1268,10.7407],[41.2041,10.8156],[41.2325,10.8614],[41.2504,10.9398],[41.2923,10.9671],[41.6911,10.9643],[41.7665,10.9895],[41.7987,10.9707],[41.9169,10.9471],[41.9375,10.9298],[42.0384,10.9504],[42.0694,10.9815],[42.0963,10.9903],[42.1514,10.9962],[42.2216,10.9843],[42.3385,11.0155],[42.3918,11.0059],[42.4797,11.0591],[42.6156,11.0897],[42.7296,11.065],[42.7718,10.9965],[42.8733,10.9782],[42.9081,11.0042],[42.9237,10.9988],[42.8935,10.9197],[42.8194,10.8726],[42.8012,10.8208],[42.7381,10.7598],[42.6996,10.6585],[42.6472,10.6322],[42.6952,10.5247],[42.7658,10.4519],[42.7895,10.3333],[42.8363,10.2081],[42.9819,10.0916],[43.0399,9.95],[43.0677,9.9225],[43.1872,9.8833],[43.2063,9.8512],[43.2488,9.6523],[43.2707,9.6284],[43.306,9.6176],[43.3318,9.5751],[43.3707,9.5442],[43.419,9.413],[43.5482,9.3361],[43.6215,9.3369],[43.9848,9.0083],[44.0239,8.9855],[45.7664,8.4122],[46.9205,8.0256],[46.9792,7.9966],[47.9792,7.9966],[46.4239,6.4967],[45.936,5.9967],[44.9415,4.9115],[44.9126,4.8994],[43.969,4.954],[43.5285,4.8416],[43.1193,4.6477],[42.9604,4.5174],[42.8996,4.3611],[42.8316,4.3023],[42.7898,4.2856],[42.2973,4.2017],[42.1029,4.1919],[41.9235,4.0706],[41.9122,4.008],[41.8359,3.9495],[41.6998,3.9969],[41.643,3.9694],[41.5863,3.9842],[41.4295,3.9489],[41.163,3.9427],[41.0701,3.9969],[41.0059,4.0867],[40.9636,4.1204],[40.8977,4.1459],[40.846,4.215],[40.7637,4.2849],[40.7007,4.2435],[40.3827,4.1214],[40.3657,4.0949],[40.1856,4.0322],[40.1672,4.0355],[40.1624,4.0194],[39.8485,3.8673],[39.7642,3.6857],[39.575,3.4979],[39.5363,3.405],[39.5044,3.4033],[39.467,3.452],[39.4362,3.4624],[39.3113,3.4661],[39.3159,3.4949],[39.2576,3.4697],[39.2194,3.4687],[39.0904,3.5183]]]}},{"type":"Feature","id":"Southern Nations","properties":{"id":"Southern Nations","iso_code":"ET-SN","name":"Southern Nations","name_full":"Southern Nations","name_ja":"南部諸民族州","center_lonlat":[36.7258,6.4609]},"geometry":{"type":"Polygon","coordinates":[[[34.1958,7.0977],[34.218,7.107],[34.2997,7.049],[34.3256,7.0465],[34.3996,7.0726],[34.4758,7.0806],[34.5131,7.0717],[34.5986,7.0178],[34.6623,7.0127],[34.7176,7.0281],[34.82,7.0995],[34.9469,7.1044],[34.9732,7.1121],[34.9859,7.136],[35.0291,7.1344],[35.065,7.1643],[35.1572,7.1153],[35.2483,7.1407],[35.3299,7.1325],[35.3374,7.1562],[35.3233,7.204],[35.3656,7.4055],[35.3416,7.4419],[35.2725,7.4785],[35.2635,7.5396],[35.2425,7.6768],[35.2995,7.7536],[35.3406,7.7797],[35.3567,7.8419],[35.3918,7.8466],[35.4381,7.8785],[35.5333,7.8828],[35.5604,7.8239],[35.6092,7.8135],[35.6827,7.8544],[35.7422,7.8695],[35.8028,7.9361],[35.7284,8.0088],[35.729,8.0272],[35.7666,8.0777],[35.8346,8.0831],[35.8701,8.0677],[35.9053,7.9581],[35.8988,7.9118],[35.858,7.8571],[35.8589,7.8387],[36.0,7.7442],[36.0461,7.6592],[36.047,7.5709],[36.1425,7.5484],[36.2618,7.4743],[36.3841,7.4277],[36.4925,7.4136],[36.6122,7.3735],[36.8272,7.2411],[36.9186,7.2242],[37.1394,7.2406],[37.2341,7.3073],[37.3665,7.3729],[37.3789,7.3688],[37.395,7.4041],[37.4373,7.5819],[37.4049,7.7099],[37.408,7.8307],[37.4375,7.9015],[37.4305,7.9296],[37.3945,7.969],[37.3945,7.9967],[37.4875,8.0179],[37.5132,8.0064],[37.5481,7.955],[37.6166,7.9645],[37.6191,7.991],[37.5922,8.0596],[37.6045,8.2296],[37.5046,8.2603],[37.4672,8.3111],[37.489,8.3832],[37.5172,8.4187],[37.5607,8.4283],[37.6066,8.3642],[37.8337,8.3368],[38.2398,8.4145],[38.2961,8.3777],[38.3248,8.2699],[38.3614,8.2636],[38.4333,8.302],[38.4564,8.3911],[38.5041,8.4468],[38.567,8.4553],[38.6463,8.4104],[38.6589,8.3916],[38.6704,8.3464],[38.6634,8.2804],[38.6997,8.2508],[38.683,8.1836],[38.6857,8.1139],[38.676,8.0933],[38.6394,8.1362],[38.6039,8.253],[38.5452,8.2339],[38.5826,8.1699],[38.6186,8.0203],[38.5928,7.9504],[38.4586,7.7672],[38.4259,7.6915],[38.4298,7.5272],[38.3427,7.4752],[38.2596,7.3086],[38.0947,7.1989],[38.0696,7.096],[38.0918,7.0593],[38.1538,7.0364],[38.2453,7.0565],[38.3311,7.1614],[38.5215,7.0851],[38.5807,7.1041],[38.6124,7.0784],[38.6656,6.9734],[38.6371,6.8225],[38.6479,6.7764],[38.847,6.6748],[38.9374,6.661],[39.0929,6.5234],[39.1288,6.3699],[39.1285,6.3248],[39.0925,6.2644],[39.0947,6.2415],[39.135,6.1616],[38.9934,6.1519],[38.9453,6.1935],[38.9384,6.2231],[38.8619,6.3426],[38.7865,6.3777],[38.7649,6.412],[38.7011,6.4081],[38.5787,6.4388],[38.488,6.4322],[38.4529,6.4123],[38.4325,6.3784],[38.4364,6.2142],[38.3845,6.1724],[38.3268,6.0528],[38.2937,6.0116],[38.3261,5.9742],[38.3851,5.9413],[38.3922,5.9182],[38.3194,5.8707],[38.2343,5.8648],[38.0921,6.1053],[38.0888,6.1537],[38.0965,6.1752],[38.1556,6.1612],[38.1766,6.1693],[38.193,6.1916],[38.1955,6.2161],[38.1768,6.2538],[38.1948,6.3121],[38.2711,6.3508],[38.2964,6.3873],[38.2943,6.4289],[38.2403,6.4657],[38.1675,6.4574],[38.1229,6.504],[38.0215,6.5745],[37.9304,6.5686],[37.9023,6.5909],[37.8844,6.5901],[37.8025,6.4666],[37.8043,6.4248],[37.8573,6.348],[37.8361,6.2438],[37.7799,6.1463],[37.7875,6.0226],[37.7942,6.0087],[37.9717,5.9421],[38.0261,5.7901],[38.0848,5.7544],[38.0917,5.7308],[38.073,5.6898],[37.944,5.6367],[37.9525,5.4975],[37.9046,5.3603],[37.9006,5.2493],[37.862,5.2352],[37.8044,5.2749],[37.6857,5.313],[37.6482,5.2958],[37.6226,5.2644],[37.4035,5.1652],[37.3507,5.1621],[37.2856,5.1944],[37.2291,5.2044],[37.1185,5.1901],[37.0187,5.2017],[36.9715,5.1861],[36.9208,5.1079],[36.8744,4.959],[36.909,4.8362],[36.9027,4.7782],[36.7569,4.5605],[36.7206,4.4732],[36.6489,4.4312],[36.6195,4.4434],[36.0413,4.4437],[35.9405,4.508],[35.9208,4.6193],[35.7845,4.7642],[35.76,4.8057],[35.7516,4.8544],[35.7559,5.0634],[35.8074,5.1447],[35.7753,5.2466],[35.8041,5.318],[35.6836,5.3796],[35.6583,5.3864],[35.5982,5.3687],[35.508,5.4234],[35.4693,5.4308],[35.4302,5.4272],[35.345,5.3524],[35.3024,5.3574],[35.2507,5.4351],[35.2736,5.4799],[35.262,5.5119],[35.0987,5.6225],[35.0795,5.6998],[34.9744,5.8631],[34.9799,5.9128],[34.9553,5.9526],[34.9698,5.9967],[34.9594,6.0617],[34.8989,6.1387],[34.8447,6.2487],[34.8326,6.3535],[34.7843,6.4418],[34.7335,6.6376],[34.7035,6.6849],[34.6185,6.7365],[34.5363,6.7431],[34.5121,6.8083],[34.5233,6.8442],[34.5037,6.89],[34.4392,6.9349],[34.2976,6.9686],[34.206,7.0545],[34.1958,7.0977]]]}},{"type":"Feature","id":"Tigray","properties":{"id":"Tigray","iso_code":"ET-TI","name":"Tigray","name_full":"Tigray","name_ja":"ティグレ州","center_lonlat":[38.4403,13.7786]},"geometry":{"type":"Polygon","coordinates":[[[36.4399,13.7762],[36.4582,13.8201],[36.4325,13.9445],[36.4366,13.9912],[36.5264,14.2635],[36.5457,14.2632],[36.5657,14.2929],[36.7481,14.3321],[36.8164,14.3321],[36.9469,14.3047],[36.9789,14.2711],[37.0056,14.2632],[37.0261,14.2768],[37.0602,14.2768],[37.0835,14.2977],[37.1059,14.3992],[37.1497,14.4419],[37.2938,14.4574],[37.3371,14.4264],[37.3902,14.3582],[37.3977,14.3017],[37.4526,14.2606],[37.4754,14.1996],[37.5165,14.1806],[37.5253,14.1288],[37.5537,14.1055],[37.8915,14.8795],[38.0067,14.7244],[38.1152,14.681],[38.2293,14.6797],[38.2576,14.6104],[38.2893,14.5877],[38.3134,14.5193],[38.3943,14.4643],[38.4268,14.4172],[38.5694,14.4268],[38.6685,14.4677],[38.7429,14.4611],[38.8661,14.4937],[38.9797,14.5671],[38.9938,14.5852],[38.9968,14.6389],[39.0097,14.6512],[39.0855,14.6335],[39.1275,14.6022],[39.1585,14.5601],[39.2082,14.4402],[39.2332,14.4404],[39.2685,14.4864],[39.3666,14.4829],[39.4486,14.5051],[39.4894,14.5245],[39.515,14.5678],[39.5521,14.5567],[39.5995,14.5116],[39.6509,14.4966],[39.7669,14.5048],[39.7969,14.4951],[39.8923,14.4266],[39.9307,14.4288],[39.9615,14.4542],[39.9998,14.4552],[39.9825,14.4452],[39.9841,14.3978],[39.9636,14.3684],[39.8044,14.3867],[39.7348,14.3736],[39.6682,14.3245],[39.692,14.304],[39.753,14.3092],[39.7684,14.2955],[39.7202,14.2349],[39.6904,14.1651],[39.7614,14.1453],[39.7236,14.1012],[39.7313,14.0829],[39.7726,14.091],[39.7849,14.0802],[39.7957,14.0418],[39.7921,13.9736],[39.8196,13.9302],[39.7976,13.7353],[39.828,13.6146],[39.823,13.5717],[39.7941,13.5539],[39.7562,13.5714],[39.7241,13.4815],[39.7442,13.3908],[39.7232,13.2526],[39.7731,13.1938],[39.7886,13.1173],[39.8078,13.0878],[39.7913,13.0531],[39.7654,13.0384],[39.7691,12.9718],[39.7545,12.8942],[39.7867,12.8647],[39.8603,12.8335],[39.8919,12.7611],[39.8755,12.6682],[39.8043,12.5661],[39.7926,12.5245],[39.7883,12.4745],[39.8081,12.3833],[39.7974,12.3402],[39.7797,12.325],[39.6296,12.3038],[39.5391,12.2511],[39.5457,12.2909],[39.5337,12.3277],[39.408,12.3323],[39.3775,12.3251],[39.3727,12.2991],[39.2989,12.2963],[39.2727,12.3126],[39.248,12.364],[39.233,12.4964],[39.1847,12.6324],[39.1903,12.6659],[39.2637,12.7978],[39.2655,12.8534],[39.2243,13.0158],[39.2055,13.0236],[39.0452,13.0034],[39.0144,13.015],[38.9958,13.1271],[38.7461,13.3749],[38.705,13.3936],[38.6751,13.4917],[38.5839,13.4974],[38.4549,13.4678],[38.4853,13.5371],[38.4638,13.5872],[38.4357,13.582],[38.3799,13.5258],[38.2811,13.5126],[38.1365,13.5249],[38.1113,13.4965],[38.0585,13.4688],[37.8916,13.5395],[37.7423,13.5656],[37.7187,13.5481],[37.6703,13.444],[37.5159,13.3674],[37.299,13.3699],[37.2478,13.4144],[37.1931,13.4318],[37.1325,13.4223],[37.0531,13.3728],[37.032,13.3734],[36.8963,13.3966],[36.7062,13.558],[36.5385,13.5991],[36.4399,13.7762]]]}}]}
