{"type":"FeatureCollection","features":[{"type":"Feature","id":"Central","properties":{"id":"Central","iso_code":"FJ-C","name":"Central","name_full":"Central","name_ja":"中央地域","center_lonlat":[178.2425,-17.941]},"geometry":{"type":"MultiPolygon","coordinates":[[[[178.4483,-17.5503],[178.4788,-17.5532],[178.5303,-17.6083],[178.573,-17.6179],[178.6023,-17.65],[178.6033,-17.6746],[178.5677,-17.755],[178.6023,-17.7866],[178.5989,-17.8194],[178.6272,-17.8268],[178.6159,-17.8411],[178.636,-17.8637],[178.6296,-17.8759],[178.6159,-17.8691],[178.6227,-17.8902],[178.5911,-17.8976],[178.5949,-17.926],[178.6261,-17.9714],[178.6543,-17.9784],[178.677,-18.0114],[178.7114,-17.992],[178.6846,-18.0704],[178.5886,-18.136],[178.5886,-18.1155],[178.5476,-18.1291],[178.5606,-18.1087],[178.5271,-18.09],[178.4856,-18.1087],[178.4878,-18.1291],[178.4702,-18.1419],[178.4378,-18.1466],[178.4382,-18.123],[178.3899,-18.1018],[178.3962,-18.1087],[178.3784,-18.1272],[178.3552,-18.1155],[178.277,-18.1463],[178.2522,-18.1838],[178.2142,-18.2011],[178.1683,-18.2485],[178.1355,-18.2595],[178.113,-18.2394],[178.0389,-18.2649],[177.9784,-18.2527],[177.9598,-18.2657],[177.9211,-18.2607],[177.8941,-18.2731],[177.8858,-18.2516],[177.8594,-18.2658],[177.8272,-18.2345],[177.7834,-18.2232],[177.7995,-18.1633],[177.8261,-18.123],[177.8239,-18.1127],[177.7824,-18.107],[177.7694,-18.0755],[177.8056,-17.9926],[177.8459,-17.9796],[177.9451,-18.0008],[177.9974,-17.983],[178.0074,-17.9464],[177.9865,-17.9225],[177.993,-17.8927],[177.9728,-17.8488],[177.9909,-17.8078],[178.0997,-17.7017],[178.0817,-17.6882],[178.0199,-17.7418],[178.0062,-17.7402],[178.0091,-17.6689],[178.034,-17.62],[178.0257,-17.5727],[178.0416,-17.5709],[178.1055,-17.6505],[178.1392,-17.6682],[178.2452,-17.6608],[178.2717,-17.6475],[178.2826,-17.6222],[178.3316,-17.6466],[178.4185,-17.6657],[178.4376,-17.647],[178.4483,-17.5503]]],[[[178.1223,-18.3693],[178.1276,-18.3517],[178.1501,-18.3578],[178.156,-18.3762],[178.1423,-18.4119],[178.1087,-18.4035],[178.1218,-18.3992],[178.1223,-18.3693]]]]}},{"type":"Feature","id":"Eastern","properties":{"id":"Eastern","iso_code":"FJ-E","name":"Eastern","name_full":"Eastern","name_ja":"東部地域","center_lonlat":[178.24,-19.0386]},"geometry":{"type":"MultiPolygon","coordinates":[[[[178.4303,-18.9553],[178.4856,-18.9651],[178.4966,-19.0133],[178.4609,-19.0326],[178.4241,-19.0204],[178.429,-19.0368],[178.4167,-19.0478],[178.3415,-19.0478],[178.3483,-19.0204],[178.3205,-19.0204],[178.334,-19.0068],[178.3073,-18.9972],[178.2815,-19.0074],[178.2385,-19.0409],[178.1951,-19.0475],[178.1887,-19.0836],[178.1838,-19.0689],[178.1743,-19.0759],[178.1731,-19.0978],[178.1995,-19.114],[178.1947,-19.1466],[178.179,-19.1575],[178.1616,-19.1506],[178.1629,-19.116],[178.0916,-19.157],[178.0371,-19.1428],[178.0037,-19.1575],[177.9989,-19.1428],[177.974,-19.1448],[177.9512,-19.1297],[177.9815,-19.1013],[178.0194,-19.1023],[178.0518,-19.0567],[178.1287,-19.0689],[178.1394,-19.0419],[178.1721,-19.0353],[178.1907,-18.9772],[178.2261,-18.9641],[178.2937,-18.9726],[178.3019,-18.944],[178.345,-18.9249],[178.3826,-18.9249],[178.3898,-18.9382],[178.4227,-18.9397],[178.4303,-18.9553]]],[[[179.3455,-17.9988],[179.3608,-18.026],[179.363,-18.0798],[179.3503,-18.1188],[179.3109,-18.0898],[179.2669,-17.9988],[179.2658,-18.0299],[179.2541,-18.0392],[179.2328,-17.9448],[179.2503,-17.9513],[179.2721,-17.9345],[179.2974,-17.9379],[179.3455,-17.9988]]],[[[179.4519,-17.2903],[179.4329,-17.3583],[179.3909,-17.3963],[179.3713,-17.2599],[179.3787,-17.2494],[179.4378,-17.2418],[179.4483,-17.2491],[179.4519,-17.2903]]],[[[178.7764,-17.6288],[178.7979,-17.6186],[178.8168,-17.629],[178.8355,-17.6932],[178.8229,-17.7291],[178.7681,-17.7472],[178.7394,-17.6733],[178.7511,-17.6434],[178.7764,-17.6288]]],[[[-178.2932,-17.8827],[-178.2464,-17.9176],[-178.2391,-17.9343],[-178.2486,-17.9526],[-178.2983,-17.9633],[-178.3523,-17.9457],[-178.3578,-17.9143],[-178.3379,-17.886],[-178.2932,-17.8827]]],[[[-178.9647,-17.1769],[-178.9107,-17.2145],[-178.9275,-17.2527],[-178.9659,-17.2751],[-178.9858,-17.3136],[-179.0007,-17.3025],[-178.9977,-17.2831],[-178.9583,-17.2114],[-179.0131,-17.1839],[-179.02,-17.1491],[-178.9854,-17.1759],[-178.9647,-17.1769]]],[[[179.9434,-18.5563],[179.9524,-18.5685],[179.9447,-18.5806],[179.8918,-18.6096],[179.9174,-18.6115],[179.921,-18.6226],[179.9019,-18.6381],[179.9008,-18.6586],[179.8828,-18.6625],[179.8716,-18.6288],[179.8307,-18.5893],[179.9434,-18.5563]]],[[[-178.7667,-18.1913],[-178.7457,-18.2216],[-178.7633,-18.2459],[-178.8066,-18.2437],[-178.8454,-18.2174],[-178.8249,-18.1891],[-178.7898,-18.1721],[-178.7667,-18.1913]]],[[[178.5265,-18.8766],[178.5376,-18.9005],[178.5083,-18.9264],[178.4719,-18.9072],[178.4959,-18.863],[178.5316,-18.8604],[178.5265,-18.8766]]],[[[-179.8631,-18.9658],[-179.8497,-18.9234],[-179.8127,-18.9273],[-179.7872,-18.9553],[-179.8082,-18.9864],[-179.8168,-18.9522],[-179.8378,-18.9488],[-179.8552,-18.9631],[-179.8443,-19.0021],[-179.8583,-19.006],[-179.8719,-18.9937],[-179.8631,-18.9658]]],[[[179.7775,-19.1228],[179.802,-19.1843],[179.7459,-19.1901],[179.74,-19.1774],[179.7529,-19.1638],[179.7741,-19.1707],[179.7566,-19.1277],[179.7775,-19.1228]]],[[[-179.3226,-17.7702],[-179.3361,-17.7585],[-179.3342,-17.74],[-179.2981,-17.7232],[-179.2797,-17.7394],[-179.2808,-17.7602],[-179.2965,-17.7742],[-179.3226,-17.7702]]],[[[-178.9722,-18.9651],[-178.9691,-18.9426],[-178.9436,-18.9264],[-178.931,-18.9714],[-178.9444,-18.9872],[-178.9615,-18.9867],[-178.9722,-18.9651]]],[[[-179.0503,-17.956],[-179.0318,-17.9663],[-179.0279,-18.003],[-179.0462,-18.0075],[-179.0693,-17.9893],[-179.0787,-17.9666],[-179.0503,-17.956]]],[[[-178.5886,-19.1228],[-178.5664,-19.1511],[-178.5333,-19.157],[-178.537,-19.1772],[-178.6003,-19.1477],[-178.5817,-19.1115],[-178.5538,-19.1091],[-178.5886,-19.1228]]],[[[-179.1566,-17.4714],[-179.1755,-17.4397],[-179.166,-17.4256],[-179.1456,-17.4242],[-179.1308,-17.4537],[-179.1371,-17.4689],[-179.1566,-17.4714]]],[[[179.4308,-17.794],[179.4226,-17.8505],[179.3918,-17.7931],[179.3967,-17.7804],[179.4308,-17.794]]],[[[178.7258,-17.7247],[178.7419,-17.7496],[178.7796,-17.766],[178.7727,-17.7804],[178.7347,-17.7676],[178.7132,-17.711],[178.7258,-17.7247]]],[[[179.0054,-17.6214],[178.9974,-17.608],[179.0068,-17.5932],[179.0261,-17.6106],[179.0408,-17.6562],[179.0054,-17.6214]]],[[[-178.4198,-19.1674],[-178.3929,-19.1275],[-178.392,-19.1658],[-178.4188,-19.1786],[-178.4198,-19.1674]]],[[[-179.1573,-17.2727],[-179.1567,-17.2541],[-179.1344,-17.2521],[-179.1308,-17.277],[-179.1495,-17.2822],[-179.1573,-17.2727]]],[[[-178.5072,-18.6652],[-178.5163,-18.65],[-178.4992,-18.6337],[-178.4861,-18.6518],[-178.5072,-18.6652]]],[[[-178.8996,-18.8771],[-178.9306,-18.8821],[-178.8799,-18.8543],[-178.8996,-18.8771]]],[[[-178.7191,-20.671],[-178.731,-20.6576],[-178.725,-20.6423],[-178.7081,-20.6713],[-178.7191,-20.671]]]]}},{"type":"Feature","id":"Northern","properties":{"id":"Northern","iso_code":"FJ-N","name":"Northern","name_full":"Northern","name_ja":"北部地域","center_lonlat":[179.2643,-16.5958]},"geometry":{"type":"MultiPolygon","coordinates":[[[[180.0,-16.169],[179.938,-16.2243],[179.8957,-16.2387],[179.7809,-16.3813],[179.781,-16.403],[179.7385,-16.4592],[179.5918,-16.5453],[179.5715,-16.6256],[179.4787,-16.6972],[179.4922,-16.725],[179.4787,-16.7587],[179.4861,-16.766],[179.5203,-16.7496],[179.5481,-16.766],[179.5852,-16.7294],[179.6326,-16.7102],[179.6409,-16.6873],[179.6711,-16.6769],[179.6779,-16.6555],[179.6984,-16.6495],[179.7227,-16.6044],[179.7567,-16.5768],[179.9172,-16.4669],[179.9395,-16.4633],[179.9535,-16.4996],[179.8901,-16.6147],[179.8901,-16.6358],[179.8696,-16.6358],[179.8486,-16.6624],[179.8919,-16.676],[179.9038,-16.7177],[179.9497,-16.7301],[179.9419,-16.7526],[179.8963,-16.7382],[179.9107,-16.766],[179.8636,-16.7648],[179.8622,-16.7382],[179.8263,-16.7371],[179.802,-16.7177],[179.7263,-16.7177],[179.6663,-16.7407],[179.6567,-16.7587],[179.6438,-16.7457],[179.5823,-16.8071],[179.5449,-16.7908],[179.4382,-16.8139],[179.4038,-16.8023],[179.2969,-16.8068],[179.3234,-16.7712],[179.3547,-16.7585],[179.3514,-16.7314],[179.2664,-16.6899],[179.1528,-16.7345],[179.1229,-16.7587],[179.1294,-16.7758],[179.1102,-16.8],[179.0654,-16.7989],[179.0444,-16.8238],[179.0199,-16.8952],[179.0454,-16.8801],[179.0752,-16.8815],[179.0269,-16.9231],[178.9544,-16.899],[178.91,-16.8481],[178.91,-16.8679],[178.874,-16.8611],[178.8213,-16.9026],[178.8071,-16.9505],[178.7878,-16.9679],[178.801,-16.9777],[178.7627,-17.0051],[178.7339,-17.007],[178.6919,-16.9858],[178.6704,-16.899],[178.6275,-16.8377],[178.6364,-16.8071],[178.6023,-16.7797],[178.5116,-16.8142],[178.4856,-16.7934],[178.4924,-16.7867],[178.479,-16.7659],[178.4993,-16.766],[178.5065,-16.7304],[178.5402,-16.704],[178.5402,-16.7245],[178.5571,-16.6983],[178.568,-16.704],[178.5856,-16.6651],[178.5886,-16.6495],[178.5527,-16.6589],[178.5339,-16.629],[178.5818,-16.6147],[178.6084,-16.642],[178.6911,-16.6699],[178.7883,-16.5969],[178.801,-16.6358],[178.814,-16.63],[178.8184,-16.5868],[178.8486,-16.5463],[178.8555,-16.567],[178.8692,-16.5396],[178.8862,-16.5523],[178.9309,-16.5126],[178.917,-16.4706],[178.9373,-16.4781],[178.9427,-16.4604],[178.9651,-16.4706],[179.1776,-16.4298],[179.1913,-16.408],[179.2223,-16.399],[179.2983,-16.4091],[179.3142,-16.3956],[179.3293,-16.408],[179.3587,-16.3881],[179.3721,-16.4049],[179.4036,-16.408],[179.3761,-16.3608],[179.3977,-16.3478],[179.4178,-16.3539],[179.4432,-16.3102],[179.4582,-16.3199],[179.4712,-16.274],[179.5357,-16.2625],[179.5203,-16.2448],[179.5425,-16.2507],[179.5544,-16.2726],[179.568,-16.2243],[179.6028,-16.2521],[179.6189,-16.2426],[179.6301,-16.259],[179.6301,-16.2434],[179.6533,-16.2353],[179.6564,-16.2175],[179.7018,-16.2231],[179.7103,-16.2078],[179.7644,-16.1814],[179.7809,-16.2311],[179.8288,-16.2044],[179.8413,-16.2135],[179.8288,-16.2243],[179.856,-16.2311],[179.9107,-16.1799],[179.9832,-16.1491],[180.0,-16.1491],[180.0,-16.169]]],[[[-180.0,-16.7867],[-179.9159,-16.6945],[-179.8771,-16.6778],[-179.8557,-16.693],[-179.8424,-16.7487],[-179.8157,-16.7722],[-179.8566,-16.8139],[-179.8716,-16.8639],[-179.9512,-16.9059],[-180.0,-16.9641],[-180.0,-16.7867]]],[[[180.0,-16.9628],[179.9668,-16.9933],[179.9287,-17.0021],[179.8901,-16.9539],[179.9673,-16.8583],[180.0,-16.7853],[180.0,-16.9628]]],[[[-180.0,-16.4899],[-179.9591,-16.4469],[-179.8977,-16.4298],[-179.9112,-16.4412],[-179.9038,-16.4577],[-179.9374,-16.4775],[-179.922,-16.4975],[-179.952,-16.523],[-180.0,-16.5411],[-180.0,-16.4899]]],[[[178.334,-16.7934],[178.3337,-16.8289],[178.2902,-16.8344],[178.28,-16.7867],[178.334,-16.7934]]],[[[-180.0,-16.1491],[-179.9386,-16.1213],[-179.9789,-16.1628],[-180.0,-16.1696],[-180.0,-16.1491]]],[[[179.9175,-16.6555],[179.8833,-16.6555],[179.9072,-16.6495],[179.9102,-16.6321],[179.9517,-16.6078],[179.9474,-16.6445],[179.9175,-16.6555]]],[[[178.5882,-16.573],[178.6226,-16.573],[178.5925,-16.5956],[178.5604,-16.5873],[178.5882,-16.573]]],[[[179.3623,-16.3266],[179.3897,-16.3336],[179.3281,-16.3336],[179.3623,-16.3266]]],[[[180.0,-16.5413],[179.9875,-16.5424],[179.9844,-16.5302],[180.0,-16.4895],[180.0,-16.5413]]]]}},{"type":"Feature","id":"Rotuma","properties":{"id":"Rotuma","iso_code":"FJ-R","name":"Rotuma","name_full":"Rotuma","name_ja":"ロツマ属領","center_lonlat":[177.0698,-12.4973]},"geometry":{"type":"Polygon","coordinates":[[[177.1248,-12.4861],[177.1291,-12.5016],[177.0911,-12.5164],[177.0115,-12.5095],[177.0059,-12.4895],[177.033,-12.4914],[177.0597,-12.4753],[177.1248,-12.4861]]]}},{"type":"Feature","id":"Western","properties":{"id":"Western","iso_code":"FJ-W","name":"Western","name_full":"Western","name_ja":"西部地域","center_lonlat":[177.7834,-17.7406]},"geometry":{"type":"MultiPolygon","coordinates":[[[[177.7834,-18.2232],[177.645,-18.1911],[177.5916,-18.1667],[177.4651,-18.1564],[177.4372,-18.136],[177.3359,-18.1056],[177.3136,-18.0739],[177.3068,-18.0813],[177.2858,-18.009],[177.2629,-17.9938],[177.2516,-17.9522],[177.2721,-17.9169],[177.259,-17.8793],[177.2656,-17.8596],[177.3615,-17.8349],[177.3729,-17.8152],[177.3703,-17.7497],[177.416,-17.7599],[177.4343,-17.7502],[177.4206,-17.6783],[177.3957,-17.663],[177.3889,-17.6406],[177.4204,-17.6223],[177.4343,-17.5979],[177.4651,-17.588],[177.4782,-17.5463],[177.4995,-17.5558],[177.5151,-17.5051],[177.5396,-17.5121],[177.6389,-17.4371],[177.6563,-17.4428],[177.6468,-17.4518],[177.6631,-17.4985],[177.6631,-17.4439],[177.7101,-17.4179],[177.7488,-17.4303],[177.7655,-17.3967],[177.8299,-17.364],[177.8337,-17.3902],[177.8202,-17.4172],[177.8363,-17.4213],[177.876,-17.3893],[177.8973,-17.4029],[177.9562,-17.4025],[178.0422,-17.3569],[178.1511,-17.3469],[178.1808,-17.3293],[178.1901,-17.3006],[178.2627,-17.3356],[178.2865,-17.3837],[178.2454,-17.4439],[178.2581,-17.4575],[178.2454,-17.4713],[178.3037,-17.4303],[178.3483,-17.4401],[178.3757,-17.4713],[178.3757,-17.4985],[178.4483,-17.5503],[178.4376,-17.647],[178.4185,-17.6657],[178.3316,-17.6466],[178.2826,-17.6222],[178.2717,-17.6475],[178.2452,-17.6608],[178.1392,-17.6682],[178.1055,-17.6505],[178.0416,-17.5709],[178.0257,-17.5727],[178.034,-17.62],[178.0091,-17.6689],[178.0062,-17.7402],[178.0199,-17.7418],[178.0817,-17.6882],[178.0997,-17.7017],[177.9909,-17.8078],[177.9728,-17.8488],[177.993,-17.8927],[177.9865,-17.9225],[178.0074,-17.9464],[177.9974,-17.983],[177.9451,-18.0008],[177.8459,-17.9796],[177.8056,-17.9926],[177.7694,-18.0755],[177.7824,-18.107],[177.8239,-18.1127],[177.8261,-18.123],[177.7995,-18.1633],[177.7834,-18.2232]]],[[[177.2721,-17.0808],[177.2858,-17.0466],[177.2879,-17.0852],[177.238,-17.1491],[177.2243,-17.1354],[177.2038,-17.1696],[177.176,-17.1633],[177.1902,-17.1559],[177.186,-17.1203],[177.2025,-17.111],[177.2183,-17.0738],[177.2485,-17.0535],[177.2721,-17.0808]]],[[[177.5607,-16.6769],[177.5912,-16.6862],[177.5803,-16.7284],[177.4714,-16.8344],[177.4297,-16.8344],[177.4372,-16.7934],[177.4566,-16.8056],[177.4754,-16.7966],[177.5586,-16.7214],[177.5725,-16.6995],[177.5607,-16.6769]]],[[[177.0939,-17.2453],[177.1201,-17.2555],[177.1492,-17.2453],[177.1629,-17.2658],[177.1118,-17.3103],[177.0939,-17.2453]]],[[[177.6488,-18.4929],[177.6631,-18.5885],[177.6365,-18.5628],[177.619,-18.5119],[177.6351,-18.486],[177.6488,-18.4929]]],[[[177.4437,-16.8679],[177.4037,-16.9026],[177.4165,-16.9094],[177.3954,-16.9368],[177.3731,-16.9029],[177.4028,-16.8815],[177.3958,-16.8661],[177.4437,-16.8679]]],[[[174.6159,-21.7111],[174.5969,-21.6984],[174.594,-21.6687],[174.6266,-21.6765],[174.6278,-21.7026],[174.6159,-21.7111]]]]}}]}
