{"type":"FeatureCollection","features":[{"type":"Feature","id":"Central Finland","properties":{"id":"Central Finland","iso_code":"FI-08","name":"Central Finland","name_full":"Central Finland","name_ja":"中央スオミ県","center_lonlat":[25.4438,62.5385]},"geometry":{"type":"Polygon","coordinates":[[[26.1378,63.4563],[26.17,63.4433],[26.1633,63.4298],[26.0872,63.368],[26.1338,63.3161],[26.1844,63.2281],[26.1831,63.2159],[26.1548,63.2028],[26.1609,63.1514],[26.3136,63.0385],[26.2339,63.0322],[26.2476,63.0067],[26.3188,62.9814],[26.3243,62.9688],[26.2908,62.9455],[26.1842,62.954],[26.0639,62.9375],[26.0522,62.921],[26.1875,62.8611],[26.1617,62.8439],[26.1741,62.8319],[26.3605,62.7575],[26.4403,62.7792],[26.5065,62.7487],[26.5832,62.6575],[26.597,62.6255],[26.5819,62.6009],[26.595,62.594],[26.4818,62.5246],[26.4881,62.5117],[26.5891,62.4706],[26.7118,62.4513],[26.6873,62.4046],[26.6936,62.3934],[26.7665,62.3621],[26.6853,62.3403],[26.6661,62.3214],[26.6763,62.3113],[26.6269,62.2958],[26.6358,62.246],[26.6568,62.2305],[26.6224,62.2273],[26.5574,62.2539],[26.5203,62.2558],[26.4995,62.251],[26.4836,62.2398],[26.4937,62.2307],[26.4608,62.214],[26.4,62.2234],[26.334,62.1973],[26.2448,62.1367],[26.2475,62.1007],[26.3903,61.9903],[26.3866,61.9652],[26.3475,61.9395],[26.3341,61.8838],[26.379,61.8753],[26.378,61.8125],[26.4744,61.7584],[26.5292,61.7017],[26.515,61.6385],[26.4966,61.631],[26.3947,61.6562],[26.3728,61.6519],[26.3546,61.6175],[26.3195,61.6076],[26.304,61.6499],[26.1461,61.6263],[26.0778,61.6515],[26.0576,61.6656],[26.0816,61.705],[26.0654,61.7192],[26.0093,61.7207],[25.9784,61.7581],[25.9249,61.7837],[25.9011,61.761],[25.8749,61.7602],[25.8779,61.7871],[25.862,61.798],[25.8164,61.735],[25.764,61.693],[25.7484,61.6933],[25.7573,61.7024],[25.6909,61.7059],[25.5822,61.6754],[25.5162,61.678],[25.461,61.527],[25.4265,61.4904],[24.9582,61.4559],[24.9362,61.5173],[24.8967,61.5499],[24.9121,61.5618],[24.9066,61.5802],[24.8753,61.5834],[24.829,61.5679],[24.7899,61.615],[24.7976,61.6373],[24.8297,61.6531],[24.9579,61.6378],[24.9659,61.6671],[24.9227,61.7094],[24.9453,61.735],[24.9957,61.7316],[24.9657,61.7809],[24.9807,61.7872],[24.9378,61.8014],[24.9303,61.8295],[24.9467,61.9177],[24.8878,62.0388],[24.8688,62.0557],[24.7735,62.0344],[24.6852,62.0495],[24.6686,62.0585],[24.6691,62.109],[24.5303,62.1929],[24.4485,62.1803],[24.4313,62.1741],[24.4436,62.1595],[24.4157,62.1547],[24.3326,62.175],[24.2458,62.2548],[24.1193,62.2726],[24.0539,62.2959],[24.0235,62.3307],[24.0203,62.364],[24.132,62.4409],[24.1981,62.4688],[24.3263,62.4587],[24.3278,62.4913],[24.3723,62.5],[24.4343,62.4786],[24.5023,62.4984],[24.5228,62.5203],[24.5274,62.5609],[24.5423,62.5595],[24.5373,62.5761],[24.5637,62.5809],[24.5556,62.6094],[24.5817,62.6116],[24.515,62.6186],[24.5203,62.6354],[24.5711,62.6606],[24.3652,62.8435],[24.3655,62.8618],[24.4411,62.868],[24.4509,62.8831],[24.4436,62.8958],[24.4199,62.9111],[24.3642,62.9179],[24.3466,62.9342],[24.3393,62.9654],[24.3047,62.9949],[24.2967,63.035],[24.2783,63.0347],[24.2661,63.0603],[24.3265,63.0768],[24.3628,63.1192],[24.5282,63.1591],[24.7364,63.1371],[24.7641,63.2316],[24.7593,63.2629],[24.7999,63.2758],[24.7834,63.3522],[24.8112,63.3808],[24.8957,63.4181],[25.0287,63.458],[25.0807,63.471],[25.1505,63.5754],[25.1905,63.5967],[25.2316,63.6009],[25.3584,63.5821],[25.4914,63.5315],[25.7363,63.5177],[25.9121,63.4385],[26.029,63.4346],[26.1378,63.4563]]]}},{"type":"Feature","id":"Central Ostrobothnia","properties":{"id":"Central Ostrobothnia","iso_code":"FI-07","name":"Central Ostrobothnia","name_full":"Central Ostrobothnia","name_ja":"中部ポフヤンマー県","center_lonlat":[24.0767,63.6217]},"geometry":{"type":"Polygon","coordinates":[[[22.9907,63.7876],[22.9907,63.8154],[23.075,63.8574],[23.1326,63.8525],[23.1535,63.8635],[23.1419,63.876],[23.155,63.8837],[23.2752,63.8889],[23.3264,63.911],[23.3508,63.8988],[23.3942,63.9111],[23.4158,63.9246],[23.3709,63.9465],[23.3788,63.9689],[23.3674,63.9973],[23.3816,64.0482],[23.4152,64.0562],[23.4773,64.0351],[23.5066,64.0417],[23.6045,64.0277],[23.6198,64.038],[23.5661,64.0966],[23.5736,64.1072],[23.6144,64.1034],[23.7065,64.1681],[23.8822,64.1107],[24.0364,64.0778],[24.094,64.0477],[24.1272,63.9777],[24.2239,63.9254],[24.2431,63.8838],[24.4083,63.8341],[24.6304,63.659],[24.7686,63.6046],[25.0007,63.484],[25.0287,63.458],[24.8957,63.4181],[24.8112,63.3808],[24.7834,63.3522],[24.7999,63.2758],[24.7593,63.2629],[24.7641,63.2316],[24.7364,63.1371],[24.5282,63.1591],[24.3628,63.1192],[24.1783,63.1516],[24.2249,63.1745],[24.0432,63.2631],[23.8705,63.2816],[23.7994,63.3016],[23.743,63.3356],[23.6994,63.3806],[23.7107,63.386],[23.6753,63.4242],[23.6399,63.5321],[23.578,63.5567],[23.5668,63.5924],[23.4436,63.6075],[23.4852,63.6371],[23.4749,63.6582],[23.4834,63.6651],[23.4996,63.6685],[23.5176,63.6405],[23.5457,63.6352],[23.734,63.6682],[23.7154,63.6887],[23.5031,63.767],[23.4759,63.7683],[23.4495,63.7434],[23.3215,63.7533],[23.2458,63.7198],[23.1979,63.7238],[23.0361,63.787],[22.9907,63.7876]]]}},{"type":"Feature","id":"Finland Proper","properties":{"id":"Finland Proper","iso_code":"FI-19","name":"Finland Proper","name_full":"Finland Proper","name_ja":"南西スオミ県","center_lonlat":[22.6525,60.6216]},"geometry":{"type":"MultiPolygon","coordinates":[[[[23.0213,60.1068],[23.0459,60.1216],[23.0254,60.1353],[23.0049,60.1074],[22.9695,60.0944],[22.9587,60.1216],[22.8747,60.1496],[22.8856,60.1693],[22.8672,60.1837],[22.9216,60.2311],[23.0076,60.277],[23.0806,60.355],[23.0342,60.3439],[22.9981,60.3066],[22.9412,60.3165],[22.8771,60.3011],[22.7362,60.2382],[22.5251,60.2043],[22.5934,60.2322],[22.572,60.2427],[22.5903,60.2623],[22.6481,60.2787],[22.4495,60.2452],[22.4592,60.265],[22.5403,60.319],[22.5457,60.3339],[22.6276,60.3754],[22.6243,60.3991],[22.5808,60.3759],[22.5435,60.3725],[22.4631,60.3756],[22.4836,60.4022],[22.2915,60.3826],[22.1815,60.4305],[22.1167,60.437],[22.1011,60.4621],[22.0645,60.4363],[22.047,60.4388],[22.0181,60.4575],[22.0181,60.4711],[21.9819,60.4768],[21.9839,60.4923],[21.9354,60.4923],[21.9504,60.5189],[21.9032,60.5289],[21.8439,60.5155],[21.874,60.478],[21.7853,60.478],[21.8079,60.5756],[21.846,60.5878],[21.8285,60.6064],[21.8405,60.6287],[21.7318,60.5817],[21.6618,60.5673],[21.669,60.5452],[21.6414,60.4958],[21.5581,60.4923],[21.5838,60.505],[21.5178,60.5673],[21.5786,60.5673],[21.4426,60.5673],[21.4085,60.5804],[21.4284,60.5941],[21.4148,60.6083],[21.47,60.6083],[21.3999,60.6341],[21.3533,60.6766],[21.3533,60.6902],[21.439,60.6803],[21.4456,60.6929],[21.4221,60.725],[21.47,60.7311],[21.3874,60.7523],[21.4221,60.7591],[21.3743,60.7796],[21.3743,60.8076],[21.3289,60.8275],[21.3364,60.8447],[21.3185,60.8647],[21.4079,60.8646],[21.4284,60.8758],[21.3809,60.882],[21.3533,60.9025],[21.3908,60.9168],[21.4284,60.9025],[21.4128,60.9335],[21.3926,60.939],[21.3185,61.0124],[21.339,61.0266],[21.3115,61.0375],[21.2987,61.0601],[21.3874,61.0403],[21.4081,61.0482],[21.4506,61.0146],[21.4934,61.0037],[21.5742,61.0078],[21.6005,61.0163],[21.6003,61.0344],[21.6237,61.0458],[21.6497,61.0095],[21.7064,60.9988],[21.7555,61.006],[21.779,61.0353],[21.8143,61.0358],[21.8244,61.0325],[21.81,61.0183],[21.9519,60.9732],[21.9454,60.9507],[22.0056,60.8987],[22.1511,60.8857],[22.2462,60.9246],[22.5619,60.9436],[22.5731,60.948],[22.5346,60.97],[22.5702,60.986],[22.723,60.9833],[22.8011,60.9966],[22.8277,61.0125],[22.8197,61.0403],[22.8376,61.0598],[22.826,61.09],[22.9698,61.0455],[23.0074,61.0293],[23.1224,61.0316],[23.1974,60.9999],[23.2797,60.9582],[23.2949,60.9363],[23.2884,60.9222],[23.2564,60.9146],[23.2671,60.8933],[23.1577,60.8902],[23.1383,60.8709],[23.142,60.8462],[23.2157,60.8195],[23.1624,60.7799],[23.1765,60.7637],[23.3078,60.723],[23.477,60.7465],[23.528,60.7128],[23.6529,60.6896],[23.7046,60.6611],[23.8967,60.6488],[23.8805,60.6204],[23.9139,60.5975],[23.893,60.5709],[23.8614,60.5563],[23.865,60.5121],[23.7442,60.4863],[23.6997,60.4519],[23.7793,60.4497],[23.7936,60.4185],[23.7861,60.3926],[23.7462,60.3707],[23.7246,60.3192],[23.6411,60.283],[23.6256,60.2619],[23.5924,60.2585],[23.646,60.2235],[23.6417,60.198],[23.563,60.2038],[23.4875,60.1743],[23.393,60.16],[23.3333,60.1655],[23.3166,60.1724],[23.3242,60.1852],[23.3105,60.1864],[23.1142,60.0947],[23.0686,60.0894],[23.0213,60.1068]]],[[[22.8435,60.2418],[22.891,60.2855],[22.9564,60.293],[22.9495,60.2705],[22.8335,60.1931],[22.8403,60.1701],[22.8193,60.1627],[22.8403,60.1558],[22.833,60.1422],[22.8469,60.111],[22.8132,60.0821],[22.7305,60.0466],[22.758,60.0323],[22.7298,60.005],[22.6821,59.9975],[22.655,60.0323],[22.6003,59.9845],[22.599,60.008],[22.5791,60.005],[22.5749,60.017],[22.5934,60.0466],[22.53,60.0082],[22.4699,59.9975],[22.4736,60.091],[22.4221,60.1148],[22.4805,60.1323],[22.6003,60.1422],[22.4152,60.1496],[22.4481,60.2214],[22.4773,60.2247],[22.451,60.1885],[22.4665,60.1837],[22.5666,60.1933],[22.6206,60.2111],[22.815,60.227],[22.8435,60.2418]]],[[[21.9976,60.3339],[21.9014,60.3271],[21.9014,60.3414],[21.7941,60.374],[21.7922,60.397],[21.846,60.4097],[21.7983,60.4438],[21.8081,60.4667],[21.8324,60.4711],[21.932,60.4233],[21.9504,60.396],[21.8945,60.396],[21.9504,60.3756],[21.9422,60.3681],[21.9886,60.3659],[21.9976,60.355],[21.9634,60.3476],[21.9976,60.3339]]],[[[22.1068,60.3135],[22.2498,60.3115],[22.3396,60.2862],[22.3318,60.2694],[22.2898,60.2731],[22.2155,60.2531],[22.2009,60.2543],[22.2166,60.2657],[22.2039,60.2763],[22.1812,60.2813],[22.1409,60.2787],[22.1819,60.2787],[22.1633,60.2592],[22.0801,60.2695],[22.0838,60.3015],[22.1068,60.3135]]],[[[21.7437,60.1906],[21.8535,60.1968],[21.8877,60.1763],[21.846,60.1701],[21.8678,60.1558],[21.7915,60.1558],[21.8262,60.1496],[21.7966,60.1414],[21.8057,60.1353],[21.7832,60.1232],[21.7202,60.1137],[21.6958,60.1216],[21.7069,60.1296],[21.7026,60.1422],[21.7225,60.1496],[21.7051,60.1607],[21.7082,60.1718],[21.7437,60.1906]]],[[[21.4966,60.1353],[21.5711,60.1704],[21.6543,60.1558],[21.6133,60.1291],[21.637,60.1237],[21.6131,60.1021],[21.5144,60.0974],[21.4823,60.1148],[21.5581,60.1216],[21.549,60.1335],[21.4966,60.1353]]],[[[21.3942,60.5599],[21.411,60.5429],[21.4619,60.5394],[21.4823,60.5258],[21.4631,60.5258],[21.4631,60.4923],[21.4336,60.4891],[21.4426,60.4711],[21.3923,60.49],[21.3601,60.5332],[21.3286,60.5253],[21.3338,60.5574],[21.3942,60.5599]]],[[[22.4084,60.0528],[22.4019,60.0758],[22.4118,60.0852],[22.4495,60.0665],[22.4426,59.9975],[22.4095,60.0093],[22.3828,59.9926],[22.3532,60.0323],[22.3489,60.0632],[22.3706,60.0808],[22.3872,60.0517],[22.4084,60.0528]]],[[[21.2644,60.882],[21.2024,60.8895],[21.2278,60.8997],[21.2987,60.8957],[21.2912,60.91],[21.3123,60.923],[21.2434,60.9509],[21.27,60.968],[21.3049,60.9714],[21.3743,60.9304],[21.3279,60.9101],[21.3181,60.8802],[21.2644,60.882]]],[[[22.388,60.321],[22.3128,60.321],[22.3503,60.3478],[22.3982,60.355],[22.4016,60.3414],[22.4773,60.321],[22.4253,60.2991],[22.3674,60.293],[22.388,60.321]]],[[[22.0589,60.2111],[22.072,60.1968],[22.0112,60.1701],[22.0379,60.1558],[22.0093,60.1373],[21.9777,60.1355],[21.9507,60.1491],[21.9354,60.1763],[22.0589,60.2111]]],[[[21.3533,60.2111],[21.3689,60.1966],[21.4489,60.1837],[21.4094,60.1845],[21.3805,60.1627],[21.2707,60.1906],[21.3064,60.2097],[21.3533,60.2111]]],[[[22.2092,60.2043],[22.2459,60.2431],[22.2717,60.253],[22.2918,60.2452],[22.2969,60.2213],[22.2693,60.1959],[22.2323,60.185],[22.2092,60.2043]]],[[[22.9575,60.1108],[22.9631,60.0969],[22.9468,60.0847],[22.8455,60.0822],[22.8916,60.1191],[22.9377,60.1243],[22.9575,60.1108]]],[[[21.3191,60.4817],[21.2503,60.4984],[21.2606,60.5197],[21.2292,60.5599],[21.2785,60.5423],[21.3049,60.5189],[21.3191,60.4817]]],[[[21.2987,60.5673],[21.2332,60.5939],[21.2139,60.6164],[21.2593,60.6475],[21.2707,60.6431],[21.2912,60.6151],[21.2815,60.5756],[21.2987,60.5673]]],[[[22.3132,60.192],[22.375,60.204],[22.3856,60.1953],[22.3679,60.1774],[22.32,60.164],[22.3369,60.1485],[22.2883,60.1498],[22.3132,60.192]]],[[[22.2997,60.3676],[22.1911,60.3417],[22.1572,60.3519],[22.2557,60.3742],[22.2997,60.3676]]],[[[21.9569,60.2814],[21.9097,60.2801],[21.8753,60.3049],[21.9738,60.3093],[21.9569,60.2814]]],[[[22.8874,60.0678],[22.9266,60.0654],[22.8722,60.006],[22.8511,60.0279],[22.8557,60.0413],[22.8838,60.0481],[22.8552,60.0556],[22.8874,60.0678]]],[[[21.7259,60.4817],[21.7007,60.4597],[21.6817,60.4649],[21.7142,60.5086],[21.7642,60.5258],[21.7259,60.4817]]],[[[21.6004,60.2548],[21.6267,60.2526],[21.6017,60.2226],[21.5635,60.2262],[21.5869,60.2694],[21.6047,60.2688],[21.6004,60.2548]]],[[[21.9915,60.13],[22.0124,60.1227],[21.9714,60.1114],[21.9299,60.1246],[21.9621,60.1379],[21.9915,60.13]]],[[[22.2062,60.3826],[22.1043,60.3542],[22.1379,60.3791],[22.2062,60.3826]]],[[[22.4985,59.8776],[22.5129,59.8737],[22.4437,59.8515],[22.4138,59.8612],[22.4985,59.8776]]],[[[21.3381,60.3834],[21.3553,60.3518],[21.2944,60.3705],[21.3078,60.3896],[21.3381,60.3834]]],[[[21.2595,60.8531],[21.2632,60.8303],[21.1863,60.8565],[21.2595,60.8531]]],[[[21.9832,60.285],[21.9729,60.2853],[22.0083,60.2973],[21.9832,60.285]]]]}},{"type":"Feature","id":"Kainuu","properties":{"id":"Kainuu","iso_code":"FI-05","name":"Kainuu","name_full":"Kainuu","name_ja":"カイヌー県","center_lonlat":[28.5935,64.5184]},"geometry":{"type":"Polygon","coordinates":[[[29.7315,65.4969],[29.7182,65.4542],[29.7306,65.3654],[29.7201,65.3291],[29.6151,65.2694],[29.5801,65.2354],[29.6267,65.2152],[29.7668,65.2174],[29.8332,65.205],[29.8393,65.1669],[29.8082,65.1353],[29.8502,65.1215],[29.8205,65.0937],[29.6678,65.0779],[29.6273,65.0622],[29.5984,65.0344],[29.5881,64.9914],[29.6336,64.9072],[29.6983,64.8391],[29.7803,64.7956],[30.0625,64.7842],[30.1189,64.7679],[30.1091,64.7201],[30.1705,64.6817],[30.1878,64.6624],[30.1808,64.6428],[30.1364,64.6154],[29.9548,64.569],[29.9685,64.5628],[29.9905,64.5042],[30.0704,64.4719],[30.0325,64.3969],[30.0931,64.3612],[30.3211,64.3177],[30.3705,64.3008],[30.446,64.2508],[30.5362,64.2347],[30.5585,64.2197],[30.5328,64.1625],[30.5864,64.0847],[30.5805,64.0511],[30.5523,64.0217],[30.3286,63.896],[30.2656,63.8307],[30.2015,63.7926],[29.9984,63.7471],[29.9301,63.748],[29.7587,63.7156],[29.7359,63.7322],[29.6866,63.858],[29.6562,63.8734],[28.9347,63.842],[28.572,63.8834],[28.4655,63.8713],[28.4412,63.8249],[28.3584,63.7534],[28.3065,63.6975],[28.2608,63.6786],[28.152,63.722],[28.0829,63.7756],[27.7447,63.9083],[27.5221,63.9568],[27.4452,63.9449],[27.3879,63.9726],[26.8721,64.0334],[26.8035,64.0587],[26.7885,64.0773],[26.7733,64.2447],[26.7601,64.2644],[26.6914,64.2731],[26.6899,64.3084],[26.677,64.3159],[26.5574,64.3186],[26.4747,64.3509],[26.4663,64.3944],[26.4146,64.4307],[26.296,64.4804],[26.3227,64.4938],[26.3194,64.5027],[26.433,64.5452],[26.55,64.564],[26.5356,64.571],[26.6471,64.6247],[26.6463,64.6473],[26.8087,64.659],[26.9042,64.7072],[26.9082,64.7323],[26.8922,64.7325],[26.9073,64.7521],[26.9927,64.7937],[27.1153,64.8266],[27.3602,64.8178],[27.3791,64.8328],[27.3657,64.8365],[27.388,64.8455],[27.384,64.8772],[27.4051,64.9317],[27.382,64.9423],[27.3924,64.9516],[27.3801,64.9641],[27.281,65.0157],[27.2824,65.0488],[27.3634,65.0857],[27.7643,65.1072],[27.8835,65.0922],[27.9032,65.1065],[27.9403,65.1752],[27.9782,65.2114],[28.0234,65.2315],[28.6138,65.2965],[28.606,65.3163],[28.5739,65.3188],[28.6505,65.3656],[28.6591,65.3744],[28.6485,65.3847],[28.9485,65.4467],[29.1159,65.4552],[29.1966,65.4741],[29.2466,65.5219],[29.4888,65.4919],[29.7315,65.4969]]]}},{"type":"Feature","id":"Kymenlaakso","properties":{"id":"Kymenlaakso","iso_code":"FI-09","name":"Kymenlaakso","name_full":"Kymenlaakso","name_ja":"キュメンラークソ県","center_lonlat":[26.8907,60.8296]},"geometry":{"type":"MultiPolygon","coordinates":[[[[28.0038,60.6642],[27.8079,60.553],[27.7621,60.5801],[27.7395,60.5742],[27.7532,60.5599],[27.7334,60.5443],[27.7532,60.5189],[27.7327,60.5121],[27.7532,60.5058],[27.7184,60.4885],[27.6365,60.4923],[27.6917,60.5189],[27.6517,60.5226],[27.6322,60.5217],[27.6082,60.4999],[27.6296,60.4711],[27.5085,60.5139],[27.4727,60.5058],[27.4932,60.4923],[27.4727,60.478],[27.5067,60.4575],[27.4568,60.4637],[27.3693,60.4979],[27.2324,60.5121],[27.2308,60.5263],[27.3081,60.5258],[27.2119,60.5599],[27.2277,60.5796],[27.2146,60.5849],[27.1777,60.5673],[27.2007,60.5233],[27.1777,60.5121],[27.1697,60.5286],[27.1377,60.529],[27.1126,60.5468],[27.0884,60.5258],[27.0544,60.5468],[27.0244,60.5361],[27.0271,60.5199],[26.9982,60.488],[26.9314,60.4854],[26.9653,60.4585],[26.9624,60.4472],[26.9147,60.4746],[26.7936,60.4575],[26.8147,60.4854],[26.797,60.4859],[26.7424,60.468],[26.739,60.437],[26.7014,60.4199],[26.617,60.4529],[26.5534,60.433],[26.502,60.4531],[26.4749,60.4873],[26.5366,60.5155],[26.5676,60.55],[26.5645,60.5726],[26.5798,60.5914],[26.625,60.6096],[26.6667,60.6064],[26.7532,60.5742],[26.6992,60.6402],[26.6592,60.6518],[26.6155,60.6431],[26.5533,60.5918],[26.501,60.5994],[26.4163,60.6513],[26.3483,60.6711],[26.3287,60.6879],[26.3279,60.7172],[26.2887,60.752],[26.2155,60.7554],[26.1803,60.8156],[26.0834,60.8381],[26.0858,60.8525],[26.119,60.8679],[26.1594,60.92],[26.0428,60.9551],[26.0462,60.9841],[26.1116,60.9856],[26.1366,61.0249],[26.1087,61.0669],[26.0582,61.0902],[26.0521,61.1076],[26.0855,61.1378],[26.1302,61.1514],[26.1979,61.133],[26.3006,61.1549],[26.3954,61.1998],[26.4428,61.2592],[26.5151,61.2737],[26.6347,61.2826],[26.6659,61.2481],[26.6403,61.2215],[26.6644,61.2098],[26.7614,61.2392],[26.7969,61.2735],[26.8719,61.2833],[26.9183,61.2268],[26.9252,61.1905],[26.9436,61.1713],[27.0016,61.1515],[27.2132,61.1618],[27.215,61.1446],[27.1876,61.1134],[27.2293,61.0969],[27.1683,61.0729],[27.1497,61.0533],[27.1613,61.0271],[27.1447,61.0137],[27.2043,60.9997],[27.2424,60.972],[27.2393,60.9621],[27.1926,60.954],[27.1313,60.9639],[27.143,60.9469],[27.2463,60.8981],[27.3715,60.8729],[27.5108,60.7978],[27.6884,60.7987],[27.7304,60.7652],[27.8529,60.7557],[27.8875,60.7084],[27.9546,60.6819],[27.9561,60.6682],[28.0038,60.6642]]],[[[26.6021,60.4465],[26.6526,60.4269],[26.5731,60.4053],[26.5486,60.3784],[26.5072,60.4035],[26.5747,60.4218],[26.6021,60.4465]]]]}},{"type":"Feature","id":"Lapland","properties":{"id":"Lapland","iso_code":"FI-10","name":"Lapland","name_full":"Lapland","name_ja":"ラッピ県","center_lonlat":[26.3397,67.7195]},"geometry":{"type":"Polygon","coordinates":[[[29.5462,66.432],[29.1691,66.4192],[28.7345,66.4844],[28.6893,66.473],[28.6694,66.4151],[28.6108,66.4091],[28.5539,66.3678],[28.5482,66.3106],[28.5737,66.2861],[28.6506,66.2602],[28.6462,66.2502],[28.7356,66.2578],[28.7641,66.2389],[28.7366,66.2065],[28.7626,66.1812],[28.7204,66.1581],[28.711,66.137],[28.6085,66.1181],[28.6445,66.0833],[28.6335,66.0739],[28.7565,66.0428],[28.7564,66.0206],[28.722,65.9982],[28.6754,65.9923],[28.5475,65.9991],[28.437,65.9871],[28.3894,66.0033],[28.3961,65.9754],[28.3763,65.9696],[28.4967,65.9015],[28.5146,65.8746],[28.47,65.8386],[28.423,65.8289],[28.194,65.8054],[27.765,65.8293],[27.7697,65.8427],[27.6377,65.9536],[27.5999,65.9511],[27.5543,65.9249],[27.4307,65.9517],[27.1022,65.7508],[26.8418,65.7052],[26.188,65.7189],[26.1642,65.7258],[26.1584,65.7418],[26.163,65.8093],[26.1284,65.8139],[25.7623,65.7464],[25.506,65.7533],[25.3882,65.7361],[25.0932,65.5919],[25.0742,65.6142],[24.9372,65.6241],[24.8591,65.6591],[24.7803,65.6597],[24.7068,65.6333],[24.6758,65.6354],[24.6677,65.6909],[24.584,65.7169],[24.5505,65.7635],[24.5754,65.8082],[24.6458,65.8795],[24.7075,65.8992],[24.7106,65.9121],[24.6179,65.8892],[24.6145,65.8662],[24.5188,65.796],[24.453,65.7969],[24.4048,65.7692],[24.2383,65.8227],[24.2512,65.7941],[24.2443,65.7816],[24.2062,65.7788],[24.1631,65.8159],[24.1634,65.8408],[24.0548,65.9479],[24.0553,65.9852],[24.0196,66.0489],[23.9746,66.0728],[23.9114,66.1486],[23.75,66.1897],[23.6894,66.257],[23.6628,66.3165],[23.677,66.3636],[23.6659,66.4056],[23.6423,66.4363],[23.6524,66.4588],[23.7311,66.4872],[23.7311,66.5031],[23.7859,66.5184],[23.8077,66.5392],[23.8819,66.5635],[23.8932,66.596],[23.8819,66.6318],[23.9032,66.6863],[23.8924,66.7509],[23.9392,66.7911],[24.004,66.8052],[23.9334,66.8888],[23.8167,66.9755],[23.7203,67.0169],[23.6767,67.0585],[23.6666,67.0979],[23.5813,67.1531],[23.574,67.173],[23.6149,67.214],[23.5915,67.225],[23.6027,67.2603],[23.7354,67.2897],[23.7857,67.3375],[23.7514,67.3462],[23.7652,67.4201],[23.5946,67.4536],[23.4772,67.4438],[23.4437,67.461],[23.4313,67.4855],[23.4847,67.543],[23.4734,67.555],[23.5535,67.587],[23.4846,67.7372],[23.4813,67.8646],[23.5325,67.8932],[23.6361,67.9135],[23.6612,67.9329],[23.6622,67.9504],[23.5737,67.9733],[23.383,68.0512],[23.3065,68.1456],[23.1656,68.122],[23.1494,68.1394],[23.1552,68.2174],[23.0816,68.2653],[23.0669,68.2903],[22.9037,68.3366],[22.8083,68.3949],[22.7486,68.3855],[22.6622,68.4274],[22.378,68.4541],[22.3711,68.4684],[22.3031,68.4761],[22.0722,68.477],[21.9192,68.5682],[21.7371,68.5879],[21.7168,68.6192],[21.5725,68.6674],[21.4636,68.6869],[21.4064,68.7489],[21.3054,68.7558],[21.2166,68.8172],[21.0721,68.8694],[20.9057,68.8946],[20.8845,68.9067],[20.8876,68.9271],[20.9343,68.949],[20.9346,68.967],[20.9112,68.9807],[20.6232,69.0364],[20.7166,69.0988],[20.7444,69.1044],[21.0715,69.0367],[21.099,69.0438],[21.1564,69.0876],[21.0336,69.1812],[21.0984,69.2395],[21.3136,69.2914],[21.6388,69.2714],[22.0231,69.012],[22.1607,68.9561],[22.2002,68.9085],[22.2772,68.8575],[22.3714,68.8226],[22.4092,68.7129],[22.5701,68.7268],[22.8517,68.6757],[23.0715,68.6809],[23.1976,68.618],[23.4816,68.6856],[23.6416,68.695],[23.7348,68.7154],[23.7872,68.7998],[23.8526,68.8167],[23.929,68.8162],[24.1312,68.7762],[24.1869,68.7445],[24.3325,68.7086],[24.6634,68.6661],[24.7542,68.6379],[24.8792,68.5548],[24.9052,68.557],[24.9518,68.6051],[25.1324,68.6476],[25.1442,68.668],[25.1321,68.6766],[25.1496,68.7646],[25.2013,68.8126],[25.4339,68.8839],[25.6278,68.8741],[25.7264,68.9425],[25.7539,68.9784],[25.7958,68.9933],[25.8011,69.0132],[25.7658,69.0307],[25.7502,69.0592],[25.7712,69.1351],[25.7341,69.1913],[25.7372,69.2182],[25.7866,69.3128],[25.8774,69.3708],[25.8414,69.4178],[25.8867,69.4552],[25.8857,69.4791],[25.9064,69.5019],[25.8867,69.5209],[25.9603,69.5487],[26.004,69.5872],[26.0051,69.6108],[25.9617,69.6525],[26.0051,69.6893],[26.1983,69.7154],[26.3168,69.7949],[26.4187,69.8356],[26.4479,69.856],[26.4359,69.8742],[26.5007,69.9183],[26.5339,69.9252],[26.8646,69.9381],[27.1003,69.9018],[27.3118,69.9295],[27.3524,69.9487],[27.3232,69.9597],[27.3345,69.9686],[27.5633,70.0236],[27.5709,70.0409],[27.6126,70.0621],[27.7922,70.0589],[27.8973,70.0707],[28.1674,69.8943],[28.3812,69.8562],[28.3797,69.8224],[28.4046,69.8023],[29.1312,69.6742],[29.2032,69.586],[29.3445,69.4644],[29.2293,69.3769],[28.8522,69.2035],[28.8276,69.0908],[28.9541,69.0273],[28.8335,68.9845],[28.4102,68.8985],[28.4131,68.8801],[28.4442,68.8658],[28.7283,68.865],[28.8015,68.8355],[28.7164,68.728],[28.4479,68.5297],[28.4809,68.4626],[28.6638,68.204],[28.6903,68.1832],[29.3309,68.0727],[29.6512,67.8236],[30.0094,67.6858],[29.9777,67.6622],[29.9599,67.5716],[29.9162,67.5081],[29.5198,67.2982],[29.4907,67.263],[29.4294,67.2328],[29.0999,66.9912],[29.0515,66.9078],[29.0892,66.8375],[29.3222,66.6801],[29.3924,66.6053],[29.4094,66.5685],[29.5245,66.4912],[29.5462,66.432]]]}},{"type":"Feature","id":"North Karelia","properties":{"id":"North Karelia","iso_code":"FI-13","name":"North Karelia","name_full":"North Karelia","name_ja":"北カルヤラ県","center_lonlat":[29.931,62.9167]},"geometry":{"type":"Polygon","coordinates":[[[29.9984,63.7471],[29.9808,63.7415],[30.0011,63.7153],[30.2425,63.5818],[30.3804,63.5325],[30.4611,63.4729],[30.8209,63.3757],[30.9749,63.2892],[31.204,63.2127],[31.2257,63.196],[31.2628,63.1006],[31.4806,62.9863],[31.5358,62.9195],[31.5695,62.9059],[31.4413,62.7887],[31.3633,62.6516],[31.2841,62.573],[31.2438,62.5033],[31.1686,62.476],[31.1233,62.4348],[30.9806,62.3588],[30.9256,62.3021],[30.6477,62.1928],[30.6072,62.1513],[30.3396,61.9917],[30.1456,61.8505],[30.0572,61.8488],[29.564,61.7241],[29.6536,61.7833],[29.6938,61.8249],[29.6736,61.8504],[29.6928,61.8671],[29.6238,61.9059],[29.6166,61.9235],[29.6564,61.9731],[29.5452,62.0259],[29.4591,62.0987],[29.4221,62.1606],[29.4131,62.2448],[29.3398,62.2991],[29.2814,62.383],[29.2495,62.4096],[29.2088,62.4176],[29.1593,62.3855],[29.1116,62.3919],[29.1019,62.3967],[29.1078,62.4143],[29.084,62.4213],[29.1137,62.483],[29.1071,62.4911],[29.0241,62.5094],[29.0145,62.5144],[29.0398,62.524],[28.8274,62.6248],[28.6582,62.6533],[28.7021,62.6923],[28.6464,62.7443],[28.6731,62.7666],[28.7265,62.7811],[28.7699,62.8256],[28.796,62.8283],[28.9241,62.782],[29.0815,62.8375],[29.0883,62.85],[29.0105,62.8766],[28.9335,62.9277],[28.9904,62.9278],[28.9693,62.9456],[28.976,62.9548],[29.0573,62.9816],[29.0519,62.999],[28.8769,63.0602],[28.7197,63.1645],[28.6182,63.2088],[28.6572,63.2362],[28.653,63.2515],[28.7102,63.2767],[28.6996,63.2835],[28.748,63.323],[28.7614,63.3766],[28.6612,63.4369],[28.617,63.5137],[28.6209,63.5398],[28.6752,63.549],[28.615,63.5951],[28.5879,63.6567],[28.6074,63.6735],[28.5498,63.6929],[28.4696,63.6972],[28.3584,63.7534],[28.4412,63.8249],[28.4655,63.8713],[28.572,63.8834],[28.9347,63.842],[29.6562,63.8734],[29.6866,63.858],[29.7359,63.7322],[29.7587,63.7156],[29.9301,63.748],[29.9984,63.7471]]]}},{"type":"Feature","id":"Northern Ostrobothnia","properties":{"id":"Northern Ostrobothnia","iso_code":"FI-14","name":"Northern Ostrobothnia","name_full":"Northern Ostrobothnia","name_ja":"北ポフヤンマー県","center_lonlat":[26.634,64.9669]},"geometry":{"type":"MultiPolygon","coordinates":[[[[29.5462,66.432],[29.5697,66.3782],[29.6509,66.2879],[29.9002,66.1081],[29.9585,65.9739],[30.0751,65.8228],[30.1117,65.712],[30.1139,65.6655],[30.0985,65.6564],[30.003,65.6781],[29.7643,65.6481],[29.7029,65.6294],[29.8386,65.5649],[29.7315,65.4969],[29.4888,65.4919],[29.2466,65.5219],[29.1966,65.4741],[29.1159,65.4552],[28.9485,65.4467],[28.6485,65.3847],[28.6591,65.3744],[28.6505,65.3656],[28.5739,65.3188],[28.606,65.3163],[28.6138,65.2965],[28.0234,65.2315],[27.9782,65.2114],[27.9403,65.1752],[27.9032,65.1065],[27.8835,65.0922],[27.7643,65.1072],[27.3634,65.0857],[27.2824,65.0488],[27.281,65.0157],[27.3801,64.9641],[27.3924,64.9516],[27.382,64.9423],[27.4051,64.9317],[27.384,64.8772],[27.388,64.8455],[27.3657,64.8365],[27.3791,64.8328],[27.3602,64.8178],[27.1153,64.8266],[26.9927,64.7937],[26.9073,64.7521],[26.8922,64.7325],[26.9082,64.7323],[26.9042,64.7072],[26.8087,64.659],[26.6463,64.6473],[26.6471,64.6247],[26.5356,64.571],[26.55,64.564],[26.433,64.5452],[26.3194,64.5027],[26.3227,64.4938],[26.296,64.4804],[26.4146,64.4307],[26.4663,64.3944],[26.4747,64.3509],[26.5574,64.3186],[26.677,64.3159],[26.6899,64.3084],[26.6914,64.2731],[26.7601,64.2644],[26.7733,64.2447],[26.7885,64.0773],[26.8035,64.0587],[26.8721,64.0334],[26.694,64.0053],[26.2986,63.8538],[26.238,63.8069],[26.2893,63.6227],[26.2857,63.5888],[26.2202,63.5708],[26.1991,63.553],[26.1755,63.4908],[26.1378,63.4563],[26.029,63.4346],[25.9121,63.4385],[25.7363,63.5177],[25.4914,63.5315],[25.3584,63.5821],[25.2316,63.6009],[25.1905,63.5967],[25.1505,63.5754],[25.0807,63.471],[25.0287,63.458],[25.0007,63.484],[24.7686,63.6046],[24.6304,63.659],[24.4083,63.8341],[24.2431,63.8838],[24.2239,63.9254],[24.1272,63.9777],[24.094,64.0477],[24.0364,64.0778],[23.8822,64.1107],[23.7065,64.1681],[23.7236,64.1785],[23.7194,64.1943],[23.7357,64.2162],[23.7727,64.2089],[23.8191,64.2206],[23.8611,64.2679],[23.9434,64.2468],[23.9276,64.2712],[23.929,64.3014],[23.9842,64.3498],[24.0044,64.3891],[24.0686,64.4056],[24.0847,64.4147],[24.0806,64.4317],[24.2057,64.4522],[24.2178,64.487],[24.2576,64.486],[24.286,64.515],[24.3441,64.5307],[24.3611,64.5484],[24.355,64.5724],[24.3739,64.5795],[24.3755,64.6173],[24.4229,64.6756],[24.5303,64.7178],[24.5461,64.7334],[24.5324,64.7539],[24.5877,64.7812],[24.5384,64.8053],[24.6683,64.7891],[24.6707,64.8297],[24.7317,64.8358],[24.7363,64.8554],[24.897,64.8731],[25.0947,64.9184],[25.1432,64.8842],[25.1773,64.8842],[25.1873,64.8607],[25.2176,64.8415],[25.2593,64.8358],[25.2251,64.8227],[25.2595,64.8165],[25.3622,64.8331],[25.3504,64.8517],[25.3685,64.8985],[25.3595,64.9111],[25.3213,64.9047],[25.2412,64.929],[25.1909,64.9668],[25.221,64.9905],[25.3216,64.9836],[25.4216,64.9489],[25.4435,64.9668],[25.4168,64.9986],[25.4163,65.0351],[25.3809,65.056],[25.3555,65.0965],[25.2114,65.1238],[25.2258,65.1566],[25.2825,65.1914],[25.2798,65.22],[25.3275,65.2269],[25.3001,65.2336],[25.3138,65.2541],[25.2798,65.261],[25.3213,65.3162],[25.307,65.3298],[25.335,65.3435],[25.2661,65.3776],[25.3213,65.3851],[25.3555,65.4118],[25.3445,65.4285],[25.3587,65.4655],[25.3518,65.4841],[25.2937,65.5251],[25.1971,65.5626],[25.1248,65.5611],[25.0932,65.5919],[25.3882,65.7361],[25.506,65.7533],[25.7623,65.7464],[26.1284,65.8139],[26.163,65.8093],[26.1584,65.7418],[26.1642,65.7258],[26.188,65.7189],[26.8418,65.7052],[27.1022,65.7508],[27.4307,65.9517],[27.5543,65.9249],[27.5999,65.9511],[27.6377,65.9536],[27.7697,65.8427],[27.765,65.8293],[28.194,65.8054],[28.423,65.8289],[28.47,65.8386],[28.5146,65.8746],[28.4967,65.9015],[28.3763,65.9696],[28.3961,65.9754],[28.3894,66.0033],[28.437,65.9871],[28.5475,65.9991],[28.6754,65.9923],[28.722,65.9982],[28.7564,66.0206],[28.7565,66.0428],[28.6335,66.0739],[28.6445,66.0833],[28.6085,66.1181],[28.711,66.137],[28.7204,66.1581],[28.7626,66.1812],[28.7366,66.2065],[28.7641,66.2389],[28.7356,66.2578],[28.6462,66.2502],[28.6506,66.2602],[28.5737,66.2861],[28.5482,66.3106],[28.5539,66.3678],[28.6108,66.4091],[28.6694,66.4151],[28.6893,66.473],[28.7345,66.4844],[29.1691,66.4192],[29.5462,66.432]]],[[[24.9934,65.0551],[25.0336,65.0575],[25.0618,65.0435],[25.028,65.0346],[24.8197,65.0433],[24.8016,65.0243],[24.7224,65.0035],[24.7508,64.976],[24.8273,64.973],[24.7347,64.9509],[24.7007,64.9582],[24.7106,64.973],[24.6839,64.9966],[24.6584,64.972],[24.6316,64.9678],[24.5628,65.0372],[24.6542,65.0802],[24.8345,65.0948],[24.8831,65.0869],[24.897,65.0724],[24.873,65.0658],[24.8828,65.0591],[24.9934,65.0551]]]]}},{"type":"Feature","id":"Northern Savonia","properties":{"id":"Northern Savonia","iso_code":"FI-15","name":"Northern Savonia","name_full":"Northern Savonia","name_ja":"北サヴォ県","center_lonlat":[27.4669,63.1736]},"geometry":{"type":"Polygon","coordinates":[[[26.8721,64.0334],[27.3879,63.9726],[27.4452,63.9449],[27.5221,63.9568],[27.7447,63.9083],[28.0829,63.7756],[28.152,63.722],[28.2608,63.6786],[28.3065,63.6975],[28.3584,63.7534],[28.4696,63.6972],[28.5498,63.6929],[28.6074,63.6735],[28.5879,63.6567],[28.615,63.5951],[28.6752,63.549],[28.6209,63.5398],[28.617,63.5137],[28.6612,63.4369],[28.7614,63.3766],[28.748,63.323],[28.6996,63.2835],[28.7102,63.2767],[28.653,63.2515],[28.6572,63.2362],[28.6182,63.2088],[28.7197,63.1645],[28.8769,63.0602],[29.0519,62.999],[29.0573,62.9816],[28.976,62.9548],[28.9693,62.9456],[28.9904,62.9278],[28.9335,62.9277],[29.0105,62.8766],[29.0883,62.85],[29.0815,62.8375],[28.9241,62.782],[28.796,62.8283],[28.7699,62.8256],[28.7265,62.7811],[28.6731,62.7666],[28.6464,62.7443],[28.7021,62.6923],[28.6582,62.6533],[28.6088,62.6065],[28.6306,62.6054],[28.616,62.5964],[28.4789,62.581],[28.5354,62.5712],[28.5345,62.5588],[28.4127,62.5769],[28.4032,62.5292],[28.3714,62.4996],[28.3953,62.474],[28.3869,62.4614],[28.2829,62.4651],[28.3032,62.4436],[28.2613,62.4342],[28.2576,62.4227],[28.2953,62.3891],[28.3288,62.3791],[28.3245,62.3657],[28.2104,62.3541],[28.0903,62.3171],[28.0684,62.2861],[27.9595,62.2776],[27.9814,62.2768],[27.9672,62.2601],[27.8997,62.2859],[27.8382,62.279],[27.7431,62.3399],[27.7638,62.3636],[27.6888,62.376],[27.6925,62.3863],[27.5068,62.4722],[27.3809,62.5173],[27.3475,62.5212],[27.3513,62.4994],[27.3051,62.4806],[27.2025,62.4641],[27.1226,62.4884],[27.0326,62.4726],[26.9706,62.482],[26.9594,62.4791],[26.967,62.4541],[26.8612,62.4738],[26.8013,62.4323],[26.7118,62.4513],[26.5891,62.4706],[26.4881,62.5117],[26.4818,62.5246],[26.595,62.594],[26.5819,62.6009],[26.597,62.6255],[26.5832,62.6575],[26.5065,62.7487],[26.4403,62.7792],[26.3605,62.7575],[26.1741,62.8319],[26.1617,62.8439],[26.1875,62.8611],[26.0522,62.921],[26.0639,62.9375],[26.1842,62.954],[26.2908,62.9455],[26.3243,62.9688],[26.3188,62.9814],[26.2476,63.0067],[26.2339,63.0322],[26.3136,63.0385],[26.1609,63.1514],[26.1548,63.2028],[26.1831,63.2159],[26.1844,63.2281],[26.1338,63.3161],[26.0872,63.368],[26.1633,63.4298],[26.17,63.4433],[26.1378,63.4563],[26.1755,63.4908],[26.1991,63.553],[26.2202,63.5708],[26.2857,63.5888],[26.2893,63.6227],[26.238,63.8069],[26.2986,63.8538],[26.694,64.0053],[26.8721,64.0334]]]}},{"type":"Feature","id":"Ostrobothnia","properties":{"id":"Ostrobothnia","iso_code":"FI-12","name":"Ostrobothnia","name_full":"Ostrobothnia","name_ja":"ポフヤンマー県","center_lonlat":[22.1701,63.0349]},"geometry":{"type":"MultiPolygon","coordinates":[[[[21.3167,61.9392],[21.2775,61.9515],[21.2949,61.9713],[21.2805,61.9796],[21.2366,61.985],[21.2762,62.0502],[21.2891,62.1216],[21.2964,62.1304],[21.3123,62.1091],[21.3291,62.1381],[21.3259,62.1638],[21.384,62.1945],[21.3899,62.2082],[21.3533,62.232],[21.3743,62.2668],[21.3523,62.266],[21.3123,62.232],[21.339,62.3555],[21.2707,62.3493],[21.2604,62.372],[21.2775,62.3965],[21.2707,62.4108],[21.2051,62.3597],[21.2161,62.335],[21.1943,62.3371],[21.2024,62.3903],[21.1813,62.3965],[21.2024,62.4176],[21.1668,62.4213],[21.1336,62.404],[21.1546,62.4648],[21.1164,62.4601],[21.1156,62.4958],[21.1546,62.5275],[21.1267,62.5541],[21.1882,62.5849],[21.2092,62.5821],[21.1935,62.6009],[21.1216,62.6094],[21.1062,62.623],[21.0652,62.5958],[21.0679,62.6201],[21.0789,62.6783],[21.1257,62.6902],[21.1608,62.7193],[21.1602,62.7302],[21.1165,62.7497],[21.1135,62.7812],[21.1509,62.7944],[21.1834,62.7824],[21.2161,62.8148],[21.2267,62.8585],[21.2434,62.8695],[21.3567,62.8595],[21.3908,62.8803],[21.4221,62.9418],[21.4631,62.9514],[21.4465,62.987],[21.4441,63.0409],[21.4805,63.043],[21.4951,63.0717],[21.6257,63.0239],[21.6885,63.0271],[21.5596,63.0951],[21.5532,63.1086],[21.5724,63.1234],[21.5208,63.1268],[21.5161,63.1555],[21.5034,63.1575],[21.5519,63.1779],[21.5129,63.185],[21.4966,63.209],[21.5581,63.2326],[21.6472,63.1977],[21.668,63.2195],[21.7424,63.1997],[21.7642,63.2059],[21.7026,63.2258],[21.8945,63.2605],[21.8809,63.1779],[21.9839,63.1432],[21.9559,63.1848],[21.9944,63.1964],[22.0248,63.2394],[22.0431,63.2456],[22.072,63.2258],[22.1272,63.2394],[22.1751,63.2326],[22.1819,63.2468],[22.203,63.2394],[22.2446,63.2671],[22.2781,63.3015],[22.3076,63.2759],[22.3737,63.3214],[22.2505,63.4113],[22.2183,63.4144],[22.1956,63.4312],[22.1909,63.4584],[22.2468,63.4696],[22.3049,63.4359],[22.4016,63.4182],[22.28,63.4876],[22.2713,63.5137],[22.2814,63.5262],[22.3374,63.5233],[22.3333,63.4932],[22.3802,63.4854],[22.3968,63.477],[22.3948,63.4523],[22.4074,63.4569],[22.4358,63.4728],[22.4315,63.4974],[22.4631,63.5548],[22.4972,63.5858],[22.5457,63.5752],[22.4972,63.623],[22.532,63.6441],[22.5251,63.6577],[22.5857,63.657],[22.589,63.7033],[22.6371,63.6831],[22.6541,63.7038],[22.6753,63.7024],[22.7023,63.6834],[22.7026,63.6577],[22.7341,63.6276],[22.7734,63.6275],[22.8293,63.6462],[22.8403,63.6776],[22.9019,63.7055],[22.833,63.726],[22.9019,63.726],[22.8747,63.7465],[22.9258,63.7434],[22.9292,63.7644],[22.9077,63.7724],[22.9025,63.7949],[22.9429,63.8005],[22.99,63.7613],[23.0018,63.7737],[22.9907,63.7876],[23.0361,63.787],[23.1979,63.7238],[23.2458,63.7198],[23.3215,63.7533],[23.4495,63.7434],[23.4759,63.7683],[23.5031,63.767],[23.7154,63.6887],[23.734,63.6682],[23.5457,63.6352],[23.5176,63.6405],[23.4996,63.6685],[23.4834,63.6651],[23.4749,63.6582],[23.4852,63.6371],[23.4436,63.6075],[23.5668,63.5924],[23.578,63.5567],[23.6399,63.5321],[23.6753,63.4242],[23.7107,63.386],[23.6994,63.3806],[23.6133,63.4143],[23.5492,63.4654],[23.3944,63.4898],[23.2979,63.4747],[23.157,63.3673],[22.9884,63.3698],[22.976,63.3435],[22.9558,63.3389],[22.8659,63.3542],[22.7361,63.3557],[22.7506,63.3444],[22.6537,63.3155],[22.6742,63.2972],[22.6096,63.2842],[22.5684,63.2608],[22.5696,63.2471],[22.5978,63.2422],[22.5748,63.215],[22.5978,63.2109],[22.5817,63.1835],[22.6649,63.1887],[22.6773,63.1717],[22.6742,63.1372],[22.6403,63.1216],[22.6459,63.1055],[22.6322,63.0812],[22.5501,63.0709],[22.5398,63.0618],[22.5545,63.051],[22.498,63.0282],[22.4284,62.9567],[22.394,62.858],[22.2888,62.7936],[22.179,62.762],[21.9912,62.7823],[21.8734,62.8134],[21.7918,62.8566],[21.7678,62.8517],[21.7339,62.8084],[21.7276,62.7745],[21.7394,62.7351],[21.7802,62.7036],[21.7706,62.6834],[21.591,62.6008],[21.5964,62.5663],[21.6152,62.5601],[21.6124,62.5441],[21.5545,62.4557],[21.5525,62.411],[21.5324,62.3791],[21.5591,62.37],[21.5577,62.3556],[21.636,62.3657],[21.6849,62.352],[21.6883,62.3387],[21.6673,62.3354],[21.6809,62.2695],[21.7662,62.2308],[21.7612,62.2195],[21.6753,62.1954],[21.7,62.1594],[21.6977,62.1474],[21.6525,62.1423],[21.6324,62.0376],[21.6466,62.0205],[21.4755,62.0223],[21.4258,62.0094],[21.3167,61.9392]]],[[[21.4221,63.2468],[21.4148,63.2204],[21.4284,63.1984],[21.3775,63.1901],[21.3639,63.1937],[21.3805,63.2059],[21.3628,63.2062],[21.2912,63.1779],[21.3185,63.1649],[21.3015,63.1562],[21.2434,63.1507],[21.1888,63.1916],[21.1472,63.1822],[21.1336,63.1984],[21.1546,63.2059],[21.1028,63.236],[21.0789,63.2878],[21.1203,63.272],[21.2434,63.281],[21.2152,63.2639],[21.1951,63.2258],[21.2868,63.2114],[21.2979,63.223],[21.2912,63.2394],[21.3158,63.2519],[21.3963,63.2607],[21.4221,63.2468]]],[[[22.1442,63.2514],[22.0794,63.2663],[22.0687,63.2839],[22.0889,63.2946],[22.0692,63.3185],[22.1102,63.3289],[22.1956,63.3098],[22.2313,63.3388],[22.2463,63.3071],[22.2087,63.2733],[22.1565,63.2886],[22.1144,63.2842],[22.1585,63.2741],[22.1631,63.2633],[22.1442,63.2514]]],[[[22.808,63.7795],[22.8289,63.7763],[22.8021,63.7382],[22.7821,63.7448],[22.7761,63.7282],[22.7396,63.7205],[22.7029,63.7364],[22.6815,63.7634],[22.7638,63.7914],[22.808,63.7795]]],[[[21.3185,63.2878],[21.3153,63.304],[21.2775,63.3015],[21.2292,63.3288],[21.346,63.3638],[21.3743,63.3493],[21.3582,63.3157],[21.3185,63.2878]]],[[[21.2085,62.9462],[21.1467,62.9533],[21.1365,62.9672],[21.1506,62.9636],[21.1594,62.9754],[21.1304,63.0008],[21.1516,63.0103],[21.2074,62.9862],[21.2219,62.9514],[21.2085,62.9462]]],[[[21.9572,63.3316],[21.9513,63.3437],[21.9964,63.3847],[22.096,63.3835],[22.0794,63.3769],[22.0762,63.3601],[22.0127,63.3637],[21.9572,63.3316]]],[[[22.0262,63.3222],[22.0608,63.3022],[22.0466,63.2822],[22.0138,63.2777],[22.0046,63.2912],[21.9783,63.28],[21.989,63.3104],[22.03,63.3084],[22.0076,63.3249],[22.0262,63.3222]]]]}},{"type":"Feature","id":"Paijanne Tavastia","properties":{"id":"Paijanne Tavastia","iso_code":"FI-16","name":"Paijanne Tavastia","name_full":"Päijänne Tavastia","name_ja":"パイヤト＝ハメ県","center_lonlat":[25.7197,61.218]},"geometry":{"type":"Polygon","coordinates":[[[26.3195,61.6076],[26.3167,61.5728],[26.282,61.5769],[26.2907,61.5248],[26.2602,61.5021],[26.2838,61.4784],[26.2569,61.4391],[26.3186,61.3971],[26.2936,61.3708],[26.4033,61.3241],[26.4792,61.3116],[26.5151,61.2737],[26.4428,61.2592],[26.3954,61.1998],[26.3006,61.1549],[26.1979,61.133],[26.1302,61.1514],[26.0855,61.1378],[26.0521,61.1076],[26.0582,61.0902],[26.1087,61.0669],[26.1366,61.0249],[26.1116,60.9856],[26.0462,60.9841],[26.0428,60.9551],[26.1594,60.92],[26.119,60.8679],[26.0858,60.8525],[26.0834,60.8381],[26.1803,60.8156],[26.2155,60.7554],[26.2249,60.7334],[26.2146,60.7156],[26.1733,60.6972],[25.9482,60.7089],[25.8883,60.734],[25.5718,60.6893],[25.5234,60.7044],[25.5099,60.7581],[25.4738,60.7921],[25.3295,60.7573],[25.2789,60.774],[25.2071,60.8271],[25.1089,60.8199],[25.0842,60.8378],[25.1416,60.9087],[25.1907,60.9487],[25.2543,60.9766],[25.2091,61.0106],[25.2366,61.0138],[25.2867,61.0757],[25.2876,61.103],[25.2406,61.1206],[25.2381,61.1385],[25.2607,61.181],[25.1877,61.24],[25.0324,61.2539],[25.0036,61.2817],[24.9213,61.2917],[24.9183,61.3223],[24.9011,61.34],[24.9036,61.4084],[24.86,61.4654],[24.8697,61.4741],[24.9582,61.4559],[25.4265,61.4904],[25.461,61.527],[25.5162,61.678],[25.5822,61.6754],[25.6909,61.7059],[25.7573,61.7024],[25.7484,61.6933],[25.764,61.693],[25.8164,61.735],[25.862,61.798],[25.8779,61.7871],[25.8749,61.7602],[25.9011,61.761],[25.9249,61.7837],[25.9784,61.7581],[26.0093,61.7207],[26.0654,61.7192],[26.0816,61.705],[26.0576,61.6656],[26.0778,61.6515],[26.1461,61.6263],[26.304,61.6499],[26.3195,61.6076]]]}},{"type":"Feature","id":"Pirkanmaa","properties":{"id":"Pirkanmaa","iso_code":"FI-11","name":"Pirkanmaa","name_full":"Pirkanmaa","name_ja":"ピルカンマー県","center_lonlat":[23.7286,61.7024]},"geometry":{"type":"Polygon","coordinates":[[[24.0203,62.364],[24.0235,62.3307],[24.0539,62.2959],[24.1193,62.2726],[24.2458,62.2548],[24.3326,62.175],[24.4157,62.1547],[24.4436,62.1595],[24.4313,62.1741],[24.4485,62.1803],[24.5303,62.1929],[24.6691,62.109],[24.6686,62.0585],[24.6852,62.0495],[24.7735,62.0344],[24.8688,62.0557],[24.8878,62.0388],[24.9467,61.9177],[24.9303,61.8295],[24.9378,61.8014],[24.9807,61.7872],[24.9657,61.7809],[24.9957,61.7316],[24.9453,61.735],[24.9227,61.7094],[24.9659,61.6671],[24.9579,61.6378],[24.8297,61.6531],[24.7976,61.6373],[24.7899,61.615],[24.829,61.5679],[24.8753,61.5834],[24.9066,61.5802],[24.9121,61.5618],[24.8967,61.5499],[24.9362,61.5173],[24.9582,61.4559],[24.8697,61.4741],[24.86,61.4654],[24.9036,61.4084],[24.9011,61.34],[24.9183,61.3223],[24.8812,61.2841],[24.8042,61.2675],[24.7645,61.2771],[24.7365,61.3104],[24.7141,61.2836],[24.6878,61.2744],[24.5844,61.2948],[24.5175,61.2907],[24.3804,61.2438],[24.2795,61.2371],[24.2655,61.2157],[24.2938,61.1954],[24.2822,61.184],[24.2282,61.1583],[24.1357,61.1389],[24.1402,61.1254],[24.0329,61.1214],[23.7785,61.0683],[23.767,61.0572],[23.8045,61.0484],[23.7964,61.0283],[23.8781,61.0272],[23.8252,60.9997],[23.866,60.9592],[23.8523,60.9463],[23.7789,60.9931],[23.707,61.007],[23.5855,60.9857],[23.4579,60.9822],[23.4693,60.9642],[23.2752,61.0191],[23.1974,60.9999],[23.1224,61.0316],[23.0074,61.0293],[22.9698,61.0455],[22.9671,61.0573],[23.0009,61.0789],[22.929,61.0786],[22.9233,61.0885],[22.969,61.1136],[22.9219,61.1533],[22.9214,61.1769],[22.9495,61.1768],[22.9238,61.2109],[22.8673,61.2306],[22.6615,61.2452],[22.5699,61.3333],[22.5905,61.3401],[22.5653,61.3883],[22.5719,61.3955],[22.6399,61.3906],[22.6738,61.4097],[22.6752,61.4261],[22.7288,61.4368],[22.7247,61.4708],[22.6406,61.5],[22.5999,61.5329],[22.6015,61.5527],[22.6628,61.5828],[22.6863,61.6079],[22.6853,61.6308],[22.7218,61.6477],[22.704,61.6752],[22.6665,61.6551],[22.6539,61.6754],[22.6939,61.7315],[22.8055,61.7811],[22.8219,61.7977],[22.8229,61.8228],[22.7428,61.8539],[22.7837,61.876],[22.7547,61.884],[22.7234,61.9156],[22.6811,61.924],[22.6402,61.9676],[22.5503,61.9916],[22.5492,62.0033],[22.6264,62.0409],[22.7295,62.0509],[22.7728,62.0677],[22.7694,62.1512],[22.8494,62.1621],[22.8553,62.1731],[22.8383,62.2712],[23.0607,62.29],[23.1668,62.3184],[23.3161,62.4194],[23.3571,62.4173],[23.4207,62.3798],[23.5051,62.3735],[23.5148,62.375],[23.5057,62.409],[23.6981,62.4267],[23.8018,62.4626],[23.834,62.488],[23.8391,62.4629],[23.8995,62.4799],[23.9221,62.407],[24.0203,62.364]]]}},{"type":"Feature","id":"Satakunta","properties":{"id":"Satakunta","iso_code":"FI-17","name":"Satakunta","name_full":"Satakunta","name_ja":"サタクンタ県","center_lonlat":[22.1559,61.5303]},"geometry":{"type":"MultiPolygon","coordinates":[[[[21.4081,61.0482],[21.367,61.0601],[21.3953,61.0694],[21.4539,61.055],[21.4823,61.0601],[21.4548,61.0782],[21.4505,61.0908],[21.4631,61.1011],[21.4352,61.1427],[21.47,61.1496],[21.4426,61.1557],[21.4563,61.17],[21.4426,61.17],[21.5034,61.1774],[21.4966,61.1911],[21.5581,61.2042],[21.5435,61.2251],[21.4761,61.2458],[21.5083,61.2668],[21.5034,61.2799],[21.5444,61.2799],[21.5444,61.3209],[21.5308,61.3345],[21.5243,61.3753],[21.4489,61.4028],[21.5724,61.4164],[21.5103,61.458],[21.4221,61.4853],[21.5557,61.4752],[21.5921,61.4853],[21.5656,61.5195],[21.5103,61.5195],[21.4601,61.5624],[21.508,61.5701],[21.6869,61.5245],[21.7163,61.5269],[21.6143,61.5854],[21.5918,61.6281],[21.5376,61.6498],[21.5441,61.6728],[21.5178,61.7112],[21.5859,61.6977],[21.4893,61.737],[21.47,61.7597],[21.4861,61.8112],[21.4446,61.8263],[21.4489,61.8416],[21.4032,61.8764],[21.3942,61.8894],[21.4141,61.9069],[21.3936,61.9132],[21.3805,61.9378],[21.3167,61.9392],[21.4258,62.0094],[21.4755,62.0223],[21.6466,62.0205],[21.933,61.9853],[22.0182,61.9932],[22.1777,62.0833],[22.3388,62.124],[22.5078,62.2113],[22.559,62.2511],[22.587,62.3018],[22.8383,62.2712],[22.8553,62.1731],[22.8494,62.1621],[22.7694,62.1512],[22.7728,62.0677],[22.7295,62.0509],[22.6264,62.0409],[22.5492,62.0033],[22.5503,61.9916],[22.6402,61.9676],[22.6811,61.924],[22.7234,61.9156],[22.7547,61.884],[22.7837,61.876],[22.7428,61.8539],[22.8229,61.8228],[22.8219,61.7977],[22.8055,61.7811],[22.6939,61.7315],[22.6539,61.6754],[22.6665,61.6551],[22.704,61.6752],[22.7218,61.6477],[22.6853,61.6308],[22.6863,61.6079],[22.6628,61.5828],[22.6015,61.5527],[22.5999,61.5329],[22.6406,61.5],[22.7247,61.4708],[22.7288,61.4368],[22.6752,61.4261],[22.6738,61.4097],[22.6399,61.3906],[22.5719,61.3955],[22.5653,61.3883],[22.5905,61.3401],[22.5699,61.3333],[22.6615,61.2452],[22.8673,61.2306],[22.9238,61.2109],[22.9495,61.1768],[22.9214,61.1769],[22.9219,61.1533],[22.969,61.1136],[22.9233,61.0885],[22.929,61.0786],[23.0009,61.0789],[22.9671,61.0573],[22.9698,61.0455],[22.826,61.09],[22.8376,61.0598],[22.8197,61.0403],[22.8277,61.0125],[22.8011,60.9966],[22.723,60.9833],[22.5702,60.986],[22.5346,60.97],[22.5731,60.948],[22.5619,60.9436],[22.2462,60.9246],[22.1511,60.8857],[22.0056,60.8987],[21.9454,60.9507],[21.9519,60.9732],[21.81,61.0183],[21.8244,61.0325],[21.8143,61.0358],[21.779,61.0353],[21.7555,61.006],[21.7064,60.9988],[21.6497,61.0095],[21.6237,61.0458],[21.6003,61.0344],[21.6005,61.0163],[21.5742,61.0078],[21.4934,61.0037],[21.4506,61.0146],[21.4081,61.0482]]],[[[21.4219,61.1767],[21.4317,61.1715],[21.3524,61.176],[21.3429,61.1906],[21.3801,61.214],[21.3914,61.2096],[21.3892,61.1922],[21.4219,61.1767]]],[[[21.5213,61.634],[21.5078,61.6181],[21.46,61.6293],[21.4845,61.6404],[21.5213,61.634]]]]}},{"type":"Feature","id":"South Karelia","properties":{"id":"South Karelia","iso_code":"FI-02","name":"South Karelia","name_full":"South Karelia","name_ja":"南カルヤラ県","center_lonlat":[28.3382,61.2107]},"geometry":{"type":"Polygon","coordinates":[[[30.1456,61.8505],[29.9777,61.7282],[29.8422,61.6602],[29.7791,61.5931],[29.6351,61.5111],[29.517,61.4751],[29.4634,61.4138],[29.3184,61.3384],[29.2032,61.2459],[28.7976,61.0968],[28.689,61.0274],[28.6146,60.9619],[28.4809,60.9335],[28.3359,60.8594],[28.2439,60.7916],[28.1481,60.7577],[28.0038,60.6642],[27.9561,60.6682],[27.9546,60.6819],[27.8875,60.7084],[27.8529,60.7557],[27.7304,60.7652],[27.6884,60.7987],[27.5108,60.7978],[27.3715,60.8729],[27.2463,60.8981],[27.143,60.9469],[27.1313,60.9639],[27.1926,60.954],[27.2393,60.9621],[27.2424,60.972],[27.2043,60.9997],[27.1447,61.0137],[27.1613,61.0271],[27.1497,61.0533],[27.1683,61.0729],[27.2293,61.0969],[27.1876,61.1134],[27.215,61.1446],[27.2132,61.1618],[27.3486,61.1714],[27.3899,61.2038],[27.3358,61.2183],[27.325,61.2289],[27.3311,61.2528],[27.2261,61.3161],[27.2557,61.3244],[26.9764,61.3439],[26.9685,61.3598],[27.0184,61.3753],[27.1131,61.373],[27.2503,61.4037],[27.5403,61.3603],[28.1815,61.3733],[28.3416,61.4186],[28.3965,61.4469],[28.4689,61.5092],[28.5101,61.5084],[28.5629,61.4729],[28.6532,61.4696],[28.8093,61.498],[28.8207,61.538],[29.0533,61.5342],[29.2461,61.5599],[29.3411,61.6215],[29.5324,61.6848],[29.564,61.7241],[30.0572,61.8488],[30.1456,61.8505]]]}},{"type":"Feature","id":"Southern Ostrobothnia","properties":{"id":"Southern Ostrobothnia","iso_code":"FI-03","name":"Southern Ostrobothnia","name_full":"Southern Ostrobothnia","name_ja":"南ポフヤンマー県","center_lonlat":[23.0557,62.7363]},"geometry":{"type":"Polygon","coordinates":[[[23.6994,63.3806],[23.743,63.3356],[23.7994,63.3016],[23.8705,63.2816],[24.0432,63.2631],[24.2249,63.1745],[24.1783,63.1516],[24.3628,63.1192],[24.3265,63.0768],[24.2661,63.0603],[24.2783,63.0347],[24.2967,63.035],[24.3047,62.9949],[24.3393,62.9654],[24.3466,62.9342],[24.3642,62.9179],[24.4199,62.9111],[24.4436,62.8958],[24.4509,62.8831],[24.4411,62.868],[24.3655,62.8618],[24.3652,62.8435],[24.5711,62.6606],[24.5203,62.6354],[24.515,62.6186],[24.5817,62.6116],[24.5556,62.6094],[24.5637,62.5809],[24.5373,62.5761],[24.5423,62.5595],[24.5274,62.5609],[24.5228,62.5203],[24.5023,62.4984],[24.4343,62.4786],[24.3723,62.5],[24.3278,62.4913],[24.3263,62.4587],[24.1981,62.4688],[24.132,62.4409],[24.0203,62.364],[23.9221,62.407],[23.8995,62.4799],[23.8391,62.4629],[23.834,62.488],[23.8018,62.4626],[23.6981,62.4267],[23.5057,62.409],[23.5148,62.375],[23.5051,62.3735],[23.4207,62.3798],[23.3571,62.4173],[23.3161,62.4194],[23.1668,62.3184],[23.0607,62.29],[22.8383,62.2712],[22.587,62.3018],[22.559,62.2511],[22.5078,62.2113],[22.3388,62.124],[22.1777,62.0833],[22.0182,61.9932],[21.933,61.9853],[21.6466,62.0205],[21.6324,62.0376],[21.6525,62.1423],[21.6977,62.1474],[21.7,62.1594],[21.6753,62.1954],[21.7612,62.2195],[21.7662,62.2308],[21.6809,62.2695],[21.6673,62.3354],[21.6883,62.3387],[21.6849,62.352],[21.636,62.3657],[21.5577,62.3556],[21.5591,62.37],[21.5324,62.3791],[21.5525,62.411],[21.5545,62.4557],[21.6124,62.5441],[21.6152,62.5601],[21.5964,62.5663],[21.591,62.6008],[21.7706,62.6834],[21.7802,62.7036],[21.7394,62.7351],[21.7276,62.7745],[21.7339,62.8084],[21.7678,62.8517],[21.7918,62.8566],[21.8734,62.8134],[21.9912,62.7823],[22.179,62.762],[22.2888,62.7936],[22.394,62.858],[22.4284,62.9567],[22.498,63.0282],[22.5545,63.051],[22.5398,63.0618],[22.5501,63.0709],[22.6322,63.0812],[22.6459,63.1055],[22.6403,63.1216],[22.6742,63.1372],[22.6773,63.1717],[22.6649,63.1887],[22.5817,63.1835],[22.5978,63.2109],[22.5748,63.215],[22.5978,63.2422],[22.5696,63.2471],[22.5684,63.2608],[22.6096,63.2842],[22.6742,63.2972],[22.6537,63.3155],[22.7506,63.3444],[22.7361,63.3557],[22.8659,63.3542],[22.9558,63.3389],[22.976,63.3435],[22.9884,63.3698],[23.157,63.3673],[23.2979,63.4747],[23.3944,63.4898],[23.5492,63.4654],[23.6133,63.4143],[23.6994,63.3806]]]}},{"type":"Feature","id":"Southern Savonia","properties":{"id":"Southern Savonia","iso_code":"FI-04","name":"Southern Savonia","name_full":"Southern Savonia","name_ja":"南サヴォ県","center_lonlat":[27.8692,61.9056]},"geometry":{"type":"Polygon","coordinates":[[[28.6582,62.6533],[28.8274,62.6248],[29.0398,62.524],[29.0145,62.5144],[29.0241,62.5094],[29.1071,62.4911],[29.1137,62.483],[29.084,62.4213],[29.1078,62.4143],[29.1019,62.3967],[29.1116,62.3919],[29.1593,62.3855],[29.2088,62.4176],[29.2495,62.4096],[29.2814,62.383],[29.3398,62.2991],[29.4131,62.2448],[29.4221,62.1606],[29.4591,62.0987],[29.5452,62.0259],[29.6564,61.9731],[29.6166,61.9235],[29.6238,61.9059],[29.6928,61.8671],[29.6736,61.8504],[29.6938,61.8249],[29.6536,61.7833],[29.564,61.7241],[29.5324,61.6848],[29.3411,61.6215],[29.2461,61.5599],[29.0533,61.5342],[28.8207,61.538],[28.8093,61.498],[28.6532,61.4696],[28.5629,61.4729],[28.5101,61.5084],[28.4689,61.5092],[28.3965,61.4469],[28.3416,61.4186],[28.1815,61.3733],[27.5403,61.3603],[27.2503,61.4037],[27.1131,61.373],[27.0184,61.3753],[26.9685,61.3598],[26.9764,61.3439],[27.2557,61.3244],[27.2261,61.3161],[27.3311,61.2528],[27.325,61.2289],[27.3358,61.2183],[27.3899,61.2038],[27.3486,61.1714],[27.2132,61.1618],[27.0016,61.1515],[26.9436,61.1713],[26.9252,61.1905],[26.9183,61.2268],[26.8719,61.2833],[26.7969,61.2735],[26.7614,61.2392],[26.6644,61.2098],[26.6403,61.2215],[26.6659,61.2481],[26.6347,61.2826],[26.5151,61.2737],[26.4792,61.3116],[26.4033,61.3241],[26.2936,61.3708],[26.3186,61.3971],[26.2569,61.4391],[26.2838,61.4784],[26.2602,61.5021],[26.2907,61.5248],[26.282,61.5769],[26.3167,61.5728],[26.3195,61.6076],[26.3546,61.6175],[26.3728,61.6519],[26.3947,61.6562],[26.4966,61.631],[26.515,61.6385],[26.5292,61.7017],[26.4744,61.7584],[26.378,61.8125],[26.379,61.8753],[26.3341,61.8838],[26.3475,61.9395],[26.3866,61.9652],[26.3903,61.9903],[26.2475,62.1007],[26.2448,62.1367],[26.334,62.1973],[26.4,62.2234],[26.4608,62.214],[26.4937,62.2307],[26.4836,62.2398],[26.4995,62.251],[26.5203,62.2558],[26.5574,62.2539],[26.6224,62.2273],[26.6568,62.2305],[26.6358,62.246],[26.6269,62.2958],[26.6763,62.3113],[26.6661,62.3214],[26.6853,62.3403],[26.7665,62.3621],[26.6936,62.3934],[26.6873,62.4046],[26.7118,62.4513],[26.8013,62.4323],[26.8612,62.4738],[26.967,62.4541],[26.9594,62.4791],[26.9706,62.482],[27.0326,62.4726],[27.1226,62.4884],[27.2025,62.4641],[27.3051,62.4806],[27.3513,62.4994],[27.3475,62.5212],[27.3809,62.5173],[27.5068,62.4722],[27.6925,62.3863],[27.6888,62.376],[27.7638,62.3636],[27.7431,62.3399],[27.8382,62.279],[27.8997,62.2859],[27.9672,62.2601],[27.9814,62.2768],[27.9595,62.2776],[28.0684,62.2861],[28.0903,62.3171],[28.2104,62.3541],[28.3245,62.3657],[28.3288,62.3791],[28.2953,62.3891],[28.2576,62.4227],[28.2613,62.4342],[28.3032,62.4436],[28.2829,62.4651],[28.3869,62.4614],[28.3953,62.474],[28.3714,62.4996],[28.4032,62.5292],[28.4127,62.5769],[28.5345,62.5588],[28.5354,62.5712],[28.4789,62.581],[28.616,62.5964],[28.6306,62.6054],[28.6088,62.6065],[28.6582,62.6533]]]}},{"type":"Feature","id":"Tavastia Proper","properties":{"id":"Tavastia Proper","iso_code":"FI-06","name":"Tavastia Proper","name_full":"Tavastia Proper","name_ja":"カンタ＝ハメ県","center_lonlat":[24.3559,60.9217]},"geometry":{"type":"Polygon","coordinates":[[[24.9183,61.3223],[24.9213,61.2917],[25.0036,61.2817],[25.0324,61.2539],[25.1877,61.24],[25.2607,61.181],[25.2381,61.1385],[25.2406,61.1206],[25.2876,61.103],[25.2867,61.0757],[25.2366,61.0138],[25.2091,61.0106],[25.2543,60.9766],[25.1907,60.9487],[25.1416,60.9087],[25.0842,60.8378],[25.1089,60.8199],[25.1562,60.772],[25.0964,60.7565],[25.0599,60.7209],[25.1238,60.7342],[25.1824,60.7236],[25.0933,60.6983],[25.1076,60.6665],[24.9947,60.68],[24.7507,60.6544],[24.6124,60.6605],[24.5746,60.6365],[24.5663,60.5782],[24.5249,60.5585],[24.4629,60.5529],[24.414,60.5634],[24.3972,60.5962],[24.3406,60.6018],[24.3092,60.594],[24.3041,60.5683],[24.2839,60.5654],[24.2524,60.5971],[24.1928,60.6198],[23.9478,60.6527],[23.8967,60.6488],[23.7046,60.6611],[23.6529,60.6896],[23.528,60.7128],[23.477,60.7465],[23.3078,60.723],[23.1765,60.7637],[23.1624,60.7799],[23.2157,60.8195],[23.142,60.8462],[23.1383,60.8709],[23.1577,60.8902],[23.2671,60.8933],[23.2564,60.9146],[23.2884,60.9222],[23.2949,60.9363],[23.2797,60.9582],[23.1974,60.9999],[23.2752,61.0191],[23.4693,60.9642],[23.4579,60.9822],[23.5855,60.9857],[23.707,61.007],[23.7789,60.9931],[23.8523,60.9463],[23.866,60.9592],[23.8252,60.9997],[23.8781,61.0272],[23.7964,61.0283],[23.8045,61.0484],[23.767,61.0572],[23.7785,61.0683],[24.0329,61.1214],[24.1402,61.1254],[24.1357,61.1389],[24.2282,61.1583],[24.2822,61.184],[24.2938,61.1954],[24.2655,61.2157],[24.2795,61.2371],[24.3804,61.2438],[24.5175,61.2907],[24.5844,61.2948],[24.6878,61.2744],[24.7141,61.2836],[24.7365,61.3104],[24.7645,61.2771],[24.8042,61.2675],[24.8812,61.2841],[24.9183,61.3223]]]}},{"type":"Feature","id":"Uusimaa","properties":{"id":"Uusimaa","iso_code":"FI-18","name":"Uusimaa","name_full":"Uusimaa","name_ja":"ウーシマー県","center_lonlat":[24.7942,60.3798]},"geometry":{"type":"MultiPolygon","coordinates":[[[[26.5533,60.5918],[26.4658,60.5081],[26.4562,60.4746],[26.4857,60.4438],[26.4515,60.4165],[26.4164,60.4119],[26.4242,60.396],[26.3833,60.4165],[26.3812,60.3987],[26.3514,60.3928],[26.3421,60.3756],[26.2456,60.4509],[26.2318,60.4506],[26.2293,60.4384],[26.2734,60.4022],[26.179,60.4106],[26.1424,60.396],[25.981,60.4758],[25.9172,60.4854],[26.029,60.4333],[26.0401,60.406],[26.0068,60.4005],[26.0122,60.3886],[26.1082,60.3359],[26.0913,60.3066],[26.0401,60.2998],[26.0388,60.3227],[25.9971,60.3549],[26.0059,60.3681],[25.9566,60.356],[25.8421,60.4022],[25.9172,60.3613],[25.8831,60.3066],[25.9302,60.2452],[25.8949,60.2496],[25.861,60.284],[25.8005,60.293],[25.7538,60.3207],[25.739,60.3135],[25.7454,60.2958],[25.8489,60.2657],[25.762,60.2404],[25.7355,60.2473],[25.6497,60.2998],[25.6706,60.3275],[25.6497,60.3414],[25.7044,60.3414],[25.6902,60.3629],[25.6686,60.3647],[25.6027,60.3386],[25.5261,60.3271],[25.5413,60.3164],[25.5451,60.2923],[25.5028,60.2462],[25.3617,60.2452],[25.3635,60.2601],[25.3138,60.2725],[25.3213,60.2514],[25.1975,60.2452],[25.1858,60.2231],[25.1563,60.2322],[25.2039,60.2043],[25.1814,60.2005],[25.1971,60.1906],[25.0947,60.1763],[25.1016,60.1906],[25.0586,60.1773],[25.0479,60.1689],[25.0674,60.1627],[25.0293,60.1479],[24.9979,60.1627],[25.0259,60.1994],[24.9988,60.2128],[24.9509,60.1435],[24.8452,60.1437],[24.8342,60.1558],[24.8709,60.1617],[24.8688,60.1798],[24.8425,60.1946],[24.8068,60.1906],[24.8273,60.1627],[24.7726,60.1422],[24.6797,60.1301],[24.6703,60.1012],[24.6564,60.101],[24.6306,60.1363],[24.554,60.156],[24.5969,60.1273],[24.5404,60.0876],[24.6082,60.1012],[24.574,60.0739],[24.5945,60.0602],[24.527,60.0353],[24.4681,59.9964],[24.4163,59.9914],[24.4641,60.0466],[24.4461,60.0475],[24.3748,60.005],[24.3677,60.022],[24.3127,59.9975],[24.3191,60.0141],[24.3577,60.036],[24.3679,60.0739],[24.3197,60.0758],[24.2959,60.0722],[24.2786,60.0602],[24.2922,60.0528],[24.2525,60.0397],[24.1585,60.043],[24.183,60.0255],[24.1642,60.0194],[24.106,60.0319],[24.0096,60.0106],[24.0026,60.021],[24.0192,60.0397],[24.0008,60.0383],[23.9553,60.0036],[23.8731,59.9931],[23.7995,59.9566],[23.7713,59.968],[23.6076,59.9566],[23.5735,59.9777],[23.4295,59.9566],[23.4836,60.0113],[23.5409,60.0291],[23.5344,60.0537],[23.5462,60.0739],[23.4983,60.0633],[23.4788,60.0361],[23.4538,60.028],[23.4397,59.9945],[23.3264,59.923],[23.2372,59.898],[23.2223,59.8862],[23.2222,59.8678],[23.2513,59.8411],[22.8882,59.8132],[22.9461,59.848],[23.1681,59.8889],[23.1659,59.9177],[23.2471,59.9224],[23.2937,59.9587],[23.3329,60.0299],[23.2234,59.9299],[23.2036,59.9299],[23.2097,59.9435],[23.1888,59.9502],[23.1712,59.9364],[23.1318,59.9429],[23.1107,59.9233],[23.1006,59.9404],[23.1113,59.9743],[23.2036,59.9975],[23.2576,60.0397],[23.2051,60.0497],[23.0355,60.0446],[22.9969,60.0621],[22.9907,60.0773],[23.0213,60.1068],[23.0686,60.0894],[23.1142,60.0947],[23.3105,60.1864],[23.3242,60.1852],[23.3166,60.1724],[23.3333,60.1655],[23.393,60.16],[23.4875,60.1743],[23.563,60.2038],[23.6417,60.198],[23.646,60.2235],[23.5924,60.2585],[23.6256,60.2619],[23.6411,60.283],[23.7246,60.3192],[23.7462,60.3707],[23.7861,60.3926],[23.7936,60.4185],[23.7793,60.4497],[23.6997,60.4519],[23.7442,60.4863],[23.865,60.5121],[23.8614,60.5563],[23.893,60.5709],[23.9139,60.5975],[23.8805,60.6204],[23.8967,60.6488],[23.9478,60.6527],[24.1928,60.6198],[24.2524,60.5971],[24.2839,60.5654],[24.3041,60.5683],[24.3092,60.594],[24.3406,60.6018],[24.3972,60.5962],[24.414,60.5634],[24.4629,60.5529],[24.5249,60.5585],[24.5663,60.5782],[24.5746,60.6365],[24.6124,60.6605],[24.7507,60.6544],[24.9947,60.68],[25.1076,60.6665],[25.0933,60.6983],[25.1824,60.7236],[25.1238,60.7342],[25.0599,60.7209],[25.0964,60.7565],[25.1562,60.772],[25.1089,60.8199],[25.2071,60.8271],[25.2789,60.774],[25.3295,60.7573],[25.4738,60.7921],[25.5099,60.7581],[25.5234,60.7044],[25.5718,60.6893],[25.8883,60.734],[25.9482,60.7089],[26.1733,60.6972],[26.2146,60.7156],[26.2249,60.7334],[26.2155,60.7554],[26.2887,60.752],[26.3279,60.7172],[26.3287,60.6879],[26.3483,60.6711],[26.4163,60.6513],[26.501,60.5994],[26.5533,60.5918]]],[[[25.6223,60.2383],[25.5702,60.258],[25.5645,60.2783],[25.5817,60.2964],[25.6844,60.2452],[25.6437,60.2281],[25.636,60.2043],[25.6034,60.2154],[25.6223,60.2383]]],[[[23.9152,59.9735],[23.9204,59.9594],[23.8942,59.9497],[23.8474,59.9547],[23.8703,59.9728],[23.9152,59.9735]]],[[[25.8142,60.2077],[25.8762,60.2172],[25.8356,60.196],[25.8142,60.2077]]]]}}]}
