{"type":"FeatureCollection","features":[{"type":"Feature","id":"Austral Islands","properties":{"id":"Austral Islands","iso_code":"PF-X04~","name":"Austral Islands","name_full":"Austral Islands","name_ja":"オーストラル諸島","center_lonlat":[-144.321,-27.5942]},"geometry":{"type":"MultiPolygon","coordinates":[[[[-144.2838,-27.5792],[-144.3042,-27.5997],[-144.3044,-27.6324],[-144.3236,-27.6412],[-144.3384,-27.6337],[-144.348,-27.5855],[-144.3394,-27.5593],[-144.3179,-27.5512],[-144.2838,-27.5792]]],[[[-149.4817,-23.3578],[-149.4565,-23.3653],[-149.4509,-23.3811],[-149.4632,-23.3958],[-149.5187,-23.395],[-149.5214,-23.3627],[-149.4817,-23.3578]]],[[[-151.3869,-22.4225],[-151.3559,-22.4566],[-151.3718,-22.5144],[-151.397,-22.4422],[-151.3869,-22.4225]]],[[[-147.7242,-23.8718],[-147.7059,-23.8586],[-147.6479,-23.8518],[-147.6689,-23.8718],[-147.7242,-23.8718]]]]}},{"type":"Feature","id":"Leeward Islands","properties":{"id":"Leeward Islands","iso_code":"PF-X02~","name":"Leeward Islands","name_full":"Leeward Islands","name_ja":"リーワード諸島","center_lonlat":[-151.4366,-16.8228]},"geometry":{"type":"MultiPolygon","coordinates":[[[[-151.4787,-16.7382],[-151.4308,-16.7478],[-151.3525,-16.8586],[-151.4009,-16.8853],[-151.4294,-16.8819],[-151.4405,-16.9011],[-151.4779,-16.8896],[-151.4947,-16.7646],[-151.4787,-16.7382]]],[[[-151.4582,-16.629],[-151.4632,-16.6741],[-151.5404,-16.6365],[-151.5361,-16.5949],[-151.5238,-16.5829],[-151.4726,-16.5805],[-151.4787,-16.5942],[-151.4496,-16.5947],[-151.4387,-16.6093],[-151.4582,-16.629]]],[[[-151.0058,-16.7692],[-151.0024,-16.7608],[-150.9853,-16.7692],[-150.9796,-16.8004],[-151.0133,-16.8207],[-151.0399,-16.79],[-151.0346,-16.777],[-151.0058,-16.7692]]],[[[-151.0263,-16.7081],[-151.0076,-16.7405],[-151.0474,-16.766],[-151.054,-16.7418],[-151.0351,-16.6943],[-151.0263,-16.7081]]],[[[-151.7804,-16.4781],[-151.7638,-16.4723],[-151.7536,-16.4838],[-151.7469,-16.526],[-151.7768,-16.5118],[-151.7804,-16.4781]]],[[[-153.934,-16.7975],[-153.9202,-16.8317],[-153.9507,-16.7739],[-153.934,-16.7975]]],[[[-154.5232,-15.8194],[-154.5221,-15.8005],[-154.537,-15.7922],[-154.5191,-15.7956],[-154.5163,-15.8173],[-154.5288,-15.8272],[-154.5232,-15.8194]]]]}},{"type":"Feature","id":"Marquesas Islands","properties":{"id":"Marquesas Islands","iso_code":"PF-X05~","name":"Marquesas Islands","name_full":"Marquesas Islands","name_ja":"マルキーズ諸島","center_lonlat":[-140.1486,-8.8554]},"geometry":{"type":"MultiPolygon","coordinates":[[[[-138.8366,-9.7411],[-138.814,-9.7395],[-138.8921,-9.8007],[-138.9557,-9.81],[-139.0497,-9.8035],[-139.0619,-9.8539],[-139.1435,-9.8289],[-139.1732,-9.7742],[-139.1694,-9.761],[-139.0154,-9.6944],[-138.9845,-9.6995],[-138.9427,-9.7424],[-138.8667,-9.7555],[-138.8366,-9.7411]]],[[[-140.0494,-8.8232],[-140.016,-8.8593],[-140.0192,-8.8964],[-140.0556,-8.8785],[-140.0767,-8.9152],[-140.096,-8.919],[-140.1177,-8.9057],[-140.1699,-8.9295],[-140.1832,-8.9537],[-140.2277,-8.927],[-140.2611,-8.8232],[-140.2478,-8.7869],[-140.2167,-8.781],[-140.0897,-8.802],[-140.0277,-8.789],[-140.0494,-8.8232]]],[[[-140.0767,-9.3234],[-140.0539,-9.3463],[-140.0277,-9.3439],[-140.0629,-9.436],[-140.0928,-9.4475],[-140.1586,-9.3718],[-140.1016,-9.3263],[-140.0767,-9.3234]]],[[[-138.6988,-10.4264],[-138.6367,-10.4406],[-138.6204,-10.4719],[-138.6202,-10.5108],[-138.637,-10.5422],[-138.6715,-10.5505],[-138.6856,-10.5421],[-138.6944,-10.5079],[-138.6796,-10.4736],[-138.6988,-10.4264]]],[[[-139.5144,-8.884],[-139.5084,-8.912],[-139.5856,-8.9295],[-139.6168,-8.9542],[-139.6304,-8.8954],[-139.5969,-8.858],[-139.5144,-8.884]]],[[[-139.0824,-9.8995],[-139.0478,-9.9225],[-139.0959,-9.9617],[-139.1308,-10.0149],[-139.1439,-9.9978],[-139.1444,-9.9404],[-139.1038,-9.8883],[-139.0824,-9.8995]]],[[[-140.6925,-8.0151],[-140.7078,-8.0397],[-140.7272,-8.0281],[-140.7278,-7.9915],[-140.7064,-7.9631],[-140.6732,-7.9501],[-140.6384,-7.9597],[-140.6756,-7.9767],[-140.6925,-8.0151]]]]}},{"type":"Feature","id":"Tuamotu Archipelago","properties":{"id":"Tuamotu Archipelago","iso_code":"PF-X03~","name":"Tuamotu Archipelago","name_full":"Tuamotu Archipelago","name_ja":"トゥアモトゥ・ガンビエ","center_lonlat":[-140.7316,-17.7723]},"geometry":{"type":"MultiPolygon","coordinates":[[[[-140.6788,-17.7804],[-140.7852,-17.8586],[-140.837,-17.8547],[-140.8227,-17.8071],[-140.7825,-17.7516],[-140.6521,-17.6842],[-140.6247,-17.6873],[-140.6285,-17.7284],[-140.6788,-17.7804]]],[[[-140.6719,-21.6589],[-140.6532,-21.6471],[-140.6037,-21.7068],[-140.6305,-21.7216],[-140.6583,-21.7127],[-140.6758,-21.6889],[-140.6719,-21.6589]]],[[[-146.3873,-16.1082],[-146.3594,-16.1002],[-146.3377,-16.1134],[-146.3288,-16.1376],[-146.3389,-16.1628],[-146.3918,-16.1472],[-146.4021,-16.13],[-146.3873,-16.1082]]],[[[-145.4823,-16.3478],[-145.5023,-16.3366],[-145.5531,-16.2521],[-145.6066,-16.1293],[-145.6139,-16.0803],[-145.5592,-16.233],[-145.5171,-16.2789],[-145.4823,-16.3478]]],[[[-148.2508,-15.8674],[-148.2794,-15.8305],[-148.2621,-15.8024],[-148.2299,-15.8481],[-148.2508,-15.8674]]],[[[-145.0031,-14.5112],[-144.8881,-14.4181],[-145.0031,-14.443],[-144.8796,-14.4118],[-144.8833,-14.4274],[-145.0031,-14.5112]]],[[[-140.8227,-18.2179],[-140.9736,-18.0602],[-140.9252,-18.0847],[-140.8985,-18.1291],[-140.8299,-18.1904],[-140.8227,-18.2179]]],[[[-135.0194,-23.1176],[-134.943,-23.0836],[-134.9845,-23.1388],[-135.0194,-23.1176]]],[[[-148.0458,-14.9977],[-148.0843,-14.955],[-148.1761,-14.9221],[-148.0891,-14.9368],[-148.055,-14.9599],[-148.0458,-14.9977]]],[[[-143.3862,-16.6699],[-143.454,-16.6246],[-143.5507,-16.6222],[-143.4406,-16.6208],[-143.3862,-16.6699]]],[[[-145.0577,-15.9021],[-145.1299,-15.778],[-145.1608,-15.7581],[-145.1336,-15.7631],[-145.1175,-15.7807],[-145.067,-15.8564],[-145.0577,-15.9021]]],[[[-136.9714,-18.3619],[-137.0676,-18.2663],[-137.0102,-18.3044],[-136.9714,-18.3619]]],[[[-143.8176,-16.5396],[-143.8487,-16.4929],[-143.9342,-16.4503],[-143.862,-16.4672],[-143.8328,-16.4985],[-143.8176,-16.5396]]],[[[-136.3141,-18.5673],[-136.3313,-18.5326],[-136.4489,-18.4719],[-136.4613,-18.4687],[-136.4643,-18.486],[-136.4786,-18.4719],[-136.4587,-18.4643],[-136.4261,-18.4754],[-136.3824,-18.5099],[-136.3304,-18.5276],[-136.3048,-18.5457],[-136.3141,-18.5673]]],[[[-142.5775,-17.6214],[-142.5652,-17.6017],[-142.6395,-17.5326],[-142.5776,-17.5717],[-142.5582,-17.5992],[-142.5775,-17.6214]]],[[[-145.6139,-16.0529],[-145.7089,-16.0605],[-145.6313,-16.0383],[-145.6139,-16.0529]]],[[[-145.1949,-14.662],[-145.2604,-14.7023],[-145.2296,-14.6204],[-145.2548,-14.6933],[-145.1949,-14.662]]],[[[-143.5712,-16.6358],[-143.6204,-16.632],[-143.7015,-16.5805],[-143.6662,-16.5885],[-143.6095,-16.63],[-143.5712,-16.6358]]],[[[-145.4559,-15.4796],[-145.4327,-15.4885],[-145.4379,-15.4964],[-145.4573,-15.4817],[-145.5239,-15.4705],[-145.5496,-15.4521],[-145.4559,-15.4796]]],[[[-144.6498,-15.7302],[-144.6328,-15.7284],[-144.6204,-15.747],[-144.6419,-15.7551],[-144.6498,-15.7302]]],[[[-140.414,-19.6142],[-140.3832,-19.6254],[-140.3874,-19.657],[-140.4124,-19.6638],[-140.3866,-19.6403],[-140.414,-19.6142]]],[[[-135.4575,-21.528],[-135.5258,-21.4871],[-135.4849,-21.4968],[-135.4575,-21.528]]],[[[-138.5349,-20.8769],[-138.5173,-20.8492],[-138.5447,-20.7847],[-138.5684,-20.7882],[-138.5544,-20.7809],[-138.5426,-20.7804],[-138.5198,-20.8145],[-138.5128,-20.8577],[-138.5349,-20.8769]]],[[[-140.6719,-18.4172],[-140.7818,-18.3352],[-140.6871,-18.3906],[-140.6719,-18.4172]]],[[[-148.628,-14.8947],[-148.6479,-14.8718],[-148.6907,-14.8538],[-148.6406,-14.8649],[-148.6228,-14.8779],[-148.628,-14.8947]]],[[[-146.2569,-14.4975],[-146.2395,-14.4558],[-146.2711,-14.4355],[-146.2433,-14.4392],[-146.2318,-14.4568],[-146.2569,-14.4975]]],[[[-144.1068,-16.7239],[-144.0801,-16.7172],[-144.0509,-16.7595],[-144.0911,-16.7219],[-144.1107,-16.7397],[-144.1068,-16.7239]]],[[[-140.7218,-19.1337],[-140.6962,-19.1193],[-140.6702,-19.1318],[-140.6609,-19.1524],[-140.6859,-19.1616],[-140.67,-19.1428],[-140.6814,-19.1323],[-140.7218,-19.1337]]],[[[-140.889,-15.8198],[-140.8524,-15.8155],[-140.8797,-15.8383],[-140.895,-15.8329],[-140.889,-15.8198]]],[[[-140.1102,-15.9772],[-140.1172,-15.9617],[-140.1432,-15.9605],[-140.1723,-15.9772],[-140.1255,-15.9533],[-140.1071,-15.9606],[-140.1102,-15.9772]]],[[[-144.3731,-16.3404],[-144.426,-16.3328],[-144.4346,-16.3199],[-144.3731,-16.3404]]],[[[-145.8466,-14.3671],[-145.8426,-14.3466],[-145.9143,-14.3466],[-145.8354,-14.3427],[-145.8466,-14.3671]]],[[[-141.2662,-19.2035],[-141.2523,-19.1897],[-141.2372,-19.1936],[-141.2304,-19.2271],[-141.2428,-19.2022],[-141.2662,-19.2035]]],[[[-143.0848,-17.0046],[-143.1012,-16.9902],[-143.062,-17.009],[-143.0848,-17.0046]]],[[[-138.4417,-17.3664],[-138.4637,-17.3569],[-138.4261,-17.3249],[-138.4588,-17.3569],[-138.4417,-17.3664]]],[[[-144.2565,-16.4781],[-144.2609,-16.4509],[-144.2912,-16.4161],[-144.2601,-16.4423],[-144.2565,-16.4781]]],[[[-143.0921,-17.8533],[-143.0723,-17.8404],[-143.0603,-17.8678],[-143.0728,-17.8443],[-143.0921,-17.8533]]],[[[-143.4136,-17.457],[-143.475,-17.4303],[-143.4377,-17.4332],[-143.4136,-17.457]]],[[[-141.1746,-14.1896],[-141.1893,-14.1902],[-141.2128,-14.165],[-141.1746,-14.1896]]],[[[-144.2007,-16.6484],[-144.1881,-16.6457],[-144.1696,-16.6672],[-144.2007,-16.6484]]],[[[-136.5494,-21.3368],[-136.5322,-21.3313],[-136.5294,-21.3499],[-136.5431,-21.3598],[-136.5357,-21.3424],[-136.5494,-21.3368]]],[[[-138.8016,-18.7652],[-138.7932,-18.7789],[-138.8297,-18.7599],[-138.8016,-18.7652]]],[[[-141.4385,-17.3681],[-141.4538,-17.3523],[-141.4818,-17.3486],[-141.4452,-17.3517],[-141.435,-17.3893],[-141.4385,-17.3681]]]]}},{"type":"Feature","id":"Windward Islands","properties":{"id":"Windward Islands","iso_code":"PF-X01~","name":"Windward Islands","name_full":"Windward Islands","name_ja":"ウィンドワード諸島","center_lonlat":[-149.4199,-17.6646]},"geometry":{"type":"MultiPolygon","coordinates":[[[[-149.1835,-17.7312],[-149.1606,-17.7569],[-149.1491,-17.802],[-149.1564,-17.8463],[-149.1903,-17.8691],[-149.2759,-17.8449],[-149.3343,-17.7592],[-149.348,-17.7182],[-149.3718,-17.7387],[-149.4504,-17.7592],[-149.5761,-17.7376],[-149.6387,-17.6189],[-149.6328,-17.5534],[-149.6043,-17.5258],[-149.5192,-17.4985],[-149.475,-17.4941],[-149.3876,-17.518],[-149.3356,-17.5641],[-149.3275,-17.6842],[-149.3039,-17.7121],[-149.1835,-17.7312]]],[[[-149.7967,-17.4645],[-149.7856,-17.4792],[-149.8048,-17.5234],[-149.8428,-17.5676],[-149.9141,-17.5353],[-149.9444,-17.4924],[-149.9155,-17.4736],[-149.8978,-17.4723],[-149.8776,-17.492],[-149.7967,-17.4645]]]]}}]}
