{"type":"FeatureCollection","features":[{"type":"Feature","id":"Abkhazia","properties":{"id":"Abkhazia","iso_code":"GE-AB","name":"Abkhazia","name_full":"Abkhazia","name_ja":"アブハジア","center_lonlat":[41.1716,43.0955]},"geometry":{"type":"Polygon","coordinates":[[[42.1543,43.2175],[42.1293,43.1679],[42.1335,43.1114],[42.0573,43.0169],[41.908,42.9872],[41.8845,42.9646],[41.9022,42.9479],[41.9309,42.8606],[41.8915,42.8201],[41.9122,42.7146],[41.9404,42.679],[41.9471,42.6358],[41.9383,42.618],[41.8037,42.5222],[41.6649,42.4714],[41.6292,42.4384],[41.5512,42.4065],[41.5002,42.6406],[41.4574,42.7137],[41.4243,42.7399],[41.3073,42.7676],[41.2254,42.8023],[41.1502,42.7956],[41.1047,42.8466],[41.0818,42.9081],[41.0231,42.99],[40.959,42.9764],[40.9338,42.9827],[40.856,43.0631],[40.6829,43.0943],[40.5918,43.0856],[40.5202,43.1273],[40.3983,43.1623],[40.3612,43.1655],[40.3351,43.1409],[40.2684,43.2164],[40.2728,43.248],[40.2191,43.319],[40.1335,43.3416],[40.0869,43.3703],[39.986,43.389],[40.0592,43.5352],[40.0967,43.5626],[40.1643,43.5758],[40.2331,43.5758],[40.5196,43.5052],[40.6519,43.539],[40.7402,43.4953],[40.875,43.4556],[41.0118,43.3754],[41.1467,43.3799],[41.2788,43.3332],[41.3503,43.3434],[41.3807,43.3348],[41.4131,43.2913],[41.5061,43.2598],[41.5775,43.2153],[41.9193,43.2059],[42.0434,43.1806],[42.1543,43.2175]]]}},{"type":"Feature","id":"Adjara","properties":{"id":"Adjara","iso_code":"GE-AJ","name":"Adjara","name_full":"Adjara","name_ja":"アジャリア自治共和国","center_lonlat":[42.0741,41.6436]},"geometry":{"type":"Polygon","coordinates":[[[41.7739,41.9026],[41.9047,41.8978],[41.9463,41.8793],[41.9516,41.8583],[42.063,41.8114],[42.1505,41.8246],[42.2298,41.7986],[42.3024,41.8073],[42.3831,41.8386],[42.4435,41.8055],[42.4817,41.7987],[42.4959,41.7677],[42.4812,41.701],[42.4879,41.6867],[42.5473,41.6355],[42.5866,41.5791],[42.555,41.5503],[42.5355,41.4935],[42.4631,41.4318],[42.2625,41.4823],[42.1893,41.4817],[42.1584,41.4999],[42.0694,41.4986],[42.0196,41.4851],[41.948,41.5056],[41.894,41.4855],[41.813,41.4218],[41.761,41.4535],[41.7068,41.4632],[41.7026,41.489],[41.64,41.4787],[41.5208,41.5142],[41.6157,41.6326],[41.676,41.6622],[41.7398,41.7499],[41.7439,41.7786],[41.7739,41.8216],[41.7739,41.9026]]]}},{"type":"Feature","id":"Guria","properties":{"id":"Guria","iso_code":"GE-GU","name":"Guria","name_full":"Guria","name_ja":"グリア州","center_lonlat":[42.1447,41.9633]},"geometry":{"type":"Polygon","coordinates":[[[42.4817,41.7987],[42.4435,41.8055],[42.3831,41.8386],[42.3024,41.8073],[42.2298,41.7986],[42.1505,41.8246],[42.063,41.8114],[41.9516,41.8583],[41.9463,41.8793],[41.9047,41.8978],[41.7739,41.9026],[41.7557,42.0064],[41.7152,42.0593],[41.7551,42.1325],[42.0061,42.1586],[42.229,42.0972],[42.206,42.0709],[42.2303,42.0445],[42.2981,42.0339],[42.3453,42.0526],[42.3809,42.0462],[42.4135,41.9931],[42.5704,41.9319],[42.6323,41.9274],[42.6496,41.8334],[42.6017,41.8217],[42.5761,41.7936],[42.4817,41.7987]]]}},{"type":"Feature","id":"Imereti","properties":{"id":"Imereti","iso_code":"GE-IM","name":"Imereti","name_full":"Imereti","name_ja":"イメレティ州","center_lonlat":[42.9568,42.157]},"geometry":{"type":"Polygon","coordinates":[[[43.4262,41.9166],[43.1274,41.8254],[42.9909,41.8252],[42.9481,41.8118],[42.8171,41.8261],[42.7114,41.8059],[42.6496,41.8334],[42.6323,41.9274],[42.5704,41.9319],[42.4135,41.9931],[42.3809,42.0462],[42.3453,42.0526],[42.2981,42.0339],[42.2303,42.0445],[42.206,42.0709],[42.229,42.0972],[42.2687,42.1006],[42.2893,42.1316],[42.298,42.2259],[42.3714,42.3214],[42.4417,42.3814],[42.456,42.4341],[42.4964,42.4942],[42.5267,42.5171],[42.6144,42.5241],[42.6321,42.4354],[42.739,42.462],[42.7905,42.4527],[42.8374,42.4698],[42.9434,42.4087],[42.9561,42.3773],[43.05,42.3396],[43.1638,42.3572],[43.1989,42.3836],[43.2939,42.4204],[43.502,42.418],[43.5874,42.3947],[43.6617,42.3743],[43.7501,42.394],[43.7728,42.374],[43.7602,42.309],[43.6835,42.2935],[43.6159,42.2578],[43.6082,42.1702],[43.5807,42.1511],[43.549,42.0963],[43.4888,42.0574],[43.4695,41.9793],[43.4335,41.9554],[43.4262,41.9166]]]}},{"type":"Feature","id":"Kakheti","properties":{"id":"Kakheti","iso_code":"GE-KA","name":"Kakheti","name_full":"Kakheti","name_ja":"カヘティ州","center_lonlat":[45.7627,41.762]},"geometry":{"type":"Polygon","coordinates":[[[45.3016,42.5598],[45.3227,42.5301],[45.356,42.52],[45.5368,42.5414],[45.6987,42.5076],[45.7396,42.4715],[45.7364,42.4475],[45.6214,42.2245],[45.6314,42.2012],[45.8116,42.1155],[45.8814,42.102],[45.9476,42.0229],[45.9952,42.0335],[46.0267,42.0168],[46.0585,42.0203],[46.075,41.9935],[46.0992,41.9851],[46.2243,41.9935],[46.2942,41.9386],[46.4066,41.915],[46.4309,41.8904],[46.3713,41.8057],[46.3283,41.7664],[46.2978,41.7508],[46.2083,41.7555],[46.189,41.7401],[46.18,41.6552],[46.1928,41.6102],[46.2197,41.5933],[46.2539,41.6159],[46.2784,41.5784],[46.2967,41.5104],[46.3139,41.4937],[46.4451,41.4259],[46.5916,41.3729],[46.6074,41.345],[46.6229,41.3496],[46.6571,41.3206],[46.6948,41.2698],[46.6746,41.2617],[46.6695,41.2299],[46.6445,41.208],[46.6211,41.1146],[46.6018,41.094],[46.5435,41.097],[46.5224,41.087],[46.4968,41.0448],[46.4749,41.0441],[46.4126,41.0919],[46.3323,41.1159],[46.2286,41.1954],[46.1354,41.1999],[46.0174,41.1638],[45.8207,41.2088],[45.7097,41.2677],[45.6859,41.2962],[45.7441,41.3354],[45.5118,41.3946],[45.4648,41.4302],[45.3968,41.4233],[45.3331,41.4444],[45.2896,41.5312],[45.2083,41.5486],[45.1956,41.5952],[45.2299,41.6545],[45.1855,41.767],[45.1143,41.788],[45.0662,41.8375],[45.0528,41.867],[45.0214,41.8811],[45.0778,41.9165],[45.1326,41.8898],[45.2129,41.8983],[45.1771,41.9307],[45.0817,41.9479],[45.0723,41.9788],[45.0878,42.0061],[45.055,42.1045],[45.1237,42.2581],[45.174,42.2985],[45.2146,42.3063],[45.2236,42.345],[45.2108,42.385],[45.2583,42.4485],[45.269,42.5242],[45.3016,42.5598]]]}},{"type":"Feature","id":"Kvemo Kartli","properties":{"id":"Kvemo Kartli","iso_code":"GE-KK","name":"Kvemo Kartli","name_full":"Kvemo Kartli","name_ja":"クヴェモ・カルトリ州","center_lonlat":[44.5071,41.4914]},"geometry":{"type":"Polygon","coordinates":[[[43.9782,41.1646],[43.937,41.2912],[43.9475,41.3568],[43.9161,41.3858],[43.901,41.466],[43.8735,41.5009],[43.8474,41.5219],[43.6727,41.5185],[43.7039,41.5674],[43.7102,41.6674],[43.7331,41.6987],[43.8369,41.6951],[43.8862,41.7342],[44.2272,41.7201],[44.3359,41.7484],[44.3933,41.7203],[44.4631,41.7216],[44.4792,41.748],[44.5346,41.7425],[44.6283,41.6856],[44.6807,41.7055],[44.6987,41.7018],[44.7156,41.6739],[44.7453,41.6751],[44.8269,41.6436],[44.9049,41.6268],[44.9809,41.6343],[45.0093,41.6657],[44.9998,41.6903],[44.9474,41.6622],[44.8912,41.6834],[44.8797,41.7184],[44.8605,41.7317],[44.8628,41.7489],[44.8922,41.7698],[44.9446,41.8379],[45.0662,41.8375],[45.1143,41.788],[45.1855,41.767],[45.2299,41.6545],[45.1956,41.5952],[45.2083,41.5486],[45.2896,41.5312],[45.3331,41.4444],[45.2817,41.4529],[45.2496,41.4445],[44.9552,41.2627],[44.8207,41.2733],[44.8013,41.2585],[44.8471,41.2308],[44.8577,41.2193],[44.8478,41.2089],[44.6749,41.2085],[44.6129,41.2231],[44.5515,41.177],[44.531,41.1815],[44.5166,41.2068],[44.4549,41.1805],[44.3449,41.2132],[44.285,41.1909],[44.1803,41.2299],[44.1601,41.1979],[44.1247,41.1781],[44.0413,41.1826],[43.9782,41.1646]]]}},{"type":"Feature","id":"Mtskheta-Mtianeti","properties":{"id":"Mtskheta-Mtianeti","iso_code":"GE-MM","name":"Mtskheta-Mtianeti","name_full":"Mtskheta-Mtianeti","name_ja":"ムツヘタ＝ムティアネティ州","center_lonlat":[44.7414,42.2924]},"geometry":{"type":"Polygon","coordinates":[[[45.3016,42.5598],[45.269,42.5242],[45.2583,42.4485],[45.2108,42.385],[45.2236,42.345],[45.2146,42.3063],[45.174,42.2985],[45.1237,42.2581],[45.055,42.1045],[45.0878,42.0061],[45.0723,41.9788],[45.0817,41.9479],[45.1771,41.9307],[45.2129,41.8983],[45.1326,41.8898],[45.0778,41.9165],[45.0214,41.8811],[45.0528,41.867],[45.0662,41.8375],[44.9446,41.8379],[44.8922,41.7698],[44.8053,41.7953],[44.7614,41.7611],[44.7326,41.7617],[44.7124,41.7275],[44.6807,41.7055],[44.6283,41.6856],[44.5346,41.7425],[44.4792,41.748],[44.479,41.7736],[44.4984,41.7908],[44.4951,41.8293],[44.5229,41.8493],[44.5597,41.8506],[44.5732,41.8789],[44.5132,41.9392],[44.493,42.0063],[44.3527,42.0334],[44.2945,41.9972],[44.2897,42.0229],[44.2619,42.034],[44.2844,42.1708],[44.3626,42.2396],[44.3377,42.2976],[44.339,42.3591],[44.2869,42.4294],[44.3022,42.4651],[44.3344,42.4947],[44.2683,42.5663],[44.2209,42.5759],[44.1858,42.6265],[44.2301,42.6538],[44.272,42.7024],[44.3607,42.7038],[44.4792,42.7443],[44.5583,42.7531],[44.6424,42.7393],[44.695,42.7142],[44.7364,42.6776],[44.7735,42.6096],[44.8337,42.7341],[44.8594,42.7595],[44.903,42.7531],[45.0298,42.6888],[45.123,42.7023],[45.1554,42.6933],[45.3016,42.5598]]]}},{"type":"Feature","id":"Racha-Lechkhumi and Kvemo Svaneti","properties":{"id":"Racha-Lechkhumi and Kvemo Svaneti","iso_code":"GE-RL","name":"Racha-Lechkhumi and Kvemo Svaneti","name_full":"Racha-Lechkhumi and Kvemo Svaneti","name_ja":"ラチャ＝レチフミおよびクヴェモ・スヴァネティ州","center_lonlat":[43.1539,42.643]},"geometry":{"type":"Polygon","coordinates":[[[43.9082,42.5662],[43.9022,42.5156],[43.8489,42.4874],[43.8271,42.4582],[43.669,42.4433],[43.5874,42.3947],[43.502,42.418],[43.2939,42.4204],[43.1989,42.3836],[43.1638,42.3572],[43.05,42.3396],[42.9561,42.3773],[42.9434,42.4087],[42.8374,42.4698],[42.7905,42.4527],[42.739,42.462],[42.6321,42.4354],[42.6144,42.5241],[42.5383,42.6361],[42.5649,42.6779],[42.5195,42.712],[42.3526,42.7938],[42.3773,42.8284],[42.4582,42.8459],[42.4919,42.8871],[42.6837,42.8526],[42.7422,42.851],[42.7943,42.8722],[42.9029,42.8361],[42.9757,42.8434],[43.0656,42.8221],[43.0835,42.843],[43.0862,42.8743],[43.1425,42.9247],[43.1752,42.9345],[43.5174,42.8605],[43.5863,42.8356],[43.6628,42.7798],[43.8006,42.7465],[43.8118,42.7173],[43.7257,42.6544],[43.7226,42.6249],[43.7511,42.5987],[43.8854,42.5792],[43.9082,42.5662]]]}},{"type":"Feature","id":"Samegrelo-Zemo Svaneti","properties":{"id":"Samegrelo-Zemo Svaneti","iso_code":"GE-SZ","name":"Samegrelo-Zemo Svaneti","name_full":"Samegrelo-Zemo Svaneti","name_ja":"サメグレロ＝ゼモ・スヴァネティ州","center_lonlat":[42.2638,42.6891]},"geometry":{"type":"Polygon","coordinates":[[[43.1752,42.9345],[43.1425,42.9247],[43.0862,42.8743],[43.0835,42.843],[43.0656,42.8221],[42.9757,42.8434],[42.9029,42.8361],[42.7943,42.8722],[42.7422,42.851],[42.6837,42.8526],[42.4919,42.8871],[42.4582,42.8459],[42.3773,42.8284],[42.3526,42.7938],[42.5195,42.712],[42.5649,42.6779],[42.5383,42.6361],[42.6144,42.5241],[42.5267,42.5171],[42.4964,42.4942],[42.456,42.4341],[42.4417,42.3814],[42.3714,42.3214],[42.298,42.2259],[42.2893,42.1316],[42.2687,42.1006],[42.229,42.0972],[42.0061,42.1586],[41.7551,42.1325],[41.7152,42.0593],[41.6641,42.114],[41.6492,42.2122],[41.5962,42.3494],[41.5584,42.3828],[41.5512,42.4065],[41.6292,42.4384],[41.6649,42.4714],[41.8037,42.5222],[41.9383,42.618],[41.9471,42.6358],[41.9404,42.679],[41.9122,42.7146],[41.8915,42.8201],[41.9309,42.8606],[41.9022,42.9479],[41.8845,42.9646],[41.908,42.9872],[42.0573,43.0169],[42.1335,43.1114],[42.1293,43.1679],[42.1543,43.2175],[42.3546,43.236],[42.4229,43.229],[42.5349,43.1651],[42.6152,43.137],[42.6736,43.1659],[42.7515,43.177],[42.8298,43.1688],[42.9148,43.1219],[43.0001,43.0987],[42.9898,43.0527],[42.9989,43.0422],[43.1752,42.9345]]]}},{"type":"Feature","id":"Samtskhe–Javakheti","properties":{"id":"Samtskhe–Javakheti","iso_code":"GE-SJ","name":"Samtskhe–Javakheti","name_full":"Samtskhe–Javakheti","name_ja":"サムツヘ＝ジャヴァヘティ州","center_lonlat":[43.3221,41.53]},"geometry":{"type":"Polygon","coordinates":[[[42.5866,41.5791],[42.5473,41.6355],[42.4879,41.6867],[42.4812,41.701],[42.4959,41.7677],[42.4817,41.7987],[42.5761,41.7936],[42.6017,41.8217],[42.6496,41.8334],[42.7114,41.8059],[42.8171,41.8261],[42.9481,41.8118],[42.9909,41.8252],[43.1274,41.8254],[43.4262,41.9166],[43.5544,41.8938],[43.5691,41.8637],[43.6266,41.8218],[43.6574,41.8179],[43.6722,41.7914],[43.739,41.7674],[43.8441,41.7725],[43.8862,41.7342],[43.8369,41.6951],[43.7331,41.6987],[43.7102,41.6674],[43.7039,41.5674],[43.6727,41.5185],[43.8474,41.5219],[43.8735,41.5009],[43.901,41.466],[43.9161,41.3858],[43.9475,41.3568],[43.937,41.2912],[43.9782,41.1646],[43.8632,41.159],[43.7542,41.1082],[43.5666,41.1241],[43.4404,41.1066],[43.4518,41.1326],[43.4376,41.1562],[43.3833,41.1872],[43.3226,41.1921],[43.2306,41.1726],[43.172,41.2423],[43.1031,41.2488],[43.1572,41.2697],[43.184,41.299],[43.1239,41.3129],[43.0021,41.3827],[42.9577,41.437],[42.889,41.47],[42.868,41.5002],[42.83,41.4725],[42.7665,41.5043],[42.8027,41.5341],[42.8199,41.5723],[42.661,41.5883],[42.5866,41.5791]]]}},{"type":"Feature","id":"Shida Kartli","properties":{"id":"Shida Kartli","iso_code":"GE-SK","name":"Shida Kartli","name_full":"Shida Kartli","name_ja":"シダ・カルトリ州","center_lonlat":[44.0072,42.1086]},"geometry":{"type":"Polygon","coordinates":[[[43.9082,42.5662],[43.9584,42.5544],[44.0115,42.6003],[44.0551,42.6153],[44.1858,42.6265],[44.2209,42.5759],[44.2683,42.5663],[44.3344,42.4947],[44.3022,42.4651],[44.2869,42.4294],[44.339,42.3591],[44.3377,42.2976],[44.3626,42.2396],[44.2844,42.1708],[44.2619,42.034],[44.2897,42.0229],[44.2945,41.9972],[44.3527,42.0334],[44.493,42.0063],[44.5132,41.9392],[44.5732,41.8789],[44.5597,41.8506],[44.5229,41.8493],[44.4951,41.8293],[44.4984,41.7908],[44.479,41.7736],[44.4792,41.748],[44.4631,41.7216],[44.3933,41.7203],[44.3359,41.7484],[44.2272,41.7201],[43.8862,41.7342],[43.8441,41.7725],[43.739,41.7674],[43.6722,41.7914],[43.6574,41.8179],[43.6266,41.8218],[43.5691,41.8637],[43.5544,41.8938],[43.4262,41.9166],[43.4335,41.9554],[43.4695,41.9793],[43.4888,42.0574],[43.549,42.0963],[43.5807,42.1511],[43.6082,42.1702],[43.6159,42.2578],[43.6835,42.2935],[43.7602,42.309],[43.7728,42.374],[43.7501,42.394],[43.6617,42.3743],[43.5874,42.3947],[43.669,42.4433],[43.8271,42.4582],[43.8489,42.4874],[43.9022,42.5156],[43.9082,42.5662]]]}},{"type":"Feature","id":"Tbilisi","properties":{"id":"Tbilisi","iso_code":"GE-TB","name":"Tbilisi","name_full":"Tbilisi","name_ja":"トビリシ","center_lonlat":[44.8312,41.7016]},"geometry":{"type":"Polygon","coordinates":[[[44.8922,41.7698],[44.8628,41.7489],[44.8605,41.7317],[44.8797,41.7184],[44.8912,41.6834],[44.9474,41.6622],[44.9998,41.6903],[45.0093,41.6657],[44.9809,41.6343],[44.9049,41.6268],[44.8269,41.6436],[44.7453,41.6751],[44.7156,41.6739],[44.6987,41.7018],[44.6807,41.7055],[44.7124,41.7275],[44.7326,41.7617],[44.7614,41.7611],[44.8053,41.7953],[44.8922,41.7698]]]}}]}
