{"type":"FeatureCollection","features":[{"type":"Feature","id":"Ashanti","properties":{"id":"Ashanti","iso_code":"GH-AH","name":"Ashanti","name_full":"Ashanti","name_ja":"アシャンティ州","center_lonlat":[-1.4464,6.808]},"geometry":{"type":"Polygon","coordinates":[[[-0.2138,7.1928],[-0.2893,7.1762],[-0.3423,7.1222],[-0.4152,7.0936],[-0.4437,7.0651],[-0.6019,7.0567],[-0.7929,6.797],[-0.8849,6.7742],[-0.9477,6.7411],[-0.9515,6.6985],[-0.9032,6.6503],[-0.8908,6.6137],[-1.0713,6.4188],[-1.1142,6.3517],[-1.1514,6.2355],[-1.1901,6.2061],[-1.1824,6.1743],[-1.2005,6.1295],[-1.1857,6.0937],[-1.2052,6.0829],[-1.2422,5.9818],[-1.2412,5.9699],[-1.2218,5.9643],[-1.2395,5.9153],[-1.2548,5.8884],[-1.2922,5.8829],[-1.309,5.9065],[-1.3699,5.9175],[-1.4609,5.8889],[-1.4659,5.8594],[-1.4777,5.8542],[-1.5118,5.8708],[-1.5159,5.8823],[-1.5014,5.8942],[-1.5216,5.9162],[-1.681,5.9154],[-1.8047,5.9811],[-1.8081,6.0159],[-1.8237,6.0265],[-1.9118,6.0138],[-1.9553,6.0527],[-1.9806,6.1112],[-2.0032,6.1102],[-2.0129,6.1282],[-2.0276,6.2058],[-2.012,6.2884],[-2.0702,6.2977],[-2.1073,6.3004],[-2.1408,6.3586],[-2.2279,6.3821],[-2.2306,6.4102],[-2.2115,6.4666],[-2.2217,6.4911],[-2.2665,6.4838],[-2.3297,6.5076],[-2.3677,6.3772],[-2.3934,6.3579],[-2.421,6.3568],[-2.4258,6.3867],[-2.4256,6.4062],[-2.4454,6.4198],[-2.4411,6.4515],[-2.3773,6.5451],[-2.3848,6.5676],[-2.3753,6.5889],[-2.4175,6.6452],[-2.4128,6.6835],[-2.3548,6.6801],[-2.3066,6.7002],[-2.2773,6.8072],[-2.2408,6.8365],[-2.2527,6.8514],[-2.2889,6.8592],[-2.3919,6.8525],[-2.3263,6.9262],[-2.3125,6.9892],[-2.2307,7.0683],[-2.2014,7.063],[-2.1773,7.0335],[-2.0361,7.0472],[-1.9816,7.0824],[-1.9337,7.1393],[-1.877,7.152],[-1.8633,7.1792],[-1.8564,7.2341],[-1.9155,7.25],[-1.992,7.3173],[-2.0432,7.3097],[-2.0829,7.3454],[-2.1415,7.3544],[-2.133,7.4106],[-2.105,7.4617],[-2.0448,7.4543],[-2.0089,7.4669],[-1.9351,7.4576],[-1.8465,7.4684],[-1.8325,7.4521],[-1.823,7.3883],[-1.7462,7.3396],[-1.6914,7.3519],[-1.6518,7.3411],[-1.6215,7.3499],[-1.5801,7.398],[-1.5238,7.4066],[-1.5321,7.482],[-1.4518,7.5365],[-1.4069,7.6038],[-1.3775,7.6226],[-1.3298,7.5994],[-1.3,7.4801],[-1.2468,7.4607],[-1.0859,7.4835],[-1.0323,7.5414],[-0.9509,7.5264],[-0.9287,7.5089],[-0.8492,7.5191],[-0.7948,7.4938],[-0.774,7.5153],[-0.751,7.5106],[-0.6985,7.5407],[-0.6371,7.4945],[-0.5797,7.3901],[-0.4298,7.3536],[-0.2833,7.2996],[-0.2138,7.1928]]]}},{"type":"Feature","id":"Brong-Ahafo","properties":{"id":"Brong-Ahafo","iso_code":"GH-BA","name":"Brong-Ahafo","name_full":"Brong-Ahafo","name_ja":"ブロング＝アハフォ州","center_lonlat":[-1.6599,7.7099]},"geometry":{"type":"Polygon","coordinates":[[[-2.6031,8.7851],[-2.5623,8.7696],[-2.522,8.7262],[-2.5077,8.7262],[-2.4651,8.6581],[-2.3896,8.5811],[-2.3638,8.5276],[-2.3616,8.4926],[-2.339,8.4564],[-2.3202,8.4503],[-2.3023,8.4109],[-2.285,8.3126],[-2.1741,8.2172],[-2.1309,8.1577],[-2.0513,8.1496],[-1.956,8.1691],[-1.8916,8.2501],[-1.8709,8.2601],[-1.7853,8.2334],[-1.7564,8.2523],[-1.7536,8.288],[-1.7703,8.3254],[-1.8777,8.3358],[-1.9025,8.3758],[-1.9132,8.4188],[-1.8846,8.4662],[-1.8832,8.5664],[-1.8573,8.6238],[-1.8165,8.6413],[-1.742,8.6177],[-1.6998,8.6339],[-1.6788,8.6673],[-1.6542,8.6778],[-1.541,8.6709],[-1.5059,8.6907],[-1.4942,8.7349],[-1.4685,8.7568],[-1.3903,8.7623],[-1.3573,8.7542],[-1.2605,8.6816],[-1.1716,8.6643],[-1.1432,8.5618],[-1.1631,8.5252],[-1.2202,8.4716],[-1.2309,8.4071],[-1.2699,8.3568],[-1.2029,8.2867],[-1.0908,7.9815],[-1.0541,7.9645],[-1.0099,8.0181],[-1.0088,8.0598],[-1.0309,8.1105],[-1.0217,8.1429],[-0.9597,8.1678],[-0.9095,8.2506],[-0.859,8.2762],[-0.8166,8.3185],[-0.6951,8.3188],[-0.5384,8.1795],[-0.4644,8.1409],[-0.3949,8.1393],[-0.3182,8.1148],[-0.1788,8.0036],[-0.1553,7.9711],[-0.1123,7.8708],[-0.102,7.814],[-0.0751,7.7699],[0.01,7.7269],[0.039,7.6383],[0.1167,7.4968],[0.1274,7.4115],[0.2148,7.3662],[0.2368,7.3426],[0.2236,7.1673],[0.1699,7.1842],[0.1023,7.1589],[0.039,7.183],[-0.2138,7.1928],[-0.2833,7.2996],[-0.4298,7.3536],[-0.5797,7.3901],[-0.6371,7.4945],[-0.6985,7.5407],[-0.751,7.5106],[-0.774,7.5153],[-0.7948,7.4938],[-0.8492,7.5191],[-0.9287,7.5089],[-0.9509,7.5264],[-1.0323,7.5414],[-1.0859,7.4835],[-1.2468,7.4607],[-1.3,7.4801],[-1.3298,7.5994],[-1.3775,7.6226],[-1.4069,7.6038],[-1.4518,7.5365],[-1.5321,7.482],[-1.5238,7.4066],[-1.5801,7.398],[-1.6215,7.3499],[-1.6518,7.3411],[-1.6914,7.3519],[-1.7462,7.3396],[-1.823,7.3883],[-1.8325,7.4521],[-1.8465,7.4684],[-1.9351,7.4576],[-2.0089,7.4669],[-2.0448,7.4543],[-2.105,7.4617],[-2.133,7.4106],[-2.1415,7.3544],[-2.0829,7.3454],[-2.0432,7.3097],[-1.992,7.3173],[-1.9155,7.25],[-1.8564,7.2341],[-1.8633,7.1792],[-1.877,7.152],[-1.9337,7.1393],[-1.9816,7.0824],[-2.0361,7.0472],[-2.1773,7.0335],[-2.2014,7.063],[-2.2307,7.0683],[-2.3125,6.9892],[-2.3263,6.9262],[-2.3919,6.8525],[-2.2889,6.8592],[-2.2527,6.8514],[-2.2408,6.8365],[-2.2773,6.8072],[-2.3066,6.7002],[-2.3548,6.6801],[-2.4128,6.6835],[-2.4175,6.6452],[-2.3753,6.5889],[-2.3848,6.5676],[-2.3773,6.5451],[-2.4411,6.4515],[-2.4454,6.4198],[-2.4256,6.4062],[-2.4258,6.3867],[-2.5165,6.4146],[-2.5655,6.5129],[-2.6172,6.5379],[-2.6458,6.591],[-2.7384,6.6005],[-2.8274,6.65],[-2.8438,6.7147],[-2.8324,6.7506],[-2.8406,6.7998],[-2.8865,6.9053],[-2.9578,6.9537],[-3.0227,6.9373],[-3.053,6.9441],[-3.0792,6.9779],[-3.0973,7.0541],[-3.0459,7.0712],[-3.0326,7.1284],[-2.9728,7.215],[-2.9905,7.2707],[-2.9415,7.5772],[-2.8382,7.7968],[-2.84,7.8202],[-2.8012,7.8502],[-2.7906,7.9433],[-2.7712,7.9307],[-2.6909,8.0097],[-2.6106,8.04],[-2.5998,8.0704],[-2.6219,8.1357],[-2.6107,8.1649],[-2.5581,8.1677],[-2.5063,8.2093],[-2.6031,8.7851]]]}},{"type":"Feature","id":"Central","properties":{"id":"Central","iso_code":"GH-CP","name":"Central","name_full":"Central","name_ja":"セントラル州","center_lonlat":[-1.193,5.5597]},"geometry":{"type":"Polygon","coordinates":[[[-0.3593,5.4987],[-0.4451,5.4314],[-0.4716,5.3908],[-0.6295,5.3267],[-0.6378,5.3409],[-0.7995,5.2148],[-0.8739,5.204],[-0.9115,5.218],[-0.9766,5.1983],[-0.9971,5.2168],[-1.1541,5.1539],[-1.1737,5.1306],[-1.2336,5.1007],[-1.3192,5.0945],[-1.364,5.0734],[-1.4049,5.0734],[-1.4597,5.0498],[-1.5293,5.0399],[-1.5688,5.0193],[-1.577,5.095],[-1.5458,5.1772],[-1.5229,5.1947],[-1.4746,5.2039],[-1.4211,5.2574],[-1.5142,5.3382],[-1.5485,5.4015],[-1.6072,5.4498],[-1.6146,5.5025],[-1.5835,5.5432],[-1.6073,5.5806],[-1.6482,5.6064],[-1.701,5.6135],[-1.7322,5.6316],[-1.8153,5.6205],[-1.8222,5.6689],[-1.8092,5.7433],[-1.7918,5.7726],[-1.8204,5.8004],[-1.8154,5.8504],[-1.8363,5.8884],[-1.9063,5.9286],[-1.9766,6.0199],[-2.039,6.0518],[-2.0667,6.0999],[-2.1586,6.1474],[-2.1705,6.1743],[-2.1678,6.217],[-2.0987,6.2578],[-2.0702,6.2977],[-2.012,6.2884],[-2.0276,6.2058],[-2.0129,6.1282],[-2.0032,6.1102],[-1.9806,6.1112],[-1.9553,6.0527],[-1.9118,6.0138],[-1.8237,6.0265],[-1.8081,6.0159],[-1.8047,5.9811],[-1.681,5.9154],[-1.5216,5.9162],[-1.5014,5.8942],[-1.5159,5.8823],[-1.5118,5.8708],[-1.4777,5.8542],[-1.4659,5.8594],[-1.4609,5.8889],[-1.3699,5.9175],[-1.309,5.9065],[-1.2922,5.8829],[-1.2548,5.8884],[-1.2395,5.9153],[-1.1726,5.8829],[-1.11,5.7767],[-1.0075,5.7763],[-0.9593,5.7559],[-0.8824,5.7603],[-0.7685,5.7343],[-0.5783,5.7476],[-0.5066,5.7259],[-0.4546,5.6306],[-0.3903,5.5874],[-0.3593,5.4987]]]}},{"type":"Feature","id":"Eastern","properties":{"id":"Eastern","iso_code":"GH-EP","name":"Eastern","name_full":"Eastern","name_ja":"イースタン州","center_lonlat":[-0.4259,6.4026]},"geometry":{"type":"Polygon","coordinates":[[[-0.2138,7.1928],[0.039,7.183],[0.1023,7.1589],[0.1699,7.1842],[0.2236,7.1673],[0.228,7.1138],[0.207,7.0435],[0.2125,6.9522],[0.1611,6.894],[0.143,6.8334],[0.1538,6.81],[0.2064,6.7728],[0.2156,6.7092],[0.1349,6.6357],[0.1108,6.5341],[0.1664,6.5225],[0.1789,6.4743],[0.2128,6.4396],[0.2165,6.4082],[0.1799,6.3078],[0.0913,6.2563],[0.1057,6.2089],[0.0911,6.1485],[0.1445,6.1025],[0.2483,6.0964],[0.3171,6.051],[0.32,5.9442],[0.2614,5.8809],[0.2346,5.8703],[0.1346,5.9486],[0.1054,5.9924],[0.0596,5.9892],[0.0039,5.9566],[-0.0378,5.9756],[-0.0619,5.9076],[-0.1169,5.881],[-0.1522,5.7951],[-0.184,5.768],[-0.2505,5.7887],[-0.3128,5.7437],[-0.3557,5.7395],[-0.4132,5.7609],[-0.4249,5.79],[-0.4792,5.788],[-0.5045,5.777],[-0.5066,5.7259],[-0.5783,5.7476],[-0.7685,5.7343],[-0.8824,5.7603],[-0.9593,5.7559],[-1.0075,5.7763],[-1.11,5.7767],[-1.1726,5.8829],[-1.2395,5.9153],[-1.2218,5.9643],[-1.2412,5.9699],[-1.2422,5.9818],[-1.2052,6.0829],[-1.1857,6.0937],[-1.2005,6.1295],[-1.1824,6.1743],[-1.1901,6.2061],[-1.1514,6.2355],[-1.1142,6.3517],[-1.0713,6.4188],[-0.8908,6.6137],[-0.9032,6.6503],[-0.9515,6.6985],[-0.9477,6.7411],[-0.8849,6.7742],[-0.7929,6.797],[-0.6019,7.0567],[-0.4437,7.0651],[-0.4152,7.0936],[-0.3423,7.1222],[-0.2893,7.1762],[-0.2138,7.1928]]]}},{"type":"Feature","id":"Greater Accra","properties":{"id":"Greater Accra","iso_code":"GH-AA","name":"Greater Accra","name_full":"Greater Accra","name_ja":"グレーター・アクラ州","center_lonlat":[0.0639,5.7765]},"geometry":{"type":"Polygon","coordinates":[[[0.6736,5.7591],[0.3649,5.7815],[0.2981,5.7737],[0.1574,5.7246],[0.1146,5.6887],[0.0757,5.6776],[0.0345,5.6284],[-0.045,5.6016],[-0.0686,5.5812],[-0.3593,5.4987],[-0.3903,5.5874],[-0.4546,5.6306],[-0.5066,5.7259],[-0.5045,5.777],[-0.4792,5.788],[-0.4249,5.79],[-0.4132,5.7609],[-0.3557,5.7395],[-0.3128,5.7437],[-0.2505,5.7887],[-0.184,5.768],[-0.1522,5.7951],[-0.1169,5.881],[-0.0619,5.9076],[-0.0378,5.9756],[0.0039,5.9566],[0.0596,5.9892],[0.1054,5.9924],[0.1346,5.9486],[0.2346,5.8703],[0.2614,5.8809],[0.32,5.9442],[0.3378,5.9712],[0.394,5.9997],[0.4829,5.9965],[0.5748,5.9722],[0.5931,5.9553],[0.6395,5.8456],[0.719,5.7957],[0.7148,5.7794],[0.6736,5.7591]]]}},{"type":"Feature","id":"Northern","properties":{"id":"Northern","iso_code":"GH-NP","name":"Northern","name_full":"Northern","name_ja":"ノーザン州","center_lonlat":[-0.9775,9.3509]},"geometry":{"type":"Polygon","coordinates":[[[-0.0916,10.7003],[-0.0983,10.6542],[-0.0881,10.6335],[0.0294,10.5825],[0.0573,10.5411],[0.126,10.4916],[0.1799,10.3942],[0.1971,10.4103],[0.2332,10.3986],[0.2732,10.4066],[0.2831,10.3968],[0.2788,10.3666],[0.3176,10.3173],[0.3088,10.2971],[0.3666,10.3045],[0.3966,10.2832],[0.372,10.2651],[0.3572,10.22],[0.3536,10.1155],[0.3634,10.0897],[0.3951,10.0724],[0.3981,10.0521],[0.3939,10.0325],[0.3498,10.0288],[0.3696,9.9388],[0.3417,9.9038],[0.3439,9.8384],[0.3224,9.7607],[0.3476,9.6988],[0.3471,9.6632],[0.3187,9.6486],[0.2753,9.6856],[0.261,9.6572],[0.2617,9.6279],[0.2776,9.607],[0.3494,9.6139],[0.3692,9.6101],[0.3777,9.5894],[0.3546,9.5711],[0.3224,9.5831],[0.3046,9.5716],[0.2302,9.5757],[0.2231,9.5412],[0.2431,9.5187],[0.2931,9.5183],[0.3019,9.5075],[0.2853,9.4884],[0.2281,9.474],[0.2314,9.419],[0.3142,9.4365],[0.3338,9.4795],[0.3489,9.486],[0.4117,9.4922],[0.4835,9.47],[0.4917,9.4513],[0.4828,9.4279],[0.5314,9.4011],[0.5376,9.3776],[0.5225,9.2851],[0.4929,9.2586],[0.5047,9.1872],[0.4636,9.1371],[0.4585,9.0892],[0.4313,9.0276],[0.4931,8.9152],[0.5056,8.8663],[0.4735,8.7935],[0.4196,8.7912],[0.4078,8.7591],[0.3971,8.7815],[0.3727,8.7838],[0.3681,8.7615],[0.2781,8.7595],[0.2328,8.7783],[0.1891,8.763],[0.1915,8.7281],[0.1465,8.6457],[0.1738,8.5931],[0.1242,8.5867],[0.0952,8.5239],[0.0945,8.5021],[0.1269,8.4732],[0.0919,8.4515],[0.097,8.3908],[0.1327,8.3815],[0.2145,8.3935],[0.2454,8.3623],[0.2415,8.3354],[0.1897,8.3205],[0.1976,8.254],[0.1031,8.2404],[0.0107,8.3175],[-0.0716,8.3352],[-0.1491,8.2946],[-0.1683,8.2404],[-0.2035,8.2115],[-0.2786,8.2235],[-0.3413,8.2132],[-0.3949,8.1393],[-0.4644,8.1409],[-0.5384,8.1795],[-0.6951,8.3188],[-0.8166,8.3185],[-0.859,8.2762],[-0.9095,8.2506],[-0.9597,8.1678],[-1.0217,8.1429],[-1.0309,8.1105],[-1.0088,8.0598],[-1.0099,8.0181],[-1.0541,7.9645],[-1.0908,7.9815],[-1.2029,8.2867],[-1.2699,8.3568],[-1.2309,8.4071],[-1.2202,8.4716],[-1.1631,8.5252],[-1.1432,8.5618],[-1.1716,8.6643],[-1.2605,8.6816],[-1.3573,8.7542],[-1.3903,8.7623],[-1.4685,8.7568],[-1.4942,8.7349],[-1.5059,8.6907],[-1.541,8.6709],[-1.6542,8.6778],[-1.6788,8.6673],[-1.6998,8.6339],[-1.742,8.6177],[-1.8165,8.6413],[-1.8573,8.6238],[-1.8832,8.5664],[-1.8846,8.4662],[-1.9132,8.4188],[-1.9025,8.3758],[-1.8777,8.3358],[-1.7703,8.3254],[-1.7536,8.288],[-1.7564,8.2523],[-1.7853,8.2334],[-1.8709,8.2601],[-1.8916,8.2501],[-1.956,8.1691],[-2.0513,8.1496],[-2.1309,8.1577],[-2.1741,8.2172],[-2.285,8.3126],[-2.3023,8.4109],[-2.3202,8.4503],[-2.339,8.4564],[-2.3616,8.4926],[-2.3638,8.5276],[-2.3896,8.5811],[-2.4651,8.6581],[-2.5077,8.7262],[-2.522,8.7262],[-2.5623,8.7696],[-2.6031,8.7851],[-2.6172,8.7892],[-2.5956,8.8281],[-2.6172,8.915],[-2.6377,8.9315],[-2.6608,9.0149],[-2.7508,9.0374],[-2.7748,9.055],[-2.7552,9.1431],[-2.7048,9.2184],[-2.6731,9.2349],[-2.6598,9.2729],[-2.693,9.2853],[-2.715,9.3111],[-2.7133,9.3299],[-2.6724,9.374],[-2.6757,9.4717],[-2.7663,9.5765],[-2.7665,9.6089],[-2.7434,9.6533],[-2.6231,9.6715],[-2.593,9.7066],[-2.5514,9.7242],[-2.5323,9.7636],[-2.5144,9.7741],[-2.4223,9.7836],[-2.3297,9.812],[-2.0712,9.8115],[-1.941,9.8401],[-1.7636,9.8338],[-1.7368,9.8651],[-1.696,9.8849],[-1.6852,9.9284],[-1.6975,9.9564],[-1.692,10.0048],[-1.6244,10.0313],[-1.6495,10.0556],[-1.5894,10.0572],[-1.5551,10.0781],[-1.6493,10.1676],[-1.614,10.2895],[-1.5378,10.3583],[-1.4901,10.4262],[-1.4556,10.4279],[-1.3658,10.3906],[-1.3286,10.3355],[-1.2324,10.2986],[-1.2066,10.3232],[-1.2107,10.403],[-1.1558,10.4411],[-1.1325,10.4845],[-1.0002,10.5315],[-0.9121,10.5132],[-0.9325,10.4845],[-0.922,10.4792],[-0.8531,10.5356],[-0.831,10.5875],[-0.7982,10.6077],[-0.7856,10.6398],[-0.7009,10.6342],[-0.7049,10.5989],[-0.6856,10.5644],[-0.706,10.5244],[-0.6674,10.5189],[-0.6359,10.5449],[-0.5826,10.5405],[-0.551,10.5579],[-0.5128,10.5536],[-0.4828,10.6174],[-0.4246,10.601],[-0.3251,10.638],[-0.1746,10.6633],[-0.0916,10.7003]]]}},{"type":"Feature","id":"Upper East","properties":{"id":"Upper East","iso_code":"GH-UE","name":"Upper East","name_full":"Upper East","name_ja":"アッパー・イースト州","center_lonlat":[-0.8106,10.7773]},"geometry":{"type":"Polygon","coordinates":[[[-0.0916,10.7003],[-0.1746,10.6633],[-0.3251,10.638],[-0.4246,10.601],[-0.4828,10.6174],[-0.5128,10.5536],[-0.551,10.5579],[-0.5826,10.5405],[-0.6359,10.5449],[-0.6674,10.5189],[-0.706,10.5244],[-0.6856,10.5644],[-0.7049,10.5989],[-0.7009,10.6342],[-0.7856,10.6398],[-0.7982,10.6077],[-0.831,10.5875],[-0.8531,10.5356],[-0.922,10.4792],[-0.9325,10.4845],[-0.9121,10.5132],[-1.0002,10.5315],[-1.1325,10.4845],[-1.1558,10.4411],[-1.2107,10.403],[-1.2066,10.3232],[-1.2324,10.2986],[-1.3286,10.3355],[-1.3658,10.3906],[-1.3561,10.419],[-1.3681,10.4653],[-1.3877,10.4757],[-1.4149,10.4571],[-1.4437,10.4785],[-1.4538,10.5252],[-1.4936,10.5404],[-1.5259,10.5775],[-1.5556,10.5885],[-1.5782,10.6694],[-1.5669,10.7248],[-1.5017,10.7813],[-1.497,10.8128],[-1.4531,10.8519],[-1.4485,10.9551],[-1.4236,11.0179],[-1.3553,10.9967],[-1.1076,10.9943],[-1.0987,11.0096],[-1.0703,11.0139],[-0.9325,11.0031],[-0.8939,10.9799],[-0.9006,10.9662],[-0.8278,11.0058],[-0.817,10.9962],[-0.696,10.994],[-0.6947,10.9827],[-0.668,10.9765],[-0.6828,10.9536],[-0.6348,10.908],[-0.6172,10.9186],[-0.5906,10.9824],[-0.513,10.9897],[-0.4567,11.0296],[-0.4252,11.1015],[-0.4059,11.1015],[-0.3689,11.0652],[-0.3188,11.1014],[-0.2983,11.1284],[-0.3017,11.1629],[-0.1661,11.135],[-0.1217,11.0922],[-0.0323,11.0986],[0.0011,11.086],[0.0162,11.0626],[0.0142,10.9837],[-0.0144,10.9536],[-0.0361,10.8531],[-0.0321,10.8132],[-0.0752,10.7737],[-0.0916,10.7003]]]}},{"type":"Feature","id":"Upper West","properties":{"id":"Upper West","iso_code":"GH-UW","name":"Upper West","name_full":"Upper West","name_ja":"アッパー・ウエスト州","center_lonlat":[-2.2027,10.4223]},"geometry":{"type":"Polygon","coordinates":[[[-1.4236,11.0179],[-1.4485,10.9551],[-1.4531,10.8519],[-1.497,10.8128],[-1.5017,10.7813],[-1.5669,10.7248],[-1.5782,10.6694],[-1.5556,10.5885],[-1.5259,10.5775],[-1.4936,10.5404],[-1.4538,10.5252],[-1.4437,10.4785],[-1.4149,10.4571],[-1.3877,10.4757],[-1.3681,10.4653],[-1.3561,10.419],[-1.3658,10.3906],[-1.4556,10.4279],[-1.4901,10.4262],[-1.5378,10.3583],[-1.614,10.2895],[-1.6493,10.1676],[-1.5551,10.0781],[-1.5894,10.0572],[-1.6495,10.0556],[-1.6244,10.0313],[-1.692,10.0048],[-1.6975,9.9564],[-1.6852,9.9284],[-1.696,9.8849],[-1.7368,9.8651],[-1.7636,9.8338],[-1.941,9.8401],[-2.0712,9.8115],[-2.3297,9.812],[-2.4223,9.7836],[-2.5144,9.7741],[-2.5323,9.7636],[-2.5514,9.7242],[-2.593,9.7066],[-2.6231,9.6715],[-2.7434,9.6533],[-2.7953,9.72],[-2.7748,9.7743],[-2.7339,9.8228],[-2.7605,9.8705],[-2.7544,9.9668],[-2.7885,10.0388],[-2.7989,10.1696],[-2.7985,10.1895],[-2.7577,10.2346],[-2.7549,10.2608],[-2.7997,10.2809],[-2.8057,10.299],[-2.8332,10.306],[-2.8413,10.3223],[-2.8295,10.3783],[-2.7676,10.4212],[-2.8121,10.4288],[-2.8596,10.4656],[-2.9325,10.6343],[-2.9051,10.6927],[-2.9223,10.7212],[-2.8827,10.7971],[-2.8642,10.8643],[-2.8214,10.9063],[-2.8158,10.9292],[-2.8373,10.998],[-2.7511,10.9965],[-2.7507,10.9858],[-1.5987,10.9971],[-1.5624,11.0266],[-1.4236,11.0179]]]}},{"type":"Feature","id":"Volta","properties":{"id":"Volta","iso_code":"GH-TV","name":"Volta","name_full":"Volta","name_ja":"ヴォルタ州","center_lonlat":[0.4003,7.2358]},"geometry":{"type":"Polygon","coordinates":[[[0.6736,5.7591],[0.7148,5.7794],[0.719,5.7957],[0.6395,5.8456],[0.5931,5.9553],[0.5748,5.9722],[0.4829,5.9965],[0.394,5.9997],[0.3378,5.9712],[0.32,5.9442],[0.3171,6.051],[0.2483,6.0964],[0.1445,6.1025],[0.0911,6.1485],[0.1057,6.2089],[0.0913,6.2563],[0.1799,6.3078],[0.2165,6.4082],[0.2128,6.4396],[0.1789,6.4743],[0.1664,6.5225],[0.1108,6.5341],[0.1349,6.6357],[0.2156,6.7092],[0.2064,6.7728],[0.1538,6.81],[0.143,6.8334],[0.1611,6.894],[0.2125,6.9522],[0.207,7.0435],[0.228,7.1138],[0.2236,7.1673],[0.2368,7.3426],[0.2148,7.3662],[0.1274,7.4115],[0.1167,7.4968],[0.039,7.6383],[0.01,7.7269],[-0.0751,7.7699],[-0.102,7.814],[-0.1123,7.8708],[-0.1553,7.9711],[-0.1788,8.0036],[-0.3182,8.1148],[-0.3949,8.1393],[-0.3413,8.2132],[-0.2786,8.2235],[-0.2035,8.2115],[-0.1683,8.2404],[-0.1491,8.2946],[-0.0716,8.3352],[0.0107,8.3175],[0.1031,8.2404],[0.1976,8.254],[0.1897,8.3205],[0.2415,8.3354],[0.2454,8.3623],[0.2145,8.3935],[0.1327,8.3815],[0.097,8.3908],[0.0919,8.4515],[0.1269,8.4732],[0.0945,8.5021],[0.0952,8.5239],[0.1242,8.5867],[0.1738,8.5931],[0.1465,8.6457],[0.1915,8.7281],[0.1891,8.763],[0.2328,8.7783],[0.2781,8.7595],[0.3681,8.7615],[0.4037,8.6621],[0.4435,8.6069],[0.5508,8.5193],[0.6163,8.4888],[0.6467,8.4142],[0.6851,8.3826],[0.6892,8.3313],[0.7088,8.3226],[0.7128,8.298],[0.7052,8.2828],[0.5738,8.2039],[0.5933,8.1507],[0.575,8.1246],[0.5932,8.0157],[0.6123,7.6994],[0.5834,7.7043],[0.5621,7.6123],[0.5092,7.5854],[0.4956,7.5043],[0.5167,7.411],[0.5664,7.3808],[0.623,7.3979],[0.6457,7.3236],[0.5977,7.1589],[0.598,7.0312],[0.5789,6.9968],[0.4946,6.9731],[0.5463,6.9148],[0.5161,6.8418],[0.5766,6.7547],[0.6258,6.7278],[0.6322,6.624],[0.6682,6.5858],[0.7146,6.5839],[0.7274,6.5714],[0.7117,6.5134],[0.7457,6.4409],[0.8413,6.3792],[0.8868,6.3304],[0.9835,6.3246],[1.0097,6.2445],[1.0797,6.1679],[1.1762,6.1515],[1.188,6.1356],[1.1854,6.1005],[1.0988,6.047],[1.048,5.9927],[1.0117,5.9263],[0.9953,5.8393],[0.9548,5.7911],[0.9144,5.7771],[0.6736,5.7591]]]}},{"type":"Feature","id":"Western","properties":{"id":"Western","iso_code":"GH-WP","name":"Western","name_full":"Western","name_ja":"ウェスタン州","center_lonlat":[-2.4237,5.7483]},"geometry":{"type":"Polygon","coordinates":[[[-3.0973,7.0541],[-3.0792,6.9779],[-3.053,6.9441],[-3.0227,6.9373],[-2.9578,6.9537],[-2.8865,6.9053],[-2.8406,6.7998],[-2.8324,6.7506],[-2.8438,6.7147],[-2.8274,6.65],[-2.7384,6.6005],[-2.6458,6.591],[-2.6172,6.5379],[-2.5655,6.5129],[-2.5165,6.4146],[-2.4258,6.3867],[-2.421,6.3568],[-2.3934,6.3579],[-2.3677,6.3772],[-2.3297,6.5076],[-2.2665,6.4838],[-2.2217,6.4911],[-2.2115,6.4666],[-2.2306,6.4102],[-2.2279,6.3821],[-2.1408,6.3586],[-2.1073,6.3004],[-2.0702,6.2977],[-2.0987,6.2578],[-2.1678,6.217],[-2.1705,6.1743],[-2.1586,6.1474],[-2.0667,6.0999],[-2.039,6.0518],[-1.9766,6.0199],[-1.9063,5.9286],[-1.8363,5.8884],[-1.8154,5.8504],[-1.8204,5.8004],[-1.7918,5.7726],[-1.8092,5.7433],[-1.8222,5.6689],[-1.8153,5.6205],[-1.7322,5.6316],[-1.701,5.6135],[-1.6482,5.6064],[-1.6073,5.5806],[-1.5835,5.5432],[-1.6146,5.5025],[-1.6072,5.4498],[-1.5485,5.4015],[-1.5142,5.3382],[-1.4211,5.2574],[-1.4746,5.2039],[-1.5229,5.1947],[-1.5458,5.1772],[-1.577,5.095],[-1.5688,5.0193],[-1.6185,5.0224],[-1.6308,5.0126],[-1.634,4.9744],[-1.7188,4.9277],[-1.7477,4.8959],[-1.7486,4.8772],[-1.9121,4.8209],[-1.9673,4.7581],[-2.0906,4.7371],[-2.1039,4.7451],[-2.108,4.7756],[-2.1554,4.7861],[-2.237,4.8492],[-2.2528,4.8791],[-2.3566,4.9196],[-2.5258,4.9544],[-2.6904,5.0102],[-2.965,5.0453],[-3.1196,5.0913],[-3.1153,5.1078],[-3.099,5.1132],[-3.0161,5.1144],[-2.9578,5.0827],[-2.9263,5.0945],[-2.929,5.122],[-2.9012,5.1336],[-2.7666,5.161],[-2.757,5.1799],[-2.7788,5.201],[-2.7749,5.2396],[-2.7961,5.285],[-2.7896,5.3469],[-2.7426,5.3431],[-2.7301,5.3732],[-2.7617,5.4549],[-2.7934,5.6081],[-2.8775,5.6368],[-2.9459,5.6083],[-2.9695,5.6214],[-2.9749,5.6473],[-2.9648,5.7098],[-3.0298,5.7043],[-3.0225,5.8545],[-3.0878,5.9967],[-3.1181,6.1635],[-3.1394,6.2193],[-3.1836,6.2639],[-3.2625,6.6171],[-3.2539,6.6444],[-3.2301,6.6611],[-3.2104,6.716],[-3.2431,6.7748],[-3.2417,6.8109],[-3.0973,7.0541]]]}}]}
