{"type":"FeatureCollection","features":[{"type":"Feature","id":"Carriacou and Petite Martinique","properties":{"id":"Carriacou and Petite Martinique","iso_code":"GD-10","name":"Carriacou and Petite Martinique","name_full":"Carriacou and Petite Martinique","name_ja":"カリアク島","center_lonlat":[-61.4545,12.4765]},"geometry":{"type":"Polygon","coordinates":[[[-61.428,12.4547],[-61.4457,12.4598],[-61.4962,12.4404],[-61.4827,12.4683],[-61.4962,12.4683],[-61.4889,12.482],[-61.4673,12.4756],[-61.428,12.5297],[-61.428,12.4547]]]}},{"type":"Feature","id":"Saint Andrew","properties":{"id":"Saint Andrew","iso_code":"GD-01","name":"Saint Andrew","name_full":"Saint Andrew","name_ja":"セント・アンドリューズ","center_lonlat":[-61.6426,12.1275]},"geometry":{"type":"Polygon","coordinates":[[[-61.6032,12.1767],[-61.6198,12.1046],[-61.6138,12.0804],[-61.6245,12.069],[-61.6584,12.0895],[-61.6765,12.0846],[-61.6864,12.1109],[-61.6625,12.1586],[-61.6559,12.1792],[-61.6032,12.1767]]]}},{"type":"Feature","id":"Saint David","properties":{"id":"Saint David","iso_code":"GD-02","name":"Saint David","name_full":"Saint David","name_ja":"セント・デイヴィッド郡","center_lonlat":[-61.6629,12.0591]},"geometry":{"type":"Polygon","coordinates":[[[-61.6245,12.069],[-61.6316,12.0441],[-61.683,12.0254],[-61.6963,12.0583],[-61.6897,12.0805],[-61.6765,12.0846],[-61.6584,12.0895],[-61.6245,12.069]]]}},{"type":"Feature","id":"Saint George","properties":{"id":"Saint George","iso_code":"GD-03","name":"Saint George","name_full":"Saint George","name_ja":"セント・ジョージ郡","center_lonlat":[-61.7226,12.0567]},"geometry":{"type":"Polygon","coordinates":[[[-61.683,12.0254],[-61.6949,12.0028],[-61.7296,12.0158],[-61.7569,12.0034],[-61.7905,12.0084],[-61.7495,12.0363],[-61.751,12.1101],[-61.6864,12.1109],[-61.6765,12.0846],[-61.6897,12.0805],[-61.6963,12.0583],[-61.683,12.0254]]]}},{"type":"Feature","id":"Saint John","properties":{"id":"Saint John","iso_code":"GD-04","name":"Saint John","name_full":"Saint John","name_ja":"セント・ジョン郡","center_lonlat":[-61.7058,12.1414]},"geometry":{"type":"Polygon","coordinates":[[[-61.751,12.1101],[-61.7151,12.1839],[-61.6625,12.1586],[-61.6864,12.1109],[-61.751,12.1101]]]}},{"type":"Feature","id":"Saint Mark","properties":{"id":"Saint Mark","iso_code":"GD-05","name":"Saint Mark","name_full":"Saint Mark","name_ja":"セント・マーク","center_lonlat":[-61.6822,12.1883]},"geometry":{"type":"Polygon","coordinates":[[[-61.7151,12.1839],[-61.6821,12.2233],[-61.6559,12.1792],[-61.6625,12.1586],[-61.7151,12.1839]]]}},{"type":"Feature","id":"Saint Patrick","properties":{"id":"Saint Patrick","iso_code":"GD-06","name":"Saint Patrick","name_full":"Saint Patrick","name_ja":"セント・パトリック郡","center_lonlat":[-61.6389,12.2079]},"geometry":{"type":"Polygon","coordinates":[[[-61.6821,12.2233],[-61.6715,12.2361],[-61.6277,12.2367],[-61.606,12.2234],[-61.6032,12.1767],[-61.6559,12.1792],[-61.6821,12.2233]]]}}]}
