{"type":"FeatureCollection","features":[{"type":"Feature","id":"Guam","properties":{"id":"Guam","iso_code":"GU-X01~","name":"Guam","name_full":"Guam","name_ja":"グアム","center_lonlat":[144.7702,13.4436]},"geometry":{"type":"Polygon","coordinates":[[[144.8864,13.6402],[144.8967,13.618],[144.9519,13.5986],[144.9522,13.5869],[144.907,13.5167],[144.7835,13.4205],[144.7601,13.2856],[144.7356,13.2492],[144.6807,13.2468],[144.6536,13.287],[144.6443,13.3316],[144.6263,13.3454],[144.6475,13.3962],[144.6242,13.4312],[144.7835,13.5167],[144.8112,13.5536],[144.8386,13.6328],[144.8667,13.653],[144.8806,13.6541],[144.8864,13.6402]]]}}]}
