{"type":"FeatureCollection","features":[{"type":"Feature","id":"Alta Verapaz","properties":{"id":"Alta Verapaz","iso_code":"GT-AV","name":"Alta Verapaz","name_full":"Alta Verapaz","name_ja":"アルタ・ベラパス県","center_lonlat":[-90.1441,15.6377]},"geometry":{"type":"Polygon","coordinates":[[[-90.4482,16.0793],[-90.4478,16.0797],[-90.2168,16.0521],[-90.0467,15.9995],[-90.0192,16.0101],[-89.9858,15.9953],[-89.9708,16.0138],[-89.9405,15.9726],[-89.8873,15.9627],[-89.852,15.9115],[-89.7922,15.9118],[-89.7485,15.9319],[-89.6693,15.8877],[-89.634,15.8997],[-89.5206,15.8993],[-89.5124,15.8421],[-89.3963,15.8613],[-89.4238,15.8258],[-89.4593,15.8123],[-89.4814,15.7743],[-89.5306,15.748],[-89.6614,15.5609],[-89.5881,15.4812],[-89.6078,15.4412],[-89.6383,15.4229],[-89.6473,15.3057],[-89.6265,15.2507],[-89.6298,15.2193],[-89.6055,15.1799],[-89.7703,15.157],[-89.8401,15.1732],[-89.878,15.1599],[-89.973,15.1565],[-89.9181,15.2471],[-89.9217,15.2666],[-89.9521,15.2885],[-90.078,15.2688],[-90.2488,15.2957],[-90.2686,15.2451],[-90.3103,15.2071],[-90.4005,15.261],[-90.5038,15.2622],[-90.4776,15.331],[-90.6508,15.3631],[-90.7027,15.3944],[-90.7056,15.4423],[-90.6401,15.4589],[-90.6481,15.4763],[-90.597,15.526],[-90.6406,15.5924],[-90.6327,15.6229],[-90.6617,15.6476],[-90.6543,15.6544],[-90.7806,15.6789],[-90.7882,15.6884],[-90.771,15.709],[-90.7915,15.7295],[-90.7772,15.737],[-90.7933,15.7508],[-90.8181,15.7506],[-90.7672,15.8394],[-90.743,15.8486],[-90.7326,15.8681],[-90.7386,15.8853],[-90.7635,15.8878],[-90.7362,15.9424],[-90.7635,15.9697],[-90.7232,15.9902],[-90.7058,15.9803],[-90.6953,16.0039],[-90.7027,16.0175],[-90.6343,16.0452],[-90.6201,16.0312],[-90.5928,16.0386],[-90.6071,16.0175],[-90.5581,15.9977],[-90.5444,16.0107],[-90.4693,16.0107],[-90.436,16.034],[-90.4315,16.0655],[-90.4482,16.0793]]]}},{"type":"Feature","id":"Baja Verapaz","properties":{"id":"Baja Verapaz","iso_code":"GT-BV","name":"Baja Verapaz","name_full":"Baja Verapaz","name_ja":"バハ・ベラパス県","center_lonlat":[-90.4181,15.1055]},"geometry":{"type":"Polygon","coordinates":[[[-90.3999,14.899],[-90.4121,14.917],[-90.4563,14.8941],[-90.4972,14.9078],[-90.5942,14.8835],[-90.6576,14.9039],[-90.6735,14.939],[-90.7122,14.9738],[-90.7073,15.0002],[-90.7972,15.0549],[-90.8719,15.1485],[-90.8657,15.2568],[-90.6916,15.2149],[-90.5744,15.21],[-90.5413,15.2125],[-90.5038,15.2622],[-90.4005,15.261],[-90.3103,15.2071],[-90.2686,15.2451],[-90.2488,15.2957],[-90.078,15.2688],[-89.9521,15.2885],[-89.9217,15.2666],[-89.9181,15.2471],[-89.973,15.1565],[-90.2826,14.9545],[-90.3034,14.8896],[-90.3543,14.8815],[-90.3999,14.899]]]}},{"type":"Feature","id":"Chimaltenango","properties":{"id":"Chimaltenango","iso_code":"GT-CM","name":"Chimaltenango","name_full":"Chimaltenango","name_ja":"チマルテナンゴ県","center_lonlat":[-90.9334,14.7025]},"geometry":{"type":"Polygon","coordinates":[[[-90.7652,14.7779],[-90.7838,14.7377],[-90.7719,14.6709],[-90.7941,14.6307],[-90.8644,14.5642],[-90.8905,14.4893],[-90.9381,14.4494],[-90.9785,14.3828],[-90.9907,14.4216],[-91.016,14.4087],[-91.0469,14.4284],[-91.0857,14.4153],[-91.1113,14.4304],[-91.0954,14.5032],[-91.1141,14.5304],[-91.1057,14.6324],[-91.0741,14.7004],[-91.0688,14.7448],[-91.0874,14.8263],[-91.0535,14.8449],[-91.0246,14.9166],[-90.9772,14.9386],[-90.8529,14.9419],[-90.6576,14.9039],[-90.6685,14.875],[-90.7318,14.8449],[-90.7652,14.7779]]]}},{"type":"Feature","id":"Chiquimula","properties":{"id":"Chiquimula","iso_code":"GT-CQ","name":"Chiquimula","name_full":"Chiquimula","name_ja":"チキムラ県","center_lonlat":[-89.427,14.6971]},"geometry":{"type":"Polygon","coordinates":[[[-89.4961,14.4229],[-89.5117,14.4455],[-89.4963,14.5019],[-89.5131,14.5237],[-89.5982,14.5241],[-89.6326,14.569],[-89.6855,14.5776],[-89.6996,14.5776],[-89.6602,14.6957],[-89.667,14.7599],[-89.676,14.7786],[-89.7364,14.7799],[-89.7127,14.8214],[-89.7104,14.8673],[-89.6704,14.9011],[-89.5926,14.8675],[-89.5243,14.8632],[-89.4293,14.9192],[-89.3854,14.9035],[-89.3198,14.9197],[-89.2862,14.9058],[-89.2126,14.9493],[-89.1892,14.9131],[-89.2236,14.879],[-89.2324,14.8485],[-89.1445,14.7083],[-89.1594,14.666],[-89.1604,14.5813],[-89.1721,14.5704],[-89.2457,14.573],[-89.323,14.4875],[-89.3555,14.4754],[-89.3616,14.4155],[-89.3906,14.436],[-89.3969,14.426],[-89.3982,14.4454],[-89.4311,14.4187],[-89.4961,14.4229]]]}},{"type":"Feature","id":"El Progreso","properties":{"id":"El Progreso","iso_code":"GT-PR","name":"El Progreso","name_full":"El Progreso","name_ja":"エル・プログレソ県","center_lonlat":[-90.0701,14.9183]},"geometry":{"type":"Polygon","coordinates":[[[-90.3999,14.899],[-90.3543,14.8815],[-90.3034,14.8896],[-90.2826,14.9545],[-89.973,15.1565],[-89.878,15.1599],[-89.7966,15.0433],[-89.7956,15.0298],[-89.8518,15.0228],[-89.7971,14.9482],[-89.7646,14.934],[-89.7687,14.9095],[-89.8116,14.9011],[-89.834,14.8765],[-89.874,14.8738],[-89.9224,14.8193],[-89.9516,14.804],[-90.0386,14.7826],[-90.0735,14.7224],[-90.1135,14.7303],[-90.1472,14.7193],[-90.2091,14.6743],[-90.3085,14.7223],[-90.3388,14.751],[-90.3446,14.7658],[-90.3311,14.7941],[-90.344,14.8436],[-90.3574,14.8573],[-90.4133,14.8559],[-90.4176,14.8709],[-90.3999,14.899]]]}},{"type":"Feature","id":"Escuintla","properties":{"id":"Escuintla","iso_code":"GT-ES","name":"Escuintla","name_full":"Escuintla","name_ja":"エスクィントラ県","center_lonlat":[-90.9914,14.1671]},"geometry":{"type":"Polygon","coordinates":[[[-90.6273,13.9207],[-90.7073,13.9289],[-90.9103,13.9111],[-91.1658,13.9267],[-91.3165,13.9557],[-91.5519,14.0573],[-91.5285,14.0483],[-91.5298,14.0822],[-91.4569,14.1899],[-91.4599,14.297],[-91.448,14.3065],[-91.4327,14.2865],[-91.4154,14.2936],[-91.4236,14.3304],[-91.4142,14.3554],[-91.3729,14.3807],[-91.3564,14.3612],[-91.3652,14.3392],[-91.3466,14.2943],[-91.3263,14.2919],[-91.3,14.3164],[-91.2891,14.3059],[-91.2941,14.282],[-91.1711,14.272],[-91.1515,14.2994],[-91.1462,14.3569],[-91.1113,14.4304],[-91.0857,14.4153],[-91.0469,14.4284],[-91.016,14.4087],[-90.9907,14.4216],[-90.9785,14.3828],[-90.9381,14.4494],[-90.8905,14.4893],[-90.8202,14.4049],[-90.7736,14.4533],[-90.7378,14.4702],[-90.7147,14.444],[-90.6505,14.4687],[-90.6377,14.4315],[-90.5964,14.4151],[-90.5863,14.3173],[-90.5649,14.2562],[-90.5872,14.2124],[-90.532,14.2138],[-90.5157,14.2025],[-90.5443,14.1722],[-90.5785,14.1613],[-90.5562,14.1182],[-90.593,14.0726],[-90.6271,14.0559],[-90.6273,13.9207]]]}},{"type":"Feature","id":"Guatemala","properties":{"id":"Guatemala","iso_code":"GT-GU","name":"Guatemala","name_full":"Guatemala","name_ja":"グアテマラ県","center_lonlat":[-90.493,14.6381]},"geometry":{"type":"Polygon","coordinates":[[[-90.7652,14.7779],[-90.7318,14.8449],[-90.6685,14.875],[-90.6576,14.9039],[-90.5942,14.8835],[-90.4972,14.9078],[-90.4563,14.8941],[-90.4121,14.917],[-90.3999,14.899],[-90.4176,14.8709],[-90.4133,14.8559],[-90.3574,14.8573],[-90.344,14.8436],[-90.3311,14.7941],[-90.3446,14.7658],[-90.3388,14.751],[-90.3085,14.7223],[-90.2091,14.6743],[-90.2228,14.6448],[-90.2658,14.6115],[-90.2852,14.5143],[-90.3498,14.4781],[-90.3596,14.5025],[-90.3883,14.4965],[-90.4478,14.3879],[-90.4438,14.3286],[-90.5649,14.2562],[-90.5863,14.3173],[-90.5964,14.4151],[-90.6377,14.4315],[-90.6505,14.4687],[-90.6182,14.6453],[-90.6916,14.7488],[-90.7288,14.7498],[-90.7652,14.7779]]]}},{"type":"Feature","id":"Huehuetenango","properties":{"id":"Huehuetenango","iso_code":"GT-HU","name":"Huehuetenango","name_full":"Huehuetenango","name_ja":"ウェウェテナンゴ県","center_lonlat":[-91.5598,15.6597]},"geometry":{"type":"Polygon","coordinates":[[[-92.1059,15.4545],[-91.7398,16.061],[-90.9948,16.0699],[-91.21,15.6564],[-91.3057,15.6069],[-91.3299,15.5025],[-91.3005,15.4627],[-91.2944,15.4317],[-91.2636,15.3993],[-91.2247,15.4018],[-91.1844,15.3868],[-91.1908,15.3329],[-91.1791,15.2922],[-91.2368,15.2919],[-91.3029,15.2769],[-91.3154,15.2632],[-91.3528,15.2628],[-91.4508,15.2264],[-91.4735,15.1927],[-91.477,15.1618],[-91.5188,15.156],[-91.5489,15.204],[-91.6161,15.2209],[-91.6794,15.2859],[-91.7157,15.3501],[-91.7856,15.335],[-91.8562,15.3607],[-91.9103,15.3298],[-91.9429,15.3274],[-91.993,15.2779],[-92.0441,15.2802],[-92.0552,15.2885],[-92.0676,15.4071],[-92.0998,15.4336],[-92.1059,15.4545]]]}},{"type":"Feature","id":"Izabal","properties":{"id":"Izabal","iso_code":"GT-IZ","name":"Izabal","name_full":"Izabal","name_ja":"イサバル県","center_lonlat":[-89.0376,15.5527]},"geometry":{"type":"Polygon","coordinates":[[[-89.1469,15.0713],[-89.1812,15.1026],[-89.1982,15.1997],[-89.1746,15.2261],[-89.1708,15.2663],[-89.2099,15.2976],[-89.2737,15.298],[-89.4313,15.2264],[-89.6055,15.1799],[-89.6298,15.2193],[-89.6265,15.2507],[-89.6473,15.3057],[-89.6383,15.4229],[-89.6078,15.4412],[-89.5881,15.4812],[-89.6614,15.5609],[-89.5306,15.748],[-89.4814,15.7743],[-89.4593,15.8123],[-89.4238,15.8258],[-89.3963,15.8613],[-89.358,15.9129],[-89.236,15.9065],[-89.2282,15.8808],[-89.1774,15.9003],[-89.0403,15.9017],[-88.9519,15.8797],[-88.914,15.8939],[-88.8662,15.8603],[-88.8316,15.8686],[-88.7873,15.8591],[-88.7533,15.8398],[-88.7495,15.8188],[-88.626,15.7539],[-88.6362,15.7021],[-88.6092,15.7021],[-88.5952,15.7147],[-88.6055,15.7431],[-88.5822,15.745],[-88.5503,15.7983],[-88.5577,15.8529],[-88.5503,15.8393],[-88.4888,15.8467],[-88.6076,15.9384],[-88.6199,15.9533],[-88.6055,15.9696],[-88.5503,15.9423],[-88.4479,15.8587],[-88.3448,15.812],[-88.2563,15.7404],[-88.2209,15.7257],[-88.2326,15.7214],[-88.2416,15.6882],[-88.2478,15.6957],[-88.3167,15.6746],[-88.3526,15.6169],[-88.399,15.5728],[-88.9734,15.1404],[-89.1469,15.0713]]]}},{"type":"Feature","id":"Jalapa","properties":{"id":"Jalapa","iso_code":"GT-JA","name":"Jalapa","name_full":"Jalapa","name_ja":"ハラパ県","center_lonlat":[-89.948,14.6326]},"geometry":{"type":"Polygon","coordinates":[[[-90.2852,14.5143],[-90.2658,14.6115],[-90.2228,14.6448],[-90.2091,14.6743],[-90.1472,14.7193],[-90.1135,14.7303],[-90.0735,14.7224],[-90.0386,14.7826],[-89.9516,14.804],[-89.9224,14.8193],[-89.874,14.8738],[-89.834,14.8765],[-89.8417,14.8598],[-89.7937,14.7857],[-89.7364,14.7799],[-89.676,14.7786],[-89.667,14.7599],[-89.6602,14.6957],[-89.6996,14.5776],[-89.6855,14.5776],[-89.6784,14.5422],[-89.7623,14.5005],[-89.7891,14.5234],[-89.8157,14.5195],[-89.8716,14.4829],[-89.8853,14.4365],[-89.9426,14.4738],[-89.9607,14.4693],[-89.9886,14.4343],[-90.0519,14.4335],[-90.114,14.4818],[-90.128,14.5191],[-90.2646,14.4948],[-90.2852,14.5143]]]}},{"type":"Feature","id":"Jutiapa","properties":{"id":"Jutiapa","iso_code":"GT-JU","name":"Jutiapa","name_full":"Jutiapa","name_ja":"フティアパ県","center_lonlat":[-89.8893,14.2218]},"geometry":{"type":"Polygon","coordinates":[[[-90.2406,13.7887],[-90.2308,13.85],[-90.2714,13.9334],[-90.2917,14.0097],[-90.266,14.0227],[-90.2185,13.991],[-90.1567,13.9768],[-90.1192,14.027],[-90.0827,14.0394],[-90.0597,14.0696],[-90.0503,14.0982],[-90.0583,14.1697],[-90.1245,14.2277],[-90.1911,14.2529],[-90.1555,14.3389],[-90.14,14.3518],[-90.082,14.3548],[-90.084,14.3769],[-90.0699,14.3785],[-90.0519,14.4335],[-89.9886,14.4343],[-89.9607,14.4693],[-89.9426,14.4738],[-89.8853,14.4365],[-89.8716,14.4829],[-89.8157,14.5195],[-89.7891,14.5234],[-89.7623,14.5005],[-89.6784,14.5422],[-89.6855,14.5776],[-89.6326,14.569],[-89.5982,14.5241],[-89.5131,14.5237],[-89.4963,14.5019],[-89.5117,14.4455],[-89.4961,14.4229],[-89.5414,14.3815],[-89.5552,14.4108],[-89.5699,14.412],[-89.5906,14.386],[-89.5761,14.3531],[-89.5984,14.328],[-89.5922,14.3138],[-89.5586,14.3028],[-89.5245,14.2318],[-89.6383,14.2006],[-89.6898,14.17],[-89.7526,14.0752],[-89.7476,14.0376],[-89.7623,14.03],[-89.803,14.0555],[-89.8359,14.0591],[-89.8908,14.0359],[-90.023,13.937],[-90.0474,13.8943],[-90.107,13.8441],[-90.1143,13.7963],[-90.0983,13.7314],[-90.2406,13.7887]]]}},{"type":"Feature","id":"Peten","properties":{"id":"Peten","iso_code":"GT-PE","name":"Peten","name_full":"Petén","name_ja":"ペテン県","center_lonlat":[-90.0153,16.9709]},"geometry":{"type":"Polygon","coordinates":[[[-89.236,15.9065],[-89.358,15.9129],[-89.3963,15.8613],[-89.5124,15.8421],[-89.5206,15.8993],[-89.634,15.8997],[-89.6693,15.8877],[-89.7485,15.9319],[-89.7922,15.9118],[-89.852,15.9115],[-89.8873,15.9627],[-89.9405,15.9726],[-89.9708,16.0138],[-89.9858,15.9953],[-90.0192,16.0101],[-90.0467,15.9995],[-90.2168,16.0521],[-90.4478,16.0797],[-90.4345,16.1072],[-90.4556,16.0997],[-90.4595,16.1168],[-90.4353,16.1363],[-90.4481,16.1544],[-90.4261,16.1631],[-90.4618,16.1891],[-90.4585,16.2218],[-90.4345,16.2363],[-90.4594,16.2591],[-90.4481,16.2711],[-90.4277,16.2636],[-90.4413,16.2854],[-90.4345,16.2916],[-90.4141,16.2878],[-90.414,16.2984],[-90.4449,16.3084],[-90.4047,16.3315],[-90.3988,16.3476],[-90.4072,16.3605],[-90.4208,16.353],[-90.4182,16.3672],[-90.3799,16.3673],[-90.3949,16.4192],[-90.4758,16.4307],[-90.4978,16.468],[-90.5329,16.4599],[-90.5437,16.4902],[-90.6331,16.4833],[-90.6121,16.5076],[-90.6126,16.5181],[-90.6482,16.5296],[-90.6338,16.5922],[-90.6474,16.6001],[-90.6672,16.587],[-90.654,16.6166],[-90.6677,16.6526],[-90.7353,16.7466],[-90.8004,16.7868],[-90.797,16.8054],[-90.8106,16.8129],[-90.8317,16.8054],[-90.9191,16.8363],[-90.9689,16.8744],[-90.9552,16.8988],[-90.9862,16.9011],[-90.9833,16.8786],[-90.9931,16.8744],[-91.0549,16.908],[-91.1266,17.0246],[-91.1712,17.028],[-91.2068,17.0654],[-91.2296,17.114],[-91.2592,17.1243],[-91.2795,17.1801],[-91.3649,17.1898],[-91.3729,17.2136],[-91.4425,17.238],[-91.4383,17.2537],[-90.992,17.2519],[-90.9909,17.802],[-90.9622,17.816],[-89.1605,17.8143],[-89.1492,17.0363],[-89.236,15.9065]]]}},{"type":"Feature","id":"Quetzaltenango","properties":{"id":"Quetzaltenango","iso_code":"GT-QZ","name":"Quetzaltenango","name_full":"Quetzaltenango","name_ja":"ケツァルテナンゴ県","center_lonlat":[-91.7269,14.8048]},"geometry":{"type":"Polygon","coordinates":[[[-91.4283,14.8176],[-91.4697,14.7396],[-91.5105,14.713],[-91.5384,14.7204],[-91.5757,14.7009],[-91.6046,14.7067],[-91.63,14.6765],[-91.6483,14.6803],[-91.6739,14.6624],[-91.6997,14.6716],[-91.6811,14.7344],[-91.6943,14.7395],[-91.761,14.6965],[-91.8148,14.5799],[-91.8558,14.5235],[-91.9267,14.5117],[-92.0009,14.5391],[-92.0166,14.5309],[-92.0495,14.6164],[-92.138,14.636],[-92.0608,14.7075],[-91.9515,14.7361],[-91.8607,14.728],[-91.8321,14.7385],[-91.7558,14.8607],[-91.7365,14.9338],[-91.6834,14.9802],[-91.6733,15.0332],[-91.7084,15.0925],[-91.6799,15.1494],[-91.6207,15.2019],[-91.6161,15.2209],[-91.5489,15.204],[-91.5188,15.156],[-91.5919,15.1285],[-91.5888,15.0914],[-91.5602,14.9859],[-91.536,14.9616],[-91.5365,14.9316],[-91.5178,14.9093],[-91.4705,14.9101],[-91.4589,14.8607],[-91.4283,14.8176]]]}},{"type":"Feature","id":"Quiche","properties":{"id":"Quiche","iso_code":"GT-QC","name":"Quiche","name_full":"Quiché","name_ja":"キチェ県","center_lonlat":[-90.947,15.4587]},"geometry":{"type":"Polygon","coordinates":[[[-90.9948,16.0699],[-90.4482,16.0793],[-90.4315,16.0655],[-90.436,16.034],[-90.4693,16.0107],[-90.5444,16.0107],[-90.5581,15.9977],[-90.6071,16.0175],[-90.5928,16.0386],[-90.6201,16.0312],[-90.6343,16.0452],[-90.7027,16.0175],[-90.6953,16.0039],[-90.7058,15.9803],[-90.7232,15.9902],[-90.7635,15.9697],[-90.7362,15.9424],[-90.7635,15.8878],[-90.7386,15.8853],[-90.7326,15.8681],[-90.743,15.8486],[-90.7672,15.8394],[-90.8181,15.7506],[-90.7933,15.7508],[-90.7772,15.737],[-90.7915,15.7295],[-90.771,15.709],[-90.7882,15.6884],[-90.7806,15.6789],[-90.6543,15.6544],[-90.6617,15.6476],[-90.6327,15.6229],[-90.6406,15.5924],[-90.597,15.526],[-90.6481,15.4763],[-90.6401,15.4589],[-90.7056,15.4423],[-90.7027,15.3944],[-90.6508,15.3631],[-90.4776,15.331],[-90.5038,15.2622],[-90.5413,15.2125],[-90.5744,15.21],[-90.6916,15.2149],[-90.8657,15.2568],[-90.8719,15.1485],[-90.7972,15.0549],[-90.7073,15.0002],[-90.7122,14.9738],[-90.6735,14.939],[-90.6576,14.9039],[-90.8529,14.9419],[-90.9772,14.9386],[-91.0246,14.9166],[-91.0535,14.8449],[-91.0874,14.8263],[-91.1039,14.832],[-91.1271,14.8074],[-91.1333,14.831],[-91.1167,14.8573],[-91.1563,14.8753],[-91.183,14.9107],[-91.2147,14.9349],[-91.2102,14.9696],[-91.2744,15.0413],[-91.2719,15.0617],[-91.2378,15.078],[-91.2346,15.0972],[-91.2638,15.1576],[-91.3152,15.2016],[-91.3154,15.2632],[-91.3029,15.2769],[-91.2368,15.2919],[-91.1791,15.2922],[-91.1908,15.3329],[-91.1844,15.3868],[-91.2247,15.4018],[-91.2636,15.3993],[-91.2944,15.4317],[-91.3005,15.4627],[-91.3299,15.5025],[-91.3057,15.6069],[-91.21,15.6564],[-90.9948,16.0699]]]}},{"type":"Feature","id":"Retalhuleu","properties":{"id":"Retalhuleu","iso_code":"GT-RE","name":"Retalhuleu","name_full":"Retalhuleu","name_ja":"レタルレウ県","center_lonlat":[-91.7819,14.4371]},"geometry":{"type":"Polygon","coordinates":[[[-91.6585,14.1173],[-91.9082,14.2838],[-92.0496,14.408],[-92.1624,14.4873],[-92.1075,14.5082],[-92.074,14.5036],[-92.0166,14.5309],[-92.0009,14.5391],[-91.9267,14.5117],[-91.8558,14.5235],[-91.8148,14.5799],[-91.761,14.6965],[-91.6943,14.7395],[-91.6811,14.7344],[-91.6997,14.6716],[-91.6739,14.6624],[-91.6483,14.6803],[-91.63,14.6765],[-91.6046,14.7067],[-91.5757,14.7009],[-91.5384,14.7204],[-91.5105,14.713],[-91.5659,14.6583],[-91.5689,14.6156],[-91.6084,14.5371],[-91.6162,14.4661],[-91.5993,14.428],[-91.6031,14.3357],[-91.6278,14.2778],[-91.6356,14.2088],[-91.6652,14.1654],[-91.6585,14.1173]]]}},{"type":"Feature","id":"Sacatepequez","properties":{"id":"Sacatepequez","iso_code":"GT-SA","name":"Sacatepequez","name_full":"Sacatepéquez","name_ja":"サカテペケス県","center_lonlat":[-90.7427,14.5776]},"geometry":{"type":"Polygon","coordinates":[[[-90.8905,14.4893],[-90.8644,14.5642],[-90.7941,14.6307],[-90.7719,14.6709],[-90.7838,14.7377],[-90.7652,14.7779],[-90.7288,14.7498],[-90.6916,14.7488],[-90.6182,14.6453],[-90.6505,14.4687],[-90.7147,14.444],[-90.7378,14.4702],[-90.7736,14.4533],[-90.8202,14.4049],[-90.8905,14.4893]]]}},{"type":"Feature","id":"San Marcos","properties":{"id":"San Marcos","iso_code":"GT-SM","name":"San Marcos","name_full":"San Marcos","name_ja":"サン・マルコス県","center_lonlat":[-91.9532,15.0131]},"geometry":{"type":"Polygon","coordinates":[[[-92.1059,15.4545],[-92.0998,15.4336],[-92.0676,15.4071],[-92.0552,15.2885],[-92.0441,15.2802],[-91.993,15.2779],[-91.9429,15.3274],[-91.9103,15.3298],[-91.8562,15.3607],[-91.7856,15.335],[-91.7157,15.3501],[-91.6794,15.2859],[-91.6161,15.2209],[-91.6207,15.2019],[-91.6799,15.1494],[-91.7084,15.0925],[-91.6733,15.0332],[-91.6834,14.9802],[-91.7365,14.9338],[-91.7558,14.8607],[-91.8321,14.7385],[-91.8607,14.728],[-91.9515,14.7361],[-92.0608,14.7075],[-92.138,14.636],[-92.0495,14.6164],[-92.0166,14.5309],[-92.074,14.5036],[-92.1075,14.5082],[-92.1624,14.4873],[-92.2463,14.5463],[-92.2261,14.5493],[-92.2081,14.5705],[-92.1608,14.6835],[-92.1917,14.8353],[-92.1547,14.9008],[-92.1542,14.9959],[-92.1038,15.0179],[-92.0738,15.0737],[-92.2034,15.2372],[-92.2113,15.2721],[-92.1059,15.4545]]]}},{"type":"Feature","id":"Santa Rosa","properties":{"id":"Santa Rosa","iso_code":"GT-SR","name":"Santa Rosa","name_full":"Santa Rosa","name_ja":"サンタ・ローサ県","center_lonlat":[-90.3303,14.1657]},"geometry":{"type":"Polygon","coordinates":[[[-90.2406,13.7887],[-90.5002,13.8947],[-90.6273,13.9207],[-90.6271,14.0559],[-90.593,14.0726],[-90.5562,14.1182],[-90.5785,14.1613],[-90.5443,14.1722],[-90.5157,14.2025],[-90.532,14.2138],[-90.5872,14.2124],[-90.5649,14.2562],[-90.4438,14.3286],[-90.4478,14.3879],[-90.3883,14.4965],[-90.3596,14.5025],[-90.3498,14.4781],[-90.2852,14.5143],[-90.2646,14.4948],[-90.128,14.5191],[-90.114,14.4818],[-90.0519,14.4335],[-90.0699,14.3785],[-90.084,14.3769],[-90.082,14.3548],[-90.14,14.3518],[-90.1555,14.3389],[-90.1911,14.2529],[-90.1245,14.2277],[-90.0583,14.1697],[-90.0503,14.0982],[-90.0597,14.0696],[-90.0827,14.0394],[-90.1192,14.027],[-90.1567,13.9768],[-90.2185,13.991],[-90.266,14.0227],[-90.2917,14.0097],[-90.2714,13.9334],[-90.2308,13.85],[-90.2406,13.7887]]]}},{"type":"Feature","id":"Solola","properties":{"id":"Solola","iso_code":"GT-SO","name":"Solola","name_full":"Sololá","name_ja":"ソロラ県","center_lonlat":[-91.256,14.7263]},"geometry":{"type":"Polygon","coordinates":[[[-91.0874,14.8263],[-91.0688,14.7448],[-91.0741,14.7004],[-91.1057,14.6324],[-91.1141,14.5304],[-91.1819,14.5721],[-91.2514,14.5539],[-91.2586,14.5993],[-91.3026,14.6405],[-91.343,14.6376],[-91.3701,14.6581],[-91.3951,14.649],[-91.403,14.6065],[-91.4619,14.6162],[-91.4766,14.6299],[-91.4481,14.688],[-91.4697,14.7396],[-91.4283,14.8176],[-91.37,14.8617],[-91.2296,14.86],[-91.183,14.9107],[-91.1563,14.8753],[-91.1167,14.8573],[-91.1333,14.831],[-91.1271,14.8074],[-91.1039,14.832],[-91.0874,14.8263]]]}},{"type":"Feature","id":"Suchitepequez","properties":{"id":"Suchitepequez","iso_code":"GT-SU","name":"Suchitepequez","name_full":"Suchitepéquez","name_ja":"スチテペケス県","center_lonlat":[-91.4111,14.4148]},"geometry":{"type":"Polygon","coordinates":[[[-91.5519,14.0573],[-91.6585,14.1173],[-91.6652,14.1654],[-91.6356,14.2088],[-91.6278,14.2778],[-91.6031,14.3357],[-91.5993,14.428],[-91.6162,14.4661],[-91.6084,14.5371],[-91.5689,14.6156],[-91.5659,14.6583],[-91.5105,14.713],[-91.4697,14.7396],[-91.4481,14.688],[-91.4766,14.6299],[-91.4619,14.6162],[-91.403,14.6065],[-91.3951,14.649],[-91.3701,14.6581],[-91.343,14.6376],[-91.3026,14.6405],[-91.2586,14.5993],[-91.2514,14.5539],[-91.1819,14.5721],[-91.1141,14.5304],[-91.0954,14.5032],[-91.1113,14.4304],[-91.1462,14.3569],[-91.1515,14.2994],[-91.1711,14.272],[-91.2941,14.282],[-91.2891,14.3059],[-91.3,14.3164],[-91.3263,14.2919],[-91.3466,14.2943],[-91.3652,14.3392],[-91.3564,14.3612],[-91.3729,14.3807],[-91.4142,14.3554],[-91.4236,14.3304],[-91.4154,14.2936],[-91.4327,14.2865],[-91.448,14.3065],[-91.4599,14.297],[-91.4569,14.1899],[-91.5298,14.0822],[-91.5285,14.0483],[-91.5519,14.0573]]]}},{"type":"Feature","id":"Totonicapan","properties":{"id":"Totonicapan","iso_code":"GT-TO","name":"Totonicapan","name_full":"Totonicapán","name_ja":"トトニカパン県","center_lonlat":[-91.3905,15.0357]},"geometry":{"type":"Polygon","coordinates":[[[-91.5188,15.156],[-91.477,15.1618],[-91.4735,15.1927],[-91.4508,15.2264],[-91.3528,15.2628],[-91.3154,15.2632],[-91.3152,15.2016],[-91.2638,15.1576],[-91.2346,15.0972],[-91.2378,15.078],[-91.2719,15.0617],[-91.2744,15.0413],[-91.2102,14.9696],[-91.2147,14.9349],[-91.183,14.9107],[-91.2296,14.86],[-91.37,14.8617],[-91.4283,14.8176],[-91.4589,14.8607],[-91.4705,14.9101],[-91.5178,14.9093],[-91.5365,14.9316],[-91.536,14.9616],[-91.5602,14.9859],[-91.5888,15.0914],[-91.5919,15.1285],[-91.5188,15.156]]]}},{"type":"Feature","id":"Zacapa","properties":{"id":"Zacapa","iso_code":"GT-ZA","name":"Zacapa","name_full":"Zacapa","name_ja":"サカパ県","center_lonlat":[-89.4962,15.0519]},"geometry":{"type":"Polygon","coordinates":[[[-89.1469,15.0713],[-89.1728,15.0422],[-89.1886,14.9961],[-89.1691,14.9784],[-89.1692,14.9521],[-89.1892,14.9131],[-89.2126,14.9493],[-89.2862,14.9058],[-89.3198,14.9197],[-89.3854,14.9035],[-89.4293,14.9192],[-89.5243,14.8632],[-89.5926,14.8675],[-89.6704,14.9011],[-89.7104,14.8673],[-89.7127,14.8214],[-89.7364,14.7799],[-89.7937,14.7857],[-89.8417,14.8598],[-89.834,14.8765],[-89.8116,14.9011],[-89.7687,14.9095],[-89.7646,14.934],[-89.7971,14.9482],[-89.8518,15.0228],[-89.7956,15.0298],[-89.7966,15.0433],[-89.878,15.1599],[-89.8401,15.1732],[-89.7703,15.157],[-89.6055,15.1799],[-89.4313,15.2264],[-89.2737,15.298],[-89.2099,15.2976],[-89.1708,15.2663],[-89.1746,15.2261],[-89.1982,15.1997],[-89.1812,15.1026],[-89.1469,15.0713]]]}}]}
