{"type":"FeatureCollection","features":[{"type":"Feature","id":"Sark","properties":{"id":"Sark","iso_code":"GG-X01~","name":"Sark","name_full":"Sark","name_ja":"サーク","center_lonlat":[-2.5748,49.465]},"geometry":{"type":"MultiPolygon","coordinates":[[[[-2.5802,49.4936],[-2.5182,49.5155],[-2.5017,49.5067],[-2.542,49.4309],[-2.6735,49.4335],[-2.6518,49.4452],[-2.6503,49.4637],[-2.6246,49.4657],[-2.5802,49.4936]]],[[[-2.1745,49.7314],[-2.1879,49.7106],[-2.2262,49.7078],[-2.1745,49.7314]]],[[[-2.3638,49.4468],[-2.3544,49.4278],[-2.3781,49.4127],[-2.3638,49.4468]]]]}}]}
