{"type":"FeatureCollection","features":[{"type":"Feature","id":"Bafata","properties":{"id":"Bafata","iso_code":"GW-BA","name":"Bafata","name_full":"Bafatá","name_ja":"バファタ州","center_lonlat":[-14.7133,12.1576]},"geometry":{"type":"Polygon","coordinates":[[[-14.8722,12.6781],[-14.3431,12.6759],[-14.3728,12.6176],[-14.3882,12.6166],[-14.4083,12.6366],[-14.4139,12.6277],[-14.4059,12.5577],[-14.3734,12.534],[-14.3838,12.5065],[-14.3987,12.5003],[-14.4248,12.5148],[-14.4562,12.4952],[-14.4679,12.511],[-14.5186,12.5164],[-14.5189,12.5324],[-14.5327,12.5339],[-14.5257,12.4852],[-14.4829,12.4954],[-14.4571,12.4597],[-14.4854,12.4354],[-14.5061,12.4491],[-14.5048,12.4045],[-14.5438,12.4019],[-14.5584,12.3851],[-14.5548,12.362],[-14.4722,12.3139],[-14.4834,12.259],[-14.4661,12.2038],[-14.4336,12.1747],[-14.4507,12.1336],[-14.5192,12.1167],[-14.5287,12.0956],[-14.5214,12.0721],[-14.4899,12.0548],[-14.5036,11.9742],[-14.4684,11.9316],[-14.4825,11.8811],[-14.4812,11.824],[-14.4758,11.7684],[-14.4597,11.7416],[-14.498,11.7107],[-14.5071,11.6416],[-14.6354,11.6204],[-14.6733,11.6352],[-14.7339,11.5976],[-14.7866,11.6302],[-14.8122,11.6896],[-14.8298,11.6986],[-14.8614,11.6954],[-14.834,11.7379],[-14.8776,11.7487],[-14.8947,11.7847],[-14.9144,11.788],[-14.9254,11.7694],[-14.9514,11.7606],[-14.9968,11.8104],[-15.0353,11.8166],[-15.0657,11.8479],[-15.0702,11.8607],[-15.0421,11.8961],[-15.0231,11.9511],[-14.9938,11.9576],[-14.95,11.9687],[-14.9606,12.0031],[-14.9532,12.0306],[-15.0294,12.0749],[-15.0709,12.1735],[-15.0399,12.2116],[-14.9246,12.1945],[-14.9213,12.2818],[-14.9546,12.3231],[-14.9594,12.4275],[-14.8508,12.4757],[-14.8608,12.5018],[-14.9047,12.5404],[-14.8594,12.6348],[-14.8722,12.6781]]]}},{"type":"Feature","id":"Biombo","properties":{"id":"Biombo","iso_code":"GW-BM","name":"Biombo","name_full":"Biombo","name_ja":"ビオンボ州","center_lonlat":[-15.8638,11.8834]},"geometry":{"type":"MultiPolygon","coordinates":[[[[-15.6768,11.8048],[-15.7443,11.7919],[-15.8304,11.7484],[-15.7915,11.8632],[-15.7342,11.8581],[-15.7764,11.8857],[-15.7956,11.8854],[-15.8116,11.8737],[-15.8502,11.7753],[-15.88,11.7744],[-15.8776,11.824],[-15.8943,11.8162],[-15.9055,11.7619],[-15.959,11.7348],[-15.9669,11.7484],[-15.9696,11.7683],[-15.9259,11.893],[-15.8978,11.9096],[-15.8571,11.9811],[-15.782,12.0028],[-15.7676,11.9787],[-15.7205,11.9674],[-15.7063,12.0083],[-15.6658,12.0315],[-15.6241,11.9659],[-15.6715,11.8811],[-15.6768,11.8048]]],[[[-16.1655,11.8712],[-16.0799,11.8732],[-16.037,11.8992],[-15.9949,11.8991],[-15.9856,11.8874],[-16.0414,11.7551],[-16.0836,11.7551],[-16.1212,11.7998],[-16.1548,11.8078],[-16.1655,11.8712]]]]}},{"type":"Feature","id":"Bissau","properties":{"id":"Bissau","iso_code":"GW-BS","name":"Bissau","name_full":"Bissau","name_ja":"ビサウ","center_lonlat":[-15.6215,11.8819]},"geometry":{"type":"Polygon","coordinates":[[[-15.5456,11.8981],[-15.5933,11.8445],[-15.6768,11.8048],[-15.6715,11.8811],[-15.6241,11.9659],[-15.6086,11.9412],[-15.5456,11.8981]]]}},{"type":"Feature","id":"Bolama","properties":{"id":"Bolama","iso_code":"GW-BL","name":"Bolama","name_full":"Bolama","name_ja":"ボラマ州","center_lonlat":[-16.1312,11.1089]},"geometry":{"type":"MultiPolygon","coordinates":[[[[-16.0489,11.1183],[-16.0631,11.1183],[-16.0557,11.0495],[-16.132,11.029],[-16.132,11.0637],[-16.1513,11.0425],[-16.145,11.029],[-16.1655,11.0425],[-16.1885,11.0396],[-16.248,11.1047],[-16.2017,11.1356],[-16.1867,11.132],[-16.2065,11.1251],[-16.1997,11.1108],[-16.1794,11.1247],[-16.1619,11.1662],[-16.1383,11.1866],[-16.1177,11.1729],[-16.1151,11.1975],[-16.1,11.2082],[-16.0566,11.1852],[-16.0677,11.1479],[-16.0489,11.1183]]],[[[-16.0221,11.5122],[-16.0013,11.569],[-15.9523,11.6068],[-15.9396,11.6049],[-15.9309,11.5787],[-15.9184,11.5913],[-15.9061,11.5784],[-15.9093,11.5517],[-15.898,11.5429],[-15.9134,11.4984],[-15.898,11.4535],[-15.9657,11.4267],[-15.9738,11.4473],[-15.9874,11.433],[-16.0011,11.4473],[-16.0352,11.42],[-16.0836,11.4678],[-16.0221,11.5122]]],[[[-16.2755,11.4955],[-16.3138,11.4805],[-16.3368,11.5019],[-16.3915,11.5019],[-16.4194,11.4882],[-16.412,11.5224],[-16.4263,11.5292],[-16.3892,11.5477],[-16.31,11.5535],[-16.2828,11.5838],[-16.248,11.5838],[-16.2445,11.5522],[-16.2755,11.4955]]],[[[-15.6584,11.3027],[-15.6584,11.2338],[-15.6932,11.2555],[-15.6857,11.2412],[-15.6986,11.2209],[-15.7268,11.2208],[-15.7268,11.1661],[-15.7342,11.1791],[-15.7733,11.1731],[-15.782,11.2003],[-15.7595,11.2219],[-15.7751,11.2338],[-15.754,11.2555],[-15.754,11.2759],[-15.7367,11.2755],[-15.7235,11.299],[-15.6995,11.3058],[-15.6584,11.3027]]],[[[-15.3414,11.6828],[-15.35,11.6801],[-15.3431,11.6664],[-15.3568,11.6664],[-15.3363,11.6186],[-15.3431,11.6049],[-15.3916,11.6596],[-15.3947,11.6419],[-15.3711,11.5913],[-15.3916,11.5981],[-15.4045,11.5845],[-15.4189,11.6118],[-15.4387,11.5571],[-15.4689,11.6058],[-15.4276,11.6804],[-15.3766,11.6927],[-15.3414,11.6828]]],[[[-16.173,11.2208],[-16.2515,11.2177],[-16.2828,11.2307],[-16.2816,11.2426],[-16.2487,11.2944],[-16.2065,11.3101],[-16.1544,11.2892],[-16.1513,11.2555],[-16.1728,11.2446],[-16.173,11.2208]]],[[[-15.9464,11.2003],[-15.9117,11.1663],[-15.8776,11.0736],[-15.8946,11.0543],[-15.9782,11.0481],[-15.9779,11.069],[-15.9259,11.0904],[-15.9418,11.1054],[-15.9533,11.0836],[-15.9669,11.0978],[-15.9464,11.2003]]],[[[-15.4735,11.6323],[-15.4878,11.5947],[-15.4717,11.5661],[-15.5213,11.5702],[-15.5423,11.5497],[-15.5697,11.5497],[-15.5484,11.5351],[-15.5663,11.5105],[-15.5758,11.5224],[-15.6303,11.529],[-15.633,11.5382],[-15.5857,11.5775],[-15.5622,11.577],[-15.5287,11.6248],[-15.4735,11.6323]]],[[[-15.9738,11.1592],[-15.9745,11.1162],[-16.0171,11.0687],[-16.0325,11.1215],[-16.0221,11.1388],[-16.045,11.1387],[-16.057,11.1636],[-16.0345,11.1905],[-15.9812,11.2071],[-15.9738,11.1592]]],[[[-16.2549,11.4473],[-16.3021,11.4535],[-16.2367,11.508],[-16.1655,11.5156],[-16.1642,11.4961],[-16.214,11.4404],[-16.2549,11.4473]]],[[[-15.8571,11.3027],[-15.8312,11.303],[-15.8258,11.2927],[-15.8376,11.214],[-15.8465,11.201],[-15.8713,11.2003],[-15.8961,11.2182],[-15.8965,11.2487],[-15.8571,11.3027]]],[[[-15.6653,11.4945],[-15.6516,11.4882],[-15.6527,11.4661],[-15.6796,11.4404],[-15.6857,11.4535],[-15.7047,11.4427],[-15.7351,11.4499],[-15.7355,11.4694],[-15.7137,11.4678],[-15.6932,11.5019],[-15.6857,11.4945],[-15.6653,11.5087],[-15.6653,11.4945]]]]}},{"type":"Feature","id":"Cacheu","properties":{"id":"Cacheu","iso_code":"GW-CA","name":"Cacheu","name_full":"Cacheu","name_ja":"カシェウ州","center_lonlat":[-16.0228,12.2286]},"geometry":{"type":"Polygon","coordinates":[[[-15.4217,12.5571],[-15.3973,12.4674],[-15.411,12.4113],[-15.4603,12.3799],[-15.4822,12.4056],[-15.5286,12.4005],[-15.6302,12.332],[-15.6908,12.3175],[-15.6974,12.2935],[-15.7144,12.2911],[-15.7226,12.3078],[-15.7455,12.2829],[-15.7478,12.2381],[-15.6975,12.19],[-15.6514,12.1654],[-15.6658,12.0315],[-15.7063,12.0083],[-15.7137,12.0158],[-15.7615,11.9953],[-15.782,12.0158],[-15.8371,12.0139],[-15.8639,12.0295],[-15.8896,12.0026],[-15.9328,11.9953],[-15.9328,11.9748],[-15.9464,11.9836],[-15.9447,11.9531],[-15.9816,11.9213],[-16.0557,11.9202],[-16.1246,11.8854],[-16.1588,11.9134],[-16.2152,11.9138],[-16.2549,11.937],[-16.2754,11.9811],[-16.3318,12.0046],[-16.3573,12.1011],[-16.3196,12.1717],[-16.2828,12.194],[-16.2775,12.1733],[-16.2611,12.1803],[-16.2686,12.2144],[-16.2574,12.2302],[-16.1484,12.2907],[-16.1041,12.338],[-16.0631,12.351],[-16.1075,12.3447],[-16.1554,12.3],[-16.2276,12.2827],[-16.3058,12.2144],[-16.3246,12.2222],[-16.3164,12.2827],[-16.3502,12.1972],[-16.3915,12.194],[-16.4058,12.2077],[-16.4157,12.1885],[-16.4433,12.1872],[-16.4576,12.1719],[-16.5006,12.1966],[-16.5389,12.256],[-16.567,12.2773],[-16.6037,12.2765],[-16.6727,12.338],[-16.7211,12.3237],[-16.7284,12.3325],[-16.6689,12.3567],[-16.5333,12.3478],[-16.4123,12.3617],[-16.2224,12.4551],[-16.1819,12.4434],[-16.0905,12.4643],[-15.9733,12.4372],[-15.7115,12.4322],[-15.4217,12.5571]]]}},{"type":"Feature","id":"Gabu","properties":{"id":"Gabu","iso_code":"GW-GA","name":"Gabu","name_full":"Gabú","name_ja":"ガブ州","center_lonlat":[-14.1177,12.1581]},"geometry":{"type":"Polygon","coordinates":[[[-14.4323,11.5606],[-14.4639,11.6317],[-14.5071,11.6416],[-14.498,11.7107],[-14.4597,11.7416],[-14.4758,11.7684],[-14.4812,11.824],[-14.4825,11.8811],[-14.4684,11.9316],[-14.5036,11.9742],[-14.4899,12.0548],[-14.5214,12.0721],[-14.5287,12.0956],[-14.5192,12.1167],[-14.4507,12.1336],[-14.4336,12.1747],[-14.4661,12.2038],[-14.4834,12.259],[-14.4722,12.3139],[-14.5548,12.362],[-14.5584,12.3851],[-14.5438,12.4019],[-14.5048,12.4045],[-14.5061,12.4491],[-14.4854,12.4354],[-14.4571,12.4597],[-14.4829,12.4954],[-14.5257,12.4852],[-14.5327,12.5339],[-14.5189,12.5324],[-14.5186,12.5164],[-14.4679,12.511],[-14.4562,12.4952],[-14.4248,12.5148],[-14.3987,12.5003],[-14.3838,12.5065],[-14.3734,12.534],[-14.4059,12.5577],[-14.4139,12.6277],[-14.4083,12.6366],[-14.3882,12.6166],[-14.3728,12.6176],[-14.3431,12.6759],[-13.7283,12.6734],[-13.7346,12.5853],[-13.6607,12.4587],[-13.6841,12.392],[-13.695,12.2929],[-13.7118,12.2675],[-13.8086,12.2561],[-13.7957,12.2787],[-13.84,12.2771],[-13.9439,12.2186],[-13.9657,12.1942],[-13.9725,12.1516],[-13.9184,12.1378],[-13.8424,12.0913],[-13.8078,12.0443],[-13.7349,12.0193],[-13.7239,12.0028],[-13.7346,11.9019],[-13.7196,11.7661],[-13.7299,11.7098],[-13.77,11.6887],[-13.8158,11.6868],[-13.8463,11.7373],[-13.8701,11.7437],[-13.8707,11.7041],[-13.8864,11.6756],[-13.9237,11.665],[-13.9454,11.6757],[-14.0151,11.6371],[-14.1186,11.638],[-14.172,11.6628],[-14.2897,11.6689],[-14.3392,11.6106],[-14.4323,11.5606]]]}},{"type":"Feature","id":"Oio","properties":{"id":"Oio","iso_code":"GW-OI","name":"Oio","name_full":"Oio","name_ja":"オイオ州","center_lonlat":[-15.2684,12.2824]},"geometry":{"type":"Polygon","coordinates":[[[-14.8722,12.6781],[-14.8594,12.6348],[-14.9047,12.5404],[-14.8608,12.5018],[-14.8508,12.4757],[-14.9594,12.4275],[-14.9546,12.3231],[-14.9213,12.2818],[-14.9246,12.1945],[-15.0399,12.2116],[-15.0709,12.1735],[-15.0294,12.0749],[-14.9532,12.0306],[-14.9606,12.0031],[-14.95,11.9687],[-14.9938,11.9576],[-15.0072,11.9783],[-15.0797,11.9879],[-15.1408,11.9612],[-15.1923,11.9134],[-15.2151,11.9096],[-15.3131,11.9328],[-15.3585,11.9632],[-15.4044,11.9672],[-15.4565,11.9401],[-15.4974,11.937],[-15.5456,11.8981],[-15.6086,11.9412],[-15.6241,11.9659],[-15.6658,12.0315],[-15.6514,12.1654],[-15.6975,12.19],[-15.7478,12.2381],[-15.7455,12.2829],[-15.7226,12.3078],[-15.7144,12.2911],[-15.6974,12.2935],[-15.6908,12.3175],[-15.6302,12.332],[-15.5286,12.4005],[-15.4822,12.4056],[-15.4603,12.3799],[-15.411,12.4113],[-15.3973,12.4674],[-15.4217,12.5571],[-15.2238,12.6752],[-14.8722,12.6781]]]}},{"type":"Feature","id":"Quinara","properties":{"id":"Quinara","iso_code":"GW-QU","name":"Quinara","name_full":"Quinara","name_ja":"キナラ州","center_lonlat":[-14.9886,11.6494]},"geometry":{"type":"Polygon","coordinates":[[[-15.4276,11.6804],[-15.4263,11.6937],[-15.4761,11.6544],[-15.494,11.6664],[-15.4878,11.708],[-15.5089,11.7045],[-15.5381,11.6762],[-15.5513,11.7164],[-15.5248,11.7825],[-15.4631,11.84],[-15.4387,11.8854],[-15.4189,11.8712],[-15.3978,11.8854],[-15.3127,11.8712],[-15.1892,11.8712],[-15.0899,11.9401],[-15.067,11.9401],[-15.0629,11.925],[-15.0871,11.8703],[-15.0694,11.8036],[-15.0026,11.7835],[-14.9824,11.7541],[-14.9359,11.753],[-14.9254,11.7694],[-14.9144,11.788],[-14.8947,11.7847],[-14.8776,11.7487],[-14.834,11.7379],[-14.8614,11.6954],[-14.8298,11.6986],[-14.8989,11.5898],[-14.9174,11.5076],[-14.9616,11.444],[-15.0961,11.4073],[-15.1963,11.473],[-15.2732,11.42],[-15.2681,11.433],[-15.3431,11.3784],[-15.3617,11.3991],[-15.3568,11.4296],[-15.331,11.4626],[-15.3534,11.4633],[-15.3842,11.4047],[-15.4263,11.3852],[-15.4495,11.3471],[-15.5027,11.3367],[-15.504,11.3686],[-15.453,11.4604],[-15.4767,11.468],[-15.4735,11.4945],[-15.4568,11.4891],[-15.4387,11.5019],[-15.4325,11.4808],[-15.4206,11.5053],[-15.3978,11.4945],[-15.412,11.5292],[-15.3544,11.5251],[-15.35,11.5634],[-15.3096,11.5539],[-15.309,11.536],[-15.2899,11.5428],[-15.3165,11.5838],[-15.3363,11.577],[-15.2947,11.6049],[-15.2748,11.5781],[-15.2401,11.577],[-15.2523,11.5788],[-15.2538,11.6049],[-15.2773,11.6116],[-15.2811,11.6248],[-15.2401,11.6118],[-15.2265,11.6186],[-15.2339,11.5913],[-15.2091,11.574],[-15.1923,11.5913],[-15.2128,11.6217],[-15.1944,11.6428],[-15.1484,11.6288],[-15.144,11.5981],[-15.1246,11.6049],[-15.1308,11.6186],[-15.1159,11.6177],[-15.0899,11.5913],[-15.144,11.5838],[-15.1246,11.5702],[-15.1233,11.5455],[-15.1051,11.5729],[-15.0238,11.5827],[-15.0073,11.6118],[-15.0799,11.598],[-15.081,11.6129],[-15.062,11.6186],[-15.062,11.6459],[-15.0824,11.6433],[-15.0899,11.6186],[-15.1246,11.6385],[-15.1029,11.6664],[-15.1103,11.6868],[-15.1308,11.6527],[-15.1719,11.6596],[-15.1352,11.6895],[-15.1308,11.708],[-15.1487,11.6945],[-15.1719,11.7011],[-15.1758,11.6845],[-15.1923,11.6801],[-15.1893,11.6655],[-15.2069,11.6668],[-15.2128,11.6801],[-15.228,11.6586],[-15.2314,11.6813],[-15.2066,11.6937],[-15.2191,11.7082],[-15.2128,11.7279],[-15.1861,11.7216],[-15.2196,11.7551],[-15.2401,11.6937],[-15.2593,11.6768],[-15.2742,11.6766],[-15.2612,11.7011],[-15.275,11.7185],[-15.2681,11.7484],[-15.2886,11.7111],[-15.3226,11.708],[-15.2811,11.6698],[-15.2939,11.6531],[-15.309,11.6664],[-15.3226,11.6323],[-15.3414,11.6828],[-15.3766,11.6927],[-15.4276,11.6804]]]}},{"type":"Feature","id":"Tombali","properties":{"id":"Tombali","iso_code":"GW-TO","name":"Tombali","name_full":"Tombali","name_ja":"トンバリ州","center_lonlat":[-15.0,11.3325]},"geometry":{"type":"Polygon","coordinates":[[[-14.4323,11.5606],[-14.5209,11.5129],[-14.5623,11.5056],[-14.6454,11.5151],[-14.7111,11.4976],[-14.8282,11.3348],[-14.8631,11.2186],[-14.9591,11.0358],[-15.021,10.9675],[-15.0852,10.9276],[-15.0968,10.9293],[-15.094,10.9425],[-15.0483,10.9948],[-15.0831,10.9675],[-15.114,10.9752],[-15.0994,11.0577],[-15.0657,11.1146],[-15.0421,11.1183],[-15.0421,11.1388],[-15.0006,11.1422],[-15.021,11.1661],[-15.0009,11.2168],[-15.0148,11.2275],[-15.0387,11.1826],[-15.0831,11.1661],[-15.0819,11.1402],[-15.1029,11.1457],[-15.1103,11.1251],[-15.1246,11.132],[-15.1308,11.1037],[-15.2301,10.9948],[-15.2585,11.0136],[-15.2711,11.0392],[-15.2145,11.0814],[-15.2066,11.1251],[-15.2174,11.2094],[-15.2066,11.2338],[-15.2291,11.2304],[-15.235,11.2156],[-15.2251,11.164],[-15.2335,11.1225],[-15.3582,11.1442],[-15.3735,11.1738],[-15.4095,11.1896],[-15.4101,11.2792],[-15.4263,11.2927],[-15.4139,11.3364],[-15.3779,11.3784],[-15.3297,11.3685],[-15.2732,11.42],[-15.1963,11.473],[-15.0961,11.4073],[-14.9616,11.444],[-14.9174,11.5076],[-14.8989,11.5898],[-14.8298,11.6986],[-14.8122,11.6896],[-14.7866,11.6302],[-14.7339,11.5976],[-14.6733,11.6352],[-14.6354,11.6204],[-14.5071,11.6416],[-14.4639,11.6317],[-14.4323,11.5606]]]}}]}
