{"type":"FeatureCollection","features":[{"type":"Feature","id":"Beyla Prefecture","properties":{"id":"Beyla Prefecture","iso_code":"GN-BE","name":"Beyla Prefecture","name_full":"Beyla Prefecture","name_ja":"ベイラ県","center_lonlat":[-8.3443,8.7967]},"geometry":{"type":"Polygon","coordinates":[[[-8.0704,9.3975],[-8.0099,9.3836],[-7.9119,9.4187],[-7.8654,9.4099],[-7.9306,9.2203],[-7.9296,9.1839],[-7.8787,9.1639],[-7.8479,9.1686],[-7.8234,9.132],[-7.7468,9.0764],[-7.7642,9.0636],[-7.827,9.0578],[-7.9319,8.9965],[-7.9689,8.8128],[-7.9589,8.782],[-7.8037,8.7491],[-7.7412,8.6629],[-7.6968,8.6248],[-7.6792,8.5051],[-7.6896,8.4387],[-7.6624,8.3749],[-7.7207,8.3685],[-7.771,8.3865],[-7.8238,8.4779],[-7.8457,8.4743],[-7.8486,8.4286],[-7.8656,8.4209],[-7.9129,8.4342],[-7.9439,8.4846],[-7.9705,8.497],[-8.0157,8.4872],[-8.0507,8.4877],[-8.0766,8.5033],[-8.1505,8.4865],[-8.2003,8.4918],[-8.2489,8.4536],[-8.2543,8.4345],[-8.2353,8.3795],[-8.2453,8.2851],[-8.266,8.246],[-8.1829,8.1917],[-8.0855,8.162],[-8.0033,8.184],[-8.0213,8.1027],[-7.9804,8.059],[-7.9626,8.0152],[-8.012,8.0356],[-8.0691,8.0293],[-8.0672,8.0208],[-8.2795,8.1959],[-8.3696,8.22],[-8.4297,8.217],[-8.4778,8.265],[-8.5379,8.271],[-8.5499,8.3071],[-8.5889,8.3492],[-8.652,8.3642],[-8.7362,8.3582],[-8.8233,8.3191],[-8.9104,8.2981],[-8.8563,8.4633],[-8.8714,8.5504],[-8.9044,8.6346],[-8.9525,8.7007],[-8.9675,8.7457],[-8.9691,8.9619],[-8.9264,9.0018],[-8.8837,9.0218],[-8.8067,9.036],[-8.728,9.0721],[-8.6673,9.1949],[-8.6216,9.2269],[-8.5646,9.3152],[-8.5304,9.3266],[-8.5218,9.3665],[-8.4791,9.3808],[-8.4278,9.3779],[-8.3195,9.3352],[-8.2711,9.3409],[-8.1486,9.4007],[-8.0704,9.3975]]]}},{"type":"Feature","id":"Boffa Prefecture","properties":{"id":"Boffa Prefecture","iso_code":"GN-BF","name":"Boffa Prefecture","name_full":"Boffa Prefecture","name_ja":"ボッファ県","center_lonlat":[-14.0584,10.3737]},"geometry":{"type":"Polygon","coordinates":[[[-13.6904,9.9508],[-13.702,9.9117],[-13.7497,9.8635],[-13.7847,9.8502],[-13.8277,9.8554],[-13.9276,9.9359],[-13.9454,9.9669],[-13.9795,9.9744],[-14.0583,10.0253],[-14.0619,10.0501],[-14.0461,10.0795],[-14.0203,10.0944],[-13.9938,10.0762],[-14.0282,10.1166],[-14.0416,10.1013],[-14.0683,10.1181],[-14.0438,10.1332],[-13.9999,10.1997],[-14.0893,10.1383],[-14.0923,10.0686],[-14.1303,10.0489],[-14.1532,10.0556],[-14.1798,10.0903],[-14.1788,10.1103],[-14.1236,10.1626],[-14.1378,10.1792],[-14.1531,10.1563],[-14.1849,10.1519],[-14.1825,10.1295],[-14.2224,10.1061],[-14.2506,10.1405],[-14.2439,10.1823],[-14.2701,10.1597],[-14.3767,10.2344],[-14.432,10.2344],[-14.4525,10.2146],[-14.4659,10.2497],[-14.463,10.33],[-14.548,10.4256],[-14.5505,10.4721],[-14.5356,10.5075],[-14.4596,10.5694],[-14.4055,10.5934],[-14.2763,10.5995],[-14.2072,10.6205],[-14.1445,10.6691],[-14.0497,10.6691],[-14.0307,10.6406],[-13.9865,10.6469],[-13.928,10.6752],[-13.9158,10.6665],[-13.8506,10.6912],[-13.8421,10.7222],[-13.8,10.7408],[-13.6124,10.7148],[-13.6243,10.5544],[-13.6904,10.5063],[-13.7325,10.4913],[-13.8106,10.3952],[-13.8286,10.3531],[-13.819,10.2961],[-13.8695,10.1855],[-13.912,10.124],[-13.9104,10.1042],[-13.7851,9.9896],[-13.7181,9.9816],[-13.6904,9.9508]]]}},{"type":"Feature","id":"Boke","properties":{"id":"Boke","iso_code":"GN-BK","name":"Boke","name_full":"Boké","name_ja":"ボケ州","center_lonlat":[-14.3637,11.1048]},"geometry":{"type":"Polygon","coordinates":[[[-14.0151,11.6371],[-14.0239,11.5939],[-14.048,11.5639],[-14.048,11.5338],[-14.0209,11.5128],[-13.9698,11.5128],[-13.9338,11.4858],[-13.9098,11.3776],[-13.8827,11.3536],[-13.8407,11.3445],[-13.8066,11.292],[-13.8441,11.2718],[-13.7841,11.2209],[-13.7818,11.1856],[-13.7602,11.1645],[-13.76,11.1185],[-13.7724,11.0737],[-13.8166,11.0368],[-13.8601,10.8899],[-13.9305,10.8577],[-13.9897,10.8619],[-14.1445,10.6691],[-14.2072,10.6205],[-14.2763,10.5995],[-14.4055,10.5934],[-14.4596,10.5694],[-14.5356,10.5075],[-14.5964,10.476],[-14.6443,10.4877],[-14.6512,10.4751],[-14.6638,10.5292],[-14.6505,10.5703],[-14.6394,10.5666],[-14.5964,10.6037],[-14.6206,10.6043],[-14.6287,10.6173],[-14.6152,10.6913],[-14.6073,10.7054],[-14.5902,10.6994],[-14.5685,10.731],[-14.5313,10.8235],[-14.5097,10.8425],[-14.5139,10.8719],[-14.5002,10.8911],[-14.5199,10.8854],[-14.5214,10.8508],[-14.5735,10.8124],[-14.6297,10.7064],[-14.6861,10.6482],[-14.6998,10.6431],[-14.7037,10.6708],[-14.6783,10.6931],[-14.7057,10.6863],[-14.7194,10.6994],[-14.6991,10.7563],[-14.6514,10.81],[-14.6647,10.8166],[-14.7231,10.7651],[-14.7603,10.6994],[-14.7928,10.745],[-14.7951,10.7683],[-14.77,10.7769],[-14.7541,10.803],[-14.7405,10.8719],[-14.7726,10.8365],[-14.8087,10.8235],[-14.808,10.8825],[-14.7951,10.8986],[-14.8139,10.9003],[-14.8168,10.9272],[-14.7961,10.9476],[-14.7318,10.9665],[-14.7163,11.001],[-14.6647,11.0358],[-14.6852,11.0637],[-14.695,11.0385],[-14.7268,11.0258],[-14.7415,10.9891],[-14.8013,10.9805],[-14.7955,10.9997],[-14.8107,11.0145],[-14.8435,10.9675],[-14.8746,10.9733],[-14.8944,11.0303],[-14.9186,11.029],[-14.8988,10.9932],[-14.9111,10.96],[-14.9596,10.9805],[-14.9144,10.9423],[-14.9111,10.9259],[-14.9398,10.8891],[-14.9801,10.875],[-14.9732,10.8201],[-14.9459,10.7928],[-14.9596,10.7683],[-15.0139,10.7826],[-15.0526,10.8144],[-15.0795,10.8587],[-15.0743,10.8969],[-15.0278,10.9293],[-15.0148,10.9538],[-15.021,10.9675],[-14.9591,11.0358],[-14.8631,11.2186],[-14.8282,11.3348],[-14.7111,11.4976],[-14.6454,11.5151],[-14.5623,11.5056],[-14.5209,11.5129],[-14.3392,11.6106],[-14.2897,11.6689],[-14.172,11.6628],[-14.1186,11.638],[-14.0151,11.6371]]]}},{"type":"Feature","id":"Conakry","properties":{"id":"Conakry","iso_code":"GN-C","name":"Conakry","name_full":"Conakry","name_ja":"コナクリ","center_lonlat":[-13.6845,9.5393]},"geometry":{"type":"Polygon","coordinates":[[[-13.6433,9.5425],[-13.7224,9.5058],[-13.7241,9.5195],[-13.6733,9.5738],[-13.6433,9.5425]]]}},{"type":"Feature","id":"Coyah Prefecture","properties":{"id":"Coyah Prefecture","iso_code":"GN-CO","name":"Coyah Prefecture","name_full":"Coyah Prefecture","name_ja":"コヤ県","center_lonlat":[-13.331,9.762]},"geometry":{"type":"Polygon","coordinates":[[[-13.4867,9.5691],[-13.5156,9.5245],[-13.5282,9.6501],[-13.4741,9.7342],[-13.4861,9.8243],[-13.4741,9.8994],[-13.4411,9.9535],[-13.393,9.9926],[-13.2818,9.9986],[-13.2187,9.9385],[-13.2097,9.8514],[-13.2458,9.7883],[-13.2338,9.7462],[-13.1526,9.7071],[-13.1076,9.6501],[-13.0895,9.5629],[-13.2067,9.5629],[-13.2758,9.62],[-13.3179,9.638],[-13.4561,9.593],[-13.4867,9.5691]]]}},{"type":"Feature","id":"Dabola Prefecture","properties":{"id":"Dabola Prefecture","iso_code":"GN-DB","name":"Dabola Prefecture","name_full":"Dabola Prefecture","name_ja":"ダボラ県","center_lonlat":[-11.2371,10.6748]},"geometry":{"type":"Polygon","coordinates":[[[-11.4492,9.995],[-11.5875,9.9943],[-11.6064,10.0685],[-11.5938,10.157],[-11.5716,10.1886],[-11.5653,10.2424],[-11.5533,10.7957],[-11.595,10.8192],[-11.5892,10.8989],[-11.6029,10.9653],[-11.4895,11.0642],[-11.4231,11.0642],[-11.4161,11.0291],[-11.1938,11.0261],[-11.1397,10.966],[-11.0826,10.945],[-11.0255,10.96],[-10.8332,11.0892],[-10.7031,11.1126],[-10.6962,11.0915],[-10.7183,11.0455],[-10.793,10.9834],[-10.823,10.9089],[-10.8906,10.8714],[-10.8963,10.8441],[-10.8643,10.808],[-10.6925,10.7532],[-10.6435,10.7177],[-10.5981,10.6621],[-10.653,10.6115],[-10.7281,10.6025],[-10.8092,10.6085],[-10.8453,10.6445],[-10.8813,10.6565],[-11.0195,10.6085],[-11.1607,10.4733],[-11.2478,10.4643],[-11.3019,10.4192],[-11.377,10.3952],[-11.3921,10.1668],[-11.4492,9.995]]]}},{"type":"Feature","id":"Dalaba Prefecture","properties":{"id":"Dalaba Prefecture","iso_code":"GN-DL","name":"Dalaba Prefecture","name_full":"Dalaba Prefecture","name_ja":"ダラバ県","center_lonlat":[-12.1933,10.8611]},"geometry":{"type":"Polygon","coordinates":[[[-12.0055,11.2866],[-11.9774,11.2158],[-11.9284,11.1906],[-11.9048,11.1586],[-11.9089,11.068],[-11.8968,11.0176],[-11.867,10.9995],[-11.8131,11.0025],[-11.7856,10.969],[-11.7796,10.8969],[-11.8217,10.8038],[-11.8607,10.7857],[-12.029,10.7617],[-12.1732,10.6355],[-12.1972,10.5934],[-12.2754,10.5814],[-12.4151,10.4912],[-12.4425,10.5311],[-12.4958,10.5579],[-12.5001,10.619],[-12.5714,10.5634],[-12.6495,10.5287],[-12.6449,10.6746],[-12.6179,10.7317],[-12.4947,10.8248],[-12.4406,10.8368],[-12.3835,10.954],[-12.3384,10.987],[-12.2573,11.0291],[-12.1341,11.0321],[-12.1462,11.0742],[-12.1732,11.0952],[-12.1822,11.1342],[-12.1582,11.1703],[-12.1552,11.2184],[-12.1218,11.293],[-12.0928,11.306],[-12.0555,11.291],[-12.0055,11.2866]]]}},{"type":"Feature","id":"Dinguiraye Prefecture","properties":{"id":"Dinguiraye Prefecture","iso_code":"GN-DI","name":"Dinguiraye Prefecture","name_full":"Dinguiraye Prefecture","name_ja":"ダンギレ県","center_lonlat":[-10.6834,11.6175]},"geometry":{"type":"Polygon","coordinates":[[[-9.8888,12.0606],[-9.9547,12.0185],[-9.9939,11.9651],[-10.0829,11.8974],[-10.1833,11.8448],[-10.2077,11.8149],[-10.1505,11.7265],[-10.0651,11.641],[-10.0259,11.5449],[-10.0295,11.3775],[-10.1399,11.374],[-10.2431,11.4523],[-10.3215,11.4665],[-10.3856,11.4416],[-10.3998,11.3989],[-10.3434,11.2695],[-10.3428,11.2066],[-10.3749,11.1781],[-10.5494,11.1745],[-10.5814,11.1817],[-10.5976,11.2086],[-10.6491,11.2351],[-10.6954,11.2279],[-10.7031,11.1126],[-10.8332,11.0892],[-11.0255,10.96],[-11.0826,10.945],[-11.1397,10.966],[-11.1938,11.0261],[-11.4161,11.0291],[-11.4231,11.0642],[-11.2492,11.1843],[-11.2492,11.2285],[-11.3062,11.3262],[-11.2507,11.4002],[-11.1958,11.4246],[-11.1324,11.483],[-11.1956,11.518],[-11.2182,11.5444],[-11.2158,11.5619],[-11.1391,11.6576],[-11.1309,11.7653],[-11.1193,11.7875],[-11.1193,11.8911],[-11.1659,11.9351],[-11.1846,12.0211],[-11.1594,12.0775],[-11.1363,12.0851],[-11.0728,12.1495],[-11.0523,12.2025],[-10.9521,12.2195],[-10.9098,12.2001],[-10.8696,12.1384],[-10.8049,12.096],[-10.8078,12.0228],[-10.7114,11.8904],[-10.6551,11.899],[-10.6138,11.9677],[-10.5595,11.9952],[-10.5665,12.0173],[-10.5151,12.0529],[-10.5173,12.0803],[-10.5044,12.0884],[-10.5116,12.1181],[-10.4457,12.1207],[-10.3814,12.1801],[-10.3534,12.1665],[-10.3541,12.1809],[-10.3236,12.202],[-10.311,12.191],[-10.2669,12.2178],[-10.2478,12.2011],[-10.0602,12.1475],[-9.9232,12.0876],[-9.8888,12.0606]]]}},{"type":"Feature","id":"Dubreka Prefecture","properties":{"id":"Dubreka Prefecture","iso_code":"GN-DU","name":"Dubreka Prefecture","name_full":"Dubréka Prefecture","name_ja":"ドュブレカ県","center_lonlat":[-13.5173,10.0598]},"geometry":{"type":"Polygon","coordinates":[[[-13.6733,9.5738],[-13.6258,9.6473],[-13.6232,9.7274],[-13.5665,9.7711],[-13.5611,9.7882],[-13.5943,9.7742],[-13.6512,9.8428],[-13.6648,9.8366],[-13.6505,9.777],[-13.6613,9.7545],[-13.6921,9.7404],[-13.7289,9.7441],[-13.7472,9.7678],[-13.7498,9.7999],[-13.682,9.9135],[-13.6904,9.9508],[-13.7181,9.9816],[-13.7851,9.9896],[-13.9104,10.1042],[-13.912,10.124],[-13.8695,10.1855],[-13.819,10.2961],[-13.7558,10.2961],[-13.4839,10.2392],[-13.4081,10.2582],[-13.367,10.3182],[-13.2946,10.3765],[-13.2121,10.3972],[-13.1346,10.4042],[-13.1346,10.296],[-13.1136,10.2419],[-13.1556,10.1879],[-13.1556,10.1097],[-13.2037,10.0917],[-13.2818,9.9986],[-13.393,9.9926],[-13.4411,9.9535],[-13.4741,9.8994],[-13.4861,9.8243],[-13.4741,9.7342],[-13.5282,9.6501],[-13.5156,9.5245],[-13.5475,9.5002],[-13.5753,9.5272],[-13.5884,9.5691],[-13.6433,9.5425],[-13.6733,9.5738]]]}},{"type":"Feature","id":"Faranah","properties":{"id":"Faranah","iso_code":"GN-FA","name":"Faranah","name_full":"Faranah","name_ja":"ファラナ州","center_lonlat":[-10.747,10.0177]},"geometry":{"type":"Polygon","coordinates":[[[-11.4492,9.995],[-11.3921,10.1668],[-11.377,10.3952],[-11.3019,10.4192],[-11.2478,10.4643],[-11.1607,10.4733],[-11.0195,10.6085],[-10.8813,10.6565],[-10.8453,10.6445],[-10.8092,10.6085],[-10.7281,10.6025],[-10.653,10.6115],[-10.5981,10.6621],[-10.5691,10.5965],[-10.523,10.5847],[-10.4417,10.5059],[-10.4168,10.5139],[-10.4091,10.5293],[-10.3508,10.5221],[-10.3047,10.5322],[-10.2794,10.5151],[-10.2242,10.5082],[-10.2348,10.4884],[-10.1999,10.4393],[-10.1491,10.4878],[-10.1381,10.5268],[-10.1224,10.4785],[-10.1442,10.4397],[-10.1374,10.3989],[-10.1701,10.334],[-10.1837,10.3216],[-10.2303,10.3195],[-10.2324,10.2542],[-10.2108,10.184],[-10.2913,10.0913],[-10.3199,10.0854],[-10.3277,10.0343],[-10.3538,9.9991],[-10.3227,9.8886],[-10.3384,9.8585],[-10.3707,9.8453],[-10.3663,9.7782],[-10.414,9.7401],[-10.4073,9.66],[-10.4177,9.6117],[-10.4216,9.5539],[-10.3886,9.4668],[-10.3796,9.3857],[-10.3916,9.2925],[-10.4337,9.2625],[-10.4782,9.1852],[-10.5018,9.1097],[-10.5931,9.0476],[-10.6293,9.0704],[-10.7463,9.0838],[-10.7535,9.1201],[-10.7426,9.1633],[-10.7247,9.1945],[-10.6852,9.2245],[-10.6751,9.3065],[-10.7655,9.3852],[-10.8318,9.3921],[-10.8115,9.4083],[-10.8549,9.4553],[-10.8526,9.5121],[-10.8777,9.5327],[-10.8863,9.5684],[-10.9291,9.6057],[-10.9401,9.6397],[-10.9685,9.6542],[-11.0101,9.7427],[-11.0449,9.7871],[-11.1603,9.8728],[-11.1885,9.9726],[-11.2727,9.996],[-11.4492,9.995]]]}},{"type":"Feature","id":"Forecariah Prefecture","properties":{"id":"Forecariah Prefecture","iso_code":"GN-FO","name":"Forecariah Prefecture","name_full":"Forécariah Prefecture","name_ja":"フォレカリア県","center_lonlat":[-13.0701,9.4163]},"geometry":{"type":"Polygon","coordinates":[[[-12.6016,9.6517],[-12.6068,9.6007],[-12.6338,9.5979],[-12.6499,9.5521],[-12.6686,9.5424],[-12.7016,9.4202],[-12.7229,9.3921],[-12.7372,9.3972],[-12.7598,9.3828],[-12.7642,9.3477],[-12.7953,9.3351],[-12.8358,9.282],[-12.9175,9.267],[-12.937,9.2871],[-12.9579,9.2724],[-12.9784,9.2128],[-12.9592,9.1778],[-12.9842,9.1723],[-13.0289,9.096],[-13.1311,9.0415],[-13.2075,9.0767],[-13.3011,9.0415],[-13.3216,9.0566],[-13.3222,9.0831],[-13.3006,9.0846],[-13.2431,9.1697],[-13.2259,9.1793],[-13.1761,9.1737],[-13.1577,9.1855],[-13.2473,9.186],[-13.2595,9.1964],[-13.2328,9.2674],[-13.2549,9.2448],[-13.2806,9.165],[-13.3153,9.1821],[-13.3222,9.1929],[-13.3079,9.2503],[-13.3222,9.2612],[-13.3253,9.311],[-13.3187,9.3295],[-13.3011,9.3159],[-13.3011,9.3568],[-13.3529,9.3388],[-13.3745,9.2728],[-13.4078,9.287],[-13.4041,9.3084],[-13.4238,9.3329],[-13.432,9.3711],[-13.3966,9.4394],[-13.4284,9.4207],[-13.4654,9.4182],[-13.4992,9.4288],[-13.514,9.4496],[-13.5207,9.4951],[-13.4932,9.5349],[-13.4867,9.5691],[-13.4561,9.593],[-13.3179,9.638],[-13.2758,9.62],[-13.2067,9.5629],[-13.0895,9.5629],[-13.0475,9.584],[-12.9844,9.6501],[-12.8672,9.6981],[-12.711,9.6951],[-12.6016,9.6517]]]}},{"type":"Feature","id":"Fria Prefecture","properties":{"id":"Fria Prefecture","iso_code":"GN-FR","name":"Fria Prefecture","name_full":"Fria Prefecture","name_ja":"フリア県","center_lonlat":[-13.4941,10.4676]},"geometry":{"type":"Polygon","coordinates":[[[-13.6124,10.7148],[-13.4049,10.7007],[-13.2089,10.5964],[-13.1963,10.5142],[-13.2184,10.4763],[-13.2121,10.3972],[-13.2946,10.3765],[-13.367,10.3182],[-13.4081,10.2582],[-13.4839,10.2392],[-13.7558,10.2961],[-13.819,10.2961],[-13.8286,10.3531],[-13.8106,10.3952],[-13.7325,10.4913],[-13.6904,10.5063],[-13.6243,10.5544],[-13.6124,10.7148]]]}},{"type":"Feature","id":"Gaoual Prefecture","properties":{"id":"Gaoual Prefecture","iso_code":"GN-GA","name":"Gaoual Prefecture","name_full":"Gaoual Prefecture","name_ja":"ガワル県","center_lonlat":[-13.3606,11.7211]},"geometry":{"type":"Polygon","coordinates":[[[-13.6953,12.2925],[-13.667,12.2321],[-13.5333,12.2899],[-13.4772,12.2722],[-13.4846,12.3098],[-13.4447,12.2774],[-13.4213,12.3089],[-13.3776,12.3014],[-13.3712,12.2879],[-13.3905,12.2713],[-13.3879,12.256],[-13.3459,12.2169],[-13.3335,12.1859],[-13.3444,12.1201],[-13.3344,12.0908],[-13.3076,12.0652],[-13.296,12.0665],[-13.3021,12.0953],[-13.2768,12.0885],[-13.2642,12.0301],[-13.2111,12.0154],[-13.0181,12.0169],[-12.9602,12.0822],[-12.8948,12.0852],[-12.8277,12.1542],[-12.8074,12.0997],[-12.8238,11.992],[-12.863,11.9089],[-12.839,11.8979],[-12.8018,11.9277],[-12.7817,11.8998],[-12.8151,11.7884],[-12.8087,11.7222],[-12.8053,11.6917],[-12.7723,11.6472],[-12.7079,11.6067],[-12.7042,11.5662],[-12.7551,11.5316],[-12.8008,11.4691],[-12.881,11.427],[-12.9303,11.3854],[-12.9897,11.2562],[-12.9687,11.1685],[-13.0405,11.1717],[-13.1761,11.1327],[-13.2337,11.1303],[-13.2457,11.1424],[-13.2642,11.331],[-13.3954,11.3613],[-13.5511,11.3642],[-13.6386,11.3214],[-13.745,11.3225],[-13.8066,11.292],[-13.8407,11.3445],[-13.8827,11.3536],[-13.9098,11.3776],[-13.9338,11.4858],[-13.9698,11.5128],[-14.0209,11.5128],[-14.048,11.5338],[-14.048,11.5639],[-14.0239,11.5939],[-14.0151,11.6371],[-13.9454,11.6757],[-13.9237,11.665],[-13.8864,11.6756],[-13.8707,11.7041],[-13.8701,11.7437],[-13.8463,11.7373],[-13.8158,11.6868],[-13.77,11.6887],[-13.7299,11.7098],[-13.7196,11.7661],[-13.7346,11.9019],[-13.7239,12.0028],[-13.7349,12.0193],[-13.8078,12.0443],[-13.8424,12.0913],[-13.9184,12.1378],[-13.9725,12.1516],[-13.9657,12.1942],[-13.9439,12.2186],[-13.84,12.2771],[-13.7957,12.2787],[-13.8086,12.2561],[-13.7408,12.2569],[-13.7118,12.2675],[-13.6953,12.2925]]]}},{"type":"Feature","id":"Gueckedou Prefecture","properties":{"id":"Gueckedou Prefecture","iso_code":"GN-GU","name":"Gueckedou Prefecture","name_full":"Guéckédou Prefecture","name_ja":"ゲケドゥ県","center_lonlat":[-10.2835,8.7112]},"geometry":{"type":"Polygon","coordinates":[[[-10.5931,9.0476],[-10.5018,9.1097],[-10.4782,9.1852],[-10.4323,9.1473],[-10.4364,9.0743],[-10.3848,9.0427],[-10.2878,8.9226],[-10.2234,8.902],[-10.2022,8.8723],[-10.0702,8.8882],[-9.98,8.943],[-9.77,8.9003],[-9.7937,8.8269],[-9.8748,8.7878],[-9.9079,8.7547],[-9.9199,8.6917],[-9.8728,8.5004],[-9.9442,8.4883],[-10.0617,8.4222],[-10.0794,8.44],[-10.0761,8.5015],[-10.148,8.5243],[-10.1818,8.5196],[-10.2324,8.4771],[-10.2403,8.4937],[-10.2937,8.4831],[-10.3376,8.4986],[-10.3747,8.4948],[-10.4141,8.4702],[-10.448,8.4076],[-10.5193,8.3348],[-10.5727,8.3046],[-10.6267,8.3315],[-10.6882,8.3241],[-10.7079,8.3031],[-10.7152,8.2696],[-10.7353,8.2873],[-10.725,8.3199],[-10.6691,8.3991],[-10.6547,8.4855],[-10.6439,8.4869],[-10.6319,8.532],[-10.5654,8.6128],[-10.5033,8.6316],[-10.4819,8.6725],[-10.5997,8.8154],[-10.6119,8.9451],[-10.5931,9.0476]]]}},{"type":"Feature","id":"Kankan","properties":{"id":"Kankan","iso_code":"GN-K","name":"Kankan","name_full":"Kankan","name_ja":"カンカン州","center_lonlat":[-9.0483,9.9963]},"geometry":{"type":"Polygon","coordinates":[[[-8.1524,9.95],[-8.1747,9.933],[-8.1495,9.9053],[-8.151,9.8661],[-8.1281,9.8662],[-8.1235,9.8449],[-8.161,9.5536],[-8.1454,9.4971],[-8.0704,9.3975],[-8.1486,9.4007],[-8.2711,9.3409],[-8.3195,9.3352],[-8.4278,9.3779],[-8.4791,9.3808],[-8.4658,9.4578],[-8.4748,9.5209],[-8.5229,9.584],[-8.5709,9.626],[-8.6731,9.6681],[-8.8143,9.6831],[-8.8383,9.7222],[-8.8834,9.7402],[-9.0246,9.7312],[-9.1778,9.638],[-9.2212,9.4262],[-9.3443,9.4672],[-9.5495,9.459],[-9.6293,9.5366],[-9.7553,9.5578],[-9.8334,9.5531],[-9.8932,9.5962],[-9.9552,9.669],[-9.9229,9.6891],[-9.8508,9.7011],[-9.8147,9.7492],[-9.7787,9.7732],[-9.7757,9.8273],[-9.7006,9.9024],[-9.6916,10.0016],[-9.7186,10.0466],[-9.7186,10.2029],[-9.6826,10.284],[-9.6675,10.4372],[-9.5113,10.6025],[-9.4242,10.7226],[-9.3731,10.7497],[-9.1598,10.6806],[-8.9645,10.6656],[-8.9465,10.5033],[-8.8984,10.4492],[-8.7842,10.4192],[-8.7482,10.3922],[-8.7241,10.284],[-8.6731,10.2329],[-8.4778,10.1999],[-8.4297,10.1788],[-8.3907,10.0587],[-8.3396,10.0046],[-8.2134,9.9565],[-8.1524,9.95]]]}},{"type":"Feature","id":"Kerouane Prefecture","properties":{"id":"Kerouane Prefecture","iso_code":"GN-KE","name":"Kerouane Prefecture","name_full":"Kérouané Prefecture","name_ja":"ケルワヌ県","center_lonlat":[-8.9222,9.3432]},"geometry":{"type":"Polygon","coordinates":[[[-9.3361,9.0897],[-9.3197,9.1964],[-9.2376,9.2457],[-9.2212,9.4262],[-9.1778,9.638],[-9.0246,9.7312],[-8.8834,9.7402],[-8.8383,9.7222],[-8.8143,9.6831],[-8.6731,9.6681],[-8.5709,9.626],[-8.5229,9.584],[-8.4748,9.5209],[-8.4658,9.4578],[-8.4791,9.3808],[-8.5218,9.3665],[-8.5304,9.3266],[-8.5646,9.3152],[-8.6216,9.2269],[-8.6673,9.1949],[-8.728,9.0721],[-8.8067,9.036],[-8.8837,9.0218],[-8.9264,9.0018],[-8.9691,8.9619],[-9.1486,8.9107],[-9.2398,8.9192],[-9.2883,9.0816],[-9.3361,9.0897]]]}},{"type":"Feature","id":"Kindia","properties":{"id":"Kindia","iso_code":"GN-KD","name":"Kindia","name_full":"Kindia","name_ja":"キンディア州","center_lonlat":[-12.7341,10.0831]},"geometry":{"type":"Polygon","coordinates":[[[-12.1098,9.8817],[-12.1748,9.8792],[-12.2536,9.9284],[-12.2767,9.9293],[-12.4723,9.8813],[-12.5143,9.8513],[-12.5225,9.7345],[-12.5357,9.7328],[-12.5388,9.7119],[-12.5731,9.6926],[-12.6016,9.6517],[-12.711,9.6951],[-12.8672,9.6981],[-12.9844,9.6501],[-13.0475,9.584],[-13.0895,9.5629],[-13.1076,9.6501],[-13.1526,9.7071],[-13.2338,9.7462],[-13.2458,9.7883],[-13.2097,9.8514],[-13.2187,9.9385],[-13.2818,9.9986],[-13.2037,10.0917],[-13.1556,10.1097],[-13.1556,10.1879],[-13.1136,10.2419],[-13.1346,10.296],[-13.1346,10.4042],[-12.896,10.4699],[-12.8518,10.4826],[-12.8373,10.5196],[-12.8128,10.5241],[-12.714,10.4715],[-12.6495,10.5287],[-12.5714,10.5634],[-12.5001,10.619],[-12.4958,10.5579],[-12.4425,10.5311],[-12.4151,10.4912],[-12.3828,10.4654],[-12.4047,10.4398],[-12.426,10.3543],[-12.4097,10.277],[-12.3857,10.264],[-12.3269,10.2773],[-12.2364,10.2686],[-12.1863,10.1769],[-12.1255,10.0998],[-12.124,10.0257],[-12.1436,9.9626],[-12.1098,9.8817]]]}},{"type":"Feature","id":"Kissidougou Prefecture","properties":{"id":"Kissidougou Prefecture","iso_code":"GN-KS","name":"Kissidougou Prefecture","name_full":"Kissidougou Prefecture","name_ja":"キシドゥグ県","center_lonlat":[-9.8816,9.254]},"geometry":{"type":"Polygon","coordinates":[[[-9.9552,9.669],[-9.8932,9.5962],[-9.8334,9.5531],[-9.7553,9.5578],[-9.6293,9.5366],[-9.5495,9.459],[-9.3443,9.4672],[-9.2212,9.4262],[-9.2376,9.2457],[-9.3197,9.1964],[-9.3361,9.0897],[-9.3623,8.9933],[-9.4217,8.9287],[-9.5232,8.8721],[-9.5926,8.86],[-9.77,8.9003],[-9.98,8.943],[-10.0702,8.8882],[-10.2022,8.8723],[-10.2234,8.902],[-10.2878,8.9226],[-10.3848,9.0427],[-10.4364,9.0743],[-10.4323,9.1473],[-10.4782,9.1852],[-10.4337,9.2625],[-10.3916,9.2925],[-10.3796,9.3857],[-10.3886,9.4668],[-10.4216,9.5539],[-10.4177,9.6117],[-10.2709,9.5981],[-10.2382,9.6151],[-10.1691,9.7026],[-10.1341,9.7138],[-10.021,9.7129],[-9.9552,9.669]]]}},{"type":"Feature","id":"Koubia Prefecture","properties":{"id":"Koubia Prefecture","iso_code":"GN-KB","name":"Koubia Prefecture","name_full":"Koubia Prefecture","name_ja":"クビア県","center_lonlat":[-11.7649,11.6529]},"geometry":{"type":"Polygon","coordinates":[[[-11.4708,12.1346],[-11.4096,12.1079],[-11.3513,12.0404],[-11.344,11.7051],[-11.353,11.666],[-11.5243,11.624],[-11.5513,11.5639],[-11.6234,11.5098],[-11.8007,11.4347],[-11.9449,11.3536],[-11.9959,11.3205],[-12.0055,11.2866],[-12.0555,11.291],[-12.0681,11.3626],[-12.2994,11.678],[-12.3175,11.7278],[-12.2002,11.7291],[-12.1101,11.6901],[-12.0771,11.663],[-11.9565,11.6529],[-11.9306,11.6732],[-11.8923,11.6739],[-11.8067,11.7141],[-11.6264,11.7291],[-11.5904,11.8463],[-11.5453,11.8883],[-11.4732,12.0566],[-11.4708,12.1346]]]}},{"type":"Feature","id":"Koundara Prefecture","properties":{"id":"Koundara Prefecture","iso_code":"GN-KN","name":"Koundara Prefecture","name_full":"Koundara Prefecture","name_ja":"クンダラ県","center_lonlat":[-13.2099,12.3686]},"geometry":{"type":"Polygon","coordinates":[[[-12.5781,12.3615],[-12.7136,12.279],[-12.7901,12.2482],[-12.8277,12.1542],[-12.8948,12.0852],[-12.9602,12.0822],[-13.0181,12.0169],[-13.2111,12.0154],[-13.2642,12.0301],[-13.2768,12.0885],[-13.3021,12.0953],[-13.296,12.0665],[-13.3076,12.0652],[-13.3344,12.0908],[-13.3444,12.1201],[-13.3335,12.1859],[-13.3459,12.2169],[-13.3879,12.256],[-13.3905,12.2713],[-13.3712,12.2879],[-13.3776,12.3014],[-13.4213,12.3089],[-13.4447,12.2774],[-13.4846,12.3098],[-13.4772,12.2722],[-13.5333,12.2899],[-13.667,12.2321],[-13.6953,12.2925],[-13.6841,12.392],[-13.6607,12.4587],[-13.7346,12.5853],[-13.7283,12.6734],[-13.4048,12.6618],[-13.3386,12.6392],[-13.2841,12.6533],[-13.2547,12.6418],[-13.2215,12.6484],[-13.2019,12.6334],[-13.1547,12.6328],[-13.1453,12.6439],[-13.0765,12.6359],[-13.0593,12.6035],[-13.0827,12.5157],[-13.0667,12.4801],[-12.981,12.467],[-12.9495,12.5359],[-12.9131,12.5363],[-12.8492,12.495],[-12.8386,12.4664],[-12.7835,12.4531],[-12.7733,12.4351],[-12.6675,12.4337],[-12.6316,12.4127],[-12.5937,12.3616],[-12.5781,12.3615]]]}},{"type":"Feature","id":"Kouroussa Prefecture","properties":{"id":"Kouroussa Prefecture","iso_code":"GN-KO","name":"Kouroussa Prefecture","name_full":"Kouroussa Prefecture","name_ja":"クールーサ県","center_lonlat":[-10.0999,10.5983]},"geometry":{"type":"Polygon","coordinates":[[[-9.9552,9.669],[-10.021,9.7129],[-10.1341,9.7138],[-10.1691,9.7026],[-10.2382,9.6151],[-10.2709,9.5981],[-10.4177,9.6117],[-10.4073,9.66],[-10.414,9.7401],[-10.3663,9.7782],[-10.3707,9.8453],[-10.3384,9.8585],[-10.3227,9.8886],[-10.3538,9.9991],[-10.3277,10.0343],[-10.3199,10.0854],[-10.2913,10.0913],[-10.2108,10.184],[-10.2324,10.2542],[-10.2303,10.3195],[-10.1837,10.3216],[-10.1701,10.334],[-10.1374,10.3989],[-10.1442,10.4397],[-10.1224,10.4785],[-10.1381,10.5268],[-10.1491,10.4878],[-10.1999,10.4393],[-10.2348,10.4884],[-10.2242,10.5082],[-10.2794,10.5151],[-10.3047,10.5322],[-10.3508,10.5221],[-10.4091,10.5293],[-10.4168,10.5139],[-10.4417,10.5059],[-10.523,10.5847],[-10.5691,10.5965],[-10.5981,10.6621],[-10.6435,10.7177],[-10.6925,10.7532],[-10.8643,10.808],[-10.8963,10.8441],[-10.8906,10.8714],[-10.823,10.9089],[-10.793,10.9834],[-10.7183,11.0455],[-10.6962,11.0915],[-10.7031,11.1126],[-10.6954,11.2279],[-10.6491,11.2351],[-10.5976,11.2086],[-10.5814,11.1817],[-10.5494,11.1745],[-10.3749,11.1781],[-10.3428,11.2066],[-10.3434,11.2695],[-10.3998,11.3989],[-10.3856,11.4416],[-10.3215,11.4665],[-10.2431,11.4523],[-10.1399,11.374],[-10.0295,11.3775],[-9.959,11.3656],[-9.9259,11.3295],[-9.8748,11.3025],[-9.8418,11.1613],[-9.8328,11.0381],[-9.8087,11.0081],[-9.7697,10.987],[-9.6886,10.8729],[-9.6375,10.8638],[-9.3431,10.8668],[-9.3641,10.8248],[-9.3731,10.7497],[-9.4242,10.7226],[-9.5113,10.6025],[-9.6675,10.4372],[-9.6826,10.284],[-9.7186,10.2029],[-9.7186,10.0466],[-9.6916,10.0016],[-9.7006,9.9024],[-9.7757,9.8273],[-9.7787,9.7732],[-9.8147,9.7492],[-9.8508,9.7011],[-9.9229,9.6891],[-9.9552,9.669]]]}},{"type":"Feature","id":"Labe Prefecture","properties":{"id":"Labe Prefecture","iso_code":"GN-LA","name":"Labe Prefecture","name_full":"Labé Prefecture","name_ja":"ラベ県","center_lonlat":[-12.3346,11.4265]},"geometry":{"type":"Polygon","coordinates":[[[-12.1218,11.293],[-12.2354,11.2665],[-12.2544,11.1964],[-12.4163,11.1484],[-12.4816,11.1731],[-12.4975,11.2544],[-12.5257,11.2992],[-12.5217,11.3836],[-12.4917,11.4858],[-12.4616,11.5128],[-12.4616,11.5789],[-12.4766,11.63],[-12.5067,11.657],[-12.5006,11.7257],[-12.3175,11.7278],[-12.2994,11.678],[-12.0681,11.3626],[-12.0555,11.291],[-12.0928,11.306],[-12.1218,11.293]]]}},{"type":"Feature","id":"Lelouma Prefecture","properties":{"id":"Lelouma Prefecture","iso_code":"GN-LE","name":"Lelouma Prefecture","name_full":"Lélouma Prefecture","name_ja":"レルーマ県","center_lonlat":[-12.7229,11.4005]},"geometry":{"type":"Polygon","coordinates":[[[-12.8749,10.9861],[-12.9087,11.0705],[-12.9503,11.1169],[-12.9687,11.1685],[-12.9897,11.2562],[-12.9303,11.3854],[-12.881,11.427],[-12.8008,11.4691],[-12.7551,11.5316],[-12.7042,11.5662],[-12.7079,11.6067],[-12.7723,11.6472],[-12.8053,11.6917],[-12.8087,11.7222],[-12.5006,11.7257],[-12.5067,11.657],[-12.4766,11.63],[-12.4616,11.5789],[-12.4616,11.5128],[-12.4917,11.4858],[-12.5217,11.3836],[-12.5257,11.2992],[-12.5391,11.3154],[-12.6483,11.3135],[-12.6572,11.2726],[-12.7092,11.2535],[-12.7515,11.1911],[-12.8126,11.0001],[-12.851,11.0112],[-12.855,10.991],[-12.8749,10.9861]]]}},{"type":"Feature","id":"Lola Prefecture","properties":{"id":"Lola Prefecture","iso_code":"GN-LO","name":"Lola Prefecture","name_full":"Lola Prefecture","name_ja":"ローラ県","center_lonlat":[-8.3274,7.8746]},"geometry":{"type":"Polygon","coordinates":[[[-8.0672,8.0208],[-8.0791,7.9577],[-8.1289,7.8826],[-8.1312,7.8424],[-8.1014,7.8128],[-8.0983,7.7919],[-8.1151,7.7769],[-8.1274,7.713],[-8.1595,7.6763],[-8.158,7.6582],[-8.1979,7.6186],[-8.2002,7.5763],[-8.229,7.5443],[-8.3032,7.5893],[-8.3368,7.5978],[-8.3909,7.5858],[-8.4148,7.6129],[-8.4854,7.558],[-8.5665,7.6234],[-8.5674,7.6882],[-8.5319,7.7212],[-8.5108,7.7633],[-8.5499,7.8715],[-8.5499,7.9345],[-8.4748,8.0968],[-8.4447,8.1238],[-8.4297,8.217],[-8.3696,8.22],[-8.2795,8.1959],[-8.0672,8.0208]]]}},{"type":"Feature","id":"Macenta Prefecture","properties":{"id":"Macenta Prefecture","iso_code":"GN-MC","name":"Macenta Prefecture","name_full":"Macenta Prefecture","name_ja":"マサンタ県","center_lonlat":[-9.3264,8.4902]},"geometry":{"type":"Polygon","coordinates":[[[-9.8728,8.5004],[-9.9199,8.6917],[-9.9079,8.7547],[-9.8748,8.7878],[-9.7937,8.8269],[-9.77,8.9003],[-9.5926,8.86],[-9.5232,8.8721],[-9.4217,8.9287],[-9.3623,8.9933],[-9.3361,9.0897],[-9.2883,9.0816],[-9.2398,8.9192],[-9.1486,8.9107],[-8.9691,8.9619],[-8.9675,8.7457],[-8.9525,8.7007],[-8.9044,8.6346],[-8.8714,8.5504],[-8.8563,8.4633],[-8.9104,8.2981],[-8.9405,8.274],[-9.0096,8.1118],[-9.0525,8.0825],[-9.0694,8.0532],[-9.1088,7.9936],[-9.1759,7.9447],[-9.1943,7.9039],[-9.3026,7.8113],[-9.3289,7.7546],[-9.3678,7.7575],[-9.4387,7.8662],[-9.4484,7.9078],[-9.4241,8.0262],[-9.4515,8.0518],[-9.4742,8.0288],[-9.4598,8.0688],[-9.4814,8.1647],[-9.5301,8.1855],[-9.5254,8.2408],[-9.5092,8.2656],[-9.5394,8.3146],[-9.4991,8.3435],[-9.6002,8.4109],[-9.6195,8.3927],[-9.6773,8.3915],[-9.6759,8.4096],[-9.6451,8.4434],[-9.6505,8.4648],[-9.7033,8.4873],[-9.7221,8.4356],[-9.7463,8.4681],[-9.7736,8.563],[-9.7906,8.5654],[-9.8068,8.5063],[-9.8586,8.4871],[-9.8728,8.5004]]]}},{"type":"Feature","id":"Mali Prefecture","properties":{"id":"Mali Prefecture","iso_code":"GN-ML","name":"Mali Prefecture","name_full":"Mali Prefecture","name_ja":"マリ県","center_lonlat":[-12.1322,12.0496]},"geometry":{"type":"Polygon","coordinates":[[[-11.4708,12.1346],[-11.4732,12.0566],[-11.5453,11.8883],[-11.5904,11.8463],[-11.6264,11.7291],[-11.8067,11.7141],[-11.8923,11.6739],[-11.9306,11.6732],[-11.9565,11.6529],[-12.0771,11.663],[-12.1101,11.6901],[-12.2002,11.7291],[-12.3175,11.7278],[-12.5006,11.7257],[-12.8087,11.7222],[-12.8151,11.7884],[-12.7817,11.8998],[-12.8018,11.9277],[-12.839,11.8979],[-12.863,11.9089],[-12.8238,11.992],[-12.8074,12.0997],[-12.8277,12.1542],[-12.7901,12.2482],[-12.7136,12.279],[-12.5781,12.3615],[-12.5219,12.3869],[-12.4668,12.3845],[-12.4055,12.3565],[-12.3609,12.3056],[-12.192,12.3488],[-12.104,12.4074],[-11.9976,12.3864],[-11.9239,12.4188],[-11.8602,12.3911],[-11.7578,12.3833],[-11.6015,12.4252],[-11.4816,12.4282],[-11.3884,12.4039],[-11.3886,12.3845],[-11.4472,12.3745],[-11.4446,12.2895],[-11.5078,12.1916],[-11.4708,12.1346]]]}},{"type":"Feature","id":"Mamou Prefecture","properties":{"id":"Mamou Prefecture","iso_code":"GN-MM","name":"Mamou Prefecture","name_full":"Mamou Prefecture","name_ja":"マムー県","center_lonlat":[-11.863,10.4802]},"geometry":{"type":"Polygon","coordinates":[[[-11.5875,9.9943],[-11.9101,9.9925],[-11.9218,9.9222],[-12.1098,9.8817],[-12.1436,9.9626],[-12.124,10.0257],[-12.1255,10.0998],[-12.1863,10.1769],[-12.2364,10.2686],[-12.3269,10.2773],[-12.3857,10.264],[-12.4097,10.277],[-12.426,10.3543],[-12.4047,10.4398],[-12.3828,10.4654],[-12.4151,10.4912],[-12.2754,10.5814],[-12.1972,10.5934],[-12.1732,10.6355],[-12.029,10.7617],[-11.8607,10.7857],[-11.8217,10.8038],[-11.7796,10.8969],[-11.7856,10.969],[-11.8131,11.0025],[-11.6636,11.0308],[-11.5663,11.1339],[-11.4924,11.1777],[-11.4727,11.2451],[-11.437,11.2555],[-11.4211,11.275],[-11.355,11.2692],[-11.3062,11.3262],[-11.2492,11.2285],[-11.2492,11.1843],[-11.4231,11.0642],[-11.4895,11.0642],[-11.6029,10.9653],[-11.5892,10.8989],[-11.595,10.8192],[-11.5533,10.7957],[-11.5653,10.2424],[-11.5716,10.1886],[-11.5938,10.157],[-11.6064,10.0685],[-11.5875,9.9943]]]}},{"type":"Feature","id":"Mandiana Prefecture","properties":{"id":"Mandiana Prefecture","iso_code":"GN-MD","name":"Mandiana Prefecture","name_full":"Mandiana Prefecture","name_ja":"マンディアナ県","center_lonlat":[-8.6273,10.7318]},"geometry":{"type":"Polygon","coordinates":[[[-8.1524,9.95],[-8.2134,9.9565],[-8.3396,10.0046],[-8.3907,10.0587],[-8.4297,10.1788],[-8.4778,10.1999],[-8.6731,10.2329],[-8.7241,10.284],[-8.7482,10.3922],[-8.7842,10.4192],[-8.8984,10.4492],[-8.9465,10.5033],[-8.9645,10.6656],[-9.1598,10.6806],[-9.3731,10.7497],[-9.3641,10.8248],[-9.3431,10.8668],[-9.2379,10.954],[-9.0697,11.0171],[-8.9224,11.1312],[-8.8864,11.2304],[-8.8533,11.4287],[-8.7672,11.6101],[-8.7265,11.6495],[-8.7129,11.6401],[-8.6873,11.55],[-8.6568,11.4964],[-8.5752,11.4703],[-8.5496,11.4901],[-8.5276,11.4234],[-8.3976,11.3859],[-8.3753,11.3677],[-8.4261,11.3405],[-8.418,11.3255],[-8.371,11.3206],[-8.3884,11.2814],[-8.4926,11.2778],[-8.4988,11.2335],[-8.5518,11.2107],[-8.5782,11.1421],[-8.6246,11.122],[-8.6337,11.0713],[-8.6969,10.996],[-8.6962,10.9627],[-8.6809,10.9523],[-8.648,10.9658],[-8.5595,10.9716],[-8.5416,10.9838],[-8.5058,11.0528],[-8.4105,11.0419],[-8.3693,11.0542],[-8.3266,11.0238],[-8.3051,10.9782],[-8.3036,10.8749],[-8.3419,10.7632],[-8.3156,10.7531],[-8.3111,10.7353],[-8.2844,10.5112],[-8.2289,10.4234],[-8.189,10.4136],[-8.1354,10.4273],[-8.1155,10.3602],[-8.0961,10.3467],[-8.0157,10.3393],[-7.9963,10.3283],[-7.9712,10.2818],[-7.968,10.21],[-8.0157,10.1104],[-8.0349,10.0858],[-8.1275,10.0371],[-8.1585,9.9849],[-8.1363,9.9694],[-8.1524,9.95]]]}},{"type":"Feature","id":"Nzerekore Prefecture","properties":{"id":"Nzerekore Prefecture","iso_code":"GN-NZ","name":"Nzerekore Prefecture","name_full":"Nzérékoré Prefecture","name_ja":"ンゼレコレ県","center_lonlat":[-8.7398,8.0146]},"geometry":{"type":"Polygon","coordinates":[[[-8.5674,7.6882],[-8.6866,7.6944],[-8.7276,7.622],[-8.8085,7.6335],[-8.8845,7.666],[-8.9822,7.8885],[-8.9931,7.9645],[-9.0148,8.0134],[-9.0694,8.0532],[-9.0525,8.0825],[-9.0096,8.1118],[-8.9405,8.274],[-8.9104,8.2981],[-8.8233,8.3191],[-8.7362,8.3582],[-8.652,8.3642],[-8.5889,8.3492],[-8.5499,8.3071],[-8.5379,8.271],[-8.4778,8.265],[-8.4297,8.217],[-8.4447,8.1238],[-8.4748,8.0968],[-8.5499,7.9345],[-8.5499,7.8715],[-8.5108,7.7633],[-8.5319,7.7212],[-8.5674,7.6882]]]}},{"type":"Feature","id":"Pita Prefecture","properties":{"id":"Pita Prefecture","iso_code":"GN-PI","name":"Pita Prefecture","name_full":"Pita Prefecture","name_ja":"ピタ県","center_lonlat":[-12.6242,10.9283]},"geometry":{"type":"Polygon","coordinates":[[[-12.1218,11.293],[-12.1552,11.2184],[-12.1582,11.1703],[-12.1822,11.1342],[-12.1732,11.0952],[-12.1462,11.0742],[-12.1341,11.0321],[-12.2573,11.0291],[-12.3384,10.987],[-12.3835,10.954],[-12.4406,10.8368],[-12.4947,10.8248],[-12.6179,10.7317],[-12.6449,10.6746],[-12.6495,10.5287],[-12.714,10.4715],[-12.8128,10.5241],[-12.8373,10.5196],[-12.8518,10.4826],[-12.896,10.4699],[-12.9213,10.5426],[-12.9631,10.5847],[-12.9616,10.6065],[-12.9327,10.6467],[-12.941,10.6598],[-12.9212,10.7238],[-12.9474,10.7517],[-12.9612,10.813],[-12.9474,10.8344],[-12.9535,10.8848],[-12.9308,10.9117],[-12.9226,10.9542],[-12.8749,10.9861],[-12.855,10.991],[-12.851,11.0112],[-12.8126,11.0001],[-12.7515,11.1911],[-12.7092,11.2535],[-12.6572,11.2726],[-12.6483,11.3135],[-12.5391,11.3154],[-12.5257,11.2992],[-12.4975,11.2544],[-12.4816,11.1731],[-12.4163,11.1484],[-12.2544,11.1964],[-12.2354,11.2665],[-12.1218,11.293]]]}},{"type":"Feature","id":"Siguiri Prefecture","properties":{"id":"Siguiri Prefecture","iso_code":"GN-SI","name":"Siguiri Prefecture","name_full":"Siguiri Prefecture","name_ja":"シギリ県","center_lonlat":[-9.4062,11.6294]},"geometry":{"type":"Polygon","coordinates":[[[-8.7265,11.6495],[-8.7672,11.6101],[-8.8533,11.4287],[-8.8864,11.2304],[-8.9224,11.1312],[-9.0697,11.0171],[-9.2379,10.954],[-9.3431,10.8668],[-9.6375,10.8638],[-9.6886,10.8729],[-9.7697,10.987],[-9.8087,11.0081],[-9.8328,11.0381],[-9.8418,11.1613],[-9.8748,11.3025],[-9.9259,11.3295],[-9.959,11.3656],[-10.0295,11.3775],[-10.0259,11.5449],[-10.0651,11.641],[-10.1505,11.7265],[-10.2077,11.8149],[-10.1833,11.8448],[-10.0829,11.8974],[-9.9939,11.9651],[-9.9547,12.0185],[-9.8888,12.0606],[-9.8337,12.0551],[-9.7786,12.0267],[-9.723,12.0254],[-9.6863,12.0682],[-9.6751,12.134],[-9.6282,12.1702],[-9.5156,12.2071],[-9.4389,12.2548],[-9.3602,12.2466],[-9.3368,12.2698],[-9.335,12.3065],[-9.3129,12.3261],[-9.3092,12.3577],[-9.3392,12.3706],[-9.3472,12.3965],[-9.4073,12.4451],[-9.4126,12.4554],[-9.3982,12.4732],[-9.3273,12.4975],[-9.2941,12.4838],[-9.2659,12.4952],[-9.1473,12.4655],[-8.9759,12.3687],[-8.9631,12.3242],[-8.9959,12.261],[-8.9943,12.2248],[-8.9738,12.1876],[-8.942,12.1958],[-8.9139,12.1699],[-8.907,12.1254],[-8.9221,12.0454],[-8.9037,12.0304],[-8.838,12.0282],[-8.8198,12.0127],[-8.8149,11.9554],[-8.7978,11.9251],[-8.8472,11.6579],[-8.7772,11.6359],[-8.7265,11.6495]]]}},{"type":"Feature","id":"Telimele Prefecture","properties":{"id":"Telimele Prefecture","iso_code":"GN-TE","name":"Telimele Prefecture","name_full":"Télimélé Prefecture","name_ja":"テリメレ県","center_lonlat":[-13.3988,10.9187]},"geometry":{"type":"Polygon","coordinates":[[[-12.9687,11.1685],[-12.9503,11.1169],[-12.9087,11.0705],[-12.8749,10.9861],[-12.9226,10.9542],[-12.9308,10.9117],[-12.9535,10.8848],[-12.9474,10.8344],[-12.9612,10.813],[-12.9474,10.7517],[-12.9212,10.7238],[-12.941,10.6598],[-12.9327,10.6467],[-12.9616,10.6065],[-12.9631,10.5847],[-12.9213,10.5426],[-12.896,10.4699],[-13.1346,10.4042],[-13.2121,10.3972],[-13.2184,10.4763],[-13.1963,10.5142],[-13.2089,10.5964],[-13.4049,10.7007],[-13.6124,10.7148],[-13.8,10.7408],[-13.8421,10.7222],[-13.8506,10.6912],[-13.9158,10.6665],[-13.928,10.6752],[-13.9865,10.6469],[-14.0307,10.6406],[-14.0497,10.6691],[-14.1445,10.6691],[-13.9897,10.8619],[-13.9305,10.8577],[-13.8601,10.8899],[-13.8166,11.0368],[-13.7724,11.0737],[-13.76,11.1185],[-13.7602,11.1645],[-13.7818,11.1856],[-13.7841,11.2209],[-13.8441,11.2718],[-13.8066,11.292],[-13.745,11.3225],[-13.6386,11.3214],[-13.5511,11.3642],[-13.3954,11.3613],[-13.2642,11.331],[-13.2457,11.1424],[-13.2337,11.1303],[-13.1761,11.1327],[-13.0405,11.1717],[-12.9687,11.1685]]]}},{"type":"Feature","id":"Tougue Prefecture","properties":{"id":"Tougue Prefecture","iso_code":"GN-TO","name":"Tougue Prefecture","name_full":"Tougué Prefecture","name_ja":"トゥゲ県","center_lonlat":[-11.5162,11.4422]},"geometry":{"type":"Polygon","coordinates":[[[-11.3513,12.0404],[-11.275,11.9963],[-11.1846,12.0211],[-11.1659,11.9351],[-11.1193,11.8911],[-11.1193,11.7875],[-11.1309,11.7653],[-11.1391,11.6576],[-11.2158,11.5619],[-11.2182,11.5444],[-11.1956,11.518],[-11.1324,11.483],[-11.1958,11.4246],[-11.2507,11.4002],[-11.3062,11.3262],[-11.355,11.2692],[-11.4211,11.275],[-11.437,11.2555],[-11.4727,11.2451],[-11.4924,11.1777],[-11.5663,11.1339],[-11.6636,11.0308],[-11.8131,11.0025],[-11.867,10.9995],[-11.8968,11.0176],[-11.9089,11.068],[-11.9048,11.1586],[-11.9284,11.1906],[-11.9774,11.2158],[-12.0055,11.2866],[-11.9959,11.3205],[-11.9449,11.3536],[-11.8007,11.4347],[-11.6234,11.5098],[-11.5513,11.5639],[-11.5243,11.624],[-11.353,11.666],[-11.344,11.7051],[-11.3513,12.0404]]]}},{"type":"Feature","id":"Yomou Prefecture","properties":{"id":"Yomou Prefecture","iso_code":"GN-YO","name":"Yomou Prefecture","name_full":"Yomou Prefecture","name_ja":"ヨムー県","center_lonlat":[-9.0882,7.5833]},"geometry":{"type":"Polygon","coordinates":[[[-9.3678,7.7575],[-9.3289,7.7546],[-9.3026,7.8113],[-9.1943,7.9039],[-9.1759,7.9447],[-9.1088,7.9936],[-9.0694,8.0532],[-9.0148,8.0134],[-8.9931,7.9645],[-8.9822,7.8885],[-8.8845,7.666],[-8.8085,7.6335],[-8.7276,7.622],[-8.7392,7.5657],[-8.7268,7.5518],[-8.7296,7.5087],[-8.7904,7.4508],[-8.7992,7.4122],[-8.8334,7.3939],[-8.8606,7.3576],[-8.8578,7.273],[-8.9254,7.2486],[-8.9572,7.2865],[-8.9626,7.263],[-8.9777,7.2662],[-8.981,7.2506],[-9.0329,7.2403],[-9.1254,7.1902],[-9.1196,7.238],[-9.1469,7.2541],[-9.1531,7.2755],[-9.1815,7.2757],[-9.2063,7.2984],[-9.2343,7.3813],[-9.2995,7.3766],[-9.3194,7.412],[-9.3492,7.4216],[-9.3752,7.4193],[-9.4074,7.3781],[-9.4381,7.4216],[-9.4907,7.376],[-9.4735,7.3956],[-9.4662,7.4334],[-9.4134,7.4923],[-9.4087,7.5274],[-9.3535,7.6224],[-9.3747,7.6469],[-9.3762,7.6806],[-9.3555,7.7419],[-9.3678,7.7575]]]}}]}
