{"type":"FeatureCollection","features":[{"type":"Feature","id":"Barima-Waini","properties":{"id":"Barima-Waini","iso_code":"GY-BA","name":"Barima-Waini","name_full":"Barima-Waini","name_ja":"バリマ・ワイニ州","center_lonlat":[-59.7451,7.6196]},"geometry":{"type":"Polygon","coordinates":[[[-58.7807,7.6651],[-58.8676,7.5691],[-59.0254,7.4981],[-59.0962,7.4214],[-59.1004,7.3943],[-59.0723,7.3253],[-59.1188,7.2799],[-59.1767,7.097],[-59.1544,6.9843],[-59.2686,7.0184],[-59.2888,7.0048],[-59.2975,6.9765],[-59.3418,6.9506],[-59.4373,6.988],[-59.4727,6.9877],[-59.5761,7.0857],[-59.6866,7.1138],[-59.8317,7.1924],[-59.8979,7.178],[-59.9577,7.1018],[-60.0311,7.1132],[-60.0877,7.0681],[-60.1721,7.0955],[-60.2045,7.0927],[-60.3027,7.1516],[-60.3483,7.1527],[-60.372,7.1723],[-60.4753,7.1885],[-60.5129,7.1652],[-60.5349,7.1258],[-60.548,7.1255],[-60.6176,7.1804],[-60.6431,7.2209],[-60.6436,7.2507],[-60.6022,7.3065],[-60.6018,7.3301],[-60.629,7.3844],[-60.6532,7.3985],[-60.6606,7.4361],[-60.7007,7.4535],[-60.7306,7.5254],[-60.7165,7.5516],[-60.6711,7.5661],[-60.6317,7.6246],[-60.6013,7.6338],[-60.5845,7.6885],[-60.587,7.7271],[-60.5258,7.8134],[-60.3748,7.8236],[-60.2311,7.9641],[-60.1831,7.9827],[-60.1292,8.0288],[-60.0296,8.0428],[-59.9993,8.1154],[-60.0007,8.1529],[-59.9571,8.2001],[-59.8485,8.2277],[-59.8293,8.2451],[-59.8156,8.2878],[-60.021,8.558],[-59.9325,8.4918],[-59.8378,8.3693],[-59.6222,8.2675],[-59.6099,8.2421],[-59.5434,8.2295],[-59.4337,8.1303],[-59.4917,8.2013],[-59.7613,8.3555],[-59.7795,8.4071],[-59.7558,8.4109],[-59.6632,8.3635],[-59.1652,8.0587],[-59.0214,7.931],[-58.8848,7.7787],[-58.8334,7.7383],[-58.7807,7.6651]]]}},{"type":"Feature","id":"Cuyuni-Mazaruni","properties":{"id":"Cuyuni-Mazaruni","iso_code":"GY-CU","name":"Cuyuni-Mazaruni","name_full":"Cuyuni-Mazaruni","name_ja":"クユニ＝マザルニ州","center_lonlat":[-58.8195,7.1774]},"geometry":{"type":"Polygon","coordinates":[[[-58.7807,7.6651],[-58.7376,7.5883],[-58.742,7.6303],[-58.7034,7.621],[-58.6632,7.5852],[-58.5682,7.4533],[-58.4716,7.3454],[-58.4674,7.1161],[-58.485,7.0108],[-58.5196,6.9776],[-58.6252,6.921],[-58.6489,6.8419],[-58.7058,6.8233],[-58.7516,6.7617],[-58.8336,6.714],[-58.8544,6.7676],[-58.8948,6.7598],[-58.9367,6.7709],[-58.9649,6.8538],[-59.0031,6.8617],[-59.0333,6.8345],[-59.0642,6.8321],[-59.1733,6.8718],[-59.1544,6.9843],[-59.1767,7.097],[-59.1188,7.2799],[-59.0723,7.3253],[-59.1004,7.3943],[-59.0962,7.4214],[-59.0254,7.4981],[-58.8676,7.5691],[-58.7807,7.6651]]]}},{"type":"Feature","id":"Demerara-Mahaica","properties":{"id":"Demerara-Mahaica","iso_code":"GY-DE","name":"Demerara-Mahaica","name_full":"Demerara-Mahaica","name_ja":"デメララ・マハイカ州","center_lonlat":[-58.3739,6.5614]},"geometry":{"type":"MultiPolygon","coordinates":[[[[-58.5812,6.4634],[-58.567,6.6367],[-58.4349,6.8578],[-58.3984,6.8834],[-58.3122,6.8922],[-58.2141,6.8492],[-58.1737,6.8154],[-58.1907,6.7396],[-58.1777,6.6724],[-58.2416,6.5423],[-58.303,6.469],[-58.2902,6.4137],[-58.3044,6.3526],[-58.2657,6.2903],[-58.2887,6.2284],[-58.2573,6.1449],[-58.2747,6.1059],[-58.3638,6.1298],[-58.4013,6.2719],[-58.4909,6.3503],[-58.5598,6.4514],[-58.5812,6.4634]]],[[[-58.5196,6.9776],[-58.5616,6.9272],[-58.5977,6.8083],[-58.617,6.4881],[-58.6694,6.4941],[-58.7391,6.5294],[-58.8186,6.5385],[-58.8271,6.556],[-58.814,6.6693],[-58.8336,6.714],[-58.7516,6.7617],[-58.7058,6.8233],[-58.6489,6.8419],[-58.6252,6.921],[-58.5196,6.9776]]],[[[-58.3786,6.9721],[-58.3336,6.9653],[-58.4605,6.8834],[-58.447,6.9431],[-58.4189,6.9721],[-58.3786,6.9721]]]]}},{"type":"Feature","id":"East Berbice-Corentyne","properties":{"id":"East Berbice-Corentyne","iso_code":"GY-EB","name":"East Berbice-Corentyne","name_full":"East Berbice-Corentyne","name_ja":"東ベルビセ＝コレンティネ州","center_lonlat":[-58.1156,6.4934]},"geometry":{"type":"Polygon","coordinates":[[[-58.1737,6.8154],[-58.1537,6.8322],[-58.0679,6.8217],[-58.0057,6.7918],[-57.9139,6.7128],[-57.913,6.6561],[-57.8828,6.5376],[-57.9335,6.5327],[-57.9366,6.4516],[-58.0042,6.4309],[-58.0791,6.3444],[-58.1348,6.1958],[-58.1252,6.0799],[-58.1799,6.1151],[-58.243,6.0947],[-58.2747,6.1059],[-58.2573,6.1449],[-58.2887,6.2284],[-58.2657,6.2903],[-58.3044,6.3526],[-58.2902,6.4137],[-58.303,6.469],[-58.2416,6.5423],[-58.1777,6.6724],[-58.1907,6.7396],[-58.1737,6.8154]]]}},{"type":"Feature","id":"Mahaica-Berbice","properties":{"id":"Mahaica-Berbice","iso_code":"GY-MA","name":"Mahaica-Berbice","name_full":"Mahaica-Berbice","name_ja":"マハイカ＝ベルビセ州","center_lonlat":[-57.6613,3.3894]},"geometry":{"type":"Polygon","coordinates":[[[-58.5018,1.4538],[-58.4853,1.5366],[-58.3957,1.6468],[-58.3452,1.7654],[-58.2671,1.8971],[-58.108,2.3416],[-58.0268,2.5088],[-58.0264,2.743],[-57.9289,2.8857],[-57.9951,3.0537],[-58.1005,3.2044],[-58.1195,3.2911],[-58.1146,3.3554],[-58.1516,3.5344],[-58.1891,3.6145],[-58.2901,3.7686],[-58.3292,3.9187],[-58.3239,3.9999],[-58.3644,4.1388],[-58.4399,4.2512],[-58.3784,4.4475],[-58.2822,4.6343],[-58.1147,4.6379],[-58.066,4.654],[-57.9955,4.8707],[-57.8724,5.0148],[-57.8232,5.1436],[-57.7701,5.2232],[-57.7303,5.3138],[-57.6984,5.3473],[-57.6799,5.4797],[-57.606,5.7562],[-57.6076,5.7738],[-57.6523,5.8088],[-57.683,5.875],[-57.6841,5.9566],[-57.7065,6.008],[-57.6731,6.0278],[-57.6436,6.0112],[-57.6235,6.0214],[-57.5974,6.0801],[-57.6186,6.1062],[-57.6254,6.1659],[-57.6055,6.1838],[-57.5293,6.2025],[-57.5204,6.278],[-57.517,6.3151],[-57.4906,6.3389],[-57.4088,6.3128],[-57.2898,6.2347],[-57.2075,6.1514],[-57.1673,6.0851],[-57.1436,5.978],[-57.1658,6.0057],[-57.142,5.9557],[-57.1373,5.8821],[-57.1831,5.7314],[-57.1596,5.6929],[-57.1615,5.6389],[-57.2477,5.4918],[-57.2652,5.4034],[-57.3357,5.3169],[-57.3317,5.3076],[-57.2888,5.3085],[-57.2805,5.2253],[-57.2538,5.2349],[-57.2674,5.2663],[-57.2376,5.2687],[-57.1849,5.1831],[-57.202,5.1576],[-57.2333,5.1421],[-57.2473,5.1724],[-57.289,5.171],[-57.3214,5.0702],[-57.2805,5.0261],[-57.2905,5.0203],[-57.3294,5.0241],[-57.4903,4.9913],[-57.5176,5.0124],[-57.6101,4.9913],[-57.6494,5.0084],[-57.6869,5.0063],[-57.7205,4.9898],[-57.774,4.9264],[-57.8428,4.9299],[-57.9024,4.8527],[-57.9254,4.7961],[-57.8845,4.7629],[-57.836,4.6698],[-57.8374,4.6509],[-57.9219,4.4509],[-57.9527,4.4097],[-57.9453,4.3439],[-57.9538,4.299],[-58.0659,4.1718],[-58.042,4.023],[-58.0321,3.9877],[-57.9421,3.9054],[-57.8751,3.8122],[-57.8298,3.6624],[-57.7261,3.6072],[-57.7029,3.5557],[-57.644,3.5167],[-57.6646,3.4175],[-57.6499,3.3859],[-57.5542,3.3467],[-57.5353,3.3678],[-57.5224,3.3652],[-57.4763,3.3389],[-57.4309,3.3606],[-57.425,3.3875],[-57.3668,3.3656],[-57.3084,3.3949],[-57.2805,3.3298],[-57.2925,3.2763],[-57.2749,3.169],[-57.286,3.1424],[-57.2649,3.1326],[-57.2333,3.1417],[-57.2486,3.1124],[-57.2222,3.0783],[-57.206,3.0281],[-57.2265,3.0213],[-57.2212,2.9926],[-57.2346,2.9704],[-57.1886,2.9595],[-57.1838,2.9447],[-57.2196,2.9083],[-57.2023,2.8462],[-57.1746,2.819],[-57.1264,2.826],[-57.1437,2.79],[-57.1371,2.7712],[-57.0899,2.7739],[-57.1029,2.7405],[-57.062,2.6818],[-57.056,2.6424],[-57.0272,2.6482],[-57.0205,2.6354],[-57.0272,2.5936],[-56.9971,2.5551],[-57.0006,2.5142],[-56.9941,2.5049],[-56.9596,2.5247],[-56.9513,2.5155],[-56.9596,2.4838],[-56.9302,2.4362],[-56.9308,2.3933],[-56.895,2.3621],[-56.8801,2.2948],[-56.8389,2.2811],[-56.8262,2.2617],[-56.8015,2.166],[-56.7052,2.0296],[-56.6778,2.0184],[-56.5798,2.0168],[-56.5,1.97],[-56.4818,1.9416],[-56.5749,1.9055],[-56.6396,1.9369],[-56.684,1.9121],[-56.7376,1.913],[-56.7806,1.8791],[-56.8065,1.8736],[-56.8907,1.8902],[-56.9219,1.9181],[-57.0112,1.9186],[-57.056,1.9481],[-57.0741,1.9972],[-57.1045,2.0215],[-57.2384,1.9485],[-57.3194,1.9771],[-57.4295,1.9003],[-57.4648,1.8157],[-57.5612,1.709],[-57.6386,1.6962],[-57.7588,1.7135],[-57.9222,1.6425],[-57.985,1.6577],[-57.987,1.5868],[-58.0112,1.5362],[-58.0272,1.5169],[-58.0691,1.509],[-58.1486,1.5191],[-58.1873,1.5676],[-58.2197,1.5561],[-58.282,1.5666],[-58.3205,1.6012],[-58.3514,1.5533],[-58.3903,1.5308],[-58.3864,1.4902],[-58.4135,1.472],[-58.5018,1.4538]]]}},{"type":"Feature","id":"Mahaica-Berbice (GY-ES)","properties":{"id":"Mahaica-Berbice (GY-ES)","iso_code":"GY-ES","name":"Mahaica-Berbice (GY-ES)","name_full":"Mahaica-Berbice","name_ja":"マハイカ＝ベルビセ州","center_lonlat":[-57.8403,6.2208]},"geometry":{"type":"Polygon","coordinates":[[[-57.9139,6.7128],[-57.5986,6.4272],[-57.5289,6.2657],[-57.5204,6.278],[-57.5293,6.2025],[-57.6055,6.1838],[-57.6254,6.1659],[-57.6186,6.1062],[-57.5974,6.0801],[-57.6235,6.0214],[-57.6436,6.0112],[-57.6731,6.0278],[-57.7065,6.008],[-57.6841,5.9566],[-57.683,5.875],[-57.7975,5.8627],[-57.836,5.8395],[-57.8707,5.8645],[-57.9029,5.8658],[-57.9509,5.9295],[-58.115,5.9715],[-58.1261,5.9892],[-58.1136,6.0298],[-58.1252,6.0799],[-58.1348,6.1958],[-58.0791,6.3444],[-58.0042,6.4309],[-57.9366,6.4516],[-57.9335,6.5327],[-57.8828,6.5376],[-57.913,6.6561],[-57.9139,6.7128]]]}},{"type":"Feature","id":"Pomeroon-Supenaam","properties":{"id":"Pomeroon-Supenaam","iso_code":"GY-PM","name":"Pomeroon-Supenaam","name_full":"Pomeroon-Supenaam","name_ja":"ポメローン＝スペナーム州","center_lonlat":[-59.9495,6.1554]},"geometry":{"type":"Polygon","coordinates":[[[-60.3483,7.1527],[-60.3027,7.1516],[-60.2045,7.0927],[-60.1721,7.0955],[-60.0877,7.0681],[-60.0311,7.1132],[-59.9577,7.1018],[-59.8979,7.178],[-59.8317,7.1924],[-59.6866,7.1138],[-59.5761,7.0857],[-59.4727,6.9877],[-59.4373,6.988],[-59.3418,6.9506],[-59.2975,6.9765],[-59.2888,7.0048],[-59.2686,7.0184],[-59.1544,6.9843],[-59.1733,6.8718],[-59.0642,6.8321],[-59.0333,6.8345],[-59.0031,6.8617],[-58.9649,6.8538],[-58.9367,6.7709],[-58.8948,6.7598],[-58.8544,6.7676],[-58.8336,6.714],[-58.814,6.6693],[-58.8271,6.556],[-58.8186,6.5385],[-58.7391,6.5294],[-58.6694,6.4941],[-58.617,6.4881],[-58.6864,6.3825],[-58.6796,6.3762],[-58.6289,6.4233],[-58.602,6.4166],[-58.5976,6.3416],[-58.5702,6.2764],[-58.5829,6.2351],[-58.5702,6.2084],[-58.5845,6.0749],[-58.5702,6.0194],[-58.5703,5.9375],[-58.6153,5.8194],[-58.6227,5.5811],[-58.6528,5.4993],[-58.693,5.4376],[-58.8447,5.415],[-58.8814,5.4669],[-58.9593,5.4792],[-59.0048,5.5278],[-59.0679,5.5109],[-59.0987,5.5188],[-59.1034,5.5777],[-59.1928,5.6919],[-59.232,5.7076],[-59.2862,5.676],[-59.3609,5.5912],[-59.4025,5.5858],[-59.4985,5.611],[-59.5511,5.5785],[-59.5881,5.5363],[-59.5732,5.4052],[-59.5838,5.3862],[-59.839,5.3964],[-59.929,5.3688],[-59.9914,5.2429],[-60.0887,5.1554],[-60.1317,5.2434],[-60.1766,5.2271],[-60.2134,5.2672],[-60.2737,5.2474],[-60.3331,5.1938],[-60.4198,5.2072],[-60.449,5.1742],[-60.4775,5.1919],[-60.5683,5.1897],[-60.6136,5.2089],[-60.7399,5.2021],[-61.3796,5.9053],[-61.3967,5.9456],[-61.3381,5.9868],[-61.2694,6.1072],[-61.1945,6.1329],[-61.1611,6.1829],[-61.1216,6.1867],[-61.1148,6.264],[-61.1467,6.2942],[-61.1609,6.3424],[-61.1398,6.4413],[-61.1709,6.5092],[-61.2097,6.541],[-61.212,6.5614],[-61.1902,6.6329],[-61.1298,6.7158],[-61.0704,6.7119],[-61.0612,6.7301],[-61.0187,6.7204],[-61.0003,6.7344],[-60.9338,6.7317],[-60.8995,6.7686],[-60.9076,6.8152],[-60.8376,6.7864],[-60.7731,6.7884],[-60.7215,6.7597],[-60.7003,6.7671],[-60.6395,6.8377],[-60.5487,6.8631],[-60.421,6.9422],[-60.3942,6.9485],[-60.3773,6.9385],[-60.3597,7.0049],[-60.3134,7.0402],[-60.2916,7.0883],[-60.2999,7.121],[-60.3483,7.1527]]]}},{"type":"Feature","id":"Potaro-Siparuni","properties":{"id":"Potaro-Siparuni","iso_code":"GY-PT","name":"Potaro-Siparuni","name_full":"Potaro-Siparuni","name_ja":"ポタ＝シパルニ州","center_lonlat":[-59.2789,4.8222]},"geometry":{"type":"Polygon","coordinates":[[[-60.0887,5.1554],[-59.9914,5.2429],[-59.929,5.3688],[-59.839,5.3964],[-59.5838,5.3862],[-59.5732,5.4052],[-59.5881,5.5363],[-59.5511,5.5785],[-59.4985,5.611],[-59.4025,5.5858],[-59.3609,5.5912],[-59.2862,5.676],[-59.232,5.7076],[-59.1928,5.6919],[-59.1034,5.5777],[-59.0987,5.5188],[-59.0679,5.5109],[-59.0048,5.5278],[-58.9593,5.4792],[-58.8814,5.4669],[-58.8447,5.415],[-58.859,5.4087],[-58.8849,5.3267],[-58.8206,5.2291],[-58.844,4.9717],[-58.8196,4.9081],[-58.7943,4.7659],[-58.7807,4.7489],[-58.7351,4.7622],[-58.6821,4.6709],[-58.5678,4.6212],[-58.3704,4.615],[-58.2822,4.6343],[-58.3784,4.4475],[-58.4399,4.2512],[-58.5324,4.2876],[-58.5979,4.2729],[-58.8537,4.0186],[-58.8806,4.0006],[-58.9249,3.9999],[-58.9548,4.0166],[-59.0231,4.1045],[-59.0553,4.1829],[-59.0817,4.1846],[-59.148,4.1558],[-59.2492,4.1501],[-59.3847,4.1546],[-59.4622,4.191],[-59.473,4.219],[-59.4462,4.2636],[-59.4547,4.3581],[-59.4353,4.4176],[-59.4663,4.501],[-59.488,4.509],[-59.5328,4.4895],[-59.6084,4.3767],[-59.6871,4.3715],[-59.6905,4.3845],[-59.7135,4.3894],[-59.8096,4.4657],[-59.8262,4.4546],[-59.8676,4.462],[-59.8729,4.4847],[-59.9146,4.4744],[-59.9531,4.5059],[-59.9746,4.5037],[-59.9846,4.4888],[-60.0207,4.4989],[-60.0556,4.4916],[-60.0878,4.5255],[-60.1209,4.5024],[-60.16,4.5278],[-60.1615,4.5652],[-60.1348,4.5935],[-60.0877,4.6075],[-60.0325,4.7254],[-60.0345,4.7878],[-59.9815,5.0574],[-59.9831,5.0859],[-60.0887,5.1554]]]}},{"type":"Feature","id":"Upper Demerara-Berbice","properties":{"id":"Upper Demerara-Berbice","iso_code":"GY-UD","name":"Upper Demerara-Berbice","name_full":"Upper Demerara-Berbice","name_ja":"アッパー・デメララ＝ベルビセ州","center_lonlat":[-58.9833,2.8146]},"geometry":{"type":"Polygon","coordinates":[[[-59.6871,4.3715],[-59.6084,4.3767],[-59.5328,4.4895],[-59.488,4.509],[-59.4663,4.501],[-59.4353,4.4176],[-59.4547,4.3581],[-59.4462,4.2636],[-59.473,4.219],[-59.4622,4.191],[-59.3847,4.1546],[-59.2492,4.1501],[-59.148,4.1558],[-59.0817,4.1846],[-59.0553,4.1829],[-59.0231,4.1045],[-58.9548,4.0166],[-58.9249,3.9999],[-58.8806,4.0006],[-58.8537,4.0186],[-58.5979,4.2729],[-58.5324,4.2876],[-58.4399,4.2512],[-58.3644,4.1388],[-58.3239,3.9999],[-58.3292,3.9187],[-58.2901,3.7686],[-58.1891,3.6145],[-58.1516,3.5344],[-58.1146,3.3554],[-58.1195,3.2911],[-58.1005,3.2044],[-57.9951,3.0537],[-57.9289,2.8857],[-58.0264,2.743],[-58.0268,2.5088],[-58.108,2.3416],[-58.2671,1.8971],[-58.3452,1.7654],[-58.3957,1.6468],[-58.4853,1.5366],[-58.5018,1.4538],[-58.5137,1.4389],[-58.4811,1.3339],[-58.5189,1.2673],[-58.557,1.2869],[-58.5805,1.2727],[-58.6977,1.2811],[-58.7719,1.2013],[-58.852,1.1887],[-58.8979,1.2178],[-58.9275,1.2842],[-58.9665,1.3102],[-59.178,1.3571],[-59.2599,1.3874],[-59.2938,1.4521],[-59.3203,1.4735],[-59.3386,1.5246],[-59.3802,1.5233],[-59.3946,1.5494],[-59.4168,1.5553],[-59.5307,1.7031],[-59.5727,1.7272],[-59.6397,1.7218],[-59.6808,1.7574],[-59.6465,1.84],[-59.7056,1.8574],[-59.7497,1.8513],[-59.7588,1.8621],[-59.7645,1.9205],[-59.7438,1.9618],[-59.7371,2.0304],[-59.753,2.0755],[-59.7354,2.1135],[-59.7417,2.2638],[-59.7632,2.288],[-59.8012,2.2927],[-59.9031,2.3596],[-59.9134,2.3787],[-59.9015,2.4045],[-59.9068,2.4588],[-59.9407,2.563],[-59.971,2.5926],[-59.965,2.6134],[-60.0001,2.694],[-59.9937,2.8573],[-59.973,2.9393],[-59.9692,3.0427],[-59.9327,3.11],[-59.9116,3.1264],[-59.9216,3.1501],[-59.9032,3.1587],[-59.9167,3.1942],[-59.8432,3.349],[-59.8218,3.3566],[-59.824,3.4317],[-59.8414,3.4254],[-59.8214,3.4844],[-59.863,3.5524],[-59.8629,3.5817],[-59.8377,3.6093],[-59.7555,3.6381],[-59.6862,3.6902],[-59.6718,3.7562],[-59.5986,3.8024],[-59.6025,3.8557],[-59.5818,3.8992],[-59.5277,3.9395],[-59.5368,3.9577],[-59.5963,3.9706],[-59.5954,3.9964],[-59.6633,4.0797],[-59.6462,4.134],[-59.7267,4.1765],[-59.7385,4.2028],[-59.7245,4.2641],[-59.7385,4.2866],[-59.6936,4.3407],[-59.6871,4.3715]]]}},{"type":"Feature","id":"Upper Takutu-Upper Essequibo","properties":{"id":"Upper Takutu-Upper Essequibo","iso_code":"GY-UT","name":"Upper Takutu-Upper Essequibo","name_full":"Upper Takutu-Upper Essequibo","name_ja":"アッパー・タクトゥ＝アッパー・エセキボ州","center_lonlat":[-58.2797,5.383]},"geometry":{"type":"Polygon","coordinates":[[[-58.602,6.4166],[-58.5902,6.4172],[-58.5977,6.4234],[-58.5812,6.4634],[-58.5598,6.4514],[-58.4909,6.3503],[-58.4013,6.2719],[-58.3638,6.1298],[-58.2747,6.1059],[-58.243,6.0947],[-58.1799,6.1151],[-58.1252,6.0799],[-58.1136,6.0298],[-58.1261,5.9892],[-58.115,5.9715],[-57.9509,5.9295],[-57.9029,5.8658],[-57.8707,5.8645],[-57.836,5.8395],[-57.7975,5.8627],[-57.683,5.875],[-57.6523,5.8088],[-57.6076,5.7738],[-57.606,5.7562],[-57.6799,5.4797],[-57.6984,5.3473],[-57.7303,5.3138],[-57.7701,5.2232],[-57.8232,5.1436],[-57.8724,5.0148],[-57.9955,4.8707],[-58.066,4.654],[-58.1147,4.6379],[-58.2822,4.6343],[-58.3704,4.615],[-58.5678,4.6212],[-58.6821,4.6709],[-58.7351,4.7622],[-58.7807,4.7489],[-58.7943,4.7659],[-58.8196,4.9081],[-58.844,4.9717],[-58.8206,5.2291],[-58.8849,5.3267],[-58.859,5.4087],[-58.8447,5.415],[-58.693,5.4376],[-58.6528,5.4993],[-58.6227,5.5811],[-58.6153,5.8194],[-58.5703,5.9375],[-58.5702,6.0194],[-58.5845,6.0749],[-58.5702,6.2084],[-58.5829,6.2351],[-58.5702,6.2764],[-58.5976,6.3416],[-58.602,6.4166]]]}}]}
