{"type":"FeatureCollection","features":[{"type":"Feature","id":"Atlantida","properties":{"id":"Atlantida","iso_code":"HN-AT","name":"Atlantida","name_full":"Atlántida","name_ja":"アトランティダ県","center_lonlat":[-87.1495,15.669]},"geometry":{"type":"Polygon","coordinates":[[[-87.7284,15.921],[-87.626,15.8877],[-87.6363,15.9035],[-87.5913,15.9355],[-87.6173,15.8946],[-87.5096,15.7987],[-87.4794,15.786],[-87.4473,15.7921],[-87.4268,15.8188],[-87.3912,15.8184],[-87.38,15.8395],[-87.3451,15.8503],[-87.1517,15.7969],[-86.9169,15.7604],[-86.7996,15.7846],[-86.7707,15.8065],[-86.6991,15.7886],[-86.5038,15.8051],[-86.4379,15.7908],[-86.4472,15.7791],[-86.4383,15.7419],[-86.3943,15.6844],[-86.3635,15.6722],[-86.366,15.6136],[-86.4209,15.5828],[-86.4704,15.5965],[-86.5177,15.588],[-86.6363,15.6046],[-86.7789,15.5507],[-86.8438,15.553],[-86.8558,15.5693],[-86.9906,15.5488],[-87.0542,15.4916],[-87.1373,15.4588],[-87.1825,15.4266],[-87.3428,15.4564],[-87.3757,15.4412],[-87.4241,15.4698],[-87.4384,15.529],[-87.4556,15.5399],[-87.5089,15.5174],[-87.6256,15.5108],[-87.6687,15.5586],[-87.6979,15.6637],[-87.7876,15.721],[-87.7643,15.7297],[-87.7579,15.7511],[-87.7949,15.8039],[-87.7252,15.8973],[-87.7284,15.921]]]}},{"type":"Feature","id":"Bay Islands","properties":{"id":"Bay Islands","iso_code":"HN-IB","name":"Bay Islands","name_full":"Bay Islands","name_ja":"イスラス・デ・ラ・バイア県","center_lonlat":[-86.4346,16.3691]},"geometry":{"type":"MultiPolygon","coordinates":[[[[-86.6065,16.285],[-86.5993,16.3093],[-86.5704,16.3324],[-86.4404,16.3965],[-86.3321,16.4294],[-86.1818,16.4282],[-86.2239,16.4121],[-86.3121,16.4125],[-86.491,16.3255],[-86.5482,16.3129],[-86.6005,16.2694],[-86.6065,16.285]]],[[[-85.9115,16.462],[-85.8841,16.5028],[-85.8511,16.5172],[-85.817,16.4983],[-85.8221,16.4862],[-85.8443,16.4838],[-85.8627,16.4522],[-85.8824,16.451],[-85.9471,16.4032],[-85.9267,16.4548],[-85.9115,16.462]]],[[[-86.8787,16.1273],[-86.8787,16.0932],[-86.9637,16.0664],[-86.9974,16.084],[-86.9443,16.1165],[-86.8787,16.1273]]]]}},{"type":"Feature","id":"Choluteca","properties":{"id":"Choluteca","iso_code":"HN-CH","name":"Choluteca","name_full":"Choluteca","name_ja":"チョルテカ県","center_lonlat":[-87.1143,13.3519]},"geometry":{"type":"Polygon","coordinates":[[[-87.379,13.3931],[-87.3478,13.433],[-87.3644,13.5194],[-87.4003,13.5455],[-87.4244,13.598],[-87.4218,13.6378],[-87.4611,13.6702],[-87.4544,13.7569],[-87.4239,13.7606],[-87.3867,13.7551],[-87.3928,13.7211],[-87.3601,13.6901],[-87.2634,13.6884],[-87.2142,13.6711],[-87.2241,13.6286],[-87.1913,13.5975],[-87.1843,13.5663],[-87.124,13.5556],[-87.1066,13.5209],[-87.0766,13.5058],[-87.0392,13.5255],[-87.0106,13.5738],[-86.95,13.6187],[-86.9329,13.6606],[-86.8874,13.6519],[-86.7712,13.7079],[-86.7741,13.6546],[-86.7516,13.6244],[-86.7566,13.5594],[-86.7243,13.4394],[-86.7402,13.3819],[-86.7099,13.3489],[-86.704,13.2988],[-86.7493,13.2613],[-86.8162,13.2919],[-86.8495,13.2888],[-86.9108,13.2396],[-86.9349,13.1855],[-86.9237,13.1611],[-86.9323,13.1085],[-86.9229,13.0864],[-86.9832,13.0219],[-87.0296,12.9961],[-87.035,12.9798],[-87.0847,12.9959],[-87.314,12.9816],[-87.2692,13.0294],[-87.3167,13.0342],[-87.3528,13.0725],[-87.3511,13.0884],[-87.3039,13.0983],[-87.3618,13.1133],[-87.4193,13.1114],[-87.4358,13.1894],[-87.4845,13.2701],[-87.5019,13.2696],[-87.5122,13.2867],[-87.4404,13.359],[-87.379,13.372],[-87.379,13.3931]]]}},{"type":"Feature","id":"Colon","properties":{"id":"Colon","iso_code":"HN-CL","name":"Colon","name_full":"Colón","name_ja":"コロン県","center_lonlat":[-85.6056,15.6462]},"geometry":{"type":"Polygon","coordinates":[[[-86.4379,15.7908],[-86.399,15.7724],[-86.355,15.774],[-86.1726,15.8875],[-85.9722,15.9092],[-85.9122,15.9593],[-85.9032,15.9835],[-85.9192,16.0037],[-86.0128,16.02],[-86.0079,16.0311],[-85.8135,16.0045],[-85.7032,15.9765],[-85.692,15.9715],[-85.687,15.9355],[-85.6562,15.9488],[-85.6085,15.9071],[-85.4886,15.8696],[-85.2542,15.8841],[-85.1964,15.9074],[-85.0758,15.9862],[-84.9999,15.9879],[-84.9999,15.0687],[-85.0927,15.1668],[-85.2493,15.2366],[-85.3604,15.3811],[-85.3959,15.4089],[-85.5052,15.4495],[-85.6077,15.5349],[-85.6883,15.5772],[-85.7359,15.5719],[-85.7641,15.585],[-85.8369,15.52],[-85.8799,15.5286],[-85.9699,15.4267],[-86.0317,15.3904],[-86.0813,15.3942],[-86.1486,15.373],[-86.2329,15.4098],[-86.2403,15.5209],[-86.3141,15.5418],[-86.3774,15.5424],[-86.4209,15.5828],[-86.366,15.6136],[-86.3635,15.6722],[-86.3943,15.6844],[-86.4383,15.7419],[-86.4472,15.7791],[-86.4379,15.7908]]]}},{"type":"Feature","id":"Comayagua","properties":{"id":"Comayagua","iso_code":"HN-CM","name":"Comayagua","name_full":"Comayagua","name_ja":"コマヤグア県","center_lonlat":[-87.6329,14.6255]},"geometry":{"type":"Polygon","coordinates":[[[-88.075,14.6648],[-88.0622,14.6856],[-88.0748,14.7425],[-88.0225,14.7863],[-87.9871,14.7926],[-87.9858,14.8364],[-87.963,14.8035],[-87.8837,14.8582],[-87.8437,14.9014],[-87.7572,14.9479],[-87.7407,14.9625],[-87.7359,15.0166],[-87.6312,15.0166],[-87.5874,15.0263],[-87.5436,15.0565],[-87.5168,15.0377],[-87.4964,14.9935],[-87.4638,14.972],[-87.4443,14.9109],[-87.4186,14.9085],[-87.3747,14.9388],[-87.3507,14.9373],[-87.2972,14.9167],[-87.2727,14.9213],[-87.2458,14.8977],[-87.2083,14.8595],[-87.2545,14.8366],[-87.2494,14.7618],[-87.2661,14.7031],[-87.3251,14.6696],[-87.3421,14.6078],[-87.402,14.6247],[-87.415,14.5715],[-87.4659,14.5222],[-87.4563,14.4896],[-87.409,14.4482],[-87.4124,14.4238],[-87.3827,14.3953],[-87.4194,14.3395],[-87.4621,14.3323],[-87.4599,14.2718],[-87.4255,14.2291],[-87.4829,14.2011],[-87.5126,14.1596],[-87.5857,14.1403],[-87.6143,14.1091],[-87.6152,14.0885],[-87.6506,14.085],[-87.6896,14.051],[-87.7037,14.1042],[-87.781,14.1431],[-87.7771,14.1754],[-87.8256,14.2055],[-87.8287,14.2253],[-87.6395,14.2737],[-87.6266,14.2986],[-87.6466,14.3698],[-87.715,14.3585],[-87.8291,14.4004],[-87.8531,14.4291],[-87.8482,14.4418],[-87.8997,14.5065],[-87.899,14.526],[-87.941,14.5531],[-87.9691,14.6131],[-88.0613,14.6465],[-88.075,14.6648]]]}},{"type":"Feature","id":"Copan","properties":{"id":"Copan","iso_code":"HN-CP","name":"Copan","name_full":"Copán","name_ja":"コパン県","center_lonlat":[-88.9005,14.9055]},"geometry":{"type":"Polygon","coordinates":[[[-88.7609,15.3],[-88.7158,15.2453],[-88.718,15.2172],[-88.6527,15.1586],[-88.6639,15.1395],[-88.6424,15.0841],[-88.6777,15.0374],[-88.7023,14.9524],[-88.6859,14.9229],[-88.6446,14.9274],[-88.6433,14.8693],[-88.6778,14.8019],[-88.6559,14.7239],[-88.7928,14.7135],[-88.7833,14.669],[-88.7336,14.6092],[-88.7305,14.5488],[-88.8171,14.54],[-88.824,14.505],[-88.8492,14.5027],[-88.9099,14.5409],[-88.9306,14.6086],[-88.9946,14.6556],[-89.0256,14.7208],[-89.0856,14.7289],[-89.1462,14.7109],[-89.2324,14.8485],[-89.2314,14.8673],[-89.1692,14.9521],[-89.1691,14.9784],[-89.1886,14.9961],[-89.1728,15.0422],[-89.1405,15.0764],[-88.9734,15.1404],[-88.7609,15.3]]]}},{"type":"Feature","id":"Cortes","properties":{"id":"Cortes","iso_code":"HN-CR","name":"Cortes","name_full":"Cortés","name_ja":"コルテス県","center_lonlat":[-87.9932,15.4082]},"geometry":{"type":"Polygon","coordinates":[[[-87.7284,15.921],[-87.7252,15.8973],[-87.7949,15.8039],[-87.7579,15.7511],[-87.7643,15.7297],[-87.7876,15.721],[-87.818,15.7014],[-87.8235,15.6915],[-87.8055,15.6879],[-87.8197,15.6716],[-87.7622,15.6102],[-87.7713,15.5778],[-87.7939,15.5777],[-87.8309,15.5085],[-87.8164,15.4516],[-87.8463,15.4605],[-87.8527,15.4517],[-87.8202,15.4163],[-87.87,15.348],[-87.9116,15.3266],[-87.9351,15.2448],[-87.9175,15.2378],[-87.9231,15.1908],[-87.8679,15.1894],[-87.8426,15.1604],[-87.7677,15.1397],[-87.7384,15.1111],[-87.7359,15.0166],[-87.7407,14.9625],[-87.7572,14.9479],[-87.8437,14.9014],[-87.8837,14.8582],[-87.963,14.8035],[-87.9858,14.8364],[-87.9956,14.9008],[-88.027,14.9285],[-88.0536,14.9308],[-88.0567,14.9469],[-88.0181,15.0558],[-88.094,15.101],[-88.1135,15.1309],[-88.0615,15.2078],[-88.1022,15.2279],[-88.1238,15.2707],[-88.1343,15.373],[-88.1691,15.3822],[-88.2337,15.4272],[-88.2409,15.4907],[-88.262,15.504],[-88.4099,15.5404],[-88.4674,15.5207],[-88.3526,15.6169],[-88.3167,15.6746],[-88.2478,15.6957],[-88.2416,15.6882],[-88.2326,15.7214],[-88.2209,15.7257],[-88.1453,15.6845],[-88.0363,15.7709],[-88.0416,15.7867],[-87.9923,15.7846],[-87.9339,15.8188],[-87.9245,15.8422],[-87.951,15.8672],[-87.9088,15.8681],[-87.8461,15.8939],[-87.7601,15.8996],[-87.7284,15.921]]]}},{"type":"Feature","id":"El Paraiso","properties":{"id":"El Paraiso","iso_code":"HN-EP","name":"El Paraiso","name_full":"El Paraíso","name_ja":"エル・パライソ県","center_lonlat":[-86.4695,14.0189]},"geometry":{"type":"Polygon","coordinates":[[[-85.5631,14.042],[-85.6479,13.9993],[-85.6515,13.982],[-85.7322,13.9595],[-85.7474,13.8883],[-85.723,13.8634],[-85.7425,13.8237],[-85.7583,13.8393],[-85.8242,13.8477],[-85.8616,13.9044],[-85.9294,13.9121],[-86.0284,13.9961],[-86.0202,14.0552],[-86.0967,14.0441],[-86.1217,14.0272],[-86.138,13.9962],[-86.1841,13.9669],[-86.2841,13.8457],[-86.3136,13.7766],[-86.3401,13.7567],[-86.4101,13.749],[-86.4482,13.773],[-86.4908,13.7595],[-86.5417,13.7821],[-86.6627,13.7647],[-86.7272,13.7683],[-86.7662,13.7453],[-86.7712,13.7079],[-86.8874,13.6519],[-86.9329,13.6606],[-86.95,13.6187],[-87.0106,13.5738],[-87.0392,13.5255],[-87.0766,13.5058],[-87.1066,13.5209],[-87.124,13.5556],[-87.1843,13.5663],[-87.1913,13.5975],[-87.2241,13.6286],[-87.2142,13.6711],[-87.1827,13.6811],[-87.1302,13.66],[-87.1116,13.7083],[-87.1315,13.7627],[-87.1215,13.8103],[-87.0512,13.7752],[-87.0355,13.7754],[-87.0139,13.8004],[-86.9951,13.8459],[-86.9893,13.9645],[-86.9383,13.9669],[-86.916,13.9993],[-86.9123,14.0389],[-86.9843,14.1326],[-86.9122,14.1408],[-86.9019,14.161],[-86.9199,14.1836],[-86.8969,14.2299],[-86.8481,14.2717],[-86.8217,14.3378],[-86.7142,14.4238],[-86.6713,14.4064],[-86.6351,14.4104],[-86.6119,14.3824],[-86.5229,14.3649],[-86.4282,14.2908],[-86.3429,14.2881],[-86.262,14.3347],[-86.1937,14.3385],[-86.1422,14.2689],[-86.0885,14.2529],[-86.0623,14.2729],[-86.0296,14.2634],[-85.9905,14.191],[-85.9444,14.1675],[-85.9131,14.1328],[-85.8802,14.1381],[-85.8713,14.1655],[-85.8449,14.182],[-85.7844,14.1666],[-85.7637,14.1979],[-85.6721,14.1771],[-85.6469,14.1834],[-85.6216,14.1597],[-85.6097,14.1049],[-85.5756,14.075],[-85.5631,14.042]]]}},{"type":"Feature","id":"Francisco Morazan","properties":{"id":"Francisco Morazan","iso_code":"HN-FM","name":"Francisco Morazan","name_full":"Francisco Morazán","name_ja":"フランシスコ・モラサン県","center_lonlat":[-87.1794,14.2929]},"geometry":{"type":"Polygon","coordinates":[[[-87.2458,14.8977],[-87.1902,14.9691],[-87.1848,15.0114],[-87.167,15.026],[-87.1194,15.0319],[-86.9875,15.0159],[-86.9616,14.9773],[-86.9061,14.9402],[-86.9333,14.8973],[-86.8914,14.7622],[-86.8483,14.6659],[-86.7437,14.5753],[-86.7475,14.533],[-86.7142,14.4238],[-86.8217,14.3378],[-86.8481,14.2717],[-86.8969,14.2299],[-86.9199,14.1836],[-86.9019,14.161],[-86.9122,14.1408],[-86.9843,14.1326],[-86.9123,14.0389],[-86.916,13.9993],[-86.9383,13.9669],[-86.9893,13.9645],[-86.9951,13.8459],[-87.0139,13.8004],[-87.0355,13.7754],[-87.0512,13.7752],[-87.1215,13.8103],[-87.1315,13.7627],[-87.1116,13.7083],[-87.1302,13.66],[-87.1827,13.6811],[-87.2142,13.6711],[-87.2634,13.6884],[-87.3601,13.6901],[-87.3928,13.7211],[-87.3867,13.7551],[-87.4239,13.7606],[-87.4544,13.7569],[-87.4611,13.6702],[-87.479,13.6686],[-87.5484,13.7173],[-87.601,13.7227],[-87.6419,13.7499],[-87.647,13.8342],[-87.6194,13.8688],[-87.5983,13.9382],[-87.6152,14.0885],[-87.6143,14.1091],[-87.5857,14.1403],[-87.5126,14.1596],[-87.4829,14.2011],[-87.4255,14.2291],[-87.4599,14.2718],[-87.4621,14.3323],[-87.4194,14.3395],[-87.3827,14.3953],[-87.4124,14.4238],[-87.409,14.4482],[-87.4563,14.4896],[-87.4659,14.5222],[-87.415,14.5715],[-87.402,14.6247],[-87.3421,14.6078],[-87.3251,14.6696],[-87.2661,14.7031],[-87.2494,14.7618],[-87.2545,14.8366],[-87.2083,14.8595],[-87.2458,14.8977]]]}},{"type":"Feature","id":"Gracias a Dios","properties":{"id":"Gracias a Dios","iso_code":"HN-GD","name":"Gracias a Dios","name_full":"Gracias a Dios","name_ja":"グラシアス・ア・ディオス県","center_lonlat":[-84.3593,15.2317]},"geometry":{"type":"Polygon","coordinates":[[[-84.9999,14.742],[-84.9999,15.0687],[-84.9999,15.9879],[-84.6766,15.8762],[-84.6623,15.8656],[-84.6809,15.8349],[-84.6811,15.7943],[-84.6601,15.7745],[-84.6157,15.7795],[-84.6094,15.809],[-84.5755,15.7839],[-84.4774,15.7788],[-84.4528,15.7956],[-84.578,15.8226],[-84.6331,15.8471],[-84.6418,15.8629],[-84.2946,15.811],[-83.8942,15.4852],[-83.73,15.4016],[-83.7508,15.3868],[-83.8628,15.4489],[-83.9064,15.452],[-83.9181,15.4631],[-83.9044,15.4694],[-83.946,15.5178],[-83.9637,15.5125],[-84.004,15.5376],[-84.0552,15.5109],[-84.0893,15.5246],[-84.0688,15.5482],[-84.1036,15.5512],[-84.1,15.5233],[-84.0758,15.4904],[-84.0893,15.483],[-84.1304,15.5512],[-84.2129,15.5512],[-84.1987,15.5207],[-84.1804,15.5145],[-84.1855,15.483],[-84.1556,15.5074],[-84.1466,15.5351],[-84.1278,15.5326],[-84.0922,15.4509],[-84.1242,15.4302],[-84.0995,15.3776],[-84.0354,15.3419],[-84.0259,15.3512],[-84.0354,15.3806],[-84.0101,15.3568],[-84.0136,15.3253],[-83.9999,15.3088],[-83.9318,15.3117],[-83.959,15.298],[-83.9384,15.2592],[-83.901,15.2434],[-83.8219,15.2707],[-83.8917,15.3234],[-84.0006,15.3601],[-84.0354,15.4011],[-84.0265,15.4087],[-83.9944,15.4215],[-83.9051,15.3835],[-83.8713,15.3428],[-83.8141,15.3217],[-83.7952,15.298],[-83.8157,15.2781],[-83.7745,15.2857],[-83.7598,15.2021],[-83.7474,15.2229],[-83.731,15.2034],[-83.6903,15.2459],[-83.6338,15.2564],[-83.6234,15.2961],[-83.5277,15.2844],[-83.5329,15.2112],[-83.5559,15.2093],[-83.5648,15.2314],[-83.5925,15.2372],[-83.6225,15.1959],[-83.6214,15.1762],[-83.6034,15.182],[-83.6095,15.1969],[-83.5959,15.2093],[-83.587,15.1672],[-83.5745,15.1605],[-83.5266,15.1999],[-83.4818,15.2156],[-83.5296,15.301],[-83.5482,15.2918],[-83.5779,15.3091],[-83.6102,15.3049],[-83.6102,15.3253],[-83.7253,15.3759],[-83.703,15.402],[-83.5426,15.3157],[-83.408,15.2664],[-83.3563,15.2297],[-83.3109,15.1064],[-83.2843,15.0683],[-83.2538,15.0446],[-83.1304,14.997],[-83.2662,14.9825],[-83.2857,14.9921],[-83.273,15.003],[-83.3342,15.0064],[-83.3494,14.9968],[-83.3903,15.031],[-83.4155,14.9969],[-83.4592,14.9825],[-83.4859,15.0105],[-83.5091,15.0115],[-83.5132,14.9689],[-83.5286,14.9734],[-83.5269,14.9484],[-83.5473,14.9552],[-83.5405,14.9416],[-83.6043,14.9092],[-83.6156,14.8727],[-83.65,14.8885],[-83.692,14.887],[-83.7145,14.8672],[-83.705,14.8385],[-83.7466,14.8522],[-83.7445,14.8367],[-83.7653,14.8288],[-83.8211,14.8255],[-83.8012,14.8038],[-83.8695,14.7771],[-83.8899,14.7907],[-83.8838,14.7771],[-83.8966,14.7804],[-83.9247,14.8038],[-83.9247,14.7634],[-84.0408,14.7603],[-84.1118,14.7934],[-84.1227,14.7845],[-84.0954,14.7361],[-84.1682,14.715],[-84.2618,14.7585],[-84.2673,14.6777],[-84.2878,14.6672],[-84.3384,14.6747],[-84.3629,14.7156],[-84.4084,14.6494],[-84.4827,14.6195],[-84.519,14.6383],[-84.5342,14.6337],[-84.5274,14.6604],[-84.6004,14.6625],[-84.6808,14.6855],[-84.6993,14.6747],[-84.7249,14.7256],[-84.7453,14.7391],[-84.747,14.7645],[-84.7669,14.7669],[-84.7555,14.7815],[-84.7702,14.8051],[-84.8181,14.8287],[-84.9042,14.817],[-84.9999,14.742]]]}},{"type":"Feature","id":"Intibuca","properties":{"id":"Intibuca","iso_code":"HN-IN","name":"Intibuca","name_full":"Intibucá","name_ja":"インティブカ県","center_lonlat":[-88.2114,14.3315]},"geometry":{"type":"Polygon","coordinates":[[[-88.4971,13.9691],[-88.4635,14.0046],[-88.3362,14.0768],[-88.3223,14.1079],[-88.3282,14.2156],[-88.4215,14.2479],[-88.4117,14.2991],[-88.4224,14.349],[-88.4747,14.3811],[-88.4946,14.4071],[-88.5015,14.4486],[-88.4815,14.4668],[-88.388,14.4769],[-88.3605,14.491],[-88.3225,14.5732],[-88.3438,14.6543],[-88.1632,14.6586],[-88.1004,14.6493],[-88.075,14.6648],[-88.0613,14.6465],[-87.9691,14.6131],[-87.941,14.5531],[-87.899,14.526],[-87.8997,14.5065],[-87.8482,14.4418],[-87.8531,14.4291],[-87.922,14.3854],[-87.9521,14.3893],[-87.9533,14.3401],[-87.9747,14.3038],[-88.0023,14.2879],[-88.0135,14.2537],[-88.0554,14.2522],[-88.106,14.2083],[-88.1256,14.1734],[-88.2322,14.0836],[-88.2103,14.0434],[-88.2177,13.9908],[-88.2449,13.9893],[-88.2364,13.9381],[-88.2636,13.9331],[-88.2854,13.906],[-88.3262,13.8851],[-88.3551,13.891],[-88.3601,13.8724],[-88.3929,13.8798],[-88.4702,13.8525],[-88.4968,13.8512],[-88.488,13.8653],[-88.5023,13.9171],[-88.4971,13.9691]]]}},{"type":"Feature","id":"La Paz","properties":{"id":"La Paz","iso_code":"HN-LP","name":"La Paz","name_full":"La Paz","name_ja":"ラパス県","center_lonlat":[-87.8839,14.103]},"geometry":{"type":"Polygon","coordinates":[[[-88.2177,13.9908],[-88.2103,14.0434],[-88.2322,14.0836],[-88.1256,14.1734],[-88.106,14.2083],[-88.0554,14.2522],[-88.0135,14.2537],[-88.0023,14.2879],[-87.9747,14.3038],[-87.9533,14.3401],[-87.9521,14.3893],[-87.922,14.3854],[-87.8531,14.4291],[-87.8291,14.4004],[-87.715,14.3585],[-87.6466,14.3698],[-87.6266,14.2986],[-87.6395,14.2737],[-87.8287,14.2253],[-87.8256,14.2055],[-87.7771,14.1754],[-87.781,14.1431],[-87.7037,14.1042],[-87.6896,14.051],[-87.6506,14.085],[-87.6152,14.0885],[-87.5983,13.9382],[-87.6194,13.8688],[-87.647,13.8342],[-87.6929,13.8499],[-87.7495,13.8456],[-87.7906,13.8705],[-87.8179,13.9159],[-87.8609,13.8902],[-87.9001,13.8941],[-87.9253,13.8796],[-87.9548,13.8925],[-88.0153,13.8664],[-88.099,13.9898],[-88.2177,13.9908]]]}},{"type":"Feature","id":"Lempira","properties":{"id":"Lempira","iso_code":"HN-LE","name":"Lempira","name_full":"Lempira","name_ja":"レンピーラ県","center_lonlat":[-88.5963,14.4083]},"geometry":{"type":"Polygon","coordinates":[[[-88.9702,14.2102],[-88.9779,14.3014],[-88.946,14.3398],[-88.8907,14.3608],[-88.8756,14.4059],[-88.8106,14.3868],[-88.823,14.4032],[-88.8195,14.4266],[-88.7896,14.4194],[-88.7471,14.4381],[-88.7153,14.5281],[-88.7305,14.5488],[-88.7336,14.6092],[-88.7833,14.669],[-88.7928,14.7135],[-88.6559,14.7239],[-88.6778,14.8019],[-88.6433,14.8693],[-88.6446,14.9274],[-88.6017,14.9417],[-88.5551,14.9348],[-88.5332,14.8784],[-88.4873,14.8119],[-88.4336,14.8545],[-88.4078,14.8306],[-88.3605,14.8192],[-88.3888,14.7722],[-88.367,14.7395],[-88.3234,14.7312],[-88.3168,14.7195],[-88.3438,14.6543],[-88.3225,14.5732],[-88.3605,14.491],[-88.388,14.4769],[-88.4815,14.4668],[-88.5015,14.4486],[-88.4946,14.4071],[-88.4747,14.3811],[-88.4224,14.349],[-88.4117,14.2991],[-88.4215,14.2479],[-88.3282,14.2156],[-88.3223,14.1079],[-88.3362,14.0768],[-88.4635,14.0046],[-88.4971,13.9691],[-88.514,13.9876],[-88.6339,14.0145],[-88.6909,14.01],[-88.7049,14.038],[-88.7466,14.0525],[-88.7464,14.1113],[-88.8388,14.1004],[-88.8813,14.1842],[-88.9216,14.1999],[-88.9572,14.1852],[-88.9702,14.2102]]]}},{"type":"Feature","id":"Ocotepeque","properties":{"id":"Ocotepeque","iso_code":"HN-OC","name":"Ocotepeque","name_full":"Ocotepeque","name_ja":"オコテペケ県","center_lonlat":[-89.0481,14.4917]},"geometry":{"type":"Polygon","coordinates":[[[-89.1462,14.7109],[-89.0856,14.7289],[-89.0256,14.7208],[-88.9946,14.6556],[-88.9306,14.6086],[-88.9099,14.5409],[-88.8492,14.5027],[-88.824,14.505],[-88.8171,14.54],[-88.7305,14.5488],[-88.7153,14.5281],[-88.7471,14.4381],[-88.7896,14.4194],[-88.8195,14.4266],[-88.823,14.4032],[-88.8106,14.3868],[-88.8756,14.4059],[-88.8907,14.3608],[-88.946,14.3398],[-88.9779,14.3014],[-88.9702,14.2102],[-88.9835,14.2421],[-89.0181,14.2717],[-89.033,14.3237],[-89.0945,14.3449],[-89.0918,14.3748],[-89.1075,14.396],[-89.1222,14.3947],[-89.154,14.3513],[-89.2255,14.3821],[-89.3616,14.4155],[-89.3555,14.4754],[-89.323,14.4875],[-89.2457,14.573],[-89.1721,14.5704],[-89.1604,14.5813],[-89.1594,14.666],[-89.1427,14.6913],[-89.1462,14.7109]]]}},{"type":"Feature","id":"Olancho","properties":{"id":"Olancho","iso_code":"HN-OL","name":"Olancho","name_full":"Olancho","name_ja":"オランチョ県","center_lonlat":[-85.9295,14.8366]},"geometry":{"type":"Polygon","coordinates":[[[-84.9999,14.742],[-85.0245,14.7125],[-85.033,14.6696],[-85.0539,14.6631],[-85.0202,14.6337],[-85.0482,14.6058],[-85.0222,14.6058],[-85.0296,14.589],[-85.0864,14.5445],[-85.1193,14.574],[-85.1375,14.5785],[-85.1455,14.5643],[-85.1518,14.486],[-85.1785,14.4556],[-85.1785,14.4276],[-85.2058,14.4072],[-85.159,14.3611],[-85.1696,14.3218],[-85.3214,14.2813],[-85.3436,14.2501],[-85.3629,14.2501],[-85.384,14.2264],[-85.4317,14.1328],[-85.5106,14.0938],[-85.528,14.0509],[-85.5631,14.042],[-85.5756,14.075],[-85.6097,14.1049],[-85.6216,14.1597],[-85.6469,14.1834],[-85.6721,14.1771],[-85.7637,14.1979],[-85.7844,14.1666],[-85.8449,14.182],[-85.8713,14.1655],[-85.8802,14.1381],[-85.9131,14.1328],[-85.9444,14.1675],[-85.9905,14.191],[-86.0296,14.2634],[-86.0623,14.2729],[-86.0885,14.2529],[-86.1422,14.2689],[-86.1937,14.3385],[-86.262,14.3347],[-86.3429,14.2881],[-86.4282,14.2908],[-86.5229,14.3649],[-86.6119,14.3824],[-86.6351,14.4104],[-86.6713,14.4064],[-86.7142,14.4238],[-86.7475,14.533],[-86.7437,14.5753],[-86.8483,14.6659],[-86.8914,14.7622],[-86.9333,14.8973],[-86.9061,14.9402],[-86.9616,14.9773],[-86.9875,15.0159],[-86.9696,15.0438],[-86.921,15.054],[-86.8862,15.0816],[-86.8551,15.1716],[-86.8589,15.2536],[-86.8153,15.2854],[-86.7687,15.2953],[-86.7381,15.2709],[-86.6927,15.2686],[-86.6664,15.2823],[-86.6329,15.3409],[-86.5141,15.3892],[-86.4647,15.3747],[-86.4204,15.3319],[-86.372,15.3294],[-86.2329,15.4098],[-86.1486,15.373],[-86.0813,15.3942],[-86.0317,15.3904],[-85.9699,15.4267],[-85.8799,15.5286],[-85.8369,15.52],[-85.7641,15.585],[-85.7359,15.5719],[-85.6883,15.5772],[-85.6077,15.5349],[-85.5052,15.4495],[-85.3959,15.4089],[-85.3604,15.3811],[-85.2493,15.2366],[-85.0927,15.1668],[-84.9999,15.0687],[-84.9999,14.742]]]}},{"type":"Feature","id":"Santa Barbara","properties":{"id":"Santa Barbara","iso_code":"HN-SB","name":"Santa Barbara","name_full":"Santa Bárbara","name_ja":"サンタ・バルバラ県","center_lonlat":[-88.3494,15.0993]},"geometry":{"type":"Polygon","coordinates":[[[-88.7609,15.3],[-88.4674,15.5207],[-88.4099,15.5404],[-88.262,15.504],[-88.2409,15.4907],[-88.2337,15.4272],[-88.1691,15.3822],[-88.1343,15.373],[-88.1238,15.2707],[-88.1022,15.2279],[-88.0615,15.2078],[-88.1135,15.1309],[-88.094,15.101],[-88.0181,15.0558],[-88.0567,14.9469],[-88.0536,14.9308],[-88.027,14.9285],[-87.9956,14.9008],[-87.9858,14.8364],[-87.9871,14.7926],[-88.0225,14.7863],[-88.0748,14.7425],[-88.0622,14.6856],[-88.075,14.6648],[-88.1004,14.6493],[-88.1632,14.6586],[-88.3438,14.6543],[-88.3168,14.7195],[-88.3234,14.7312],[-88.367,14.7395],[-88.3888,14.7722],[-88.3605,14.8192],[-88.4078,14.8306],[-88.4336,14.8545],[-88.4873,14.8119],[-88.5332,14.8784],[-88.5551,14.9348],[-88.6017,14.9417],[-88.6446,14.9274],[-88.6859,14.9229],[-88.7023,14.9524],[-88.6777,15.0374],[-88.6424,15.0841],[-88.6639,15.1395],[-88.6527,15.1586],[-88.718,15.2172],[-88.7158,15.2453],[-88.7609,15.3]]]}},{"type":"Feature","id":"Valle","properties":{"id":"Valle","iso_code":"HN-VA","name":"Valle","name_full":"Valle","name_ja":"バジェ県","center_lonlat":[-87.5921,13.5581]},"geometry":{"type":"MultiPolygon","coordinates":[[[[-87.7495,13.8456],[-87.6929,13.8499],[-87.647,13.8342],[-87.6419,13.7499],[-87.601,13.7227],[-87.5484,13.7173],[-87.479,13.6686],[-87.4611,13.6702],[-87.4218,13.6378],[-87.4244,13.598],[-87.4003,13.5455],[-87.3644,13.5194],[-87.3478,13.433],[-87.379,13.3931],[-87.4006,13.4112],[-87.4473,13.4205],[-87.4696,13.403],[-87.482,13.359],[-87.5476,13.355],[-87.5572,13.3659],[-87.5428,13.372],[-87.5813,13.3829],[-87.6186,13.372],[-87.6056,13.4068],[-87.6193,13.412],[-87.624,13.4663],[-87.6601,13.4409],[-87.651,13.4125],[-87.6928,13.3665],[-87.7389,13.3624],[-87.7814,13.3826],[-87.7865,13.3994],[-87.8172,13.4066],[-87.7384,13.4417],[-87.7188,13.4737],[-87.7334,13.5077],[-87.7795,13.51],[-87.7899,13.5328],[-87.7601,13.6169],[-87.755,13.6899],[-87.7314,13.7222],[-87.7378,13.7388],[-87.7036,13.815],[-87.7495,13.8456]]],[[[-87.6223,13.3689],[-87.5708,13.372],[-87.5881,13.358],[-87.5763,13.3185],[-87.5913,13.3044],[-87.659,13.3317],[-87.6435,13.3677],[-87.6223,13.3689]]],[[[-87.6151,13.2901],[-87.6243,13.2529],[-87.6671,13.256],[-87.6601,13.2622],[-87.6738,13.2839],[-87.6151,13.2901]]]]}},{"type":"Feature","id":"Yoro","properties":{"id":"Yoro","iso_code":"HN-YO","name":"Yoro","name_full":"Yoro","name_ja":"ヨロ県","center_lonlat":[-87.1947,15.3079]},"geometry":{"type":"Polygon","coordinates":[[[-87.7876,15.721],[-87.6979,15.6637],[-87.6687,15.5586],[-87.6256,15.5108],[-87.5089,15.5174],[-87.4556,15.5399],[-87.4384,15.529],[-87.4241,15.4698],[-87.3757,15.4412],[-87.3428,15.4564],[-87.1825,15.4266],[-87.1373,15.4588],[-87.0542,15.4916],[-86.9906,15.5488],[-86.8558,15.5693],[-86.8438,15.553],[-86.7789,15.5507],[-86.6363,15.6046],[-86.5177,15.588],[-86.4704,15.5965],[-86.4209,15.5828],[-86.3774,15.5424],[-86.3141,15.5418],[-86.2403,15.5209],[-86.2329,15.4098],[-86.372,15.3294],[-86.4204,15.3319],[-86.4647,15.3747],[-86.5141,15.3892],[-86.6329,15.3409],[-86.6664,15.2823],[-86.6927,15.2686],[-86.7381,15.2709],[-86.7687,15.2953],[-86.8153,15.2854],[-86.8589,15.2536],[-86.8551,15.1716],[-86.8862,15.0816],[-86.921,15.054],[-86.9696,15.0438],[-86.9875,15.0159],[-87.1194,15.0319],[-87.167,15.026],[-87.1848,15.0114],[-87.1902,14.9691],[-87.2458,14.8977],[-87.2727,14.9213],[-87.2972,14.9167],[-87.3507,14.9373],[-87.3747,14.9388],[-87.4186,14.9085],[-87.4443,14.9109],[-87.4638,14.972],[-87.4964,14.9935],[-87.5168,15.0377],[-87.5436,15.0565],[-87.5874,15.0263],[-87.6312,15.0166],[-87.7359,15.0166],[-87.7384,15.1111],[-87.7677,15.1397],[-87.8426,15.1604],[-87.8679,15.1894],[-87.9231,15.1908],[-87.9175,15.2378],[-87.9351,15.2448],[-87.9116,15.3266],[-87.87,15.348],[-87.8202,15.4163],[-87.8527,15.4517],[-87.8463,15.4605],[-87.8164,15.4516],[-87.8309,15.5085],[-87.7939,15.5777],[-87.7713,15.5778],[-87.7622,15.6102],[-87.8197,15.6716],[-87.8055,15.6879],[-87.8235,15.6915],[-87.818,15.7014],[-87.7876,15.721]]]}}]}
