{"type":"FeatureCollection","features":[{"type":"Feature","id":"Central and Western District","properties":{"id":"Central and Western District","iso_code":"HK-X01~","name":"Central and Western District","name_full":"Central and Western District","name_ja":"中西区","center_lonlat":[114.1439,22.2737]},"geometry":{"type":"Polygon","coordinates":[[[114.1126,22.2715],[114.1391,22.2887],[114.1657,22.2794],[114.1625,22.2582],[114.1126,22.2715]]]}},{"type":"Feature","id":"Kowloon City","properties":{"id":"Kowloon City","iso_code":"HK-X06~","name":"Kowloon City","name_full":"Kowloon City","name_ja":"九龍市","center_lonlat":[114.189,22.3246]},"geometry":{"type":"Polygon","coordinates":[[[114.2118,22.3106],[114.2149,22.3012],[114.1955,22.3183],[114.1765,22.2911],[114.1753,22.3231],[114.17,22.3448],[114.1856,22.348],[114.2052,22.3345],[114.2118,22.3106]]]}},{"type":"Feature","id":"Kwai Tsing","properties":{"id":"Kwai Tsing","iso_code":"HK-X12~","name":"Kwai Tsing","name_full":"Kwai Tsing","name_ja":"葵青区","center_lonlat":[114.1382,22.3508]},"geometry":{"type":"Polygon","coordinates":[[[114.1457,22.332],[114.1235,22.3371],[114.1125,22.3577],[114.1384,22.3637],[114.1419,22.3799],[114.1505,22.3666],[114.1595,22.3419],[114.1457,22.332]]]}},{"type":"Feature","id":"Kwun Tong","properties":{"id":"Kwun Tong","iso_code":"HK-X09~","name":"Kwun Tong","name_full":"Kwun Tong","name_ja":"観塘","center_lonlat":[114.2253,22.3156]},"geometry":{"type":"Polygon","coordinates":[[[114.2434,22.2862],[114.2118,22.3106],[114.2052,22.3345],[114.234,22.3331],[114.2434,22.2862]]]}},{"type":"Feature","id":"Lantau Island","properties":{"id":"Lantau Island","iso_code":"HK-X18~","name":"Lantau Island","name_full":"Lantau Island","name_ja":"アイランズ","center_lonlat":[113.933,22.2559]},"geometry":{"type":"MultiPolygon","coordinates":[[[[113.9956,22.3158],[114.0305,22.3162],[114.0127,22.3113],[114.0127,22.2981],[114.0221,22.3019],[114.0189,22.2646],[113.9954,22.2678],[114.0073,22.2521],[113.9924,22.2412],[114.015,22.2271],[114.0002,22.2161],[113.9819,22.2082],[113.9806,22.2372],[113.9456,22.2372],[113.9215,22.224],[113.9284,22.2108],[113.9191,22.205],[113.8925,22.2224],[113.8464,22.1971],[113.8392,22.2049],[113.8392,22.2342],[113.8568,22.246],[113.8506,22.2567],[113.8925,22.2927],[113.9284,22.2849],[113.9767,22.2981],[113.9956,22.3158]]],[[[114.1374,22.1788],[114.1108,22.1771],[114.1067,22.2358],[114.1328,22.2161],[114.1257,22.2052],[114.1546,22.2036],[114.1374,22.1788]]]]}},{"type":"Feature","id":"North District","properties":{"id":"North District","iso_code":"HK-X16~","name":"North District","name_full":"North District","name_ja":"ノース","center_lonlat":[114.1849,22.5146]},"geometry":{"type":"Polygon","coordinates":[[[114.3328,22.5119],[114.2972,22.4907],[114.2145,22.5001],[114.1396,22.4681],[114.1021,22.4704],[114.0853,22.5229],[114.0915,22.5344],[114.1171,22.5276],[114.1487,22.5381],[114.1732,22.5639],[114.2347,22.5562],[114.2093,22.5237],[114.2546,22.551],[114.2892,22.5052],[114.3328,22.5119]]]}},{"type":"Feature","id":"Sai Kung","properties":{"id":"Sai Kung","iso_code":"HK-X10~","name":"Sai Kung","name_full":"Sai Kung","name_ja":"西貢","center_lonlat":[114.2512,22.3662]},"geometry":{"type":"Polygon","coordinates":[[[114.3674,22.4463],[114.3997,22.4361],[114.4013,22.4127],[114.3818,22.4191],[114.3702,22.398],[114.3897,22.366],[114.3764,22.3706],[114.3576,22.3324],[114.3186,22.3894],[114.3001,22.3816],[114.278,22.391],[114.2687,22.3784],[114.2765,22.348],[114.2664,22.366],[114.2555,22.3559],[114.2726,22.3207],[114.3116,22.2973],[114.289,22.2872],[114.3032,22.2622],[114.2783,22.2705],[114.2555,22.3223],[114.2434,22.2862],[114.234,22.3331],[114.2231,22.3557],[114.2512,22.3955],[114.3183,22.4189],[114.3503,22.4033],[114.3643,22.4119],[114.3674,22.4463]]]}},{"type":"Feature","id":"Sha Tin","properties":{"id":"Sha Tin","iso_code":"HK-X11~","name":"Sha Tin","name_full":"Sha Tin","name_ja":"沙田","center_lonlat":[114.2028,22.3863]},"geometry":{"type":"Polygon","coordinates":[[[114.2053,22.4249],[114.2093,22.3987],[114.2382,22.4354],[114.2515,22.4307],[114.2512,22.3955],[114.2231,22.3557],[114.1856,22.348],[114.17,22.3448],[114.1595,22.3419],[114.1505,22.3666],[114.1732,22.3963],[114.1708,22.4178],[114.2053,22.4249]]]}},{"type":"Feature","id":"Sham Shui Po","properties":{"id":"Sham Shui Po","iso_code":"HK-X07~","name":"Sham Shui Po","name_full":"Sham Shui Po","name_ja":"深水埗","center_lonlat":[114.1626,22.3323]},"geometry":{"type":"Polygon","coordinates":[[[114.1595,22.3223],[114.1457,22.332],[114.1595,22.3419],[114.17,22.3448],[114.1753,22.3231],[114.1595,22.3223]]]}},{"type":"Feature","id":"Siu Ma Shan","properties":{"id":"Siu Ma Shan","iso_code":"HK-X03~","name":"Siu Ma Shan","name_full":"Siu Ma Shan","name_ja":"イースタン","center_lonlat":[114.2152,22.2696]},"geometry":{"type":"Polygon","coordinates":[[[114.1789,22.2794],[114.1968,22.2919],[114.2358,22.2778],[114.2515,22.2489],[114.1888,22.2594],[114.195,22.2738],[114.1789,22.2794]]]}},{"type":"Feature","id":"Southern District","properties":{"id":"Southern District","iso_code":"HK-X04~","name":"Southern District","name_full":"Southern District","name_ja":"サザン","center_lonlat":[114.1998,22.2372]},"geometry":{"type":"Polygon","coordinates":[[[114.2515,22.2489],[114.2561,22.2036],[114.2328,22.2115],[114.2227,22.2388],[114.2118,22.2161],[114.2195,22.1919],[114.2077,22.1896],[114.2093,22.2075],[114.1914,22.2099],[114.1838,22.241],[114.1649,22.2279],[114.1126,22.2715],[114.1625,22.2582],[114.1888,22.2594],[114.2515,22.2489]]]}},{"type":"Feature","id":"Tai Po","properties":{"id":"Tai Po","iso_code":"HK-X17~","name":"Tai Po","name_full":"Tai Po","name_ja":"タイポー","center_lonlat":[114.2013,22.463]},"geometry":{"type":"MultiPolygon","coordinates":[[[[114.3328,22.5119],[114.2538,22.4518],[114.2118,22.4706],[114.2171,22.4479],[114.2022,22.4581],[114.1675,22.4481],[114.2053,22.4249],[114.1708,22.4178],[114.1373,22.4119],[114.1256,22.4517],[114.1396,22.4681],[114.2145,22.5001],[114.2972,22.4907],[114.3328,22.5119]]],[[[114.2515,22.4307],[114.2672,22.4307],[114.2726,22.4097],[114.289,22.426],[114.2765,22.444],[114.3237,22.48],[114.3476,22.4229],[114.3599,22.4612],[114.3674,22.4463],[114.3643,22.4119],[114.3503,22.4033],[114.3183,22.4189],[114.2512,22.3955],[114.2515,22.4307]]]]}},{"type":"Feature","id":"Tsuen Wan","properties":{"id":"Tsuen Wan","iso_code":"HK-X13~","name":"Tsuen Wan","name_full":"Tsuen Wan","name_ja":"荃湾","center_lonlat":[114.1045,22.3833]},"geometry":{"type":"MultiPolygon","coordinates":[[[[114.1125,22.3577],[114.1048,22.3699],[114.0205,22.3504],[114.0304,22.3635],[114.0218,22.3721],[114.0358,22.3822],[114.1373,22.4119],[114.1708,22.4178],[114.1732,22.3963],[114.1505,22.3666],[114.1419,22.3799],[114.1384,22.3637],[114.1125,22.3577]]],[[[113.9956,22.3158],[114.0438,22.3458],[114.0549,22.3363],[114.0502,22.3199],[114.0314,22.3246],[114.0305,22.3162],[113.9956,22.3158]]]]}},{"type":"Feature","id":"Tuen Mun","properties":{"id":"Tuen Mun","iso_code":"HK-X14~","name":"Tuen Mun","name_full":"Tuen Mun","name_ja":"屯門","center_lonlat":[113.9695,22.3897]},"geometry":{"type":"Polygon","coordinates":[[[114.0205,22.3504],[113.9827,22.3668],[113.9706,22.3871],[113.9746,22.3721],[113.9448,22.3621],[113.9144,22.3761],[113.9183,22.3878],[113.897,22.4088],[113.941,22.4268],[113.9882,22.4041],[114.035,22.4041],[114.0358,22.3822],[114.0218,22.3721],[114.0304,22.3635],[114.0205,22.3504]]]}},{"type":"Feature","id":"Wan Chai","properties":{"id":"Wan Chai","iso_code":"HK-X02~","name":"Wan Chai","name_full":"Wan Chai","name_ja":"湾仔","center_lonlat":[114.1774,22.2687]},"geometry":{"type":"Polygon","coordinates":[[[114.1657,22.2794],[114.1789,22.2794],[114.195,22.2738],[114.1888,22.2594],[114.1625,22.2582],[114.1657,22.2794]]]}},{"type":"Feature","id":"Wong Tai Sin District","properties":{"id":"Wong Tai Sin District","iso_code":"HK-X08~","name":"Wong Tai Sin District","name_full":"Wong Tai Sin District","name_ja":"黄大仙","center_lonlat":[114.2126,22.3436]},"geometry":{"type":"Polygon","coordinates":[[[114.1856,22.348],[114.2231,22.3557],[114.234,22.3331],[114.2052,22.3345],[114.1856,22.348]]]}},{"type":"Feature","id":"Yau Tsim Mong","properties":{"id":"Yau Tsim Mong","iso_code":"HK-X05~","name":"Yau Tsim Mong","name_full":"Yau Tsim Mong","name_ja":"油尖旺区","center_lonlat":[114.1704,22.3122]},"geometry":{"type":"Polygon","coordinates":[[[114.1765,22.2911],[114.1595,22.3223],[114.1753,22.3231],[114.1765,22.2911]]]}},{"type":"Feature","id":"Yuen Long","properties":{"id":"Yuen Long","iso_code":"HK-X15~","name":"Yuen Long","name_full":"Yuen Long","name_ja":"元朗","center_lonlat":[114.049,22.4452]},"geometry":{"type":"Polygon","coordinates":[[[113.941,22.4268],[113.9986,22.4886],[114.0127,22.4861],[114.0112,22.4729],[114.0299,22.4783],[114.0306,22.4955],[114.0853,22.5229],[114.1021,22.4704],[114.1396,22.4681],[114.1256,22.4517],[114.1373,22.4119],[114.0358,22.3822],[114.035,22.4041],[113.9882,22.4041],[113.941,22.4268]]]}}]}
