{"type":"FeatureCollection","features":[{"type":"Feature","id":"Bacs-Kiskun","properties":{"id":"Bacs-Kiskun","iso_code":"HU-BK","name":"Bacs-Kiskun","name_full":"Bács-Kiskun","name_ja":"バーチ・キシュクン県","center_lonlat":[19.3657,46.5616]},"geometry":{"type":"Polygon","coordinates":[[[19.7119,46.1587],[19.6478,46.1739],[19.5499,46.1642],[19.4875,46.1342],[19.4993,46.1086],[19.4537,46.0776],[19.4047,46.0602],[19.3789,46.0337],[19.307,46.0266],[19.2635,45.9814],[19.148,45.9841],[19.0885,46.0188],[19.0497,45.9931],[19.0486,45.9634],[18.9818,45.9508],[18.9875,45.9238],[18.8865,45.9304],[18.8225,45.9056],[18.8015,45.92],[18.8241,45.9402],[18.8524,46.0112],[18.822,46.0989],[18.7858,46.0997],[18.8292,46.1229],[18.7951,46.1512],[18.8335,46.1618],[18.8539,46.1932],[18.847,46.2056],[18.8233,46.2063],[18.8241,46.2171],[18.9144,46.2457],[18.9133,46.3306],[18.8922,46.3784],[18.9227,46.4686],[18.9201,46.4988],[18.8581,46.6148],[18.9529,46.6561],[19.0018,46.7085],[18.9847,46.7756],[18.9276,46.8271],[18.9267,46.8484],[18.9389,46.8917],[18.9665,46.9172],[18.9552,46.9947],[18.968,47.0331],[18.9894,47.0666],[19.0832,47.078],[19.1575,47.1188],[19.2653,47.1516],[19.3014,47.1453],[19.3302,47.1244],[19.3344,47.0954],[19.3028,47.0411],[19.323,47.0196],[19.3525,47.0266],[19.3744,47.0558],[19.4333,47.0768],[19.4623,47.1235],[19.5306,47.1162],[19.6467,47.0121],[19.627,46.9971],[19.5759,47.0148],[19.5563,46.9735],[19.6505,46.8066],[19.6898,46.7851],[19.7212,46.8263],[19.7212,46.8714],[19.7506,46.9029],[19.786,46.9029],[19.8174,46.9186],[19.8191,46.9455],[19.9159,46.9857],[19.9771,46.9629],[20.0186,46.9976],[20.0763,47.0204],[20.1464,46.9793],[20.1057,46.9537],[20.154,46.937],[20.1362,46.9122],[20.0864,46.9258],[20.0867,46.9096],[20.1063,46.9011],[20.0919,46.8824],[20.0275,46.8748],[20.0058,46.8529],[20.0019,46.8114],[20.0613,46.8007],[19.9685,46.7286],[19.9974,46.6997],[19.979,46.5905],[19.9439,46.5641],[19.8571,46.5735],[19.8195,46.5551],[19.8209,46.5141],[19.8683,46.4912],[19.8796,46.4447],[19.8497,46.3793],[19.6697,46.3507],[19.6713,46.3046],[19.6531,46.255],[19.7119,46.1587]]]}},{"type":"Feature","id":"Baranya","properties":{"id":"Baranya","iso_code":"HU-BA","name":"Baranya","name_full":"Baranya","name_ja":"バラニャ県","center_lonlat":[18.2097,46.0442]},"geometry":{"type":"Polygon","coordinates":[[[17.6547,45.8521],[17.7051,45.8592],[17.7084,45.8883],[17.6423,45.9506],[17.6305,45.981],[17.646,46.001],[17.617,46.0623],[17.6764,46.0835],[17.6935,46.1149],[17.6909,46.1763],[17.7199,46.1995],[17.8151,46.2122],[17.846,46.2289],[17.9382,46.3129],[18.0524,46.3227],[18.0976,46.3712],[18.1491,46.3646],[18.1855,46.4041],[18.3338,46.4079],[18.3352,46.3788],[18.3735,46.3483],[18.3926,46.3128],[18.4079,46.2272],[18.4887,46.2634],[18.5387,46.23],[18.5784,46.2387],[18.683,46.1299],[18.7858,46.0997],[18.822,46.0989],[18.8524,46.0112],[18.8241,45.9402],[18.8015,45.92],[18.8225,45.9056],[18.8049,45.9136],[18.7755,45.8828],[18.6556,45.9076],[18.5735,45.8167],[18.5303,45.7908],[18.4818,45.7914],[18.3976,45.7413],[18.3672,45.7582],[18.3177,45.7473],[18.2112,45.7854],[18.1289,45.7854],[18.0805,45.7717],[17.9754,45.7921],[17.8898,45.7921],[17.8581,45.7717],[17.8092,45.8144],[17.6547,45.8521]],[[18.3615,46.0566],[18.3705,46.0686],[18.3196,46.1703],[18.2777,46.1524],[18.1969,46.1613],[18.1355,46.1235],[18.1251,46.0835],[18.1431,46.0626],[18.1281,46.0387],[18.2358,45.9848],[18.2628,45.9968],[18.3106,46.0626],[18.3615,46.0566]]]}},{"type":"Feature","id":"Bekes","properties":{"id":"Bekes","iso_code":"HU-BE","name":"Bekes","name_full":"Békés","name_ja":"ベーケーシュ県","center_lonlat":[21.006,46.7404]},"geometry":{"type":"Polygon","coordinates":[[[20.7874,46.2634],[20.7492,46.3015],[20.7591,46.3495],[20.7308,46.3836],[20.702,46.3938],[20.5993,46.3845],[20.617,46.4121],[20.5849,46.4062],[20.5856,46.4481],[20.5958,46.461],[20.5892,46.481],[20.6242,46.5388],[20.595,46.5478],[20.5792,46.5679],[20.5865,46.7537],[20.5545,46.774],[20.4232,46.8033],[20.4079,46.8364],[20.4187,46.8654],[20.4579,46.889],[20.5269,46.8856],[20.5553,46.9129],[20.5842,46.9074],[20.6074,46.9212],[20.6353,46.9021],[20.7057,46.9237],[20.7163,46.9535],[20.7005,47.0143],[20.7388,47.0456],[20.7447,47.078],[20.8214,47.1368],[20.875,47.1435],[20.9945,47.236],[21.1181,47.181],[21.2711,47.1454],[21.2914,47.1164],[21.2883,47.0158],[21.3439,46.9827],[21.335,46.9583],[21.3537,46.9456],[21.4987,46.9537],[21.5668,47.0012],[21.6343,47.0194],[21.6714,46.9934],[21.6485,46.943],[21.5899,46.9089],[21.5834,46.8479],[21.5157,46.8216],[21.4737,46.7549],[21.4726,46.7402],[21.5052,46.7232],[21.5018,46.7035],[21.4836,46.6849],[21.4362,46.6737],[21.396,46.6264],[21.3162,46.6166],[21.301,46.6039],[21.2913,46.5467],[21.2476,46.4975],[21.2451,46.4769],[21.2807,46.4164],[21.1788,46.3845],[21.1445,46.2837],[21.0992,46.2764],[21.0335,46.2313],[20.9992,46.2516],[20.9066,46.2622],[20.8751,46.2544],[20.8397,46.2711],[20.7874,46.2634]],[[21.1677,46.6701],[21.207,46.7035],[21.1893,46.7369],[21.2011,46.7761],[21.1559,46.8213],[21.0597,46.8522],[20.9753,46.7697],[21.0028,46.6657],[21.1677,46.6701]]]}},{"type":"Feature","id":"Bekescsaba","properties":{"id":"Bekescsaba","iso_code":"HU-BC","name":"Bekescsaba","name_full":"Békéscsaba","name_ja":"ベーケーシュチャバ","center_lonlat":[21.09,46.7484]},"geometry":{"type":"Polygon","coordinates":[[[21.0597,46.8522],[21.1559,46.8213],[21.2011,46.7761],[21.1893,46.7369],[21.207,46.7035],[21.1677,46.6701],[21.0028,46.6657],[20.9753,46.7697],[21.0597,46.8522]]]}},{"type":"Feature","id":"Borsod-Abauj-Zemplen","properties":{"id":"Borsod-Abauj-Zemplen","iso_code":"HU-BZ","name":"Borsod-Abauj-Zemplen","name_full":"Borsod-Abaúj-Zemplén","name_ja":"ボルショド・アバウーイ・ゼンプレーン県","center_lonlat":[20.9846,48.2016]},"geometry":{"type":"Polygon","coordinates":[[[22.1583,48.4022],[22.0792,48.3115],[22.0515,48.3],[22.0112,48.3074],[21.9286,48.2398],[21.846,48.2324],[21.7945,48.202],[21.6902,48.1674],[21.6128,48.1803],[21.4761,48.1771],[21.4284,48.1299],[21.4427,48.0818],[21.4324,48.0506],[21.4069,48.0337],[21.2986,48.024],[21.2366,48.0468],[21.2226,48.029],[21.1378,48.0068],[21.1137,47.9605],[21.1062,47.9381],[21.0564,47.8905],[21.0553,47.8392],[21.0285,47.8163],[21.0339,47.7798],[20.979,47.773],[20.9422,47.7186],[20.8921,47.6843],[20.8192,47.6794],[20.7741,47.6723],[20.6089,47.7011],[20.5748,47.7553],[20.4484,47.8806],[20.465,47.8992],[20.4609,47.9188],[20.422,47.9691],[20.4788,48.015],[20.4918,48.0549],[20.529,48.071],[20.6403,48.0811],[20.6732,48.0508],[20.7794,48.0027],[20.8704,48.0154],[20.9033,48.0407],[20.8755,48.0913],[20.8755,48.1216],[20.8274,48.1874],[20.7111,48.2228],[20.5586,48.142],[20.5055,48.1395],[20.4728,48.1134],[20.4184,48.1514],[20.3548,48.095],[20.3208,48.1116],[20.2209,48.0929],[20.1182,48.1479],[20.0959,48.1411],[20.0383,48.1772],[20.1053,48.2028],[20.1345,48.2467],[20.1709,48.244],[20.2291,48.2709],[20.2724,48.2525],[20.3243,48.2799],[20.3702,48.3343],[20.4206,48.4292],[20.4817,48.4787],[20.4817,48.5261],[20.7841,48.5691],[20.9458,48.519],[21.036,48.5146],[21.1093,48.4891],[21.2199,48.5187],[21.2618,48.5032],[21.3218,48.5476],[21.4391,48.5583],[21.4994,48.5351],[21.5218,48.5001],[21.5917,48.493],[21.6134,48.4404],[21.6776,48.3723],[21.759,48.3338],[21.9293,48.3729],[22.0779,48.3758],[22.1328,48.4048],[22.1583,48.4022]]]}},{"type":"Feature","id":"Budapest","properties":{"id":"Budapest","iso_code":"HU-BU","name":"Budapest","name_full":"Budapest","name_ja":"ブダペスト","center_lonlat":[19.1038,47.4809]},"geometry":{"type":"Polygon","coordinates":[[[18.949,47.3693],[18.9555,47.4045],[18.9739,47.4469],[18.9386,47.515],[18.9296,47.5737],[18.9903,47.5799],[19.0409,47.6046],[19.0886,47.6068],[19.1919,47.5515],[19.1952,47.5394],[19.2174,47.5421],[19.3267,47.4861],[19.3042,47.4476],[19.1426,47.3602],[19.0627,47.3838],[18.949,47.3693]]]}},{"type":"Feature","id":"Csongrad-Csanad","properties":{"id":"Csongrad-Csanad","iso_code":"HU-CS","name":"Csongrad-Csanad","name_full":"Csongrád-Csanád","name_ja":"チョングラード・チャナード県","center_lonlat":[20.1261,46.5014]},"geometry":{"type":"MultiPolygon","coordinates":[[[[19.7119,46.1587],[19.6531,46.255],[19.6713,46.3046],[19.6697,46.3507],[19.8497,46.3793],[19.8796,46.4447],[19.8683,46.4912],[19.8209,46.5141],[19.8195,46.5551],[19.8571,46.5735],[19.9439,46.5641],[19.979,46.5905],[19.9974,46.6997],[19.9685,46.7286],[20.0613,46.8007],[20.1347,46.7683],[20.25,46.7945],[20.3225,46.7644],[20.4232,46.8033],[20.5545,46.774],[20.5865,46.7537],[20.5792,46.5679],[20.595,46.5478],[20.6242,46.5388],[20.5892,46.481],[20.5958,46.461],[20.5856,46.4481],[20.4621,46.5326],[20.3757,46.509],[20.2972,46.5208],[20.2618,46.4383],[20.2383,46.4148],[20.2206,46.456],[20.1983,46.4673],[20.189,46.41],[20.2167,46.3168],[20.1865,46.3158],[20.1472,46.3551],[20.1119,46.3276],[20.053,46.3354],[20.0137,46.3178],[20.0098,46.2648],[20.0687,46.253],[20.0785,46.2275],[20.0634,46.1453],[19.9291,46.1635],[19.7904,46.1291],[19.7119,46.1587]]],[[[20.7874,46.2634],[20.735,46.2319],[20.7447,46.1923],[20.7103,46.1881],[20.6988,46.1565],[20.664,46.1378],[20.6001,46.1296],[20.549,46.1561],[20.4685,46.1741],[20.4442,46.1469],[20.2832,46.1438],[20.2428,46.1081],[20.1885,46.1404],[20.138,46.1365],[20.1148,46.1522],[20.1413,46.2],[20.1649,46.198],[20.2061,46.1529],[20.2297,46.1568],[20.2317,46.1784],[20.212,46.1902],[20.1963,46.2235],[20.2085,46.2388],[20.2709,46.2353],[20.269,46.2589],[20.3698,46.2655],[20.4719,46.2459],[20.519,46.2714],[20.5465,46.3264],[20.5993,46.3845],[20.702,46.3938],[20.7308,46.3836],[20.7591,46.3495],[20.7492,46.3015],[20.7874,46.2634]]]]}},{"type":"Feature","id":"Debrecen","properties":{"id":"Debrecen","iso_code":"HU-DE","name":"Debrecen","name_full":"Debrecen","name_ja":"デブレツェン","center_lonlat":[21.6337,47.5461]},"geometry":{"type":"Polygon","coordinates":[[[21.5438,47.7323],[21.5312,47.6791],[21.5464,47.6715],[21.559,47.7019],[21.6096,47.707],[21.6501,47.6159],[21.678,47.5905],[21.7565,47.6361],[21.7919,47.6437],[21.8299,47.6108],[21.8628,47.5703],[21.8602,47.507],[21.84,47.469],[21.7716,47.4159],[21.7311,47.4437],[21.6932,47.4387],[21.6375,47.3906],[21.5767,47.3906],[21.5641,47.4311],[21.5072,47.4529],[21.487,47.501],[21.4186,47.501],[21.4161,47.5516],[21.4806,47.6918],[21.5438,47.7323]]]}},{"type":"Feature","id":"Dunaujvaros","properties":{"id":"Dunaujvaros","iso_code":"HU-DU","name":"Dunaujvaros","name_full":"Dunaújváros","name_ja":"ドゥナウーイヴァーロシュ","center_lonlat":[18.8995,46.9364]},"geometry":{"type":"Polygon","coordinates":[[[18.9552,46.9947],[18.9665,46.9172],[18.9389,46.8917],[18.9267,46.8484],[18.8441,46.8882],[18.8284,46.9216],[18.8422,46.9766],[18.8971,47.0159],[18.9552,46.9947]]]}},{"type":"Feature","id":"Eger","properties":{"id":"Eger","iso_code":"HU-EG","name":"Eger","name_full":"Eger","name_ja":"エゲル","center_lonlat":[20.3679,47.924]},"geometry":{"type":"Polygon","coordinates":[[[20.422,47.9691],[20.4609,47.9188],[20.465,47.8992],[20.4484,47.8806],[20.3915,47.8588],[20.3915,47.8304],[20.3694,47.8114],[20.3251,47.8114],[20.3029,47.8494],[20.3156,47.9316],[20.2966,48.0012],[20.3219,48.0107],[20.3377,48.0455],[20.3852,48.0392],[20.3947,47.9917],[20.422,47.9691]]]}},{"type":"Feature","id":"Erd","properties":{"id":"Erd","iso_code":"HU-ED","name":"Erd","name_full":"Érd","name_ja":"エールド","center_lonlat":[18.8906,47.3772]},"geometry":{"type":"Polygon","coordinates":[[[18.9555,47.4045],[18.949,47.3693],[18.9286,47.3185],[18.9028,47.3038],[18.8683,47.3071],[18.8194,47.3563],[18.8619,47.3872],[18.8383,47.454],[18.8638,47.4618],[18.9555,47.4045]]]}},{"type":"Feature","id":"Fejer","properties":{"id":"Fejer","iso_code":"HU-FE","name":"Fejer","name_full":"Fejér","name_ja":"フェイェール県","center_lonlat":[18.5319,47.136]},"geometry":{"type":"Polygon","coordinates":[[[18.1771,46.9531],[18.2153,46.9936],[18.2296,47.0425],[18.2192,47.0679],[18.2274,47.1339],[18.2133,47.1584],[18.1855,47.1698],[18.1492,47.2259],[18.1065,47.2542],[18.0948,47.281],[18.1008,47.3083],[18.1365,47.315],[18.1032,47.3592],[18.1207,47.3871],[18.1282,47.4402],[18.2135,47.4635],[18.3028,47.4067],[18.356,47.4161],[18.3336,47.4375],[18.3483,47.4521],[18.462,47.5054],[18.4825,47.5388],[18.516,47.5553],[18.685,47.5619],[18.7756,47.4645],[18.787,47.439],[18.7804,47.4105],[18.8194,47.3563],[18.8683,47.3071],[18.9028,47.3038],[18.9188,47.2871],[18.8814,47.1896],[18.8792,47.1492],[18.9031,47.0816],[18.968,47.0331],[18.9552,46.9947],[18.8971,47.0159],[18.8422,46.9766],[18.8284,46.9216],[18.8441,46.8882],[18.9267,46.8484],[18.8372,46.8179],[18.7396,46.7327],[18.6602,46.7021],[18.6303,46.7074],[18.5597,46.7845],[18.4819,46.7452],[18.3986,46.7639],[18.3295,46.8031],[18.218,46.7907],[18.2192,46.8886],[18.1771,46.9531]],[[18.4979,47.2757],[18.4783,47.3032],[18.4586,47.3072],[18.3289,47.2041],[18.4056,47.1324],[18.4292,47.0657],[18.49,47.0912],[18.5234,47.0794],[18.5764,47.1462],[18.5764,47.1737],[18.5529,47.1952],[18.5627,47.2561],[18.4979,47.2757]]]}},{"type":"Feature","id":"Gyor","properties":{"id":"Gyor","iso_code":"HU-GY","name":"Gyor","name_full":"Győr","name_ja":"ジェール","center_lonlat":[17.6627,47.6649]},"geometry":{"type":"Polygon","coordinates":[[[17.6793,47.7371],[17.7716,47.7328],[17.8041,47.6658],[17.7963,47.6475],[17.6913,47.6066],[17.6271,47.6066],[17.5876,47.5869],[17.5375,47.6003],[17.5048,47.6349],[17.5629,47.6651],[17.5819,47.7145],[17.6793,47.7371]]]}},{"type":"Feature","id":"Gyor-Moson-Sopron","properties":{"id":"Gyor-Moson-Sopron","iso_code":"HU-GS","name":"Gyor-Moson-Sopron","name_full":"Győr-Moson-Sopron","name_ja":"ジェール・モション・ショプロン県","center_lonlat":[17.2905,47.6501]},"geometry":{"type":"Polygon","coordinates":[[[17.8835,47.7525],[17.8976,47.6303],[17.9271,47.6128],[17.9055,47.5725],[17.9291,47.55],[17.9178,47.5326],[17.8867,47.5319],[17.8979,47.5038],[17.8825,47.4548],[17.8164,47.4932],[17.8155,47.4744],[17.7786,47.4815],[17.7612,47.4707],[17.7259,47.4823],[17.6374,47.4495],[17.5974,47.4616],[17.5687,47.4494],[17.5171,47.4545],[17.4969,47.4336],[17.4377,47.4199],[17.3694,47.4409],[17.2769,47.4332],[17.2019,47.3984],[17.1526,47.4372],[17.0577,47.4028],[17.0764,47.4493],[17.0514,47.4542],[16.9442,47.412],[16.863,47.4215],[16.8385,47.4355],[16.7343,47.3996],[16.627,47.4455],[16.6409,47.4529],[16.6368,47.4932],[16.6774,47.5099],[16.6891,47.538],[16.6506,47.5666],[16.6562,47.5859],[16.6302,47.622],[16.5578,47.6298],[16.5908,47.6472],[16.6842,47.6384],[16.6879,47.671],[16.7168,47.697],[16.7411,47.6815],[16.7975,47.6755],[16.8502,47.7129],[16.8647,47.6867],[16.9027,47.682],[17.0754,47.7085],[17.0506,47.731],[17.0406,47.8011],[17.0556,47.8124],[17.0041,47.8633],[17.0676,47.8816],[17.0875,47.9226],[17.0741,47.9321],[17.0957,47.9557],[17.0856,47.9701],[17.1848,48.0203],[17.3379,47.9987],[17.472,47.8888],[17.5266,47.8721],[17.5726,47.8295],[17.6042,47.8342],[17.6399,47.8192],[17.6767,47.7892],[17.8257,47.75],[17.8835,47.7525]],[[17.7265,47.73],[17.6793,47.7371],[17.5819,47.7145],[17.5629,47.6651],[17.5048,47.6349],[17.5375,47.6003],[17.5876,47.5869],[17.6271,47.6066],[17.6913,47.6066],[17.7963,47.6475],[17.8041,47.6658],[17.7716,47.7328],[17.7265,47.73]]]}},{"type":"Feature","id":"Hajdu-Bihar","properties":{"id":"Hajdu-Bihar","iso_code":"HU-HB","name":"Hajdu-Bihar","name_full":"Hajdú-Bihar","name_ja":"ハイドゥー・ビハール県","center_lonlat":[21.4545,47.4796]},"geometry":{"type":"Polygon","coordinates":[[[22.1542,47.5822],[22.0996,47.5709],[22.0079,47.5174],[21.9889,47.4929],[22.0016,47.3938],[21.9815,47.3661],[21.919,47.3497],[21.8622,47.2974],[21.8236,47.2149],[21.8199,47.1727],[21.7799,47.1407],[21.7638,47.1052],[21.6719,47.0547],[21.6343,47.0194],[21.5668,47.0012],[21.4987,46.9537],[21.3537,46.9456],[21.335,46.9583],[21.3439,46.9827],[21.2883,47.0158],[21.2914,47.1164],[21.2711,47.1454],[21.1181,47.181],[20.9945,47.236],[21.0229,47.286],[21.0279,47.3495],[20.9766,47.5689],[20.9457,47.5889],[20.8811,47.6017],[20.8426,47.6286],[20.8192,47.6794],[20.8921,47.6843],[20.9422,47.7186],[20.979,47.773],[21.0339,47.7798],[21.0285,47.8163],[21.0553,47.8392],[21.0564,47.8905],[21.1062,47.9381],[21.1137,47.9605],[21.1867,47.954],[21.2694,47.9097],[21.4761,47.93],[21.5146,47.9455],[21.5461,47.9381],[21.5561,47.9169],[21.5397,47.8075],[21.6498,47.7424],[21.8019,47.7064],[21.8409,47.6831],[21.8956,47.7449],[21.9299,47.7462],[21.9994,47.7199],[22.0284,47.685],[22.0226,47.6589],[22.0487,47.6415],[22.0951,47.6763],[22.1324,47.6011],[22.1542,47.5822]],[[21.5464,47.6715],[21.5312,47.6791],[21.5438,47.7323],[21.4806,47.6918],[21.4161,47.5516],[21.4186,47.501],[21.487,47.501],[21.5072,47.4529],[21.5641,47.4311],[21.5767,47.3906],[21.6375,47.3906],[21.6932,47.4387],[21.7311,47.4437],[21.7716,47.4159],[21.84,47.469],[21.8602,47.507],[21.8628,47.5703],[21.7919,47.6437],[21.7565,47.6361],[21.678,47.5905],[21.6501,47.6159],[21.6096,47.707],[21.559,47.7019],[21.5464,47.6715]]]}},{"type":"Feature","id":"Heves","properties":{"id":"Heves","iso_code":"HU-HE","name":"Heves","name_full":"Heves","name_ja":"ヘヴェシュ県","center_lonlat":[20.1818,47.7758]},"geometry":{"type":"Polygon","coordinates":[[[20.7741,47.6723],[20.75,47.6427],[20.7098,47.6279],[20.7158,47.616],[20.6953,47.6017],[20.6893,47.5779],[20.5124,47.4968],[20.4846,47.4592],[20.3965,47.4252],[20.2994,47.4709],[20.2776,47.5422],[20.2394,47.5561],[20.1959,47.6068],[20.1013,47.5891],[20.1265,47.5673],[20.0772,47.5583],[20.0239,47.5829],[19.9998,47.6616],[19.8898,47.6643],[19.8179,47.6028],[19.7832,47.6165],[19.6748,47.5959],[19.6019,47.6894],[19.6199,47.7156],[19.5807,47.7372],[19.6749,47.8128],[19.7124,47.8211],[19.763,47.8794],[19.7909,47.8926],[19.8233,47.8802],[19.8729,47.9255],[19.9034,47.9167],[19.9568,47.9463],[19.9734,47.9944],[20.0279,48.0115],[20.0206,48.0445],[19.9798,48.0809],[19.9851,48.0944],[20.0959,48.1411],[20.1182,48.1479],[20.2209,48.0929],[20.3208,48.1116],[20.3548,48.095],[20.4184,48.1514],[20.4728,48.1134],[20.49,48.1014],[20.4918,48.0549],[20.4788,48.015],[20.422,47.9691],[20.3947,47.9917],[20.3852,48.0392],[20.3377,48.0455],[20.3219,48.0107],[20.2966,48.0012],[20.3156,47.9316],[20.3029,47.8494],[20.3251,47.8114],[20.3694,47.8114],[20.3915,47.8304],[20.3915,47.8588],[20.4484,47.8806],[20.5748,47.7553],[20.6089,47.7011],[20.7741,47.6723]]]}},{"type":"Feature","id":"Hodmezovasarhely","properties":{"id":"Hodmezovasarhely","iso_code":"HU-HV","name":"Hodmezovasarhely","name_full":"Hódmezővásárhely","name_ja":"ホードメゼーヴァーシャールヘイ","center_lonlat":[20.3938,46.3851]},"geometry":{"type":"Polygon","coordinates":[[[20.5856,46.4481],[20.5849,46.4062],[20.617,46.4121],[20.5993,46.3845],[20.5465,46.3264],[20.519,46.2714],[20.4719,46.2459],[20.3698,46.2655],[20.269,46.2589],[20.2219,46.2757],[20.2297,46.2899],[20.2167,46.3168],[20.189,46.41],[20.1983,46.4673],[20.2206,46.456],[20.2383,46.4148],[20.2618,46.4383],[20.2972,46.5208],[20.3757,46.509],[20.4621,46.5326],[20.5856,46.4481]]]}},{"type":"Feature","id":"Jasz-Nagykun-Szolnok","properties":{"id":"Jasz-Nagykun-Szolnok","iso_code":"HU-JN","name":"Jasz-Nagykun-Szolnok","name_full":"Jász-Nagykun-Szolnok","name_ja":"ヤース・ナジクン・ソルノク県","center_lonlat":[20.4313,47.2673]},"geometry":{"type":"Polygon","coordinates":[[[20.7741,47.6723],[20.8192,47.6794],[20.8426,47.6286],[20.8811,47.6017],[20.9457,47.5889],[20.9766,47.5689],[21.0279,47.3495],[21.0229,47.286],[20.9945,47.236],[20.875,47.1435],[20.8214,47.1368],[20.7447,47.078],[20.7388,47.0456],[20.7005,47.0143],[20.7163,46.9535],[20.7057,46.9237],[20.6353,46.9021],[20.6074,46.9212],[20.5842,46.9074],[20.5553,46.9129],[20.5269,46.8856],[20.4579,46.889],[20.4187,46.8654],[20.4079,46.8364],[20.4232,46.8033],[20.3225,46.7644],[20.25,46.7945],[20.1347,46.7683],[20.0613,46.8007],[20.0019,46.8114],[20.0058,46.8529],[20.0275,46.8748],[20.0919,46.8824],[20.1063,46.9011],[20.0867,46.9096],[20.0864,46.9258],[20.1362,46.9122],[20.154,46.937],[20.1057,46.9537],[20.1464,46.9793],[20.2021,47.0076],[20.1391,47.0245],[20.0835,47.0581],[20.0511,47.1036],[20.0564,47.152],[20.1145,47.144],[20.2209,47.0984],[20.3018,47.1187],[20.3044,47.1516],[20.2689,47.1617],[20.2487,47.1905],[20.2874,47.219],[20.2614,47.2528],[20.1323,47.3414],[20.0224,47.2491],[20.0048,47.2677],[19.9986,47.3289],[19.758,47.4922],[19.7529,47.5271],[19.7154,47.5246],[19.6837,47.5387],[19.6646,47.5663],[19.6748,47.5959],[19.7832,47.6165],[19.8179,47.6028],[19.8898,47.6643],[19.9998,47.6616],[20.0239,47.5829],[20.0772,47.5583],[20.1265,47.5673],[20.1013,47.5891],[20.1959,47.6068],[20.2394,47.5561],[20.2776,47.5422],[20.2994,47.4709],[20.3965,47.4252],[20.4846,47.4592],[20.5124,47.4968],[20.6893,47.5779],[20.6953,47.6017],[20.7158,47.616],[20.7098,47.6279],[20.75,47.6427],[20.7741,47.6723]]]}},{"type":"Feature","id":"Kaposvar","properties":{"id":"Kaposvar","iso_code":"HU-KV","name":"Kaposvar","name_full":"Kaposvár","name_ja":"カポシュヴァール","center_lonlat":[17.7943,46.3543]},"geometry":{"type":"Polygon","coordinates":[[[17.7495,46.4541],[17.7764,46.4391],[17.8416,46.4451],[17.8716,46.3822],[17.8805,46.3284],[17.8476,46.3104],[17.8147,46.2536],[17.7818,46.2685],[17.7429,46.2476],[17.7339,46.3074],[17.707,46.3613],[17.7309,46.3822],[17.7495,46.4541]]]}},{"type":"Feature","id":"Kecskemet","properties":{"id":"Kecskemet","iso_code":"HU-KM","name":"Kecskemet","name_full":"Kecskemét","name_ja":"ケチケメート","center_lonlat":[19.6725,46.9162]},"geometry":{"type":"Polygon","coordinates":[[[19.6467,47.0121],[19.7692,46.9482],[19.8191,46.9455],[19.8174,46.9186],[19.786,46.9029],[19.7506,46.9029],[19.7212,46.8714],[19.7212,46.8263],[19.6898,46.7851],[19.6505,46.8066],[19.5563,46.9735],[19.5759,47.0148],[19.627,46.9971],[19.6467,47.0121]]]}},{"type":"Feature","id":"Komarom-Esztergom","properties":{"id":"Komarom-Esztergom","iso_code":"HU-KE","name":"Komarom-Esztergom","name_full":"Komárom-Esztergom","name_ja":"コマーロム・エステルゴム県","center_lonlat":[18.3115,47.6213]},"geometry":{"type":"Polygon","coordinates":[[[18.8149,47.8322],[18.8833,47.8122],[18.9347,47.7324],[18.853,47.7171],[18.8637,47.6661],[18.7591,47.6648],[18.775,47.6381],[18.685,47.5619],[18.516,47.5553],[18.524,47.5756],[18.4907,47.609],[18.4004,47.6208],[18.3729,47.6011],[18.3847,47.5756],[18.3748,47.556],[18.462,47.5054],[18.3483,47.4521],[18.3336,47.4375],[18.356,47.4161],[18.3028,47.4067],[18.2135,47.4635],[18.1282,47.4402],[18.1207,47.3871],[18.1032,47.3592],[17.9664,47.3457],[17.9493,47.385],[17.879,47.3988],[17.8825,47.4548],[17.8979,47.5038],[17.8867,47.5319],[17.9178,47.5326],[17.9291,47.55],[17.9055,47.5725],[17.9271,47.6128],[17.8976,47.6303],[17.8835,47.7525],[18.1126,47.7625],[18.2359,47.7539],[18.3479,47.7768],[18.5526,47.7928],[18.6928,47.778],[18.7677,47.8223],[18.8149,47.8322]]]}},{"type":"Feature","id":"Miskolc","properties":{"id":"Miskolc","iso_code":"HU-MI","name":"Miskolc","name_full":"Miskolc","name_ja":"ミシュコルツ","center_lonlat":[20.7172,48.1099]},"geometry":{"type":"Polygon","coordinates":[[[20.4918,48.0549],[20.49,48.1014],[20.4728,48.1134],[20.5055,48.1395],[20.5586,48.142],[20.7111,48.2228],[20.8274,48.1874],[20.8755,48.1216],[20.8755,48.0913],[20.9033,48.0407],[20.8704,48.0154],[20.7794,48.0027],[20.6732,48.0508],[20.6403,48.0811],[20.529,48.071],[20.4918,48.0549]]]}},{"type":"Feature","id":"Nagykanizsa","properties":{"id":"Nagykanizsa","iso_code":"HU-NK","name":"Nagykanizsa","name_full":"Nagykanizsa","name_ja":"ナジカニジャ","center_lonlat":[16.983,46.4584]},"geometry":{"type":"Polygon","coordinates":[[[17.0686,46.4232],[17.045,46.4192],[17.0539,46.3896],[17.0151,46.3765],[16.9633,46.3815],[16.9232,46.4016],[16.9181,46.5165],[16.9465,46.5198],[16.9532,46.5599],[16.995,46.5616],[17.0051,46.5185],[17.0318,46.5001],[17.0401,46.4634],[17.0686,46.4232]]]}},{"type":"Feature","id":"Nograd","properties":{"id":"Nograd","iso_code":"HU-NO","name":"Nograd","name_full":"Nógrád","name_ja":"ノーグラード県","center_lonlat":[19.5069,47.9796]},"geometry":{"type":"Polygon","coordinates":[[[19.9051,48.1243],[20.0383,48.1772],[20.0959,48.1411],[19.9851,48.0944],[19.9798,48.0809],[20.0206,48.0445],[20.0279,48.0115],[19.9734,47.9944],[19.9568,47.9463],[19.9034,47.9167],[19.8729,47.9255],[19.8233,47.8802],[19.7909,47.8926],[19.763,47.8794],[19.7124,47.8211],[19.6749,47.8128],[19.5807,47.7372],[19.4586,47.706],[19.449,47.7717],[19.416,47.8222],[19.1637,47.8615],[19.0829,47.8601],[18.9589,47.9194],[18.9353,47.9547],[18.9701,47.9756],[18.9672,48.0223],[18.9336,48.0543],[19.0985,48.0707],[19.2225,48.0606],[19.2932,48.0878],[19.4282,48.0859],[19.4817,48.1113],[19.514,48.204],[19.6232,48.227],[19.687,48.1969],[19.7566,48.2003],[19.7743,48.1859],[19.7667,48.159],[19.7333,48.1311],[19.7106,48.0502],[19.789,48.0401],[19.8168,48.073],[19.9051,48.1243]]]}},{"type":"Feature","id":"Nyiregyhaza","properties":{"id":"Nyiregyhaza","iso_code":"HU-NY","name":"Nyiregyhaza","name_full":"Nyíregyháza","name_ja":"ニーレジハーザ","center_lonlat":[21.7539,47.934]},"geometry":{"type":"Polygon","coordinates":[[[21.7681,48.0368],[21.7969,48.0232],[21.7969,47.9928],[21.85,47.9903],[21.8753,48.003],[21.8956,47.9878],[21.8956,47.9144],[21.8627,47.9094],[21.8601,47.874],[21.8374,47.8411],[21.7817,47.8335],[21.6199,47.874],[21.635,47.9853],[21.6619,48.0292],[21.7125,48.0317],[21.7302,48.0191],[21.7681,48.0368]]]}},{"type":"Feature","id":"Pecs","properties":{"id":"Pecs","iso_code":"HU-PS","name":"Pecs","name_full":"Pécs","name_ja":"ペーチ","center_lonlat":[18.2387,46.0845]},"geometry":{"type":"Polygon","coordinates":[[[18.3196,46.1703],[18.3705,46.0686],[18.3615,46.0566],[18.3106,46.0626],[18.2628,45.9968],[18.2358,45.9848],[18.1281,46.0387],[18.1431,46.0626],[18.1251,46.0835],[18.1355,46.1235],[18.1564,46.1414],[18.1969,46.1613],[18.2777,46.1524],[18.3196,46.1703]]]}},{"type":"Feature","id":"Pest","properties":{"id":"Pest","iso_code":"HU-PE","name":"Pest","name_full":"Pest","name_ja":"ペシュト県","center_lonlat":[19.373,47.4185]},"geometry":{"type":"Polygon","coordinates":[[[18.8149,47.8322],[18.7488,47.8707],[18.7548,47.9518],[18.7432,47.9711],[18.7942,47.9931],[18.8385,48.04],[18.9336,48.0543],[18.9672,48.0223],[18.9701,47.9756],[18.9353,47.9547],[18.9589,47.9194],[19.0829,47.8601],[19.1637,47.8615],[19.416,47.8222],[19.449,47.7717],[19.4586,47.706],[19.5807,47.7372],[19.6199,47.7156],[19.6019,47.6894],[19.6748,47.5959],[19.6646,47.5663],[19.6837,47.5387],[19.7154,47.5246],[19.7529,47.5271],[19.758,47.4922],[19.9986,47.3289],[20.0048,47.2677],[20.0224,47.2491],[20.0829,47.1975],[20.0564,47.152],[20.0511,47.1036],[20.0835,47.0581],[20.1391,47.0245],[20.2021,47.0076],[20.1464,46.9793],[20.0763,47.0204],[20.0186,46.9976],[19.9771,46.9629],[19.9159,46.9857],[19.8191,46.9455],[19.7692,46.9482],[19.6467,47.0121],[19.5306,47.1162],[19.4623,47.1235],[19.4333,47.0768],[19.3744,47.0558],[19.3525,47.0266],[19.323,47.0196],[19.3028,47.0411],[19.3344,47.0954],[19.3302,47.1244],[19.3014,47.1453],[19.2653,47.1516],[19.1575,47.1188],[19.0832,47.078],[18.9894,47.0666],[18.968,47.0331],[18.9031,47.0816],[18.8792,47.1492],[18.8814,47.1896],[18.9188,47.2871],[18.9028,47.3038],[18.9286,47.3185],[18.949,47.3693],[19.0627,47.3838],[19.1426,47.3602],[19.3042,47.4476],[19.3267,47.4861],[19.2174,47.5421],[19.1952,47.5394],[19.1919,47.5515],[19.0886,47.6068],[19.0409,47.6046],[18.9903,47.5799],[18.9296,47.5737],[18.9386,47.515],[18.9739,47.4469],[18.9555,47.4045],[18.8638,47.4618],[18.8383,47.454],[18.8619,47.3872],[18.8194,47.3563],[18.7804,47.4105],[18.787,47.439],[18.7756,47.4645],[18.685,47.5619],[18.775,47.6381],[18.7591,47.6648],[18.8637,47.6661],[18.853,47.7171],[18.9347,47.7324],[18.8833,47.8122],[18.8149,47.8322]]]}},{"type":"Feature","id":"Salgotarjan","properties":{"id":"Salgotarjan","iso_code":"HU-ST","name":"Salgotarjan","name_full":"Salgótarján","name_ja":"シャルゴータルヤーン","center_lonlat":[19.7925,48.1028]},"geometry":{"type":"Polygon","coordinates":[[[19.7667,48.159],[19.7856,48.1487],[19.8463,48.1527],[19.9051,48.1243],[19.8168,48.073],[19.789,48.0401],[19.7106,48.0502],[19.7333,48.1311],[19.7667,48.159]]]}},{"type":"Feature","id":"Somogy","properties":{"id":"Somogy","iso_code":"HU-SO","name":"Somogy","name_full":"Somogy","name_ja":"ショモジ県","center_lonlat":[17.6024,46.4488]},"geometry":{"type":"Polygon","coordinates":[[[16.8793,46.3121],[16.9176,46.3222],[16.9426,46.3018],[17.0473,46.325],[17.071,46.3636],[17.0539,46.3896],[17.045,46.4192],[17.0686,46.4232],[17.1813,46.4422],[17.2266,46.5329],[17.2204,46.6646],[17.2586,46.7101],[17.2992,46.7334],[17.366,46.7305],[17.4583,46.7496],[17.6619,46.8088],[18.0726,46.972],[18.1771,46.9531],[18.2192,46.8886],[18.218,46.7907],[18.1605,46.7755],[18.1262,46.7396],[18.0976,46.6784],[18.0869,46.6021],[18.0379,46.5157],[18.0474,46.4746],[18.069,46.4662],[18.0976,46.3712],[18.0524,46.3227],[17.9382,46.3129],[17.846,46.2289],[17.8151,46.2122],[17.7199,46.1995],[17.6909,46.1763],[17.6935,46.1149],[17.6764,46.0835],[17.617,46.0623],[17.646,46.001],[17.6305,45.981],[17.6423,45.9506],[17.7084,45.8883],[17.7051,45.8592],[17.6547,45.8521],[17.6458,45.8918],[17.5911,45.9362],[17.5119,45.9539],[17.4267,45.9567],[17.4062,45.9437],[17.3892,45.9631],[17.3453,45.9557],[17.3379,45.9846],[17.3271,45.972],[17.2901,45.9846],[17.3168,45.9977],[17.2759,46.012],[17.2486,46.0802],[17.2086,46.1166],[17.1162,46.1231],[17.0529,46.1535],[16.9748,46.2106],[16.8793,46.3121]],[[17.7764,46.4391],[17.7495,46.4541],[17.7309,46.3822],[17.707,46.3613],[17.7339,46.3074],[17.7429,46.2476],[17.7818,46.2685],[17.8147,46.2536],[17.8476,46.3104],[17.8805,46.3284],[17.8716,46.3822],[17.8416,46.4451],[17.7764,46.4391]]]}},{"type":"Feature","id":"Sopron","properties":{"id":"Sopron","iso_code":"HU-SN","name":"Sopron","name_full":"Sopron","name_ja":"ショプロン","center_lonlat":[16.5805,47.6878]},"geometry":{"type":"Polygon","coordinates":[[[16.7168,47.697],[16.6879,47.671],[16.6842,47.6384],[16.5908,47.6472],[16.5578,47.6298],[16.4078,47.6613],[16.4391,47.6905],[16.4545,47.6818],[16.5129,47.706],[16.5311,47.743],[16.5678,47.7542],[16.6899,47.7296],[16.7168,47.697]]]}},{"type":"Feature","id":"Szabolcs-Szatmar-Bereg","properties":{"id":"Szabolcs-Szatmar-Bereg","iso_code":"HU-SZ","name":"Szabolcs-Szatmar-Bereg","name_full":"Szabolcs-Szatmár-Bereg","name_ja":"サボルチ・サトマール・ベレグ県","center_lonlat":[22.0886,47.9909]},"geometry":{"type":"Polygon","coordinates":[[[22.1542,47.5822],[22.1324,47.6011],[22.0951,47.6763],[22.0487,47.6415],[22.0226,47.6589],[22.0284,47.685],[21.9994,47.7199],[21.9299,47.7462],[21.8956,47.7449],[21.8409,47.6831],[21.8019,47.7064],[21.6498,47.7424],[21.5397,47.8075],[21.5561,47.9169],[21.5461,47.9381],[21.5146,47.9455],[21.4761,47.93],[21.2694,47.9097],[21.1867,47.954],[21.1137,47.9605],[21.1378,48.0068],[21.2226,48.029],[21.2366,48.0468],[21.2986,48.024],[21.4069,48.0337],[21.4324,48.0506],[21.4427,48.0818],[21.4284,48.1299],[21.4761,48.1771],[21.6128,48.1803],[21.6902,48.1674],[21.7945,48.202],[21.846,48.2324],[21.9286,48.2398],[22.0112,48.3074],[22.0515,48.3],[22.0792,48.3115],[22.1583,48.4022],[22.202,48.4182],[22.2718,48.4035],[22.2568,48.3573],[22.2913,48.3576],[22.3081,48.2937],[22.3571,48.2431],[22.4814,48.2426],[22.5558,48.1772],[22.6055,48.097],[22.7457,48.1163],[22.831,48.0724],[22.8616,48.0284],[22.8324,47.9789],[22.8776,47.9467],[22.8361,47.9025],[22.7636,47.8748],[22.7518,47.8277],[22.7039,47.8172],[22.6377,47.7716],[22.563,47.7572],[22.4544,47.7874],[22.4237,47.7826],[22.3959,47.7357],[22.2731,47.7238],[22.2079,47.6737],[22.1976,47.6393],[22.1542,47.5822]],[[21.85,47.9903],[21.7969,47.9928],[21.7969,48.0232],[21.7681,48.0368],[21.7302,48.0191],[21.7125,48.0317],[21.6619,48.0292],[21.635,47.9853],[21.6199,47.874],[21.7817,47.8335],[21.8374,47.8411],[21.8601,47.874],[21.8627,47.9094],[21.8956,47.9144],[21.8956,47.9878],[21.8753,48.003],[21.85,47.9903]]]}},{"type":"Feature","id":"Szeged","properties":{"id":"Szeged","iso_code":"HU-SD","name":"Szeged","name_full":"Szeged","name_ja":"セゲド","center_lonlat":[20.1332,46.2561]},"geometry":{"type":"Polygon","coordinates":[[[20.1148,46.1522],[20.0634,46.1453],[20.0785,46.2275],[20.0687,46.253],[20.0098,46.2648],[20.0137,46.3178],[20.053,46.3354],[20.1119,46.3276],[20.1472,46.3551],[20.1865,46.3158],[20.2167,46.3168],[20.2297,46.2899],[20.2219,46.2757],[20.269,46.2589],[20.2709,46.2353],[20.2085,46.2388],[20.1963,46.2235],[20.212,46.1902],[20.2317,46.1784],[20.2297,46.1568],[20.2061,46.1529],[20.1649,46.198],[20.1413,46.2],[20.1148,46.1522]]]}},{"type":"Feature","id":"Szekesfehervar","properties":{"id":"Szekesfehervar","iso_code":"HU-SF","name":"Szekesfehervar","name_full":"Székesfehérvár","name_ja":"セーケシュフェヘールヴァール","center_lonlat":[18.4668,47.1866]},"geometry":{"type":"Polygon","coordinates":[[[18.4586,47.3072],[18.4783,47.3032],[18.4979,47.2757],[18.5627,47.2561],[18.5529,47.1952],[18.5764,47.1737],[18.5764,47.1462],[18.5234,47.0794],[18.49,47.0912],[18.4292,47.0657],[18.4056,47.1324],[18.3289,47.2041],[18.4586,47.3072]]]}},{"type":"Feature","id":"Szekszard","properties":{"id":"Szekszard","iso_code":"HU-SS","name":"Szekszard","name_full":"Szekszárd","name_ja":"セクサールド","center_lonlat":[18.7258,46.3543]},"geometry":{"type":"Polygon","coordinates":[[[18.7393,46.4165],[18.7693,46.361],[18.8035,46.361],[18.8176,46.348],[18.8405,46.359],[18.852,46.3411],[18.8779,46.3477],[18.8875,46.3309],[18.8548,46.3186],[18.7362,46.3422],[18.7005,46.2987],[18.6683,46.311],[18.6616,46.3391],[18.6299,46.3217],[18.6202,46.3304],[18.617,46.3547],[18.6635,46.3964],[18.7076,46.3949],[18.7163,46.4136],[18.7393,46.4165]]]}},{"type":"Feature","id":"Szolnok","properties":{"id":"Szolnok","iso_code":"HU-SK","name":"Szolnok","name_full":"Szolnok","name_ja":"ソルノク","center_lonlat":[20.1673,47.2121]},"geometry":{"type":"Polygon","coordinates":[[[20.0564,47.152],[20.0829,47.1975],[20.0224,47.2491],[20.1323,47.3414],[20.2614,47.2528],[20.2874,47.219],[20.2487,47.1905],[20.2689,47.1617],[20.3044,47.1516],[20.3018,47.1187],[20.2209,47.0984],[20.1145,47.144],[20.0564,47.152]]]}},{"type":"Feature","id":"Szombathely","properties":{"id":"Szombathely","iso_code":"HU-SH","name":"Szombathely","name_full":"Szombathely","name_ja":"ソンバトヘイ","center_lonlat":[16.6185,47.2253]},"geometry":{"type":"Polygon","coordinates":[[[16.6334,47.2909],[16.6751,47.2877],[16.6965,47.2396],[16.6805,47.1594],[16.6292,47.1658],[16.6014,47.1476],[16.5714,47.1648],[16.5273,47.2698],[16.5316,47.2815],[16.569,47.2751],[16.6334,47.2909]]]}},{"type":"Feature","id":"Tatabanya","properties":{"id":"Tatabanya","iso_code":"HU-TB","name":"Tatabanya","name_full":"Tatabánya","name_ja":"タタバーニャ","center_lonlat":[18.445,47.5711]},"geometry":{"type":"Polygon","coordinates":[[[18.516,47.5553],[18.4825,47.5388],[18.462,47.5054],[18.3748,47.556],[18.3847,47.5756],[18.3729,47.6011],[18.4004,47.6208],[18.4907,47.609],[18.524,47.5756],[18.516,47.5553]]]}},{"type":"Feature","id":"Tolna","properties":{"id":"Tolna","iso_code":"HU-TO","name":"Tolna","name_full":"Tolna","name_ja":"トルナ県","center_lonlat":[18.5476,46.5121]},"geometry":{"type":"Polygon","coordinates":[[[18.9267,46.8484],[18.9276,46.8271],[18.9847,46.7756],[19.0018,46.7085],[18.9529,46.6561],[18.8581,46.6148],[18.9201,46.4988],[18.9227,46.4686],[18.8922,46.3784],[18.9133,46.3306],[18.9144,46.2457],[18.8241,46.2171],[18.8233,46.2063],[18.847,46.2056],[18.8539,46.1932],[18.8335,46.1618],[18.7951,46.1512],[18.8292,46.1229],[18.7858,46.0997],[18.683,46.1299],[18.5784,46.2387],[18.5387,46.23],[18.4887,46.2634],[18.4079,46.2272],[18.3926,46.3128],[18.3735,46.3483],[18.3352,46.3788],[18.3338,46.4079],[18.1855,46.4041],[18.1491,46.3646],[18.0976,46.3712],[18.069,46.4662],[18.0474,46.4746],[18.0379,46.5157],[18.0869,46.6021],[18.0976,46.6784],[18.1262,46.7396],[18.1605,46.7755],[18.218,46.7907],[18.3295,46.8031],[18.3986,46.7639],[18.4819,46.7452],[18.5597,46.7845],[18.6303,46.7074],[18.6602,46.7021],[18.7396,46.7327],[18.8372,46.8179],[18.9267,46.8484]],[[18.7693,46.361],[18.7393,46.4165],[18.7163,46.4136],[18.7076,46.3949],[18.6635,46.3964],[18.6271,46.369],[18.6146,46.3411],[18.6299,46.3217],[18.6616,46.3391],[18.6683,46.311],[18.7005,46.2987],[18.7362,46.3422],[18.8548,46.3186],[18.8875,46.3309],[18.8779,46.3477],[18.852,46.3411],[18.8405,46.359],[18.8176,46.348],[18.8035,46.361],[18.7693,46.361]]]}},{"type":"Feature","id":"Vas","properties":{"id":"Vas","iso_code":"HU-VA","name":"Vas","name_full":"Vas","name_ja":"ヴァシュ県","center_lonlat":[16.742,47.1462]},"geometry":{"type":"Polygon","coordinates":[[[16.627,47.4455],[16.7343,47.3996],[16.8385,47.4355],[16.863,47.4215],[16.9442,47.412],[17.0514,47.4542],[17.0764,47.4493],[17.0577,47.4028],[17.1526,47.4372],[17.2019,47.3984],[17.3023,47.3342],[17.2274,47.308],[17.1959,47.2483],[17.2204,47.0671],[17.098,47.0468],[17.0702,47.0204],[17.014,47.0347],[16.9963,46.9974],[16.9548,46.9804],[16.8382,46.969],[16.8268,46.9504],[16.7861,46.955],[16.7507,46.938],[16.6133,46.9212],[16.5669,46.8608],[16.5008,46.8056],[16.4588,46.7864],[16.4114,46.7863],[16.4201,46.7516],[16.3662,46.6965],[16.3573,46.7158],[16.3434,46.7142],[16.3142,46.7433],[16.2982,46.7758],[16.3253,46.8394],[16.272,46.864],[16.094,46.8628],[16.1707,46.9185],[16.2239,46.9411],[16.2329,46.9661],[16.2611,46.9781],[16.2749,47.0043],[16.3878,47.002],[16.4156,46.9894],[16.4864,46.9986],[16.4676,47.0184],[16.4247,47.0241],[16.4932,47.0491],[16.4937,47.0598],[16.4543,47.0817],[16.5095,47.1375],[16.4973,47.1497],[16.4337,47.1458],[16.4418,47.1771],[16.4128,47.1872],[16.4214,47.2431],[16.4732,47.2768],[16.4244,47.3452],[16.4364,47.3585],[16.434,47.3969],[16.4566,47.4118],[16.4819,47.3923],[16.627,47.4455]],[[16.6591,47.2866],[16.5316,47.2815],[16.5714,47.1648],[16.6014,47.1476],[16.6292,47.1658],[16.6805,47.1594],[16.6965,47.2396],[16.6751,47.2877],[16.6591,47.2866]]]}},{"type":"Feature","id":"Veszprem","properties":{"id":"Veszprem","iso_code":"HU-VE","name":"Veszprem","name_full":"Veszprém","name_ja":"ヴェスプレーム県","center_lonlat":[17.6217,47.1057]},"geometry":{"type":"Polygon","coordinates":[[[18.1032,47.3592],[18.1365,47.315],[18.1008,47.3083],[18.0948,47.281],[18.1065,47.2542],[18.1492,47.2259],[18.1855,47.1698],[18.2133,47.1584],[18.2274,47.1339],[18.2192,47.0679],[18.2296,47.0425],[18.2153,46.9936],[18.1771,46.9531],[18.0726,46.972],[17.6619,46.8088],[17.4583,46.7496],[17.366,46.7305],[17.2992,46.7334],[17.2586,46.7101],[17.2204,46.6646],[17.1666,46.6492],[17.1358,46.681],[17.1486,46.7505],[17.1357,46.9761],[17.1531,47.0097],[17.098,47.0468],[17.2204,47.0671],[17.1959,47.2483],[17.2274,47.308],[17.3023,47.3342],[17.2019,47.3984],[17.2769,47.4332],[17.3694,47.4409],[17.4377,47.4199],[17.4969,47.4336],[17.5171,47.4545],[17.5687,47.4494],[17.5974,47.4616],[17.6374,47.4495],[17.7259,47.4823],[17.7612,47.4707],[17.7786,47.4815],[17.8155,47.4744],[17.8164,47.4932],[17.8825,47.4548],[17.879,47.3988],[17.9493,47.385],[17.9664,47.3457],[18.1032,47.3592]],[[18.0065,47.0581],[17.9922,47.1634],[17.9323,47.2281],[17.8988,47.2209],[17.8868,47.1898],[17.8294,47.1874],[17.827,47.1706],[17.8461,47.1539],[17.8246,47.0964],[17.8797,47.0174],[17.9251,47.0102],[17.9467,47.0246],[17.9658,47.0677],[18.0065,47.0581]]]}},{"type":"Feature","id":"Veszprem (HU-VM)","properties":{"id":"Veszprem (HU-VM)","iso_code":"HU-VM","name":"Veszprem (HU-VM)","name_full":"Veszprém","name_ja":"ヴェスプレーム","center_lonlat":[17.9148,47.1173]},"geometry":{"type":"Polygon","coordinates":[[[17.9323,47.2281],[17.9922,47.1634],[18.0065,47.0581],[17.9658,47.0677],[17.9467,47.0246],[17.9251,47.0102],[17.8797,47.0174],[17.8246,47.0964],[17.8461,47.1539],[17.827,47.1706],[17.8294,47.1874],[17.8868,47.1898],[17.8988,47.2209],[17.9323,47.2281]]]}},{"type":"Feature","id":"Zala","properties":{"id":"Zala","iso_code":"HU-ZA","name":"Zala","name_full":"Zala","name_ja":"ザラ県","center_lonlat":[16.8394,46.6823]},"geometry":{"type":"Polygon","coordinates":[[[16.3662,46.6965],[16.4201,46.7516],[16.4114,46.7863],[16.4588,46.7864],[16.5008,46.8056],[16.5669,46.8608],[16.6133,46.9212],[16.7507,46.938],[16.7861,46.955],[16.8268,46.9504],[16.8382,46.969],[16.9548,46.9804],[16.9963,46.9974],[17.014,47.0347],[17.0702,47.0204],[17.098,47.0468],[17.1531,47.0097],[17.1357,46.9761],[17.1486,46.7505],[17.1358,46.681],[17.1666,46.6492],[17.2204,46.6646],[17.2266,46.5329],[17.1813,46.4422],[17.0686,46.4232],[17.0401,46.4634],[17.0318,46.5001],[17.0051,46.5185],[16.995,46.5616],[16.9532,46.5599],[16.9465,46.5198],[16.9181,46.5165],[16.9232,46.4016],[16.9633,46.3815],[17.0151,46.3765],[17.0539,46.3896],[17.071,46.3636],[17.0473,46.325],[16.9426,46.3018],[16.9176,46.3222],[16.8793,46.3121],[16.8655,46.3591],[16.8377,46.3819],[16.8275,46.374],[16.7693,46.3961],[16.7551,46.3819],[16.6593,46.4642],[16.5943,46.483],[16.5776,46.4707],[16.5153,46.5017],[16.5008,46.5448],[16.4302,46.6044],[16.3764,46.6291],[16.3684,46.643],[16.4105,46.6684],[16.405,46.6873],[16.3662,46.6965]],[[16.8103,46.7813],[16.9127,46.8001],[16.896,46.8774],[16.8458,46.9087],[16.7708,46.8999],[16.7749,46.8377],[16.8103,46.821],[16.8103,46.7813]]]}},{"type":"Feature","id":"Zalaegerszeg","properties":{"id":"Zalaegerszeg","iso_code":"HU-ZE","name":"Zalaegerszeg","name_full":"Zalaegerszeg","name_ja":"ザラエゲルセグ","center_lonlat":[16.8406,46.8479]},"geometry":{"type":"Polygon","coordinates":[[[16.8458,46.9087],[16.896,46.8774],[16.9127,46.8001],[16.8103,46.7813],[16.8103,46.821],[16.7749,46.8377],[16.7708,46.8999],[16.8458,46.9087]]]}}]}
