{"type":"FeatureCollection","features":[{"type":"Feature","id":"Alborz","properties":{"id":"Alborz","iso_code":"IR-07","name":"Alborz","name_full":"Alborz","name_ja":"アルボルズ州","center_lonlat":[50.7786,35.9729]},"geometry":{"type":"Polygon","coordinates":[[[50.2855,35.666],[50.2386,35.741],[50.2302,35.7719],[50.2428,35.8108],[50.2977,35.854],[50.5002,35.9343],[50.5345,35.9608],[50.6259,36.1648],[50.5797,36.197],[50.5087,36.214],[50.4208,36.2964],[50.4497,36.3317],[50.5631,36.3392],[50.801,36.3187],[50.9662,36.2922],[51.0299,36.2718],[51.086,36.2223],[51.128,36.2075],[51.292,36.1781],[51.3569,36.1163],[51.3536,36.0175],[51.2971,35.9893],[51.2164,35.9973],[51.1357,35.9731],[51.0752,35.9167],[51.0591,35.8037],[50.9703,35.7997],[50.9421,35.7392],[50.8896,35.6867],[50.8251,35.6545],[50.7987,35.6048],[50.7527,35.6013],[50.7249,35.5552],[50.6965,35.5505],[50.6898,35.6392],[50.651,35.6765],[50.5948,35.677],[50.582,35.6501],[50.6207,35.6064],[50.6104,35.5748],[50.5277,35.6291],[50.4295,35.6526],[50.2855,35.666]]]}},{"type":"Feature","id":"Ardabil","properties":{"id":"Ardabil","iso_code":"IR-03","name":"Ardabil","name_full":"Ardabil","name_ja":"アルダビール州","center_lonlat":[47.9203,38.5203]},"geometry":{"type":"Polygon","coordinates":[[[48.613,38.3956],[48.6716,38.3417],[48.6771,38.3229],[48.7545,38.2955],[48.5197,38.0658],[48.4902,37.9743],[48.4584,37.935],[48.4561,37.8803],[48.5481,37.6788],[48.7141,37.4715],[48.8666,37.3521],[48.8632,37.2798],[48.8825,37.2028],[48.8151,37.2315],[48.7406,37.2014],[48.676,37.2179],[48.6568,37.212],[48.6312,37.16],[48.6003,37.1548],[48.5256,37.2183],[48.4844,37.2303],[48.4553,37.2239],[48.4186,37.2327],[48.3902,37.2617],[48.3246,37.2474],[48.3321,37.2679],[48.204,37.3471],[48.1781,37.3961],[48.1699,37.4685],[47.9437,37.566],[47.9137,37.6753],[47.9227,37.7664],[47.9554,37.8322],[47.7992,37.9841],[47.7486,38.0827],[47.7423,38.1623],[47.7128,38.2357],[47.6429,38.263],[47.4181,38.237],[47.389,38.2412],[47.3435,38.2735],[47.2317,38.2524],[47.2197,38.2835],[47.2244,38.3349],[47.3019,38.4437],[47.4238,38.5252],[47.4919,38.5409],[47.5635,38.532],[47.6123,38.558],[47.5934,38.6069],[47.5409,38.6303],[47.5401,38.6582],[47.5771,38.6971],[47.5876,38.7639],[47.5297,38.8766],[47.5273,38.952],[47.5118,38.9695],[47.5256,39.0831],[47.486,39.0947],[47.3541,39.0182],[47.3134,39.021],[47.2382,38.9814],[47.1235,38.8257],[47.1521,38.8051],[46.9975,38.6888],[46.8478,38.7219],[46.6452,38.6591],[46.5942,38.6812],[46.5657,38.7359],[46.5817,38.7982],[46.6589,38.866],[46.7493,38.8592],[46.763,38.8687],[46.773,38.9408],[46.7937,38.9418],[46.84,38.9123],[46.8839,38.9187],[46.924,38.9368],[46.9861,38.9434],[47.0935,39.0119],[47.1039,39.0498],[47.0855,39.1109],[47.0262,39.1549],[47.0136,39.187],[47.1022,39.3084],[47.2914,39.3796],[47.4069,39.4768],[47.5412,39.5152],[47.607,39.5636],[47.7453,39.6238],[47.8231,39.6803],[47.9229,39.6841],[47.9714,39.7046],[48.052,39.6501],[48.2886,39.445],[48.3389,39.3789],[48.1535,39.319],[48.1062,39.2692],[48.1043,39.2348],[48.1422,39.1812],[48.1991,39.1382],[48.2713,39.1083],[48.3068,39.0454],[48.2937,39.0046],[48.2432,38.9739],[48.0585,38.9484],[48.0524,38.9279],[47.9907,38.8912],[47.9931,38.8501],[48.013,38.8216],[48.078,38.7809],[48.223,38.7215],[48.228,38.6622],[48.3103,38.6002],[48.4153,38.6181],[48.4337,38.57],[48.5759,38.4204],[48.613,38.3956]]]}},{"type":"Feature","id":"Bushehr","properties":{"id":"Bushehr","iso_code":"IR-06","name":"Bushehr","name_full":"Bushehr","name_ja":"ブーシェフル州","center_lonlat":[51.3813,28.8488]},"geometry":{"type":"MultiPolygon","coordinates":[[[[52.6788,27.3224],[52.6013,27.3529],[52.5807,27.3723],[52.5791,27.3928],[52.6052,27.4121],[52.6665,27.4154],[52.679,27.4253],[52.6701,27.4486],[52.5984,27.4858],[52.5676,27.5407],[52.4596,27.6326],[52.2072,27.6982],[52.0892,27.7954],[52.0112,27.8327],[51.8943,27.8309],[51.8596,27.8459],[51.7228,27.8251],[51.6834,27.8306],[51.5851,27.8493],[51.5703,27.8776],[51.4964,27.893],[51.4282,27.9611],[51.4204,27.9332],[51.3999,27.9317],[51.3452,28.0527],[51.2698,28.1405],[51.2853,28.2409],[51.1419,28.4008],[51.0807,28.5339],[51.0588,28.7359],[51.0109,28.7991],[50.9787,28.8166],[50.8762,28.832],[50.8049,28.9336],[50.8026,28.9858],[50.8233,28.9966],[50.8625,28.9761],[50.8887,28.9414],[50.8993,28.9494],[50.8949,28.9761],[50.929,29.0097],[50.9299,29.0546],[50.9202,29.069],[50.9017,29.0649],[50.8744,29.1133],[50.8508,29.1055],[50.8403,29.1406],[50.7383,29.1401],[50.6937,29.1234],[50.6438,29.1435],[50.6358,29.2077],[50.6675,29.2573],[50.6826,29.2431],[50.6895,29.2908],[50.6615,29.3188],[50.6682,29.3823],[50.6553,29.4491],[50.6074,29.4995],[50.6069,29.4696],[50.4561,29.6341],[50.397,29.6547],[50.2438,29.8668],[50.1449,29.9381],[50.134,29.9835],[50.1533,29.991],[50.134,30.0041],[50.1448,30.0379],[50.1218,30.0946],[50.1277,30.1207],[50.0734,30.1957],[50.0506,30.2074],[50.1149,30.235],[50.2178,30.25],[50.2755,30.2258],[50.4298,30.2188],[50.5467,30.1824],[50.6015,30.1448],[50.6015,30.0935],[50.6283,30.0212],[50.6786,29.9778],[50.7396,29.8699],[50.7966,29.8509],[51.0176,29.8366],[51.1548,29.798],[51.2218,29.7332],[51.2756,29.6258],[51.3461,29.5285],[51.4105,29.4695],[51.4903,29.4438],[51.5788,29.3728],[52.0277,28.6324],[52.0509,28.5423],[52.1974,28.1773],[52.2224,28.1409],[52.3,28.1079],[52.3753,28.0301],[52.5109,27.7614],[52.6429,27.6172],[52.771,27.5099],[52.9709,27.382],[52.9141,27.3555],[52.818,27.3685],[52.7255,27.3638],[52.7008,27.3563],[52.6788,27.3224]]],[[[50.3058,29.2713],[50.3347,29.2587],[50.3264,29.2089],[50.3066,29.2154],[50.2833,29.2689],[50.3058,29.2713]]]]}},{"type":"Feature","id":"Chaharmahal and Bakhtiari","properties":{"id":"Chaharmahal and Bakhtiari","iso_code":"IR-08","name":"Chaharmahal and Bakhtiari","name_full":"Chaharmahal and Bakhtiari","name_ja":"チャハール＝マハール・バフティヤーリー州","center_lonlat":[50.6498,31.9457]},"geometry":{"type":"Polygon","coordinates":[[[51.3108,31.164],[51.2118,31.1556],[51.108,31.0938],[50.9591,31.1064],[50.5871,31.3897],[50.5037,31.3905],[50.3283,31.4508],[50.2575,31.4879],[50.3476,31.6049],[50.3503,31.6514],[50.3212,31.7068],[50.1364,31.8938],[50.0658,32.0638],[50.002,32.0909],[49.9384,32.1472],[49.907,32.2145],[49.7563,32.4164],[49.7361,32.5063],[49.9331,32.596],[50.0013,32.5886],[50.113,32.6151],[50.2352,32.5439],[50.3802,32.5376],[50.4257,32.546],[50.5372,32.6073],[50.7078,32.6167],[50.7491,32.6286],[50.7712,32.6488],[50.8143,32.6551],[50.8535,32.6265],[50.8732,32.5566],[50.9147,32.5365],[50.945,32.4784],[50.9493,32.3274],[51.2453,32.1243],[51.2974,32.0437],[51.3159,31.9397],[51.2842,31.8868],[51.2442,31.8633],[51.24,31.8324],[51.2899,31.769],[51.2922,31.7385],[51.2158,31.7021],[51.2099,31.6485],[51.2323,31.5347],[51.3235,31.2762],[51.3108,31.164]]]}},{"type":"Feature","id":"East Azerbaijan","properties":{"id":"East Azerbaijan","iso_code":"IR-01","name":"East Azerbaijan","name_full":"East Azerbaijan","name_ja":"東アーザルバーイジャーン州","center_lonlat":[46.5657,37.9213]},"geometry":{"type":"Polygon","coordinates":[[[47.0136,39.187],[47.0262,39.1549],[47.0855,39.1109],[47.1039,39.0498],[47.0935,39.0119],[46.9861,38.9434],[46.924,38.9368],[46.8839,38.9187],[46.84,38.9123],[46.7937,38.9418],[46.773,38.9408],[46.763,38.8687],[46.7493,38.8592],[46.6589,38.866],[46.5817,38.7982],[46.5657,38.7359],[46.5942,38.6812],[46.6452,38.6591],[46.8478,38.7219],[46.9975,38.6888],[47.1521,38.8051],[47.1235,38.8257],[47.2382,38.9814],[47.3134,39.021],[47.3541,39.0182],[47.486,39.0947],[47.5256,39.0831],[47.5118,38.9695],[47.5273,38.952],[47.5297,38.8766],[47.5876,38.7639],[47.5771,38.6971],[47.5401,38.6582],[47.5409,38.6303],[47.5934,38.6069],[47.6123,38.558],[47.5635,38.532],[47.4919,38.5409],[47.4238,38.5252],[47.3019,38.4437],[47.2244,38.3349],[47.2197,38.2835],[47.2317,38.2524],[47.3435,38.2735],[47.389,38.2412],[47.4181,38.237],[47.6429,38.263],[47.7128,38.2357],[47.7423,38.1623],[47.7486,38.0827],[47.7992,37.9841],[47.9554,37.8322],[47.9227,37.7664],[47.9137,37.6753],[47.9437,37.566],[48.1699,37.4685],[48.1781,37.3961],[48.204,37.3471],[48.3321,37.2679],[48.3246,37.2474],[48.3902,37.2617],[48.4186,37.2327],[48.4553,37.2239],[48.3341,37.1729],[47.9352,37.1957],[47.5852,37.1547],[47.4962,37.0909],[47.4003,37.0483],[47.3583,36.9925],[47.2068,36.8691],[47.1876,36.8377],[47.1938,36.7568],[46.9564,36.7348],[46.8589,36.7454],[46.8229,36.7875],[46.8238,36.854],[46.7842,36.9466],[46.7973,36.9615],[46.7928,36.9827],[46.7613,37.0044],[46.7104,37.0135],[46.6388,37.0589],[46.5927,37.065],[46.5232,37.022],[46.4495,37.0157],[46.3896,36.9844],[46.3223,36.8939],[46.2929,36.8777],[46.079,36.9816],[46.0621,37.0084],[45.9235,37.1092],[45.6865,37.1292],[45.3947,37.2819],[45.3568,37.3272],[45.3431,37.3811],[45.3545,37.5053],[45.3298,37.551],[45.2627,37.615],[45.2349,37.6688],[45.2622,37.6958],[45.253,37.7601],[45.2285,37.7896],[45.1932,38.0593],[45.1994,38.1134],[45.1728,38.166],[45.1026,38.2337],[45.0894,38.267],[45.1003,38.3105],[45.1566,38.3854],[45.3282,38.5248],[45.3656,38.5778],[45.366,38.6274],[45.3268,38.7374],[45.3558,38.8434],[45.3778,38.8852],[45.4945,38.9819],[45.6278,38.9555],[45.7169,38.9548],[46.1261,38.8627],[46.2025,38.8705],[46.2913,38.9139],[46.3782,38.9247],[46.5321,38.883],[46.5992,38.9197],[46.6522,38.9929],[46.7448,39.0403],[46.7738,39.0854],[46.806,39.1024],[46.8662,39.1654],[46.8987,39.1717],[46.9416,39.1589],[47.0136,39.187]]]}},{"type":"Feature","id":"Fars","properties":{"id":"Fars","iso_code":"IR-14","name":"Fars","name_full":"Fars","name_ja":"ファールス州","center_lonlat":[53.1861,29.2962]},"geometry":{"type":"Polygon","coordinates":[[[52.8707,31.5975],[53.1252,31.5139],[53.2765,31.3951],[53.4049,31.2615],[53.6384,30.7552],[53.8046,30.4991],[53.9641,30.33],[54.0076,30.2632],[54.0431,30.0442],[54.0718,29.9843],[54.2272,29.8829],[54.4302,29.7932],[54.4573,29.6944],[54.5499,29.5093],[54.5955,29.4546],[54.6403,29.4297],[54.8693,29.4113],[54.9275,29.3897],[55.1297,28.9507],[55.1874,28.7984],[55.1877,28.7703],[55.1549,28.7494],[55.1601,28.7021],[55.4608,28.4458],[55.4874,28.3828],[55.4755,28.2705],[55.4202,28.0657],[55.425,28.0335],[55.5095,27.9722],[55.5573,27.9032],[55.5513,27.8466],[55.5341,27.8221],[55.4811,27.7959],[55.4234,27.7989],[55.3317,27.7778],[55.1952,27.7128],[55.1564,27.6579],[55.1235,27.5692],[55.0656,27.5203],[54.9408,27.4864],[54.6741,27.5199],[54.5332,27.4822],[54.4251,27.504],[54.1584,27.4822],[54.0549,27.4504],[54.0107,27.4022],[53.9748,27.2681],[53.9861,27.2277],[53.9589,27.1887],[53.8548,27.1394],[53.5489,27.1877],[53.4327,27.1734],[53.2946,27.2554],[53.0715,27.2731],[52.9982,27.335],[52.9709,27.382],[52.771,27.5099],[52.6429,27.6172],[52.5109,27.7614],[52.3753,28.0301],[52.3,28.1079],[52.2224,28.1409],[52.1974,28.1773],[52.0509,28.5423],[52.0277,28.6324],[51.5788,29.3728],[51.4903,29.4438],[51.4105,29.4695],[51.3461,29.5285],[51.2756,29.6258],[51.2218,29.7332],[51.1548,29.798],[51.0176,29.8366],[50.7966,29.8509],[50.7396,29.8699],[50.6786,29.9778],[50.6283,30.0212],[50.6015,30.0935],[50.6015,30.1448],[50.7019,30.1686],[50.9122,30.1657],[51.1791,30.3007],[51.2003,30.3392],[51.2015,30.391],[51.1696,30.4482],[51.1813,30.4923],[51.15,30.5685],[51.1334,30.6527],[51.1483,30.6677],[51.3699,30.5973],[51.4295,30.5534],[51.5356,30.5295],[51.6402,30.5677],[51.6712,30.5996],[51.6411,30.7722],[51.7453,30.7901],[51.7345,30.8814],[51.7424,30.9687],[51.827,31.1497],[51.8716,31.3201],[51.8427,31.3874],[51.785,31.425],[51.7017,31.4449],[51.6711,31.4718],[51.6475,31.5187],[51.6512,31.5484],[51.7483,31.5286],[51.8233,31.5377],[51.9865,31.6263],[52.0058,31.6488],[52.1422,31.7125],[52.1594,31.7103],[52.1747,31.6831],[52.1841,31.5908],[52.2306,31.555],[52.4534,31.5129],[52.5277,31.5132],[52.8707,31.5975]]]}},{"type":"Feature","id":"Gilan","properties":{"id":"Gilan","iso_code":"IR-19","name":"Gilan","name_full":"Gilan","name_ja":"ギーラーン州","center_lonlat":[49.4587,37.281]},"geometry":{"type":"Polygon","coordinates":[[[48.613,38.3956],[48.6832,38.398],[48.7777,38.4448],[48.8743,38.4341],[48.8772,38.3462],[48.8659,38.3169],[48.8748,38.2427],[48.8937,38.2058],[48.9077,38.0835],[48.9491,37.9669],[48.9445,37.9034],[48.9875,37.8425],[48.9832,37.816],[49.0145,37.7392],[49.1325,37.6234],[49.2056,37.5817],[49.4417,37.4949],[49.8262,37.4536],[49.9338,37.4744],[49.9695,37.4597],[49.9353,37.4536],[50.1956,37.3894],[50.2273,37.3654],[50.2233,37.3293],[50.2451,37.2793],[50.3223,37.1533],[50.4295,37.083],[50.4789,37.035],[50.5763,36.9892],[50.5319,36.9225],[50.4396,36.8682],[50.4177,36.7854],[50.3564,36.6974],[50.3046,36.6703],[50.1686,36.681],[50.0856,36.6663],[49.8549,36.5691],[49.8053,36.562],[49.4723,36.6243],[49.355,36.7279],[49.3405,36.7766],[49.2458,36.8131],[49.1867,36.9774],[49.1442,37.0324],[49.0333,37.1261],[48.8825,37.2028],[48.8632,37.2798],[48.8666,37.3521],[48.7141,37.4715],[48.5481,37.6788],[48.4561,37.8803],[48.4584,37.935],[48.4902,37.9743],[48.5197,38.0658],[48.7545,38.2955],[48.6771,38.3229],[48.6716,38.3417],[48.613,38.3956]]]}},{"type":"Feature","id":"Golestan","properties":{"id":"Golestan","iso_code":"IR-27","name":"Golestan","name_full":"Golestan","name_ja":"ゴレスターン州","center_lonlat":[55.0566,37.2952]},"geometry":{"type":"Polygon","coordinates":[[[56.1667,38.0808],[56.1696,37.9461],[56.1815,37.904],[56.1602,37.8158],[56.1625,37.7704],[56.1965,37.7384],[56.2845,37.6952],[56.3031,37.6341],[56.248,37.5735],[56.1041,37.5379],[55.9709,37.4808],[55.8977,37.3777],[55.8674,37.3544],[55.8261,37.3272],[55.64,37.0985],[55.5573,36.9515],[55.5376,36.842],[55.5043,36.7729],[55.4536,36.7539],[55.0962,36.7931],[55.0111,36.7851],[54.8363,36.7044],[54.6667,36.5977],[54.605,36.5436],[54.4638,36.4901],[54.3941,36.4774],[54.1201,36.4848],[54.0794,36.5348],[53.9736,36.6227],[53.7528,36.73],[53.7054,36.8163],[53.8892,36.7936],[54.0143,36.8211],[54.0331,36.8458],[54.0335,36.9491],[54.0281,36.9662],[53.9944,36.9792],[54.02,37.0277],[53.9803,37.0941],[53.9277,37.2438],[53.9137,37.3428],[54.2064,37.3246],[54.2615,37.3548],[54.3642,37.3627],[54.5333,37.4408],[54.654,37.4389],[54.7883,37.5246],[54.8094,37.6033],[54.7873,37.6519],[54.8136,37.7186],[54.8566,37.7611],[55.0068,37.8431],[55.0666,37.9084],[55.1035,37.9188],[55.1303,37.9523],[55.2197,37.97],[55.2288,37.9858],[55.3075,38.0088],[55.4231,38.0759],[55.7087,38.1187],[55.963,38.0665],[56.1215,38.0865],[56.1667,38.0808]]]}},{"type":"Feature","id":"Hamadan","properties":{"id":"Hamadan","iso_code":"IR-24","name":"Hamadan","name_full":"Hamadan","name_ja":"ハマダーン州","center_lonlat":[48.5515,34.8696]},"geometry":{"type":"Polygon","coordinates":[[[49.4405,35.4376],[49.4483,35.3782],[49.4719,35.3529],[49.4681,35.3143],[49.4344,35.2838],[49.4002,35.289],[49.3808,35.3119],[49.3796,35.3559],[49.3525,35.3541],[49.3211,35.3217],[49.34,35.2545],[49.3845,35.1938],[49.3971,35.1479],[49.3488,35.1016],[49.2609,35.0843],[49.2429,35.0676],[49.2685,35.0349],[49.3135,35.016],[49.4721,34.9716],[49.5201,34.9249],[49.5452,34.8752],[49.5669,34.7676],[49.5424,34.727],[49.4987,34.7305],[49.4663,34.755],[49.4269,34.7936],[49.4117,34.839],[49.4329,34.8762],[49.4088,34.905],[49.3224,34.9174],[49.1404,34.9094],[49.1154,34.8781],[49.1266,34.8199],[49.0882,34.7488],[49.0846,34.6788],[49.1016,34.6015],[48.93,34.6243],[48.895,34.6128],[48.9095,34.5847],[48.9599,34.5682],[48.9851,34.3998],[49.0561,34.2843],[49.0958,34.1105],[49.0752,34.0669],[48.971,33.9891],[48.698,34.0859],[48.5532,34.0765],[48.5006,34.0316],[48.4711,34.0251],[48.212,34.0588],[47.694,34.3497],[47.7482,34.424],[47.8473,34.4299],[47.9596,34.4101],[47.9901,34.431],[47.9985,34.5435],[47.9693,34.6082],[47.9002,34.5874],[47.8148,34.5138],[47.7746,34.5872],[47.6412,34.6375],[47.5904,34.6714],[47.5807,34.7112],[47.5951,34.7268],[47.727,34.7466],[47.8466,34.9081],[47.8515,34.9512],[47.9795,34.9953],[47.9909,35.0234],[48.0095,35.0273],[48.0415,34.9623],[48.0632,34.9528],[48.1317,35.023],[48.1515,35.0978],[48.124,35.1902],[47.9769,35.3064],[47.8692,35.5031],[47.7995,35.5872],[47.8675,35.6602],[47.8904,35.6621],[47.9377,35.5821],[47.9687,35.5753],[48.0302,35.61],[48.1014,35.6297],[48.1016,35.6549],[48.0426,35.7474],[48.0785,35.7557],[48.2257,35.6902],[48.2595,35.6402],[48.3044,35.6175],[48.5191,35.6115],[48.6069,35.5727],[48.6909,35.5558],[48.7666,35.5774],[48.8033,35.6181],[48.8025,35.6358],[48.8491,35.6524],[48.9585,35.6508],[49.0419,35.612],[49.0798,35.573],[49.0494,35.5354],[49.1178,35.4927],[49.2457,35.475],[49.2738,35.4811],[49.4405,35.4376]]]}},{"type":"Feature","id":"Hormozgan","properties":{"id":"Hormozgan","iso_code":"IR-23","name":"Hormozgan","name_full":"Hormozgan","name_ja":"ホルモズガーン州","center_lonlat":[54.5497,27.1193]},"geometry":{"type":"MultiPolygon","coordinates":[[[[59.2511,25.4307],[59.1172,25.3942],[59.0941,25.4064],[59.0242,25.4032],[58.9943,25.4196],[58.9235,25.5134],[58.8403,25.5329],[58.8252,25.5604],[58.728,25.5636],[58.5464,25.5937],[58.4305,25.588],[58.4118,25.596],[58.419,25.612],[58.3576,25.6046],[58.3211,25.5808],[58.2907,25.5837],[58.2608,25.5657],[58.2483,25.5739],[58.2073,25.5493],[58.1379,25.5498],[58.0462,25.5749],[57.9632,25.6932],[57.9253,25.7013],[57.884,25.6916],[57.7717,25.6356],[57.7831,25.6998],[57.7556,25.7427],[57.7097,25.7485],[57.6318,25.7349],[57.5872,25.7485],[57.5207,25.7436],[57.4525,25.7629],[57.46,25.769],[57.3115,25.7841],[57.2987,25.8487],[57.2536,25.959],[57.2197,25.995],[57.1986,25.995],[57.1668,26.083],[57.1709,26.1156],[57.2129,26.1662],[57.1992,26.1982],[57.1331,26.2637],[57.1384,26.2904],[57.1182,26.3643],[57.0803,26.4154],[57.09,26.6188],[57.0249,26.851],[56.9773,26.8953],[56.9665,26.9272],[56.9255,26.9551],[56.9733,26.9688],[56.9636,26.9851],[56.9733,27.003],[56.9324,26.9893],[56.8909,27.017],[56.8655,27.0119],[56.8635,27.0303],[56.8506,27.0277],[56.8441,27.0402],[56.8846,27.0781],[56.8314,27.0961],[56.8088,27.1396],[56.7573,27.1252],[56.7161,27.1531],[56.5829,27.1531],[56.353,27.2016],[56.2596,27.1912],[56.2152,27.1679],[56.1237,27.1606],[56.0935,27.1256],[55.9393,27.0267],[55.7637,26.9962],[55.6659,26.9954],[55.5545,26.8999],[55.5824,26.9136],[55.5804,26.8591],[55.5545,26.8105],[55.5217,26.7846],[55.4422,26.7599],[55.2708,26.7925],[55.2329,26.7764],[55.2059,26.7264],[55.1033,26.7013],[54.9307,26.5727],[54.791,26.4958],[54.7497,26.5089],[54.62,26.5082],[54.5906,26.56],[54.5613,26.5847],[54.4256,26.5893],[54.3894,26.6051],[54.3377,26.6934],[54.3081,26.715],[54.1504,26.7082],[54.0158,26.7495],[53.8428,26.7021],[53.7517,26.7161],[53.7161,26.7086],[53.4915,26.8543],[53.4714,26.8896],[53.4691,26.9372],[53.4441,26.9757],[53.0287,27.1041],[52.9922,27.147],[52.9326,27.1603],[52.9147,27.192],[52.8483,27.2153],[52.7678,27.2797],[52.6788,27.3224],[52.7008,27.3563],[52.7255,27.3638],[52.818,27.3685],[52.9141,27.3555],[52.9709,27.382],[52.9982,27.335],[53.0715,27.2731],[53.2946,27.2554],[53.4327,27.1734],[53.5489,27.1877],[53.8548,27.1394],[53.9589,27.1887],[53.9861,27.2277],[53.9748,27.2681],[54.0107,27.4022],[54.0549,27.4504],[54.1584,27.4822],[54.4251,27.504],[54.5332,27.4822],[54.6741,27.5199],[54.9408,27.4864],[55.0656,27.5203],[55.1235,27.5692],[55.1564,27.6579],[55.1952,27.7128],[55.3317,27.7778],[55.4234,27.7989],[55.4811,27.7959],[55.5341,27.8221],[55.5513,27.8466],[55.5573,27.9032],[55.5095,27.9722],[55.425,28.0335],[55.4202,28.0657],[55.4755,28.2705],[55.4874,28.3828],[55.4608,28.4458],[55.1601,28.7021],[55.1549,28.7494],[55.1877,28.7703],[55.1874,28.7984],[55.1297,28.9507],[55.2146,28.9453],[55.3953,28.9003],[55.4848,28.8388],[55.5284,28.7887],[55.6171,28.7422],[55.6683,28.754],[55.8684,28.887],[56.0158,28.9386],[56.0442,28.9022],[56.0631,28.5214],[56.0384,28.4473],[56.0592,28.3495],[56.1486,28.2479],[56.2344,28.1783],[56.3373,28.1234],[56.4562,28.1072],[56.5202,28.1174],[56.6379,28.1687],[56.8227,28.3244],[56.877,28.3226],[56.9814,28.2776],[56.9893,28.2615],[56.9803,28.1592],[57.0168,28.0038],[57.0511,27.9678],[57.1339,27.9392],[57.2879,27.7486],[57.2946,27.6984],[57.2493,27.647],[57.299,27.6058],[57.3564,27.4783],[57.3877,27.104],[57.408,27.0461],[57.815,26.8469],[57.927,26.941],[57.9929,26.9395],[58.1365,26.8465],[58.1952,26.7858],[58.2239,26.7303],[58.2154,26.7112],[58.1311,26.7464],[58.1556,26.6369],[58.1179,26.5692],[58.0947,26.374],[58.1005,26.3162],[58.0699,26.2175],[58.2026,26.2259],[58.2846,26.2128],[58.3733,26.2319],[58.5092,26.2003],[58.5279,26.1895],[58.5194,26.1409],[58.5493,26.0607],[58.6831,26.0555],[58.7125,26.0834],[58.7418,26.0899],[58.8078,26.0764],[58.8631,26.0102],[58.833,25.9796],[58.8322,25.9295],[58.8815,25.9039],[59.0709,25.7529],[59.1033,25.7051],[59.1086,25.669],[59.1608,25.6382],[59.2494,25.5142],[59.2762,25.496],[59.273,25.4649],[59.2468,25.4545],[59.2511,25.4307]]],[[[56.2124,27.003],[56.2577,26.9887],[56.2874,26.9551],[56.1935,26.9245],[56.0808,26.7853],[55.947,26.6963],[55.8766,26.7429],[55.7727,26.6884],[55.6856,26.6905],[55.5029,26.5949],[55.3696,26.5641],[55.3396,26.569],[55.3198,26.5483],[55.2905,26.5485],[55.2806,26.5847],[55.2892,26.6136],[55.2738,26.6498],[55.2847,26.6602],[55.3519,26.6474],[55.4048,26.674],[55.5741,26.7206],[55.6404,26.7606],[55.7742,26.7969],[55.7668,26.8105],[55.7857,26.845],[55.781,26.8896],[55.7326,26.9409],[55.758,26.954],[55.8977,26.9068],[55.9356,26.9148],[56.041,26.9757],[56.2124,27.003]]],[[[54.0369,26.4884],[53.9554,26.4926],[53.9231,26.5065],[53.9028,26.5362],[53.9455,26.5651],[54.0188,26.5556],[54.0505,26.5178],[54.0369,26.4884]]],[[[53.3171,26.8],[53.2991,26.7907],[53.2228,26.7995],[53.1494,26.8479],[53.1781,26.8569],[53.2625,26.8336],[53.3374,26.8287],[53.382,26.8031],[53.3171,26.8]]],[[[56.3223,26.8344],[56.3412,26.8793],[56.4041,26.8931],[56.4092,26.8622],[56.3792,26.8387],[56.341,26.8276],[56.3223,26.8344]]],[[[56.473,27.106],[56.5046,27.0889],[56.5047,27.0617],[56.4662,27.0439],[56.4346,27.0548],[56.4369,27.08],[56.473,27.106]]],[[[54.5264,26.3096],[54.5474,26.2904],[54.521,26.251],[54.4922,26.2656],[54.4881,26.298],[54.5068,26.3212],[54.5264,26.3096]]],[[[55.8943,26.6794],[55.904,26.6453],[55.8897,26.6238],[55.8693,26.613],[55.8532,26.621],[55.8683,26.6664],[55.8943,26.6794]]],[[[53.6394,26.6888],[53.6592,26.6688],[53.6463,26.6572],[53.6012,26.6796],[53.6092,26.6905],[53.6394,26.6888]]],[[[55.0487,25.8858],[55.0544,25.8646],[55.0184,25.8596],[55.0121,25.8816],[55.0487,25.8858]]],[[[54.5466,25.9265],[54.5532,25.8998],[54.5137,25.9027],[54.5098,25.9138],[54.5466,25.9265]]]]}},{"type":"Feature","id":"Ilam","properties":{"id":"Ilam","iso_code":"IR-05","name":"Ilam","name_full":"Ilam","name_ja":"イーラーム州","center_lonlat":[46.8329,33.1766]},"geometry":{"type":"Polygon","coordinates":[[[45.7246,33.633],[45.7473,33.6489],[45.7685,33.7937],[45.8175,33.9577],[45.8035,33.9959],[45.822,34.0138],[46.0359,34.0286],[46.1857,33.9776],[46.3471,33.9574],[46.4878,33.87],[46.7388,33.8026],[46.8557,33.7947],[47.0259,33.8309],[47.1825,33.8249],[47.2035,33.8591],[47.2174,33.9237],[47.1751,33.9831],[47.1751,34.0136],[47.3356,34.0444],[47.3862,34.0378],[47.4228,33.9782],[47.4317,33.9292],[47.4265,33.8975],[47.3893,33.854],[47.3137,33.7996],[46.9636,33.7175],[46.9016,33.6684],[46.8795,33.623],[46.8449,33.6151],[46.8279,33.5537],[46.9236,33.4712],[47.0095,33.4334],[47.0004,33.3972],[47.0294,33.3659],[47.0988,33.3346],[47.1237,33.3399],[47.2012,33.293],[47.2194,33.2642],[47.4104,33.1908],[47.4265,33.1679],[47.4654,33.1595],[47.5218,33.0924],[47.5555,33.0813],[47.7059,32.9208],[47.8669,32.6355],[47.8988,32.6015],[47.8068,32.4205],[47.7338,32.335],[47.7473,32.2202],[47.7115,32.1707],[47.5802,32.1035],[47.4913,32.1486],[47.504,32.2267],[47.4025,32.3235],[47.3959,32.342],[47.4164,32.388],[47.3433,32.4587],[47.2653,32.4847],[47.1526,32.4552],[47.0906,32.4746],[46.7159,32.756],[46.4793,32.8918],[46.3796,32.9318],[46.2734,32.9595],[46.097,32.9543],[46.0757,32.9945],[46.1195,33.031],[46.1204,33.0617],[46.0433,33.0835],[46.0303,33.1057],[46.1054,33.1184],[46.1672,33.1683],[46.1737,33.1902],[46.1577,33.2057],[46.1642,33.2433],[46.1553,33.2602],[46.0362,33.3679],[46.0194,33.4384],[45.9744,33.4908],[45.9531,33.4966],[45.8994,33.4763],[45.8526,33.4944],[45.9279,33.5509],[45.9209,33.573],[45.882,33.6002],[45.886,33.6309],[45.8158,33.6258],[45.7346,33.5831],[45.7246,33.633]]]}},{"type":"Feature","id":"Isfahan","properties":{"id":"Isfahan","iso_code":"IR-04","name":"Isfahan","name_full":"Isfahan","name_ja":"エスファハーン州","center_lonlat":[52.4644,33.1815]},"geometry":{"type":"Polygon","coordinates":[[[50.0015,33.4987],[50.0845,33.5561],[50.2432,33.6349],[50.6601,33.7262],[50.7787,33.7979],[50.8989,33.8149],[51.0211,34.0462],[51.033,34.1058],[51.0047,34.1184],[50.9837,34.1616],[51.0138,34.3579],[51.0255,34.387],[51.0631,34.4182],[51.1584,34.4525],[51.4517,34.4697],[51.7889,34.542],[51.9823,34.4554],[52.0802,34.4421],[52.3541,34.4566],[52.4223,34.4477],[52.9001,34.325],[55.2867,34.3841],[55.3416,34.3692],[55.3752,34.3419],[55.3864,33.6655],[55.3599,33.5946],[55.2746,33.4706],[55.2172,33.4373],[55.1394,33.4304],[55.0401,33.3857],[54.9863,33.33],[54.9409,33.1626],[54.9082,33.0882],[54.8147,32.9707],[54.709,32.9201],[53.6507,32.6129],[53.334,32.6741],[53.2611,32.672],[53.1646,32.6403],[53.0604,32.5767],[52.8837,32.5052],[52.8762,32.472],[52.9049,32.1646],[52.8241,31.8138],[52.8271,31.7444],[52.8707,31.5975],[52.5277,31.5132],[52.4534,31.5129],[52.2306,31.555],[52.1841,31.5908],[52.1747,31.6831],[52.1594,31.7103],[52.1422,31.7125],[52.0058,31.6488],[51.9865,31.6263],[51.8233,31.5377],[51.7483,31.5286],[51.6512,31.5484],[51.6475,31.5187],[51.6711,31.4718],[51.7017,31.4449],[51.785,31.425],[51.8427,31.3874],[51.8716,31.3201],[51.827,31.1497],[51.7424,30.9687],[51.7345,30.8814],[51.7453,30.7901],[51.6411,30.7722],[51.4809,30.876],[51.3732,30.9745],[51.3177,31.0972],[51.3108,31.164],[51.3235,31.2762],[51.2323,31.5347],[51.2099,31.6485],[51.2158,31.7021],[51.2922,31.7385],[51.2899,31.769],[51.24,31.8324],[51.2442,31.8633],[51.2842,31.8868],[51.3159,31.9397],[51.2974,32.0437],[51.2453,32.1243],[50.9493,32.3274],[50.945,32.4784],[50.9147,32.5365],[50.8732,32.5566],[50.8535,32.6265],[50.8143,32.6551],[50.7712,32.6488],[50.7491,32.6286],[50.7078,32.6167],[50.5372,32.6073],[50.4257,32.546],[50.3802,32.5376],[50.2352,32.5439],[50.113,32.6151],[50.0013,32.5886],[49.9331,32.596],[49.7361,32.5063],[49.7843,32.6088],[49.7428,32.6562],[49.6426,32.6883],[49.5556,32.6834],[49.5016,32.7078],[49.4532,32.8088],[49.4722,32.8628],[49.5749,32.8976],[49.6206,32.9265],[49.6386,33.0451],[49.696,33.1019],[49.8687,33.149],[49.8764,33.191],[49.9774,33.3612],[49.9791,33.4587],[50.0015,33.4987]]]}},{"type":"Feature","id":"Kerman","properties":{"id":"Kerman","iso_code":"IR-15","name":"Kerman","name_full":"Kerman","name_ja":"ケルマーン州","center_lonlat":[57.2775,29.5754]},"geometry":{"type":"Polygon","coordinates":[[[55.1297,28.9507],[54.9275,29.3897],[54.8693,29.4113],[54.6403,29.4297],[54.5955,29.4546],[54.5499,29.5093],[54.4573,29.6944],[54.4302,29.7932],[54.4844,29.8177],[54.5852,29.8284],[54.6167,29.848],[54.5912,29.9731],[54.6038,30.2974],[54.5394,30.3506],[54.5156,30.4504],[54.4564,30.5845],[54.4006,30.6755],[54.3981,30.7251],[54.4203,30.7979],[54.4665,30.8734],[54.5544,30.9578],[55.1165,31.0432],[55.3264,31.0248],[55.515,31.0468],[55.6845,31.1109],[55.6995,31.1804],[55.7123,31.4952],[55.7568,31.5763],[56.2878,31.8151],[56.3585,31.879],[56.5664,31.9789],[56.6341,32.0492],[56.7616,32.0301],[57.8347,31.6373],[58.9729,31.1979],[59.1163,31.1062],[59.5154,30.6066],[59.3103,29.7815],[59.3013,29.6984],[59.3702,29.6507],[59.41,29.563],[59.4446,29.3517],[59.4418,29.2645],[59.4111,29.1655],[59.3273,29.0536],[59.3129,28.9891],[59.3286,28.8406],[59.358,28.7867],[59.3667,28.7109],[59.2922,28.6517],[59.0596,28.5326],[58.888,28.4714],[58.9252,28.4209],[59.0074,28.3659],[59.0429,28.3152],[59.0119,28.2247],[58.8966,28.0917],[58.9033,27.7453],[58.8901,27.6308],[58.7749,27.2294],[58.7753,27.1303],[58.7992,27.0464],[58.7999,26.9446],[58.8206,26.8766],[58.8967,26.7983],[58.9494,26.7026],[58.893,26.5835],[58.9412,26.5345],[58.9422,26.5002],[58.8852,26.42],[58.9039,26.3617],[58.9384,26.325],[58.947,26.2866],[58.9122,26.2275],[58.914,26.1949],[58.8882,26.1527],[58.8828,26.054],[58.8631,26.0102],[58.8078,26.0764],[58.7418,26.0899],[58.7125,26.0834],[58.6831,26.0555],[58.5493,26.0607],[58.5194,26.1409],[58.5279,26.1895],[58.5092,26.2003],[58.3733,26.2319],[58.2846,26.2128],[58.2026,26.2259],[58.0699,26.2175],[58.1005,26.3162],[58.0947,26.374],[58.1179,26.5692],[58.1556,26.6369],[58.1311,26.7464],[58.2154,26.7112],[58.2239,26.7303],[58.1952,26.7858],[58.1365,26.8465],[57.9929,26.9395],[57.927,26.941],[57.815,26.8469],[57.408,27.0461],[57.3877,27.104],[57.3564,27.4783],[57.299,27.6058],[57.2493,27.647],[57.2946,27.6984],[57.2879,27.7486],[57.1339,27.9392],[57.0511,27.9678],[57.0168,28.0038],[56.9803,28.1592],[56.9893,28.2615],[56.9814,28.2776],[56.877,28.3226],[56.8227,28.3244],[56.6379,28.1687],[56.5202,28.1174],[56.4562,28.1072],[56.3373,28.1234],[56.2344,28.1783],[56.1486,28.2479],[56.0592,28.3495],[56.0384,28.4473],[56.0631,28.5214],[56.0442,28.9022],[56.0158,28.9386],[55.8684,28.887],[55.6683,28.754],[55.6171,28.7422],[55.5284,28.7887],[55.4848,28.8388],[55.3953,28.9003],[55.2146,28.9453],[55.1297,28.9507]]]}},{"type":"Feature","id":"Kermanshah","properties":{"id":"Kermanshah","iso_code":"IR-17","name":"Kermanshah","name_full":"Kermanshah","name_ja":"ケルマーンシャー州","center_lonlat":[46.6099,34.4543]},"geometry":{"type":"Polygon","coordinates":[[[46.1253,35.285],[46.3429,35.1548],[46.5833,34.8854],[46.6261,34.861],[46.649,34.8623],[46.6465,34.7725],[46.6796,34.7425],[46.8296,34.7391],[46.9359,34.7639],[46.9403,34.7968],[46.9601,34.8185],[46.9926,34.823],[47.0139,34.8429],[47.0269,34.8937],[47.0689,34.9054],[47.1292,34.9571],[47.2509,34.9695],[47.2673,35.0537],[47.4105,35.0615],[47.4448,35.0873],[47.4481,35.1212],[47.43,35.151],[47.4408,35.1701],[47.4698,35.168],[47.5093,35.1404],[47.6237,35.0978],[47.7774,34.9555],[47.8515,34.9512],[47.8466,34.9081],[47.727,34.7466],[47.5951,34.7268],[47.5807,34.7112],[47.5904,34.6714],[47.6412,34.6375],[47.7746,34.5872],[47.8148,34.5138],[47.9002,34.5874],[47.9693,34.6082],[47.9985,34.5435],[47.9901,34.431],[47.9596,34.4101],[47.8473,34.4299],[47.7482,34.424],[47.694,34.3497],[47.6252,34.3574],[47.577,34.3404],[47.5774,34.208],[47.3997,34.1607],[47.3936,34.1464],[47.4141,34.116],[47.4178,34.0675],[47.3862,34.0378],[47.3356,34.0444],[47.1751,34.0136],[47.1751,33.9831],[47.2174,33.9237],[47.2035,33.8591],[47.1825,33.8249],[47.0259,33.8309],[46.8557,33.7947],[46.7388,33.8026],[46.4878,33.87],[46.3471,33.9574],[46.1857,33.9776],[46.0359,34.0286],[45.822,34.0138],[45.8035,33.9959],[45.8175,33.9577],[45.7685,33.7937],[45.7473,33.6489],[45.7246,33.633],[45.6452,33.6979],[45.6167,33.7687],[45.5748,33.8039],[45.4858,33.9387],[45.4237,33.9388],[45.3804,33.9736],[45.4199,33.9943],[45.4549,34.0699],[45.5445,34.1395],[45.5267,34.1793],[45.5477,34.2165],[45.563,34.2893],[45.5576,34.312],[45.5215,34.3425],[45.4793,34.3291],[45.4608,34.3405],[45.4171,34.4444],[45.4268,34.4575],[45.4793,34.4673],[45.5035,34.4942],[45.5007,34.5917],[45.5739,34.5673],[45.7015,34.5513],[45.7086,34.5791],[45.6945,34.5986],[45.6876,34.6532],[45.6669,34.69],[45.6274,34.7208],[45.6628,34.7633],[45.6668,34.8069],[45.7454,34.841],[45.7551,34.91],[45.835,34.8902],[45.8502,34.9068],[45.869,34.9684],[45.857,35.0213],[45.8725,35.0414],[45.8991,35.0469],[45.9132,35.0873],[46.0092,35.0609],[46.0666,35.0888],[46.1431,35.0995],[46.1511,35.1116],[46.1304,35.1314],[46.1693,35.2162],[46.1015,35.2343],[46.0988,35.25],[46.1253,35.285]]]}},{"type":"Feature","id":"Khuzestan","properties":{"id":"Khuzestan","iso_code":"IR-10","name":"Khuzestan","name_full":"Khuzestan","name_ja":"フーゼスターン州","center_lonlat":[48.9596,31.4964]},"geometry":{"type":"Polygon","coordinates":[[[47.5802,32.1035],[47.7115,32.1707],[47.7473,32.2202],[47.7338,32.335],[47.8068,32.4205],[47.8988,32.6015],[47.9535,32.669],[48.0901,32.9713],[48.1442,33.006],[48.391,33.0198],[48.4612,33.0381],[48.5674,33.0447],[48.6712,33.0188],[48.7225,32.9768],[48.7849,32.9608],[49.0063,32.942],[49.2393,32.807],[49.3799,32.7958],[49.4532,32.8088],[49.5016,32.7078],[49.5556,32.6834],[49.6426,32.6883],[49.7428,32.6562],[49.7843,32.6088],[49.7361,32.5063],[49.7563,32.4164],[49.907,32.2145],[49.9384,32.1472],[50.002,32.0909],[50.0658,32.0638],[50.1364,31.8938],[50.3212,31.7068],[50.3503,31.6514],[50.3476,31.6049],[50.2575,31.4879],[50.1909,31.4117],[50.0711,31.3199],[49.994,31.2921],[49.9348,31.2411],[49.9182,31.2087],[49.9191,31.1502],[49.9676,30.9685],[49.9481,30.8909],[49.9548,30.8664],[50.1253,30.8858],[50.2439,30.7746],[50.3956,30.6955],[50.4128,30.6428],[50.355,30.5255],[50.362,30.4736],[50.394,30.4424],[50.4127,30.376],[50.4298,30.2188],[50.2755,30.2258],[50.2178,30.25],[50.1149,30.235],[50.0506,30.2074],[49.9883,30.2199],[49.9146,30.2039],[49.6008,30.0301],[49.5645,30.0168],[49.5322,30.0229],[49.5041,30.0587],[49.5012,30.1201],[49.4798,30.1561],[49.4282,30.1685],[49.384,30.1617],[49.3499,30.1753],[49.2451,30.1565],[49.2371,30.2064],[49.216,30.2238],[49.2212,30.2646],[49.2092,30.2715],[49.1929,30.2377],[49.1614,30.2238],[49.124,30.2564],[49.0173,30.2983],[48.9795,30.3618],[48.9212,30.3808],[48.9486,30.4011],[49.0108,30.3959],[49.062,30.4081],[49.1764,30.3727],[49.2029,30.3466],[49.2572,30.4219],[49.2638,30.4497],[49.2283,30.4544],[49.2112,30.5063],[49.1682,30.477],[49.1668,30.5088],[49.134,30.4975],[49.1101,30.518],[48.9815,30.5156],[48.953,30.5002],[48.9456,30.4797],[49.0044,30.464],[49.0373,30.4325],[49.0173,30.4149],[48.9348,30.4186],[48.8623,30.3456],[48.8737,30.3367],[48.8596,30.3162],[48.867,30.2947],[48.9212,30.2504],[48.936,30.2101],[48.9348,30.0797],[48.9153,30.0422],[48.8767,30.0245],[48.7914,30.0245],[48.702,30.0319],[48.6433,30.0554],[48.6587,29.9836],[48.6108,29.957],[48.5374,29.9699],[48.531,29.9613],[48.4643,29.9891],[48.4239,30.0836],[48.3831,30.1384],[48.3833,30.1565],[48.4106,30.1915],[48.397,30.221],[48.2964,30.3198],[48.2001,30.3239],[48.1705,30.4067],[48.1409,30.4419],[48.0136,30.4639],[48.0122,30.9891],[47.6729,30.9947],[47.6789,31.4079],[47.8373,31.7845],[47.8208,31.8236],[47.7653,31.8641],[47.6681,32.0124],[47.6178,32.0419],[47.5802,32.1035]]]}},{"type":"Feature","id":"Kohgiluyeh and Boyer-Ahmad","properties":{"id":"Kohgiluyeh and Boyer-Ahmad","iso_code":"IR-18","name":"Kohgiluyeh and Boyer-Ahmad","name_full":"Kohgiluyeh and Boyer-Ahmad","name_ja":"コフギールーイェ・ブーイェル＝アフマド州","center_lonlat":[50.7329,30.8148]},"geometry":{"type":"Polygon","coordinates":[[[51.3108,31.164],[51.3177,31.0972],[51.3732,30.9745],[51.4809,30.876],[51.6411,30.7722],[51.6712,30.5996],[51.6402,30.5677],[51.5356,30.5295],[51.4295,30.5534],[51.3699,30.5973],[51.1483,30.6677],[51.1334,30.6527],[51.15,30.5685],[51.1813,30.4923],[51.1696,30.4482],[51.2015,30.391],[51.2003,30.3392],[51.1791,30.3007],[50.9122,30.1657],[50.7019,30.1686],[50.6015,30.1448],[50.5467,30.1824],[50.4298,30.2188],[50.4127,30.376],[50.394,30.4424],[50.362,30.4736],[50.355,30.5255],[50.4128,30.6428],[50.3956,30.6955],[50.2439,30.7746],[50.1253,30.8858],[49.9548,30.8664],[49.9481,30.8909],[49.9676,30.9685],[49.9191,31.1502],[49.9182,31.2087],[49.9348,31.2411],[49.994,31.2921],[50.0711,31.3199],[50.1909,31.4117],[50.2575,31.4879],[50.3283,31.4508],[50.5037,31.3905],[50.5871,31.3897],[50.9591,31.1064],[51.108,31.0938],[51.2118,31.1556],[51.3108,31.164]]]}},{"type":"Feature","id":"Kurdistan","properties":{"id":"Kurdistan","iso_code":"IR-16","name":"Kurdistan","name_full":"Kurdistan","name_ja":"コルデスターン州","center_lonlat":[46.9548,35.7184]},"geometry":{"type":"Polygon","coordinates":[[[45.5014,36.0054],[45.575,36.0544],[45.5916,36.0869],[45.647,36.138],[45.6608,36.1867],[45.7245,36.2476],[45.8871,36.2899],[45.9352,36.3489],[45.9367,36.3972],[45.9588,36.4202],[46.0464,36.4481],[46.2979,36.4191],[46.8152,36.4578],[46.9238,36.3725],[47.0277,36.3493],[47.141,36.3412],[47.2165,36.3682],[47.276,36.4351],[47.2784,36.487],[47.3323,36.5077],[47.3613,36.4842],[47.8651,36.4034],[47.9001,36.3706],[47.9411,36.2878],[47.9287,36.271],[47.9274,36.2195],[47.9489,36.2165],[47.9677,36.16],[47.9676,36.0583],[47.9456,35.9851],[47.9063,35.9516],[47.8898,35.9155],[47.9036,35.889],[48.1788,35.7529],[48.2257,35.6902],[48.0785,35.7557],[48.0426,35.7474],[48.1016,35.6549],[48.1014,35.6297],[48.0302,35.61],[47.9687,35.5753],[47.9377,35.5821],[47.8904,35.6621],[47.8675,35.6602],[47.7995,35.5872],[47.8692,35.5031],[47.9769,35.3064],[48.124,35.1902],[48.1515,35.0978],[48.1317,35.023],[48.0632,34.9528],[48.0415,34.9623],[48.0095,35.0273],[47.9909,35.0234],[47.9795,34.9953],[47.8515,34.9512],[47.7774,34.9555],[47.6237,35.0978],[47.5093,35.1404],[47.4698,35.168],[47.4408,35.1701],[47.43,35.151],[47.4481,35.1212],[47.4448,35.0873],[47.4105,35.0615],[47.2673,35.0537],[47.2509,34.9695],[47.1292,34.9571],[47.0689,34.9054],[47.0269,34.8937],[47.0139,34.8429],[46.9926,34.823],[46.9601,34.8185],[46.9403,34.7968],[46.9359,34.7639],[46.8296,34.7391],[46.6796,34.7425],[46.6465,34.7725],[46.649,34.8623],[46.6261,34.861],[46.5833,34.8854],[46.3429,35.1548],[46.1253,35.285],[46.1202,35.3185],[46.041,35.3816],[45.977,35.4653],[45.9636,35.5034],[45.9846,35.5311],[45.9593,35.5787],[45.9992,35.5721],[45.9924,35.6409],[46.0165,35.6857],[46.107,35.6898],[46.1777,35.7154],[46.2379,35.7155],[46.3134,35.7715],[46.3251,35.7878],[46.3196,35.8169],[46.2814,35.8283],[46.2274,35.8057],[46.1635,35.7975],[46.1291,35.8155],[46.115,35.8464],[46.0604,35.8572],[46.0049,35.838],[45.8783,35.8352],[45.8348,35.8105],[45.731,35.8151],[45.6469,35.9332],[45.5014,36.0054]]]}},{"type":"Feature","id":"Lorestan","properties":{"id":"Lorestan","iso_code":"IR-20","name":"Lorestan","name_full":"Lorestan","name_ja":"ロレスターン州","center_lonlat":[48.406,33.4844]},"geometry":{"type":"Polygon","coordinates":[[[50.0015,33.4987],[49.9791,33.4587],[49.9774,33.3612],[49.8764,33.191],[49.8687,33.149],[49.696,33.1019],[49.6386,33.0451],[49.6206,32.9265],[49.5749,32.8976],[49.4722,32.8628],[49.4532,32.8088],[49.3799,32.7958],[49.2393,32.807],[49.0063,32.942],[48.7849,32.9608],[48.7225,32.9768],[48.6712,33.0188],[48.5674,33.0447],[48.4612,33.0381],[48.391,33.0198],[48.1442,33.006],[48.0901,32.9713],[47.9535,32.669],[47.8988,32.6015],[47.8669,32.6355],[47.7059,32.9208],[47.5555,33.0813],[47.5218,33.0924],[47.4654,33.1595],[47.4265,33.1679],[47.4104,33.1908],[47.2194,33.2642],[47.2012,33.293],[47.1237,33.3399],[47.0988,33.3346],[47.0294,33.3659],[47.0004,33.3972],[47.0095,33.4334],[46.9236,33.4712],[46.8279,33.5537],[46.8449,33.6151],[46.8795,33.623],[46.9016,33.6684],[46.9636,33.7175],[47.3137,33.7996],[47.3893,33.854],[47.4265,33.8975],[47.4317,33.9292],[47.4228,33.9782],[47.3862,34.0378],[47.4178,34.0675],[47.4141,34.116],[47.3936,34.1464],[47.3997,34.1607],[47.5774,34.208],[47.577,34.3404],[47.6252,34.3574],[47.694,34.3497],[48.212,34.0588],[48.4711,34.0251],[48.5006,34.0316],[48.5532,34.0765],[48.698,34.0859],[48.971,33.9891],[48.9481,33.9354],[48.964,33.8855],[48.9104,33.7625],[48.9235,33.7416],[48.9743,33.7169],[49.0404,33.6967],[49.1809,33.68],[49.2798,33.7387],[49.3139,33.826],[49.4637,33.8867],[49.5186,33.8721],[49.5897,33.7891],[49.5908,33.7625],[49.564,33.7042],[49.5735,33.6808],[49.6813,33.626],[49.7466,33.5754],[49.77,33.5885],[49.7962,33.6469],[49.8312,33.6677],[49.9233,33.5932],[49.9289,33.5355],[50.0015,33.4987]]]}},{"type":"Feature","id":"Markazi","properties":{"id":"Markazi","iso_code":"IR-22","name":"Markazi","name_full":"Markazi","name_ja":"マルキャズィー州","center_lonlat":[49.9303,34.5683]},"geometry":{"type":"Polygon","coordinates":[[[51.033,34.1058],[51.0211,34.0462],[50.8989,33.8149],[50.7787,33.7979],[50.6601,33.7262],[50.2432,33.6349],[50.0845,33.5561],[50.0015,33.4987],[49.9289,33.5355],[49.9233,33.5932],[49.8312,33.6677],[49.7962,33.6469],[49.77,33.5885],[49.7466,33.5754],[49.6813,33.626],[49.5735,33.6808],[49.564,33.7042],[49.5908,33.7625],[49.5897,33.7891],[49.5186,33.8721],[49.4637,33.8867],[49.3139,33.826],[49.2798,33.7387],[49.1809,33.68],[49.0404,33.6967],[48.9743,33.7169],[48.9235,33.7416],[48.9104,33.7625],[48.964,33.8855],[48.9481,33.9354],[48.971,33.9891],[49.0752,34.0669],[49.0958,34.1105],[49.0561,34.2843],[48.9851,34.3998],[48.9599,34.5682],[48.9095,34.5847],[48.895,34.6128],[48.93,34.6243],[49.1016,34.6015],[49.0846,34.6788],[49.0882,34.7488],[49.1266,34.8199],[49.1154,34.8781],[49.1404,34.9094],[49.3224,34.9174],[49.4088,34.905],[49.4329,34.8762],[49.4117,34.839],[49.4269,34.7936],[49.4663,34.755],[49.4987,34.7305],[49.5424,34.727],[49.5669,34.7676],[49.5452,34.8752],[49.5201,34.9249],[49.4721,34.9716],[49.3135,35.016],[49.2685,35.0349],[49.2429,35.0676],[49.2609,35.0843],[49.3488,35.1016],[49.3971,35.1479],[49.3845,35.1938],[49.34,35.2545],[49.3211,35.3217],[49.3525,35.3541],[49.3796,35.3559],[49.3808,35.3119],[49.4002,35.289],[49.4344,35.2838],[49.4681,35.3143],[49.4719,35.3529],[49.4483,35.3782],[49.4405,35.4376],[49.6159,35.4416],[49.6459,35.4979],[49.6879,35.5232],[49.9156,35.588],[50.0167,35.6031],[50.1961,35.6667],[50.2855,35.666],[50.4295,35.6526],[50.5277,35.6291],[50.6104,35.5748],[50.6207,35.6064],[50.582,35.6501],[50.5948,35.677],[50.651,35.6765],[50.6898,35.6392],[50.6965,35.5505],[50.7249,35.5552],[50.7527,35.6013],[50.7987,35.6048],[50.8708,35.517],[50.8712,35.4472],[50.7847,35.2184],[50.7564,35.1858],[50.723,35.1079],[50.6937,34.916],[50.5715,34.8781],[50.4476,34.8621],[50.3882,34.8299],[50.3011,34.8094],[50.2111,34.8194],[50.154,34.7815],[50.1526,34.7161],[50.1734,34.692],[50.1628,34.672],[50.0694,34.6287],[50.06,34.5771],[50.1583,34.4921],[50.2641,34.4664],[50.3087,34.4085],[50.3045,34.3675],[50.3287,34.3179],[50.4412,34.2248],[50.6993,34.2049],[50.8022,34.1579],[51.033,34.1058]]]}},{"type":"Feature","id":"Mazandaran","properties":{"id":"Mazandaran","iso_code":"IR-21","name":"Mazandaran","name_full":"Mazandaran","name_ja":"マーザンダラーン州","center_lonlat":[52.3639,36.3799]},"geometry":{"type":"Polygon","coordinates":[[[50.5763,36.9892],[51.0047,36.7676],[51.0886,36.737],[51.909,36.5827],[52.0941,36.6025],[52.2586,36.6509],[52.7793,36.7404],[53.1157,36.8223],[53.4476,36.8819],[53.8859,36.9058],[53.9578,36.9196],[54.0065,36.9526],[54.0042,36.9146],[53.9476,36.8987],[53.8182,36.8752],[53.7771,36.8837],[53.719,36.8707],[53.6091,36.8769],[53.631,36.862],[53.6638,36.8632],[53.636,36.857],[53.6602,36.8312],[53.7054,36.8163],[53.7528,36.73],[53.9736,36.6227],[54.0794,36.5348],[54.1201,36.4848],[54.0194,36.4605],[53.9362,36.421],[53.8611,36.3603],[53.8257,36.3048],[53.7877,36.1638],[53.6457,36.053],[53.5866,35.9735],[53.5432,35.9422],[53.3959,35.8911],[53.3458,35.8855],[53.3136,35.9002],[53.1981,35.8561],[53.0347,35.8311],[52.9448,35.8816],[52.9014,35.8897],[52.8163,35.8683],[52.7403,35.881],[52.6259,35.9313],[52.3985,35.9762],[52.3068,35.9174],[52.177,35.79],[52.1082,35.7672],[52.0292,35.7709],[51.9502,35.7998],[51.8565,35.9216],[51.7544,36.011],[51.6183,36.0541],[51.465,36.0647],[51.3569,36.1163],[51.292,36.1781],[51.128,36.2075],[51.086,36.2223],[51.0299,36.2718],[50.9662,36.2922],[50.801,36.3187],[50.7884,36.3658],[50.5711,36.4895],[50.3046,36.6703],[50.3564,36.6974],[50.4177,36.7854],[50.4396,36.8682],[50.5319,36.9225],[50.5763,36.9892]]]}},{"type":"Feature","id":"North Khorasan","properties":{"id":"North Khorasan","iso_code":"IR-31","name":"North Khorasan","name_full":"North Khorasan","name_ja":"北ホラーサーン州","center_lonlat":[57.0315,37.4044]},"geometry":{"type":"Polygon","coordinates":[[[57.7348,37.8983],[57.5757,37.8087],[57.5758,37.7651],[57.5483,37.6933],[57.5864,37.6717],[58.0349,37.6547],[58.0895,37.5603],[58.18,37.4929],[58.2076,37.4482],[58.2138,37.4079],[58.1654,37.35],[58.1453,37.2831],[58.1094,37.2429],[58.0493,37.1015],[58.0087,37.0613],[58.0134,37.0264],[58.0623,36.9992],[58.108,36.9466],[58.1347,36.9499],[58.1623,36.9848],[58.1908,36.9346],[58.224,36.9218],[58.2276,36.8986],[58.1683,36.8475],[58.1618,36.8196],[58.2105,36.7867],[58.2188,36.7555],[58.1855,36.6773],[58.1481,36.649],[58.0722,36.634],[57.7953,36.6681],[57.1332,36.9629],[56.9735,36.9691],[56.7327,36.8125],[56.675,36.7508],[56.6716,36.6426],[56.5193,36.6218],[56.3743,36.6504],[56.3179,36.6654],[56.2045,36.7438],[56.086,36.8506],[56.0673,36.8821],[56.0897,36.962],[56.0948,37.0298],[56.077,37.075],[56.0832,37.0897],[56.1674,37.12],[56.1779,37.1431],[56.1291,37.1593],[56.0897,37.1538],[56.0186,37.1939],[55.8674,37.3544],[55.8977,37.3777],[55.9709,37.4808],[56.1041,37.5379],[56.248,37.5735],[56.3031,37.6341],[56.2845,37.6952],[56.1965,37.7384],[56.1625,37.7704],[56.1602,37.8158],[56.1815,37.904],[56.1696,37.9461],[56.1667,38.0808],[56.2141,38.0688],[56.3155,38.0895],[56.329,38.1238],[56.2971,38.1658],[56.3034,38.1794],[56.3664,38.2255],[56.4365,38.2551],[56.5282,38.2574],[56.5852,38.2346],[56.7294,38.2711],[56.8124,38.229],[57.0384,38.1873],[57.1028,38.222],[57.1466,38.2698],[57.1859,38.2765],[57.2183,38.2651],[57.2669,38.1769],[57.3114,38.135],[57.3443,38.0811],[57.3468,38.0469],[57.3271,37.9941],[57.3524,37.9675],[57.4963,37.9223],[57.5446,37.93],[57.6123,37.9166],[57.6912,37.9203],[57.7348,37.8983]]]}},{"type":"Feature","id":"Qazvin","properties":{"id":"Qazvin","iso_code":"IR-28","name":"Qazvin","name_full":"Qazvin","name_ja":"ガズヴィーン州","center_lonlat":[49.7255,36.0926]},"geometry":{"type":"Polygon","coordinates":[[[49.2458,36.8131],[49.3405,36.7766],[49.355,36.7279],[49.4723,36.6243],[49.8053,36.562],[49.8549,36.5691],[50.0856,36.6663],[50.1686,36.681],[50.3046,36.6703],[50.5711,36.4895],[50.7884,36.3658],[50.801,36.3187],[50.5631,36.3392],[50.4497,36.3317],[50.4208,36.2964],[50.5087,36.214],[50.5797,36.197],[50.6259,36.1648],[50.5345,35.9608],[50.5002,35.9343],[50.2977,35.854],[50.2428,35.8108],[50.2302,35.7719],[50.2386,35.741],[50.2855,35.666],[50.1961,35.6667],[50.0167,35.6031],[49.9156,35.588],[49.6879,35.5232],[49.6459,35.4979],[49.6159,35.4416],[49.4405,35.4376],[49.2738,35.4811],[49.2457,35.475],[49.1178,35.4927],[49.0494,35.5354],[49.0798,35.573],[49.0419,35.612],[48.9585,35.6508],[48.8491,35.6524],[48.8025,35.6358],[48.728,35.7248],[48.6012,35.8176],[48.5983,35.8487],[48.7296,35.8731],[48.7854,35.9063],[48.876,35.9267],[48.9415,35.9232],[49.0328,35.8889],[49.0367,35.9396],[49.0979,35.9959],[49.1989,36.0421],[49.3812,36.082],[49.4043,36.1093],[49.3884,36.2154],[49.299,36.3755],[49.2348,36.4124],[49.1549,36.434],[49.0893,36.5397],[49.0357,36.5934],[49.0148,36.6568],[49.0555,36.7325],[49.1644,36.7906],[49.2458,36.8131]]]}},{"type":"Feature","id":"Qom","properties":{"id":"Qom","iso_code":"IR-26","name":"Qom","name_full":"Qom","name_ja":"ゴム州","center_lonlat":[50.9838,34.6975]},"geometry":{"type":"Polygon","coordinates":[[[51.7889,34.542],[51.4517,34.4697],[51.1584,34.4525],[51.0631,34.4182],[51.0255,34.387],[51.0138,34.3579],[50.9837,34.1616],[51.0047,34.1184],[51.033,34.1058],[50.8022,34.1579],[50.6993,34.2049],[50.4412,34.2248],[50.3287,34.3179],[50.3045,34.3675],[50.3087,34.4085],[50.2641,34.4664],[50.1583,34.4921],[50.06,34.5771],[50.0694,34.6287],[50.1628,34.672],[50.1734,34.692],[50.1526,34.7161],[50.154,34.7815],[50.2111,34.8194],[50.3011,34.8094],[50.3882,34.8299],[50.4476,34.8621],[50.5715,34.8781],[50.6937,34.916],[50.723,35.1079],[50.7564,35.1858],[50.7847,35.2184],[51.0722,35.2133],[51.3124,35.154],[51.8823,34.8755],[51.8959,34.8355],[51.8932,34.754],[51.8661,34.6665],[51.7889,34.542]]]}},{"type":"Feature","id":"Razavi Khorasan","properties":{"id":"Razavi Khorasan","iso_code":"IR-30","name":"Razavi Khorasan","name_full":"Razavi Khorasan","name_ja":"ラザヴィー・ホラーサーン州","center_lonlat":[58.8711,35.4869]},"geometry":{"type":"Polygon","coordinates":[[[57.7348,37.8983],[57.763,37.8994],[57.8,37.8676],[57.8841,37.8653],[58.0409,37.8057],[58.1735,37.7816],[58.2068,37.6787],[58.3578,37.6333],[58.4797,37.6441],[58.5298,37.7004],[58.5493,37.7016],[58.6159,37.6595],[58.6817,37.6427],[58.7264,37.6594],[58.7798,37.6596],[58.8011,37.6947],[58.861,37.6681],[59.0346,37.6245],[59.2117,37.5163],[59.2892,37.5352],[59.3123,37.5303],[59.3563,37.4806],[59.362,37.4392],[59.3483,37.4093],[59.3704,37.3194],[59.4694,37.2407],[59.4617,37.2076],[59.5012,37.1902],[59.556,37.1978],[59.605,37.1239],[59.6532,37.1497],[59.7972,37.1122],[59.8995,37.0506],[60.0192,37.0258],[60.1326,36.8734],[60.2385,36.7697],[60.3092,36.652],[60.3423,36.6371],[61.0755,36.6478],[61.1658,36.6363],[61.1876,36.5651],[61.1663,36.5138],[61.174,36.4868],[61.1467,36.3573],[61.1609,36.3286],[61.1535,36.3149],[61.1854,36.284],[61.2247,36.1237],[61.1982,36.0608],[61.174,36.048],[61.174,36.0065],[61.1298,35.9705],[61.1883,35.9536],[61.241,35.8939],[61.2563,35.7695],[61.2497,35.7225],[61.2292,35.6986],[61.2317,35.6719],[61.277,35.6092],[61.29,35.5481],[61.1951,35.3901],[61.1871,35.3004],[61.1083,35.278],[61.1016,35.2353],[61.1124,35.202],[61.0964,35.1932],[61.1399,35.1397],[61.1368,35.1112],[61.1473,35.1021],[61.1159,35.0599],[61.0748,34.9331],[61.0654,34.8147],[61.0348,34.8062],[61.0096,34.761],[60.9599,34.7232],[60.962,34.6737],[60.9475,34.638],[60.8954,34.6283],[60.8385,34.5709],[60.7393,34.548],[60.6997,34.5164],[60.7794,34.4551],[60.8905,34.3189],[60.6437,34.3066],[60.6506,34.2854],[60.5874,34.2503],[60.5209,34.1861],[60.4928,34.139],[60.4885,34.0809],[60.4101,34.07],[59.7879,34.0685],[59.6568,34.1071],[59.5587,34.2399],[59.5049,34.278],[59.3079,34.2016],[59.011,34.1651],[58.9552,34.1224],[58.8526,34.1485],[58.6934,34.1651],[58.6398,34.1481],[58.6251,34.1195],[58.6307,34.0933],[58.6698,34.0411],[58.6393,33.9011],[58.6462,33.8174],[58.6054,33.7093],[58.6101,33.6667],[58.6616,33.6297],[58.6803,33.5774],[58.832,33.4851],[58.7961,33.4103],[58.7018,33.3055],[58.3876,33.1308],[58.2487,32.9542],[58.2156,32.8357],[58.1477,32.7486],[58.1214,32.7644],[58.0406,32.8711],[57.7822,32.9968],[57.717,33.1217],[57.6423,33.5441],[57.6027,33.6077],[57.5599,33.6532],[57.3044,33.6037],[57.1058,33.6236],[57.0589,33.6853],[56.9967,33.9735],[57.0048,34.1426],[57.1308,34.4563],[57.1989,34.5577],[57.5952,34.7888],[57.692,34.8669],[57.7056,34.931],[57.6712,34.9939],[57.3796,35.1773],[57.2684,35.2013],[57.0166,35.1483],[56.6192,34.9937],[56.2105,34.9061],[56.3713,35.0692],[56.5004,35.1659],[56.6138,35.2213],[56.8251,35.2863],[56.8556,35.3058],[56.898,35.3865],[57.072,35.6304],[57.0872,35.7004],[57.0218,35.7615],[56.7846,35.919],[56.7573,35.9749],[56.7249,36.0959],[56.7061,36.2835],[56.7209,36.3924],[56.7613,36.4546],[56.7882,36.5479],[56.7637,36.6266],[56.7231,36.6461],[56.6716,36.6426],[56.675,36.7508],[56.7327,36.8125],[56.9735,36.9691],[57.1332,36.9629],[57.7953,36.6681],[58.0722,36.634],[58.1481,36.649],[58.1855,36.6773],[58.2188,36.7555],[58.2105,36.7867],[58.1618,36.8196],[58.1683,36.8475],[58.2276,36.8986],[58.224,36.9218],[58.1908,36.9346],[58.1623,36.9848],[58.1347,36.9499],[58.108,36.9466],[58.0623,36.9992],[58.0134,37.0264],[58.0087,37.0613],[58.0493,37.1015],[58.1094,37.2429],[58.1453,37.2831],[58.1654,37.35],[58.2138,37.4079],[58.2076,37.4482],[58.18,37.4929],[58.0895,37.5603],[58.0349,37.6547],[57.5864,37.6717],[57.5483,37.6933],[57.5758,37.7651],[57.5757,37.8087],[57.7348,37.8983]]]}},{"type":"Feature","id":"Semnan","properties":{"id":"Semnan","iso_code":"IR-12","name":"Semnan","name_full":"Semnan","name_ja":"セムナーン州","center_lonlat":[54.6558,35.4718]},"geometry":{"type":"Polygon","coordinates":[[[54.1201,36.4848],[54.3941,36.4774],[54.4638,36.4901],[54.605,36.5436],[54.6667,36.5977],[54.8363,36.7044],[55.0111,36.7851],[55.0962,36.7931],[55.4536,36.7539],[55.5043,36.7729],[55.5376,36.842],[55.5573,36.9515],[55.64,37.0985],[55.8261,37.3272],[55.8674,37.3544],[56.0186,37.1939],[56.0897,37.1538],[56.1291,37.1593],[56.1779,37.1431],[56.1674,37.12],[56.0832,37.0897],[56.077,37.075],[56.0948,37.0298],[56.0897,36.962],[56.0673,36.8821],[56.086,36.8506],[56.2045,36.7438],[56.3179,36.6654],[56.3743,36.6504],[56.5193,36.6218],[56.6716,36.6426],[56.7231,36.6461],[56.7637,36.6266],[56.7882,36.5479],[56.7613,36.4546],[56.7209,36.3924],[56.7061,36.2835],[56.7249,36.0959],[56.7573,35.9749],[56.7846,35.919],[57.0218,35.7615],[57.0872,35.7004],[57.072,35.6304],[56.898,35.3865],[56.8556,35.3058],[56.8251,35.2863],[56.6138,35.2213],[56.5004,35.1659],[56.3713,35.0692],[56.2105,34.9061],[55.8509,34.4073],[55.7411,34.3603],[55.4847,34.3652],[55.3752,34.3419],[55.3416,34.3692],[55.2867,34.3841],[52.9001,34.325],[52.4223,34.4477],[52.3541,34.4566],[52.0802,34.4421],[51.9823,34.4554],[51.7889,34.542],[51.8661,34.6665],[51.8932,34.754],[51.8959,34.8355],[51.8823,34.8755],[51.9169,34.9986],[51.968,35.0637],[51.9806,35.1252],[51.9354,35.1926],[51.8225,35.3153],[51.8211,35.4034],[51.8534,35.5555],[51.8701,35.5698],[51.9224,35.5468],[51.9821,35.5443],[52.2197,35.4142],[52.5941,35.3387],[52.675,35.3362],[52.789,35.3669],[52.8883,35.4102],[53.0472,35.5284],[53.0794,35.6181],[53.0347,35.8311],[53.1981,35.8561],[53.3136,35.9002],[53.3458,35.8855],[53.3959,35.8911],[53.5432,35.9422],[53.5866,35.9735],[53.6457,36.053],[53.7877,36.1638],[53.8257,36.3048],[53.8611,36.3603],[53.9362,36.421],[54.0194,36.4605],[54.1201,36.4848]]]}},{"type":"Feature","id":"Sistan and Baluchestan","properties":{"id":"Sistan and Baluchestan","iso_code":"IR-13","name":"Sistan and Baluchestan","name_full":"Sistan and Baluchestan","name_ja":"スィースターン・バルーチェスターン州","center_lonlat":[60.6709,27.804]},"geometry":{"type":"Polygon","coordinates":[[[59.2511,25.4307],[59.2468,25.4545],[59.273,25.4649],[59.2762,25.496],[59.2494,25.5142],[59.1608,25.6382],[59.1086,25.669],[59.1033,25.7051],[59.0709,25.7529],[58.8815,25.9039],[58.8322,25.9295],[58.833,25.9796],[58.8631,26.0102],[58.8828,26.054],[58.8882,26.1527],[58.914,26.1949],[58.9122,26.2275],[58.947,26.2866],[58.9384,26.325],[58.9039,26.3617],[58.8852,26.42],[58.9422,26.5002],[58.9412,26.5345],[58.893,26.5835],[58.9494,26.7026],[58.8967,26.7983],[58.8206,26.8766],[58.7999,26.9446],[58.7992,27.0464],[58.7753,27.1303],[58.7749,27.2294],[58.8901,27.6308],[58.9033,27.7453],[58.8966,28.0917],[59.0119,28.2247],[59.0429,28.3152],[59.0074,28.3659],[58.9252,28.4209],[58.888,28.4714],[59.0596,28.5326],[59.2922,28.6517],[59.3667,28.7109],[59.358,28.7867],[59.3286,28.8406],[59.3129,28.9891],[59.3273,29.0536],[59.4111,29.1655],[59.4418,29.2645],[59.4446,29.3517],[59.41,29.563],[59.3702,29.6507],[59.3013,29.6984],[59.3103,29.7815],[59.5154,30.6066],[60.2971,30.8028],[60.3516,30.7945],[60.4097,30.7467],[60.5023,30.7247],[60.6255,30.6466],[60.783,30.453],[60.8648,30.3924],[61.0009,30.3965],[61.0348,30.4081],[61.0504,30.4288],[61.0521,30.46],[61.0013,30.6542],[60.9971,30.7304],[61.018,30.9917],[61.0653,31.1384],[61.1294,31.2703],[61.1433,31.3907],[61.1251,31.4489],[61.6612,31.3819],[61.7065,31.3598],[61.7492,31.3024],[61.7427,31.2395],[61.7792,31.1811],[61.8263,31.0346],[61.8002,30.9614],[61.8084,30.8814],[61.8023,30.8471],[60.8444,29.8582],[61.2792,29.4066],[61.3374,29.3744],[61.3466,29.3491],[61.3328,29.2749],[61.387,29.2066],[61.3979,29.1591],[61.4377,29.1396],[61.4609,29.0939],[61.4877,29.0807],[61.468,29.0417],[61.5109,29.0074],[61.5665,28.871],[61.653,28.7563],[61.8928,28.5426],[62.0491,28.4863],[62.1475,28.4753],[62.2307,28.4425],[62.3628,28.4189],[62.3905,28.4061],[62.421,28.3686],[62.4643,28.3498],[62.4923,28.3007],[62.5756,28.229],[62.7393,28.2583],[62.7615,28.2464],[62.7664,28.2115],[62.7357,27.995],[62.7803,27.8297],[62.8147,27.495],[62.8086,27.4534],[62.756,27.3481],[62.7757,27.3269],[62.7788,27.2998],[62.7681,27.2744],[62.7424,27.2668],[62.8006,27.2252],[62.8293,27.2336],[62.8924,27.2135],[63.167,27.2587],[63.2606,27.2138],[63.3196,27.1173],[63.2609,27.1156],[63.2314,27.0658],[63.235,26.9411],[63.2649,26.89],[63.2616,26.8717],[63.1896,26.846],[63.1743,26.685],[63.1638,26.6451],[63.1413,26.6254],[63.098,26.6384],[62.7536,26.6442],[62.7019,26.604],[62.6406,26.6051],[62.5953,26.5807],[62.4185,26.5623],[62.3967,26.5391],[62.3559,26.5366],[62.292,26.5012],[62.2979,26.474],[62.249,26.4165],[62.2651,26.361],[62.2434,26.3506],[62.1238,26.374],[62.0942,26.3148],[62.0323,26.3029],[61.8329,26.2254],[61.8099,26.1674],[61.7545,25.82],[61.7393,25.8033],[61.6814,25.7955],[61.6604,25.7692],[61.6764,25.6928],[61.6735,25.6583],[61.6432,25.6133],[61.62,25.2855],[61.5882,25.2021],[61.5798,25.2335],[61.5545,25.2541],[61.5373,25.2204],[61.5584,25.2005],[61.5042,25.2088],[61.4826,25.1937],[61.5242,25.1732],[61.4895,25.1186],[61.4206,25.0969],[61.4351,25.0877],[61.4117,25.0594],[61.1851,25.1232],[61.1703,25.1644],[61.0306,25.2098],[60.6335,25.275],[60.617,25.2832],[60.6323,25.2961],[60.6082,25.3276],[60.6016,25.406],[60.5497,25.4469],[60.4456,25.4282],[60.3953,25.3779],[60.402,25.3447],[60.4377,25.3339],[60.4522,25.3174],[60.4411,25.3166],[60.4701,25.3031],[60.4672,25.2903],[60.3626,25.3306],[60.3192,25.3299],[60.2903,25.3513],[60.304,25.3712],[60.2713,25.3796],[60.2015,25.3712],[60.1926,25.3561],[60.216,25.3383],[60.2092,25.3197],[60.1167,25.3398],[60.082,25.366],[59.9408,25.3549],[59.9038,25.3299],[59.8617,25.3431],[59.8199,25.3792],[59.7749,25.3899],[59.614,25.3838],[59.538,25.3998],[59.4539,25.4616],[59.2511,25.4307]]]}},{"type":"Feature","id":"South Khorasan","properties":{"id":"South Khorasan","iso_code":"IR-29","name":"South Khorasan","name_full":"South Khorasan","name_ja":"南ホラーサーン州","center_lonlat":[59.6059,32.3567]},"geometry":{"type":"Polygon","coordinates":[[[60.4885,34.0809],[60.528,33.8415],[60.5258,33.8021],[60.4869,33.7114],[60.5118,33.6384],[60.5748,33.5878],[60.6556,33.5599],[60.846,33.5558],[60.8951,33.5411],[60.9209,33.5141],[60.9121,33.5015],[60.8322,33.4845],[60.8291,33.4163],[60.757,33.3663],[60.5676,33.1513],[60.5629,33.0583],[60.8303,32.2489],[60.8148,32.0879],[60.7749,32.0272],[60.7926,32.0113],[60.784,31.9893],[60.795,31.9585],[60.7915,31.8265],[60.8053,31.734],[60.7926,31.6601],[60.8217,31.4947],[61.1251,31.4489],[61.1433,31.3907],[61.1294,31.2703],[61.0653,31.1384],[61.018,30.9917],[60.9971,30.7304],[61.0013,30.6542],[61.0521,30.46],[61.0504,30.4288],[61.0348,30.4081],[61.0009,30.3965],[60.8648,30.3924],[60.783,30.453],[60.6255,30.6466],[60.5023,30.7247],[60.4097,30.7467],[60.3516,30.7945],[60.2971,30.8028],[59.5154,30.6066],[59.1163,31.1062],[58.9729,31.1979],[57.8347,31.6373],[57.9012,31.7715],[58.0039,31.9072],[58.0407,31.9945],[58.1739,32.146],[58.2222,32.2976],[58.2244,32.3525],[58.1539,32.4646],[58.1522,32.4949],[58.1004,32.5681],[58.1526,32.6719],[58.1477,32.7486],[58.2156,32.8357],[58.2487,32.9542],[58.3876,33.1308],[58.7018,33.3055],[58.7961,33.4103],[58.832,33.4851],[58.6803,33.5774],[58.6616,33.6297],[58.6101,33.6667],[58.6054,33.7093],[58.6462,33.8174],[58.6393,33.9011],[58.6698,34.0411],[58.6307,34.0933],[58.6251,34.1195],[58.6398,34.1481],[58.6934,34.1651],[58.8526,34.1485],[58.9552,34.1224],[59.011,34.1651],[59.3079,34.2016],[59.5049,34.278],[59.5587,34.2399],[59.6568,34.1071],[59.7879,34.0685],[60.4101,34.07],[60.4885,34.0809]]]}},{"type":"Feature","id":"Tehran","properties":{"id":"Tehran","iso_code":"IR-07","name":"Tehran","name_full":"Tehran","name_ja":"テヘラン州","center_lonlat":[51.8311,35.568]},"geometry":{"type":"Polygon","coordinates":[[[50.7847,35.2184],[50.8712,35.4472],[50.8708,35.517],[50.7987,35.6048],[50.8251,35.6545],[50.8896,35.6867],[50.9421,35.7392],[50.9703,35.7997],[51.0591,35.8037],[51.0752,35.9167],[51.1357,35.9731],[51.2164,35.9973],[51.2971,35.9893],[51.3536,36.0175],[51.3569,36.1163],[51.465,36.0647],[51.6183,36.0541],[51.7544,36.011],[51.8565,35.9216],[51.9502,35.7998],[52.0292,35.7709],[52.1082,35.7672],[52.177,35.79],[52.3068,35.9174],[52.3985,35.9762],[52.6259,35.9313],[52.7403,35.881],[52.8163,35.8683],[52.9014,35.8897],[52.9448,35.8816],[53.0347,35.8311],[53.0794,35.6181],[53.0472,35.5284],[52.8883,35.4102],[52.789,35.3669],[52.675,35.3362],[52.5941,35.3387],[52.2197,35.4142],[51.9821,35.5443],[51.9224,35.5468],[51.8701,35.5698],[51.8534,35.5555],[51.8211,35.4034],[51.8225,35.3153],[51.9354,35.1926],[51.9806,35.1252],[51.968,35.0637],[51.9169,34.9986],[51.8823,34.8755],[51.3124,35.154],[51.0722,35.2133],[50.7847,35.2184]]]}},{"type":"Feature","id":"West Azerbaijan","properties":{"id":"West Azerbaijan","iso_code":"IR-02","name":"West Azerbaijan","name_full":"West Azerbaijan","name_ja":"西アーザルバーイジャーン州","center_lonlat":[45.2575,37.7267]},"geometry":{"type":"Polygon","coordinates":[[[45.4945,38.9819],[45.3778,38.8852],[45.3558,38.8434],[45.3268,38.7374],[45.366,38.6274],[45.3656,38.5778],[45.3282,38.5248],[45.1566,38.3854],[45.1003,38.3105],[45.0894,38.267],[45.1026,38.2337],[45.1728,38.166],[45.1994,38.1134],[45.1932,38.0593],[45.2285,37.7896],[45.253,37.7601],[45.2622,37.6958],[45.2349,37.6688],[45.2627,37.615],[45.3298,37.551],[45.3545,37.5053],[45.3431,37.3811],[45.3568,37.3272],[45.3947,37.2819],[45.6865,37.1292],[45.9235,37.1092],[46.0621,37.0084],[46.079,36.9816],[46.2929,36.8777],[46.3223,36.8939],[46.3896,36.9844],[46.4495,37.0157],[46.5232,37.022],[46.5927,37.065],[46.6388,37.0589],[46.7104,37.0135],[46.7613,37.0044],[46.7928,36.9827],[46.7973,36.9615],[46.7842,36.9466],[46.8238,36.854],[46.8229,36.7875],[46.8589,36.7454],[46.9564,36.7348],[47.1938,36.7568],[47.3323,36.5077],[47.2784,36.487],[47.276,36.4351],[47.2165,36.3682],[47.141,36.3412],[47.0277,36.3493],[46.9238,36.3725],[46.8152,36.4578],[46.2979,36.4191],[46.0464,36.4481],[45.9588,36.4202],[45.9367,36.3972],[45.9352,36.3489],[45.8871,36.2899],[45.7245,36.2476],[45.6608,36.1867],[45.647,36.138],[45.5916,36.0869],[45.575,36.0544],[45.5014,36.0054],[45.4531,36.0117],[45.3596,35.9769],[45.3202,35.9941],[45.3196,36.031],[45.3483,36.0875],[45.3046,36.1404],[45.2974,36.2267],[45.2585,36.2622],[45.2827,36.2749],[45.257,36.3117],[45.2389,36.403],[45.2213,36.4209],[45.196,36.4224],[45.1108,36.4025],[45.0723,36.4234],[45.0382,36.494],[44.9914,36.5337],[44.9934,36.5497],[45.0133,36.5579],[45.0443,36.6493],[45.0353,36.6896],[44.9962,36.7417],[44.9227,36.7759],[44.8312,36.7919],[44.8234,36.8093],[44.8341,36.834],[44.8834,36.8868],[44.8888,36.9109],[44.8692,36.9674],[44.8874,37.0159],[44.8406,37.0472],[44.8019,37.0435],[44.7527,37.1033],[44.7723,37.1612],[44.7535,37.2153],[44.7985,37.2603],[44.8016,37.2927],[44.7214,37.3433],[44.698,37.38],[44.6616,37.3757],[44.6382,37.4126],[44.5721,37.4308],[44.5718,37.5392],[44.5874,37.584],[44.5835,37.6011],[44.5409,37.6327],[44.5453,37.663],[44.5882,37.694],[44.5961,37.7164],[44.5594,37.752],[44.5065,37.7793],[44.4364,37.7678],[44.433,37.8061],[44.4044,37.8097],[44.3671,37.8602],[44.3192,37.8769],[44.2196,37.8753],[44.2021,37.8972],[44.2255,37.9293],[44.2276,37.981],[44.2959,38.079],[44.3338,38.1009],[44.3271,38.1284],[44.3606,38.1479],[44.3767,38.2015],[44.3724,38.2495],[44.4368,38.2969],[44.4588,38.3383],[44.4388,38.3676],[44.4091,38.3818],[44.3634,38.3646],[44.2895,38.3823],[44.297,38.6223],[44.2825,38.6454],[44.2443,38.659],[44.2605,38.6792],[44.2486,38.7218],[44.2798,38.8142],[44.275,38.8436],[44.2058,38.8757],[44.1746,38.9458],[44.152,38.9646],[44.1392,38.994],[44.1791,39.0349],[44.1699,39.0744],[44.1948,39.1205],[44.1866,39.1451],[44.0777,39.2001],[44.0827,39.2357],[44.0694,39.287],[44.0472,39.3379],[44.0149,39.3741],[44.0614,39.4003],[44.1765,39.4115],[44.295,39.3812],[44.388,39.4145],[44.4048,39.4344],[44.414,39.5609],[44.4576,39.6387],[44.4595,39.6985],[44.5904,39.7715],[44.6465,39.7195],[44.8278,39.6288],[44.8723,39.6251],[44.8654,39.6176],[44.8984,39.5844],[44.9284,39.4882],[44.9616,39.4538],[44.957,39.4345],[45.0064,39.418],[45.088,39.3507],[45.1358,39.2785],[45.1527,39.2135],[45.1789,39.2198],[45.2831,39.1931],[45.3111,39.2005],[45.3111,39.1763],[45.3482,39.1639],[45.3453,39.1384],[45.3793,39.1112],[45.3964,39.0733],[45.4345,39.0528],[45.4271,39.0149],[45.4945,38.9819]]]}},{"type":"Feature","id":"Yazd","properties":{"id":"Yazd","iso_code":"IR-25","name":"Yazd","name_full":"Yazd","name_ja":"ヤズド州","center_lonlat":[55.6031,32.5658]},"geometry":{"type":"Polygon","coordinates":[[[55.3752,34.3419],[55.4847,34.3652],[55.7411,34.3603],[55.8509,34.4073],[56.2105,34.9061],[56.6192,34.9937],[57.0166,35.1483],[57.2684,35.2013],[57.3796,35.1773],[57.6712,34.9939],[57.7056,34.931],[57.692,34.8669],[57.5952,34.7888],[57.1989,34.5577],[57.1308,34.4563],[57.0048,34.1426],[56.9967,33.9735],[57.0589,33.6853],[57.1058,33.6236],[57.3044,33.6037],[57.5599,33.6532],[57.6027,33.6077],[57.6423,33.5441],[57.717,33.1217],[57.7822,32.9968],[58.0406,32.8711],[58.1214,32.7644],[58.1477,32.7486],[58.1526,32.6719],[58.1004,32.5681],[58.1522,32.4949],[58.1539,32.4646],[58.2244,32.3525],[58.2222,32.2976],[58.1739,32.146],[58.0407,31.9945],[58.0039,31.9072],[57.9012,31.7715],[57.8347,31.6373],[56.7616,32.0301],[56.6341,32.0492],[56.5664,31.9789],[56.3585,31.879],[56.2878,31.8151],[55.7568,31.5763],[55.7123,31.4952],[55.6995,31.1804],[55.6845,31.1109],[55.515,31.0468],[55.3264,31.0248],[55.1165,31.0432],[54.5544,30.9578],[54.4665,30.8734],[54.4203,30.7979],[54.3981,30.7251],[54.4006,30.6755],[54.4564,30.5845],[54.5156,30.4504],[54.5394,30.3506],[54.6038,30.2974],[54.5912,29.9731],[54.6167,29.848],[54.5852,29.8284],[54.4844,29.8177],[54.4302,29.7932],[54.2272,29.8829],[54.0718,29.9843],[54.0431,30.0442],[54.0076,30.2632],[53.9641,30.33],[53.8046,30.4991],[53.6384,30.7552],[53.4049,31.2615],[53.2765,31.3951],[53.1252,31.5139],[52.8707,31.5975],[52.8271,31.7444],[52.8241,31.8138],[52.9049,32.1646],[52.8762,32.472],[52.8837,32.5052],[53.0604,32.5767],[53.1646,32.6403],[53.2611,32.672],[53.334,32.6741],[53.6507,32.6129],[54.709,32.9201],[54.8147,32.9707],[54.9082,33.0882],[54.9409,33.1626],[54.9863,33.33],[55.0401,33.3857],[55.1394,33.4304],[55.2172,33.4373],[55.2746,33.4706],[55.3599,33.5946],[55.3864,33.6655],[55.3752,34.3419]]]}},{"type":"Feature","id":"Zanjan","properties":{"id":"Zanjan","iso_code":"IR-11","name":"Zanjan","name_full":"Zanjan","name_ja":"ザンジャーン州","center_lonlat":[48.3605,36.5233]},"geometry":{"type":"Polygon","coordinates":[[[48.8825,37.2028],[49.0333,37.1261],[49.1442,37.0324],[49.1867,36.9774],[49.2458,36.8131],[49.1644,36.7906],[49.0555,36.7325],[49.0148,36.6568],[49.0357,36.5934],[49.0893,36.5397],[49.1549,36.434],[49.2348,36.4124],[49.299,36.3755],[49.3884,36.2154],[49.4043,36.1093],[49.3812,36.082],[49.1989,36.0421],[49.0979,35.9959],[49.0367,35.9396],[49.0328,35.8889],[48.9415,35.9232],[48.876,35.9267],[48.7854,35.9063],[48.7296,35.8731],[48.5983,35.8487],[48.6012,35.8176],[48.728,35.7248],[48.8025,35.6358],[48.8033,35.6181],[48.7666,35.5774],[48.6909,35.5558],[48.6069,35.5727],[48.5191,35.6115],[48.3044,35.6175],[48.2595,35.6402],[48.2257,35.6902],[48.1788,35.7529],[47.9036,35.889],[47.8898,35.9155],[47.9063,35.9516],[47.9456,35.9851],[47.9676,36.0583],[47.9677,36.16],[47.9489,36.2165],[47.9274,36.2195],[47.9287,36.271],[47.9411,36.2878],[47.9001,36.3706],[47.8651,36.4034],[47.3613,36.4842],[47.3323,36.5077],[47.1938,36.7568],[47.1876,36.8377],[47.2068,36.8691],[47.3583,36.9925],[47.4003,37.0483],[47.4962,37.0909],[47.5852,37.1547],[47.9352,37.1957],[48.3341,37.1729],[48.4553,37.2239],[48.4844,37.2303],[48.5256,37.2183],[48.6003,37.1548],[48.6312,37.16],[48.6568,37.212],[48.676,37.2179],[48.7406,37.2014],[48.8151,37.2315],[48.8825,37.2028]]]}}]}
