{"type":"FeatureCollection","features":[{"type":"Feature","id":"Al Anbar","properties":{"id":"Al Anbar","iso_code":"IQ-AN","name":"Al Anbar","name_full":"Al Anbar","name_ja":"アンバール県","center_lonlat":[41.6216,32.9681]},"geometry":{"type":"Polygon","coordinates":[[[41.1923,35.1589],[41.3422,35.1485],[41.5784,35.0998],[41.9842,34.9643],[42.1899,34.9759],[42.2733,34.9484],[42.4913,34.9727],[42.4999,34.7401],[42.5398,34.5953],[42.7773,34.443],[42.8092,34.4394],[42.9288,34.4959],[42.9523,34.3481],[42.9857,34.2876],[43.0108,34.1814],[43.0632,34.0756],[43.1319,33.9995],[43.4296,33.7653],[43.5899,33.7338],[43.8035,33.6676],[44.0015,33.6635],[44.0519,33.6227],[44.1335,33.4879],[44.1,33.466],[44.1711,33.437],[44.2448,33.4333],[44.2778,33.3786],[44.2698,33.3495],[44.2263,33.3014],[44.2224,33.2612],[44.2371,33.2236],[44.2873,33.1892],[44.2392,33.1389],[44.2181,33.1338],[44.1073,33.1775],[43.8203,33.2017],[43.8387,33.1666],[43.9853,33.1151],[44.0157,33.0894],[44.0699,32.9282],[44.1409,32.8763],[44.1296,32.7812],[43.9582,32.8258],[43.759,32.8168],[43.6797,32.7841],[43.4656,32.6296],[43.3109,32.6098],[43.2107,32.571],[43.2418,32.5101],[43.4774,32.3082],[43.6906,32.1684],[43.7958,32.0834],[43.7895,32.0338],[43.7547,32.0017],[43.6228,31.9332],[43.5429,31.9197],[43.438,31.877],[43.2535,31.6535],[43.2177,31.5346],[43.1022,31.3157],[43.1016,31.2333],[43.0622,31.1442],[43.0455,31.0618],[42.9475,30.929],[42.9115,30.7809],[42.7834,30.551],[42.0754,31.0799],[40.4241,31.9205],[40.029,31.9945],[39.1464,32.1181],[39.292,32.2445],[39.2563,32.3427],[39.2358,32.3529],[39.0463,32.3085],[39.0288,32.3283],[38.9782,32.475],[39.0572,32.4966],[38.7745,33.3717],[40.6905,34.3315],[40.936,34.3861],[40.9653,34.4019],[41.2042,34.7931],[41.1923,35.1589]]]}},{"type":"Feature","id":"Al Muthanna","properties":{"id":"Al Muthanna","iso_code":"IQ-MU","name":"Al Muthanna","name_full":"Al Muthanna","name_ja":"ムサンナー県","center_lonlat":[45.3743,30.1836]},"geometry":{"type":"Polygon","coordinates":[[[46.5615,29.1242],[46.5324,29.0957],[46.3575,29.0631],[44.7175,29.1931],[43.824,29.814],[44.0564,30.167],[44.2364,30.6153],[44.272,30.6762],[44.3287,30.7361],[44.4454,30.7931],[44.4941,30.8586],[44.5794,30.9343],[44.6271,31.0069],[44.6513,31.0549],[44.7269,31.4075],[44.8972,31.3],[44.9783,31.2626],[44.9994,31.3667],[45.1086,31.6014],[45.1101,31.6164],[45.088,31.6251],[45.0705,31.6556],[45.0249,31.6792],[45.2099,31.7146],[45.2201,31.7296],[45.5361,31.6867],[45.7131,31.6372],[45.7858,31.6515],[45.823,31.6057],[45.8195,31.5614],[45.7903,31.5724],[45.7734,31.5392],[45.7991,31.5036],[45.8072,31.4598],[45.7239,31.3559],[45.7264,31.3419],[45.8095,31.3356],[45.7408,31.1871],[45.7923,31.1521],[45.7943,31.1244],[45.7814,31.0834],[45.7338,31.0864],[45.7261,31.0729],[45.706,30.9773],[45.7198,30.8376],[46.2106,30.7823],[46.3714,30.7335],[46.5152,30.5164],[46.5283,30.5078],[46.5747,30.5141],[46.6159,30.3316],[46.727,30.1824],[46.7446,30.0893],[46.6628,29.7108],[46.6452,29.4559],[46.5886,29.3511],[46.5615,29.1242]]]}},{"type":"Feature","id":"Al-Qadisiyyah","properties":{"id":"Al-Qadisiyyah","iso_code":"IQ-QA","name":"Al-Qadisiyyah","name_full":"Al-Qādisiyyah","name_ja":"カーディーシーヤ県","center_lonlat":[45.0657,31.8719]},"geometry":{"type":"Polygon","coordinates":[[[45.1984,32.3944],[45.2563,32.3878],[45.2627,32.3719],[45.3584,32.3556],[45.3919,32.3351],[45.3835,32.2613],[45.4979,32.1668],[45.5381,32.1148],[45.686,32.0689],[45.6786,32.0406],[45.7257,31.9478],[45.7184,31.8883],[45.7583,31.7839],[45.7858,31.6515],[45.7131,31.6372],[45.5361,31.6867],[45.2201,31.7296],[45.2099,31.7146],[45.0249,31.6792],[45.0705,31.6556],[45.088,31.6251],[45.1101,31.6164],[45.1086,31.6014],[44.9994,31.3667],[44.9783,31.2626],[44.8972,31.3],[44.7269,31.4075],[44.516,31.4856],[44.4293,31.5853],[44.4564,31.6302],[44.4776,31.6346],[44.5222,31.617],[44.5417,31.6408],[44.5284,31.7155],[44.533,31.8111],[44.4995,31.9527],[44.523,32.0184],[44.6131,32.0582],[44.584,32.0992],[44.6152,32.1192],[44.6299,32.1595],[44.7152,32.1228],[44.7497,32.1215],[44.8146,32.1718],[44.8,32.2033],[44.8184,32.2279],[44.8551,32.2137],[45.1163,32.3655],[45.1984,32.3944]]]}},{"type":"Feature","id":"Babylon","properties":{"id":"Babylon","iso_code":"IQ-BB","name":"Babylon","name_full":"Babylon","name_ja":"バービル県","center_lonlat":[44.5383,32.6401]},"geometry":{"type":"Polygon","coordinates":[[[44.5048,33.176],[44.5426,33.08],[44.5401,33.006],[44.5233,32.9979],[44.547,32.8263],[44.5648,32.8157],[44.7132,32.8059],[44.9359,32.7249],[44.9699,32.6919],[45.0518,32.4976],[45.1046,32.4531],[45.194,32.4466],[45.1984,32.3944],[45.1163,32.3655],[44.8551,32.2137],[44.8184,32.2279],[44.8,32.2033],[44.8146,32.1718],[44.7497,32.1215],[44.7152,32.1228],[44.6299,32.1595],[44.4997,32.2163],[44.3737,32.145],[44.3127,32.2313],[44.3467,32.2809],[44.3195,32.3437],[44.2881,32.4101],[44.3025,32.4464],[44.2955,32.4665],[44.2227,32.5702],[44.2204,32.6076],[44.2641,32.7417],[44.2229,32.7768],[44.1975,32.7691],[44.1296,32.7812],[44.1409,32.8763],[44.0699,32.9282],[44.0157,33.0894],[43.9853,33.1151],[43.8387,33.1666],[43.8203,33.2017],[44.1073,33.1775],[44.2181,33.1338],[44.2392,33.1389],[44.2873,33.1892],[44.5048,33.176]]]}},{"type":"Feature","id":"Baghdad","properties":{"id":"Baghdad","iso_code":"IQ-BG","name":"Baghdad","name_full":"Baghdad","name_ja":"バグダード県","center_lonlat":[44.3916,33.2976]},"geometry":{"type":"Polygon","coordinates":[[[44.5048,33.176],[44.2873,33.1892],[44.2371,33.2236],[44.2224,33.2612],[44.2263,33.3014],[44.2698,33.3495],[44.2778,33.3786],[44.3298,33.3904],[44.3498,33.4325],[44.4371,33.4275],[44.4944,33.3908],[44.5292,33.4081],[44.5433,33.3663],[44.5385,33.2808],[44.5199,33.2634],[44.5265,33.2438],[44.5064,33.2192],[44.5048,33.176]]]}},{"type":"Feature","id":"Basra","properties":{"id":"Basra","iso_code":"IQ-BA","name":"Basra","name_full":"Basra","name_ja":"バスラ県","center_lonlat":[47.3985,30.3963]},"geometry":{"type":"Polygon","coordinates":[[[46.5615,29.1242],[46.5886,29.3511],[46.6452,29.4559],[46.6628,29.7108],[46.7446,30.0893],[46.727,30.1824],[46.6159,30.3316],[46.5747,30.5141],[46.9011,30.5913],[47.0884,30.5738],[47.0905,30.6972],[47.1221,30.8388],[47.1347,31.0469],[47.1261,31.1298],[47.1372,31.1912],[47.1763,31.2309],[47.3497,31.2759],[47.5375,31.267],[47.6764,31.2365],[47.6729,30.9947],[48.0122,30.9891],[48.0136,30.4639],[48.1306,30.4475],[48.1705,30.4067],[48.2001,30.3239],[48.2843,30.3233],[48.3057,30.3128],[48.4087,30.2023],[48.408,30.1809],[48.3811,30.1453],[48.4239,30.0836],[48.4531,30.0014],[48.493,29.9718],[48.5593,29.9466],[48.5205,29.9289],[48.4119,29.9384],[48.3355,29.9614],[48.2092,30.0245],[48.1192,30.045],[48.0383,30.0369],[47.969,30.0041],[47.9517,30.0883],[47.9348,30.1071],[47.9471,30.0745],[47.948,29.994],[47.7314,30.0886],[47.6742,30.0982],[47.3582,30.0921],[47.1971,30.0342],[47.1447,30.0033],[47.1105,29.9609],[46.9888,29.7127],[46.9774,29.658],[46.8831,29.5125],[46.8535,29.4446],[46.7745,29.3635],[46.7119,29.2714],[46.5615,29.1242]]]}},{"type":"Feature","id":"Dhi Qar","properties":{"id":"Dhi Qar","iso_code":"IQ-DQ","name":"Dhi Qar","name_full":"Dhi Qar","name_ja":"ジーカール県","center_lonlat":[46.3406,31.2095]},"geometry":{"type":"Polygon","coordinates":[[[45.7858,31.6515],[45.7583,31.7839],[45.7184,31.8883],[45.7257,31.9478],[45.826,31.9423],[45.8873,31.9642],[45.9273,31.9626],[45.9701,31.9869],[46.011,31.9814],[46.0576,32.0046],[46.3174,32.0054],[46.3537,31.9643],[46.3206,31.9522],[46.3109,31.9354],[46.4144,31.7788],[46.4096,31.7418],[46.4326,31.6912],[46.5992,31.5416],[46.6091,31.5103],[46.5883,31.4466],[46.605,31.396],[46.7303,31.316],[46.7405,31.2881],[46.7368,31.2214],[46.7495,31.1981],[46.8459,31.1391],[47.1261,31.1298],[47.1347,31.0469],[47.1221,30.8388],[47.0905,30.6972],[47.0884,30.5738],[46.9011,30.5913],[46.5747,30.5141],[46.5283,30.5078],[46.5152,30.5164],[46.3714,30.7335],[46.2106,30.7823],[45.7198,30.8376],[45.706,30.9773],[45.7261,31.0729],[45.7338,31.0864],[45.7814,31.0834],[45.7943,31.1244],[45.7923,31.1521],[45.7408,31.1871],[45.8095,31.3356],[45.7264,31.3419],[45.7239,31.3559],[45.8072,31.4598],[45.7991,31.5036],[45.7734,31.5392],[45.7903,31.5724],[45.8195,31.5614],[45.823,31.6057],[45.7858,31.6515]]]}},{"type":"Feature","id":"Diyala","properties":{"id":"Diyala","iso_code":"IQ-DI","name":"Diyala","name_full":"Diyala","name_ja":"ディヤーラー県","center_lonlat":[45.0587,33.9025]},"geometry":{"type":"Polygon","coordinates":[[[45.7962,34.9031],[45.7551,34.91],[45.7454,34.841],[45.6766,34.8183],[45.6628,34.7633],[45.6274,34.7208],[45.6669,34.69],[45.6876,34.6532],[45.6945,34.5986],[45.7086,34.5791],[45.7015,34.5513],[45.5739,34.5673],[45.5007,34.5917],[45.5035,34.4942],[45.4793,34.4673],[45.4268,34.4575],[45.4171,34.4444],[45.4608,34.3405],[45.4793,34.3291],[45.5215,34.3425],[45.5576,34.312],[45.563,34.2893],[45.5477,34.2165],[45.5267,34.1793],[45.5445,34.1395],[45.4549,34.0699],[45.4199,33.9943],[45.3804,33.9736],[45.4237,33.9388],[45.4858,33.9387],[45.5748,33.8039],[45.6167,33.7687],[45.6452,33.6979],[45.7211,33.6408],[45.7346,33.5831],[45.8158,33.6258],[45.886,33.6309],[45.882,33.6002],[45.9209,33.573],[45.9279,33.5509],[45.8526,33.4944],[45.8994,33.4763],[45.9645,33.496],[45.9089,33.4076],[45.8347,33.3776],[45.757,33.325],[45.7209,33.3202],[45.5772,33.1358],[45.4837,33.066],[45.1121,33.1562],[45.0151,33.1471],[44.8347,33.1743],[44.7098,33.0683],[44.7005,33.0564],[44.715,33.0256],[44.6991,33.0161],[44.6464,33.0258],[44.6122,33.0772],[44.5694,33.0041],[44.5401,33.006],[44.5426,33.08],[44.5048,33.176],[44.5064,33.2192],[44.5265,33.2438],[44.5199,33.2634],[44.5385,33.2808],[44.5433,33.3663],[44.5292,33.4081],[44.4944,33.3908],[44.4371,33.4275],[44.3498,33.4325],[44.3298,33.3904],[44.2778,33.3786],[44.2448,33.4333],[44.313,33.5128],[44.3931,33.5709],[44.4015,33.5968],[44.3931,33.6446],[44.426,33.729],[44.3969,33.757],[44.3894,33.7836],[44.4441,33.8801],[44.4478,33.9354],[44.3818,33.9983],[44.2975,34.0017],[44.2894,34.0134],[44.3111,34.0605],[44.3062,34.0756],[44.3339,34.0976],[44.324,34.1197],[44.3534,34.132],[44.3481,34.1645],[44.3773,34.1692],[44.3917,34.1878],[44.4058,34.1775],[44.4392,34.2236],[44.4891,34.2266],[44.4928,34.2546],[44.5088,34.2627],[44.507,34.2865],[44.5206,34.2939],[44.4767,34.3355],[44.5097,34.4374],[44.4909,34.436],[44.4961,34.4504],[44.486,34.4542],[44.5172,34.4737],[44.5014,34.4871],[44.5175,34.5119],[44.506,34.563],[44.5219,34.5773],[44.6304,34.5244],[44.7291,34.6318],[44.721,34.689],[44.8059,34.7266],[44.8386,34.7615],[44.848,34.8017],[44.9186,34.8317],[44.966,34.8675],[45.056,34.8069],[45.1336,34.8194],[45.1857,34.7836],[45.2136,34.6458],[45.1896,34.6105],[45.1978,34.5732],[45.1863,34.5456],[45.2101,34.5361],[45.2173,34.5128],[45.2501,34.5289],[45.3724,34.6465],[45.4188,34.6534],[45.4494,34.672],[45.4726,34.7434],[45.5385,34.8584],[45.6297,34.9536],[45.6322,34.9676],[45.6093,34.9785],[45.6406,35.0191],[45.6282,35.022],[45.6301,35.0353],[45.64,35.0475],[45.648,35.0391],[45.6642,35.0469],[45.713,35.1099],[45.8232,35.0161],[45.7815,35.0128],[45.7962,34.9031]]]}},{"type":"Feature","id":"Duhok","properties":{"id":"Duhok","iso_code":"IQ-DA","name":"Duhok","name_full":"Duhok","name_ja":"ドホーク県","center_lonlat":[43.1384,37.063]},"geometry":{"type":"Polygon","coordinates":[[[44.069,37.3137],[44.0643,37.2994],[44.0883,37.2774],[44.0789,37.2336],[44.0967,37.2257],[44.0985,37.2077],[44.057,37.1778],[44.0557,37.1586],[44.0168,37.1424],[43.9514,37.0887],[43.8919,37.0661],[43.8745,37.0403],[43.8282,37.0119],[43.6648,37.0484],[43.6494,37.042],[43.6333,37.0003],[43.6379,36.9796],[43.7205,36.9544],[43.7282,36.9368],[43.703,36.9051],[43.7017,36.8512],[43.6576,36.8503],[43.6488,36.8265],[43.483,36.8598],[43.374,36.9245],[43.3207,36.9346],[43.2906,36.9215],[43.2526,36.8816],[43.2009,36.7865],[43.1858,36.778],[43.1525,36.7641],[42.9815,36.7469],[42.8995,36.7101],[42.8612,36.7104],[42.8434,36.6925],[42.808,36.7258],[42.754,36.7115],[42.7497,36.7274],[42.7813,36.7403],[42.6903,36.7996],[42.6125,36.7893],[42.566,36.8366],[42.504,36.8513],[42.5087,36.8618],[42.5349,36.8632],[42.5155,36.8873],[42.5206,36.9184],[42.504,36.9217],[42.5076,36.9731],[42.4881,36.9551],[42.4526,36.9655],[42.3975,37.017],[42.3768,37.062],[42.3572,37.11],[42.5613,37.1466],[42.7157,37.3553],[42.7716,37.3749],[42.8011,37.3691],[42.8141,37.3468],[42.937,37.3202],[43.0435,37.3603],[43.1148,37.3711],[43.2703,37.3087],[43.3361,37.3202],[43.4796,37.2434],[43.5295,37.2539],[43.5942,37.2295],[43.7469,37.2306],[43.8094,37.1997],[43.8936,37.2249],[43.9904,37.3125],[44.069,37.3137]]]}},{"type":"Feature","id":"Erbil","properties":{"id":"Erbil","iso_code":"IQ-AR","name":"Erbil","name_full":"Erbil","name_ja":"アルビール県","center_lonlat":[44.2019,36.3378]},"geometry":{"type":"Polygon","coordinates":[[[44.069,37.3137],[44.1845,37.2792],[44.235,37.2368],[44.2483,37.1697],[44.1892,37.1292],[44.18,37.0876],[44.2433,36.9778],[44.2972,36.9699],[44.3431,37.0424],[44.4544,37.0763],[44.5394,37.1437],[44.6103,37.1784],[44.7538,37.1592],[44.7661,37.1419],[44.7527,37.1033],[44.7665,37.079],[44.7884,37.0702],[44.8019,37.0435],[44.8406,37.0472],[44.8874,37.0159],[44.8692,36.9674],[44.8888,36.9109],[44.8834,36.8868],[44.8341,36.834],[44.8234,36.8093],[44.8312,36.7919],[44.9227,36.7759],[44.9962,36.7417],[45.0459,36.668],[45.0133,36.5579],[44.9934,36.5497],[44.9914,36.5337],[45.0095,36.5162],[44.9864,36.4802],[44.9609,36.4694],[44.8632,36.4796],[44.7455,36.4453],[44.6338,36.4426],[44.5398,36.369],[44.5451,36.3361],[44.6027,36.2651],[44.6295,36.2776],[44.6952,36.2142],[44.6887,36.1974],[44.6177,36.1486],[44.6274,36.1268],[44.7624,36.0546],[44.8768,35.9524],[44.9776,35.8987],[44.9473,35.8779],[44.8586,35.8948],[44.867,35.8719],[44.8335,35.8527],[44.8192,35.8803],[44.8026,35.8585],[44.7773,35.874],[44.6877,35.8738],[44.679,35.8895],[44.6273,35.8857],[44.615,35.9078],[44.5661,35.8655],[44.5438,35.8687],[44.5441,35.8509],[44.4719,35.8694],[44.4219,35.8602],[44.3794,35.8336],[44.3311,35.8439],[44.2962,35.8251],[44.1698,35.8429],[44.1468,35.8356],[44.1234,35.789],[44.0928,35.781],[44.0554,35.7799],[43.9499,35.8413],[43.9119,35.8458],[43.9018,35.8237],[43.7623,35.7093],[43.7977,35.669],[43.8011,35.6487],[43.7645,35.6145],[43.7319,35.5374],[43.5981,35.5093],[43.568,35.4576],[43.4745,35.4422],[43.4546,35.4276],[43.4129,35.4311],[43.3582,35.4582],[43.3712,35.464],[43.3789,35.5014],[43.3751,35.5882],[43.3638,35.6153],[43.3402,35.6281],[43.3399,35.6589],[43.3216,35.6858],[43.3343,35.7235],[43.3158,35.7691],[43.3414,35.8213],[43.3745,35.8378],[43.3854,35.8579],[43.3944,35.9272],[43.3909,35.9529],[43.351,35.9637],[43.3529,35.9991],[43.4934,36.0516],[43.544,36.1684],[43.5754,36.1841],[43.6576,36.2799],[43.7286,36.32],[43.7867,36.3728],[43.811,36.4162],[43.8047,36.4529],[43.8574,36.4703],[43.8542,36.5089],[43.8989,36.5113],[43.9085,36.5452],[43.9255,36.5361],[43.9458,36.5463],[43.9987,36.6008],[44.023,36.6063],[44.0219,36.6239],[44.0354,36.6101],[44.0616,36.6107],[44.0688,36.5891],[44.078,36.6056],[44.1042,36.6117],[44.1353,36.6008],[44.2173,36.6473],[44.3021,36.7346],[44.257,36.7941],[44.1141,36.8593],[44.0585,36.8613],[44.0412,36.8961],[44.0105,36.9005],[44.0204,36.9089],[44.0065,36.9312],[43.926,36.98],[43.8282,37.0119],[43.8745,37.0403],[43.8919,37.0661],[43.9514,37.0887],[44.0168,37.1424],[44.0557,37.1586],[44.057,37.1778],[44.0985,37.2077],[44.0967,37.2257],[44.0789,37.2336],[44.0883,37.2774],[44.0643,37.2994],[44.069,37.3137]]]}},{"type":"Feature","id":"Karbala","properties":{"id":"Karbala","iso_code":"IQ-KA","name":"Karbala","name_full":"Karbala","name_ja":"カルバラー県","center_lonlat":[43.8233,32.5057]},"geometry":{"type":"Polygon","coordinates":[[[44.1296,32.7812],[44.1975,32.7691],[44.2229,32.7768],[44.2641,32.7417],[44.2204,32.6076],[44.2227,32.5702],[44.2955,32.4665],[44.3025,32.4464],[44.2881,32.4101],[44.3195,32.3437],[44.2964,32.296],[44.2761,32.3092],[44.25,32.3066],[43.6906,32.1684],[43.4774,32.3082],[43.2418,32.5101],[43.2107,32.571],[43.3109,32.6098],[43.4656,32.6296],[43.6797,32.7841],[43.759,32.8168],[43.9582,32.8258],[44.1296,32.7812]]]}},{"type":"Feature","id":"Kirkuk","properties":{"id":"Kirkuk","iso_code":"IQ-TS","name":"Kirkuk","name_full":"Kirkuk","name_ja":"キルクーク県","center_lonlat":[44.1372,35.3542]},"geometry":{"type":"Polygon","coordinates":[[[44.6273,35.8857],[44.6825,35.787],[44.7771,35.7054],[44.7854,35.6856],[44.7654,35.6335],[44.7524,35.5316],[44.8034,35.4592],[44.7515,35.388],[44.7528,35.3063],[44.7328,35.2611],[44.6938,35.2356],[44.6949,35.1883],[44.6064,35.1598],[44.5621,35.1291],[44.5361,35.1221],[44.5134,35.084],[44.5336,35.0161],[44.4181,34.9242],[44.3846,34.8482],[44.3256,34.7862],[44.3241,34.7366],[44.3405,34.73],[44.3135,34.7025],[44.2884,34.7045],[44.1288,34.822],[43.9131,34.9055],[43.4939,35.1107],[43.3884,35.2135],[43.3889,35.2333],[43.4188,35.2463],[43.4225,35.2654],[43.3505,35.2804],[43.3635,35.3077],[43.357,35.319],[43.3709,35.3323],[43.3649,35.345],[43.3226,35.3624],[43.2695,35.4115],[43.2739,35.4667],[43.2931,35.4605],[43.3145,35.4268],[43.3582,35.4582],[43.4129,35.4311],[43.4546,35.4276],[43.4745,35.4422],[43.568,35.4576],[43.5981,35.5093],[43.7319,35.5374],[43.7645,35.6145],[43.8011,35.6487],[43.7977,35.669],[43.7623,35.7093],[43.9018,35.8237],[43.9119,35.8458],[43.9499,35.8413],[44.0554,35.7799],[44.0928,35.781],[44.1234,35.789],[44.1468,35.8356],[44.1698,35.8429],[44.2962,35.8251],[44.3311,35.8439],[44.3794,35.8336],[44.4219,35.8602],[44.4719,35.8694],[44.5441,35.8509],[44.5438,35.8687],[44.5661,35.8655],[44.615,35.9078],[44.6273,35.8857]]]}},{"type":"Feature","id":"Maysan","properties":{"id":"Maysan","iso_code":"IQ-MA","name":"Maysan","name_full":"Maysan","name_ja":"マイサーン県","center_lonlat":[47.045,31.8882]},"geometry":{"type":"Polygon","coordinates":[[[46.6006,32.8225],[46.7159,32.756],[47.0906,32.4746],[47.1526,32.4552],[47.2653,32.4847],[47.3433,32.4587],[47.4164,32.388],[47.3959,32.342],[47.4025,32.3235],[47.504,32.2267],[47.4913,32.1486],[47.5781,32.1062],[47.6178,32.0419],[47.6681,32.0124],[47.7653,31.8641],[47.8345,31.8057],[47.8313,31.7618],[47.6789,31.4079],[47.6764,31.2365],[47.5375,31.267],[47.3497,31.2759],[47.1763,31.2309],[47.1372,31.1912],[47.1261,31.1298],[46.8459,31.1391],[46.7495,31.1981],[46.7368,31.2214],[46.7405,31.2881],[46.7303,31.316],[46.605,31.396],[46.5883,31.4466],[46.6091,31.5103],[46.5992,31.5416],[46.4326,31.6912],[46.4096,31.7418],[46.4144,31.7788],[46.3109,31.9354],[46.3206,31.9522],[46.3537,31.9643],[46.3174,32.0054],[46.4422,32.0094],[46.5768,31.9836],[46.6037,32.1337],[46.5722,32.1772],[46.4502,32.2219],[46.4286,32.2495],[46.4777,32.3785],[46.444,32.4116],[46.4749,32.4811],[46.4811,32.6006],[46.5461,32.767],[46.6006,32.8225]]]}},{"type":"Feature","id":"Najaf","properties":{"id":"Najaf","iso_code":"IQ-NA","name":"Najaf","name_full":"Najaf","name_ja":"ナジャフ県","center_lonlat":[43.8049,31.108]},"geometry":{"type":"Polygon","coordinates":[[[43.824,29.814],[42.7834,30.551],[42.9115,30.7809],[42.9475,30.929],[43.0455,31.0618],[43.0622,31.1442],[43.1016,31.2333],[43.1022,31.3157],[43.2177,31.5346],[43.2535,31.6535],[43.438,31.877],[43.5429,31.9197],[43.6228,31.9332],[43.7547,32.0017],[43.7895,32.0338],[43.7958,32.0834],[43.6906,32.1684],[44.25,32.3066],[44.2761,32.3092],[44.2964,32.296],[44.3195,32.3437],[44.3467,32.2809],[44.3127,32.2313],[44.3737,32.145],[44.4997,32.2163],[44.6299,32.1595],[44.6152,32.1192],[44.584,32.0992],[44.6131,32.0582],[44.523,32.0184],[44.4995,31.9527],[44.533,31.8111],[44.5284,31.7155],[44.5417,31.6408],[44.5222,31.617],[44.4776,31.6346],[44.4564,31.6302],[44.4293,31.5853],[44.516,31.4856],[44.7269,31.4075],[44.6513,31.0549],[44.6271,31.0069],[44.5794,30.9343],[44.4941,30.8586],[44.4454,30.7931],[44.3287,30.7361],[44.272,30.6762],[44.2364,30.6153],[44.0564,30.167],[43.824,29.814]]]}},{"type":"Feature","id":"Nineveh","properties":{"id":"Nineveh","iso_code":"IQ-NI","name":"Nineveh","name_full":"Nineveh","name_ja":"ニーナワー県","center_lonlat":[42.4753,36.0238]},"geometry":{"type":"Polygon","coordinates":[[[42.3768,37.062],[42.3975,37.017],[42.4526,36.9655],[42.4881,36.9551],[42.5076,36.9731],[42.504,36.9217],[42.5206,36.9184],[42.5155,36.8873],[42.5349,36.8632],[42.5087,36.8618],[42.504,36.8513],[42.566,36.8366],[42.6125,36.7893],[42.6903,36.7996],[42.7813,36.7403],[42.7497,36.7274],[42.754,36.7115],[42.808,36.7258],[42.8434,36.6925],[42.8612,36.7104],[42.8995,36.7101],[42.9815,36.7469],[43.1525,36.7641],[43.1858,36.778],[43.2009,36.7865],[43.2526,36.8816],[43.2906,36.9215],[43.3207,36.9346],[43.374,36.9245],[43.483,36.8598],[43.6488,36.8265],[43.6576,36.8503],[43.7017,36.8512],[43.703,36.9051],[43.7282,36.9368],[43.7205,36.9544],[43.6379,36.9796],[43.6333,37.0003],[43.6494,37.042],[43.6648,37.0484],[43.8282,37.0119],[43.926,36.98],[44.0065,36.9312],[44.0204,36.9089],[44.0105,36.9005],[44.0412,36.8961],[44.0585,36.8613],[44.1141,36.8593],[44.257,36.7941],[44.3021,36.7346],[44.2173,36.6473],[44.1353,36.6008],[44.1042,36.6117],[44.078,36.6056],[44.0688,36.5891],[44.0616,36.6107],[44.0354,36.6101],[44.0219,36.6239],[44.023,36.6063],[43.9987,36.6008],[43.9458,36.5463],[43.9255,36.5361],[43.9085,36.5452],[43.8989,36.5113],[43.8542,36.5089],[43.8574,36.4703],[43.8047,36.4529],[43.811,36.4162],[43.7867,36.3728],[43.7286,36.32],[43.6576,36.2799],[43.5754,36.1841],[43.544,36.1684],[43.4934,36.0516],[43.3529,35.9991],[43.351,35.9637],[43.3909,35.9529],[43.3944,35.9272],[43.3854,35.8579],[43.3745,35.8378],[43.3414,35.8213],[43.3158,35.7691],[43.3343,35.7235],[43.3187,35.6942],[43.281,35.6851],[43.2443,35.6467],[43.14,35.6087],[42.9483,35.5101],[42.8951,35.4971],[42.8802,35.4806],[42.9007,35.4415],[42.8849,35.4054],[42.8952,35.365],[42.9505,35.3148],[42.9793,35.2645],[42.9703,35.2126],[43.0096,35.1642],[43.0301,35.161],[43.0356,35.1026],[42.9877,35.0928],[42.6312,35.0909],[42.5164,35.0701],[42.4913,34.9727],[42.2733,34.9484],[42.1899,34.9759],[41.9842,34.9643],[41.5784,35.0998],[41.3422,35.1485],[41.1923,35.1589],[41.2013,35.243],[41.2431,35.3665],[41.2611,35.4942],[41.3422,35.5937],[41.3635,35.6552],[41.3545,35.8256],[41.2367,36.0603],[41.277,36.3548],[41.3854,36.5164],[41.8173,36.5997],[42.2816,36.994],[42.3768,37.062]]]}},{"type":"Feature","id":"Saladin","properties":{"id":"Saladin","iso_code":"IQ-SD","name":"Saladin","name_full":"Saladin","name_ja":"サラーフッディーン県","center_lonlat":[43.6415,34.5241]},"geometry":{"type":"Polygon","coordinates":[[[44.5621,35.1291],[44.6629,35.042],[44.7019,35.0306],[44.8659,35.0263],[44.9519,34.9767],[44.9674,34.9566],[44.966,34.8675],[44.9186,34.8317],[44.848,34.8017],[44.8386,34.7615],[44.8059,34.7266],[44.721,34.689],[44.7291,34.6318],[44.6304,34.5244],[44.5219,34.5773],[44.506,34.563],[44.5175,34.5119],[44.5014,34.4871],[44.5172,34.4737],[44.486,34.4542],[44.4961,34.4504],[44.4909,34.436],[44.5097,34.4374],[44.4767,34.3355],[44.5206,34.2939],[44.507,34.2865],[44.5088,34.2627],[44.4928,34.2546],[44.4891,34.2266],[44.4392,34.2236],[44.4058,34.1775],[44.3917,34.1878],[44.3773,34.1692],[44.3481,34.1645],[44.3534,34.132],[44.324,34.1197],[44.3339,34.0976],[44.3062,34.0756],[44.3111,34.0605],[44.2894,34.0134],[44.2975,34.0017],[44.3818,33.9983],[44.4478,33.9354],[44.4441,33.8801],[44.3894,33.7836],[44.3969,33.757],[44.426,33.729],[44.3931,33.6446],[44.4015,33.5968],[44.3931,33.5709],[44.313,33.5128],[44.2448,33.4333],[44.1711,33.437],[44.1,33.466],[44.1335,33.4879],[44.0519,33.6227],[44.0015,33.6635],[43.8035,33.6676],[43.5899,33.7338],[43.4296,33.7653],[43.1319,33.9995],[43.0632,34.0756],[43.0108,34.1814],[42.9857,34.2876],[42.9523,34.3481],[42.9288,34.4959],[42.8092,34.4394],[42.7773,34.443],[42.5398,34.5953],[42.4999,34.7401],[42.4913,34.9727],[42.5164,35.0701],[42.6312,35.0909],[42.9877,35.0928],[43.0356,35.1026],[43.0301,35.161],[43.0096,35.1642],[42.9703,35.2126],[42.9793,35.2645],[42.9505,35.3148],[42.8952,35.365],[42.8849,35.4054],[42.9007,35.4415],[42.8802,35.4806],[42.8951,35.4971],[42.9483,35.5101],[43.14,35.6087],[43.2443,35.6467],[43.281,35.6851],[43.3187,35.6942],[43.3343,35.7235],[43.3216,35.6858],[43.3399,35.6589],[43.3402,35.6281],[43.3638,35.6153],[43.3751,35.5882],[43.3789,35.5014],[43.3712,35.464],[43.3582,35.4582],[43.3145,35.4268],[43.2931,35.4605],[43.2739,35.4667],[43.2695,35.4115],[43.3226,35.3624],[43.3649,35.345],[43.3709,35.3323],[43.357,35.319],[43.3635,35.3077],[43.3505,35.2804],[43.4225,35.2654],[43.4188,35.2463],[43.3889,35.2333],[43.3884,35.2135],[43.4939,35.1107],[43.9131,34.9055],[44.1288,34.822],[44.2884,34.7045],[44.3135,34.7025],[44.3405,34.73],[44.3241,34.7366],[44.3256,34.7862],[44.3846,34.8482],[44.4181,34.9242],[44.5336,35.0161],[44.5134,35.084],[44.5361,35.1221],[44.5621,35.1291]]]}},{"type":"Feature","id":"Sulaymaniyah","properties":{"id":"Sulaymaniyah","iso_code":"IQ-SU","name":"Sulaymaniyah","name_full":"Sulaymaniyah","name_ja":"スレイマニヤ県","center_lonlat":[45.3034,35.5373]},"geometry":{"type":"Polygon","coordinates":[[[45.0095,36.5162],[45.0382,36.494],[45.0837,36.4128],[45.1108,36.4025],[45.2213,36.4209],[45.2389,36.403],[45.257,36.3117],[45.2827,36.2749],[45.2585,36.2622],[45.2974,36.2267],[45.3046,36.1404],[45.3483,36.0875],[45.3137,36.0104],[45.3381,35.9793],[45.3818,35.983],[45.4531,36.0117],[45.54,35.994],[45.6469,35.9332],[45.6932,35.8799],[45.7187,35.8283],[45.749,35.811],[45.7867,35.8202],[45.8348,35.8105],[45.8783,35.8352],[46.0049,35.838],[46.077,35.857],[46.115,35.8464],[46.1291,35.8155],[46.1635,35.7975],[46.2274,35.8057],[46.2814,35.8283],[46.303,35.8265],[46.3271,35.8035],[46.3134,35.7715],[46.2379,35.7155],[46.1777,35.7154],[46.107,35.6898],[46.0371,35.6916],[46.0038,35.6743],[45.9924,35.6409],[45.9992,35.5721],[45.9593,35.5787],[45.9846,35.5311],[45.964,35.4942],[46.041,35.3816],[46.1202,35.3185],[46.1274,35.2891],[46.0988,35.25],[46.1015,35.2343],[46.1693,35.2162],[46.1304,35.1314],[46.1511,35.1116],[46.1324,35.0948],[46.0666,35.0888],[46.0092,35.0609],[45.9132,35.0873],[45.8991,35.0469],[45.8725,35.0414],[45.857,35.0213],[45.869,34.9684],[45.8502,34.9068],[45.835,34.8902],[45.7962,34.9031],[45.7815,35.0128],[45.8232,35.0161],[45.713,35.1099],[45.6642,35.0469],[45.648,35.0391],[45.64,35.0475],[45.6301,35.0353],[45.6282,35.022],[45.6406,35.0191],[45.6093,34.9785],[45.6322,34.9676],[45.6297,34.9536],[45.5385,34.8584],[45.4726,34.7434],[45.4494,34.672],[45.4188,34.6534],[45.3724,34.6465],[45.2501,34.5289],[45.2173,34.5128],[45.2101,34.5361],[45.1863,34.5456],[45.1978,34.5732],[45.1896,34.6105],[45.2136,34.6458],[45.1857,34.7836],[45.1336,34.8194],[45.056,34.8069],[44.966,34.8675],[44.9674,34.9566],[44.9519,34.9767],[44.8659,35.0263],[44.7019,35.0306],[44.6629,35.042],[44.5621,35.1291],[44.6064,35.1598],[44.6949,35.1883],[44.6938,35.2356],[44.7328,35.2611],[44.7528,35.3063],[44.7515,35.388],[44.8034,35.4592],[44.7524,35.5316],[44.7654,35.6335],[44.7854,35.6856],[44.7771,35.7054],[44.6825,35.787],[44.6273,35.8857],[44.679,35.8895],[44.6877,35.8738],[44.7773,35.874],[44.8026,35.8585],[44.8192,35.8803],[44.8335,35.8527],[44.867,35.8719],[44.8586,35.8948],[44.9473,35.8779],[44.9776,35.8987],[44.8768,35.9524],[44.7624,36.0546],[44.6274,36.1268],[44.6177,36.1486],[44.6887,36.1974],[44.6952,36.2142],[44.6295,36.2776],[44.6027,36.2651],[44.5451,36.3361],[44.5398,36.369],[44.6338,36.4426],[44.7455,36.4453],[44.8632,36.4796],[44.9609,36.4694],[44.9864,36.4802],[45.0095,36.5162]]]}},{"type":"Feature","id":"Wasit","properties":{"id":"Wasit","iso_code":"IQ-WA","name":"Wasit","name_full":"Wasit","name_ja":"ワーシト県","center_lonlat":[45.7194,32.664]},"geometry":{"type":"Polygon","coordinates":[[[45.9645,33.496],[46.0194,33.4384],[46.0362,33.3679],[46.1642,33.2433],[46.1672,33.1683],[46.1054,33.1184],[46.0303,33.1057],[46.0433,33.0835],[46.1204,33.0617],[46.1195,33.031],[46.0757,32.9945],[46.097,32.9543],[46.2734,32.9595],[46.3796,32.9318],[46.4793,32.8918],[46.6006,32.8225],[46.5461,32.767],[46.4811,32.6006],[46.4749,32.4811],[46.444,32.4116],[46.4777,32.3785],[46.4286,32.2495],[46.4502,32.2219],[46.5722,32.1772],[46.6037,32.1337],[46.5768,31.9836],[46.4422,32.0094],[46.3174,32.0054],[46.0576,32.0046],[46.011,31.9814],[45.9701,31.9869],[45.9273,31.9626],[45.8873,31.9642],[45.826,31.9423],[45.7257,31.9478],[45.6786,32.0406],[45.686,32.0689],[45.5381,32.1148],[45.4979,32.1668],[45.3835,32.2613],[45.3919,32.3351],[45.3584,32.3556],[45.2627,32.3719],[45.2563,32.3878],[45.1984,32.3944],[45.194,32.4466],[45.1046,32.4531],[45.0518,32.4976],[44.9699,32.6919],[44.9359,32.7249],[44.7132,32.8059],[44.5648,32.8157],[44.547,32.8263],[44.5233,32.9979],[44.5401,33.006],[44.5694,33.0041],[44.6122,33.0772],[44.6464,33.0258],[44.6991,33.0161],[44.715,33.0256],[44.7005,33.0564],[44.7098,33.0683],[44.8347,33.1743],[45.0151,33.1471],[45.1121,33.1562],[45.4837,33.066],[45.5772,33.1358],[45.7209,33.3202],[45.757,33.325],[45.8347,33.3776],[45.9089,33.4076],[45.9645,33.496]]]}}]}
