{"type":"FeatureCollection","features":[{"type":"Feature","id":"Carlow","properties":{"id":"Carlow","iso_code":"IE-CW","name":"Carlow","name_full":"Carlow","name_ja":"カーロウ県","center_lonlat":[-6.8175,52.7288]},"geometry":{"type":"Polygon","coordinates":[[[-6.731,52.9159],[-6.5489,52.8766],[-6.5106,52.882],[-6.496,52.871],[-6.5116,52.8586],[-6.5182,52.8211],[-6.5859,52.8049],[-6.6531,52.8324],[-6.6783,52.8066],[-6.6853,52.7693],[-6.6577,52.7676],[-6.6091,52.7117],[-6.6341,52.6892],[-6.67,52.6795],[-6.647,52.6559],[-6.6602,52.6439],[-6.7205,52.6388],[-6.769,52.618],[-6.7778,52.5765],[-6.8249,52.5373],[-6.8683,52.4712],[-6.9233,52.4659],[-6.9395,52.5248],[-6.9234,52.5739],[-6.9734,52.6103],[-6.9779,52.6727],[-7.0224,52.71],[-7.0618,52.7053],[-7.0926,52.7251],[-7.0778,52.7671],[-7.0474,52.7932],[-6.9377,52.8251],[-6.931,52.8845],[-6.8797,52.8627],[-6.7811,52.87],[-6.731,52.9159]]]}},{"type":"Feature","id":"Cavan","properties":{"id":"Cavan","iso_code":"IE-CN","name":"Cavan","name_full":"Cavan","name_ja":"キャバン県","center_lonlat":[-7.3358,53.9928]},"geometry":{"type":"Polygon","coordinates":[[[-7.9421,54.2989],[-7.8803,54.287],[-7.8697,54.2269],[-7.837,54.2043],[-7.7048,54.2004],[-7.6327,54.1685],[-7.609,54.1399],[-7.5023,54.1251],[-7.4147,54.1457],[-7.4258,54.137],[-7.3947,54.1219],[-7.3165,54.1143],[-7.1428,54.0851],[-7.0095,54.0971],[-7.0065,54.0778],[-6.8747,54.0035],[-6.8265,53.9451],[-6.7483,53.914],[-6.7765,53.8932],[-6.8693,53.8781],[-6.9227,53.891],[-6.9302,53.8672],[-6.9612,53.8708],[-6.9083,53.8086],[-6.9739,53.7753],[-7.1381,53.7999],[-7.2152,53.7773],[-7.2837,53.806],[-7.3385,53.7954],[-7.3888,53.779],[-7.443,53.8072],[-7.4863,53.859],[-7.5666,53.8588],[-7.5401,53.8888],[-7.5988,53.9331],[-7.5753,53.9779],[-7.5942,54.0233],[-7.7399,54.1016],[-7.7913,54.1147],[-7.8214,54.1038],[-7.9499,54.1767],[-8.0387,54.1894],[-8.0271,54.2093],[-8.0472,54.2439],[-7.9991,54.254],[-7.9421,54.2989]]]}},{"type":"Feature","id":"Clare","properties":{"id":"Clare","iso_code":"IE-CE","name":"Clare","name_full":"Clare","name_ja":"クレア県","center_lonlat":[-9.0258,52.8508]},"geometry":{"type":"Polygon","coordinates":[[[-8.7512,52.673],[-8.8675,52.6933],[-8.9608,52.6937],[-8.9494,52.7069],[-8.9521,52.7343],[-8.9699,52.7485],[-8.9426,52.7752],[-9.0236,52.7471],[-9.0582,52.6968],[-9.1468,52.6238],[-9.2548,52.6114],[-9.2858,52.5908],[-9.3331,52.5977],[-9.2787,52.6257],[-9.279,52.6393],[-9.4345,52.612],[-9.5249,52.637],[-9.5442,52.6667],[-9.5807,52.666],[-9.5528,52.6393],[-9.6944,52.6056],[-9.7069,52.5802],[-9.9363,52.5567],[-9.8756,52.5868],[-9.8241,52.5952],[-9.6217,52.7138],[-9.6284,52.7274],[-9.4986,52.7525],[-9.4838,52.7827],[-9.4913,52.8032],[-9.4503,52.8305],[-9.4275,52.8778],[-9.3653,52.9141],[-9.3541,52.9335],[-9.4777,52.9403],[-9.3876,53.0086],[-9.3951,53.0154],[-9.2722,53.1467],[-9.2511,53.1519],[-9.1586,53.111],[-9.0967,53.127],[-9.0729,53.1185],[-9.0701,53.1345],[-9.1282,53.1594],[-9.0696,53.1662],[-9.0041,53.1469],[-9.0221,53.1268],[-9.018,53.108],[-8.8907,53.0556],[-8.8777,53.0138],[-8.8852,52.9835],[-8.8622,52.969],[-8.7782,52.9766],[-8.7187,53.0175],[-8.679,53.0284],[-8.597,53.0334],[-8.5176,53.0084],[-8.4765,52.9765],[-8.3094,52.9801],[-8.2793,52.9568],[-8.3384,52.9076],[-8.397,52.9039],[-8.449,52.8169],[-8.4466,52.7935],[-8.477,52.7551],[-8.5091,52.7443],[-8.5074,52.7105],[-8.5452,52.6985],[-8.568,52.6765],[-8.6271,52.6804],[-8.638,52.6592],[-8.6658,52.6529],[-8.6824,52.6512],[-8.7073,52.672],[-8.7512,52.673]]]}},{"type":"Feature","id":"Cork","properties":{"id":"Cork","iso_code":"IE-CO","name":"Cork","name_full":"Cork","name_ja":"コーク県","center_lonlat":[-8.8361,51.9187]},"geometry":{"type":"MultiPolygon","coordinates":[[[[-7.8518,51.9771],[-7.8699,51.9295],[-7.9222,51.9118],[-7.8806,51.892],[-7.8915,51.8819],[-8.0082,51.8558],[-8.0231,51.8436],[-8.0041,51.8299],[-8.0206,51.8239],[-8.1342,51.8048],[-8.2506,51.8063],[-8.2233,51.8237],[-8.2301,51.8367],[-8.1754,51.8572],[-8.2028,51.864],[-8.1822,51.8845],[-8.1871,51.8931],[-8.2102,51.8845],[-8.2847,51.892],[-8.2932,51.9033],[-8.3885,51.8935],[-8.4419,51.9179],[-8.4938,51.9239],[-8.5316,51.902],[-8.5436,51.8681],[-8.5097,51.8541],[-8.414,51.8522],[-8.3961,51.8768],[-8.3293,51.8613],[-8.3474,51.8299],[-8.2983,51.8299],[-8.3052,51.8162],[-8.2921,51.81],[-8.3195,51.8026],[-8.2847,51.8026],[-8.3052,51.7821],[-8.2974,51.766],[-8.3457,51.7247],[-8.4355,51.6927],[-8.4558,51.7123],[-8.484,51.7138],[-8.4642,51.695],[-8.484,51.6784],[-8.4911,51.6987],[-8.5584,51.7064],[-8.4975,51.6927],[-8.5392,51.6484],[-8.5317,51.6108],[-8.5727,51.645],[-8.7576,51.645],[-8.69,51.6313],[-8.703,51.617],[-8.6825,51.6108],[-8.6998,51.5972],[-8.6962,51.5766],[-8.8539,51.5959],[-8.888,51.5556],[-8.9332,51.5353],[-8.9911,51.563],[-9.0729,51.5494],[-9.1208,51.563],[-9.1077,51.5494],[-9.1157,51.5379],[-9.1433,51.5239],[-9.1925,51.5246],[-9.1896,51.5084],[-9.2238,51.4873],[-9.2648,51.4873],[-9.2721,51.5084],[-9.3353,51.477],[-9.3814,51.4736],[-9.3467,51.5009],[-9.3729,51.4913],[-9.3678,51.5084],[-9.3199,51.5351],[-9.3275,51.5425],[-9.4018,51.5009],[-9.4139,51.5111],[-9.4018,51.546],[-9.4433,51.5595],[-9.4565,51.5556],[-9.448,51.5436],[-9.5475,51.5253],[-9.5563,51.5081],[-9.6113,51.4938],[-9.6284,51.4941],[-9.6559,51.5202],[-9.7172,51.4804],[-9.7035,51.4736],[-9.8202,51.4457],[-9.8134,51.4736],[-9.8339,51.4873],[-9.6831,51.5425],[-9.6217,51.5828],[-9.5459,51.6108],[-9.592,51.6137],[-9.785,51.5525],[-9.8475,51.5494],[-9.7864,51.5735],[-9.7703,51.5922],[-9.5946,51.6555],[-9.4586,51.684],[-9.4429,51.72],[-9.4898,51.7145],[-9.5255,51.7269],[-9.5255,51.7473],[-9.5602,51.7616],[-9.5459,51.72],[-9.6268,51.685],[-9.8741,51.6562],[-9.9301,51.6374],[-9.9419,51.6213],[-10.0288,51.5965],[-10.0701,51.6039],[-10.1561,51.5828],[-10.1628,51.5903],[-10.1433,51.6136],[-10.0598,51.6313],[-10.0707,51.657],[-10.1008,51.6592],[-10.0881,51.6716],[-10.0038,51.678],[-9.9569,51.7064],[-9.9978,51.7138],[-9.9807,51.7319],[-9.9149,51.7576],[-9.8885,51.7616],[-9.9023,51.7412],[-9.8609,51.7548],[-9.8352,51.7361],[-9.8139,51.6866],[-9.7732,51.692],[-9.7161,51.7344],[-9.6583,51.7427],[-9.6042,51.7775],[-9.4467,51.7899],[-9.4128,51.8196],[-9.3217,51.8425],[-9.2806,51.8757],[-9.2748,51.8892],[-9.3028,51.9278],[-9.2916,51.9407],[-9.2341,51.9653],[-9.1257,51.982],[-9.1196,51.9973],[-9.2086,52.0263],[-9.2013,52.0572],[-9.1781,52.076],[-9.1964,52.0894],[-9.2667,52.2328],[-9.2535,52.2587],[-9.2133,52.2839],[-9.2166,52.294],[-9.1211,52.3316],[-9.0258,52.3157],[-8.9732,52.293],[-8.9705,52.3053],[-8.8959,52.3217],[-8.8733,52.345],[-8.7943,52.3792],[-8.6679,52.3733],[-8.5881,52.3119],[-8.4991,52.277],[-8.3814,52.2913],[-8.3299,52.3205],[-8.2723,52.2827],[-8.1846,52.2812],[-8.1452,52.2351],[-8.0998,52.2248],[-8.0991,52.2092],[-8.1189,52.1956],[-8.145,52.1433],[-8.0633,52.1348],[-8.0057,52.0527],[-7.9337,52.0116],[-7.917,51.9826],[-7.8518,51.9771]]],[[[-9.817,51.6389],[-9.7993,51.6368],[-9.8922,51.6113],[-9.9179,51.6194],[-9.8817,51.6411],[-9.817,51.6389]]]]}},{"type":"Feature","id":"Cork (IE-CO)","properties":{"id":"Cork (IE-CO)","iso_code":"IE-CO","name":"Cork (IE-CO)","name_full":"Cork","name_ja":"コーク県","center_lonlat":[-8.47,51.8849]},"geometry":{"type":"Polygon","coordinates":[[[-8.3885,51.8935],[-8.4294,51.8845],[-8.3961,51.8768],[-8.414,51.8522],[-8.5097,51.8541],[-8.5436,51.8681],[-8.5316,51.902],[-8.4938,51.9239],[-8.4419,51.9179],[-8.3885,51.8935]]]}},{"type":"Feature","id":"Donegal","properties":{"id":"Donegal","iso_code":"IE-DL","name":"Donegal","name_full":"Donegal","name_ja":"ドニゴール県","center_lonlat":[-7.9018,54.9221]},"geometry":{"type":"MultiPolygon","coordinates":[[[[-8.1685,54.4635],[-8.3001,54.478],[-8.2102,54.5019],[-8.271,54.5237],[-8.2164,54.5504],[-8.2189,54.5698],[-8.1725,54.5945],[-8.1754,54.6193],[-8.1376,54.6056],[-8.1208,54.6466],[-8.2349,54.6294],[-8.2921,54.6056],[-8.2803,54.6296],[-8.3017,54.6398],[-8.4566,54.5646],[-8.4323,54.5878],[-8.3848,54.6057],[-8.3877,54.6199],[-8.4001,54.6286],[-8.4219,54.6193],[-8.4187,54.6413],[-8.4316,54.6413],[-8.4615,54.6029],[-8.4941,54.633],[-8.5535,54.6226],[-8.564,54.6088],[-8.6726,54.6195],[-8.69,54.6261],[-8.682,54.6358],[-8.6914,54.6413],[-8.7918,54.6596],[-8.7781,54.6801],[-8.7978,54.692],[-8.7552,54.7058],[-8.7333,54.7326],[-8.6366,54.7685],[-8.4566,54.7564],[-8.5454,54.7838],[-8.5299,54.7881],[-8.4849,54.7894],[-8.4447,54.7631],[-8.4082,54.7626],[-8.4613,54.7935],[-8.5584,54.8179],[-8.4907,54.852],[-8.471,54.8405],[-8.402,54.8445],[-8.3257,54.8315],[-8.3813,54.8559],[-8.3667,54.8811],[-8.3127,54.8793],[-8.337,54.9036],[-8.374,54.9073],[-8.3808,54.8862],[-8.4093,54.887],[-8.4508,54.9221],[-8.4634,54.9408],[-8.4504,54.9463],[-8.4184,54.9346],[-8.3666,54.9482],[-8.4186,54.9681],[-8.4566,55.0029],[-8.415,55.0029],[-8.4032,55.0307],[-8.374,55.0364],[-8.3474,55.0643],[-8.3351,55.0351],[-8.32,55.0343],[-8.3052,55.0581],[-8.3204,55.1049],[-8.2785,55.1605],[-8.2065,55.1469],[-8.1413,55.1605],[-8.1596,55.1387],[-8.1565,55.1245],[-8.1149,55.1547],[-8.021,55.1888],[-7.9996,55.2196],[-7.9768,55.2219],[-7.9502,55.2103],[-8.0041,55.1741],[-7.9086,55.1884],[-7.8949,55.1741],[-7.8988,55.1564],[-7.8601,55.1679],[-7.8949,55.1401],[-7.8564,55.139],[-7.8347,55.165],[-7.8661,55.2149],[-7.7987,55.2561],[-7.7912,55.2487],[-7.8157,55.1946],[-7.7987,55.181],[-7.7707,55.1884],[-7.7176,55.1666],[-7.6956,55.1332],[-7.7025,55.0991],[-7.6682,55.1472],[-7.6951,55.2075],[-7.7161,55.2219],[-7.7239,55.2146],[-7.7093,55.1741],[-7.7231,55.1757],[-7.7917,55.206],[-7.7882,55.2186],[-7.7609,55.2561],[-7.7251,55.2527],[-7.6735,55.2739],[-7.644,55.2728],[-7.6114,55.2414],[-7.6145,55.196],[-7.5727,55.181],[-7.5258,55.1162],[-7.5414,55.0922],[-7.641,55.0507],[-7.5618,55.0445],[-7.5727,55.0234],[-7.6342,54.9954],[-7.6814,54.9544],[-7.4562,55.0561],[-7.4544,55.0862],[-7.4775,55.0964],[-7.4629,55.1435],[-7.5414,55.1981],[-7.5495,55.2154],[-7.5162,55.2541],[-7.5243,55.2903],[-7.4786,55.2839],[-7.4629,55.2903],[-7.4691,55.3039],[-7.4059,55.2869],[-7.3475,55.3143],[-7.3121,55.2903],[-7.34,55.2903],[-7.3209,55.2822],[-7.2567,55.284],[-7.3507,55.3352],[-7.353,55.3585],[-7.4002,55.3803],[-7.3844,55.3864],[-7.2089,55.3451],[-7.1291,55.2858],[-6.9757,55.2487],[-6.9535,55.2543],[-6.9396,55.2391],[-6.9428,55.2186],[-7.1595,55.1508],[-7.2471,55.0693],[-7.2912,55.0466],[-7.377,55.0289],[-7.4131,54.985],[-7.4087,54.9511],[-7.4453,54.9322],[-7.4551,54.863],[-7.5434,54.7931],[-7.5517,54.7547],[-7.5431,54.7417],[-7.6497,54.7449],[-7.7366,54.7075],[-7.7705,54.706],[-7.8459,54.731],[-7.9297,54.6967],[-7.9071,54.6867],[-7.9066,54.6613],[-7.8464,54.6314],[-7.815,54.6395],[-7.7536,54.6145],[-7.7106,54.6243],[-7.7079,54.6042],[-7.7493,54.5962],[-7.8488,54.5409],[-7.8871,54.5321],[-8.0022,54.5434],[-8.0724,54.4871],[-8.1685,54.4635]]],[[[-8.5249,55.0097],[-8.4966,55.0007],[-8.484,54.9755],[-8.5658,54.9755],[-8.5658,54.9954],[-8.5454,55.0029],[-8.5522,55.0097],[-8.5249,55.0097]]]]}},{"type":"Feature","id":"Dublin","properties":{"id":"Dublin","iso_code":"IE-D","name":"Dublin","name_full":"Dublin","name_ja":"ダブリン県","center_lonlat":[-6.2566,53.3662]},"geometry":{"type":"Polygon","coordinates":[[[-6.1498,53.3865],[-6.2153,53.3581],[-6.2113,53.3387],[-6.1805,53.3173],[-6.2727,53.3096],[-6.3774,53.342],[-6.3475,53.3595],[-6.3437,53.3732],[-6.2827,53.4143],[-6.1569,53.4193],[-6.1498,53.3865]]]}},{"type":"Feature","id":"Dun Laoghaire–Rathdown","properties":{"id":"Dun Laoghaire–Rathdown","iso_code":"IE-D","name":"Dun Laoghaire–Rathdown","name_full":"Dún Laoghaire–Rathdown","name_ja":"ダン・レアリー・ラスダウン","center_lonlat":[-6.1897,53.2547]},"geometry":{"type":"Polygon","coordinates":[[[-6.1805,53.3173],[-6.097,53.2855],[-6.1066,53.2431],[-6.0889,53.2041],[-6.1247,53.1919],[-6.1889,53.2102],[-6.2448,53.202],[-6.2856,53.2171],[-6.2827,53.2648],[-6.264,53.2897],[-6.2727,53.3096],[-6.1805,53.3173]]]}},{"type":"Feature","id":"Fingal","properties":{"id":"Fingal","iso_code":"IE-D","name":"Fingal","name_full":"Fingal","name_ja":"フィンガル市","center_lonlat":[-6.2502,53.4979]},"geometry":{"type":"Polygon","coordinates":[[[-6.198,53.6345],[-6.1698,53.6057],[-6.0924,53.5771],[-6.0773,53.5546],[-6.0815,53.5259],[-6.1334,53.4611],[-6.1584,53.4728],[-6.1948,53.4611],[-6.1306,53.4426],[-6.1129,53.4127],[-6.1265,53.399],[-6.0509,53.3854],[-6.0746,53.3669],[-6.1228,53.3928],[-6.1498,53.3865],[-6.1569,53.4193],[-6.2827,53.4143],[-6.3437,53.3732],[-6.3475,53.3595],[-6.3612,53.3732],[-6.4715,53.3697],[-6.4563,53.3884],[-6.3933,53.4363],[-6.3489,53.4496],[-6.327,53.4869],[-6.4096,53.5401],[-6.4068,53.5697],[-6.3659,53.5888],[-6.3159,53.5724],[-6.2689,53.5949],[-6.2431,53.6293],[-6.198,53.6345]]]}},{"type":"Feature","id":"Galway","properties":{"id":"Galway","iso_code":"IE-G","name":"Galway","name_full":"Galway","name_ja":"ゴールウェイ県","center_lonlat":[-8.9214,53.3647]},"geometry":{"type":"MultiPolygon","coordinates":[[[[-9.0041,53.1469],[-9.0456,53.1737],[-9.0096,53.1661],[-8.9789,53.1758],[-8.9742,53.1579],[-8.9364,53.1457],[-8.9569,53.1799],[-8.8948,53.2209],[-9.0456,53.2209],[-8.9631,53.2352],[-8.9911,53.2482],[-8.9426,53.2618],[-8.9097,53.2616],[-8.9219,53.2989],[-9.0403,53.3319],[-9.117,53.2867],[-9.1199,53.2619],[-9.4014,53.248],[-9.5117,53.2283],[-9.5664,53.2618],[-9.5473,53.2791],[-9.5714,53.2905],[-9.5852,53.2504],[-9.6123,53.2362],[-9.6284,53.2482],[-9.6091,53.2763],[-9.6173,53.3215],[-9.577,53.3239],[-9.5608,53.3412],[-9.6011,53.3649],[-9.5528,53.3854],[-9.6217,53.3785],[-9.6066,53.3494],[-9.6346,53.3301],[-9.6525,53.3413],[-9.6378,53.3775],[-9.6527,53.3928],[-9.7431,53.3144],[-9.8067,53.3016],[-9.8429,53.3233],[-9.9023,53.3239],[-9.8872,53.3592],[-9.7855,53.3928],[-9.8202,53.399],[-9.7992,53.4195],[-9.8602,53.3942],[-9.8811,53.4064],[-9.8475,53.4337],[-9.8848,53.4195],[-9.9114,53.426],[-9.9227,53.4195],[-9.9224,53.3892],[-9.9614,53.3796],[-10.0142,53.3813],[-10.0632,53.4127],[-10.1765,53.4127],[-10.1422,53.4457],[-10.068,53.4438],[-10.053,53.4536],[-10.0871,53.4815],[-10.0206,53.4704],[-10.0121,53.4815],[-10.1073,53.4945],[-10.1527,53.5436],[-10.2032,53.5436],[-10.1803,53.5555],[-10.1077,53.5498],[-10.1151,53.5703],[-10.0707,53.57],[-9.9957,53.5462],[-9.9711,53.5629],[-10.0468,53.5993],[-10.0087,53.6044],[-9.9307,53.5998],[-9.8544,53.6181],[-9.7751,53.6013],[-9.6968,53.6026],[-9.5575,53.6095],[-9.5399,53.5831],[-9.4648,53.5631],[-9.3468,53.5633],[-9.3449,53.5433],[-9.29,53.5398],[-9.268,53.5098],[-9.1874,53.4752],[-9.0976,53.5013],[-9.0416,53.5471],[-9.0432,53.5717],[-9.016,53.5829],[-8.9671,53.6478],[-8.8899,53.65],[-8.8171,53.6681],[-8.7635,53.6602],[-8.6574,53.6758],[-8.6377,53.6946],[-8.5625,53.7173],[-8.4537,53.7077],[-8.4406,53.6785],[-8.3612,53.6512],[-8.3611,53.6424],[-8.3954,53.6366],[-8.3783,53.612],[-8.2834,53.5665],[-8.2969,53.5612],[-8.2795,53.5309],[-8.2773,53.4767],[-8.2427,53.4453],[-8.2527,53.4279],[-8.2251,53.3976],[-8.2352,53.3626],[-8.1861,53.339],[-8.1778,53.3033],[-8.1494,53.2824],[-8.0457,53.2762],[-7.9692,53.2247],[-7.9947,53.1972],[-8.0765,53.1704],[-8.1375,53.1528],[-8.2064,53.0705],[-8.2529,53.0453],[-8.3094,52.9801],[-8.4765,52.9765],[-8.5176,53.0084],[-8.597,53.0334],[-8.679,53.0284],[-8.7187,53.0175],[-8.7782,52.9766],[-8.8622,52.969],[-8.8852,52.9835],[-8.8777,53.0138],[-8.8907,53.0556],[-9.018,53.108],[-9.0221,53.1268],[-9.0041,53.1469]]],[[[-9.6483,53.1017],[-9.6424,53.0938],[-9.6605,53.0906],[-9.8114,53.1376],[-9.7775,53.1468],[-9.7522,53.1354],[-9.6967,53.1365],[-9.6711,53.1305],[-9.6715,53.1092],[-9.6483,53.1017]]],[[[-9.6627,53.2755],[-9.6383,53.251],[-9.6583,53.2327],[-9.6924,53.2264],[-9.7104,53.2386],[-9.7201,53.2661],[-9.7104,53.2755],[-9.6627,53.2755]]]]}},{"type":"Feature","id":"Galway (IE-G)","properties":{"id":"Galway (IE-G)","iso_code":"IE-G","name":"Galway (IE-G)","name_full":"Galway","name_ja":"ゴールウェイ県","center_lonlat":[-9.0148,53.2912]},"geometry":{"type":"Polygon","coordinates":[[[-8.9426,53.2618],[-9.0221,53.2755],[-9.1199,53.2619],[-9.117,53.2867],[-9.0403,53.3319],[-8.9219,53.2989],[-8.9097,53.2616],[-8.9426,53.2618]]]}},{"type":"Feature","id":"Kerry","properties":{"id":"Kerry","iso_code":"IE-KY","name":"Kerry","name_full":"Kerry","name_ja":"ケリー県","center_lonlat":[-9.7151,52.1121]},"geometry":{"type":"MultiPolygon","coordinates":[[[[-9.8609,51.7548],[-9.8544,51.7753],[-9.7855,51.7685],[-9.8134,51.7883],[-9.7377,51.8367],[-9.6711,51.843],[-9.5807,51.8777],[-9.758,51.847],[-9.7917,51.8268],[-9.8401,51.8237],[-9.8339,51.8162],[-9.8638,51.8043],[-9.8749,51.8026],[-9.868,51.8237],[-9.8822,51.8237],[-10.0168,51.7746],[-10.0394,51.7821],[-10.1356,51.7412],[-10.1297,51.7543],[-10.2244,51.7821],[-10.1861,51.7896],[-10.1771,51.8137],[-10.1942,51.8391],[-10.2346,51.851],[-10.3411,51.7883],[-10.3411,51.8436],[-10.3889,51.8462],[-10.3819,51.8777],[-10.3956,51.8845],[-10.2541,51.9087],[-10.255,51.9255],[-10.3069,51.9534],[-10.2585,51.9739],[-10.2662,51.9885],[-10.1282,52.0285],[-10.0333,52.0411],[-9.9927,52.0559],[-9.9711,52.0899],[-9.9543,52.0642],[-9.9264,52.0627],[-9.9084,52.1309],[-9.8775,52.1195],[-9.7718,52.1247],[-9.793,52.1384],[-9.7582,52.152],[-9.9569,52.1452],[-9.9438,52.1247],[-9.9547,52.1088],[-9.9703,52.1317],[-9.9978,52.1384],[-10.1863,52.1094],[-10.2175,52.1309],[-10.2421,52.1198],[-10.2789,52.1364],[-10.3069,52.1247],[-10.2721,52.1117],[-10.3683,52.1247],[-10.3541,52.1117],[-10.4366,52.0974],[-10.4675,52.1151],[-10.4782,52.152],[-10.4509,52.1657],[-10.4613,52.18],[-10.4093,52.1998],[-10.4167,52.1862],[-10.3821,52.1719],[-10.3615,52.2067],[-10.3758,52.2128],[-10.3666,52.2282],[-10.3205,52.2346],[-10.2758,52.2681],[-10.1719,52.2868],[-10.1561,52.2786],[-10.1662,52.2346],[-10.1008,52.2408],[-10.0449,52.2693],[-10.036,52.2904],[-10.0598,52.3096],[-10.0135,52.3063],[-10.0088,52.2534],[-9.9475,52.2376],[-9.8722,52.2327],[-9.8256,52.2582],[-9.81,52.2421],[-9.7377,52.2482],[-9.8694,52.2731],[-9.8811,52.296],[-9.8492,52.2847],[-9.8339,52.2892],[-9.8619,52.3035],[-9.8265,52.3096],[-9.8376,52.3264],[-9.8345,52.3752],[-9.9499,52.4121],[-9.7489,52.4567],[-9.7035,52.4835],[-9.6346,52.4736],[-9.6505,52.4938],[-9.6831,52.4946],[-9.6756,52.5458],[-9.6483,52.5704],[-9.6179,52.5772],[-9.4703,52.5618],[-9.4465,52.5762],[-9.3625,52.5754],[-9.3003,52.5064],[-9.3286,52.4575],[-9.3097,52.4306],[-9.3288,52.3989],[-9.3052,52.3731],[-9.3317,52.3513],[-9.2166,52.294],[-9.2133,52.2839],[-9.2535,52.2587],[-9.2667,52.2328],[-9.1964,52.0894],[-9.1781,52.076],[-9.2013,52.0572],[-9.2086,52.0263],[-9.1196,51.9973],[-9.1257,51.982],[-9.2341,51.9653],[-9.2916,51.9407],[-9.3028,51.9278],[-9.2748,51.8892],[-9.2806,51.8757],[-9.3217,51.8425],[-9.4128,51.8196],[-9.4467,51.7899],[-9.6042,51.7775],[-9.6583,51.7427],[-9.7161,51.7344],[-9.7732,51.692],[-9.8139,51.6866],[-9.8352,51.7361],[-9.8609,51.7548]]],[[[-10.3127,51.9255],[-10.2977,51.9184],[-10.3227,51.9033],[-10.4058,51.8841],[-10.429,51.8898],[-10.3517,51.9311],[-10.3127,51.9255]]]]}},{"type":"Feature","id":"Kildare","properties":{"id":"Kildare","iso_code":"IE-KE","name":"Kildare","name_full":"Kildare","name_ja":"キルデア県","center_lonlat":[-6.8118,53.1906]},"geometry":{"type":"Polygon","coordinates":[[[-6.731,52.9159],[-6.7811,52.87],[-6.8797,52.8627],[-6.931,52.8845],[-6.9344,52.9122],[-6.9707,52.958],[-6.9911,52.9708],[-7.0507,52.9753],[-7.0771,52.998],[-7.0468,53.0559],[-7.0908,53.1324],[-7.0625,53.1598],[-7.0921,53.167],[-7.1437,53.1828],[-7.029,53.1877],[-7.015,53.2139],[-7.0609,53.2274],[-7.018,53.2499],[-7.0119,53.2793],[-6.9878,53.3072],[-7.0709,53.362],[-7.0738,53.3757],[-7.0497,53.4036],[-6.9577,53.4493],[-6.9029,53.4471],[-6.8685,53.412],[-6.8421,53.4038],[-6.8042,53.4023],[-6.7499,53.4259],[-6.5707,53.3914],[-6.5308,53.4007],[-6.4563,53.3884],[-6.4715,53.3697],[-6.5292,53.2834],[-6.5066,53.2622],[-6.5216,53.2416],[-6.4833,53.2392],[-6.468,53.224],[-6.5115,53.1895],[-6.5463,53.1792],[-6.5431,53.1551],[-6.5676,53.1423],[-6.5807,53.1148],[-6.7187,53.0605],[-6.7647,53.0112],[-6.7827,52.9806],[-6.7351,52.9411],[-6.731,52.9159]]]}},{"type":"Feature","id":"Kilkenny","properties":{"id":"Kilkenny","iso_code":"IE-KK","name":"Kilkenny","name_full":"Kilkenny","name_ja":"キルケニー県","center_lonlat":[-7.228,52.5711]},"geometry":{"type":"Polygon","coordinates":[[[-6.9945,52.2775],[-6.9919,52.2668],[-7.0341,52.2571],[-7.0889,52.2508],[-7.153,52.2715],[-7.216,52.2488],[-7.3646,52.3356],[-7.3899,52.3821],[-7.3916,52.4313],[-7.4579,52.4715],[-7.4213,52.4967],[-7.4191,52.5123],[-7.4499,52.5207],[-7.4494,52.5811],[-7.4685,52.5923],[-7.475,52.6197],[-7.5605,52.7081],[-7.6296,52.7315],[-7.6682,52.7798],[-7.6187,52.7856],[-7.5624,52.8189],[-7.4534,52.7856],[-7.3917,52.8023],[-7.3622,52.8236],[-7.3403,52.8212],[-7.3049,52.8541],[-7.248,52.8509],[-7.1835,52.8882],[-7.138,52.8692],[-7.1197,52.8322],[-7.0751,52.8208],[-7.0474,52.7932],[-7.0778,52.7671],[-7.0926,52.7251],[-7.0618,52.7053],[-7.0224,52.71],[-6.9779,52.6727],[-6.9734,52.6103],[-6.9234,52.5739],[-6.9395,52.5248],[-6.9233,52.4659],[-6.9277,52.425],[-6.9553,52.4211],[-6.957,52.3887],[-6.997,52.3492],[-7.0185,52.2943],[-6.9945,52.2775]]]}},{"type":"Feature","id":"Laois","properties":{"id":"Laois","iso_code":"IE-LS","name":"Laois","name_full":"Laois","name_ja":"リーシュ県","center_lonlat":[-7.3527,52.981]},"geometry":{"type":"Polygon","coordinates":[[[-6.931,52.8845],[-6.9377,52.8251],[-7.0474,52.7932],[-7.0751,52.8208],[-7.1197,52.8322],[-7.138,52.8692],[-7.1835,52.8882],[-7.248,52.8509],[-7.3049,52.8541],[-7.3403,52.8212],[-7.3622,52.8236],[-7.3917,52.8023],[-7.4534,52.7856],[-7.5624,52.8189],[-7.6187,52.7856],[-7.6682,52.7798],[-7.678,52.8125],[-7.7128,52.8537],[-7.7025,52.8873],[-7.6574,52.9256],[-7.708,52.9368],[-7.7285,52.9559],[-7.701,52.977],[-7.6853,53.0196],[-7.5926,53.0925],[-7.6386,53.1395],[-7.6251,53.1634],[-7.4922,53.1884],[-7.4302,53.1821],[-7.4143,53.2023],[-7.3786,53.208],[-7.3418,53.1978],[-7.3021,53.1391],[-7.2848,53.1341],[-7.1826,53.1531],[-7.1271,53.1502],[-7.0921,53.167],[-7.0625,53.1598],[-7.0908,53.1324],[-7.0468,53.0559],[-7.0771,52.998],[-7.0507,52.9753],[-6.9911,52.9708],[-6.9707,52.958],[-6.9344,52.9122],[-6.931,52.8845]]]}},{"type":"Feature","id":"Leitrim","properties":{"id":"Leitrim","iso_code":"IE-LM","name":"Leitrim","name_full":"Leitrim","name_ja":"リートリム県","center_lonlat":[-8.017,54.1374]},"geometry":{"type":"Polygon","coordinates":[[[-8.1685,54.4635],[-8.156,54.4391],[-8.0799,54.3802],[-8.0022,54.3579],[-7.968,54.3122],[-7.9421,54.2989],[-7.9991,54.254],[-8.0472,54.2439],[-8.0271,54.2093],[-8.0387,54.1894],[-7.9499,54.1767],[-7.8214,54.1038],[-7.7913,54.1147],[-7.7399,54.1016],[-7.5942,54.0233],[-7.5753,53.9779],[-7.5988,53.9331],[-7.6387,53.9352],[-7.6789,53.9174],[-7.7723,53.8566],[-7.7929,53.8152],[-7.8503,53.8289],[-7.8596,53.8085],[-7.8892,53.823],[-7.922,53.8116],[-7.9398,53.8398],[-7.9837,53.8649],[-7.9855,53.9003],[-8.0238,53.9409],[-8.0592,53.913],[-8.0927,53.9205],[-8.0922,53.9437],[-8.1067,53.9526],[-8.0652,53.9986],[-8.0836,54.0094],[-8.0892,54.0503],[-8.0542,54.0677],[-8.0499,54.0907],[-8.1162,54.1122],[-8.1572,54.1081],[-8.2188,54.1518],[-8.2728,54.1501],[-8.3086,54.1655],[-8.3369,54.197],[-8.3312,54.236],[-8.3446,54.288],[-8.3775,54.3171],[-8.3881,54.3458],[-8.3589,54.3733],[-8.3492,54.4147],[-8.414,54.4197],[-8.3751,54.4524],[-8.3817,54.4686],[-8.3001,54.478],[-8.1685,54.4635]]]}},{"type":"Feature","id":"Limerick","properties":{"id":"Limerick","iso_code":"IE-LK","name":"Limerick","name_full":"Limerick","name_ja":"リムリック県","center_lonlat":[-8.7395,52.4869]},"geometry":{"type":"Polygon","coordinates":[[[-9.3625,52.5754],[-9.2365,52.5816],[-9.0524,52.6318],[-9.0442,52.6208],[-9.0056,52.6208],[-8.9599,52.6523],[-8.7512,52.673],[-8.7073,52.672],[-8.6824,52.6512],[-8.6658,52.6529],[-8.6453,52.6295],[-8.5875,52.6236],[-8.5635,52.6415],[-8.568,52.6765],[-8.5452,52.6985],[-8.5074,52.7105],[-8.5091,52.7443],[-8.477,52.7551],[-8.4497,52.6879],[-8.2933,52.6904],[-8.2562,52.6668],[-8.1874,52.6654],[-8.2276,52.5773],[-8.2305,52.5159],[-8.3123,52.501],[-8.3228,52.4714],[-8.3354,52.5006],[-8.3551,52.5019],[-8.3841,52.4817],[-8.3928,52.4517],[-8.2433,52.4073],[-8.208,52.3704],[-8.1724,52.3654],[-8.178,52.3241],[-8.1552,52.3124],[-8.1846,52.2812],[-8.2723,52.2827],[-8.3299,52.3205],[-8.3814,52.2913],[-8.4991,52.277],[-8.5881,52.3119],[-8.6679,52.3733],[-8.7943,52.3792],[-8.8733,52.345],[-8.8959,52.3217],[-8.9705,52.3053],[-8.9732,52.293],[-9.0258,52.3157],[-9.1211,52.3316],[-9.2166,52.294],[-9.3317,52.3513],[-9.3052,52.3731],[-9.3288,52.3989],[-9.3097,52.4306],[-9.3286,52.4575],[-9.3003,52.5064],[-9.3625,52.5754]]]}},{"type":"Feature","id":"Limerick (IE-LK)","properties":{"id":"Limerick (IE-LK)","iso_code":"IE-LK","name":"Limerick (IE-LK)","name_full":"Limerick","name_ja":"リムリック県","center_lonlat":[-8.6077,52.6515]},"geometry":{"type":"Polygon","coordinates":[[[-8.568,52.6765],[-8.5635,52.6415],[-8.5875,52.6236],[-8.6453,52.6295],[-8.6658,52.6529],[-8.638,52.6592],[-8.6271,52.6804],[-8.568,52.6765]]]}},{"type":"Feature","id":"Longford","properties":{"id":"Longford","iso_code":"IE-LD","name":"Longford","name_full":"Longford","name_ja":"ロングフォード県","center_lonlat":[-7.7197,53.7147]},"geometry":{"type":"Polygon","coordinates":[[[-7.3888,53.779],[-7.3724,53.7594],[-7.3832,53.7327],[-7.4422,53.7297],[-7.4735,53.7063],[-7.5044,53.7023],[-7.5703,53.6527],[-7.6022,53.658],[-7.5598,53.6213],[-7.6213,53.5872],[-7.66,53.5406],[-7.7611,53.5346],[-7.8295,53.5496],[-7.963,53.5243],[-8.0323,53.6192],[-7.9494,53.7355],[-7.8872,53.7696],[-7.8876,53.7889],[-7.922,53.8116],[-7.8892,53.823],[-7.8596,53.8085],[-7.8503,53.8289],[-7.7929,53.8152],[-7.7723,53.8566],[-7.6789,53.9174],[-7.6387,53.9352],[-7.5988,53.9331],[-7.5401,53.8888],[-7.5666,53.8588],[-7.4863,53.859],[-7.443,53.8072],[-7.3888,53.779]]]}},{"type":"Feature","id":"Louth","properties":{"id":"Louth","iso_code":"IE-LH","name":"Louth","name_full":"Louth","name_ja":"ラウス県","center_lonlat":[-6.4074,53.9126]},"geometry":{"type":"Polygon","coordinates":[[[-6.2458,53.7296],[-6.3181,53.7152],[-6.4481,53.7168],[-6.4612,53.7359],[-6.4457,53.7647],[-6.5259,53.7828],[-6.5645,53.8125],[-6.5872,53.8644],[-6.6844,53.9051],[-6.6325,53.9242],[-6.6371,53.959],[-6.6182,53.9756],[-6.5527,53.983],[-6.5629,54.0322],[-6.6052,54.0445],[-6.4785,54.0677],[-6.4509,54.0684],[-6.4339,54.0553],[-6.3775,54.0633],[-6.3548,54.1107],[-6.3271,54.0979],[-6.2847,54.1052],[-6.1073,54.0136],[-6.1608,53.9744],[-6.3599,54.016],[-6.3478,54.0036],[-6.373,53.9644],[-6.373,53.8993],[-6.3173,53.8711],[-6.2432,53.8651],[-6.255,53.8222],[-6.2228,53.7963],[-6.2433,53.7825],[-6.2458,53.7296]]]}},{"type":"Feature","id":"Mayo","properties":{"id":"Mayo","iso_code":"IE-MO","name":"Mayo","name_full":"Mayo","name_ja":"メイヨー県","center_lonlat":[-9.3624,53.9223]},"geometry":{"type":"MultiPolygon","coordinates":[[[[-9.6968,53.6026],[-9.7838,53.6063],[-9.9084,53.6461],[-9.9227,53.6907],[-9.8995,53.7438],[-9.9084,53.7621],[-9.7892,53.7866],[-9.752,53.7764],[-9.5664,53.7963],[-9.6217,53.8173],[-9.5602,53.8651],[-9.5869,53.872],[-9.5664,53.8993],[-9.7582,53.8993],[-9.9108,53.8587],[-9.9438,53.8794],[-9.9084,53.9204],[-9.9159,53.9538],[-9.868,53.9614],[-9.8116,53.9417],[-9.8076,53.9183],[-9.7875,53.9161],[-9.7855,53.9471],[-9.8127,53.9663],[-9.8317,53.9563],[-9.8496,53.9975],[-9.8777,54.0019],[-9.8989,54.0253],[-9.8977,54.0551],[-9.8619,54.0712],[-9.8761,54.0806],[-9.8339,54.1121],[-9.8811,54.1121],[-9.8797,54.1002],[-9.8954,54.0979],[-9.8885,54.0911],[-9.9174,54.0697],[-9.9455,54.0662],[-9.9707,54.0786],[-9.991,54.1047],[-9.9084,54.1184],[-9.9511,54.1413],[-9.9569,54.1531],[-9.9301,54.1457],[-9.9773,54.1805],[-9.952,54.1746],[-9.9363,54.1873],[-10.0109,54.2183],[-10.0257,54.2077],[-10.0115,54.1971],[-10.017,54.1887],[-10.053,54.1873],[-10.0394,54.1668],[-10.0871,54.1593],[-10.0666,54.1252],[-10.0946,54.1184],[-10.0669,54.0949],[-10.1174,54.0959],[-10.1282,54.1252],[-10.0912,54.195],[-10.0598,54.2221],[-10.1151,54.2351],[-10.0961,54.2352],[-10.0735,54.2692],[-9.9978,54.3039],[-9.9718,54.2772],[-9.8811,54.263],[-9.9272,54.2268],[-9.9773,54.2425],[-9.9836,54.223],[-9.9099,54.2044],[-9.868,54.2282],[-9.8817,54.2404],[-9.8752,54.2565],[-9.8439,54.2766],[-9.765,54.2556],[-9.7992,54.2835],[-9.7582,54.2835],[-9.8292,54.2969],[-9.846,54.3214],[-9.7855,54.3381],[-9.7069,54.3176],[-9.4944,54.3176],[-9.3845,54.2972],[-9.3342,54.3183],[-9.2684,54.3039],[-9.2477,54.2766],[-9.2176,54.2835],[-9.2095,54.2676],[-9.2176,54.2487],[-9.1959,54.2425],[-9.2151,54.2271],[-9.2104,54.2178],[-9.1493,54.1806],[-9.1412,54.1457],[-9.1339,54.1651],[-9.0942,54.142],[-9.0283,54.1566],[-8.9622,54.1481],[-8.9237,54.1166],[-8.9994,54.0559],[-9.0047,54.0263],[-8.9352,54.0133],[-8.8895,54.0213],[-8.8546,53.9769],[-8.8183,53.9699],[-8.7652,53.9749],[-8.6808,54.0107],[-8.6687,54.0302],[-8.6451,54.0322],[-8.59,54.0144],[-8.5832,53.9582],[-8.6836,53.9614],[-8.6789,53.9194],[-8.6362,53.8987],[-8.6319,53.8849],[-8.6461,53.8674],[-8.6897,53.8728],[-8.7258,53.8214],[-8.7263,53.8098],[-8.6851,53.7884],[-8.6935,53.7412],[-8.7218,53.7097],[-8.7903,53.6897],[-8.8171,53.6681],[-8.8899,53.65],[-8.9671,53.6478],[-9.016,53.5829],[-9.0432,53.5717],[-9.0416,53.5471],[-9.0976,53.5013],[-9.1874,53.4752],[-9.268,53.5098],[-9.29,53.5398],[-9.3449,53.5433],[-9.3468,53.5633],[-9.4648,53.5631],[-9.5399,53.5831],[-9.5575,53.6095],[-9.6968,53.6026]]],[[[-9.9636,53.9538],[-9.9227,53.9538],[-9.9363,53.8925],[-9.958,53.8806],[-10.0183,53.9129],[-10.0555,53.9137],[-10.0558,53.9588],[-10.0666,53.9676],[-10.1628,53.9614],[-10.2659,53.9818],[-10.2185,53.986],[-10.1896,54.016],[-10.1561,54.016],[-10.1344,54.0003],[-10.0632,54.0228],[-9.9759,54.0211],[-9.9363,53.9892],[-9.9569,53.9892],[-9.9636,53.9538]]]]}},{"type":"Feature","id":"Meath","properties":{"id":"Meath","iso_code":"IE-MH","name":"Meath","name_full":"Meath","name_ja":"ミーズ県","center_lonlat":[-6.724,53.6333]},"geometry":{"type":"Polygon","coordinates":[[[-6.2458,53.7296],[-6.2299,53.6566],[-6.198,53.6345],[-6.2431,53.6293],[-6.2689,53.5949],[-6.3159,53.5724],[-6.3659,53.5888],[-6.4068,53.5697],[-6.4096,53.5401],[-6.327,53.4869],[-6.3489,53.4496],[-6.3933,53.4363],[-6.4563,53.3884],[-6.5308,53.4007],[-6.5707,53.3914],[-6.7499,53.4259],[-6.8042,53.4023],[-6.8421,53.4038],[-6.8685,53.412],[-6.9029,53.4471],[-6.9577,53.4493],[-7.0497,53.4036],[-7.0738,53.3757],[-7.1816,53.4276],[-7.061,53.4683],[-7.0535,53.4994],[-7.023,53.5064],[-7.0075,53.5397],[-7.0125,53.5718],[-6.9815,53.5805],[-6.9476,53.649],[-6.9978,53.6715],[-7.0536,53.6485],[-7.1618,53.6851],[-7.2178,53.7089],[-7.2222,53.7301],[-7.2726,53.7688],[-7.3385,53.7954],[-7.2837,53.806],[-7.2152,53.7773],[-7.1381,53.7999],[-6.9739,53.7753],[-6.9083,53.8086],[-6.9612,53.8708],[-6.9302,53.8672],[-6.9227,53.891],[-6.8693,53.8781],[-6.7765,53.8932],[-6.7483,53.914],[-6.6844,53.9051],[-6.5872,53.8644],[-6.5645,53.8125],[-6.5259,53.7828],[-6.4457,53.7647],[-6.4612,53.7359],[-6.4481,53.7168],[-6.3181,53.7152],[-6.2458,53.7296]]]}},{"type":"Feature","id":"Monaghan","properties":{"id":"Monaghan","iso_code":"IE-MN","name":"Monaghan","name_full":"Monaghan","name_ja":"モナハン県","center_lonlat":[-6.9246,54.1554]},"geometry":{"type":"Polygon","coordinates":[[[-6.6052,54.0445],[-6.5629,54.0322],[-6.5527,53.983],[-6.6182,53.9756],[-6.6371,53.959],[-6.6325,53.9242],[-6.6844,53.9051],[-6.7483,53.914],[-6.8265,53.9451],[-6.8747,54.0035],[-7.0065,54.0778],[-7.0095,54.0971],[-7.1428,54.0851],[-7.3165,54.1143],[-7.3332,54.1427],[-7.326,54.1546],[-7.2955,54.1651],[-7.2974,54.1259],[-7.28,54.1262],[-7.2635,54.141],[-7.2654,54.1611],[-7.2458,54.167],[-7.2611,54.1809],[-7.2491,54.1974],[-7.1533,54.2242],[-7.1597,54.2407],[-7.1459,54.2521],[-7.1815,54.2698],[-7.1755,54.2837],[-7.209,54.2934],[-7.2115,54.3042],[-7.1846,54.3166],[-7.1925,54.3347],[-7.127,54.3498],[-7.0785,54.3947],[-7.0178,54.4132],[-6.922,54.3727],[-6.906,54.349],[-6.8797,54.3416],[-6.8567,54.2928],[-6.8822,54.2773],[-6.8377,54.2605],[-6.8239,54.2323],[-6.7878,54.203],[-6.7448,54.1842],[-6.6947,54.198],[-6.6403,54.168],[-6.6346,54.1501],[-6.6664,54.1148],[-6.6571,54.0919],[-6.6725,54.0684],[-6.6306,54.0418],[-6.6052,54.0445]]]}},{"type":"Feature","id":"Offaly","properties":{"id":"Offaly","iso_code":"IE-OY","name":"Offaly","name_full":"Offaly","name_ja":"オファリー県","center_lonlat":[-7.5927,53.2086]},"geometry":{"type":"Polygon","coordinates":[[[-7.0738,53.3757],[-7.0709,53.362],[-6.9878,53.3072],[-7.0119,53.2793],[-7.018,53.2499],[-7.0609,53.2274],[-7.015,53.2139],[-7.029,53.1877],[-7.1437,53.1828],[-7.0921,53.167],[-7.1271,53.1502],[-7.1826,53.1531],[-7.2848,53.1341],[-7.3021,53.1391],[-7.3418,53.1978],[-7.3786,53.208],[-7.4143,53.2023],[-7.4302,53.1821],[-7.4922,53.1884],[-7.6251,53.1634],[-7.6386,53.1395],[-7.5926,53.0925],[-7.6853,53.0196],[-7.701,52.977],[-7.7285,52.9559],[-7.8131,52.9692],[-7.854,52.9463],[-7.8473,52.9346],[-7.857,52.9217],[-7.92,52.8831],[-7.9486,52.8898],[-7.9482,52.8663],[-7.9785,52.8548],[-7.9913,52.8786],[-8.0277,52.8935],[-8.0429,52.929],[-7.9957,52.9267],[-7.9733,52.9404],[-7.9689,52.9542],[-7.9941,52.9827],[-7.946,52.9922],[-7.9603,53.0252],[-7.9277,53.0421],[-7.9163,53.0831],[-7.9412,53.1177],[-8.0765,53.1704],[-7.9947,53.1972],[-7.9692,53.2247],[-8.0457,53.2762],[-8.0125,53.3239],[-7.9441,53.3667],[-7.8532,53.3453],[-7.7568,53.3533],[-7.6195,53.4093],[-7.5687,53.3915],[-7.5257,53.3272],[-7.5095,53.3422],[-7.443,53.3247],[-7.3692,53.3408],[-7.1816,53.4276],[-7.0738,53.3757]]]}},{"type":"Feature","id":"Roscommon","properties":{"id":"Roscommon","iso_code":"IE-RN","name":"Roscommon","name_full":"Roscommon","name_ja":"ロスコモン県","center_lonlat":[-8.2485,53.7239]},"geometry":{"type":"Polygon","coordinates":[[[-7.9441,53.3667],[-8.0125,53.3239],[-8.0457,53.2762],[-8.1494,53.2824],[-8.1778,53.3033],[-8.1861,53.339],[-8.2352,53.3626],[-8.2251,53.3976],[-8.2527,53.4279],[-8.2427,53.4453],[-8.2773,53.4767],[-8.2795,53.5309],[-8.2969,53.5612],[-8.2834,53.5665],[-8.3783,53.612],[-8.3954,53.6366],[-8.3611,53.6424],[-8.3612,53.6512],[-8.4406,53.6785],[-8.4537,53.7077],[-8.5625,53.7173],[-8.6377,53.6946],[-8.6574,53.6758],[-8.7635,53.6602],[-8.8171,53.6681],[-8.7903,53.6897],[-8.7218,53.7097],[-8.6935,53.7412],[-8.6851,53.7884],[-8.7263,53.8098],[-8.7258,53.8214],[-8.6897,53.8728],[-8.6461,53.8674],[-8.6319,53.8849],[-8.6362,53.8987],[-8.6789,53.9194],[-8.6836,53.9614],[-8.5832,53.9582],[-8.5297,53.9542],[-8.5121,53.9285],[-8.4513,53.9117],[-8.4223,53.9263],[-8.3369,53.9249],[-8.3519,53.9489],[-8.4003,53.9605],[-8.3885,53.9956],[-8.3196,54.0013],[-8.2959,54.0322],[-8.266,54.0437],[-8.2332,54.0392],[-8.2301,54.0562],[-8.2058,54.0776],[-8.1661,54.0889],[-8.1572,54.1081],[-8.1162,54.1122],[-8.0499,54.0907],[-8.0542,54.0677],[-8.0892,54.0503],[-8.0836,54.0094],[-8.0652,53.9986],[-8.1067,53.9526],[-8.0922,53.9437],[-8.0927,53.9205],[-8.0592,53.913],[-8.0238,53.9409],[-7.9855,53.9003],[-7.9837,53.8649],[-7.9398,53.8398],[-7.922,53.8116],[-7.8876,53.7889],[-7.8872,53.7696],[-7.9494,53.7355],[-8.0323,53.6192],[-7.963,53.5243],[-7.9577,53.4546],[-7.9324,53.398],[-7.9441,53.3667]]]}},{"type":"Feature","id":"Sligo","properties":{"id":"Sligo","iso_code":"IE-SO","name":"Sligo","name_full":"Sligo","name_ja":"スライゴ県","center_lonlat":[-8.6208,54.1573]},"geometry":{"type":"Polygon","coordinates":[[[-9.1339,54.1651],[-9.135,54.2077],[-9.0902,54.2266],[-9.0513,54.2895],[-9.0175,54.2919],[-8.939,54.29],[-8.8566,54.263],[-8.7651,54.2766],[-8.7375,54.2641],[-8.6764,54.2713],[-8.6483,54.263],[-8.6333,54.2324],[-8.5727,54.2003],[-8.5112,54.2077],[-8.5592,54.2277],[-8.5721,54.2465],[-8.621,54.2556],[-8.5937,54.2835],[-8.4703,54.2766],[-8.5727,54.3139],[-8.5672,54.3242],[-8.5317,54.3102],[-8.5117,54.3174],[-8.5192,54.3267],[-8.6614,54.338],[-8.6683,54.3518],[-8.4741,54.43],[-8.4667,54.475],[-8.443,54.4473],[-8.3817,54.4686],[-8.3751,54.4524],[-8.414,54.4197],[-8.3492,54.4147],[-8.3589,54.3733],[-8.3881,54.3458],[-8.3775,54.3171],[-8.3446,54.288],[-8.3312,54.236],[-8.3369,54.197],[-8.3086,54.1655],[-8.2728,54.1501],[-8.2188,54.1518],[-8.1572,54.1081],[-8.1661,54.0889],[-8.2058,54.0776],[-8.2301,54.0562],[-8.2332,54.0392],[-8.266,54.0437],[-8.2959,54.0322],[-8.3196,54.0013],[-8.3885,53.9956],[-8.4003,53.9605],[-8.3519,53.9489],[-8.3369,53.9249],[-8.4223,53.9263],[-8.4513,53.9117],[-8.5121,53.9285],[-8.5297,53.9542],[-8.5832,53.9582],[-8.59,54.0144],[-8.6451,54.0322],[-8.6687,54.0302],[-8.6808,54.0107],[-8.7652,53.9749],[-8.8183,53.9699],[-8.8546,53.9769],[-8.8895,54.0213],[-8.9352,54.0133],[-9.0047,54.0263],[-8.9994,54.0559],[-8.9237,54.1166],[-8.9622,54.1481],[-9.0283,54.1566],[-9.0942,54.142],[-9.1339,54.1651]]]}},{"type":"Feature","id":"South Dublin","properties":{"id":"South Dublin","iso_code":"IE-D","name":"South Dublin","name_full":"South Dublin","name_ja":"サウス・ダブリン","center_lonlat":[-6.3949,53.2818]},"geometry":{"type":"Polygon","coordinates":[[[-6.468,53.224],[-6.4833,53.2392],[-6.5216,53.2416],[-6.5066,53.2622],[-6.5292,53.2834],[-6.4715,53.3697],[-6.3612,53.3732],[-6.3475,53.3595],[-6.3774,53.342],[-6.2727,53.3096],[-6.264,53.2897],[-6.2827,53.2648],[-6.2856,53.2171],[-6.3321,53.1768],[-6.3836,53.2098],[-6.468,53.224]]]}},{"type":"Feature","id":"Tipperary","properties":{"id":"Tipperary","iso_code":"IE-TA","name":"Tipperary","name_full":"Tipperary","name_ja":"ティペラリー県","center_lonlat":[-8.0347,52.8278]},"geometry":{"type":"Polygon","coordinates":[[[-7.7285,52.9559],[-7.708,52.9368],[-7.6574,52.9256],[-7.7025,52.8873],[-7.7128,52.8537],[-7.678,52.8125],[-7.6682,52.7798],[-7.6296,52.7315],[-7.6477,52.7159],[-7.636,52.677],[-7.6422,52.6535],[-7.6982,52.5996],[-7.841,52.5562],[-7.9073,52.5638],[-7.9307,52.5227],[-7.9249,52.5623],[-8.0996,52.6762],[-8.1874,52.6654],[-8.2562,52.6668],[-8.2933,52.6904],[-8.4497,52.6879],[-8.477,52.7551],[-8.4466,52.7935],[-8.449,52.8169],[-8.397,52.9039],[-8.3384,52.9076],[-8.2793,52.9568],[-8.3094,52.9801],[-8.2529,53.0453],[-8.2064,53.0705],[-8.1375,53.1528],[-8.0765,53.1704],[-7.9412,53.1177],[-7.9163,53.0831],[-7.9277,53.0421],[-7.9603,53.0252],[-7.946,52.9922],[-7.9941,52.9827],[-7.9689,52.9542],[-7.9733,52.9404],[-7.9957,52.9267],[-8.0429,52.929],[-8.0277,52.8935],[-7.9913,52.8786],[-7.9785,52.8548],[-7.9482,52.8663],[-7.9486,52.8898],[-7.92,52.8831],[-7.857,52.9217],[-7.8473,52.9346],[-7.854,52.9463],[-7.8131,52.9692],[-7.7285,52.9559]]]}},{"type":"Feature","id":"Tipperary (IE-TA)","properties":{"id":"Tipperary (IE-TA)","iso_code":"IE-TA","name":"Tipperary (IE-TA)","name_full":"Tipperary","name_ja":"ティペラリー県","center_lonlat":[-7.8651,52.455]},"geometry":{"type":"Polygon","coordinates":[[[-7.3646,52.3356],[-7.591,52.3599],[-7.7659,52.3433],[-7.7917,52.3255],[-7.7907,52.2908],[-7.7866,52.276],[-7.7571,52.2626],[-7.7558,52.225],[-7.9452,52.2431],[-7.9861,52.2392],[-8.0007,52.2091],[-8.0991,52.2092],[-8.0998,52.2248],[-8.1452,52.2351],[-8.1846,52.2812],[-8.1552,52.3124],[-8.178,52.3241],[-8.1724,52.3654],[-8.208,52.3704],[-8.2433,52.4073],[-8.3928,52.4517],[-8.3841,52.4817],[-8.3551,52.5019],[-8.3354,52.5006],[-8.3228,52.4714],[-8.3123,52.501],[-8.2305,52.5159],[-8.2276,52.5773],[-8.1874,52.6654],[-8.0996,52.6762],[-7.9249,52.5623],[-7.9307,52.5227],[-7.9073,52.5638],[-7.841,52.5562],[-7.6982,52.5996],[-7.6422,52.6535],[-7.636,52.677],[-7.6477,52.7159],[-7.6296,52.7315],[-7.5605,52.7081],[-7.475,52.6197],[-7.4685,52.5923],[-7.4494,52.5811],[-7.4499,52.5207],[-7.4191,52.5123],[-7.4213,52.4967],[-7.4579,52.4715],[-7.3916,52.4313],[-7.3899,52.3821],[-7.3646,52.3356]]]}},{"type":"Feature","id":"Waterford","properties":{"id":"Waterford","iso_code":"IE-WD","name":"Waterford","name_full":"Waterford","name_ja":"ウォーターフォード県","center_lonlat":[-7.6114,52.1722]},"geometry":{"type":"Polygon","coordinates":[[[-6.9919,52.2668],[-6.9695,52.2204],[-6.98,52.1859],[-6.9551,52.1793],[-7.0172,52.1384],[-7.106,52.1309],[-7.0718,52.1657],[-7.1064,52.173],[-7.1202,52.1657],[-7.106,52.152],[-7.1496,52.1563],[-7.1874,52.1328],[-7.4355,52.1257],[-7.5653,52.0837],[-7.5826,52.1042],[-7.6,52.101],[-7.6311,52.079],[-7.6273,52.0627],[-7.6022,52.0717],[-7.5452,52.055],[-7.5826,52.0285],[-7.5899,51.9912],[-7.7093,51.9739],[-7.7233,51.9446],[-7.8293,51.9534],[-7.8385,51.9759],[-7.8518,51.9771],[-7.917,51.9826],[-7.9337,52.0116],[-8.0057,52.0527],[-8.0633,52.1348],[-8.145,52.1433],[-8.1189,52.1956],[-8.0991,52.2092],[-8.0007,52.2091],[-7.9861,52.2392],[-7.9452,52.2431],[-7.7558,52.225],[-7.7571,52.2626],[-7.7866,52.276],[-7.7907,52.2908],[-7.7917,52.3255],[-7.7659,52.3433],[-7.591,52.3599],[-7.3646,52.3356],[-7.216,52.2488],[-7.153,52.2715],[-7.1383,52.2289],[-7.1004,52.207],[-7.0307,52.207],[-7.0028,52.2229],[-7.0341,52.2571],[-6.9919,52.2668]]]}},{"type":"Feature","id":"Waterford (IE-WD)","properties":{"id":"Waterford (IE-WD)","iso_code":"IE-WD","name":"Waterford (IE-WD)","name_full":"Waterford","name_ja":"ウォーターフォード県","center_lonlat":[-7.0788,52.2337]},"geometry":{"type":"Polygon","coordinates":[[[-7.153,52.2715],[-7.0889,52.2508],[-7.0341,52.2571],[-7.0028,52.2229],[-7.0307,52.207],[-7.1004,52.207],[-7.1383,52.2289],[-7.153,52.2715]]]}},{"type":"Feature","id":"Westmeath","properties":{"id":"Westmeath","iso_code":"IE-WH","name":"Westmeath","name_full":"Westmeath","name_ja":"ウェストミーズ県","center_lonlat":[-7.4378,53.5278]},"geometry":{"type":"Polygon","coordinates":[[[-7.3385,53.7954],[-7.2726,53.7688],[-7.2222,53.7301],[-7.2178,53.7089],[-7.1618,53.6851],[-7.0536,53.6485],[-6.9978,53.6715],[-6.9476,53.649],[-6.9815,53.5805],[-7.0125,53.5718],[-7.0075,53.5397],[-7.023,53.5064],[-7.0535,53.4994],[-7.061,53.4683],[-7.1816,53.4276],[-7.3692,53.3408],[-7.443,53.3247],[-7.5095,53.3422],[-7.5257,53.3272],[-7.5687,53.3915],[-7.6195,53.4093],[-7.7568,53.3533],[-7.8532,53.3453],[-7.9441,53.3667],[-7.9324,53.398],[-7.9577,53.4546],[-7.963,53.5243],[-7.8295,53.5496],[-7.7611,53.5346],[-7.66,53.5406],[-7.6213,53.5872],[-7.5598,53.6213],[-7.6022,53.658],[-7.5703,53.6527],[-7.5044,53.7023],[-7.4735,53.7063],[-7.4422,53.7297],[-7.3832,53.7327],[-7.3724,53.7594],[-7.3888,53.779],[-7.3385,53.7954]]]}},{"type":"Feature","id":"Wexford","properties":{"id":"Wexford","iso_code":"IE-WX","name":"Wexford","name_full":"Wexford","name_ja":"ウェックスフォード県","center_lonlat":[-6.5746,52.4582]},"geometry":{"type":"Polygon","coordinates":[[[-6.151,52.7416],[-6.2153,52.666],[-6.2091,52.5458],[-6.3562,52.409],[-6.3661,52.3444],[-6.39,52.3588],[-6.4689,52.36],[-6.463,52.378],[-6.4965,52.3643],[-6.4561,52.3358],[-6.455,52.3122],[-6.4237,52.3079],[-6.4092,52.2893],[-6.373,52.3227],[-6.3898,52.2956],[-6.3183,52.2408],[-6.3699,52.18],[-6.3995,52.1855],[-6.3823,52.212],[-6.4256,52.1938],[-6.4691,52.1936],[-6.4486,52.1998],[-6.4726,52.207],[-6.5797,52.1782],[-6.7156,52.2166],[-6.8056,52.2128],[-6.776,52.2332],[-6.764,52.2613],[-6.793,52.2404],[-6.8323,52.2408],[-6.8391,52.2128],[-6.8186,52.2204],[-6.8323,52.1936],[-6.8186,52.1862],[-6.9321,52.1247],[-6.949,52.1309],[-6.9037,52.1722],[-6.9267,52.2197],[-6.9701,52.2474],[-6.9974,52.2892],[-6.9945,52.2775],[-7.0185,52.2943],[-6.997,52.3492],[-6.957,52.3887],[-6.9553,52.4211],[-6.9277,52.425],[-6.9233,52.4659],[-6.8683,52.4712],[-6.8249,52.5373],[-6.7778,52.5765],[-6.769,52.618],[-6.7205,52.6388],[-6.6602,52.6439],[-6.647,52.6559],[-6.67,52.6795],[-6.6341,52.6892],[-6.6091,52.7117],[-6.525,52.6829],[-6.4411,52.7235],[-6.3852,52.7809],[-6.3232,52.7907],[-6.2927,52.7805],[-6.2427,52.7903],[-6.2293,52.7761],[-6.1699,52.7654],[-6.151,52.7416]]]}},{"type":"Feature","id":"Wicklow","properties":{"id":"Wicklow","iso_code":"IE-WW","name":"Wicklow","name_full":"Wicklow","name_ja":"ウィックロー県","center_lonlat":[-6.3698,52.9768]},"geometry":{"type":"Polygon","coordinates":[[[-6.0889,53.2041],[-6.071,53.1843],[-6.0781,53.1662],[-6.0304,53.111],[-6.0516,53.0093],[-5.9935,52.9574],[-6.038,52.9197],[-6.0719,52.872],[-6.0644,52.8646],[-6.1301,52.816],[-6.1539,52.7684],[-6.151,52.7416],[-6.1699,52.7654],[-6.2293,52.7761],[-6.2427,52.7903],[-6.2927,52.7805],[-6.3232,52.7907],[-6.3852,52.7809],[-6.4411,52.7235],[-6.525,52.6829],[-6.6091,52.7117],[-6.6577,52.7676],[-6.6853,52.7693],[-6.6783,52.8066],[-6.6531,52.8324],[-6.5859,52.8049],[-6.5182,52.8211],[-6.5116,52.8586],[-6.496,52.871],[-6.5106,52.882],[-6.5489,52.8766],[-6.731,52.9159],[-6.7351,52.9411],[-6.7827,52.9806],[-6.7647,53.0112],[-6.7187,53.0605],[-6.5807,53.1148],[-6.5676,53.1423],[-6.5431,53.1551],[-6.5463,53.1792],[-6.5115,53.1895],[-6.468,53.224],[-6.3836,53.2098],[-6.3321,53.1768],[-6.2856,53.2171],[-6.2448,53.202],[-6.1889,53.2102],[-6.1247,53.1919],[-6.0889,53.2041]]]}}]}
