{"type":"FeatureCollection","features":[{"type":"Feature","id":"Isle of Man","properties":{"id":"Isle of Man","iso_code":"IM-X01~","name":"Isle of Man","name_full":"Isle of Man","name_ja":"マン島","center_lonlat":[-4.5332,54.2278]},"geometry":{"type":"MultiPolygon","coordinates":[[[[-4.6121,54.057],[-4.6208,54.0696],[-4.6564,54.0638],[-4.7045,54.0849],[-4.7662,54.0592],[-4.7902,54.0712],[-4.7697,54.0775],[-4.7709,54.0968],[-4.7372,54.1249],[-4.7103,54.2206],[-4.664,54.2335],[-4.5984,54.2766],[-4.531,54.3661],[-4.442,54.4044],[-4.3513,54.4138],[-4.3756,54.3483],[-4.3582,54.3176],[-4.3247,54.3102],[-4.3119,54.2872],[-4.3656,54.2351],[-4.3992,54.2221],[-4.3908,54.1947],[-4.5498,54.1007],[-4.5909,54.0911],[-4.6121,54.057]]],[[[-4.8104,54.0598],[-4.801,54.0579],[-4.8122,54.0404],[-4.8306,54.0496],[-4.8104,54.0598]]]]}}]}
