{"type":"FeatureCollection","features":[{"type":"Feature","id":"Central","properties":{"id":"Central","iso_code":"IL-M","name":"Central","name_full":"Central","name_ja":"中央地区","center_lonlat":[34.8815,32.0569]},"geometry":{"type":"Polygon","coordinates":[[[35.0327,32.3822],[35.0216,32.3446],[34.9966,32.323],[34.9899,32.2785],[35.0094,32.2676],[35.0076,32.2444],[34.9582,32.1865],[34.9869,32.124],[34.9842,32.0896],[35.0072,32.0208],[34.9867,31.9672],[35.0054,31.9338],[35.039,31.9086],[35.0343,31.8611],[34.9985,31.8538],[34.9213,31.8407],[34.8949,31.8094],[34.8278,31.792],[34.7865,31.7658],[34.7665,31.8014],[34.7383,31.8142],[34.7135,31.8069],[34.7273,31.7916],[34.7058,31.7801],[34.6737,31.7864],[34.6905,31.8083],[34.6745,31.8296],[34.7032,31.8319],[34.7113,31.8675],[34.6659,31.8739],[34.7339,32.0133],[34.8005,31.998],[34.8351,32.0209],[34.8557,32.0131],[34.8843,32.0254],[34.8436,32.0841],[34.8661,32.1393],[34.8647,32.1702],[34.836,32.1894],[34.8044,32.1925],[34.8678,32.4075],[34.9825,32.4055],[35.0327,32.3822]]]}},{"type":"Feature","id":"Haifa","properties":{"id":"Haifa","iso_code":"IL-HA","name":"Haifa","name_full":"Haifa","name_ja":"ハイファ地区","center_lonlat":[35.0162,32.623]},"geometry":{"type":"Polygon","coordinates":[[[35.2104,32.5419],[35.1908,32.5417],[35.1517,32.5079],[35.0643,32.4631],[35.0327,32.3822],[34.9825,32.4055],[34.8678,32.4075],[34.9421,32.7245],[34.9556,32.8344],[34.9705,32.8414],[35.0277,32.8266],[35.0628,32.8583],[35.0755,32.8931],[35.1012,32.8723],[35.102,32.8509],[35.1426,32.8321],[35.1536,32.7699],[35.1307,32.7059],[35.1062,32.7062],[35.1081,32.6706],[35.0752,32.6387],[35.0433,32.6423],[35.0357,32.6283],[35.0496,32.6096],[35.0249,32.6079],[35.0539,32.5728],[35.0521,32.5541],[35.0823,32.5345],[35.1226,32.5304],[35.172,32.5732],[35.2104,32.5419]]]}},{"type":"Feature","id":"Jerusalem","properties":{"id":"Jerusalem","iso_code":"IL-JM","name":"Jerusalem","name_full":"Jerusalem","name_ja":"エルサレム地区","center_lonlat":[35.0359,31.7535]},"geometry":{"type":"Polygon","coordinates":[[[34.9532,31.6083],[34.8729,31.6591],[34.8726,31.7521],[34.8278,31.792],[34.8949,31.8094],[34.9213,31.8407],[34.9985,31.8538],[34.9774,31.8334],[35.0129,31.8293],[35.0763,31.8542],[35.1125,31.824],[35.1862,31.8087],[35.1836,31.8251],[35.2158,31.8201],[35.2053,31.8773],[35.222,31.8792],[35.2334,31.8426],[35.25,31.8444],[35.2649,31.8263],[35.2527,31.7696],[35.2628,31.7486],[35.238,31.7093],[35.149,31.7373],[35.1257,31.7331],[34.9532,31.6083]]]}},{"type":"Feature","id":"Northern","properties":{"id":"Northern","iso_code":"IL-Z","name":"Northern","name_full":"Northern","name_ja":"北部地区","center_lonlat":[35.4706,32.8648]},"geometry":{"type":"Polygon","coordinates":[[[35.2104,32.5419],[35.172,32.5732],[35.1226,32.5304],[35.0823,32.5345],[35.0521,32.5541],[35.0539,32.5728],[35.0249,32.6079],[35.0496,32.6096],[35.0357,32.6283],[35.0433,32.6423],[35.0752,32.6387],[35.1081,32.6706],[35.1062,32.7062],[35.1307,32.7059],[35.1536,32.7699],[35.1426,32.8321],[35.102,32.8509],[35.1012,32.8723],[35.0755,32.8931],[35.0778,32.9179],[35.0654,32.9231],[35.0921,33.0677],[35.1065,33.0808],[35.0996,33.0876],[35.1853,33.084],[35.2837,33.1012],[35.3452,33.0556],[35.4801,33.0874],[35.5123,33.1474],[35.52,33.2222],[35.5495,33.281],[35.6039,33.2401],[35.6201,33.2695],[35.6521,33.2767],[35.6985,33.3227],[35.7694,33.3426],[35.8211,33.4067],[35.8099,33.36],[35.7638,33.3344],[35.8021,33.3125],[35.7686,33.2727],[35.8036,33.2485],[35.8077,33.2017],[35.8302,33.19],[35.8334,33.1611],[35.8115,33.1119],[35.8489,33.0987],[35.859,32.9902],[35.8881,32.9449],[35.8497,32.8958],[35.8342,32.8279],[35.7576,32.7443],[35.636,32.6791],[35.6123,32.6816],[35.5605,32.6409],[35.58,32.5604],[35.5656,32.5461],[35.5594,32.553],[35.5656,32.5256],[35.552,32.5256],[35.58,32.4977],[35.5594,32.4704],[35.5725,32.4567],[35.552,32.4362],[35.5591,32.414],[35.5451,32.4096],[35.561,32.3847],[35.4069,32.4148],[35.3929,32.4945],[35.3631,32.5101],[35.2704,32.5105],[35.2104,32.5419]]]}},{"type":"Feature","id":"Southern","properties":{"id":"Southern","iso_code":"IL-D","name":"Southern","name_full":"Southern","name_ja":"南部地区","center_lonlat":[34.8513,30.8371]},"geometry":{"type":"Polygon","coordinates":[[[34.6659,31.8739],[34.7113,31.8675],[34.7032,31.8319],[34.6745,31.8296],[34.6905,31.8083],[34.6737,31.7864],[34.7058,31.7801],[34.7273,31.7916],[34.7135,31.8069],[34.7383,31.8142],[34.7665,31.8014],[34.7865,31.7658],[34.8278,31.792],[34.8726,31.7521],[34.8729,31.6591],[34.9532,31.6083],[34.9373,31.582],[34.9268,31.4944],[34.8672,31.3964],[34.8788,31.3628],[34.9009,31.3485],[35.1649,31.3623],[35.2233,31.381],[35.3901,31.4871],[35.4585,31.4916],[35.4569,31.4235],[35.4165,31.3318],[35.4223,31.303],[35.3957,31.2577],[35.4362,31.1595],[35.4385,31.1037],[35.3916,31.0239],[35.3853,30.9633],[35.3222,30.8899],[35.3166,30.8228],[35.2795,30.7802],[35.2639,30.72],[35.2053,30.6171],[35.14,30.4302],[35.1621,30.3614],[35.1252,30.2447],[35.1453,30.1234],[35.0863,30.034],[35.0541,29.9234],[35.049,29.8423],[35.0025,29.7331],[34.9898,29.652],[34.9513,29.5456],[34.9108,29.4899],[34.8867,29.4901],[34.8482,29.5696],[34.8501,29.6388],[34.8244,29.7417],[34.7414,29.9402],[34.7332,30.0126],[34.5995,30.3445],[34.5269,30.4096],[34.5362,30.4822],[34.5044,30.5303],[34.4804,30.6512],[34.3295,30.9945],[34.2484,31.2114],[34.3509,31.2893],[34.3458,31.3577],[34.3673,31.3928],[34.556,31.5398],[34.4812,31.5831],[34.6096,31.7655],[34.6659,31.8739]]]}},{"type":"Feature","id":"Tel Aviv","properties":{"id":"Tel Aviv","iso_code":"IL-TA","name":"Tel Aviv","name_full":"Tel Aviv","name_ja":"テルアビブ地区","center_lonlat":[34.8109,32.0849]},"geometry":{"type":"Polygon","coordinates":[[[34.7339,32.0133],[34.7433,32.0604],[34.757,32.0666],[34.8044,32.1925],[34.836,32.1894],[34.8647,32.1702],[34.8661,32.1393],[34.8436,32.0841],[34.8843,32.0254],[34.8557,32.0131],[34.8351,32.0209],[34.8005,31.998],[34.7339,32.0133]]]}}]}
