{"type":"FeatureCollection","features":[{"type":"Feature","id":"Agneby","properties":{"id":"Agneby","iso_code":"CI-16","name":"Agneby","name_full":"Agnéby","name_ja":"アニェビ州","center_lonlat":[-3.9966,6.0681]},"geometry":{"type":"Polygon","coordinates":[[[-3.7749,6.6271],[-3.769,6.6159],[-3.7144,6.6227],[-3.6904,6.6447],[-3.6802,6.6364],[-3.6864,6.5818],[-3.6659,6.5613],[-3.6455,6.4753],[-3.6586,6.4472],[-3.6219,6.4042],[-3.6113,6.3558],[-3.5554,6.3535],[-3.5424,6.3763],[-3.4779,6.2964],[-3.4568,6.2463],[-3.4835,6.2352],[-3.4605,6.1907],[-3.4332,6.2118],[-3.3956,6.1628],[-3.3922,6.1122],[-3.4242,6.0804],[-3.427,6.061],[-3.4053,6.0678],[-3.4127,6.0474],[-3.3861,6.0218],[-3.3846,6.0017],[-3.3956,5.9819],[-3.4235,5.9712],[-3.4677,5.8376],[-3.7328,5.9057],[-3.8151,5.8552],[-3.8697,5.8008],[-3.9042,5.7875],[-3.9246,5.7579],[-3.9181,5.6454],[-3.9313,5.6216],[-4.3398,5.6026],[-4.4321,5.6528],[-4.4617,5.7311],[-4.6591,5.8581],[-4.463,6.224],[-4.4222,6.2795],[-4.3476,6.2151],[-4.2482,6.1854],[-4.1466,6.2342],[-4.1554,6.3731],[-4.1422,6.4149],[-4.0977,6.4769],[-3.7749,6.6271]]]}},{"type":"Feature","id":"Bafing","properties":{"id":"Bafing","iso_code":"CI-17","name":"Bafing","name_full":"Bafing","name_ja":"バフィン州","center_lonlat":[-7.643,8.3893]},"geometry":{"type":"Polygon","coordinates":[[[-7.7482,9.0754],[-7.7113,9.0382],[-7.6601,8.9453],[-7.5948,8.914],[-7.5366,8.8634],[-7.498,8.8082],[-7.3651,8.7029],[-7.3102,8.6301],[-7.2396,8.5893],[-7.1865,8.5236],[-7.1672,8.473],[-7.1574,8.3705],[-7.1127,8.3228],[-7.1273,8.3094],[-7.1368,8.2428],[-7.1058,8.1782],[-7.1121,8.1592],[-7.0928,8.1161],[-7.1058,8.0516],[-7.0838,7.9893],[-7.2395,7.9948],[-7.2855,8.0717],[-7.3856,8.1176],[-7.4497,8.1668],[-7.4974,8.1246],[-7.5122,8.081],[-7.4953,7.9402],[-7.5126,7.9225],[-7.5106,7.9036],[-7.5631,7.8668],[-7.6021,7.8615],[-7.6181,7.8751],[-7.6685,7.8428],[-7.6813,7.8541],[-7.6963,7.8477],[-7.7236,7.8794],[-7.7767,7.8955],[-7.804,7.9377],[-7.846,7.9623],[-7.8443,7.9786],[-7.8707,8.0138],[-7.9053,8.0072],[-7.9656,8.0269],[-8.0213,8.1027],[-8.0033,8.184],[-8.0855,8.162],[-8.1829,8.1917],[-8.266,8.246],[-8.2453,8.2851],[-8.2353,8.3795],[-8.2544,8.4465],[-8.2003,8.4918],[-8.1505,8.4865],[-8.0766,8.5033],[-8.0507,8.4877],[-8.0157,8.4872],[-7.9705,8.497],[-7.9439,8.4846],[-7.9238,8.4438],[-7.8986,8.4263],[-7.8486,8.4286],[-7.8457,8.4743],[-7.8238,8.4779],[-7.771,8.3865],[-7.7207,8.3685],[-7.6624,8.3749],[-7.6896,8.4387],[-7.6792,8.5051],[-7.6968,8.6248],[-7.7412,8.6629],[-7.8037,8.7491],[-7.9589,8.782],[-7.9689,8.8128],[-7.9319,8.9965],[-7.827,9.0578],[-7.7642,9.0636],[-7.7482,9.0754]]]}},{"type":"Feature","id":"Bas-Sassandra","properties":{"id":"Bas-Sassandra","iso_code":"CI-09","name":"Bas-Sassandra","name_full":"Bas-Sassandra","name_ja":"低サッサンドラ州","center_lonlat":[-6.7607,5.3533]},"geometry":{"type":"Polygon","coordinates":[[[-7.418,5.6278],[-7.0941,5.6906],[-7.0816,5.9992],[-7.1155,6.4596],[-7.1103,6.491],[-7.0527,6.5396],[-6.9974,6.5579],[-6.9554,6.511],[-6.9549,6.4795],[-6.9904,6.4555],[-6.9698,6.398],[-6.8398,6.2498],[-6.6751,6.2496],[-6.5818,6.3156],[-6.503,6.2757],[-6.3999,6.3048],[-6.3746,6.1034],[-6.3353,6.0152],[-6.287,5.9566],[-6.2741,5.8745],[-6.2186,5.7781],[-6.1375,5.7949],[-6.1063,5.777],[-6.0688,5.7311],[-6.0516,5.6782],[-6.0217,5.6348],[-6.0154,5.5606],[-5.9696,5.5148],[-5.8288,5.5595],[-5.744,5.2759],[-5.7527,5.212],[-5.8332,5.1917],[-5.8647,5.1657],[-5.873,5.1297],[-5.8587,5.0277],[-5.9714,4.9926],[-6.1386,4.9152],[-6.4122,4.8239],[-6.4415,4.7939],[-6.5839,4.7604],[-6.6268,4.7246],[-6.7533,4.6873],[-6.8537,4.6806],[-6.9031,4.662],[-6.996,4.5765],[-7.0582,4.539],[-7.1735,4.5188],[-7.2328,4.4933],[-7.2552,4.4655],[-7.2882,4.4605],[-7.3599,4.4161],[-7.4387,4.351],[-7.5407,4.3528],[-7.5792,4.3871],[-7.5643,4.4258],[-7.5769,4.5093],[-7.5725,4.7234],[-7.5796,4.7843],[-7.606,4.8162],[-7.6055,4.8974],[-7.575,4.9216],[-7.5495,4.9139],[-7.5716,4.9754],[-7.5758,5.0721],[-7.5468,5.0977],[-7.5158,5.0918],[-7.4889,5.1407],[-7.4905,5.2222],[-7.4757,5.2642],[-7.4399,5.2902],[-7.4285,5.2882],[-7.4285,5.2561],[-7.4188,5.2605],[-7.3898,5.3171],[-7.3969,5.3664],[-7.4297,5.3743],[-7.45,5.4228],[-7.4502,5.4387],[-7.4362,5.4313],[-7.4324,5.4796],[-7.4081,5.5118],[-7.42,5.5231],[-7.3936,5.524],[-7.4119,5.5604],[-7.4051,5.5724],[-7.3841,5.569],[-7.418,5.6278]]]}},{"type":"Feature","id":"Comoe","properties":{"id":"Comoe","iso_code":"CI-05","name":"Comoe","name_full":"Comoé","name_ja":"コモエ県","center_lonlat":[-3.4299,6.6952]},"geometry":{"type":"Polygon","coordinates":[[[-3.0966,7.0545],[-3.2417,6.8109],[-3.2431,6.7748],[-3.2104,6.716],[-3.2301,6.6611],[-3.2611,6.6339],[-3.1836,6.2639],[-3.1717,6.2496],[-3.2208,6.1525],[-3.2206,6.0987],[-3.2489,6.0636],[-3.309,5.9188],[-3.385,5.7957],[-3.4341,5.7803],[-3.4652,5.8069],[-3.4677,5.8376],[-3.4235,5.9712],[-3.3956,5.9819],[-3.3846,6.0017],[-3.3861,6.0218],[-3.4127,6.0474],[-3.4053,6.0678],[-3.427,6.061],[-3.4242,6.0804],[-3.3922,6.1122],[-3.3956,6.1628],[-3.4332,6.2118],[-3.4605,6.1907],[-3.4835,6.2352],[-3.4568,6.2463],[-3.4779,6.2964],[-3.5424,6.3763],[-3.5554,6.3535],[-3.6113,6.3558],[-3.6219,6.4042],[-3.6586,6.4472],[-3.6455,6.4753],[-3.6659,6.5613],[-3.6864,6.5818],[-3.6802,6.6364],[-3.6904,6.6447],[-3.7144,6.6227],[-3.769,6.6159],[-3.7749,6.6271],[-3.8031,6.6711],[-3.772,6.6842],[-3.7704,6.7058],[-3.7963,6.7599],[-3.7402,6.815],[-3.7752,6.8493],[-3.7614,6.8832],[-3.7297,6.912],[-3.7553,6.9591],[-3.7617,6.9363],[-3.7713,6.9372],[-3.7752,6.979],[-3.7516,7.0001],[-3.7144,7.0063],[-3.6842,7.0396],[-3.6343,7.0511],[-3.6188,7.082],[-3.57,7.0718],[-3.5772,7.0883],[-3.5635,7.1062],[-3.6231,7.1127],[-3.6455,7.1776],[-3.6249,7.1978],[-3.6113,7.1776],[-3.5931,7.1866],[-3.58,7.2181],[-3.5823,7.2748],[-3.5359,7.2808],[-3.522,7.3011],[-3.5424,7.3011],[-3.5351,7.3379],[-3.4984,7.3488],[-3.4307,7.329],[-3.4033,7.2635],[-3.3646,7.2245],[-3.3289,7.2501],[-3.2231,7.2175],[-3.1395,7.1525],[-3.0966,7.0545]]]}},{"type":"Feature","id":"Denguele","properties":{"id":"Denguele","iso_code":"CI-10","name":"Denguele","name_full":"Denguélé","name_ja":"デンゲレ州","center_lonlat":[-7.3936,9.6293]},"geometry":{"type":"Polygon","coordinates":[[[-6.6683,10.3658],[-6.6322,10.3081],[-6.6278,10.2521],[-6.5818,10.2298],[-6.5835,10.1672],[-6.6719,10.1169],[-6.7228,10.1024],[-6.7554,10.1118],[-6.7775,10.141],[-6.8732,10.1221],[-6.8997,10.0195],[-6.9475,9.9602],[-6.9298,9.9478],[-6.7859,9.9478],[-6.7332,9.8505],[-6.7605,9.7686],[-6.7403,9.7491],[-6.7504,9.7213],[-6.7438,9.692],[-6.7797,9.6313],[-6.7977,9.5653],[-6.7408,9.5123],[-6.781,9.4385],[-6.7738,9.4091],[-6.784,9.3876],[-6.7682,9.3148],[-6.7349,9.2604],[-6.7466,9.1178],[-6.8973,9.0523],[-6.9109,9.0149],[-6.9074,8.9427],[-6.9733,8.9653],[-7.0299,8.9593],[-7.0659,8.9928],[-7.1233,9.0078],[-7.1921,8.9527],[-7.2327,8.943],[-7.2095,8.9292],[-7.23,8.8702],[-7.2073,8.853],[-7.189,8.7883],[-7.23,8.6238],[-7.2091,8.6196],[-7.2225,8.6102],[-7.199,8.582],[-7.1865,8.5236],[-7.2396,8.5893],[-7.3102,8.6301],[-7.3651,8.7029],[-7.498,8.8082],[-7.5366,8.8634],[-7.5948,8.914],[-7.6601,8.9453],[-7.7113,9.0382],[-7.7482,9.0754],[-7.8234,9.132],[-7.8479,9.1686],[-7.8787,9.1639],[-7.9296,9.1839],[-7.9306,9.2203],[-7.8949,9.3071],[-7.8706,9.4186],[-7.933,9.4143],[-7.9916,9.3853],[-8.0541,9.3891],[-8.0872,9.4154],[-8.1529,9.5131],[-8.1616,9.5756],[-8.1235,9.8449],[-8.1281,9.8662],[-8.151,9.8661],[-8.1495,9.9053],[-8.1747,9.933],[-8.1401,9.9597],[-8.1363,9.9694],[-8.1585,9.9849],[-8.1275,10.0371],[-8.0349,10.0858],[-7.9897,10.162],[-7.929,10.161],[-7.829,10.2117],[-7.7783,10.2783],[-7.7644,10.3129],[-7.7776,10.3299],[-7.7353,10.3471],[-7.724,10.3636],[-7.736,10.3783],[-7.7086,10.4025],[-7.679,10.4059],[-7.6644,10.4371],[-7.5564,10.4173],[-7.5158,10.4578],[-7.4898,10.4561],[-7.4662,10.4295],[-7.4444,10.3342],[-7.3723,10.3448],[-7.3634,10.2522],[-7.2047,10.2345],[-7.1064,10.2073],[-7.0405,10.1401],[-6.9924,10.1491],[-6.9594,10.1855],[-6.9616,10.211],[-6.9971,10.2528],[-6.9612,10.3449],[-6.8628,10.3438],[-6.7821,10.373],[-6.7003,10.3417],[-6.6683,10.3658]]]}},{"type":"Feature","id":"Dix-Huit Montagnes","properties":{"id":"Dix-Huit Montagnes","iso_code":"CI-06","name":"Dix-Huit Montagnes","name_full":"Dix-Huit Montagnes","name_ja":"十八山州","center_lonlat":[-7.7007,7.405]},"geometry":{"type":"Polygon","coordinates":[[[-7.9656,8.0269],[-7.9053,8.0072],[-7.8707,8.0138],[-7.8443,7.9786],[-7.846,7.9623],[-7.804,7.9377],[-7.7767,7.8955],[-7.7236,7.8794],[-7.6963,7.8477],[-7.6813,7.8541],[-7.6685,7.8428],[-7.6181,7.8751],[-7.6021,7.8615],[-7.5631,7.8668],[-7.5106,7.9036],[-7.5126,7.9225],[-7.4953,7.9402],[-7.5122,8.081],[-7.4974,8.1246],[-7.4497,8.1668],[-7.3856,8.1176],[-7.2855,8.0717],[-7.2395,7.9948],[-7.0838,7.9893],[-7.0717,7.938],[-7.099,7.9038],[-7.1058,7.8737],[-7.0716,7.7195],[-7.0791,7.6779],[-7.0616,7.618],[-7.0549,7.609],[-7.0218,7.6158],[-7.0126,7.5981],[-6.9829,7.5891],[-6.9826,7.5693],[-7.0239,7.5376],[-7.0239,7.4898],[-7.0034,7.4725],[-7.0059,7.4455],[-7.0426,7.4279],[-7.0853,7.366],[-7.0693,7.2744],[-7.0805,7.2465],[-7.0716,7.2155],[-7.0791,7.1708],[-7.0393,7.0639],[-7.0601,6.9928],[-7.0627,6.9295],[-7.1167,6.9379],[-7.1711,6.9632],[-7.2477,6.9551],[-7.3013,6.9643],[-7.4339,6.9395],[-7.5394,6.9391],[-7.6038,6.9293],[-7.6221,6.847],[-7.8027,6.8419],[-7.8427,6.855],[-7.868,6.907],[-7.9212,6.9235],[-7.9897,6.9684],[-8.0994,6.8954],[-8.1119,6.8438],[-8.0921,6.8048],[-8.154,6.7624],[-8.1721,6.7092],[-8.1984,6.7179],[-8.2184,6.7056],[-8.2136,6.6751],[-8.2501,6.668],[-8.2502,6.626],[-8.2818,6.6033],[-8.3277,6.5862],[-8.4416,6.6553],[-8.3375,6.7773],[-8.315,6.8503],[-8.3337,6.8826],[-8.32,6.96],[-8.2866,6.9938],[-8.2841,7.0179],[-8.3054,7.1469],[-8.3297,7.1783],[-8.329,7.204],[-8.3877,7.315],[-8.4256,7.5019],[-8.4436,7.5371],[-8.4854,7.558],[-8.4148,7.6129],[-8.3909,7.5858],[-8.3368,7.5978],[-8.3032,7.5893],[-8.229,7.5443],[-8.2002,7.5763],[-8.1979,7.6186],[-8.158,7.6582],[-8.1595,7.6763],[-8.1274,7.713],[-8.1151,7.7769],[-8.0983,7.7919],[-8.1014,7.8128],[-8.1312,7.8424],[-8.1289,7.8826],[-8.0791,7.9577],[-8.0691,8.0293],[-8.012,8.0356],[-7.9626,8.0152],[-7.9656,8.0269]]]}},{"type":"Feature","id":"Fromager","properties":{"id":"Fromager","iso_code":"CI-18","name":"Fromager","name_full":"Fromager","name_ja":"フロマジェ州","center_lonlat":[-5.8592,6.22]},"geometry":{"type":"Polygon","coordinates":[[[-5.4134,6.6401],[-5.3981,6.6071],[-5.3436,6.6081],[-5.3085,6.5892],[-5.314,6.5517],[-5.3369,6.519],[-5.3056,6.5073],[-5.3244,6.461],[-5.3108,6.4446],[-5.3035,6.3827],[-5.27,6.3607],[-5.2349,6.3728],[-5.2153,6.3668],[-5.2149,6.2993],[-5.2444,6.2181],[-5.3126,6.2339],[-5.5052,6.1668],[-5.7288,6.1962],[-5.7629,6.1183],[-5.7538,6.0514],[-5.7814,6.0003],[-5.7848,5.9569],[-5.8671,5.895],[-6.0516,5.6782],[-6.0688,5.7311],[-6.1063,5.777],[-6.1375,5.7949],[-6.2186,5.7781],[-6.2741,5.8745],[-6.287,5.9566],[-6.3353,6.0152],[-6.3746,6.1034],[-6.3999,6.3048],[-6.2861,6.335],[-6.2108,6.3356],[-6.1394,6.3912],[-6.0986,6.3737],[-6.0599,6.4348],[-6.0408,6.5198],[-5.7399,6.4886],[-5.7104,6.495],[-5.5121,6.6292],[-5.4817,6.6407],[-5.4134,6.6401]]]}},{"type":"Feature","id":"Haut-Sassandra","properties":{"id":"Haut-Sassandra","iso_code":"CI-02","name":"Haut-Sassandra","name_full":"Haut-Sassandra","name_ja":"高サッサンドラ州","center_lonlat":[-6.5977,7.0199]},"geometry":{"type":"Polygon","coordinates":[[[-7.0716,7.7195],[-7.0477,7.7445],[-6.9972,7.7641],[-6.6304,7.7856],[-6.4589,7.741],[-6.2488,7.7767],[-6.2139,7.6844],[-6.1404,7.6543],[-6.1057,7.6184],[-6.3144,7.5002],[-6.4458,7.2548],[-6.4436,7.234],[-6.3972,7.2525],[-6.3493,7.218],[-6.2532,7.2129],[-6.2329,7.218],[-6.2205,7.2851],[-6.1718,7.2881],[-6.1272,7.2769],[-6.1087,7.2457],[-5.9319,7.1654],[-5.9472,7.1412],[-6.0184,7.1294],[-6.1984,7.0138],[-6.2164,6.9834],[-6.2178,6.9118],[-6.1756,6.8151],[-6.1651,6.7276],[-6.0916,6.6284],[-6.0888,6.5697],[-6.0408,6.5198],[-6.0599,6.4348],[-6.0986,6.3737],[-6.1394,6.3912],[-6.2108,6.3356],[-6.2861,6.335],[-6.3999,6.3048],[-6.503,6.2757],[-6.5818,6.3156],[-6.6751,6.2496],[-6.8398,6.2498],[-6.9698,6.398],[-6.9904,6.4555],[-6.9549,6.4795],[-6.9554,6.511],[-6.9974,6.5579],[-7.0099,6.569],[-7.0065,6.5863],[-6.9752,6.634],[-6.9699,6.6967],[-6.9914,6.794],[-7.0602,6.8595],[-7.048,6.9075],[-7.0627,6.9295],[-7.0601,6.9928],[-7.0393,7.0639],[-7.0791,7.1708],[-7.0716,7.2155],[-7.0805,7.2465],[-7.0693,7.2744],[-7.0853,7.366],[-7.0426,7.4279],[-7.0059,7.4455],[-7.0034,7.4725],[-7.0239,7.4898],[-7.0239,7.5376],[-6.9826,7.5693],[-6.9829,7.5891],[-7.0126,7.5981],[-7.0218,7.6158],[-7.0549,7.609],[-7.0616,7.618],[-7.0791,7.6779],[-7.0716,7.7195]]]}},{"type":"Feature","id":"Lacs","properties":{"id":"Lacs","iso_code":"CI-07","name":"Lacs","name_full":"Lacs","name_ja":"ラック州","center_lonlat":[-5.0885,6.8982]},"geometry":{"type":"Polygon","coordinates":[[[-4.7015,6.282],[-4.7491,6.243],[-4.8674,6.2557],[-4.9465,6.2356],[-5.0068,6.2416],[-5.1787,6.377],[-5.2153,6.3668],[-5.2349,6.3728],[-5.27,6.3607],[-5.3035,6.3827],[-5.3108,6.4446],[-5.3244,6.461],[-5.3056,6.5073],[-5.3369,6.519],[-5.314,6.5517],[-5.3085,6.5892],[-5.3436,6.6081],[-5.3981,6.6071],[-5.4134,6.6401],[-5.4099,6.6915],[-5.4371,6.7667],[-5.4957,6.8248],[-5.5374,6.8965],[-5.5355,6.9149],[-5.5146,6.9313],[-5.4958,7.0006],[-5.4592,7.029],[-5.5035,7.063],[-5.4939,7.1353],[-5.5312,7.1525],[-5.5694,7.1409],[-5.5958,7.151],[-5.6058,7.1794],[-5.6683,7.2118],[-5.6762,7.2285],[-5.6622,7.257],[-5.6165,7.2537],[-5.4454,7.3004],[-5.3757,7.2301],[-5.2886,7.2363],[-5.2548,7.2723],[-5.2213,7.2804],[-5.1869,7.3309],[-5.0747,7.3849],[-5.0289,7.4423],[-4.9462,7.4792],[-4.8943,7.5417],[-4.812,7.5487],[-4.7667,7.5161],[-4.661,7.5162],[-4.6321,7.449],[-4.6966,7.4423],[-4.7305,7.4167],[-4.7084,7.2692],[-4.7706,7.0761],[-4.8174,7.0103],[-4.7994,6.9532],[-4.8036,6.8824],[-4.9111,6.828],[-4.954,6.8214],[-4.9716,6.7482],[-4.9412,6.7101],[-4.954,6.6653],[-4.9231,6.6362],[-4.9271,6.6078],[-4.9163,6.5951],[-4.9,6.5922],[-4.8909,6.6103],[-4.837,6.628],[-4.7402,6.6011],[-4.7685,6.5914],[-4.756,6.5541],[-4.7839,6.5485],[-4.7938,6.4888],[-4.7397,6.4789],[-4.7285,6.4477],[-4.7374,6.4337],[-4.7229,6.4253],[-4.7211,6.4051],[-4.7016,6.4007],[-4.7105,6.3917],[-4.698,6.3735],[-4.7047,6.344],[-4.7246,6.3086],[-4.6997,6.3018],[-4.7015,6.282]]]}},{"type":"Feature","id":"Lagunes","properties":{"id":"Lagunes","iso_code":"CI-01","name":"Lagunes","name_full":"Lagunes","name_ja":"ラギューヌ州","center_lonlat":[-3.7695,5.6129]},"geometry":{"type":"MultiPolygon","coordinates":[[[[-3.5388,5.1573],[-3.718,5.1887],[-3.7289,5.2255],[-3.7214,5.2385],[-3.7555,5.1901],[-3.8275,5.1976],[-3.8859,5.2255],[-3.987,5.244],[-4.0019,5.2665],[-3.9623,5.2624],[-3.933,5.2869],[-3.9029,5.259],[-3.8937,5.2675],[-3.8995,5.2869],[-3.7754,5.2448],[-3.7822,5.2665],[-3.7289,5.2665],[-3.7157,5.2823],[-3.7419,5.3105],[-3.7589,5.3662],[-3.8049,5.376],[-3.814,5.3598],[-3.735,5.2869],[-3.744,5.274],[-3.7965,5.2727],[-3.809,5.2878],[-3.8667,5.3036],[-3.8784,5.3266],[-3.892,5.3136],[-3.9063,5.3484],[-3.921,5.3162],[-4.0093,5.3136],[-3.984,5.3009],[-3.9547,5.3074],[-3.9405,5.2932],[-3.9891,5.2691],[-4.0609,5.2995],[-4.0785,5.2878],[-4.1255,5.3074],[-4.1601,5.2934],[-4.2006,5.3074],[-4.241,5.2839],[-4.2558,5.2869],[-4.2489,5.3074],[-4.2746,5.3124],[-4.2974,5.3],[-4.3214,5.311],[-4.3513,5.2727],[-4.3924,5.3],[-4.4238,5.2816],[-4.4339,5.2932],[-4.4265,5.3],[-4.4635,5.2982],[-4.4817,5.2727],[-4.4638,5.2761],[-4.4537,5.259],[-4.5438,5.2665],[-4.5636,5.3],[-4.5697,5.2825],[-4.5575,5.2665],[-4.6121,5.2385],[-4.652,5.2492],[-4.6872,5.2317],[-4.7145,5.2522],[-4.6673,5.2522],[-4.6872,5.2727],[-4.6704,5.2919],[-4.6735,5.3136],[-4.7025,5.2783],[-4.7493,5.2727],[-4.7222,5.2523],[-4.8038,5.2044],[-4.8086,5.1805],[-4.7477,5.1723],[-4.7375,5.1793],[-4.7424,5.1976],[-4.7047,5.2113],[-4.6872,5.1976],[-4.6083,5.2112],[-4.5596,5.197],[-4.5364,5.2044],[-4.5588,5.2042],[-4.571,5.218],[-4.5301,5.2317],[-4.5227,5.218],[-4.4128,5.2385],[-4.4081,5.2236],[-4.3856,5.2522],[-4.3058,5.2446],[-4.1838,5.2802],[-4.0605,5.2834],[-4.0292,5.2727],[-4.0702,5.2665],[-3.9958,5.2317],[-4.6205,5.1807],[-4.8926,5.1286],[-4.982,5.1361],[-4.969,5.1491],[-4.9971,5.1487],[-5.0038,5.1606],[-5.0099,5.1976],[-4.9971,5.2128],[-5.0643,5.2092],[-5.1123,5.1833],[-5.1579,5.2122],[-5.2216,5.2112],[-5.2341,5.2231],[-5.1484,5.2327],[-5.1065,5.2161],[-5.0881,5.2315],[-4.9742,5.5574],[-4.976,5.6048],[-4.9952,5.645],[-4.9377,5.7957],[-4.9872,5.8893],[-5.0078,6.1108],[-5.1761,6.1535],[-5.2444,6.2181],[-5.2149,6.2993],[-5.2153,6.3668],[-5.1787,6.377],[-5.0068,6.2416],[-4.9465,6.2356],[-4.8674,6.2557],[-4.7491,6.243],[-4.7015,6.282],[-4.463,6.224],[-4.6591,5.8581],[-4.4617,5.7311],[-4.4321,5.6528],[-4.3398,5.6026],[-3.9313,5.6216],[-3.9181,5.6454],[-3.9246,5.7579],[-3.9042,5.7875],[-3.8697,5.8008],[-3.8151,5.8552],[-3.7328,5.9057],[-3.4677,5.8376],[-3.4652,5.8069],[-3.4341,5.7803],[-3.4145,5.7523],[-3.4338,5.7191],[-3.4382,5.6299],[-3.42,5.6119],[-3.4069,5.5334],[-3.4389,5.444],[-3.4406,5.2986],[-3.4023,5.2372],[-3.5388,5.1573]]],[[[-5.3245,5.1908],[-5.2974,5.1976],[-5.3383,5.1635],[-5.3383,5.1833],[-5.3594,5.1286],[-5.3929,5.1771],[-5.4004,5.1635],[-5.4139,5.1703],[-5.399,5.142],[-5.3088,5.1181],[-5.2694,5.1286],[-5.3383,5.1491],[-5.3126,5.1526],[-5.2831,5.1771],[-5.1971,5.1601],[-5.1807,5.1771],[-5.199,5.1744],[-5.2284,5.2044],[-5.1814,5.2023],[-5.1208,5.167],[-5.0809,5.1848],[-5.0332,5.1833],[-5.0024,5.1286],[-5.2554,5.121],[-5.2943,5.106],[-5.4283,5.0989],[-5.4429,5.2334],[-5.4357,5.2599],[-5.4032,5.2494],[-5.3245,5.1908]]]]}},{"type":"Feature","id":"Marahoue","properties":{"id":"Marahoue","iso_code":"CI-12","name":"Marahoue","name_full":"Marahoué","name_ja":"マラウェ州","center_lonlat":[-5.8936,7.0758]},"geometry":{"type":"Polygon","coordinates":[[[-5.4134,6.6401],[-5.4817,6.6407],[-5.5121,6.6292],[-5.7104,6.495],[-5.7399,6.4886],[-6.0408,6.5198],[-6.0888,6.5697],[-6.0916,6.6284],[-6.1651,6.7276],[-6.1756,6.8151],[-6.2178,6.9118],[-6.2164,6.9834],[-6.1984,7.0138],[-6.0184,7.1294],[-5.9472,7.1412],[-5.9319,7.1654],[-6.1087,7.2457],[-6.1272,7.2769],[-6.1718,7.2881],[-6.2205,7.2851],[-6.2329,7.218],[-6.2532,7.2129],[-6.3493,7.218],[-6.3972,7.2525],[-6.4436,7.234],[-6.4458,7.2548],[-6.3144,7.5002],[-6.1057,7.6184],[-6.0698,7.6473],[-6.0683,7.6884],[-6.0079,7.7377],[-5.9063,7.7067],[-5.85,7.736],[-5.7957,7.7439],[-5.7805,7.6903],[-5.7828,7.6072],[-5.7428,7.5753],[-5.714,7.507],[-5.7421,7.4948],[-5.7222,7.4556],[-5.7277,7.3714],[-5.6989,7.3436],[-5.7133,7.3171],[-5.6722,7.2873],[-5.6622,7.257],[-5.6762,7.2285],[-5.6683,7.2118],[-5.6058,7.1794],[-5.5958,7.151],[-5.5694,7.1409],[-5.5312,7.1525],[-5.4939,7.1353],[-5.5035,7.063],[-5.4592,7.029],[-5.4958,7.0006],[-5.5146,6.9313],[-5.5355,6.9149],[-5.5374,6.8965],[-5.4957,6.8248],[-5.4371,6.7667],[-5.4099,6.6915],[-5.4134,6.6401]]]}},{"type":"Feature","id":"Moyen-Cavally","properties":{"id":"Moyen-Cavally","iso_code":"CI-19","name":"Moyen-Cavally","name_full":"Moyen-Cavally","name_ja":"中カヴァリ州","center_lonlat":[-7.5984,6.4107]},"geometry":{"type":"Polygon","coordinates":[[[-8.4416,6.6553],[-8.3277,6.5862],[-8.2818,6.6033],[-8.2502,6.626],[-8.2501,6.668],[-8.2136,6.6751],[-8.2184,6.7056],[-8.1984,6.7179],[-8.1721,6.7092],[-8.154,6.7624],[-8.0921,6.8048],[-8.1119,6.8438],[-8.0994,6.8954],[-7.9897,6.9684],[-7.9212,6.9235],[-7.868,6.907],[-7.8427,6.855],[-7.8027,6.8419],[-7.6221,6.847],[-7.6038,6.9293],[-7.5394,6.9391],[-7.4339,6.9395],[-7.3013,6.9643],[-7.2477,6.9551],[-7.1711,6.9632],[-7.1167,6.9379],[-7.0627,6.9295],[-7.048,6.9075],[-7.0602,6.8595],[-6.9914,6.794],[-6.9699,6.6967],[-6.9752,6.634],[-7.0065,6.5863],[-7.0099,6.569],[-6.9974,6.5579],[-7.0527,6.5396],[-7.1103,6.491],[-7.1155,6.4596],[-7.0816,5.9992],[-7.0941,5.6906],[-7.418,5.6278],[-7.4495,5.7324],[-7.4465,5.8459],[-7.4786,5.8599],[-7.4944,5.8062],[-7.5156,5.8392],[-7.5311,5.842],[-7.5278,5.8588],[-7.5663,5.8437],[-7.5872,5.8668],[-7.5842,5.8837],[-7.6483,5.9113],[-7.6805,5.9409],[-7.7172,5.9008],[-7.7471,5.9376],[-7.7866,5.9582],[-7.8007,5.9817],[-7.8,6.0102],[-7.7865,6.0251],[-7.8097,6.0712],[-7.8284,6.0807],[-7.8509,6.0676],[-7.8618,6.0815],[-7.8466,6.1975],[-7.9144,6.2717],[-8.033,6.3018],[-8.1706,6.274],[-8.2951,6.3134],[-8.3027,6.3406],[-8.3224,6.3365],[-8.3529,6.3611],[-8.4118,6.34],[-8.4237,6.352],[-8.406,6.3722],[-8.419,6.4076],[-8.4051,6.4363],[-8.4612,6.4829],[-8.4972,6.4314],[-8.5156,6.4376],[-8.5565,6.487],[-8.6187,6.4928],[-8.4416,6.6553]]]}},{"type":"Feature","id":"N'zi-Comoe","properties":{"id":"N'zi-Comoe","iso_code":"CI-11","name":"N'zi-Comoe","name_full":"N'zi-Comoé","name_ja":"ンジ＝コモエ州","center_lonlat":[-4.2321,7.0936]},"geometry":{"type":"Polygon","coordinates":[[[-3.7749,6.6271],[-4.0977,6.4769],[-4.1422,6.4149],[-4.1554,6.3731],[-4.1466,6.2342],[-4.2482,6.1854],[-4.3476,6.2151],[-4.4222,6.2795],[-4.463,6.224],[-4.7015,6.282],[-4.6997,6.3018],[-4.7246,6.3086],[-4.7047,6.344],[-4.698,6.3735],[-4.7105,6.3917],[-4.7016,6.4007],[-4.7211,6.4051],[-4.7229,6.4253],[-4.7374,6.4337],[-4.7285,6.4477],[-4.7397,6.4789],[-4.7938,6.4888],[-4.7839,6.5485],[-4.756,6.5541],[-4.7685,6.5914],[-4.7402,6.6011],[-4.837,6.628],[-4.8909,6.6103],[-4.9,6.5922],[-4.9163,6.5951],[-4.9271,6.6078],[-4.9231,6.6362],[-4.954,6.6653],[-4.9412,6.7101],[-4.9716,6.7482],[-4.954,6.8214],[-4.9111,6.828],[-4.8036,6.8824],[-4.7994,6.9532],[-4.8174,7.0103],[-4.7706,7.0761],[-4.7084,7.2692],[-4.7305,7.4167],[-4.6966,7.4423],[-4.6321,7.449],[-4.661,7.5162],[-4.5779,7.5994],[-4.5169,7.599],[-4.5364,7.7615],[-4.5272,7.7998],[-4.4088,7.8045],[-4.2711,7.8863],[-4.1786,7.9928],[-4.0101,8.0283],[-4.0099,7.9668],[-3.9342,7.9778],[-3.9266,7.9585],[-3.9766,7.913],[-3.9061,7.8833],[-3.893,7.8944],[-3.8696,7.8663],[-3.8646,7.8492],[-3.8765,7.8315],[-3.8596,7.7928],[-3.872,7.7741],[-3.834,7.7703],[-3.8167,7.74],[-3.7401,7.7328],[-3.7271,7.722],[-3.7348,7.699],[-3.7259,7.6661],[-3.6781,7.6441],[-3.6697,7.609],[-3.6468,7.5873],[-3.5787,7.5871],[-3.5703,7.5575],[-3.5939,7.5168],[-3.5414,7.4956],[-3.5089,7.4489],[-3.5056,7.3921],[-3.522,7.3837],[-3.5351,7.3379],[-3.5424,7.3011],[-3.522,7.3011],[-3.5359,7.2808],[-3.5823,7.2748],[-3.58,7.2181],[-3.5931,7.1866],[-3.6113,7.1776],[-3.6249,7.1978],[-3.6455,7.1776],[-3.6231,7.1127],[-3.5635,7.1062],[-3.5772,7.0883],[-3.57,7.0718],[-3.6188,7.082],[-3.6343,7.0511],[-3.6842,7.0396],[-3.7144,7.0063],[-3.7516,7.0001],[-3.7752,6.979],[-3.7713,6.9372],[-3.7617,6.9363],[-3.7553,6.9591],[-3.7297,6.912],[-3.7614,6.8832],[-3.7752,6.8493],[-3.7402,6.815],[-3.7963,6.7599],[-3.7704,6.7058],[-3.772,6.6842],[-3.8031,6.6711],[-3.7749,6.6271]]]}},{"type":"Feature","id":"Savanes","properties":{"id":"Savanes","iso_code":"CI-03","name":"Savanes","name_full":"Savanes","name_ja":"サヴァヌ州","center_lonlat":[-5.5465,9.5627]},"geometry":{"type":"Polygon","coordinates":[[[-4.3225,9.609],[-4.2444,9.529],[-4.2378,9.492],[-4.1964,9.4446],[-4.1799,9.3882],[-4.1936,9.3364],[-4.1771,9.2989],[-4.1874,9.2613],[-4.1737,9.2333],[-4.1619,9.2289],[-4.1525,9.247],[-4.0905,9.2675],[-4.0365,9.2265],[-3.9565,9.2015],[-3.9471,9.1719],[-3.8936,9.1655],[-3.9059,9.132],[-3.8919,9.1167],[-3.8993,9.1105],[-3.8508,9.1191],[-3.8441,9.1036],[-3.8513,9.0765],[-3.872,9.1036],[-3.8853,9.0584],[-3.8779,9.0418],[-3.8257,9.0272],[-3.8031,9.0074],[-3.8054,8.9938],[-3.8899,8.9637],[-3.8977,8.9463],[-3.8167,8.8572],[-3.8373,8.8361],[-3.7935,8.8116],[-3.7912,8.7764],[-3.8202,8.7809],[-3.8704,8.719],[-3.8736,8.7103],[-3.8578,8.7058],[-3.8661,8.697],[-3.9266,8.6872],[-3.9471,8.6375],[-3.9317,8.6139],[-3.977,8.602],[-4.0195,8.6273],[-4.1382,8.6257],[-4.1713,8.6472],[-4.217,8.6417],[-4.2757,8.7114],[-4.3362,8.7101],[-4.3569,8.7974],[-4.4045,8.8466],[-4.5317,8.905],[-4.5711,8.8973],[-4.936,8.909],[-4.936,8.9458],[-4.8964,8.9908],[-4.8847,9.1117],[-4.9733,9.1607],[-5.0095,9.2223],[-5.0191,9.2933],[-5.1481,9.3205],[-5.1943,9.295],[-5.2136,9.3078],[-5.2525,9.3854],[-5.3381,9.3848],[-5.3866,9.318],[-5.4053,9.2299],[-5.4243,9.2116],[-5.4548,9.2135],[-5.4352,9.1664],[-5.4579,9.1001],[-5.4733,9.0863],[-5.4957,9.09],[-5.4972,9.0633],[-5.4372,9.0246],[-5.4207,8.9944],[-5.461,9.0006],[-5.4405,8.9801],[-5.4652,8.9651],[-5.4596,8.9264],[-5.492,8.9135],[-5.4593,8.8782],[-5.4991,8.859],[-5.5679,8.8632],[-5.6231,8.8303],[-5.6916,8.8411],[-5.711,8.7992],[-5.7202,8.7491],[-5.6994,8.766],[-5.6693,8.7341],[-5.694,8.7193],[-5.6875,8.6947],[-5.7017,8.6317],[-5.6848,8.6158],[-5.6623,8.6247],[-5.6387,8.6141],[-5.6369,8.5645],[-5.6046,8.5511],[-5.6104,8.5292],[-5.7423,8.5609],[-5.9563,8.6406],[-6.1087,8.877],[-6.1352,8.9452],[-6.2271,9.0035],[-6.255,9.0685],[-6.215,9.1515],[-6.2644,9.2025],[-6.3365,9.2056],[-6.365,9.151],[-6.3965,9.1404],[-6.4602,9.0755],[-6.4817,9.0895],[-6.5097,9.143],[-6.534,9.157],[-6.5682,9.1463],[-6.5632,9.1001],[-6.606,9.0673],[-6.6968,9.0752],[-6.7197,9.0971],[-6.7107,9.1131],[-6.7466,9.1178],[-6.7349,9.2604],[-6.7682,9.3148],[-6.784,9.3876],[-6.7738,9.4091],[-6.781,9.4385],[-6.7408,9.5123],[-6.7977,9.5653],[-6.7797,9.6313],[-6.7438,9.692],[-6.7504,9.7213],[-6.7403,9.7491],[-6.7605,9.7686],[-6.7332,9.8505],[-6.7859,9.9478],[-6.9298,9.9478],[-6.9475,9.9602],[-6.8997,10.0195],[-6.8732,10.1221],[-6.7775,10.141],[-6.7554,10.1118],[-6.7228,10.1024],[-6.6719,10.1169],[-6.5835,10.1672],[-6.5818,10.2298],[-6.6278,10.2521],[-6.6322,10.3081],[-6.6683,10.3658],[-6.6478,10.4327],[-6.6831,10.4517],[-6.6975,10.4883],[-6.6828,10.566],[-6.689,10.6079],[-6.6692,10.6542],[-6.634,10.653],[-6.5986,10.6049],[-6.5376,10.5697],[-6.446,10.5523],[-6.4028,10.5691],[-6.3992,10.5925],[-6.4359,10.6287],[-6.427,10.6861],[-6.3417,10.6914],[-6.256,10.7265],[-6.2458,10.7207],[-6.2466,10.6576],[-6.2044,10.6296],[-6.2387,10.598],[-6.2314,10.5602],[-6.2562,10.5372],[-6.2613,10.5141],[-6.1903,10.4911],[-6.2004,10.4488],[-6.1806,10.4202],[-6.1988,10.3708],[-6.1839,10.3589],[-6.2083,10.332],[-6.2062,10.3108],[-6.2283,10.3161],[-6.2407,10.3026],[-6.24,10.2519],[-6.2248,10.255],[-6.1809,10.2158],[-6.1053,10.1893],[-6.0159,10.1899],[-5.9852,10.2273],[-5.963,10.2827],[-5.9164,10.2666],[-5.9047,10.2753],[-5.9048,10.3483],[-5.8781,10.3761],[-5.8063,10.4135],[-5.5844,10.4542],[-5.5051,10.4156],[-5.4742,10.3503],[-5.4378,10.34],[-5.4025,10.3006],[-5.3271,10.3026],[-5.2966,10.323],[-5.2176,10.3199],[-5.1684,10.2913],[-5.1521,10.3056],[-5.1192,10.2935],[-5.1171,10.208],[-5.0978,10.2093],[-5.0844,10.2274],[-5.0907,10.1779],[-5.064,10.179],[-5.0707,10.161],[-5.0395,10.1343],[-5.0701,10.1102],[-5.0429,10.1033],[-5.0565,10.0971],[-5.0483,10.0854],[-5.0156,10.0971],[-5.0105,10.0791],[-4.9633,10.0403],[-4.9602,10.0085],[-4.9814,10.0077],[-4.9529,9.9534],[-4.9661,9.901],[-4.928,9.8709],[-4.898,9.8889],[-4.8385,9.8695],[-4.8176,9.8365],[-4.7985,9.8425],[-4.7759,9.788],[-4.8101,9.7818],[-4.7964,9.7545],[-4.7832,9.7584],[-4.77,9.7374],[-4.7548,9.7402],[-4.7586,9.7533],[-4.7383,9.7532],[-4.6811,9.6821],[-4.604,9.7272],[-4.5783,9.6965],[-4.5522,9.6965],[-4.5391,9.7447],[-4.51,9.7451],[-4.5016,9.7371],[-4.5159,9.6757],[-4.5017,9.655],[-4.4091,9.6477],[-4.3916,9.6003],[-4.3712,9.583],[-4.365,9.6242],[-4.3225,9.609]]]}},{"type":"Feature","id":"Sud-Bandama","properties":{"id":"Sud-Bandama","iso_code":"CI-15","name":"Sud-Bandama","name_full":"Sud-Bandama","name_ja":"南バンダマ州","center_lonlat":[-5.4531,5.6662]},"geometry":{"type":"Polygon","coordinates":[[[-5.4283,5.0989],[-5.4957,5.0953],[-5.5505,5.115],[-5.5784,5.0945],[-5.5505,5.0877],[-5.6302,5.0632],[-5.8587,5.0277],[-5.873,5.1297],[-5.8647,5.1657],[-5.8332,5.1917],[-5.7527,5.212],[-5.744,5.2759],[-5.8288,5.5595],[-5.9696,5.5148],[-6.0154,5.5606],[-6.0217,5.6348],[-6.0516,5.6782],[-5.8671,5.895],[-5.7848,5.9569],[-5.7814,6.0003],[-5.7538,6.0514],[-5.7629,6.1183],[-5.7288,6.1962],[-5.5052,6.1668],[-5.3126,6.2339],[-5.2444,6.2181],[-5.1761,6.1535],[-5.0078,6.1108],[-4.9872,5.8893],[-4.9377,5.7957],[-4.9952,5.645],[-4.976,5.6048],[-4.9742,5.5574],[-5.0881,5.2315],[-5.1065,5.2161],[-5.1484,5.2327],[-5.2341,5.2231],[-5.253,5.2141],[-5.3215,5.2302],[-5.324,5.2044],[-5.3383,5.2112],[-5.3245,5.1908],[-5.4032,5.2494],[-5.4357,5.2599],[-5.4429,5.2334],[-5.4283,5.0989]]]}},{"type":"Feature","id":"Sud-Comoe","properties":{"id":"Sud-Comoe","iso_code":"CI-13","name":"Sud-Comoe","name_full":"Sud-Comoé","name_ja":"南コモエ州","center_lonlat":[-3.1329,5.5472]},"geometry":{"type":"MultiPolygon","coordinates":[[[[-3.1717,6.2496],[-3.1394,6.2193],[-3.1181,6.1635],[-3.0878,5.9967],[-3.0225,5.8545],[-3.0298,5.7043],[-2.9648,5.7098],[-2.9749,5.6473],[-2.9695,5.6214],[-2.9459,5.6083],[-2.8775,5.6368],[-2.8063,5.6185],[-2.7856,5.595],[-2.7617,5.4549],[-2.7301,5.3732],[-2.7426,5.3431],[-2.7896,5.3469],[-2.7961,5.285],[-2.7749,5.2396],[-2.7788,5.201],[-2.757,5.1799],[-2.7809,5.1509],[-2.8039,5.1476],[-2.8437,5.1491],[-2.8462,5.177],[-2.9467,5.1771],[-2.9435,5.1368],[-2.9778,5.115],[-3.0628,5.1566],[-3.1391,5.1423],[-3.1625,5.1841],[-3.2051,5.2187],[-3.1727,5.2522],[-3.1591,5.3074],[-3.1279,5.3249],[-3.1278,5.3596],[-3.1627,5.3688],[-3.1898,5.3546],[-3.2205,5.362],[-3.2621,5.3409],[-3.2469,5.2976],[-3.2543,5.2836],[-3.2826,5.2802],[-3.2894,5.2522],[-3.241,5.2317],[-3.2758,5.2255],[-3.303,5.1901],[-3.3207,5.1935],[-3.303,5.1771],[-3.3031,5.1557],[-3.2758,5.1491],[-3.3122,5.1199],[-3.5388,5.1573],[-3.4023,5.2372],[-3.4406,5.2986],[-3.4389,5.444],[-3.4069,5.5334],[-3.42,5.6119],[-3.4382,5.6299],[-3.4338,5.7191],[-3.4145,5.7523],[-3.4341,5.7803],[-3.385,5.7957],[-3.309,5.9188],[-3.2489,6.0636],[-3.2206,6.0987],[-3.2208,6.1525],[-3.1717,6.2496]]],[[[-3.1153,5.1078],[-3.1196,5.0913],[-3.2764,5.1181],[-3.2341,5.1635],[-3.1153,5.1078]]]]}},{"type":"Feature","id":"Vallee du Bandama","properties":{"id":"Vallee du Bandama","iso_code":"CI-04","name":"Vallee du Bandama","name_full":"Vallée du Bandama","name_ja":"バンダマ渓谷州","center_lonlat":[-4.9659,8.2476]},"geometry":{"type":"Polygon","coordinates":[[[-4.0101,8.0283],[-4.1786,7.9928],[-4.2711,7.8863],[-4.4088,7.8045],[-4.5272,7.7998],[-4.5364,7.7615],[-4.5169,7.599],[-4.5779,7.5994],[-4.661,7.5162],[-4.7667,7.5161],[-4.812,7.5487],[-4.8943,7.5417],[-4.9462,7.4792],[-5.0289,7.4423],[-5.0747,7.3849],[-5.1869,7.3309],[-5.2213,7.2804],[-5.2548,7.2723],[-5.2886,7.2363],[-5.3757,7.2301],[-5.4454,7.3004],[-5.6165,7.2537],[-5.6622,7.257],[-5.6722,7.2873],[-5.7133,7.3171],[-5.6989,7.3436],[-5.7277,7.3714],[-5.7222,7.4556],[-5.7421,7.4948],[-5.714,7.507],[-5.7428,7.5753],[-5.7828,7.6072],[-5.7805,7.6903],[-5.7957,7.7439],[-5.7609,7.7838],[-5.7683,7.8363],[-5.7403,7.8978],[-5.7491,7.953],[-5.7399,8.0005],[-5.6039,8.0211],[-5.5457,8.0591],[-5.5319,8.0973],[-5.4746,8.0956],[-5.4519,8.1137],[-5.4214,8.1025],[-5.3933,8.1219],[-5.4024,8.1592],[-5.3592,8.1645],[-5.3455,8.1859],[-5.366,8.2601],[-5.3455,8.2601],[-5.3541,8.2775],[-5.3927,8.2949],[-5.4112,8.3273],[-5.448,8.3501],[-5.5026,8.3638],[-5.5125,8.3836],[-5.5549,8.3857],[-5.6191,8.4478],[-5.5953,8.4594],[-5.5431,8.4501],[-5.523,8.4662],[-5.6051,8.5128],[-5.6104,8.5292],[-5.6046,8.5511],[-5.6369,8.5645],[-5.6387,8.6141],[-5.6623,8.6247],[-5.6848,8.6158],[-5.7017,8.6317],[-5.6875,8.6947],[-5.694,8.7193],[-5.6693,8.7341],[-5.6994,8.766],[-5.7202,8.7491],[-5.711,8.7992],[-5.6916,8.8411],[-5.6231,8.8303],[-5.5679,8.8632],[-5.4991,8.859],[-5.4593,8.8782],[-5.492,8.9135],[-5.4596,8.9264],[-5.4652,8.9651],[-5.4405,8.9801],[-5.461,9.0006],[-5.4207,8.9944],[-5.4372,9.0246],[-5.4972,9.0633],[-5.4957,9.09],[-5.4733,9.0863],[-5.4579,9.1001],[-5.4352,9.1664],[-5.4548,9.2135],[-5.4243,9.2116],[-5.4053,9.2299],[-5.3866,9.318],[-5.3381,9.3848],[-5.2525,9.3854],[-5.2136,9.3078],[-5.1943,9.295],[-5.1481,9.3205],[-5.0191,9.2933],[-5.0095,9.2223],[-4.9733,9.1607],[-4.8847,9.1117],[-4.8964,8.9908],[-4.936,8.9458],[-4.936,8.909],[-4.5711,8.8973],[-4.5317,8.905],[-4.4045,8.8466],[-4.3569,8.7974],[-4.3362,8.7101],[-4.2757,8.7114],[-4.217,8.6417],[-4.1713,8.6472],[-4.1382,8.6257],[-4.0195,8.6273],[-3.977,8.602],[-3.9317,8.6139],[-3.9229,8.5726],[-3.9813,8.5276],[-3.9787,8.5098],[-3.9421,8.4894],[-3.9329,8.4696],[-3.9437,8.4382],[-3.9813,8.432],[-3.9878,8.4189],[-3.9608,8.3911],[-3.9746,8.3579],[-3.9598,8.3188],[-3.9823,8.3058],[-4.0427,8.3048],[-4.0365,8.271],[-4.0017,8.2402],[-4.0199,8.1838],[-3.9918,8.1747],[-3.9403,8.1161],[-3.9546,8.0956],[-3.9771,8.1028],[-3.9943,8.0897],[-4.0101,8.0283]]]}},{"type":"Feature","id":"Worodougou","properties":{"id":"Worodougou","iso_code":"CI-14","name":"Worodougou","name_full":"Worodougou","name_ja":"ウォロドゥーグー州","center_lonlat":[-6.4152,8.3709]},"geometry":{"type":"Polygon","coordinates":[[[-6.1057,7.6184],[-6.1404,7.6543],[-6.2139,7.6844],[-6.2488,7.7767],[-6.4589,7.741],[-6.6304,7.7856],[-6.9972,7.7641],[-7.0477,7.7445],[-7.0716,7.7195],[-7.1058,7.8737],[-7.099,7.9038],[-7.0717,7.938],[-7.0838,7.9893],[-7.1058,8.0516],[-7.0928,8.1161],[-7.1121,8.1592],[-7.1058,8.1782],[-7.1368,8.2428],[-7.1273,8.3094],[-7.1127,8.3228],[-7.1574,8.3705],[-7.1672,8.473],[-7.1865,8.5236],[-7.199,8.582],[-7.2225,8.6102],[-7.2091,8.6196],[-7.23,8.6238],[-7.189,8.7883],[-7.2073,8.853],[-7.23,8.8702],[-7.2095,8.9292],[-7.2327,8.943],[-7.1921,8.9527],[-7.1233,9.0078],[-7.0659,8.9928],[-7.0299,8.9593],[-6.9733,8.9653],[-6.9074,8.9427],[-6.9109,9.0149],[-6.8973,9.0523],[-6.7466,9.1178],[-6.7107,9.1131],[-6.7197,9.0971],[-6.6968,9.0752],[-6.606,9.0673],[-6.5632,9.1001],[-6.5682,9.1463],[-6.534,9.157],[-6.5097,9.143],[-6.4817,9.0895],[-6.4602,9.0755],[-6.3965,9.1404],[-6.365,9.151],[-6.3365,9.2056],[-6.2644,9.2025],[-6.215,9.1515],[-6.255,9.0685],[-6.2271,9.0035],[-6.1352,8.9452],[-6.1087,8.877],[-5.9563,8.6406],[-5.7423,8.5609],[-5.6104,8.5292],[-5.6051,8.5128],[-5.523,8.4662],[-5.5431,8.4501],[-5.5953,8.4594],[-5.6191,8.4478],[-5.5549,8.3857],[-5.5125,8.3836],[-5.5026,8.3638],[-5.448,8.3501],[-5.4112,8.3273],[-5.3927,8.2949],[-5.3541,8.2775],[-5.3455,8.2601],[-5.366,8.2601],[-5.3455,8.1859],[-5.3592,8.1645],[-5.4024,8.1592],[-5.3933,8.1219],[-5.4214,8.1025],[-5.4519,8.1137],[-5.4746,8.0956],[-5.5319,8.0973],[-5.5457,8.0591],[-5.6039,8.0211],[-5.7399,8.0005],[-5.7491,7.953],[-5.7403,7.8978],[-5.7683,7.8363],[-5.7609,7.7838],[-5.7957,7.7439],[-5.85,7.736],[-5.9063,7.7067],[-6.0079,7.7377],[-6.0683,7.6884],[-6.0698,7.6473],[-6.1057,7.6184]]]}},{"type":"Feature","id":"Zanzan","properties":{"id":"Zanzan","iso_code":"CI-08","name":"Zanzan","name_full":"Zanzan","name_ja":"ザンザン州","center_lonlat":[-3.3505,8.6697]},"geometry":{"type":"Polygon","coordinates":[[[-3.0966,7.0545],[-3.1395,7.1525],[-3.2231,7.2175],[-3.3289,7.2501],[-3.3646,7.2245],[-3.4033,7.2635],[-3.4307,7.329],[-3.4984,7.3488],[-3.5351,7.3379],[-3.522,7.3837],[-3.5056,7.3921],[-3.5089,7.4489],[-3.5414,7.4956],[-3.5939,7.5168],[-3.5703,7.5575],[-3.5787,7.5871],[-3.6468,7.5873],[-3.6697,7.609],[-3.6781,7.6441],[-3.7259,7.6661],[-3.7348,7.699],[-3.7271,7.722],[-3.7401,7.7328],[-3.8167,7.74],[-3.834,7.7703],[-3.872,7.7741],[-3.8596,7.7928],[-3.8765,7.8315],[-3.8646,7.8492],[-3.8696,7.8663],[-3.893,7.8944],[-3.9061,7.8833],[-3.9766,7.913],[-3.9266,7.9585],[-3.9342,7.9778],[-4.0099,7.9668],[-4.0101,8.0283],[-3.9943,8.0897],[-3.9771,8.1028],[-3.9546,8.0956],[-3.9403,8.1161],[-3.9918,8.1747],[-4.0199,8.1838],[-4.0017,8.2402],[-4.0365,8.271],[-4.0427,8.3048],[-3.9823,8.3058],[-3.9598,8.3188],[-3.9746,8.3579],[-3.9608,8.3911],[-3.9878,8.4189],[-3.9813,8.432],[-3.9437,8.4382],[-3.9329,8.4696],[-3.9421,8.4894],[-3.9787,8.5098],[-3.9813,8.5276],[-3.9229,8.5726],[-3.9317,8.6139],[-3.9471,8.6375],[-3.9266,8.6872],[-3.8661,8.697],[-3.8578,8.7058],[-3.8736,8.7103],[-3.8704,8.719],[-3.8202,8.7809],[-3.7912,8.7764],[-3.7935,8.8116],[-3.8373,8.8361],[-3.8167,8.8572],[-3.8977,8.9463],[-3.8899,8.9637],[-3.8054,8.9938],[-3.8031,9.0074],[-3.8257,9.0272],[-3.8779,9.0418],[-3.8853,9.0584],[-3.872,9.1036],[-3.8513,9.0765],[-3.8441,9.1036],[-3.8508,9.1191],[-3.8993,9.1105],[-3.8919,9.1167],[-3.9059,9.132],[-3.8936,9.1655],[-3.9471,9.1719],[-3.9565,9.2015],[-4.0365,9.2265],[-4.0905,9.2675],[-4.1525,9.247],[-4.1619,9.2289],[-4.1737,9.2333],[-4.1874,9.2613],[-4.1771,9.2989],[-4.1936,9.3364],[-4.1799,9.3882],[-4.1964,9.4446],[-4.2378,9.492],[-4.2444,9.529],[-4.3225,9.609],[-4.303,9.6417],[-4.3033,9.6867],[-4.2675,9.7273],[-4.2836,9.732],[-4.197,9.765],[-4.1503,9.8183],[-4.0537,9.7976],[-4.035,9.8176],[-3.9946,9.8208],[-3.984,9.8512],[-3.9101,9.8885],[-3.8043,9.9014],[-3.755,9.9359],[-3.7065,9.9418],[-3.6796,9.9322],[-3.6617,9.9489],[-3.6063,9.9182],[-3.5465,9.9261],[-3.3892,9.9132],[-3.3483,9.887],[-3.3172,9.9013],[-3.3017,9.8411],[-3.2779,9.8435],[-3.2148,9.9156],[-3.2026,9.9082],[-3.2,9.8454],[-3.1369,9.8295],[-3.1169,9.8053],[-3.0946,9.7339],[-3.0771,9.7194],[-3.0057,9.7242],[-2.99,9.7084],[-2.9102,9.5427],[-2.8104,9.4111],[-2.7637,9.3919],[-2.6892,9.4887],[-2.6757,9.4717],[-2.6724,9.374],[-2.7133,9.3299],[-2.715,9.3111],[-2.693,9.2853],[-2.6598,9.2729],[-2.6612,9.2539],[-2.7048,9.2184],[-2.7552,9.1431],[-2.7748,9.055],[-2.7508,9.0374],[-2.6608,9.0149],[-2.6377,8.9315],[-2.6194,8.9236],[-2.5956,8.8281],[-2.6172,8.7892],[-2.5984,8.7695],[-2.5063,8.2093],[-2.5581,8.1677],[-2.6107,8.1649],[-2.6219,8.1357],[-2.5998,8.0704],[-2.6106,8.04],[-2.6909,8.0097],[-2.7712,7.9307],[-2.7906,7.9433],[-2.8012,7.8502],[-2.84,7.8202],[-2.8382,7.7968],[-2.9415,7.5772],[-2.9905,7.2707],[-2.9728,7.215],[-3.0326,7.1284],[-3.0459,7.0712],[-3.0966,7.0545]]]}}]}
