{"type":"FeatureCollection","features":[{"type":"Feature","id":"Clarendon","properties":{"id":"Clarendon","iso_code":"JM-13","name":"Clarendon","name_full":"Clarendon","name_ja":"クラレンドン教区","center_lonlat":[-77.2825,17.9856]},"geometry":{"type":"Polygon","coordinates":[[[-77.1346,17.8851],[-77.162,17.8408],[-77.1544,17.8131],[-77.1817,17.8],[-77.1749,17.7783],[-77.1964,17.7834],[-77.2165,17.7721],[-77.1803,17.7579],[-77.1407,17.7653],[-77.1337,17.7104],[-77.1581,17.7032],[-77.2161,17.7167],[-77.3209,17.8124],[-77.3946,17.8534],[-77.3684,17.861],[-77.3599,17.9009],[-77.3817,17.9301],[-77.3799,17.9688],[-77.4912,18.1961],[-77.4379,18.1847],[-77.3748,18.204],[-77.3014,18.1873],[-77.2109,18.1861],[-77.1825,18.1176],[-77.1871,18.0639],[-77.167,18.0279],[-77.1634,17.9745],[-77.1398,17.9404],[-77.1346,17.8851]]]}},{"type":"Feature","id":"Hanover","properties":{"id":"Hanover","iso_code":"JM-09","name":"Hanover","name_full":"Hanover","name_ja":"ハノーバー教区","center_lonlat":[-78.1402,18.3737]},"geometry":{"type":"Polygon","coordinates":[[[-78.346,18.298],[-78.3354,18.3634],[-78.2884,18.3944],[-78.2716,18.3891],[-78.2613,18.4174],[-78.2306,18.4442],[-78.195,18.4555],[-78.1693,18.4368],[-78.1544,18.4535],[-78.0002,18.4467],[-78.0075,18.4117],[-77.9214,18.2961],[-78.0271,18.3046],[-78.1002,18.3386],[-78.2243,18.3381],[-78.2725,18.2908],[-78.346,18.298]]]}},{"type":"Feature","id":"Kingston","properties":{"id":"Kingston","iso_code":"JM-01","name":"Kingston","name_full":"Kingston","name_ja":"キングストン教区","center_lonlat":[-76.7638,17.9767]},"geometry":{"type":"Polygon","coordinates":[[[-76.727,17.9538],[-76.8125,17.9715],[-76.7997,17.9894],[-76.7554,17.9966],[-76.7307,17.9883],[-76.727,17.9538]]]}},{"type":"Feature","id":"Manchester","properties":{"id":"Manchester","iso_code":"JM-12","name":"Manchester","name_full":"Manchester","name_ja":"マンチェスター教区","center_lonlat":[-77.5124,18.0287]},"geometry":{"type":"Polygon","coordinates":[[[-77.3946,17.8534],[-77.441,17.8647],[-77.5018,17.8419],[-77.5646,17.8571],[-77.6353,18.1312],[-77.6403,18.2209],[-77.5973,18.2372],[-77.5501,18.2317],[-77.4912,18.1961],[-77.3799,17.9688],[-77.3817,17.9301],[-77.3599,17.9009],[-77.3684,17.861],[-77.3946,17.8534]]]}},{"type":"Feature","id":"Portland","properties":{"id":"Portland","iso_code":"JM-04","name":"Portland","name_full":"Portland","name_ja":"ポートランド教区","center_lonlat":[-76.521,18.1183]},"geometry":{"type":"Polygon","coordinates":[[[-76.7015,18.2668],[-76.6473,18.2308],[-76.5972,18.2277],[-76.5548,18.2041],[-76.4797,18.2041],[-76.463,18.1824],[-76.3511,18.156],[-76.3463,18.1352],[-76.2958,18.0792],[-76.2568,17.9963],[-76.3322,17.9915],[-76.3679,18.0152],[-76.4571,18.0418],[-76.529,18.0222],[-76.5909,18.0437],[-76.6278,18.0736],[-76.6859,18.0933],[-76.6984,18.0798],[-76.7279,18.0825],[-76.7514,18.1386],[-76.7015,18.2668]]]}},{"type":"Feature","id":"Saint Andrew","properties":{"id":"Saint Andrew","iso_code":"JM-02","name":"Saint Andrew","name_full":"Saint Andrew","name_ja":"セント・アンドリュー教区","center_lonlat":[-76.7585,18.0468]},"geometry":{"type":"Polygon","coordinates":[[[-76.8125,17.9715],[-76.85,17.9923],[-76.86,18.0129],[-76.8755,18.0105],[-76.8896,18.0275],[-76.8657,18.0901],[-76.8728,18.1483],[-76.8237,18.1669],[-76.7514,18.1386],[-76.7279,18.0825],[-76.6984,18.0798],[-76.6859,18.0933],[-76.6278,18.0736],[-76.6404,18.0361],[-76.6162,17.9789],[-76.6384,17.9747],[-76.6572,17.9297],[-76.7077,17.9459],[-76.8323,17.9366],[-76.727,17.9538],[-76.7307,17.9883],[-76.7554,17.9966],[-76.7997,17.9894],[-76.8125,17.9715]]]}},{"type":"Feature","id":"Saint Ann","properties":{"id":"Saint Ann","iso_code":"JM-06","name":"Saint Ann","name_full":"Saint Ann","name_ja":"セント・アン教区","center_lonlat":[-77.2649,18.3144]},"geometry":{"type":"Polygon","coordinates":[[[-77.4653,18.4761],[-77.4083,18.4573],[-77.2726,18.4594],[-77.2363,18.4505],[-77.2233,18.4294],[-77.1649,18.4294],[-77.1374,18.4089],[-77.0704,18.4134],[-77.0482,18.3187],[-76.9964,18.242],[-77.0768,18.2023],[-77.2109,18.1861],[-77.3014,18.1873],[-77.3748,18.204],[-77.4379,18.1847],[-77.4912,18.1961],[-77.4515,18.3761],[-77.4653,18.4761]]]}},{"type":"Feature","id":"Saint Catherine","properties":{"id":"Saint Catherine","iso_code":"JM-14","name":"Saint Catherine","name_full":"Saint Catherine","name_ja":"セント・キャサリン教区","center_lonlat":[-77.0212,18.0466]},"geometry":{"type":"Polygon","coordinates":[[[-76.85,17.9923],[-76.874,17.9503],[-76.8872,17.9519],[-76.9128,17.8613],[-76.9421,17.8336],[-77.0383,17.8466],[-77.0172,17.8608],[-77.0642,17.8995],[-77.093,17.9025],[-77.1346,17.8851],[-77.1398,17.9404],[-77.1634,17.9745],[-77.167,18.0279],[-77.1871,18.0639],[-77.1825,18.1176],[-77.2109,18.1861],[-77.0768,18.2023],[-76.9964,18.242],[-76.9526,18.2428],[-76.907,18.1672],[-76.8728,18.1483],[-76.8657,18.0901],[-76.8896,18.0275],[-76.8755,18.0105],[-76.86,18.0129],[-76.85,17.9923]]]}},{"type":"Feature","id":"Saint Elizabeth","properties":{"id":"Saint Elizabeth","iso_code":"JM-11","name":"Saint Elizabeth","name_full":"Saint Elizabeth","name_ja":"セント・エリザベス教区","center_lonlat":[-77.7508,18.0501]},"geometry":{"type":"Polygon","coordinates":[[[-77.5646,17.8571],[-77.7307,17.8548],[-77.7956,17.8915],[-77.8162,17.9392],[-77.8397,17.9496],[-77.8456,18.017],[-77.9403,18.0265],[-77.9646,18.0506],[-77.9362,18.1521],[-77.8959,18.1956],[-77.7814,18.2344],[-77.6403,18.2209],[-77.6353,18.1312],[-77.5646,17.8571]]]}},{"type":"Feature","id":"Saint James","properties":{"id":"Saint James","iso_code":"JM-08","name":"Saint James","name_full":"Saint James","name_ja":"セント・ジェームズ教区","center_lonlat":[-77.857,18.3832]},"geometry":{"type":"Polygon","coordinates":[[[-78.0002,18.4467],[-77.9598,18.4499],[-77.9303,18.502],[-77.9023,18.5188],[-77.8161,18.5234],[-77.7355,18.5067],[-77.7814,18.2344],[-77.8959,18.1956],[-77.8859,18.2315],[-77.9214,18.2961],[-78.0075,18.4117],[-78.0002,18.4467]]]}},{"type":"Feature","id":"Saint Mary","properties":{"id":"Saint Mary","iso_code":"JM-05","name":"Saint Mary","name_full":"Saint Mary","name_ja":"セント・メアリー教区","center_lonlat":[-76.8901,18.2797]},"geometry":{"type":"Polygon","coordinates":[[[-77.0704,18.4134],[-77.0073,18.4021],[-76.8949,18.4093],[-76.8909,18.3764],[-76.8128,18.328],[-76.7924,18.2834],[-76.7015,18.2668],[-76.7514,18.1386],[-76.8237,18.1669],[-76.8728,18.1483],[-76.907,18.1672],[-76.9526,18.2428],[-76.9964,18.242],[-77.0482,18.3187],[-77.0704,18.4134]]]}},{"type":"Feature","id":"Saint Thomas","properties":{"id":"Saint Thomas","iso_code":"JM-03","name":"Saint Thomas","name_full":"Saint Thomas","name_ja":"セント・トーマス教区","center_lonlat":[-76.4496,17.9481]},"geometry":{"type":"Polygon","coordinates":[[[-76.2568,17.9963],[-76.234,17.9539],[-76.188,17.9155],[-76.3074,17.8701],[-76.3252,17.8745],[-76.3115,17.895],[-76.363,17.8608],[-76.4149,17.8775],[-76.5235,17.8603],[-76.6028,17.8676],[-76.6227,17.905],[-76.6572,17.9297],[-76.6384,17.9747],[-76.6162,17.9789],[-76.6404,18.0361],[-76.6278,18.0736],[-76.5909,18.0437],[-76.529,18.0222],[-76.4571,18.0418],[-76.3679,18.0152],[-76.3322,17.9915],[-76.2568,17.9963]]]}},{"type":"Feature","id":"Trelawny","properties":{"id":"Trelawny","iso_code":"JM-07","name":"Trelawny","name_full":"Trelawny","name_ja":"トレローニー教区","center_lonlat":[-77.6134,18.3568]},"geometry":{"type":"Polygon","coordinates":[[[-77.7355,18.5067],[-77.4653,18.4761],[-77.4515,18.3761],[-77.4912,18.1961],[-77.5501,18.2317],[-77.5973,18.2372],[-77.6403,18.2209],[-77.7814,18.2344],[-77.7355,18.5067]]]}},{"type":"Feature","id":"Westmoreland","properties":{"id":"Westmoreland","iso_code":"JM-10","name":"Westmoreland","name_full":"Westmoreland","name_ja":"ウェストモアランド教区","center_lonlat":[-78.0992,18.2396]},"geometry":{"type":"Polygon","coordinates":[[[-77.9646,18.0506],[-77.9879,18.0954],[-78.0206,18.1131],[-78.0503,18.1851],[-78.0752,18.1984],[-78.1938,18.2039],[-78.2273,18.1918],[-78.3407,18.2219],[-78.3747,18.2656],[-78.346,18.298],[-78.2725,18.2908],[-78.2243,18.3381],[-78.1002,18.3386],[-78.0271,18.3046],[-77.9214,18.2961],[-77.8859,18.2315],[-77.8959,18.1956],[-77.9362,18.1521],[-77.9646,18.0506]]]}}]}
