{"type":"FeatureCollection","features":[{"type":"Feature","id":"Ajloun","properties":{"id":"Ajloun","iso_code":"JO-AJ","name":"Ajloun","name_full":"Ajloun","name_ja":"アジュルン県","center_lonlat":[35.7401,32.2867]},"geometry":{"type":"Polygon","coordinates":[[[35.6948,32.1562],[35.6518,32.1666],[35.6355,32.1838],[35.6408,32.1997],[35.6167,32.2668],[35.6489,32.3554],[35.8219,32.3837],[35.8481,32.402],[35.9053,32.3389],[35.8419,32.3029],[35.8047,32.2227],[35.7365,32.1965],[35.6948,32.1562]]]}},{"type":"Feature","id":"Amman","properties":{"id":"Amman","iso_code":"JO-AM","name":"Amman","name_full":"Amman","name_ja":"アンマン県","center_lonlat":[36.3428,31.5782]},"geometry":{"type":"Polygon","coordinates":[[[36.9979,31.5008],[36.9595,31.491],[37.2217,31.2473],[36.1518,31.2486],[35.8492,31.2549],[35.8357,31.2746],[35.8492,31.3502],[35.818,31.4059],[35.8468,31.4321],[35.8875,31.5117],[35.8718,31.5307],[35.8691,31.568],[35.8256,31.6081],[35.8104,31.6495],[35.8102,31.6679],[35.8405,31.7118],[35.8382,31.7842],[35.7083,31.7747],[35.7235,31.8422],[35.6709,31.8588],[35.6687,31.8859],[35.7669,31.9383],[35.8268,31.9942],[35.9412,32.0458],[36.0219,31.9663],[36.0545,31.951],[36.1515,31.9772],[36.2365,31.9801],[36.3017,32.0193],[36.4285,32.0035],[36.5346,31.9038],[36.5271,31.8758],[36.4689,31.8362],[36.5007,31.7897],[36.6123,31.7211],[36.6786,31.7466],[36.7143,31.7469],[36.9979,31.5008]]]}},{"type":"Feature","id":"Aqaba","properties":{"id":"Aqaba","iso_code":"JO-AQ","name":"Aqaba","name_full":"Aqaba","name_ja":"アカバ県","center_lonlat":[35.3198,29.7968]},"geometry":{"type":"Polygon","coordinates":[[[35.2639,30.72],[35.3626,30.6608],[35.3998,30.619],[35.448,30.6085],[35.4218,30.4668],[35.3775,30.345],[35.3795,30.2324],[35.3129,30.1031],[35.2991,30.0271],[35.3168,29.987],[35.3519,29.9597],[35.4805,29.958],[35.5187,29.9425],[35.5709,29.8909],[35.6235,29.7874],[35.6884,29.5572],[35.7403,29.2317],[34.9494,29.3517],[34.9624,29.3598],[34.969,29.4508],[34.9978,29.518],[34.9968,29.5339],[34.9556,29.559],[34.9599,29.5862],[34.9898,29.652],[35.0025,29.7331],[35.049,29.8423],[35.0541,29.9234],[35.0863,30.034],[35.1453,30.1234],[35.1252,30.2447],[35.1621,30.3614],[35.14,30.4302],[35.2053,30.6171],[35.2639,30.72]]]}},{"type":"Feature","id":"Balqa","properties":{"id":"Balqa","iso_code":"JO-BA","name":"Balqa","name_full":"Balqa","name_ja":"バルカ県","center_lonlat":[35.6688,31.9768]},"geometry":{"type":"Polygon","coordinates":[[[35.5025,31.6854],[35.5276,31.7351],[35.5594,31.7653],[35.5383,31.8193],[35.5491,31.8392],[35.5247,31.9192],[35.5459,31.9446],[35.5228,32.0578],[35.5451,32.0868],[35.5352,32.1108],[35.5594,32.1551],[35.5596,32.1904],[35.6355,32.1838],[35.6518,32.1666],[35.6948,32.1562],[35.7064,32.1446],[35.8264,32.1422],[35.8959,32.0957],[35.9016,32.0699],[35.9412,32.0458],[35.8268,31.9942],[35.7669,31.9383],[35.6687,31.8859],[35.6709,31.8588],[35.7235,31.8422],[35.7083,31.7747],[35.6442,31.756],[35.5975,31.6865],[35.5025,31.6854]]]}},{"type":"Feature","id":"Irbid","properties":{"id":"Irbid","iso_code":"JO-IR","name":"Irbid","name_full":"Irbid","name_ja":"イルビド県","center_lonlat":[35.7911,32.5114]},"geometry":{"type":"Polygon","coordinates":[[[36.0819,32.5163],[36.0942,32.4342],[36.0872,32.4083],[36.0418,32.4232],[36.015,32.4114],[36.0264,32.3623],[36.0172,32.346],[35.953,32.3547],[35.9053,32.3389],[35.8481,32.402],[35.8219,32.3837],[35.6489,32.3554],[35.6167,32.2668],[35.6408,32.1997],[35.6355,32.1838],[35.5596,32.1904],[35.5725,32.2376],[35.5594,32.2376],[35.5725,32.2519],[35.552,32.3748],[35.5656,32.3679],[35.5451,32.4096],[35.5591,32.414],[35.552,32.4362],[35.5725,32.4567],[35.5594,32.4704],[35.58,32.4977],[35.552,32.5256],[35.5656,32.5256],[35.5594,32.553],[35.5656,32.5461],[35.58,32.5604],[35.5605,32.6409],[35.5938,32.6704],[35.636,32.6791],[35.7697,32.7481],[35.7882,32.7344],[35.8957,32.7133],[35.9442,32.6908],[35.9375,32.674],[35.9554,32.6574],[36.0036,32.6551],[36.0154,32.5912],[36.0663,32.5173],[36.0819,32.5163]]]}},{"type":"Feature","id":"Jerash","properties":{"id":"Jerash","iso_code":"JO-JA","name":"Jerash","name_full":"Jerash","name_ja":"ジェラシュ県","center_lonlat":[35.8792,32.2208]},"geometry":{"type":"Polygon","coordinates":[[[35.6948,32.1562],[35.7365,32.1965],[35.8047,32.2227],[35.8419,32.3029],[35.9053,32.3389],[35.953,32.3547],[36.0172,32.346],[35.948,32.2625],[35.9907,32.1967],[35.9823,32.1668],[35.9333,32.1384],[35.8959,32.0957],[35.8264,32.1422],[35.7064,32.1446],[35.6948,32.1562]]]}},{"type":"Feature","id":"Karak","properties":{"id":"Karak","iso_code":"JO-KA","name":"Karak","name_full":"Karak","name_ja":"カラク県","center_lonlat":[35.7722,31.1276]},"geometry":{"type":"Polygon","coordinates":[[[35.3471,30.9227],[35.3853,30.9633],[35.3916,31.0239],[35.4385,31.1037],[35.4362,31.1595],[35.3957,31.2577],[35.4223,31.303],[35.4165,31.3318],[35.4529,31.4008],[35.4571,31.4335],[35.5542,31.4359],[35.6734,31.4039],[35.7522,31.4151],[35.818,31.4059],[35.8492,31.3502],[35.8357,31.2746],[35.8492,31.2549],[36.1518,31.2486],[36.1685,31.1505],[36.1919,31.0948],[36.1409,30.9551],[36.0238,30.7671],[35.8302,30.9149],[35.6699,30.9699],[35.5846,30.9735],[35.5339,30.9977],[35.4907,30.9967],[35.4751,30.9862],[35.4543,30.8994],[35.4366,30.8836],[35.4048,30.888],[35.3471,30.9227]]]}},{"type":"Feature","id":"Ma'an","properties":{"id":"Ma'an","iso_code":"JO-MN","name":"Ma'an","name_full":"Ma'an","name_ja":"マアーン県","center_lonlat":[36.5394,30.342]},"geometry":{"type":"Polygon","coordinates":[[[37.2217,31.2473],[37.48,31.0073],[37.9814,30.4988],[37.6476,30.3309],[37.4917,30.0112],[37.4702,29.9946],[36.7287,29.8535],[36.4771,29.4946],[36.0695,29.2],[36.0164,29.19],[35.7403,29.2317],[35.6884,29.5572],[35.6235,29.7874],[35.5709,29.8909],[35.5187,29.9425],[35.4805,29.958],[35.3519,29.9597],[35.3168,29.987],[35.2991,30.0271],[35.3129,30.1031],[35.3795,30.2324],[35.3775,30.345],[35.4218,30.4668],[35.448,30.6085],[35.6624,30.6034],[35.8267,30.6289],[35.8739,30.6545],[35.9112,30.6447],[35.9477,30.6564],[36.0238,30.7671],[36.1409,30.9551],[36.1919,31.0948],[36.1685,31.1505],[36.1518,31.2486],[37.2217,31.2473]]]}},{"type":"Feature","id":"Madaba","properties":{"id":"Madaba","iso_code":"JO-MD","name":"Madaba","name_full":"Madaba","name_ja":"マダバ県","center_lonlat":[35.6755,31.5751]},"geometry":{"type":"Polygon","coordinates":[[[35.4571,31.4335],[35.4642,31.5686],[35.5025,31.6854],[35.5975,31.6865],[35.6442,31.756],[35.7083,31.7747],[35.8382,31.7842],[35.8405,31.7118],[35.8102,31.6679],[35.8104,31.6495],[35.8256,31.6081],[35.8691,31.568],[35.8718,31.5307],[35.8875,31.5117],[35.8468,31.4321],[35.818,31.4059],[35.7522,31.4151],[35.6734,31.4039],[35.5542,31.4359],[35.4571,31.4335]]]}},{"type":"Feature","id":"Mafraq","properties":{"id":"Mafraq","iso_code":"JO-MA","name":"Mafraq","name_full":"Mafraq","name_ja":"マフラク県","center_lonlat":[37.9212,32.3764]},"geometry":{"type":"Polygon","coordinates":[[[37.7614,31.6961],[36.518,32.0634],[36.4334,32.1141],[36.3609,32.1175],[36.3096,32.1003],[36.2363,32.132],[36.1384,32.1236],[36.0762,32.1506],[36.03,32.1338],[36.0147,32.1468],[36.0194,32.183],[35.9907,32.1967],[35.948,32.2625],[36.0172,32.346],[36.0264,32.3623],[36.015,32.4114],[36.0418,32.4232],[36.0872,32.4083],[36.0942,32.4342],[36.0819,32.5163],[36.1559,32.5152],[36.1774,32.5273],[36.3879,32.3793],[36.6535,32.3429],[36.6896,32.3197],[36.7069,32.3283],[36.8194,32.3168],[38.0567,32.9943],[38.7745,33.3717],[39.0572,32.4966],[38.9782,32.475],[39.0288,32.3283],[39.0463,32.3085],[39.2358,32.3529],[39.2563,32.3427],[39.292,32.2445],[39.1464,32.1181],[38.9981,32.0069],[38.9634,31.9943],[37.7614,31.6961]]]}},{"type":"Feature","id":"Tafilah","properties":{"id":"Tafilah","iso_code":"JO-AT","name":"Tafilah","name_full":"Tafilah","name_ja":"タフィラ県","center_lonlat":[35.6277,30.7788]},"geometry":{"type":"Polygon","coordinates":[[[35.2639,30.72],[35.2795,30.7802],[35.3166,30.8228],[35.3222,30.8899],[35.3471,30.9227],[35.4048,30.888],[35.4366,30.8836],[35.4543,30.8994],[35.4751,30.9862],[35.4907,30.9967],[35.5339,30.9977],[35.5846,30.9735],[35.6699,30.9699],[35.8302,30.9149],[36.0238,30.7671],[35.9477,30.6564],[35.9112,30.6447],[35.8739,30.6545],[35.8267,30.6289],[35.6624,30.6034],[35.448,30.6085],[35.3998,30.619],[35.3626,30.6608],[35.2639,30.72]]]}},{"type":"Feature","id":"Zarqa","properties":{"id":"Zarqa","iso_code":"JO-AZ","name":"Zarqa","name_full":"Zarqa","name_ja":"ザルカ県","center_lonlat":[36.8442,31.8255]},"geometry":{"type":"Polygon","coordinates":[[[37.7614,31.6961],[36.9979,31.5008],[36.7143,31.7469],[36.6786,31.7466],[36.6123,31.7211],[36.5007,31.7897],[36.4689,31.8362],[36.5271,31.8758],[36.5346,31.9038],[36.4285,32.0035],[36.3017,32.0193],[36.2365,31.9801],[36.1515,31.9772],[36.0545,31.951],[36.0219,31.9663],[35.9412,32.0458],[35.9016,32.0699],[35.8959,32.0957],[35.9333,32.1384],[35.9823,32.1668],[35.9907,32.1967],[36.0194,32.183],[36.0147,32.1468],[36.03,32.1338],[36.0762,32.1506],[36.1384,32.1236],[36.2363,32.132],[36.3096,32.1003],[36.3609,32.1175],[36.4334,32.1141],[36.518,32.0634],[37.7614,31.6961]]]}}]}
