{"type":"FeatureCollection","features":[{"type":"Feature","id":"Akmola","properties":{"id":"Akmola","iso_code":"KZ-AKM","name":"Akmola","name_full":"Akmola","name_ja":"アクモラ州","center_lonlat":[69.9857,51.7565]},"geometry":{"type":"Polygon","coordinates":[[[66.0529,52.4021],[66.2355,52.3687],[66.3102,52.2963],[66.4086,52.3167],[66.641,52.3213],[66.6913,52.2506],[66.8129,52.2481],[67.148,52.2084],[67.4529,52.2352],[67.4658,52.3826],[67.5733,52.396],[67.7002,52.3723],[67.9309,52.2825],[68.0263,52.2636],[68.0487,52.2935],[68.0469,52.3201],[68.1226,52.3332],[68.225,52.4064],[68.1513,52.4659],[68.147,52.5121],[68.2102,52.5162],[68.4137,52.5792],[68.4598,52.5772],[68.525,52.6309],[68.5752,52.6965],[68.6625,52.7232],[68.732,52.7633],[68.8536,52.7985],[68.8155,52.9622],[68.8922,53.0031],[68.9226,53.1115],[68.8671,53.169],[68.822,53.2429],[68.7184,53.2714],[68.6488,53.3184],[68.5824,53.4007],[68.6547,53.426],[68.71,53.4709],[68.7752,53.4844],[68.7498,53.4966],[68.7352,53.5343],[68.8988,53.5563],[68.8614,53.6236],[69.0008,53.6447],[69.0348,53.6395],[69.0411,53.6207],[69.122,53.6167],[69.2296,53.668],[69.4027,53.5751],[69.4365,53.4994],[69.4963,53.5019],[69.5065,53.5374],[69.4565,53.5662],[69.5018,53.6234],[69.6651,53.6834],[69.8376,53.6877],[69.897,53.6636],[69.9293,53.6344],[69.9654,53.5522],[69.9696,53.4863],[70.0044,53.5015],[70.1611,53.4938],[70.2006,53.4789],[70.187,53.4409],[70.1132,53.3629],[70.3053,53.366],[70.4044,53.3232],[70.4654,53.2617],[70.5357,53.2394],[70.5583,53.3065],[70.6334,53.3251],[70.6722,53.3951],[71.0597,53.4134],[71.0969,53.3838],[71.098,53.328],[71.3134,53.2895],[71.6084,53.3798],[71.6795,53.3075],[71.7815,53.241],[71.8251,53.1969],[71.7924,53.1623],[71.7844,53.0628],[71.7311,53.0115],[71.7868,52.942],[71.9238,52.9125],[72.2389,52.9072],[72.4425,52.9928],[72.5233,53.005],[72.6293,52.9936],[72.8077,53.0188],[72.8397,53.0414],[72.8952,52.9947],[72.8985,52.9427],[72.9411,52.8834],[72.9626,52.7618],[73.0617,52.7556],[73.4764,52.668],[73.6572,52.582],[73.9678,52.5677],[73.9974,52.5476],[74.0279,52.4681],[74.0524,51.9065],[73.9012,51.8269],[73.8328,51.7212],[73.8362,51.6234],[74.0259,51.6359],[74.0513,51.5992],[74.2736,51.5372],[74.1918,51.5044],[73.9487,51.454],[73.8523,51.4099],[73.7816,51.3066],[73.7139,51.2565],[73.5263,51.273],[73.3437,51.2526],[73.2915,51.2589],[73.2692,51.2243],[73.3401,51.1466],[73.3653,51.1071],[73.3615,51.0865],[73.4173,51.1011],[73.47,51.1408],[73.5648,51.1197],[73.6096,51.0973],[73.4571,51.0059],[73.2239,50.9494],[73.2416,50.9164],[73.0986,50.8696],[73.071,50.8443],[72.9004,50.8689],[72.8227,50.8089],[72.8199,50.776],[72.7762,50.7336],[72.6536,50.7171],[72.5428,50.6764],[72.5415,50.6385],[72.5127,50.6192],[72.5173,50.5809],[72.555,50.5646],[72.4998,50.5296],[72.3772,50.5615],[72.3397,50.5313],[72.2918,50.5202],[72.2755,50.415],[72.0098,50.4316],[71.9009,50.4167],[71.8565,50.3979],[71.854,50.4367],[71.886,50.4654],[71.9172,50.5804],[71.8919,50.594],[71.9403,50.6504],[71.8309,50.7175],[71.7855,50.7167],[71.7572,50.7422],[71.7028,50.7387],[71.6749,50.7577],[71.6365,50.7615],[71.6238,50.7376],[71.5146,50.7042],[71.4181,50.5986],[71.3222,50.5603],[71.2126,50.5427],[71.184,50.5244],[71.1906,50.4943],[71.1479,50.4703],[71.0474,50.4336],[70.9503,50.4145],[70.9066,50.3142],[70.8929,50.2169],[70.8091,50.2692],[70.6742,50.2351],[70.6144,50.0728],[70.291,49.9871],[70.2499,50.0651],[70.3263,50.1486],[70.2712,50.1838],[70.2471,50.2216],[70.1795,50.2243],[69.83,50.1726],[69.751,50.188],[69.7632,50.2446],[69.7258,50.2529],[69.656,50.3157],[69.5884,50.3052],[69.5737,50.3408],[69.5008,50.331],[69.3949,50.2041],[69.3423,50.2039],[69.3129,50.2214],[69.3278,50.1619],[69.2709,50.1364],[69.1563,50.1164],[68.8209,50.187],[68.8778,50.279],[68.9254,50.3967],[68.945,50.4834],[68.9885,50.59],[68.9954,50.6993],[68.7781,50.7536],[68.5656,50.6946],[68.384,50.6157],[68.0312,50.6139],[68.0724,50.5752],[68.0966,50.5055],[68.0223,50.4694],[67.8583,50.4377],[67.5985,50.4144],[67.3341,50.3325],[67.2351,50.3842],[67.1882,50.4325],[67.2329,50.4826],[67.2331,50.5628],[67.1246,50.6179],[66.8349,50.5866],[66.477,50.6641],[66.3813,50.7095],[66.3135,50.7731],[66.2142,50.7711],[66.1755,50.7912],[66.1548,50.8536],[66.0602,50.8975],[65.9409,50.8848],[65.8498,50.8005],[65.7209,50.7938],[65.7084,50.9738],[65.5328,51.1656],[65.5413,51.227],[65.5033,51.262],[65.62,51.3529],[65.5917,51.3734],[65.6251,51.4507],[65.6445,51.557],[65.5901,51.6251],[65.4301,51.694],[65.444,51.7547],[65.514,51.7505],[65.7081,51.7895],[65.8605,51.8941],[65.9014,52.026],[65.9566,52.1199],[66.0372,52.1783],[66.0529,52.4021]],[[71.4695,50.9747],[71.5274,50.9927],[71.5753,51.0365],[71.6012,51.0964],[71.6072,51.1602],[71.5813,51.2061],[71.4257,51.2999],[71.3778,51.3059],[71.3139,51.2879],[71.2521,51.2361],[71.2501,51.1563],[71.4257,50.9946],[71.4695,50.9747]]]}},{"type":"Feature","id":"Aktobe","properties":{"id":"Aktobe","iso_code":"KZ-AKT","name":"Aktobe","name_full":"Aktobe","name_ja":"アクトベ州","center_lonlat":[58.567,48.5885]},"geometry":{"type":"Polygon","coordinates":[[[59.0551,45.324],[58.5822,45.5487],[58.5314,45.5587],[56.7076,45.1619],[56.5412,45.9538],[56.4732,46.0845],[56.4219,46.1544],[56.3778,46.2672],[56.2959,46.3527],[56.2712,46.4572],[55.4938,46.6596],[55.2913,46.7911],[55.1667,46.9173],[55.0798,47.0679],[54.9975,47.1523],[55.0017,47.2968],[55.0725,47.6458],[55.0605,47.7628],[54.9732,48.0123],[54.8729,48.0908],[54.8755,48.1996],[54.7937,48.4277],[54.8206,48.5527],[54.8429,48.5747],[54.8488,48.6289],[54.8005,48.7412],[54.7106,48.7463],[54.6655,48.7701],[54.6326,48.8069],[54.5776,48.8134],[54.5367,48.794],[54.4933,48.7471],[54.4426,48.6576],[54.0718,48.7168],[54.0917,48.7505],[54.0818,48.8947],[54.0533,49.0055],[53.9789,49.1278],[53.9052,49.0582],[53.8649,49.0738],[53.8586,49.1037],[53.7427,49.1428],[53.6732,49.1844],[53.671,49.2883],[53.7186,49.401],[53.7134,49.4627],[53.7645,49.4715],[53.806,49.5283],[53.8559,49.5589],[53.9774,49.5822],[54.0059,49.6172],[54.1792,49.6127],[54.2926,49.6501],[54.2955,49.6923],[54.4532,49.8147],[54.4668,49.8696],[54.514,49.9317],[54.5512,50.0314],[54.522,50.0693],[54.4746,50.0898],[54.4238,50.1501],[54.4352,50.2557],[54.3915,50.3583],[54.4576,50.4046],[54.4742,50.4554],[54.5455,50.5305],[54.5914,50.5423],[54.6763,50.6025],[54.6736,50.6343],[54.6391,50.707],[54.6502,50.7863],[54.6269,50.8116],[54.6518,50.8463],[54.6382,50.8857],[54.503,50.9283],[54.546,50.9533],[54.5253,50.9911],[54.5338,51.0032],[54.6382,51.0277],[54.6858,51.0236],[54.8117,50.9724],[54.8943,50.9124],[55.0477,50.8842],[55.0632,50.8622],[55.0614,50.8227],[55.084,50.7969],[55.3054,50.665],[55.3478,50.6514],[55.4678,50.657],[55.4911,50.6459],[55.5243,50.6007],[55.5704,50.5883],[55.66,50.53],[55.6943,50.5388],[55.7649,50.5868],[55.9323,50.6465],[56.0789,50.7248],[56.1001,50.7479],[56.1584,50.9055],[56.3155,50.8838],[56.3357,50.8959],[56.3505,50.948],[56.432,50.9762],[56.4212,51.0335],[56.4783,51.073],[56.508,51.0663],[56.5966,50.984],[56.6884,50.9691],[56.7075,50.9704],[56.7096,50.9816],[56.6803,51.0498],[56.7161,51.0725],[56.7601,51.0802],[56.8136,51.057],[56.8651,51.0518],[56.9411,51.0683],[57.0724,51.0697],[57.1545,51.1],[57.1812,51.0735],[57.1975,51.0174],[57.2729,50.9975],[57.3343,50.8974],[57.4181,50.8624],[57.4676,50.8585],[57.5559,50.9188],[57.6892,50.8967],[57.7224,50.9087],[57.7373,50.9382],[57.7344,51.0739],[57.7688,51.1197],[57.9123,51.1034],[57.9602,51.0775],[58.0773,51.0979],[58.1137,51.0652],[58.1676,51.0552],[58.1906,51.0655],[58.2238,51.1231],[58.3084,51.15],[58.366,51.1089],[58.378,51.0707],[58.5205,51.0619],[58.5635,51.0493],[58.595,51.0234],[58.5964,50.9625],[58.5544,50.9254],[58.5502,50.8933],[58.5714,50.8635],[58.641,50.8634],[58.6512,50.8533],[58.6467,50.8013],[58.6644,50.7899],[58.7478,50.7951],[58.8115,50.7255],[58.9259,50.6781],[59.1975,50.6627],[59.2733,50.616],[59.4376,50.6311],[59.5634,50.5799],[59.5604,50.5538],[59.4782,50.5524],[59.4517,50.5373],[59.4663,50.5074],[59.5228,50.4746],[59.6222,50.5241],[59.7747,50.5337],[59.8157,50.5629],[59.9151,50.6738],[59.9146,50.7459],[59.9622,50.8295],[60.0213,50.8541],[60.0833,50.8572],[60.1362,50.8445],[60.1548,50.7709],[60.1767,50.7422],[60.3004,50.6847],[60.7185,50.6527],[60.8183,50.6629],[61.3721,50.7825],[61.4269,50.8331],[61.5342,51.2061],[61.5673,51.2339],[61.6637,51.2584],[61.6463,51.2632],[61.8138,51.2692],[61.8733,51.2959],[61.9245,51.2395],[61.9596,51.1289],[62.0301,51.0652],[62.1544,51.1104],[62.2939,51.0397],[62.2604,51.0115],[62.2391,50.9457],[62.3752,50.8506],[62.3039,50.7543],[62.3137,50.696],[62.3488,50.6729],[62.4457,50.6748],[62.5342,50.439],[62.6928,50.2224],[62.8897,50.0242],[62.9131,49.8972],[62.8196,49.8743],[62.714,49.9083],[62.6106,49.8551],[62.558,49.7509],[62.4595,49.6868],[62.4129,49.6009],[62.4529,49.5205],[62.3217,49.5245],[62.2791,49.4884],[62.2936,49.4438],[62.485,49.2281],[62.3839,49.2195],[62.2776,49.1861],[62.3733,49.167],[62.4471,49.0506],[62.6645,48.8783],[62.8166,48.8513],[62.906,48.8834],[63.0309,48.863],[63.0556,48.7893],[63.0297,48.6919],[63.6615,48.4697],[63.9705,48.1512],[64.2036,47.8785],[64.1063,47.8056],[62.8421,47.1839],[62.7526,47.1809],[62.6374,47.2192],[62.4499,47.2482],[62.4672,47.2918],[62.3195,47.4455],[62.1703,47.544],[62.0484,47.5707],[61.859,47.7765],[61.5738,47.776],[61.3271,47.7335],[61.1084,47.5282],[61.0166,47.3612],[60.7647,47.0999],[60.5378,47.112],[60.4406,47.0463],[60.4114,46.9238],[60.1691,46.8846],[59.9209,46.7598],[59.6684,46.5802],[59.1126,46.066],[59.0272,45.8181],[59.0551,45.324]]]}},{"type":"Feature","id":"Almaty","properties":{"id":"Almaty","iso_code":"KZ-ALA","name":"Almaty","name_full":"Almaty","name_ja":"アルマトイ州","center_lonlat":[77.9665,44.962]},"geometry":{"type":"Polygon","coordinates":[[[82.2971,45.5545],[82.2915,45.5332],[82.3275,45.4933],[82.513,45.4658],[82.6157,45.4354],[82.632,45.4158],[82.6338,45.3394],[82.6146,45.2486],[82.5852,45.1768],[82.5397,45.1237],[82.4758,45.1157],[82.4275,45.1372],[82.3418,45.2049],[82.2946,45.2282],[82.2453,45.2318],[81.9501,45.1445],[81.8753,45.1811],[81.7936,45.1956],[81.7652,45.3077],[81.7393,45.3381],[81.6652,45.348],[81.542,45.2933],[80.8539,45.1265],[80.6971,45.1437],[80.5368,45.1011],[80.4454,45.1042],[80.3901,45.0458],[80.2905,45.0462],[80.219,45.026],[80.1034,45.0322],[79.8582,44.9037],[79.843,44.8735],[79.8686,44.8494],[79.9917,44.7936],[80.2447,44.816],[80.3145,44.7803],[80.4923,44.728],[80.492,44.7017],[80.3763,44.6713],[80.3558,44.6529],[80.3838,44.6028],[80.3304,44.453],[80.3732,44.231],[80.3389,44.1215],[80.4038,44.0489],[80.4231,43.9721],[80.4762,43.9102],[80.7127,43.4589],[80.6942,43.3947],[80.6429,43.3262],[80.7485,43.2752],[80.7652,43.1999],[80.7934,43.1495],[80.7734,43.1129],[80.7315,43.1011],[80.66,43.1328],[80.6185,43.1343],[80.3681,43.0285],[80.3551,43.0006],[80.3738,42.9752],[80.4762,42.9303],[80.5429,42.9167],[80.5545,42.8989],[80.5486,42.8785],[80.3339,42.8171],[80.2649,42.8237],[80.2275,42.791],[80.2054,42.7311],[80.1525,42.6604],[80.14,42.623],[80.1624,42.5524],[80.2105,42.4908],[80.1962,42.4346],[80.2684,42.238],[80.2491,42.2049],[80.2103,42.1895],[80.1666,42.2087],[80.077,42.3058],[80.0121,42.3495],[79.9601,42.4035],[79.9179,42.4244],[79.6965,42.4598],[79.5719,42.4495],[79.4764,42.454],[79.4257,42.4696],[79.353,42.5773],[79.2064,42.6565],[79.1761,42.7139],[79.1808,42.7755],[79.1483,42.791],[79.0309,42.7562],[78.9929,42.7571],[78.8079,42.7956],[78.6871,42.8046],[78.5943,42.8502],[78.4296,42.8807],[78.3855,42.8782],[78.3112,42.8505],[78.2298,42.865],[78.0306,42.8547],[77.8839,42.8932],[77.81,42.8713],[77.7812,42.8956],[77.7138,42.9076],[77.6478,42.9095],[77.5578,42.8881],[77.5016,42.9145],[77.4186,42.9222],[77.3281,42.8976],[77.1787,42.9132],[77.124,42.9589],[76.9569,42.9885],[76.8335,42.9717],[76.793,42.9431],[76.7539,42.9408],[76.7079,42.9137],[76.585,42.8948],[76.4805,42.917],[76.4141,42.8855],[76.383,42.9101],[76.3405,42.9017],[76.2545,42.9212],[76.0645,42.934],[75.9991,42.9176],[75.859,42.9398],[75.8071,42.9368],[75.7735,42.9598],[75.5826,42.9803],[75.6511,43.0171],[75.5681,43.0705],[75.4515,43.1062],[75.3654,43.1578],[75.3356,43.1951],[75.2971,43.2977],[75.3603,43.3967],[75.4282,43.4685],[75.344,43.5033],[75.2542,43.5036],[75.2226,43.5337],[75.1832,43.5223],[75.018,43.5627],[75.273,43.8771],[75.3184,43.9669],[75.3265,44.0783],[75.1488,44.2208],[74.9786,44.2911],[74.7587,44.3134],[74.6106,44.4129],[74.5574,44.5167],[74.5396,44.6553],[74.1556,44.9076],[74.1116,44.9736],[74.0946,45.0599],[73.8998,45.0776],[73.8132,45.1722],[73.8468,45.2583],[74.0941,45.2693],[74.0531,45.3708],[74.0304,45.5358],[74.0564,45.7768],[74.1843,45.9559],[74.7619,46.3995],[75.4028,46.6795],[75.6361,46.6699],[75.896,46.69],[76.161,46.6813],[76.3285,46.6499],[76.3821,46.6548],[76.4021,46.6446],[76.407,46.6626],[76.5202,46.6136],[76.526,46.6462],[76.548,46.661],[76.5972,46.6758],[76.682,46.6658],[76.7224,46.6837],[76.73,46.6655],[76.7156,46.6496],[76.7301,46.6314],[76.9353,46.5602],[76.8329,46.6525],[76.8254,46.6837],[76.8402,46.6907],[76.9204,46.6368],[77.0192,46.6469],[77.0627,46.6356],[77.1339,46.5739],[77.134,46.554],[77.1597,46.5466],[77.2277,46.5586],[77.2836,46.6118],[77.4916,46.6402],[77.5996,46.6758],[77.6111,46.8167],[77.5809,47.1748],[77.6559,47.2019],[77.8511,47.1798],[77.948,47.2318],[78.0462,47.2596],[78.1101,47.2139],[78.2753,47.3043],[78.5621,47.1942],[78.6399,47.1457],[78.7366,47.1352],[78.8046,47.0687],[78.9484,47.0574],[79.0446,47.0648],[79.3085,47.031],[79.4914,46.862],[80.0187,46.8795],[80.2671,46.8152],[80.2713,46.771],[80.3495,46.7363],[80.7795,46.592],[81.0549,46.5437],[81.1669,46.5403],[81.233,46.5159],[81.261,46.4908],[81.3733,46.4939],[81.41,46.4749],[81.4141,46.4494],[81.6048,46.3902],[81.6476,46.3109],[81.9135,46.0635],[81.9836,45.903],[82.0845,45.8057],[82.1397,45.689],[82.125,45.5877],[82.2746,45.5484],[82.2971,45.5545]],[[76.9618,43.1923],[77.0024,43.2234],[77.0311,43.288],[77.0335,43.3789],[76.9963,43.4012],[76.9378,43.3885],[76.902,43.3646],[76.8087,43.2713],[76.8087,43.2234],[76.8445,43.2019],[76.9618,43.1923]]]}},{"type":"Feature","id":"Almaty (KZ-ALA)","properties":{"id":"Almaty (KZ-ALA)","iso_code":"KZ-ALA","name":"Almaty (KZ-ALA)","name_full":"Almaty","name_ja":"アルマトイ","center_lonlat":[76.9319,43.2881]},"geometry":{"type":"Polygon","coordinates":[[[76.9963,43.4012],[77.0335,43.3789],[77.0311,43.288],[77.0024,43.2234],[76.9618,43.1923],[76.8445,43.2019],[76.8087,43.2234],[76.8087,43.2713],[76.902,43.3646],[76.9378,43.3885],[76.9963,43.4012]]]}},{"type":"Feature","id":"Atyrau","properties":{"id":"Atyrau","iso_code":"KZ-ATY","name":"Atyrau","name_full":"Atyrau","name_ja":"アティラウ州","center_lonlat":[52.1385,47.5265]},"geometry":{"type":"MultiPolygon","coordinates":[[[[47.1121,48.2422],[48.9075,48.0601],[49.4321,47.9381],[49.4568,48.0139],[49.9109,48.041],[50.7261,48.4214],[50.7996,48.4345],[50.9013,48.4806],[50.948,48.4823],[51.0453,48.5685],[51.1557,48.6302],[51.259,48.6359],[51.3699,48.663],[51.7549,48.6309],[51.8303,48.6146],[51.8416,48.5834],[51.8113,48.5047],[51.9683,48.4648],[52.1377,48.4509],[52.1755,48.4833],[52.5251,48.4057],[52.5891,48.4262],[52.5898,48.4703],[52.6218,48.5882],[52.7711,48.7425],[52.7635,48.8621],[52.9134,48.9854],[52.9698,48.9741],[53.3249,48.975],[53.434,48.9951],[53.4657,49.0086],[53.4533,49.0379],[53.4798,49.0613],[53.6732,49.1844],[53.7427,49.1428],[53.8586,49.1037],[53.8649,49.0738],[53.9052,49.0582],[53.9789,49.1278],[54.0533,49.0055],[54.0818,48.8947],[54.0917,48.7505],[54.0718,48.7168],[54.4426,48.6576],[54.4933,48.7471],[54.5367,48.794],[54.5776,48.8134],[54.6326,48.8069],[54.6655,48.7701],[54.7106,48.7463],[54.8005,48.7412],[54.8488,48.6289],[54.8429,48.5747],[54.8206,48.5527],[54.7937,48.4277],[54.8755,48.1996],[54.8729,48.0908],[54.9732,48.0123],[55.0605,47.7628],[55.0725,47.6458],[55.0017,47.2968],[54.9975,47.1523],[55.0798,47.0679],[55.1667,46.9173],[55.2913,46.7911],[55.4938,46.6596],[56.2712,46.4572],[56.2959,46.3527],[56.3778,46.2672],[56.4219,46.1544],[56.4732,46.0845],[56.3638,46.1207],[56.3132,46.1192],[56.2366,46.1404],[56.1325,46.1354],[56.0749,46.1633],[56.0403,46.2068],[55.9426,46.1989],[55.8316,46.2351],[55.8266,46.332],[55.7443,46.3877],[55.6753,46.358],[55.4769,46.4804],[55.2466,46.346],[54.9034,46.3339],[54.1196,46.2218],[54.0857,46.2024],[54.0284,46.2054],[53.9491,46.1875],[53.7885,46.0384],[53.6942,45.9716],[53.7576,45.9214],[53.5361,45.8257],[53.039,45.7384],[52.8619,45.7675],[52.9199,45.7961],[52.9544,45.8303],[53.0818,46.0051],[53.077,46.0478],[53.1138,46.0978],[53.1567,46.2723],[53.1567,46.3417],[53.1283,46.3939],[53.0326,46.4709],[53.1021,46.4435],[53.0754,46.4757],[53.0817,46.5124],[53.0178,46.4787],[52.9984,46.4846],[52.9966,46.5048],[53.0401,46.5739],[53.0542,46.5456],[53.0879,46.5534],[53.1082,46.6217],[53.1177,46.6015],[53.1424,46.6353],[53.2005,46.6433],[53.2078,46.695],[53.1882,46.718],[53.1058,46.7373],[53.0835,46.8533],[53.0604,46.8923],[52.9922,46.8955],[52.9199,46.9575],[52.7827,46.9438],[52.6148,46.95],[52.5194,46.9942],[52.4368,46.9991],[52.4193,46.944],[52.3572,46.8936],[52.2622,46.8701],[52.1888,46.8838],[52.1829,46.8619],[52.2244,46.8483],[52.2449,46.81],[52.1126,46.8127],[52.0718,46.83],[52.0674,46.8514],[52.0,46.8906],[52.0189,46.937],[51.999,46.941],[51.9607,46.8858],[51.9414,46.88],[51.8539,46.8955],[51.8955,46.9308],[51.874,46.9356],[51.806,46.9091],[51.7439,46.9268],[51.6758,46.9786],[51.6961,47.0212],[51.6802,47.057],[51.6358,47.0488],[51.611,46.9888],[51.5923,46.9873],[51.5461,47.04],[51.5026,47.0613],[51.2536,47.103],[51.2126,47.1209],[51.187,47.1169],[51.1027,47.0805],[50.9707,47.0599],[50.9054,47.0189],[50.8465,47.0368],[50.8381,47.0099],[50.7406,46.9062],[50.7305,46.9233],[50.7532,46.9551],[50.7521,46.9747],[50.6782,46.9327],[50.6161,46.9356],[50.6069,46.8681],[50.5691,46.829],[50.5516,46.8346],[50.5781,46.8784],[50.5554,46.8824],[50.5028,46.8636],[50.4302,46.8967],[50.3836,46.8178],[50.3674,46.8066],[50.3743,46.8544],[50.34,46.8135],[50.2942,46.7979],[50.231,46.726],[50.2131,46.7282],[50.2232,46.7611],[50.2131,46.7657],[50.1688,46.7491],[50.034,46.6352],[49.9627,46.6291],[49.8823,46.5759],[49.8397,46.5808],[49.8254,46.5715],[49.8174,46.5404],[49.7713,46.5671],[49.7609,46.5634],[49.7575,46.5317],[49.7026,46.5602],[49.7026,46.5193],[49.6226,46.5828],[49.6268,46.5193],[49.6081,46.527],[49.5789,46.4988],[49.5579,46.5344],[49.4808,46.5606],[49.4691,46.5944],[49.4723,46.5466],[49.5041,46.4988],[49.4928,46.4996],[49.4568,46.5096],[49.4622,46.5329],[49.429,46.5549],[49.4214,46.5397],[49.3895,46.544],[49.323,46.5681],[49.3053,46.5876],[49.313,46.5621],[49.3786,46.5102],[49.3942,46.4783],[49.3333,46.4846],[49.2979,46.5237],[49.2781,46.5193],[49.2947,46.508],[49.3036,46.4665],[49.3669,46.4299],[49.3714,46.3994],[49.3669,46.389],[49.3257,46.4103],[49.2663,46.4641],[49.2234,46.4709],[49.2432,46.4586],[49.2554,46.4241],[49.2918,46.3964],[49.2781,46.389],[49.1682,46.4094],[49.1784,46.3928],[49.2158,46.3803],[49.2271,46.3279],[49.0332,46.4049],[48.897,46.4822],[48.8196,46.4793],[48.705,46.5504],[48.5394,46.568],[48.563,46.5913],[48.5469,46.5993],[48.53,46.6382],[48.4551,46.6608],[48.5058,46.7326],[48.5567,46.7617],[48.6182,46.7704],[48.6766,46.758],[48.7395,46.6906],[48.764,46.6828],[48.9169,46.7026],[49.0063,46.7691],[48.6973,47.101],[48.5251,47.4102],[48.4111,47.4458],[48.1744,47.7129],[48.0445,47.7697],[47.6497,47.7656],[47.4122,47.8359],[47.3888,47.8119],[47.3829,47.7054],[47.3742,47.6858],[47.3597,47.6833],[47.1745,47.7705],[47.1195,47.8198],[47.1567,47.8632],[47.1553,47.8774],[47.0442,47.9862],[47.1371,48.0273],[47.192,48.0718],[47.1036,48.1012],[47.1165,48.1539],[47.0752,48.2051],[47.1121,48.2422]]],[[[49.8224,46.314],[49.8413,46.2628],[49.8215,46.2175],[49.8047,46.2105],[49.7669,46.2478],[49.72,46.3568],[49.75,46.3575],[49.8224,46.314]]]]}},{"type":"Feature","id":"East Kazakhstan","properties":{"id":"East Kazakhstan","iso_code":"KZ-VOS","name":"East Kazakhstan","name_full":"East Kazakhstan","name_ja":"東カザフスタン州","center_lonlat":[81.5218,48.782]},"geometry":{"type":"Polygon","coordinates":[[[82.2971,45.5545],[82.2746,45.5484],[82.125,45.5877],[82.1397,45.689],[82.0845,45.8057],[81.9836,45.903],[81.9135,46.0635],[81.6476,46.3109],[81.6048,46.3902],[81.4141,46.4494],[81.41,46.4749],[81.3733,46.4939],[81.261,46.4908],[81.233,46.5159],[81.1669,46.5403],[81.0549,46.5437],[80.7795,46.592],[80.3495,46.7363],[80.2713,46.771],[80.2671,46.8152],[80.0187,46.8795],[79.4914,46.862],[79.3085,47.031],[79.0446,47.0648],[78.9484,47.0574],[78.8046,47.0687],[78.7366,47.1352],[78.6399,47.1457],[78.5621,47.1942],[78.2753,47.3043],[78.1101,47.2139],[78.0462,47.2596],[77.948,47.2318],[77.8511,47.1798],[77.6559,47.2019],[77.5809,47.1748],[77.3162,47.1639],[77.2643,47.089],[77.0577,47.1273],[76.9315,47.222],[76.8764,47.2447],[76.9231,47.2609],[76.9642,47.3015],[76.9845,47.3561],[76.982,47.3943],[77.16,47.4286],[77.0978,47.6033],[77.0718,47.6257],[77.164,47.8598],[77.2325,47.9328],[77.2711,48.0196],[77.4093,48.0711],[77.2898,48.1011],[77.1713,48.1483],[77.1489,48.2232],[77.248,48.2496],[77.1571,48.2762],[77.0557,48.2811],[77.0308,48.3201],[76.9526,48.3506],[76.9266,48.3833],[76.9718,48.4071],[76.9881,48.4513],[77.021,48.4861],[77.1268,48.49],[77.2575,48.5443],[77.3472,48.6129],[77.3734,48.7139],[77.3613,48.8165],[77.1951,48.8231],[76.9717,48.8047],[76.8883,48.8625],[76.8855,48.9826],[76.9794,49.0086],[77.0466,49.0532],[76.9078,49.1322],[76.9036,49.1732],[76.8047,49.242],[76.6923,49.2833],[76.6301,49.3523],[76.7693,49.4916],[76.972,49.5455],[77.1692,49.645],[77.1958,49.7488],[77.1854,49.8752],[77.1941,49.8995],[77.2451,49.9338],[77.4484,49.986],[77.6703,50.125],[77.7329,50.2026],[77.8164,50.2086],[77.9462,50.1376],[78.1617,50.0797],[78.4728,50.0272],[78.6709,50.1558],[78.7639,50.2602],[78.8202,50.3512],[78.7655,50.4442],[78.7177,50.4639],[78.7243,50.5666],[78.6885,50.7011],[78.4274,50.8079],[78.3307,50.8795],[78.2825,50.8876],[78.242,50.9524],[78.213,50.9642],[78.2024,51.0023],[78.1345,51.0279],[78.142,51.0477],[78.1072,51.09],[78.1892,51.1419],[78.2263,51.1407],[78.337,51.1834],[78.3618,51.2151],[78.4049,51.2242],[78.4321,51.2],[78.4941,51.2076],[78.758,51.2968],[78.8074,51.3264],[78.8169,51.3685],[78.7725,51.3779],[78.8167,51.4379],[78.9525,51.4486],[78.9857,51.4359],[79.0411,51.4603],[79.0896,51.4899],[79.1085,51.5621],[79.2503,51.6032],[79.2844,51.6839],[79.3043,51.6864],[79.4698,51.4926],[79.9269,50.8785],[79.9665,50.8102],[80.055,50.7529],[80.086,50.7521],[80.0154,50.8395],[80.0493,50.8523],[80.1192,50.8149],[80.1427,50.8171],[80.1813,50.8757],[80.2673,50.9157],[80.3602,50.9192],[80.439,50.9581],[80.4594,50.9927],[80.4645,51.0437],[80.4517,51.0735],[80.4105,51.1048],[80.422,51.1876],[80.4521,51.2079],[80.5992,51.2086],[80.6324,51.278],[80.6828,51.302],[80.8425,51.2575],[80.8825,51.2849],[80.9057,51.2836],[80.9242,51.2161],[81.0221,51.1774],[81.0701,51.172],[81.1129,51.1959],[81.152,51.1865],[81.1472,51.136],[81.0805,51.0309],[81.0515,50.9557],[81.1044,50.9367],[81.2774,50.9627],[81.4008,50.9591],[81.4161,50.8897],[81.4661,50.8337],[81.4261,50.7882],[81.4188,50.7625],[81.4311,50.7407],[81.4602,50.7303],[81.6741,50.736],[81.7441,50.7849],[81.8224,50.7657],[81.9454,50.7692],[81.9903,50.7596],[82.0955,50.7081],[82.1473,50.7016],[82.1988,50.7088],[82.2557,50.7452],[82.2884,50.7374],[82.3284,50.7521],[82.3625,50.7421],[82.4083,50.7484],[82.4758,50.714],[82.6728,50.7898],[82.698,50.811],[82.7,50.881],[82.7265,50.9007],[82.7645,50.9067],[82.9759,50.8819],[83.0215,50.8918],[83.0579,50.9172],[83.1076,50.9927],[83.1796,50.9873],[83.3238,51.0024],[83.434,50.9927],[83.4983,50.9454],[83.6098,50.932],[83.7128,50.8822],[83.8205,50.868],[83.8828,50.812],[83.9506,50.7804],[83.9497,50.7179],[83.9758,50.6864],[84.1017,50.6286],[84.133,50.6008],[84.1512,50.5526],[84.1956,50.5114],[84.1768,50.4391],[84.2394,50.3446],[84.2396,50.2782],[84.25,50.2599],[84.3044,50.2432],[84.3314,50.2135],[84.3688,50.2118],[84.4408,50.2446],[84.5357,50.1909],[84.642,50.1849],[84.7203,50.1366],[84.7907,50.1328],[84.8387,50.0808],[84.9102,50.0951],[84.9867,50.067],[85.0283,50.0205],[85.0254,50.0041],[84.9548,49.9905],[84.9546,49.9069],[85.0563,49.8733],[85.0817,49.8],[85.1851,49.705],[85.195,49.6257],[85.2236,49.5957],[85.2631,49.5815],[85.384,49.6157],[85.4757,49.5831],[85.6149,49.6171],[85.6423,49.5775],[85.6733,49.5604],[85.7474,49.573],[85.8092,49.5365],[85.8807,49.5633],[85.9406,49.5596],[85.9314,49.4928],[85.9463,49.4814],[85.9801,49.4829],[86.0275,49.5156],[86.0705,49.5263],[86.1115,49.5202],[86.1773,49.4633],[86.2143,49.4962],[86.2721,49.5836],[86.3918,49.625],[86.4755,49.6708],[86.483,49.6863],[86.4727,49.7083],[86.5651,49.7427],[86.6102,49.7955],[86.6849,49.7782],[86.7484,49.783],[86.7596,49.7677],[86.7405,49.7228],[86.7759,49.695],[86.7365,49.6719],[86.6471,49.6537],[86.596,49.6019],[86.5993,49.5735],[86.6425,49.5475],[86.7326,49.5507],[86.8243,49.5092],[86.814,49.45],[86.829,49.4333],[86.9331,49.3901],[86.9051,49.3519],[86.913,49.3387],[87.0125,49.2807],[87.0245,49.2489],[87.076,49.2369],[87.1903,49.2378],[87.2718,49.2051],[87.2877,49.1843],[87.3238,49.0853],[87.1163,49.1298],[86.9754,49.0924],[86.8873,49.1068],[86.8382,49.0939],[86.7989,49.0422],[86.7435,49.0077],[86.7094,48.9542],[86.718,48.9125],[86.7895,48.8391],[86.7392,48.7835],[86.752,48.7154],[86.6055,48.5901],[86.5651,48.5273],[86.5464,48.5172],[86.4306,48.4859],[86.3074,48.4831],[86.2467,48.4374],[86.192,48.4182],[86.006,48.4296],[85.7837,48.4076],[85.7187,48.3588],[85.5864,48.1412],[85.5618,48.0307],[85.5154,47.9203],[85.5954,47.6241],[85.5846,47.4929],[85.6704,47.3843],[85.679,47.2749],[85.6597,47.2065],[85.5568,47.1787],[85.4986,47.0518],[85.2258,47.0416],[85.0482,46.9207],[84.9758,46.902],[84.916,46.8506],[84.7396,46.8148],[84.7155,46.8352],[84.7496,46.8825],[84.7516,46.918],[84.7317,46.9478],[84.6635,46.9839],[84.521,46.9698],[84.4218,46.9931],[84.2658,47.0001],[84.1591,46.9933],[84.0696,46.9644],[83.9053,46.974],[83.5245,47.0671],[83.3534,47.145],[83.222,47.1719],[83.1504,47.2115],[83.0991,47.2197],[83.0215,47.2059],[82.9982,47.1103],[83.0055,47.0698],[82.9855,47.0125],[82.9855,46.9425],[82.839,46.7324],[82.7474,46.4933],[82.7078,46.4342],[82.6744,46.3311],[82.5683,46.1965],[82.5419,46.1315],[82.4889,45.9017],[82.4475,45.8254],[82.3722,45.7342],[82.2971,45.5545]]]}},{"type":"Feature","id":"Jambyl","properties":{"id":"Jambyl","iso_code":"KZ-ZHA","name":"Jambyl","name_full":"Jambyl","name_ja":"ジャンブール州","center_lonlat":[72.1986,44.2932]},"geometry":{"type":"Polygon","coordinates":[[[70.8888,42.3386],[70.8032,42.4011],[70.7983,42.4302],[70.725,42.4521],[70.6231,42.538],[70.5751,42.5512],[70.5042,42.6301],[70.4372,42.6738],[70.3232,42.7011],[70.2679,42.7603],[70.2562,42.8477],[70.2672,42.9205],[70.2432,42.9561],[70.2562,42.9832],[70.2019,43.015],[70.224,43.0482],[70.1976,43.0696],[70.1571,43.0652],[70.1239,43.0931],[70.1032,43.1566],[69.9533,43.2073],[69.8223,43.2215],[69.6742,43.2641],[69.6149,43.3289],[69.62,43.3713],[69.5833,43.3973],[69.531,43.4125],[69.6424,43.5333],[69.8844,44.0596],[69.9171,44.0949],[69.9112,44.1705],[69.8047,44.6633],[69.5162,45.3888],[69.297,45.7926],[69.1708,45.9369],[74.1843,45.9559],[74.0564,45.7768],[74.0304,45.5358],[74.0531,45.3708],[74.0941,45.2693],[73.8468,45.2583],[73.8132,45.1722],[73.8998,45.0776],[74.0946,45.0599],[74.1116,44.9736],[74.1556,44.9076],[74.5396,44.6553],[74.5574,44.5167],[74.6106,44.4129],[74.7587,44.3134],[74.9786,44.2911],[75.1488,44.2208],[75.3265,44.0783],[75.3184,43.9669],[75.273,43.8771],[75.018,43.5627],[75.1832,43.5223],[75.2226,43.5337],[75.2542,43.5036],[75.344,43.5033],[75.4282,43.4685],[75.3603,43.3967],[75.2971,43.2977],[75.3356,43.1951],[75.3654,43.1578],[75.4515,43.1062],[75.5681,43.0705],[75.6511,43.0171],[75.5826,42.9803],[75.7735,42.9598],[75.8071,42.9368],[75.7706,42.9256],[75.7276,42.8487],[75.6462,42.8061],[75.5559,42.8252],[75.1786,42.8497],[74.8629,42.9758],[74.7139,42.9999],[74.6113,43.0582],[74.5582,43.115],[74.4006,43.1595],[74.3488,43.191],[74.2587,43.2158],[74.1788,43.2617],[74.2166,43.2169],[74.2139,43.2026],[74.0399,43.1819],[73.9653,43.2169],[73.9351,43.1997],[73.9017,43.131],[73.8643,43.1161],[73.8056,43.1147],[73.5709,43.0319],[73.493,42.895],[73.5036,42.7941],[73.4127,42.6273],[73.4176,42.5562],[73.5055,42.4209],[73.5051,42.4029],[73.3262,42.4287],[73.3144,42.4416],[73.3166,42.4937],[73.2783,42.5134],[73.1891,42.5208],[73.1151,42.5508],[72.9423,42.536],[72.8745,42.544],[72.8152,42.573],[72.7806,42.6204],[72.7258,42.6529],[72.5838,42.6783],[72.4767,42.6826],[72.2924,42.7611],[72.1641,42.7651],[72.1049,42.7503],[71.8477,42.8341],[71.6935,42.8118],[71.5836,42.7596],[71.5538,42.7609],[71.5042,42.7896],[71.4046,42.7949],[71.3298,42.737],[71.2625,42.7536],[71.2454,42.7471],[71.2114,42.7052],[71.149,42.6779],[71.1428,42.6025],[71.0032,42.5635],[71.0127,42.526],[71.0579,42.4934],[71.0642,42.4703],[71.041,42.4548],[70.9771,42.4788],[70.962,42.4681],[70.9299,42.4123],[70.9398,42.3878],[70.8888,42.3386]]]}},{"type":"Feature","id":"Karaganda","properties":{"id":"Karaganda","iso_code":"KZ-KAR","name":"Karaganda","name_full":"Karaganda","name_ja":"カラガンダ州","center_lonlat":[71.0197,48.1746]},"geometry":{"type":"Polygon","coordinates":[[[68.0966,50.5055],[68.0724,50.5752],[68.0312,50.6139],[68.384,50.6157],[68.5656,50.6946],[68.7781,50.7536],[68.9954,50.6993],[68.9885,50.59],[68.945,50.4834],[68.9254,50.3967],[68.8778,50.279],[68.8209,50.187],[69.1563,50.1164],[69.2709,50.1364],[69.3278,50.1619],[69.3129,50.2214],[69.3423,50.2039],[69.3949,50.2041],[69.5008,50.331],[69.5737,50.3408],[69.5884,50.3052],[69.656,50.3157],[69.7258,50.2529],[69.7632,50.2446],[69.751,50.188],[69.83,50.1726],[70.1795,50.2243],[70.2471,50.2216],[70.2712,50.1838],[70.3263,50.1486],[70.2499,50.0651],[70.291,49.9871],[70.6144,50.0728],[70.6742,50.2351],[70.8091,50.2692],[70.8929,50.2169],[70.9066,50.3142],[70.9503,50.4145],[71.0474,50.4336],[71.1479,50.4703],[71.1906,50.4943],[71.184,50.5244],[71.2126,50.5427],[71.3222,50.5603],[71.4181,50.5986],[71.5146,50.7042],[71.6238,50.7376],[71.6365,50.7615],[71.6749,50.7577],[71.7028,50.7387],[71.7572,50.7422],[71.7855,50.7167],[71.8309,50.7175],[71.9403,50.6504],[71.8919,50.594],[71.9172,50.5804],[71.886,50.4654],[71.854,50.4367],[71.8565,50.3979],[71.9009,50.4167],[72.0098,50.4316],[72.2755,50.415],[72.2918,50.5202],[72.3397,50.5313],[72.3772,50.5615],[72.4998,50.5296],[72.555,50.5646],[72.5173,50.5809],[72.5127,50.6192],[72.5415,50.6385],[72.5428,50.6764],[72.6536,50.7171],[72.7762,50.7336],[72.8199,50.776],[72.8227,50.8089],[72.9004,50.8689],[73.071,50.8443],[73.0986,50.8696],[73.2416,50.9164],[73.2239,50.9494],[73.4571,51.0059],[73.6096,51.0973],[73.5648,51.1197],[73.47,51.1408],[73.4173,51.1011],[73.3615,51.0865],[73.3653,51.1071],[73.3401,51.1466],[73.2692,51.2243],[73.2915,51.2589],[73.3437,51.2526],[73.5263,51.273],[73.7139,51.2565],[74.0342,51.1783],[74.0853,51.0834],[74.0944,51.0372],[74.0678,50.9843],[74.033,50.8004],[73.9859,50.7855],[73.9983,50.7119],[73.9737,50.6442],[74.0822,50.5775],[74.32,50.5974],[74.3976,50.6128],[74.4501,50.6386],[74.4796,50.6172],[74.6602,50.5743],[74.6482,50.4938],[74.7156,50.4458],[74.8083,50.4986],[74.9125,50.4334],[74.9497,50.4305],[75.0008,50.3898],[75.0346,50.3464],[75.0111,50.3291],[75.0787,50.2705],[75.1619,50.2281],[75.0543,50.1754],[74.9505,50.1448],[74.8898,50.0887],[74.95,50.0221],[75.0392,50.0027],[75.2745,50.096],[75.3755,50.1502],[75.6553,50.1498],[75.7129,50.1959],[75.7958,50.18],[76.1775,50.2243],[76.2987,50.1913],[76.3671,50.268],[76.4734,50.2909],[76.5837,50.2968],[76.7054,50.2681],[76.7632,50.4892],[76.98,50.6353],[77.1191,50.6295],[77.2051,50.5725],[77.4041,50.5298],[77.6238,50.461],[77.6693,50.3886],[77.657,50.2906],[77.672,50.2304],[77.7329,50.2026],[77.6703,50.125],[77.4484,49.986],[77.2451,49.9338],[77.1941,49.8995],[77.1854,49.8752],[77.1958,49.7488],[77.1692,49.645],[76.972,49.5455],[76.7693,49.4916],[76.6301,49.3523],[76.6923,49.2833],[76.8047,49.242],[76.9036,49.1732],[76.9078,49.1322],[77.0466,49.0532],[76.9794,49.0086],[76.8855,48.9826],[76.8883,48.8625],[76.9717,48.8047],[77.1951,48.8231],[77.3613,48.8165],[77.3734,48.7139],[77.3472,48.6129],[77.2575,48.5443],[77.1268,48.49],[77.021,48.4861],[76.9881,48.4513],[76.9718,48.4071],[76.9266,48.3833],[76.9526,48.3506],[77.0308,48.3201],[77.0557,48.2811],[77.1571,48.2762],[77.248,48.2496],[77.1489,48.2232],[77.1713,48.1483],[77.2898,48.1011],[77.4093,48.0711],[77.2711,48.0196],[77.2325,47.9328],[77.164,47.8598],[77.0718,47.6257],[77.0978,47.6033],[77.16,47.4286],[76.982,47.3943],[76.9845,47.3561],[76.9642,47.3015],[76.9231,47.2609],[76.8764,47.2447],[76.9315,47.222],[77.0577,47.1273],[77.2643,47.089],[77.3162,47.1639],[77.5809,47.1748],[77.6111,46.8167],[77.5996,46.6758],[77.4916,46.6402],[77.2836,46.6118],[77.2277,46.5586],[77.1597,46.5466],[77.134,46.554],[77.1339,46.5739],[77.0627,46.6356],[77.0192,46.6469],[76.9204,46.6368],[76.8402,46.6907],[76.8254,46.6837],[76.8329,46.6525],[76.9353,46.5602],[76.7301,46.6314],[76.7156,46.6496],[76.73,46.6655],[76.7224,46.6837],[76.682,46.6658],[76.5972,46.6758],[76.548,46.661],[76.526,46.6462],[76.5202,46.6136],[76.407,46.6626],[76.4021,46.6446],[76.3821,46.6548],[76.3285,46.6499],[76.161,46.6813],[75.896,46.69],[75.6361,46.6699],[75.4028,46.6795],[74.7619,46.3995],[74.1843,45.9559],[69.1708,45.9369],[67.2757,45.9577],[67.2478,46.0571],[66.9789,46.0561],[65.5531,46.2908],[65.3425,46.3608],[65.1,46.5113],[65.0132,46.5174],[63.8186,46.8502],[63.7881,46.8689],[63.7325,46.8576],[63.6006,46.8661],[63.3503,46.9477],[63.2098,46.9612],[62.9504,47.0801],[62.6522,47.048],[62.6697,47.0918],[62.8421,47.1839],[64.1063,47.8056],[64.2036,47.8785],[63.9705,48.1512],[64.2091,48.2991],[64.2168,48.4022],[64.4316,48.4769],[64.5472,48.5023],[64.5034,48.572],[64.5133,48.6256],[64.506,48.6537],[64.6246,48.6568],[64.7413,48.8405],[65.0714,48.8768],[65.5242,48.8328],[65.7348,48.8619],[65.8281,48.9377],[65.9621,48.9846],[66.1591,49.0024],[66.5064,49.2107],[66.6203,49.2342],[66.6696,49.3316],[66.7844,49.3623],[66.8725,49.4422],[67.5252,49.834],[67.7621,50.0299],[67.7679,50.0812],[67.75,50.1088],[67.7683,50.1334],[67.7553,50.1535],[67.7556,50.1893],[68.1088,50.2646],[68.2104,50.3314],[68.2729,50.4119],[68.1715,50.4564],[68.0966,50.5055]]]}},{"type":"Feature","id":"Kostanay","properties":{"id":"Kostanay","iso_code":"KZ-KUS","name":"Kostanay","name_full":"Kostanay","name_ja":"コスタナイ州","center_lonlat":[64.056,51.5743]},"geometry":{"type":"Polygon","coordinates":[[[66.0978,54.6372],[66.2285,54.2973],[66.1121,54.2658],[66.1736,54.2155],[66.2928,54.1841],[66.3719,54.1024],[66.1279,54.0356],[66.0198,53.9939],[66.043,53.9071],[66.0951,53.8109],[66.1615,53.804],[66.2308,53.7441],[66.2117,53.6402],[66.1199,53.5797],[66.1589,53.4953],[66.2877,53.4795],[66.3218,53.3624],[66.3246,53.2562],[66.3815,53.1928],[66.474,53.139],[66.3814,53.0983],[66.1632,53.0793],[66.1059,53.0096],[66.1195,52.973],[66.1532,52.9484],[66.182,52.9008],[66.1809,52.8542],[66.1697,52.7791],[66.092,52.7275],[66.0595,52.5708],[66.0529,52.4021],[66.0372,52.1783],[65.9566,52.1199],[65.9014,52.026],[65.8605,51.8941],[65.7081,51.7895],[65.514,51.7505],[65.444,51.7547],[65.4301,51.694],[65.5901,51.6251],[65.6445,51.557],[65.6251,51.4507],[65.5917,51.3734],[65.62,51.3529],[65.5033,51.262],[65.5413,51.227],[65.5328,51.1656],[65.7084,50.9738],[65.7209,50.7938],[65.8498,50.8005],[65.9409,50.8848],[66.0602,50.8975],[66.1548,50.8536],[66.1755,50.7912],[66.2142,50.7711],[66.3135,50.7731],[66.3813,50.7095],[66.477,50.6641],[66.8349,50.5866],[67.1246,50.6179],[67.2331,50.5628],[67.2329,50.4826],[67.1882,50.4325],[67.2351,50.3842],[67.3341,50.3325],[67.5985,50.4144],[67.8583,50.4377],[68.0223,50.4694],[68.0966,50.5055],[68.1715,50.4564],[68.2729,50.4119],[68.2104,50.3314],[68.1088,50.2646],[67.7556,50.1893],[67.7553,50.1535],[67.7683,50.1334],[67.75,50.1088],[67.7679,50.0812],[67.7621,50.0299],[67.5252,49.834],[66.8725,49.4422],[66.7844,49.3623],[66.6696,49.3316],[66.6203,49.2342],[66.5064,49.2107],[66.1591,49.0024],[65.9621,48.9846],[65.8281,48.9377],[65.7348,48.8619],[65.5242,48.8328],[65.0714,48.8768],[64.7413,48.8405],[64.6246,48.6568],[64.506,48.6537],[64.5133,48.6256],[64.5034,48.572],[64.5472,48.5023],[64.4316,48.4769],[64.2168,48.4022],[64.2091,48.2991],[63.9705,48.1512],[63.6615,48.4697],[63.0297,48.6919],[63.0556,48.7893],[63.0309,48.863],[62.906,48.8834],[62.8166,48.8513],[62.6645,48.8783],[62.4471,49.0506],[62.3733,49.167],[62.2776,49.1861],[62.3839,49.2195],[62.485,49.2281],[62.2936,49.4438],[62.2791,49.4884],[62.3217,49.5245],[62.4529,49.5205],[62.4129,49.6009],[62.4595,49.6868],[62.558,49.7509],[62.6106,49.8551],[62.714,49.9083],[62.8196,49.8743],[62.9131,49.8972],[62.8897,50.0242],[62.6928,50.2224],[62.5342,50.439],[62.4457,50.6748],[62.3488,50.6729],[62.3137,50.696],[62.3039,50.7543],[62.3752,50.8506],[62.2391,50.9457],[62.2604,51.0115],[62.2939,51.0397],[62.1544,51.1104],[62.0301,51.0652],[61.9596,51.1289],[61.9245,51.2395],[61.8733,51.2959],[61.8138,51.2692],[61.6463,51.2632],[61.563,51.2955],[61.4738,51.4258],[61.3562,51.4597],[61.3049,51.4529],[61.233,51.4706],[61.164,51.4671],[61.0233,51.4855],[60.9446,51.5444],[60.9374,51.6112],[60.5151,51.6179],[60.4847,51.651],[60.3759,51.6625],[60.3551,51.6714],[60.356,51.6923],[60.4374,51.7284],[60.4402,51.7539],[60.4755,51.7762],[60.4798,51.7843],[60.4521,51.8055],[60.2745,51.8328],[60.1381,51.8889],[60.1178,51.8636],[60.0608,51.8587],[60.0401,51.8712],[59.9857,51.9523],[60.0032,51.9926],[60.2028,51.9927],[60.4258,52.1296],[60.5065,52.1516],[60.6722,52.1443],[60.7228,52.1696],[60.7812,52.2206],[60.8967,52.2547],[61.0399,52.335],[60.9614,52.402],[60.9365,52.4886],[60.8149,52.5219],[60.8031,52.6277],[60.7245,52.6262],[60.6726,52.6722],[60.6962,52.7349],[60.8291,52.7716],[60.8849,52.8253],[61.0584,52.9222],[60.9746,52.9712],[61.0886,52.9781],[61.1558,53.0097],[61.1903,53.0131],[61.2873,52.9852],[61.3494,52.9849],[61.4483,53.0214],[61.6056,52.9483],[61.6559,52.9709],[61.8198,52.9782],[61.9592,52.9349],[62.0348,52.9527],[62.0942,52.9925],[62.116,53.0646],[62.0832,53.1133],[62.0507,53.1248],[61.7642,53.1695],[61.6431,53.2433],[61.5143,53.2087],[61.3798,53.2619],[61.2029,53.2764],[61.1627,53.2992],[61.1337,53.3481],[61.1372,53.3731],[61.2009,53.4362],[61.2182,53.4927],[61.2353,53.503],[61.2877,53.5032],[61.3535,53.4498],[61.4123,53.4358],[61.5553,53.5057],[61.5284,53.5717],[61.503,53.589],[61.3612,53.5826],[61.3161,53.5452],[61.2807,53.5424],[61.1404,53.5627],[61.0964,53.5992],[60.9073,53.6136],[60.8802,53.6328],[60.9047,53.6571],[61.0076,53.6357],[61.0427,53.6542],[61.0522,53.7033],[61.1069,53.7124],[61.1275,53.7472],[61.1991,53.7971],[61.202,53.8196],[61.085,53.8753],[60.978,53.8826],[60.9718,53.9158],[60.9961,53.9414],[61.0638,53.9553],[61.1452,53.9501],[61.1762,53.9165],[61.2108,53.9077],[61.2305,53.9431],[61.1935,54.0183],[61.2498,54.0207],[61.3115,54.0599],[61.3377,54.0632],[61.4177,54.056],[61.4786,54.0029],[61.5528,53.9925],[61.5562,53.9609],[61.5818,53.9477],[61.611,53.9596],[61.6199,53.9926],[61.7153,53.9926],[61.7421,53.9816],[61.7913,54.0008],[61.8205,53.9926],[61.8362,53.9511],[61.8564,53.9427],[62.0036,53.932],[62.0026,54.0174],[62.4127,54.0266],[62.4461,54.0145],[62.444,53.9923],[62.3996,53.9745],[62.3866,53.9613],[62.39,53.9416],[62.5253,53.8719],[62.5451,53.8837],[62.5318,53.9304],[62.5865,53.9698],[62.5506,54.0268],[62.581,54.0536],[62.6291,54.0712],[62.8121,54.095],[62.9024,54.0785],[62.9855,54.0929],[63.0847,54.0856],[63.1274,54.1104],[63.11,54.158],[63.1238,54.1741],[63.2163,54.1787],[63.3683,54.1628],[63.4776,54.204],[63.5449,54.2065],[63.7086,54.2504],[63.744,54.2487],[63.8975,54.1942],[63.908,54.2075],[64.0079,54.2287],[64.0254,54.2552],[63.979,54.2965],[64.0045,54.3197],[64.0595,54.3037],[64.0937,54.3242],[64.1766,54.3205],[64.294,54.3534],[64.3338,54.3446],[64.4325,54.3515],[64.4671,54.372],[64.5114,54.3651],[64.5785,54.3856],[64.6527,54.3471],[64.7202,54.3338],[64.9106,54.4027],[64.9777,54.3866],[65.0854,54.3086],[65.1842,54.3104],[65.2129,54.343],[65.1813,54.4491],[65.2023,54.4725],[65.1982,54.5162],[65.3416,54.5615],[65.449,54.5566],[65.4498,54.6275],[65.5746,54.6255],[65.713,54.5972],[65.744,54.6009],[65.827,54.6727],[65.9328,54.7026],[65.9519,54.6937],[65.9607,54.628],[65.9775,54.6117],[66.0978,54.6372]]]}},{"type":"Feature","id":"Kyzylorda","properties":{"id":"Kyzylorda","iso_code":"KZ-KZY","name":"Kyzylorda","name_full":"Kyzylorda","name_ja":"クズロルダ州","center_lonlat":[63.67,45.1614]},"geometry":{"type":"Polygon","coordinates":[[[59.0551,45.324],[59.0272,45.8181],[59.1126,46.066],[59.6684,46.5802],[59.9209,46.7598],[60.1691,46.8846],[60.4114,46.9238],[60.4406,47.0463],[60.5378,47.112],[60.7647,47.0999],[61.0166,47.3612],[61.1084,47.5282],[61.3271,47.7335],[61.5738,47.776],[61.859,47.7765],[62.0484,47.5707],[62.1703,47.544],[62.3195,47.4455],[62.4672,47.2918],[62.4499,47.2482],[62.6374,47.2192],[62.7526,47.1809],[62.8421,47.1839],[62.6697,47.0918],[62.6522,47.048],[62.9504,47.0801],[63.2098,46.9612],[63.3503,46.9477],[63.6006,46.8661],[63.7325,46.8576],[63.7881,46.8689],[63.8186,46.8502],[65.0132,46.5174],[65.1,46.5113],[65.3425,46.3608],[65.5531,46.2908],[66.9789,46.0561],[67.2478,46.0571],[67.2757,45.9577],[67.2892,45.8609],[67.3965,45.8007],[67.4361,45.6984],[67.3592,45.6085],[67.2947,45.3711],[67.2922,45.2535],[67.3844,45.1976],[67.5163,45.14],[67.5935,45.0717],[67.6073,44.3104],[67.7025,44.2577],[67.7446,44.2651],[67.8637,44.2136],[67.8739,44.1836],[67.9685,44.1003],[68.2023,43.9731],[68.2029,43.908],[68.1115,43.9076],[68.0448,43.8496],[68.0701,43.811],[68.0804,43.743],[68.041,43.6646],[67.9386,43.7072],[67.932,43.6048],[67.8606,43.512],[67.8353,43.4226],[67.7481,43.3624],[67.7634,43.2652],[67.7931,43.3482],[67.8295,43.3604],[67.8284,43.3236],[67.8671,43.3215],[67.8736,43.2517],[67.9713,43.1957],[67.9244,43.1604],[67.4346,42.9854],[66.9497,42.7493],[66.7361,42.6089],[66.6475,42.6347],[66.4966,42.5787],[66.1843,42.3529],[66.0132,42.3729],[66.0196,42.4168],[66.0432,42.4237],[66.0532,42.4409],[66.1013,42.9903],[65.7952,42.8772],[65.5169,43.2972],[65.2714,43.417],[64.9229,43.7191],[64.855,43.7129],[64.4267,43.547],[63.208,43.6275],[62.0261,43.4806],[61.9857,43.4933],[61.1617,44.1681],[61.1029,44.2361],[61.0802,44.3355],[61.0363,44.3828],[59.0551,45.324]],[[63.3839,45.5658],[63.5574,45.5844],[63.6619,45.6156],[63.7549,45.66],[63.834,45.7159],[63.8967,45.7817],[63.9409,45.8557],[63.9641,45.9362],[63.9641,46.0205],[63.9409,46.101],[63.8967,46.175],[63.834,46.2407],[63.7549,46.2967],[63.6619,46.341],[63.5574,46.3723],[63.4435,46.3887],[63.3243,46.3887],[63.2105,46.3723],[63.1059,46.341],[63.0129,46.2967],[62.9339,46.2407],[62.871,46.175],[62.8269,46.101],[62.8036,46.0205],[62.8036,45.9362],[62.8269,45.8557],[62.871,45.7817],[62.9339,45.7159],[63.0578,45.6363],[63.1569,45.5983],[63.2664,45.5742],[63.3839,45.5658]]]}},{"type":"Feature","id":"Mangystau","properties":{"id":"Mangystau","iso_code":"KZ-MAN","name":"Mangystau","name_full":"Mangystau","name_ja":"マンギスタウ州","center_lonlat":[53.9485,44.0998]},"geometry":{"type":"MultiPolygon","coordinates":[[[[52.8619,45.7675],[53.039,45.7384],[53.5361,45.8257],[53.7576,45.9214],[53.6942,45.9716],[53.7885,46.0384],[53.9491,46.1875],[54.0284,46.2054],[54.0857,46.2024],[54.1196,46.2218],[54.9034,46.3339],[55.2466,46.346],[55.4769,46.4804],[55.6753,46.358],[55.7443,46.3877],[55.8266,46.332],[55.8316,46.2351],[55.9426,46.1989],[56.0403,46.2068],[56.0749,46.1633],[56.1325,46.1354],[56.2366,46.1404],[56.3132,46.1192],[56.3638,46.1207],[56.4732,46.0845],[56.5412,45.9538],[56.7076,45.1619],[55.9758,44.9944],[55.9784,41.3217],[55.8766,41.3245],[55.7873,41.2917],[55.6355,41.2644],[55.5093,41.2589],[55.4295,41.2908],[55.3726,41.3756],[55.2284,41.4728],[55.1,41.6442],[54.9507,41.7956],[54.935,41.8337],[54.9408,41.8896],[54.9071,41.9321],[54.7383,42.0482],[54.1953,42.3181],[54.1226,42.3376],[54.0472,42.3454],[53.4123,42.2582],[52.9787,42.1266],[52.7647,41.9938],[52.4377,41.7489],[52.4358,41.7685],[52.491,41.902],[52.4741,41.9626],[52.4338,42.0004],[52.4368,42.0578],[52.402,42.0925],[52.4363,42.1799],[52.4845,42.2017],[52.5941,42.3353],[52.6011,42.3886],[52.6428,42.4283],[52.6763,42.5385],[52.6633,42.6127],[52.6185,42.6784],[52.5757,42.6986],[52.5638,42.7423],[52.5745,42.7498],[52.6004,42.6977],[52.6633,42.6679],[52.7105,42.5854],[52.7446,42.6574],[52.7363,42.7014],[52.7129,42.7308],[52.6292,42.7498],[52.625,42.7747],[52.4709,42.8262],[52.3451,42.8294],[52.2996,42.7908],[52.273,42.7988],[52.2063,42.8661],[52.1692,42.887],[52.0584,42.8785],[51.9328,42.8349],[51.9124,42.8424],[51.8026,42.9587],[51.772,43.031],[51.7114,43.0909],[51.6758,43.0999],[51.6794,43.1597],[51.6511,43.1914],[51.6123,43.1771],[51.5398,43.175],[51.5086,43.1545],[51.4603,43.1688],[51.2757,43.1545],[51.2627,43.1646],[51.2663,43.1876],[51.3128,43.3112],[51.3147,43.4625],[51.2786,43.5176],[51.273,43.5586],[51.2181,43.5933],[51.2069,43.6245],[51.156,43.6248],[51.115,43.6608],[51.0231,43.801],[50.9911,43.8671],[50.9911,43.9081],[50.9533,43.9388],[50.9017,44.0111],[50.8608,44.0254],[50.8472,44.1893],[50.7813,44.2359],[50.6963,44.2644],[50.3446,44.3113],[50.2777,44.3365],[50.2375,44.3693],[50.2246,44.5677],[50.2376,44.5865],[50.2541,44.5575],[50.2683,44.5705],[50.3112,44.6623],[50.34,44.6479],[50.4978,44.6258],[50.617,44.6397],[50.6275,44.624],[50.7305,44.6206],[50.7568,44.605],[50.7842,44.6327],[50.8729,44.6289],[50.9605,44.5697],[51.0047,44.566],[51.0086,44.5515],[50.9911,44.5455],[51.0073,44.5288],[51.1433,44.4848],[51.2253,44.4997],[51.2922,44.5523],[51.3662,44.5602],[51.3815,44.5598],[51.3738,44.5277],[51.471,44.5319],[51.5603,44.5114],[51.5739,44.5239],[51.5544,44.5505],[51.439,44.6101],[51.3193,44.5964],[51.2918,44.6145],[51.2344,44.7191],[51.096,44.7969],[51.0496,44.8035],[50.9707,44.8472],[50.9624,44.8637],[50.9655,44.9067],[50.9898,44.9189],[50.994,44.9365],[50.9544,44.9522],[50.9593,44.9788],[51.0086,44.9958],[51.0652,44.997],[51.1072,45.0322],[51.1965,45.0656],[51.2512,45.0261],[51.273,45.0246],[51.2749,45.0568],[51.2434,45.1011],[51.258,45.1345],[51.2444,45.1618],[51.3093,45.2573],[51.3972,45.3326],[51.4157,45.39],[51.4567,45.3474],[51.5437,45.3349],[51.5929,45.3447],[51.6677,45.3896],[51.7,45.3921],[51.7583,45.4573],[51.7925,45.4055],[51.8784,45.3952],[51.9401,45.3673],[52.0088,45.3952],[52.0941,45.3815],[52.5193,45.4089],[52.9097,45.3127],[53.0022,45.3201],[53.1082,45.2996],[53.2181,45.3406],[53.2455,45.3338],[53.2612,45.3428],[53.2659,45.3611],[53.2476,45.3697],[53.1429,45.384],[53.1121,45.4062],[53.0357,45.4188],[52.8757,45.4711],[52.8501,45.4942],[52.7385,45.5256],[52.7319,45.5541],[52.7456,45.6391],[52.7922,45.6629],[52.8619,45.7675]]],[[[52.6929,45.4597],[52.7025,45.4052],[52.6771,45.397],[52.5886,45.4328],[52.552,45.4783],[52.5935,45.509],[52.5999,45.5275],[52.6355,45.5256],[52.673,45.5039],[52.6929,45.4597]]],[[[50.1703,44.8301],[50.1431,44.8179],[50.0794,44.8335],[50.0418,44.8949],[49.9861,44.9468],[49.9862,44.968],[50.052,45.0656],[50.1135,45.0799],[50.1122,45.0625],[50.0536,45.0388],[50.021,44.9758],[50.0212,44.944],[50.0428,44.9245],[50.0583,44.9291],[50.0734,44.8618],[50.1414,44.8403],[50.1892,44.8615],[50.1703,44.8301]]],[[[50.2603,45.0099],[50.2771,45.0715],[50.3484,45.0849],[50.3537,45.0731],[50.3263,45.0331],[50.3246,44.9732],[50.2815,44.9555],[50.2644,44.9638],[50.2603,45.0099]]],[[[50.7437,44.8861],[50.7608,44.8649],[50.6978,44.8579],[50.7019,44.8806],[50.6887,44.8891],[50.6865,44.9117],[50.6408,44.9333],[50.6279,44.967],[50.678,44.9356],[50.7137,44.9538],[50.7346,44.9299],[50.7437,44.8861]]]]}},{"type":"Feature","id":"North Kazakhstan","properties":{"id":"North Kazakhstan","iso_code":"KZ-SEV","name":"North Kazakhstan","name_full":"North Kazakhstan","name_ja":"北カザフスタン州","center_lonlat":[69.267,53.8341]},"geometry":{"type":"Polygon","coordinates":[[[73.4507,53.4486],[73.5761,53.2926],[73.5114,53.2855],[73.4531,53.2592],[73.4461,53.1825],[73.486,53.1286],[73.6542,53.2218],[73.7688,53.1926],[73.5411,52.9413],[73.6335,52.9677],[73.6844,52.9544],[73.6614,52.9136],[73.6448,52.8282],[73.7672,52.811],[73.8408,52.8954],[73.9546,52.9123],[74.0316,52.8547],[74.003,52.7785],[73.9704,52.7498],[73.9077,52.6388],[73.875,52.6756],[73.7361,52.7191],[73.7626,52.636],[73.8972,52.61],[73.9678,52.5677],[73.6572,52.582],[73.4764,52.668],[73.0617,52.7556],[72.9626,52.7618],[72.9411,52.8834],[72.8985,52.9427],[72.8952,52.9947],[72.8397,53.0414],[72.8077,53.0188],[72.6293,52.9936],[72.5233,53.005],[72.4425,52.9928],[72.2389,52.9072],[71.9238,52.9125],[71.7868,52.942],[71.7311,53.0115],[71.7844,53.0628],[71.7924,53.1623],[71.8251,53.1969],[71.7815,53.241],[71.6795,53.3075],[71.6084,53.3798],[71.3134,53.2895],[71.098,53.328],[71.0969,53.3838],[71.0597,53.4134],[70.6722,53.3951],[70.6334,53.3251],[70.5583,53.3065],[70.5357,53.2394],[70.4654,53.2617],[70.4044,53.3232],[70.3053,53.366],[70.1132,53.3629],[70.187,53.4409],[70.2006,53.4789],[70.1611,53.4938],[70.0044,53.5015],[69.9696,53.4863],[69.9654,53.5522],[69.9293,53.6344],[69.897,53.6636],[69.8376,53.6877],[69.6651,53.6834],[69.5018,53.6234],[69.4565,53.5662],[69.5065,53.5374],[69.4963,53.5019],[69.4365,53.4994],[69.4027,53.5751],[69.2296,53.668],[69.122,53.6167],[69.0411,53.6207],[69.0348,53.6395],[69.0008,53.6447],[68.8614,53.6236],[68.8988,53.5563],[68.7352,53.5343],[68.7498,53.4966],[68.7752,53.4844],[68.71,53.4709],[68.6547,53.426],[68.5824,53.4007],[68.6488,53.3184],[68.7184,53.2714],[68.822,53.2429],[68.8671,53.169],[68.9226,53.1115],[68.8922,53.0031],[68.8155,52.9622],[68.8536,52.7985],[68.732,52.7633],[68.6625,52.7232],[68.5752,52.6965],[68.525,52.6309],[68.4598,52.5772],[68.4137,52.5792],[68.2102,52.5162],[68.147,52.5121],[68.1513,52.4659],[68.225,52.4064],[68.1226,52.3332],[68.0469,52.3201],[68.0487,52.2935],[68.0263,52.2636],[67.9309,52.2825],[67.7002,52.3723],[67.5733,52.396],[67.4658,52.3826],[67.4529,52.2352],[67.148,52.2084],[66.8129,52.2481],[66.6913,52.2506],[66.641,52.3213],[66.4086,52.3167],[66.3102,52.2963],[66.2355,52.3687],[66.0529,52.4021],[66.0595,52.5708],[66.092,52.7275],[66.1697,52.7791],[66.1809,52.8542],[66.182,52.9008],[66.1532,52.9484],[66.1195,52.973],[66.1059,53.0096],[66.1632,53.0793],[66.3814,53.0983],[66.474,53.139],[66.3815,53.1928],[66.3246,53.2562],[66.3218,53.3624],[66.2877,53.4795],[66.1589,53.4953],[66.1199,53.5797],[66.2117,53.6402],[66.2308,53.7441],[66.1615,53.804],[66.0951,53.8109],[66.043,53.9071],[66.0198,53.9939],[66.1279,54.0356],[66.3719,54.1024],[66.2928,54.1841],[66.1736,54.2155],[66.1121,54.2658],[66.2285,54.2973],[66.0978,54.6372],[66.4465,54.7109],[66.7003,54.7192],[66.7818,54.7582],[66.9773,54.7637],[67.0985,54.792],[67.2133,54.7972],[67.2839,54.8533],[67.3113,54.8599],[67.3779,54.8491],[67.6227,54.8539],[67.6985,54.8679],[67.7579,54.8978],[67.8173,54.9522],[67.8822,54.9704],[68.0097,54.943],[68.1661,54.9561],[68.1836,54.9671],[68.1909,54.9926],[68.2218,55.0078],[68.2348,55.0385],[68.3042,55.0526],[68.3082,55.0728],[68.1905,55.1254],[68.207,55.1542],[68.1771,55.1705],[68.2624,55.194],[68.3058,55.1814],[68.3768,55.1951],[68.4773,55.1828],[68.6053,55.1956],[68.6182,55.2154],[68.6137,55.2431],[68.6764,55.2732],[68.6823,55.3272],[68.7006,55.3605],[68.846,55.3368],[68.9228,55.2764],[68.9706,55.2786],[68.9833,55.3086],[68.9773,55.3467],[68.9178,55.3709],[68.9024,55.4125],[68.9273,55.4337],[69.1226,55.3979],[69.1861,55.3258],[69.3346,55.3851],[69.4773,55.3494],[69.6739,55.334],[69.8023,55.2921],[69.9403,55.2002],[70.0586,55.187],[70.2137,55.132],[70.2846,55.1832],[70.3825,55.2062],[70.3881,55.2303],[70.4412,55.2833],[70.5613,55.2696],[70.6657,55.3092],[70.7776,55.307],[70.8204,55.2941],[70.7889,55.2655],[70.7821,55.2485],[70.7932,55.2332],[70.9601,55.1056],[70.9771,55.078],[70.957,54.9735],[70.9745,54.9469],[70.9459,54.8879],[70.99,54.8486],[71.006,54.7742],[71.0972,54.733],[71.2007,54.724],[71.2647,54.6617],[71.2523,54.6253],[71.1476,54.5914],[71.1412,54.5638],[71.1452,54.4806],[71.171,54.451],[71.1659,54.417],[71.198,54.3995],[71.1906,54.3182],[71.1163,54.3117],[71.0034,54.3331],[70.98,54.3251],[70.9708,54.305],[70.9771,54.2701],[71.0521,54.2632],[71.0564,54.2234],[71.044,54.1859],[71.0974,54.1651],[71.1437,54.1137],[71.1823,54.1016],[71.2181,54.1163],[71.3206,54.201],[71.4531,54.1813],[71.4771,54.1097],[71.5735,54.1292],[71.6472,54.1086],[71.7087,54.1322],[71.7154,54.2107],[71.7414,54.2424],[71.7625,54.2476],[71.9836,54.2316],[72.0187,54.215],[72.0995,54.1319],[72.1776,54.136],[72.1905,54.152],[72.1874,54.1794],[72.17,54.1968],[72.0667,54.2224],[72.0721,54.2627],[72.103,54.3116],[72.0271,54.3553],[72.0247,54.3709],[72.0432,54.378],[72.1848,54.3568],[72.2528,54.3035],[72.2787,54.2627],[72.3244,54.2535],[72.333,54.2238],[72.2986,54.1784],[72.4829,54.1356],[72.4667,54.1099],[72.4232,54.1087],[72.4079,54.0896],[72.3584,54.093],[72.3636,54.0595],[72.4187,54.016],[72.3728,53.9362],[72.373,53.9201],[72.3922,53.9082],[72.4767,53.9134],[72.5568,53.9772],[72.6737,53.9505],[72.7002,53.9576],[72.6948,53.9926],[72.6562,54.0425],[72.6318,54.0539],[72.5031,54.0509],[72.5274,54.1001],[72.5731,54.1287],[72.6242,54.135],[72.942,54.1218],[72.9684,54.1041],[72.9768,54.0477],[73.0237,54.034],[73.0628,53.9791],[73.3603,53.9384],[73.3739,53.9409],[73.3928,53.974],[73.4335,53.9707],[73.4816,53.9454],[73.518,53.956],[73.5283,54.0107],[73.5869,54.0194],[73.6044,54.0347],[73.5885,54.0662],[73.6015,54.0712],[73.6705,54.0759],[73.6849,54.0484],[73.7406,54.0579],[73.6829,53.8741],[73.6343,53.8574],[73.4853,53.8749],[73.4318,53.8654],[73.3912,53.8282],[73.4378,53.8085],[73.3474,53.7876],[73.3312,53.7752],[73.3066,53.6857],[73.2448,53.6748],[73.2204,53.6431],[73.2588,53.6063],[73.2306,53.5723],[73.3912,53.5202],[73.3472,53.4594],[73.4109,53.43],[73.4507,53.4486]]]}},{"type":"Feature","id":"Nur-Sultan","properties":{"id":"Nur-Sultan","iso_code":"KZ-AST","name":"Nur-Sultan","name_full":"Nur-Sultan","name_ja":"ヌル-スルタン","center_lonlat":[71.433,51.1494]},"geometry":{"type":"Polygon","coordinates":[[[71.3778,51.3059],[71.4257,51.2999],[71.5035,51.26],[71.5474,51.2181],[71.5813,51.2061],[71.6072,51.1602],[71.6012,51.0964],[71.5753,51.0365],[71.5274,50.9927],[71.4695,50.9747],[71.4257,50.9946],[71.2501,51.1563],[71.2521,51.2361],[71.3139,51.2879],[71.3778,51.3059]]]}},{"type":"Feature","id":"Pavlodar","properties":{"id":"Pavlodar","iso_code":"KZ-PAV","name":"Pavlodar","name_full":"Pavlodar","name_ja":"パブロダール州","center_lonlat":[76.2454,52.0537]},"geometry":{"type":"Polygon","coordinates":[[[79.3043,51.6864],[79.2844,51.6839],[79.2503,51.6032],[79.1085,51.5621],[79.0896,51.4899],[79.0411,51.4603],[78.9857,51.4359],[78.9525,51.4486],[78.8167,51.4379],[78.7725,51.3779],[78.8169,51.3685],[78.8074,51.3264],[78.758,51.2968],[78.4941,51.2076],[78.4321,51.2],[78.4049,51.2242],[78.3618,51.2151],[78.337,51.1834],[78.2263,51.1407],[78.1892,51.1419],[78.1072,51.09],[78.142,51.0477],[78.1345,51.0279],[78.2024,51.0023],[78.213,50.9642],[78.242,50.9524],[78.2825,50.8876],[78.3307,50.8795],[78.4274,50.8079],[78.6885,50.7011],[78.7243,50.5666],[78.7177,50.4639],[78.7655,50.4442],[78.8202,50.3512],[78.7639,50.2602],[78.6709,50.1558],[78.4728,50.0272],[78.1617,50.0797],[77.9462,50.1376],[77.8164,50.2086],[77.7329,50.2026],[77.672,50.2304],[77.657,50.2906],[77.6693,50.3886],[77.6238,50.461],[77.4041,50.5298],[77.2051,50.5725],[77.1191,50.6295],[76.98,50.6353],[76.7632,50.4892],[76.7054,50.2681],[76.5837,50.2968],[76.4734,50.2909],[76.3671,50.268],[76.2987,50.1913],[76.1775,50.2243],[75.7958,50.18],[75.7129,50.1959],[75.6553,50.1498],[75.3755,50.1502],[75.2745,50.096],[75.0392,50.0027],[74.95,50.0221],[74.8898,50.0887],[74.9505,50.1448],[75.0543,50.1754],[75.1619,50.2281],[75.0787,50.2705],[75.0111,50.3291],[75.0346,50.3464],[75.0008,50.3898],[74.9497,50.4305],[74.9125,50.4334],[74.8083,50.4986],[74.7156,50.4458],[74.6482,50.4938],[74.6602,50.5743],[74.4796,50.6172],[74.4501,50.6386],[74.3976,50.6128],[74.32,50.5974],[74.0822,50.5775],[73.9737,50.6442],[73.9983,50.7119],[73.9859,50.7855],[74.033,50.8004],[74.0678,50.9843],[74.0944,51.0372],[74.0853,51.0834],[74.0342,51.1783],[73.7139,51.2565],[73.7816,51.3066],[73.8523,51.4099],[73.9487,51.454],[74.1918,51.5044],[74.2736,51.5372],[74.0513,51.5992],[74.0259,51.6359],[73.8362,51.6234],[73.8328,51.7212],[73.9012,51.8269],[74.0524,51.9065],[74.0279,52.4681],[73.9974,52.5476],[73.9678,52.5677],[73.8972,52.61],[73.7626,52.636],[73.7361,52.7191],[73.875,52.6756],[73.9077,52.6388],[73.9704,52.7498],[74.003,52.7785],[74.0316,52.8547],[73.9546,52.9123],[73.8408,52.8954],[73.7672,52.811],[73.6448,52.8282],[73.6614,52.9136],[73.6844,52.9544],[73.6335,52.9677],[73.5411,52.9413],[73.7688,53.1926],[73.6542,53.2218],[73.486,53.1286],[73.4461,53.1825],[73.4531,53.2592],[73.5114,53.2855],[73.5761,53.2926],[73.4507,53.4486],[73.5465,53.5069],[73.5825,53.5586],[73.6407,53.5632],[73.6529,53.6092],[73.7365,53.6098],[73.7878,53.5951],[73.9042,53.6392],[74.058,53.6246],[74.0628,53.5732],[74.0769,53.5662],[74.1187,53.5695],[74.148,53.598],[74.2233,53.5946],[74.2505,53.5568],[74.2703,53.5532],[74.2696,53.5152],[74.3589,53.4661],[74.3884,53.4622],[74.4091,53.4776],[74.4569,53.5698],[74.4208,53.6031],[74.4385,53.6734],[74.4535,53.685],[74.6165,53.6807],[74.6545,53.7484],[74.7349,53.7652],[74.772,53.8309],[74.8885,53.8364],[75.0279,53.8079],[75.434,53.9865],[75.3607,54.0595],[75.4292,54.0901],[75.4998,54.1023],[75.6404,54.0989],[76.1838,54.2516],[76.1697,54.2914],[76.1771,54.3068],[76.2342,54.3474],[76.4331,54.3166],[76.4765,54.3231],[76.5619,54.3563],[76.6231,54.3559],[76.6409,54.3665],[76.6518,54.4223],[76.6728,54.4365],[76.7821,54.4395],[76.8959,54.4639],[76.9105,54.4546],[76.9036,54.4326],[76.8047,54.4101],[76.753,54.3767],[76.8342,54.3457],[76.8377,54.2969],[76.7823,54.2424],[76.7625,54.2026],[76.6646,54.1341],[76.6038,54.1354],[76.4765,54.164],[76.3767,54.1543],[76.4765,54.042],[76.4952,53.9923],[76.5257,53.9613],[77.6128,53.4428],[77.8668,53.2723],[78.4765,52.6379],[79.3043,51.6864]]]}},{"type":"Feature","id":"Turkistan","properties":{"id":"Turkistan","iso_code":"KZ-YUZ","name":"Turkistan","name_full":"Turkistan","name_ja":"南カザフスタン州","center_lonlat":[68.506,43.2079]},"geometry":{"type":"Polygon","coordinates":[[[70.8888,42.3386],[70.8527,42.3061],[70.8581,42.2911],[70.8978,42.2616],[70.9478,42.2481],[70.8424,42.1925],[70.7343,42.1973],[70.6102,42.0274],[70.579,42.0162],[70.5342,42.025],[70.5045,42.0685],[70.4628,42.0927],[70.3579,42.0622],[70.3151,42.0346],[70.2703,41.9656],[70.2042,41.9358],[70.1111,41.826],[70.028,41.78],[69.972,41.7646],[69.9124,41.7129],[69.6246,41.6683],[69.4773,41.5731],[69.3938,41.545],[69.3808,41.5188],[69.4024,41.4748],[69.3311,41.4779],[69.2629,41.4546],[69.2171,41.4601],[69.1627,41.4341],[69.1281,41.3951],[69.1095,41.4007],[69.0362,41.374],[69.0548,41.3154],[69.0312,41.2088],[68.9438,41.1649],[68.8802,41.1555],[68.8424,41.1101],[68.7738,41.0873],[68.7463,41.0638],[68.6894,40.9649],[68.6001,40.9301],[68.5892,40.9066],[68.5709,40.9135],[68.5719,40.8705],[68.5497,40.835],[68.5598,40.7513],[68.5746,40.7245],[68.6094,40.7158],[68.6274,40.6671],[68.6011,40.63],[68.6204,40.6222],[68.6142,40.6091],[68.593,40.5995],[68.5148,40.6191],[68.4617,40.5847],[68.2261,40.6789],[68.0675,40.788],[67.9909,40.8111],[68.0806,40.873],[68.1206,40.9653],[68.1209,40.9938],[68.0997,41.0136],[68.1313,41.0296],[68.1189,41.034],[68.1174,41.0667],[68.096,41.0651],[68.0821,41.0427],[68.0591,41.0548],[68.0344,41.0427],[68.0031,41.1156],[67.9589,41.1595],[67.9374,41.2004],[67.8349,41.1569],[67.7481,41.1841],[66.8153,41.1419],[66.733,41.1581],[66.6882,41.1992],[66.6026,41.4938],[66.5389,41.7408],[66.5041,41.9935],[66.0087,42.0027],[66.0132,42.3729],[66.1843,42.3529],[66.4966,42.5787],[66.6475,42.6347],[66.7361,42.6089],[66.9497,42.7493],[67.4346,42.9854],[67.9244,43.1604],[67.9713,43.1957],[67.8736,43.2517],[67.8671,43.3215],[67.8284,43.3236],[67.8295,43.3604],[67.7931,43.3482],[67.7634,43.2652],[67.7481,43.3624],[67.8353,43.4226],[67.8606,43.512],[67.932,43.6048],[67.9386,43.7072],[68.041,43.6646],[68.0804,43.743],[68.0701,43.811],[68.0448,43.8496],[68.1115,43.9076],[68.2029,43.908],[68.2023,43.9731],[67.9685,44.1003],[67.8739,44.1836],[67.8637,44.2136],[67.7446,44.2651],[67.7025,44.2577],[67.6073,44.3104],[67.5935,45.0717],[67.5163,45.14],[67.3844,45.1976],[67.2922,45.2535],[67.2947,45.3711],[67.3592,45.6085],[67.4361,45.6984],[67.3965,45.8007],[67.2892,45.8609],[67.2757,45.9577],[69.1708,45.9369],[69.297,45.7926],[69.5162,45.3888],[69.8047,44.6633],[69.9112,44.1705],[69.9171,44.0949],[69.8844,44.0596],[69.6424,43.5333],[69.531,43.4125],[69.5833,43.3973],[69.62,43.3713],[69.6149,43.3289],[69.6742,43.2641],[69.8223,43.2215],[69.9533,43.2073],[70.1032,43.1566],[70.1239,43.0931],[70.1571,43.0652],[70.1976,43.0696],[70.224,43.0482],[70.2019,43.015],[70.2562,42.9832],[70.2432,42.9561],[70.2672,42.9205],[70.2562,42.8477],[70.2679,42.7603],[70.3232,42.7011],[70.4372,42.6738],[70.5042,42.6301],[70.5751,42.5512],[70.6231,42.538],[70.725,42.4521],[70.7983,42.4302],[70.8032,42.4011],[70.8888,42.3386]]]}},{"type":"Feature","id":"West Kazakhstan","properties":{"id":"West Kazakhstan","iso_code":"KZ-ZAP","name":"West Kazakhstan","name_full":"West Kazakhstan","name_ja":"西カザフスタン州","center_lonlat":[50.6783,49.7819]},"geometry":{"type":"Polygon","coordinates":[[[54.5455,50.5305],[54.4742,50.4554],[54.4576,50.4046],[54.3915,50.3583],[54.4352,50.2557],[54.4238,50.1501],[54.4746,50.0898],[54.522,50.0693],[54.5512,50.0314],[54.514,49.9317],[54.4668,49.8696],[54.4532,49.8147],[54.2955,49.6923],[54.2926,49.6501],[54.1792,49.6127],[54.0059,49.6172],[53.9774,49.5822],[53.8559,49.5589],[53.806,49.5283],[53.7645,49.4715],[53.7134,49.4627],[53.7186,49.401],[53.671,49.2883],[53.6732,49.1844],[53.4798,49.0613],[53.4533,49.0379],[53.4657,49.0086],[53.434,48.9951],[53.3249,48.975],[52.9698,48.9741],[52.9134,48.9854],[52.7635,48.8621],[52.7711,48.7425],[52.6218,48.5882],[52.5898,48.4703],[52.5891,48.4262],[52.5251,48.4057],[52.1755,48.4833],[52.1377,48.4509],[51.9683,48.4648],[51.8113,48.5047],[51.8416,48.5834],[51.8303,48.6146],[51.7549,48.6309],[51.3699,48.663],[51.259,48.6359],[51.1557,48.6302],[51.0453,48.5685],[50.948,48.4823],[50.9013,48.4806],[50.7996,48.4345],[50.7261,48.4214],[49.9109,48.041],[49.4568,48.0139],[49.4321,47.9381],[48.9075,48.0601],[47.1121,48.2422],[47.0783,48.2753],[46.4783,48.4106],[46.7538,48.9141],[46.778,48.936],[46.93,49.004],[47.0209,49.0968],[47.04,49.1503],[47.0286,49.2015],[46.9792,49.2443],[46.8307,49.3183],[46.7751,49.3325],[46.8999,49.8203],[46.9226,49.8614],[46.9586,49.8841],[47.1774,49.9472],[47.3087,50.0448],[47.3286,50.073],[47.3276,50.1093],[47.2731,50.1584],[47.2651,50.1863],[47.3223,50.2374],[47.2948,50.2754],[47.3057,50.2949],[47.3922,50.3232],[47.4389,50.3832],[47.5115,50.4369],[47.5993,50.4527],[47.69,50.3863],[47.7349,50.3701],[47.7765,50.3298],[47.8082,50.3199],[47.9932,50.1818],[48.0122,50.1421],[48.0746,50.1053],[48.0964,50.0785],[48.1424,49.9638],[48.2004,49.925],[48.2393,49.8648],[48.3029,49.8667],[48.4299,49.8097],[48.4791,49.8432],[48.7846,49.9334],[48.8857,50.0199],[48.8741,50.0698],[48.8518,50.0973],[48.7828,50.1115],[48.789,50.173],[48.7289,50.2654],[48.7013,50.3346],[48.6744,50.4785],[48.6734,50.5795],[48.6485,50.6016],[48.5729,50.6169],[48.5683,50.6365],[48.584,50.6496],[48.6088,50.6479],[48.7396,50.5975],[48.8304,50.596],[49.0127,50.6834],[49.1441,50.7817],[49.3694,50.8268],[49.4084,50.8483],[49.4237,50.8821],[49.4055,50.9135],[49.3474,50.9643],[49.4106,51.0855],[49.4365,51.1123],[49.5397,51.1008],[49.7791,51.1022],[49.9868,51.2298],[50.2075,51.2659],[50.3254,51.3035],[50.3489,51.3226],[50.3376,51.372],[50.3762,51.397],[50.3596,51.4133],[50.4575,51.4269],[50.479,51.4537],[50.5272,51.4701],[50.5254,51.5656],[50.5757,51.5884],[50.5817,51.6353],[50.6942,51.6112],[50.6587,51.5762],[50.6709,51.5675],[50.72,51.5674],[50.7907,51.5973],[50.7945,51.626],[50.7474,51.709],[50.7442,51.7424],[50.767,51.7594],[50.8393,51.7455],[50.9007,51.6871],[50.9254,51.6797],[51.1698,51.6695],[51.2339,51.6855],[51.2884,51.6429],[51.3719,51.6296],[51.3811,51.5871],[51.359,51.5615],[51.2365,51.5359],[51.3042,51.4716],[51.4619,51.4753],[51.515,51.4927],[51.5598,51.5346],[51.5843,51.5349],[51.6205,51.5187],[51.6244,51.481],[51.6474,51.4512],[51.6933,51.4541],[51.7823,51.4929],[51.7647,51.5933],[51.8692,51.6731],[51.9248,51.6783],[52.0353,51.6524],[52.0918,51.6587],[52.148,51.7161],[52.2582,51.7242],[52.3078,51.7745],[52.3349,51.7637],[52.3777,51.6601],[52.4445,51.5802],[52.4788,51.5049],[52.5458,51.4595],[52.5751,51.4671],[52.6685,51.4551],[52.7798,51.5081],[52.8207,51.487],[52.8965,51.4853],[52.8828,51.4671],[52.9443,51.4529],[53.0371,51.4897],[53.1572,51.487],[53.1486,51.5048],[53.1658,51.5146],[53.2141,51.4948],[53.3463,51.503],[53.4073,51.4842],[53.4534,51.4419],[53.6103,51.3884],[53.6179,51.3721],[53.5744,51.3532],[53.5932,51.3391],[53.5941,51.2894],[53.6739,51.2199],[53.8577,51.1846],[53.9359,51.1856],[53.994,51.1534],[54.0176,51.1191],[54.1116,51.096],[54.1491,51.0097],[54.1454,50.9927],[54.2335,50.9431],[54.2758,50.9043],[54.4786,50.8535],[54.4853,50.8254],[54.4219,50.7687],[54.4071,50.6848],[54.3798,50.6194],[54.3836,50.5999],[54.4557,50.5355],[54.4994,50.5233],[54.5455,50.5305]]]}}]}
