{"type":"FeatureCollection","features":[{"type":"Feature","id":"Central","properties":{"id":"Central","iso_code":"KE-200","name":"Central","name_full":"Central","name_ja":"中央州","center_lonlat":[36.8622,-0.5802]},"geometry":{"type":"Polygon","coordinates":[[[37.0862,0.0192],[37.3236,-0.1699],[37.4292,-0.4273],[37.4335,-0.5287],[37.4769,-0.5901],[37.4783,-0.6958],[37.4925,-0.7357],[37.3478,-0.7961],[37.2841,-0.7584],[37.2555,-0.7653],[37.2428,-0.8696],[37.2859,-0.908],[37.3144,-0.9761],[37.3719,-0.968],[37.3643,-1.0388],[37.3233,-1.0896],[37.2796,-1.0658],[37.1868,-1.0921],[37.1734,-1.1127],[37.1657,-1.1806],[37.1315,-1.2371],[37.0937,-1.2036],[37.0365,-1.2164],[36.9827,-1.2041],[36.9604,-1.1854],[36.9703,-1.1506],[36.9425,-1.1394],[36.9002,-1.1754],[36.86,-1.1848],[36.8005,-1.1743],[36.6762,-1.2982],[36.6315,-1.2713],[36.5028,-1.2447],[36.5391,-1.1193],[36.583,-1.1017],[36.5858,-1.0012],[36.5614,-0.9535],[36.561,-0.9137],[36.5262,-0.8186],[36.5187,-0.7774],[36.5295,-0.7252],[36.5085,-0.6198],[36.4567,-0.5824],[36.4016,-0.585],[36.3774,-0.4015],[36.3355,-0.4055],[36.3211,-0.3882],[36.2559,-0.3882],[36.201,-0.2573],[36.2264,-0.0783],[36.2748,0.0129],[36.3251,0.035],[36.3423,0.0591],[36.4017,0.0642],[36.4713,0.1185],[36.5076,0.0865],[36.5217,0.0551],[36.5658,0.0366],[36.5888,0.0113],[36.6362,0.0243],[36.6488,0.0147],[36.5405,-0.0646],[36.5419,-0.0973],[36.5749,-0.1291],[36.6683,-0.1496],[36.799,-0.1237],[36.8551,-0.1416],[36.852,-0.1907],[36.8334,-0.2084],[36.8413,-0.2324],[36.9042,-0.2993],[36.9348,-0.2873],[36.9631,-0.296],[37.0261,-0.2218],[37.0313,-0.16],[37.0038,-0.0995],[37.0862,0.0192]]]}},{"type":"Feature","id":"Coast","properties":{"id":"Coast","iso_code":"KE-300","name":"Coast","name_full":"Coast","name_ja":"海岸州","center_lonlat":[39.3101,-2.502]},"geometry":{"type":"MultiPolygon","coordinates":[[[[41.5359,-1.6763],[41.5351,-1.6963],[41.4583,-1.7748],[41.4177,-1.8473],[41.2827,-1.9685],[41.2673,-1.9496],[41.2315,-1.9555],[41.219,-1.9225],[41.199,-1.9431],[41.1858,-1.9902],[41.1091,-1.9776],[41.0287,-2.0432],[41.0129,-2.0424],[40.9795,-2.005],[40.987,-1.9365],[41.0061,-1.9018],[40.9707,-1.929],[40.9666,-2.0466],[40.9453,-2.0732],[40.9268,-2.0593],[40.9082,-1.9977],[40.861,-1.9635],[40.8491,-1.9776],[40.856,-2.0185],[40.8722,-2.0114],[40.8938,-2.0261],[40.8831,-2.0602],[40.9043,-2.0803],[40.912,-2.192],[40.9248,-2.2172],[40.9569,-2.2189],[40.9793,-2.2421],[40.9695,-2.279],[40.9448,-2.3093],[40.9226,-2.3137],[40.9194,-2.3024],[40.9522,-2.2861],[40.9211,-2.2706],[40.8937,-2.2282],[40.863,-2.2314],[40.7947,-2.2905],[40.7739,-2.2792],[40.7956,-2.31],[40.7935,-2.342],[40.8286,-2.3748],[40.8169,-2.3979],[40.7581,-2.4474],[40.7118,-2.4666],[40.6506,-2.5393],[40.6159,-2.5525],[40.5236,-2.5251],[40.4909,-2.5285],[40.3898,-2.5603],[40.2937,-2.6164],[40.2321,-2.669],[40.175,-2.7626],[40.1726,-2.7872],[40.1887,-2.8136],[40.1626,-2.9343],[40.1838,-2.9503],[40.1786,-2.9765],[40.1907,-2.9881],[40.2321,-2.9706],[40.2329,-2.9819],[40.1638,-3.067],[40.1532,-3.1352],[40.1192,-3.1835],[40.1229,-3.2673],[40.1024,-3.2942],[40.0266,-3.3344],[39.9891,-3.3732],[39.9714,-3.3761],[39.992,-3.3071],[39.9661,-3.3212],[39.9652,-3.3992],[39.866,-3.6165],[39.7864,-3.5876],[39.7809,-3.5666],[39.7759,-3.6002],[39.8081,-3.6088],[39.8001,-3.6347],[39.849,-3.6252],[39.8601,-3.6332],[39.867,-3.6949],[39.7864,-3.9172],[39.7608,-3.9418],[39.7321,-3.9464],[39.7119,-3.9313],[39.7121,-3.8974],[39.6838,-3.9172],[39.7121,-3.965],[39.7453,-3.9687],[39.6995,-4.0484],[39.6812,-4.0479],[39.6598,-4.0076],[39.6605,-3.9708],[39.6431,-3.9855],[39.6057,-3.9697],[39.5947,-3.9787],[39.6047,-3.9882],[39.6431,-3.9992],[39.6356,-4.017],[39.5606,-4.0398],[39.5674,-4.0812],[39.5819,-4.0616],[39.6501,-4.0696],[39.6697,-4.088],[39.6659,-4.1121],[39.6159,-4.1978],[39.5401,-4.4304],[39.5225,-4.4181],[39.506,-4.4381],[39.4507,-4.582],[39.4439,-4.52],[39.4097,-4.5745],[39.3914,-4.5711],[39.4063,-4.6152],[39.3962,-4.629],[39.3244,-4.6246],[39.3005,-4.595],[39.2937,-4.6155],[39.2643,-4.6066],[39.1906,-4.6775],[37.771,-3.6554],[37.7083,-3.5272],[37.6683,-3.5125],[37.5991,-3.5134],[37.6082,-3.4636],[37.5794,-3.4464],[37.5852,-3.413],[37.6272,-3.3703],[37.6699,-3.3561],[37.6719,-3.3243],[37.7001,-3.3144],[37.68,-3.1921],[37.8309,-3.165],[37.8504,-3.01],[37.9179,-2.7799],[37.9676,-2.78],[38.1349,-2.69],[38.2033,-2.7505],[38.2781,-2.7908],[38.352,-2.9218],[38.4112,-2.9509],[38.4471,-2.9866],[38.4632,-2.9735],[38.5391,-2.964],[38.6567,-3.029],[38.7029,-3.025],[38.7917,-3.0432],[38.7995,-3.0678],[38.8935,-3.0306],[38.9751,-3.0342],[39.0025,-3.0118],[39.042,-3.0203],[38.6286,-2.4072],[38.6995,-2.4075],[38.7436,-2.3623],[38.7971,-2.3337],[38.9795,-1.9689],[38.9857,-1.9197],[38.9595,-1.7508],[39.0001,-1.6868],[38.9894,-1.1242],[38.8707,-0.8652],[38.4154,-0.0676],[38.4662,-0.0751],[38.5465,-0.0242],[38.5737,-0.0238],[38.6327,-0.0436],[38.7042,-0.0413],[38.7458,-0.0652],[38.9338,-0.0931],[38.9787,-0.0489],[39.0649,-0.0402],[39.143,-0.1273],[39.3069,-0.1341],[39.3428,-0.1589],[39.4432,-0.1948],[39.4955,-0.2418],[39.5123,-0.2781],[39.5471,-0.2849],[39.5812,-0.3224],[39.6399,-0.5047],[39.6591,-0.5154],[39.6638,-0.5419],[39.6985,-0.5791],[39.7649,-0.6016],[39.8115,-0.6896],[39.8155,-0.7658],[39.834,-0.8405],[39.8488,-0.8392],[39.8419,-0.8671],[39.8624,-0.949],[39.9375,-1.1005],[39.917,-1.1347],[39.9563,-1.1511],[39.9939,-1.2187],[40.0335,-1.4804],[40.1134,-1.6262],[40.1231,-1.7175],[40.1094,-1.738],[40.1094,-1.8261],[40.1293,-1.854],[40.1436,-1.9155],[40.1293,-1.9291],[40.1683,-2.043],[40.1682,-2.0781],[40.9965,-1.7111],[41.5359,-1.6763]]],[[[41.054,-2.0496],[41.0657,-2.0363],[41.0928,-2.038],[41.1433,-2.0595],[41.1628,-2.0909],[41.1553,-2.1121],[41.1369,-2.1155],[41.1234,-2.0937],[41.1228,-2.1159],[41.1048,-2.134],[41.0818,-2.1215],[41.0135,-2.1489],[40.9956,-2.1438],[40.9862,-2.1659],[41.0099,-2.1872],[40.9937,-2.1972],[40.9795,-2.1694],[40.9573,-2.174],[40.9692,-2.1198],[40.9829,-2.0973],[41.0452,-2.0698],[41.054,-2.0496]]]]}},{"type":"Feature","id":"Eastern","properties":{"id":"Eastern","iso_code":"KE-400","name":"Eastern","name_full":"Eastern","name_ja":"東部州","center_lonlat":[38.7156,1.1266]},"geometry":{"type":"Polygon","coordinates":[[[39.2963,3.492],[39.3272,3.1998],[39.3233,3.0423],[39.2753,2.9947],[39.1202,2.9182],[39.1064,2.8606],[38.9708,2.5738],[38.9503,2.5431],[38.8853,2.52],[38.8798,2.4996],[38.9162,2.3879],[38.9441,2.2147],[38.9432,2.1327],[39.0265,1.9744],[39.0679,1.9114],[39.125,1.8648],[39.1661,1.8024],[39.193,1.7258],[39.3409,1.6339],[39.3923,1.5684],[39.4515,1.5308],[39.2778,1.4526],[39.4464,0.9839],[39.3075,0.926],[39.2692,0.8632],[39.2099,0.8053],[39.1585,0.7111],[38.8259,0.5856],[38.7755,0.5175],[38.6991,0.5042],[38.6701,0.4874],[38.6667,0.47],[38.6927,0.4475],[38.7472,0.2153],[38.75,0.1772],[38.7369,0.1424],[38.7458,-0.0652],[38.7042,-0.0413],[38.6327,-0.0436],[38.5737,-0.0238],[38.5465,-0.0242],[38.4662,-0.0751],[38.4154,-0.0676],[38.8707,-0.8652],[38.9894,-1.1242],[39.0001,-1.6868],[38.9595,-1.7508],[38.9857,-1.9197],[38.9795,-1.9689],[38.7971,-2.3337],[38.7436,-2.3623],[38.6995,-2.4075],[38.6286,-2.4072],[39.042,-3.0203],[39.0025,-3.0118],[38.9751,-3.0342],[38.8935,-3.0306],[38.7995,-3.0678],[38.7917,-3.0432],[38.7029,-3.025],[38.6567,-3.029],[38.5391,-2.964],[38.4632,-2.9735],[38.4471,-2.9866],[38.4112,-2.9509],[38.352,-2.9218],[38.2781,-2.7908],[38.2033,-2.7505],[38.1349,-2.69],[37.9676,-2.78],[37.9179,-2.7799],[37.8965,-2.7038],[37.596,-2.3548],[37.6022,-2.3247],[37.6559,-2.2957],[37.6756,-2.2205],[37.719,-2.1942],[37.6746,-2.1654],[37.5935,-2.1549],[37.4309,-2.0464],[37.3752,-2.0181],[37.2985,-2.0003],[37.2355,-1.9423],[37.1881,-1.9192],[37.1503,-1.8376],[37.1581,-1.7798],[36.9728,-1.5406],[36.9633,-1.5126],[36.9764,-1.4544],[36.9283,-1.445],[36.8691,-1.4613],[36.8696,-1.4132],[36.8972,-1.4171],[36.9219,-1.3953],[36.9085,-1.3593],[36.9565,-1.3258],[36.9694,-1.2916],[37.0665,-1.3017],[37.1315,-1.2371],[37.1657,-1.1806],[37.1734,-1.1127],[37.1868,-1.0921],[37.2796,-1.0658],[37.3233,-1.0896],[37.3643,-1.0388],[37.3719,-0.968],[37.3144,-0.9761],[37.2859,-0.908],[37.2428,-0.8696],[37.2555,-0.7653],[37.2841,-0.7584],[37.3478,-0.7961],[37.4925,-0.7357],[37.4783,-0.6958],[37.4769,-0.5901],[37.4335,-0.5287],[37.4292,-0.4273],[37.3236,-0.1699],[37.0862,0.0192],[37.2471,0.0915],[37.3582,0.2053],[37.3955,0.3437],[37.3522,0.4321],[37.3415,0.5252],[36.8629,0.5926],[36.8654,0.613],[36.9186,0.6829],[36.9266,0.7568],[37.096,0.7931],[37.1855,0.754],[37.2487,0.7696],[37.2941,0.7331],[37.3812,0.5927],[37.4066,0.5856],[37.4782,0.601],[37.5125,0.5814],[37.5507,0.5869],[37.5711,0.5775],[37.6923,0.6717],[37.8195,0.6921],[37.8751,0.7409],[37.9136,0.7341],[37.9532,0.7565],[38.0007,0.8012],[38.0556,0.7913],[38.0355,1.137],[37.9474,1.2561],[37.9325,1.4083],[37.915,1.4383],[37.8422,1.501],[37.8012,1.4751],[37.7562,1.474],[37.7184,1.4525],[37.6787,1.4524],[37.5736,1.4176],[37.5527,1.4235],[37.4788,1.5909],[37.3883,1.6837],[37.3711,1.7725],[37.3053,1.8151],[37.2624,1.907],[37.2006,1.9611],[37.1754,2.0006],[37.1407,2.0156],[36.9571,2.022],[36.9509,2.0861],[36.9073,2.2013],[36.8269,2.29],[36.74,2.5318],[36.6967,2.5381],[36.7084,2.5085],[36.7025,2.4864],[36.636,2.409],[36.5818,2.4075],[36.5585,2.3946],[36.5322,2.4227],[36.5181,2.5516],[36.4772,2.6118],[36.4436,2.6307],[36.4362,2.7304],[36.381,2.8464],[36.2615,2.9385],[36.2475,2.9805],[36.2134,2.9632],[36.1823,2.9836],[36.1269,2.9877],[36.1209,3.0081],[36.1483,3.1166],[36.1346,3.1723],[36.1482,3.2133],[36.0725,3.2307],[36.0533,3.2429],[36.0455,3.2679],[36.0453,4.4437],[36.2363,4.4497],[36.2772,4.4364],[36.6195,4.4434],[36.6513,4.4306],[36.8441,4.4322],[37.0157,4.3706],[37.0484,4.332],[37.0759,4.3311],[37.0948,4.2849],[37.9767,3.7264],[38.0362,3.6489],[38.1019,3.6126],[38.1769,3.6209],[38.3899,3.5969],[38.446,3.6017],[38.4969,3.6239],[38.509,3.6508],[38.5471,3.6095],[38.6603,3.5945],[38.661,3.622],[38.722,3.5604],[38.8952,3.5136],[39.0679,3.5266],[39.2194,3.4687],[39.2576,3.4697],[39.2963,3.492]]]}},{"type":"Feature","id":"Nairobi","properties":{"id":"Nairobi","iso_code":"KE-110","name":"Nairobi","name_full":"Nairobi","name_ja":"ナイロビ","center_lonlat":[36.8842,-1.2747]},"geometry":{"type":"Polygon","coordinates":[[[37.1315,-1.2371],[37.0665,-1.3017],[36.9694,-1.2916],[36.9565,-1.3258],[36.9085,-1.3593],[36.9219,-1.3953],[36.8972,-1.4171],[36.8696,-1.4132],[36.8364,-1.3883],[36.7561,-1.3731],[36.6762,-1.2982],[36.8005,-1.1743],[36.86,-1.1848],[36.9002,-1.1754],[36.9425,-1.1394],[36.9703,-1.1506],[36.9604,-1.1854],[36.9827,-1.2041],[37.0365,-1.2164],[37.0937,-1.2036],[37.1315,-1.2371]]]}},{"type":"Feature","id":"North Eastern","properties":{"id":"North Eastern","iso_code":"KE-500","name":"North Eastern","name_full":"North Eastern","name_ja":"北東州","center_lonlat":[40.2182,1.3189]},"geometry":{"type":"Polygon","coordinates":[[[41.5359,-1.6763],[40.9965,-1.7111],[40.1682,-2.0781],[40.1683,-2.043],[40.1293,-1.9291],[40.1436,-1.9155],[40.1293,-1.854],[40.1094,-1.8261],[40.1094,-1.738],[40.1231,-1.7175],[40.1134,-1.6262],[40.0335,-1.4804],[39.9939,-1.2187],[39.9563,-1.1511],[39.917,-1.1347],[39.9375,-1.1005],[39.8624,-0.949],[39.8419,-0.8671],[39.8488,-0.8392],[39.834,-0.8405],[39.8155,-0.7658],[39.8115,-0.6896],[39.7649,-0.6016],[39.6985,-0.5791],[39.6638,-0.5419],[39.6591,-0.5154],[39.6399,-0.5047],[39.5812,-0.3224],[39.5471,-0.2849],[39.5123,-0.2781],[39.4955,-0.2418],[39.4432,-0.1948],[39.3428,-0.1589],[39.3069,-0.1341],[39.143,-0.1273],[39.0649,-0.0402],[38.9787,-0.0489],[38.9338,-0.0931],[38.7458,-0.0652],[38.7369,0.1424],[38.75,0.1772],[38.7472,0.2153],[38.6927,0.4475],[38.6667,0.47],[38.6701,0.4874],[38.6991,0.5042],[38.7755,0.5175],[38.8259,0.5856],[39.1585,0.7111],[39.2099,0.8053],[39.2692,0.8632],[39.3075,0.926],[39.4464,0.9839],[39.2778,1.4526],[39.4515,1.5308],[39.3923,1.5684],[39.3409,1.6339],[39.193,1.7258],[39.1661,1.8024],[39.125,1.8648],[39.0679,1.9114],[39.0265,1.9744],[38.9432,2.1327],[38.9441,2.2147],[38.9162,2.3879],[38.8798,2.4996],[38.8853,2.52],[38.9503,2.5431],[38.9708,2.5738],[39.1064,2.8606],[39.1202,2.9182],[39.2753,2.9947],[39.3233,3.0423],[39.3272,3.1998],[39.2963,3.492],[39.3159,3.4949],[39.3113,3.4661],[39.467,3.452],[39.4885,3.4139],[39.5363,3.405],[39.575,3.4979],[39.7642,3.6857],[39.8485,3.8673],[40.1624,4.0194],[40.1672,4.0355],[40.1856,4.0322],[40.3657,4.0949],[40.3827,4.1214],[40.7007,4.2435],[40.7637,4.2849],[40.846,4.215],[40.8977,4.1459],[40.9636,4.1204],[41.0059,4.0867],[41.0701,3.9969],[41.163,3.9427],[41.4295,3.9489],[41.5863,3.9842],[41.643,3.9694],[41.6998,3.9969],[41.8359,3.9495],[41.885,3.9772],[41.3427,3.2011],[40.9798,2.8419],[40.9654,2.8141],[40.9798,-0.8708],[41.5229,-1.5728],[41.5386,-1.6137],[41.5359,-1.6763]]]}},{"type":"Feature","id":"Nyanza","properties":{"id":"Nyanza","iso_code":"KE-600","name":"Nyanza","name_full":"Nyanza","name_ja":"ニャンザ州","center_lonlat":[34.4624,-0.4991]},"geometry":{"type":"Polygon","coordinates":[[[34.7189,-1.4124],[34.0525,-1.0404],[34.0154,-1.0375],[34.002,-1.0287],[34.0,-1.0026],[33.9042,-1.0026],[33.8948,-0.6627],[33.9525,-0.1157],[34.0199,0.0391],[34.0213,0.0841],[34.0802,0.1242],[34.0957,0.214],[34.1434,0.2511],[34.1921,0.2554],[34.2141,0.2932],[34.2387,0.3049],[34.32,0.2933],[34.3543,0.3066],[34.3882,0.2834],[34.4016,0.2196],[34.4585,0.1605],[34.4606,0.1288],[34.5203,0.0892],[34.5054,0.0],[34.5215,-0.0197],[34.5934,-0.0007],[34.6526,-0.0196],[34.7586,-0.0075],[34.8274,-0.039],[34.9394,-0.0419],[34.9911,-0.0256],[35.0524,-0.0596],[35.0769,-0.0503],[35.1011,-0.0197],[35.1652,-0.0416],[35.2048,-0.0327],[35.2221,-0.0493],[35.2303,-0.0895],[35.2653,-0.1107],[35.2724,-0.14],[35.3177,-0.1761],[35.3266,-0.1978],[35.3151,-0.2466],[35.2833,-0.2463],[35.2072,-0.1718],[35.169,-0.1746],[35.1208,-0.1276],[35.0845,-0.1852],[35.0491,-0.2115],[35.0381,-0.3058],[35.0015,-0.3477],[34.9991,-0.3709],[35.031,-0.4402],[35.028,-0.4849],[35.0542,-0.6316],[35.0465,-0.6885],[35.0724,-0.7808],[35.0159,-0.8283],[34.9943,-0.8856],[34.708,-0.9713],[34.6388,-0.9643],[34.5732,-1.01],[34.6302,-1.1652],[34.6585,-1.1893],[34.6803,-1.2324],[34.7189,-1.4124]]]}},{"type":"Feature","id":"Rift Valley","properties":{"id":"Rift Valley","iso_code":"KE-700","name":"Rift Valley","name_full":"Rift Valley","name_ja":"リフトバレー州","center_lonlat":[35.9262,1.0875]},"geometry":{"type":"Polygon","coordinates":[[[36.0453,4.4437],[36.0455,3.2679],[36.0533,3.2429],[36.0725,3.2307],[36.1482,3.2133],[36.1346,3.1723],[36.1483,3.1166],[36.1209,3.0081],[36.1269,2.9877],[36.1823,2.9836],[36.2134,2.9632],[36.2475,2.9805],[36.2615,2.9385],[36.381,2.8464],[36.4362,2.7304],[36.4436,2.6307],[36.4772,2.6118],[36.5181,2.5516],[36.5322,2.4227],[36.5585,2.3946],[36.5818,2.4075],[36.636,2.409],[36.7025,2.4864],[36.7084,2.5085],[36.6967,2.5381],[36.74,2.5318],[36.8269,2.29],[36.9073,2.2013],[36.9509,2.0861],[36.9571,2.022],[37.1407,2.0156],[37.1754,2.0006],[37.2006,1.9611],[37.2624,1.907],[37.3053,1.8151],[37.3711,1.7725],[37.3883,1.6837],[37.4788,1.5909],[37.5527,1.4235],[37.5736,1.4176],[37.6787,1.4524],[37.7184,1.4525],[37.7562,1.474],[37.8012,1.4751],[37.8422,1.501],[37.915,1.4383],[37.9325,1.4083],[37.9474,1.2561],[38.0355,1.137],[38.0556,0.7913],[38.0007,0.8012],[37.9532,0.7565],[37.9136,0.7341],[37.8751,0.7409],[37.8195,0.6921],[37.6923,0.6717],[37.5711,0.5775],[37.5507,0.5869],[37.5125,0.5814],[37.4782,0.601],[37.4066,0.5856],[37.3812,0.5927],[37.2941,0.7331],[37.2487,0.7696],[37.1855,0.754],[37.096,0.7931],[36.9266,0.7568],[36.9186,0.6829],[36.8654,0.613],[36.8629,0.5926],[37.3415,0.5252],[37.3522,0.4321],[37.3955,0.3437],[37.3582,0.2053],[37.2471,0.0915],[37.0862,0.0192],[37.0038,-0.0995],[37.0313,-0.16],[37.0261,-0.2218],[36.9631,-0.296],[36.9348,-0.2873],[36.9042,-0.2993],[36.8413,-0.2324],[36.8334,-0.2084],[36.852,-0.1907],[36.8551,-0.1416],[36.799,-0.1237],[36.6683,-0.1496],[36.5749,-0.1291],[36.5419,-0.0973],[36.5405,-0.0646],[36.6488,0.0147],[36.6362,0.0243],[36.5888,0.0113],[36.5658,0.0366],[36.5217,0.0551],[36.5076,0.0865],[36.4713,0.1185],[36.4017,0.0642],[36.3423,0.0591],[36.3251,0.035],[36.2748,0.0129],[36.2264,-0.0783],[36.201,-0.2573],[36.2559,-0.3882],[36.3211,-0.3882],[36.3355,-0.4055],[36.3774,-0.4015],[36.4016,-0.585],[36.4567,-0.5824],[36.5085,-0.6198],[36.5295,-0.7252],[36.5187,-0.7774],[36.5262,-0.8186],[36.561,-0.9137],[36.5614,-0.9535],[36.5858,-1.0012],[36.583,-1.1017],[36.5391,-1.1193],[36.5028,-1.2447],[36.6315,-1.2713],[36.6762,-1.2982],[36.7561,-1.3731],[36.8364,-1.3883],[36.8696,-1.4132],[36.8691,-1.4613],[36.9283,-1.445],[36.9764,-1.4544],[36.9633,-1.5126],[36.9728,-1.5406],[37.1581,-1.7798],[37.1503,-1.8376],[37.1881,-1.9192],[37.2355,-1.9423],[37.2985,-2.0003],[37.3752,-2.0181],[37.4309,-2.0464],[37.5935,-2.1549],[37.6746,-2.1654],[37.719,-2.1942],[37.6756,-2.2205],[37.6559,-2.2957],[37.6022,-2.3247],[37.596,-2.3548],[37.8965,-2.7038],[37.9179,-2.7799],[37.8504,-3.01],[37.8309,-3.165],[37.68,-3.1921],[37.6602,-3.0706],[37.6449,-3.046],[34.7189,-1.4124],[34.6803,-1.2324],[34.6585,-1.1893],[34.6302,-1.1652],[34.5732,-1.01],[34.6388,-0.9643],[34.708,-0.9713],[34.9943,-0.8856],[35.0159,-0.8283],[35.0724,-0.7808],[35.0465,-0.6885],[35.0542,-0.6316],[35.028,-0.4849],[35.031,-0.4402],[34.9991,-0.3709],[35.0015,-0.3477],[35.0381,-0.3058],[35.0491,-0.2115],[35.0845,-0.1852],[35.1208,-0.1276],[35.169,-0.1746],[35.2072,-0.1718],[35.2833,-0.2463],[35.3151,-0.2466],[35.3266,-0.1978],[35.3177,-0.1761],[35.2724,-0.14],[35.2653,-0.1107],[35.2303,-0.0895],[35.2221,-0.0493],[35.2048,-0.0327],[35.1652,-0.0416],[35.1011,-0.0197],[35.0769,-0.0503],[35.0524,-0.0596],[34.9911,-0.0256],[34.9394,-0.0419],[34.8274,-0.039],[34.7586,-0.0075],[34.8364,0.0831],[34.8556,0.1287],[34.9103,0.1787],[34.9337,0.2523],[34.9205,0.2947],[34.9282,0.3783],[34.9137,0.4327],[34.8942,0.4686],[34.8376,0.4985],[34.845,0.5707],[34.8749,0.582],[34.9165,0.5715],[34.9678,0.6286],[34.9973,0.6251],[35.0327,0.639],[35.0871,0.6328],[35.1124,0.6515],[35.125,0.6815],[35.1642,0.708],[35.1701,0.737],[35.1554,0.8021],[35.1264,0.8513],[35.0565,0.8826],[34.957,0.8803],[34.9151,0.8402],[34.8885,0.8454],[34.7971,0.8267],[34.7727,0.836],[34.7579,0.9022],[34.727,0.9132],[34.6244,1.0208],[34.6045,1.0673],[34.5669,1.103],[34.5805,1.1525],[34.6289,1.1636],[34.6838,1.2091],[34.7979,1.2319],[34.8105,1.2725],[34.779,1.3885],[34.8384,1.4372],[34.8595,1.5179],[34.8826,1.5522],[34.9337,1.5757],[34.9787,1.6759],[34.9797,1.8703],[35.0065,1.9169],[34.962,1.9778],[34.9675,2.1019],[34.8591,2.3868],[34.8679,2.4115],[34.9209,2.4546],[34.9236,2.4773],[34.8871,2.5224],[34.8656,2.6049],[34.8418,2.5878],[34.8187,2.598],[34.7765,2.6856],[34.7369,2.8444],[34.685,2.881],[34.6541,2.8565],[34.6314,2.8695],[34.5747,2.9461],[34.5338,3.1185],[34.4449,3.1591],[34.434,3.182],[34.4241,3.3048],[34.384,3.3883],[34.3986,3.4336],[34.3813,3.4769],[34.4155,3.497],[34.4345,3.5262],[34.4397,3.6677],[34.3371,3.7346],[34.3099,3.7267],[34.2904,3.7032],[34.2789,3.7097],[34.2409,3.7836],[34.1525,3.7756],[34.179,3.7961],[34.149,3.8227],[34.1967,3.8474],[34.205,3.8745],[34.1829,3.8861],[34.108,3.8689],[34.0848,3.8773],[34.1096,3.9434],[34.0611,4.0078],[34.0693,4.088],[34.041,4.1204],[34.0411,4.1648],[34.0285,4.188],[33.9771,4.2197],[34.3812,4.6202],[34.6663,4.765],[35.2457,4.9817],[35.2634,4.9485],[35.4116,5.0304],[35.4337,5.0038],[35.3961,4.9264],[35.4956,4.9264],[35.5708,4.9043],[35.5222,4.7805],[35.6106,4.62],[35.7004,4.5891],[35.7115,4.6616],[35.7394,4.6811],[35.7784,4.6783],[35.7812,4.6199],[35.9208,4.6193],[35.9405,4.508],[36.0184,4.4491],[36.0453,4.4437]]]}},{"type":"Feature","id":"Western","properties":{"id":"Western","iso_code":"KE-800","name":"Western","name_full":"Western","name_ja":"西部州","center_lonlat":[34.5677,0.4987]},"geometry":{"type":"Polygon","coordinates":[[[34.5669,1.103],[34.6045,1.0673],[34.6244,1.0208],[34.727,0.9132],[34.7579,0.9022],[34.7727,0.836],[34.7971,0.8267],[34.8885,0.8454],[34.9151,0.8402],[34.957,0.8803],[35.0565,0.8826],[35.1264,0.8513],[35.1554,0.8021],[35.1701,0.737],[35.1642,0.708],[35.125,0.6815],[35.1124,0.6515],[35.0871,0.6328],[35.0327,0.639],[34.9973,0.6251],[34.9678,0.6286],[34.9165,0.5715],[34.8749,0.582],[34.845,0.5707],[34.8376,0.4985],[34.8942,0.4686],[34.9137,0.4327],[34.9282,0.3783],[34.9205,0.2947],[34.9337,0.2523],[34.9103,0.1787],[34.8556,0.1287],[34.8364,0.0831],[34.7586,-0.0075],[34.6526,-0.0196],[34.5934,-0.0007],[34.5215,-0.0197],[34.5054,0.0],[34.5203,0.0892],[34.4606,0.1288],[34.4585,0.1605],[34.4016,0.2196],[34.3882,0.2834],[34.3543,0.3066],[34.32,0.2933],[34.2387,0.3049],[34.2141,0.2932],[34.1921,0.2554],[34.1434,0.2511],[34.0957,0.214],[34.0802,0.1242],[34.0213,0.0841],[34.0199,0.0391],[33.9525,-0.1157],[33.8936,0.1098],[34.0406,0.3059],[34.0852,0.347],[34.0757,0.4222],[34.1044,0.4622],[34.1496,0.6036],[34.2521,0.655],[34.2762,0.6808],[34.2984,0.7593],[34.388,0.8158],[34.4572,0.9576],[34.4637,1.0229],[34.487,1.0825],[34.5075,1.1025],[34.5404,1.0894],[34.5669,1.103]]]}}]}
