{"type":"FeatureCollection","features":[{"type":"Feature","id":"Area_2","properties":{"id":"Area_2","iso_code":"KI-X02~","name":"Area_2","name_full":"Area_2","name_ja":"Area_2","center_lonlat":[-155.8952,-5.6218]},"geometry":{"type":"MultiPolygon","coordinates":[[[[-155.8993,-5.6168],[-155.8796,-5.6095],[-155.8598,-5.6251],[-155.9064,-5.6353],[-155.9335,-5.6091],[-155.8993,-5.6168]]],[[[-171.26,-4.4441],[-171.245,-4.4413],[-171.2301,-4.4605],[-171.2596,-4.4653],[-171.26,-4.4441]]],[[[-171.0936,-3.1314],[-171.0854,-3.1113],[-171.0925,-3.1454],[-171.0936,-3.1314]]]]}},{"type":"Feature","id":"Kiribati","properties":{"id":"Kiribati","iso_code":"KI-X01~","name":"Kiribati","name_full":"Kiribati","name_ja":"キリバス","center_lonlat":[-157.3684,1.8503]},"geometry":{"type":"MultiPolygon","coordinates":[[[[-157.191,1.7639],[-157.1794,1.7539],[-157.1788,1.7185],[-157.2464,1.7133],[-157.2869,1.7502],[-157.4106,1.7819],[-157.5283,1.8625],[-157.566,1.8638],[-157.5812,1.8803],[-157.5782,1.9079],[-157.5435,1.929],[-157.5212,1.9277],[-157.5454,1.9023],[-157.5373,1.8664],[-157.5009,1.8659],[-157.4907,1.8502],[-157.4285,1.8386],[-157.4752,1.8806],[-157.4517,1.8764],[-157.4473,1.9011],[-157.412,1.8585],[-157.4264,1.9121],[-157.42,1.929],[-157.4083,1.9215],[-157.4063,1.9427],[-157.3947,1.9357],[-157.3821,1.9022],[-157.3585,1.9239],[-157.3551,1.9477],[-157.4089,1.9693],[-157.4775,2.0181],[-157.4989,2.0022],[-157.5094,2.0246],[-157.4746,2.0334],[-157.4238,2.0205],[-157.3859,1.9905],[-157.3101,1.9731],[-157.3404,1.9302],[-157.3477,1.8608],[-157.3254,1.8358],[-157.191,1.7639]]],[[[-159.2845,3.8748],[-159.2526,3.81],[-159.3087,3.7847],[-159.3529,3.7991],[-159.3608,3.8194],[-159.2948,3.806],[-159.2852,3.8114],[-159.2872,3.8378],[-159.3354,3.8715],[-159.3529,3.909],[-159.3782,3.9072],[-159.3938,3.8886],[-159.3671,3.8402],[-159.41,3.862],[-159.4063,3.9026],[-159.3768,3.9333],[-159.3423,3.9258],[-159.3199,3.8791],[-159.2845,3.8748]]],[[[-155.0117,-4.0471],[-154.9403,-4.032],[-154.9586,-4.0712],[-154.9534,-4.0948],[-155.0108,-4.0606],[-155.0117,-4.0471]]],[[[175.0588,-1.4363],[175.0686,-1.497],[175.0606,-1.5317],[175.0383,-1.5524],[175.0125,-1.5492],[175.0208,-1.4999],[175.0451,-1.4841],[175.0186,-1.5196],[175.028,-1.5412],[175.0583,-1.5068],[175.0518,-1.4527],[175.0383,-1.4363],[175.0588,-1.4363]]],[[[174.7651,-1.2029],[174.7788,-1.2644],[174.7559,-1.2575],[174.7468,-1.186],[174.7166,-1.1347],[174.744,-1.1484],[174.7651,-1.2029]]],[[[173.2897,2.0338],[173.2661,2.0438],[173.2686,2.0114],[173.2578,1.997],[173.2596,2.0434],[173.278,2.0587],[173.3184,1.977],[173.3045,1.9616],[173.2575,1.9746],[173.2615,1.9932],[173.2639,1.978],[173.3079,1.9733],[173.2897,2.0338]]],[[[-151.8077,-11.3859],[-151.781,-11.4547],[-151.8009,-11.4611],[-151.8195,-11.421],[-151.8077,-11.3859]]],[[[176.4094,-1.3327],[176.4448,-1.3738],[176.464,-1.4363],[176.3957,-1.3196],[176.4094,-1.3327]]],[[[176.7861,-2.6082],[176.8132,-2.6144],[176.8509,-2.6541],[176.8273,-2.6562],[176.7723,-2.6082],[176.7861,-2.6082]]],[[[172.7503,3.032],[172.7715,3.0239],[172.8291,3.0643],[172.887,3.0729],[172.8801,3.0525],[172.8444,3.0598],[172.7703,3.0115],[172.7503,3.032]]],[[[173.8323,0.4487],[173.9172,0.3995],[173.9216,0.3798],[173.8677,0.4196],[173.832,0.4363],[173.8049,0.4344],[173.8254,0.4555],[173.8323,0.4487]]],[[[176.0093,-1.3342],[176.0234,-1.3629],[176.0183,-1.3879],[175.9836,-1.3674],[176.0183,-1.3743],[176.0064,-1.3427],[175.9559,-1.2866],[175.9431,-1.2848],[175.9494,-1.2985],[175.937,-1.2931],[175.9421,-1.2848],[175.9773,-1.2848],[176.0093,-1.3342]]],[[[173.0383,1.3411],[173.0112,1.3373],[173.0847,1.3667],[173.1607,1.3749],[173.1433,1.3803],[173.1532,1.3865],[173.1717,1.3742],[173.1629,1.3565],[173.0786,1.36],[173.0383,1.3411]]],[[[-171.6778,-2.8332],[-171.7127,-2.8222],[-171.664,-2.8354],[-171.6332,-2.8621],[-171.6269,-2.8557],[-171.6667,-2.7931],[-171.7146,-2.7729],[-171.7219,-2.7863],[-171.7276,-2.7719],[-171.7151,-2.759],[-171.6499,-2.7973],[-171.6296,-2.8272],[-171.6257,-2.8689],[-171.6778,-2.8332]]],[[[173.0759,0.9659],[173.0793,0.9452],[173.0612,0.9142],[172.991,0.8344],[173.0466,0.9015],[173.0718,0.9626],[173.0256,0.998],[173.0098,1.0036],[173.0037,0.9899],[172.99,1.0241],[173.0759,0.9659]]],[[[174.4766,-0.7096],[174.4984,-0.7892],[174.4834,-0.8194],[174.4723,-0.8019],[174.4834,-0.7989],[174.4834,-0.8126],[174.4977,-0.7948],[174.4629,-0.6481],[174.4766,-0.6691],[174.4766,-0.7096]]],[[[172.9832,1.5312],[172.9694,1.538],[172.949,1.6273],[172.9629,1.6206],[172.9832,1.5312]]],[[[172.9803,1.882],[173.0234,1.8214],[172.9385,1.9232],[172.9347,1.9427],[172.9803,1.882]]],[[[174.4387,-0.6276],[174.4636,-0.6448],[174.4372,-0.6408],[174.3809,-0.5929],[174.4387,-0.6276]]],[[[173.6206,0.1334],[173.6099,0.1431],[173.6384,0.1952],[173.6062,0.216],[173.6287,0.2191],[173.6408,0.1921],[173.6206,0.1334]]],[[[169.5389,-0.8746],[169.5226,-0.8605],[169.5452,-0.8479],[169.5553,-0.8661],[169.5389,-0.8746]]],[[[175.5915,-1.8742],[175.5999,-1.8951],[175.5863,-1.9225],[175.5863,-1.8708],[175.5523,-1.8193],[175.5915,-1.8742]]],[[[-172.2228,-4.5063],[-172.202,-4.5207],[-172.1744,-4.5131],[-172.2034,-4.5322],[-172.2272,-4.5187],[-172.2296,-4.4973],[-172.2005,-4.4934],[-172.2228,-4.5063]]],[[[173.0361,1.7772],[173.0293,1.7163],[172.9932,1.7121],[173.0238,1.7211],[173.0355,1.7436],[173.0274,1.8105],[173.0361,1.7772]]],[[[172.9621,3.1418],[172.9694,3.1282],[172.887,3.1002],[172.9621,3.1418]]],[[[-160.4104,4.7092],[-160.4166,4.7171],[-160.4012,4.7231],[-160.3789,4.7133],[-160.4104,4.7092]]]]}}]}
