{"type":"FeatureCollection","features":[{"type":"Feature","id":"Batken","properties":{"id":"Batken","iso_code":"KG-B","name":"Batken","name_full":"Batken","name_ja":"バトケン州","center_lonlat":[70.8588,39.8654]},"geometry":{"type":"Polygon","coordinates":[[[72.0132,40.2621],[72.1863,40.2966],[72.2121,40.2875],[72.2208,40.2139],[72.1968,40.1892],[72.2717,40.1434],[72.2664,40.117],[72.2409,40.0979],[72.2898,40.0672],[72.2829,40.0354],[72.2965,39.9997],[72.2825,39.9569],[72.3642,39.923],[72.4109,39.8617],[72.4371,39.8558],[72.4747,39.8671],[72.5502,39.7684],[72.513,39.7305],[72.3279,39.6584],[72.2378,39.6386],[72.1753,39.6469],[72.0959,39.6326],[72.0074,39.6487],[71.9429,39.6787],[71.7959,39.702],[71.7452,39.7365],[71.7134,39.7384],[71.6526,39.7003],[71.5754,39.6859],[71.5512,39.6688],[71.5097,39.585],[71.4595,39.6121],[71.3783,39.5942],[71.2493,39.5144],[71.18,39.523],[71.0959,39.5124],[71.0629,39.4956],[71.0093,39.4076],[70.9771,39.3949],[70.9034,39.4209],[70.8642,39.4006],[70.7701,39.3821],[70.7133,39.3984],[70.6981,39.419],[70.6997,39.4722],[70.656,39.4937],[70.6221,39.5635],[70.5978,39.5778],[70.5261,39.5756],[70.4772,39.6012],[70.3843,39.5709],[70.3303,39.5731],[70.2233,39.5191],[70.206,39.5241],[70.2148,39.5911],[70.2007,39.6195],[70.149,39.5543],[70.1324,39.55],[70.0404,39.5736],[69.9788,39.5344],[69.9078,39.5485],[69.8304,39.5362],[69.6694,39.5778],[69.5823,39.5736],[69.5144,39.5376],[69.4122,39.525],[69.3616,39.5529],[69.3397,39.5281],[69.3003,39.5156],[69.2862,39.5397],[69.2875,39.6778],[69.2263,39.751],[69.2407,39.8289],[69.3103,39.9848],[69.3278,39.9847],[69.3573,39.9595],[69.4054,39.8961],[69.5016,39.9225],[69.4631,40.0254],[69.518,40.1251],[69.543,40.1031],[69.5755,40.1036],[69.9696,40.2116],[70.0046,40.2088],[70.1472,40.137],[70.2415,40.1327],[70.3243,40.0775],[70.5255,40.0337],[70.5356,40.016],[70.5209,39.9937],[70.4732,39.9701],[70.4509,39.9374],[70.4556,39.9068],[70.4772,39.9009],[70.5009,39.9406],[70.5766,39.9522],[70.614,39.9758],[70.636,40.0285],[70.6394,40.0849],[70.6659,40.1042],[70.7298,40.1207],[70.7921,40.1614],[70.9293,40.1706],[70.9629,40.1897],[70.9795,40.2141],[70.959,40.2384],[70.9951,40.2666],[71.0532,40.2742],[71.201,40.2638],[71.2396,40.3211],[71.2538,40.3244],[71.2971,40.2938],[71.3651,40.2941],[71.3966,40.2715],[71.4414,40.2609],[71.4589,40.2341],[71.4984,40.2105],[71.5683,40.1966],[71.593,40.1984],[71.6101,40.2464],[71.6283,40.2589],[71.6602,40.2245],[71.6731,40.1479],[71.6933,40.1411],[71.7759,40.1799],[71.8365,40.2492],[72.0048,40.2373],[72.0254,40.2509],[72.0132,40.2621]],[[71.7418,39.9008],[71.7671,39.9154],[71.7855,39.9897],[71.6655,39.9402],[71.6968,39.9138],[71.7418,39.9008]],[[71.1769,40.042],[71.0788,40.0786],[71.0312,40.1469],[71.0086,40.1578],[70.9771,40.1446],[70.954,40.0958],[70.9831,40.0214],[71.0458,39.992],[71.0504,39.9629],[71.0076,39.9112],[71.0093,39.8857],[71.0219,39.8808],[71.061,39.9041],[71.08,39.9034],[71.0989,39.8755],[71.2084,39.8888],[71.2211,39.9317],[71.177,39.9682],[71.1747,39.994],[71.2373,40.0311],[71.244,40.0468],[71.2237,40.0579],[71.1769,40.042]],[[70.4987,39.8819],[70.4837,39.8822],[70.4901,39.8502],[70.5816,39.7666],[70.7048,39.8221],[70.6989,39.8584],[70.6199,39.8507],[70.4987,39.8819]]]}},{"type":"Feature","id":"Bishkek","properties":{"id":"Bishkek","iso_code":"KG-GB","name":"Bishkek","name_full":"Bishkek","name_ja":"ビシュケク","center_lonlat":[74.5981,42.8608]},"geometry":{"type":"Polygon","coordinates":[[[74.6178,42.9378],[74.6718,42.8692],[74.6413,42.8439],[74.6426,42.8081],[74.6145,42.8074],[74.5819,42.7787],[74.5695,42.7924],[74.5703,42.8272],[74.5037,42.875],[74.5727,42.8972],[74.6178,42.9378]]]}},{"type":"Feature","id":"Chuy","properties":{"id":"Chuy","iso_code":"KG-C","name":"Chuy","name_full":"Chuy","name_ja":"チュイ州","center_lonlat":[74.6202,42.6191]},"geometry":{"type":"Polygon","coordinates":[[[77.2119,42.9099],[77.2173,42.8694],[77.1737,42.8654],[77.1251,42.8079],[77.0781,42.7983],[76.8296,42.8004],[76.789,42.762],[76.7002,42.7815],[76.6259,42.7566],[76.4835,42.7753],[76.4474,42.7343],[76.2966,42.696],[76.1581,42.604],[76.0829,42.613],[75.9435,42.5879],[75.8366,42.59],[75.8022,42.5602],[75.696,42.5203],[75.6842,42.483],[75.6371,42.4598],[75.5356,42.4086],[75.5174,42.4553],[75.4085,42.4354],[75.3595,42.4514],[75.2931,42.4335],[75.1008,42.4484],[75.0356,42.4251],[74.9904,42.4537],[74.9641,42.4404],[74.8193,42.4236],[74.8078,42.4187],[74.8736,42.3277],[74.8772,42.3007],[74.7547,42.3023],[74.673,42.2299],[74.6238,42.2488],[74.4463,42.2285],[74.3408,42.2379],[74.3202,42.1336],[74.3227,42.122],[74.3657,42.1034],[74.3213,42.0622],[74.3198,42.0157],[74.282,41.978],[74.2703,41.9333],[74.2396,41.922],[74.2048,41.9359],[74.1702,41.9199],[74.1387,41.8644],[74.1235,41.8746],[74.1235,41.9253],[74.0576,41.9252],[73.9974,41.9961],[73.9367,41.966],[73.8009,41.9576],[73.7747,42.0134],[73.752,42.0212],[73.7092,42.0222],[73.6373,41.9891],[73.5214,42.0186],[73.3818,42.0191],[73.3604,42.0569],[73.327,42.0756],[73.127,42.1198],[73.1123,42.1393],[73.1239,42.1667],[73.0697,42.1881],[73.0882,42.2431],[73.1453,42.2478],[73.2039,42.2807],[73.2654,42.2918],[73.325,42.285],[73.4199,42.3026],[73.4926,42.285],[73.5309,42.289],[73.606,42.3147],[73.6929,42.4177],[73.6766,42.4501],[73.6059,42.4546],[73.5804,42.4906],[73.5632,42.4739],[73.5585,42.4355],[73.5337,42.419],[73.5051,42.4216],[73.4176,42.5562],[73.4127,42.6273],[73.5036,42.7941],[73.493,42.895],[73.5709,43.0319],[73.8056,43.1147],[73.8643,43.1161],[73.9017,43.131],[73.9351,43.1997],[73.9653,43.2169],[74.0399,43.1819],[74.2139,43.2026],[74.2166,43.2169],[74.1788,43.2617],[74.2587,43.2158],[74.3488,43.191],[74.4006,43.1595],[74.5582,43.115],[74.6113,43.0582],[74.7139,42.9999],[74.8629,42.9758],[75.2046,42.8452],[75.536,42.827],[75.6462,42.8061],[75.7276,42.8487],[75.7706,42.9256],[75.7972,42.9362],[75.859,42.9398],[75.9991,42.9176],[76.0645,42.934],[76.2545,42.9212],[76.3405,42.9017],[76.383,42.9101],[76.4141,42.8855],[76.4805,42.917],[76.585,42.8948],[76.7079,42.9137],[76.7539,42.9408],[76.793,42.9431],[76.8335,42.9717],[76.9569,42.9885],[77.124,42.9589],[77.1787,42.9132],[77.2119,42.9099]],[[74.6298,42.8055],[74.6426,42.8081],[74.6413,42.8439],[74.6718,42.8692],[74.6178,42.9378],[74.5727,42.8972],[74.5037,42.875],[74.5703,42.8272],[74.5695,42.7924],[74.5819,42.7787],[74.6145,42.8074],[74.6298,42.8055]]]}},{"type":"Feature","id":"Issyk-Kul","properties":{"id":"Issyk-Kul","iso_code":"KG-Y","name":"Issyk-Kul","name_full":"Issyk-Kul","name_ja":"イシク・クル州","center_lonlat":[77.9312,42.1629]},"geometry":{"type":"Polygon","coordinates":[[[78.2313,41.1729],[78.199,41.1938],[78.1715,41.2403],[78.1364,41.252],[78.0364,41.2091],[77.9643,41.1999],[77.8902,41.1997],[77.762,41.2256],[77.6546,41.2267],[77.6391,41.2545],[77.6583,41.3002],[77.6307,41.3141],[77.355,41.2632],[77.4172,41.3809],[77.3046,41.4379],[77.2834,41.4997],[77.3208,41.5064],[77.3385,41.5414],[77.3517,41.6079],[77.3443,41.627],[77.2138,41.5853],[77.0336,41.5824],[76.9062,41.5981],[76.8068,41.5784],[76.7487,41.5853],[76.7143,41.6093],[76.6637,41.6023],[76.7299,41.7278],[76.7319,41.7611],[76.6531,41.7915],[76.6098,41.7803],[76.4762,41.7848],[76.4506,41.814],[76.4879,41.8466],[76.6207,41.8532],[76.6542,41.9414],[76.5895,41.9344],[76.4766,41.9761],[76.3792,41.9815],[76.2802,42.0103],[76.2341,42.003],[76.1614,42.034],[76.0551,42.0084],[76.0224,42.0112],[76.0174,42.0318],[76.0778,42.0709],[76.0905,42.1063],[76.0707,42.1327],[76.019,42.1612],[76.0119,42.1923],[75.9831,42.2023],[76.0073,42.2905],[75.9643,42.3337],[75.9539,42.3753],[75.8989,42.3897],[75.8656,42.3582],[75.7725,42.3519],[75.7353,42.3914],[75.6557,42.4139],[75.6371,42.4598],[75.6842,42.483],[75.696,42.5203],[75.8022,42.5602],[75.8366,42.59],[75.9435,42.5879],[76.0829,42.613],[76.1581,42.604],[76.2966,42.696],[76.4474,42.7343],[76.4835,42.7753],[76.6259,42.7566],[76.7002,42.7815],[76.789,42.762],[76.8296,42.8004],[77.0781,42.7983],[77.1251,42.8079],[77.1737,42.8654],[77.2173,42.8694],[77.2119,42.9099],[77.3281,42.8976],[77.434,42.9214],[77.5016,42.9145],[77.5744,42.8878],[77.6269,42.9066],[77.7138,42.9076],[77.7812,42.8956],[77.81,42.8713],[77.8839,42.8932],[78.0306,42.8547],[78.2298,42.865],[78.3112,42.8505],[78.3855,42.8782],[78.4296,42.8807],[78.5943,42.8502],[78.6871,42.8046],[78.8079,42.7956],[78.9929,42.7571],[79.0309,42.7562],[79.1088,42.7853],[79.1734,42.7856],[79.1761,42.7139],[79.2064,42.6565],[79.353,42.5773],[79.4257,42.4696],[79.4764,42.454],[79.5719,42.4495],[79.6965,42.4598],[79.9179,42.4244],[79.9601,42.4035],[80.0121,42.3495],[80.077,42.3058],[80.1666,42.2087],[80.2103,42.1895],[80.2246,42.1256],[80.2565,42.0844],[80.2576,42.0653],[80.2312,42.0337],[80.1819,42.021],[79.9309,42.0233],[79.8429,42.0018],[79.8128,41.9776],[79.7833,41.9051],[79.7475,41.8797],[79.611,41.8676],[79.3908,41.7727],[79.2823,41.7835],[79.1959,41.7295],[79.0887,41.7025],[78.9762,41.6418],[78.9158,41.6332],[78.8073,41.5784],[78.6583,41.5325],[78.6192,41.4781],[78.5104,41.4544],[78.3599,41.3775],[78.3393,41.344],[78.3597,41.2875],[78.3495,41.2704],[78.2754,41.2289],[78.2313,41.1729]]]}},{"type":"Feature","id":"Jalal-Abad","properties":{"id":"Jalal-Abad","iso_code":"KG-J","name":"Jalal-Abad","name_full":"Jalal-Abad","name_ja":"ジャララバード州","center_lonlat":[72.4645,41.5709]},"geometry":{"type":"Polygon","coordinates":[[[71.2499,42.1984],[71.2752,42.2043],[71.4207,42.1808],[71.5023,42.1998],[71.6272,42.2029],[71.8215,42.1409],[71.8879,42.1365],[72.0189,42.0965],[72.0619,42.0717],[72.1645,42.0812],[72.2351,42.1857],[72.3514,42.2062],[72.3964,42.203],[72.4363,42.1655],[72.5204,42.1622],[72.5718,42.1416],[72.6281,42.1522],[72.7366,42.114],[72.8177,42.0612],[72.8859,42.0688],[72.9035,42.1092],[72.9464,42.1282],[73.0431,42.1461],[73.081,42.1315],[73.1123,42.1393],[73.127,42.1198],[73.327,42.0756],[73.3604,42.0569],[73.3818,42.0191],[73.5214,42.0186],[73.6373,41.9891],[73.7092,42.0222],[73.752,42.0212],[73.7747,42.0134],[73.8009,41.9576],[73.7616,41.9058],[73.7255,41.8976],[73.7252,41.8874],[73.7922,41.8406],[73.8235,41.8525],[73.8272,41.8769],[73.8875,41.8516],[73.9241,41.8638],[73.9631,41.8525],[73.982,41.8191],[73.9793,41.7413],[74.1046,41.7193],[74.1266,41.6102],[74.1192,41.6001],[74.0608,41.6155],[74.0551,41.6594],[74.0281,41.6867],[73.9521,41.6975],[73.9101,41.6726],[73.9465,41.6185],[73.9857,41.6142],[74.0658,41.5685],[74.1712,41.5702],[74.2239,41.5457],[74.3294,41.5603],[74.4072,41.5462],[74.4723,41.572],[74.5373,41.5687],[74.6622,41.6084],[74.6939,41.633],[74.753,41.6085],[74.6953,41.4329],[74.6471,41.3811],[74.3426,41.2942],[74.3986,41.2116],[74.2056,41.2019],[74.1255,41.1643],[74.0828,41.1588],[74.0687,41.1246],[74.1438,41.0685],[74.0417,40.972],[73.9277,41.0174],[73.9165,41.0673],[73.8853,41.092],[73.8855,41.12],[73.8703,41.1267],[73.8379,41.1105],[73.7845,41.0438],[73.7199,41.002],[73.7117,40.9534],[73.6356,40.9763],[73.6257,41.0014],[73.5917,41.015],[73.6997,41.104],[73.6701,41.1392],[73.6346,41.1353],[73.62,41.1214],[73.6268,41.0987],[73.6181,41.092],[73.4628,41.095],[73.3919,41.0222],[73.3695,41.0182],[73.3366,41.0424],[73.278,41.0109],[73.2579,40.9849],[73.2609,40.9044],[73.135,40.8353],[73.0536,40.8363],[73.0034,40.8702],[72.8703,40.8182],[72.8687,40.8641],[72.6582,40.8672],[72.6195,40.8801],[72.5456,40.9565],[72.4834,40.9706],[72.4819,41.0088],[72.3952,41.022],[72.3324,41.0728],[72.2898,41.0235],[72.1651,40.9994],[72.1856,41.0606],[72.1584,41.1879],[72.1085,41.1964],[72.0338,41.1566],[71.977,41.1952],[71.8977,41.1849],[71.8716,41.1945],[71.8688,41.2792],[71.847,41.3418],[71.7452,41.4528],[71.7304,41.4512],[71.7216,41.4248],[71.6961,41.4474],[71.6814,41.4228],[71.6719,41.4255],[71.6895,41.4938],[71.6714,41.5474],[71.6274,41.5432],[71.5955,41.4937],[71.6374,41.4313],[71.5855,41.3235],[71.5579,41.3017],[71.5238,41.2967],[71.4188,41.3474],[71.4161,41.1274],[71.3937,41.1127],[71.3252,41.1573],[71.2895,41.1139],[71.2761,41.1132],[71.2415,41.1752],[71.2064,41.1888],[71.1857,41.1802],[71.1899,41.1275],[71.1801,41.1081],[71.1231,41.1582],[71.0247,41.1898],[70.9142,41.193],[70.8285,41.2491],[70.7704,41.2385],[70.7563,41.2696],[70.7692,41.3521],[70.7036,41.4455],[70.6678,41.4714],[70.5113,41.4145],[70.4532,41.4055],[70.399,41.465],[70.3444,41.4938],[70.2034,41.5056],[70.1665,41.5202],[70.1483,41.5525],[70.1693,41.5783],[70.4537,41.7121],[70.5065,41.7856],[70.6489,41.8874],[70.814,41.9195],[70.8455,42.0304],[70.9771,42.0442],[71.1184,42.1229],[71.2382,42.1602],[71.2499,42.1984]]]}},{"type":"Feature","id":"Naryn","properties":{"id":"Naryn","iso_code":"KG-N","name":"Naryn","name_full":"Naryn","name_ja":"ナルイン州","center_lonlat":[75.6432,41.3647]},"geometry":{"type":"Polygon","coordinates":[[[78.2313,41.1729],[78.176,41.1055],[78.0572,41.0343],[77.831,41.063],[77.6503,40.9971],[77.5807,40.9977],[77.5035,40.9811],[77.333,41.0207],[77.2432,41.0057],[77.1188,41.0117],[77.0077,41.0442],[76.861,41.0132],[76.7668,40.9447],[76.7574,40.9258],[76.7708,40.8671],[76.7625,40.847],[76.6742,40.7954],[76.6479,40.7649],[76.6308,40.7289],[76.6242,40.6275],[76.6094,40.5971],[76.5564,40.5657],[76.4765,40.4361],[76.3135,40.3433],[76.2734,40.4341],[76.2442,40.4412],[76.185,40.3842],[76.1514,40.3681],[76.0516,40.3902],[75.9624,40.3573],[75.9019,40.2989],[75.772,40.3102],[75.6818,40.2917],[75.6563,40.3231],[75.6383,40.3861],[75.6693,40.4324],[75.6669,40.4502],[75.6179,40.494],[75.6056,40.5694],[75.5877,40.6119],[75.5599,40.6329],[75.5238,40.6332],[75.4818,40.6141],[75.1939,40.4413],[75.1381,40.4639],[75.0644,40.4438],[75.0024,40.4473],[74.8792,40.5051],[74.8323,40.5081],[74.7107,40.5169],[74.6775,40.539],[74.5889,40.5539],[74.5926,40.5997],[74.5706,40.6232],[74.4211,40.6668],[74.3597,40.7028],[74.3192,40.7464],[74.2221,40.8133],[74.2015,40.8609],[74.0417,40.972],[74.1438,41.0685],[74.0687,41.1246],[74.0828,41.1588],[74.1255,41.1643],[74.2056,41.2019],[74.3986,41.2116],[74.3426,41.2942],[74.6471,41.3811],[74.6953,41.4329],[74.753,41.6085],[74.6939,41.633],[74.6622,41.6084],[74.5373,41.5687],[74.4723,41.572],[74.4072,41.5462],[74.3294,41.5603],[74.2239,41.5457],[74.1712,41.5702],[74.0658,41.5685],[73.9857,41.6142],[73.9465,41.6185],[73.9101,41.6726],[73.9521,41.6975],[74.0281,41.6867],[74.0551,41.6594],[74.0608,41.6155],[74.1192,41.6001],[74.1266,41.6102],[74.1046,41.7193],[73.9793,41.7413],[73.982,41.8191],[73.9631,41.8525],[73.9241,41.8638],[73.8875,41.8516],[73.8272,41.8769],[73.8235,41.8525],[73.7922,41.8406],[73.7252,41.8874],[73.7255,41.8976],[73.7616,41.9058],[73.8009,41.9576],[73.9367,41.966],[73.9974,41.9961],[74.0576,41.9252],[74.1235,41.9253],[74.1235,41.8746],[74.1387,41.8644],[74.1702,41.9199],[74.2048,41.9359],[74.2396,41.922],[74.2703,41.9333],[74.282,41.978],[74.3198,42.0157],[74.3213,42.0622],[74.3657,42.1034],[74.3227,42.122],[74.3202,42.1336],[74.3408,42.2379],[74.4463,42.2285],[74.6238,42.2488],[74.673,42.2299],[74.7547,42.3023],[74.8772,42.3007],[74.8736,42.3277],[74.8078,42.4187],[74.8193,42.4236],[74.9641,42.4404],[74.9904,42.4537],[75.0356,42.4251],[75.1008,42.4484],[75.2931,42.4335],[75.3595,42.4514],[75.4085,42.4354],[75.5174,42.4553],[75.5356,42.4086],[75.6371,42.4598],[75.6557,42.4139],[75.7353,42.3914],[75.7725,42.3519],[75.8656,42.3582],[75.8989,42.3897],[75.9539,42.3753],[75.9643,42.3337],[76.0073,42.2905],[75.9831,42.2023],[76.0119,42.1923],[76.019,42.1612],[76.0707,42.1327],[76.0905,42.1063],[76.0778,42.0709],[76.0174,42.0318],[76.0224,42.0112],[76.0551,42.0084],[76.1614,42.034],[76.2341,42.003],[76.2802,42.0103],[76.3792,41.9815],[76.4766,41.9761],[76.5895,41.9344],[76.6542,41.9414],[76.6207,41.8532],[76.4879,41.8466],[76.4506,41.814],[76.4762,41.7848],[76.6098,41.7803],[76.6531,41.7915],[76.7319,41.7611],[76.7299,41.7278],[76.6637,41.6023],[76.7143,41.6093],[76.7487,41.5853],[76.8068,41.5784],[76.9062,41.5981],[77.0336,41.5824],[77.2138,41.5853],[77.3443,41.627],[77.3517,41.6079],[77.3385,41.5414],[77.3208,41.5064],[77.2834,41.4997],[77.3046,41.4379],[77.4172,41.3809],[77.355,41.2632],[77.6307,41.3141],[77.6583,41.3002],[77.6391,41.2545],[77.6546,41.2267],[77.762,41.2256],[77.8902,41.1997],[77.9643,41.1999],[78.0364,41.2091],[78.1364,41.252],[78.1715,41.2403],[78.199,41.1938],[78.2313,41.1729]]]}},{"type":"Feature","id":"Osh","properties":{"id":"Osh","iso_code":"KG-O","name":"Osh","name_full":"Osh","name_ja":"オシ","center_lonlat":[73.2319,40.1372]},"geometry":{"type":"Polygon","coordinates":[[[74.8323,40.5081],[74.7874,40.4207],[74.8539,40.3588],[74.8621,40.3262],[74.7058,40.3313],[74.5654,40.2469],[74.4766,40.1724],[74.3338,40.0937],[74.1676,40.1064],[74.0695,40.0678],[74.004,40.0608],[73.9664,40.0333],[73.944,39.9701],[73.8932,39.9181],[73.8807,39.865],[73.823,39.8057],[73.8295,39.747],[73.8793,39.7279],[73.8935,39.7104],[73.9268,39.5929],[73.8705,39.5468],[73.848,39.4897],[73.8207,39.4682],[73.6326,39.4483],[73.6043,39.4596],[73.4769,39.4648],[73.3676,39.4438],[73.3432,39.4307],[73.3264,39.3909],[73.1679,39.3554],[73.0711,39.3707],[73.0093,39.3486],[72.8937,39.3639],[72.8353,39.3562],[72.6337,39.3945],[72.5758,39.3593],[72.519,39.3757],[72.4767,39.3461],[72.3932,39.3508],[72.3163,39.3288],[72.2403,39.1899],[72.2289,39.1892],[72.2033,39.2408],[72.0948,39.2751],[72.0781,39.3366],[72.0498,39.3689],[71.9592,39.3459],[71.807,39.2728],[71.7512,39.2742],[71.7109,39.321],[71.713,39.3415],[71.7481,39.3796],[71.7403,39.4483],[71.7046,39.459],[71.5543,39.4442],[71.5129,39.4588],[71.4921,39.4937],[71.5314,39.5531],[71.5097,39.585],[71.5512,39.6688],[71.5754,39.6859],[71.6526,39.7003],[71.7134,39.7384],[71.7452,39.7365],[71.7959,39.702],[71.9429,39.6787],[72.0074,39.6487],[72.0959,39.6326],[72.1753,39.6469],[72.2378,39.6386],[72.3279,39.6584],[72.513,39.7305],[72.5502,39.7684],[72.4747,39.8671],[72.4371,39.8558],[72.4109,39.8617],[72.3642,39.923],[72.2825,39.9569],[72.2965,39.9997],[72.2829,40.0354],[72.2898,40.0672],[72.2409,40.0979],[72.2664,40.117],[72.2717,40.1434],[72.1968,40.1892],[72.2208,40.2139],[72.2121,40.2875],[72.1863,40.2966],[72.0132,40.2621],[71.9582,40.2865],[71.9567,40.3157],[72.0432,40.3493],[72.0696,40.3694],[72.0993,40.4264],[72.1659,40.4544],[72.2542,40.4583],[72.2596,40.4424],[72.2116,40.4256],[72.2696,40.424],[72.3705,40.3856],[72.3941,40.3894],[72.4144,40.4107],[72.4262,40.4593],[72.4157,40.4793],[72.3635,40.5123],[72.3701,40.5577],[72.3485,40.5854],[72.3519,40.602],[72.3816,40.6121],[72.4479,40.5605],[72.5153,40.5456],[72.5858,40.5087],[72.6255,40.5105],[72.6505,40.5322],[72.6642,40.5778],[72.7192,40.5649],[72.7484,40.5751],[72.76,40.6418],[72.7839,40.6697],[72.891,40.6951],[73.118,40.7829],[73.1486,40.8137],[73.135,40.8353],[73.2609,40.9044],[73.2579,40.9849],[73.278,41.0109],[73.3366,41.0424],[73.3695,41.0182],[73.3919,41.0222],[73.4628,41.095],[73.6181,41.092],[73.6268,41.0987],[73.62,41.1214],[73.6346,41.1353],[73.6701,41.1392],[73.6997,41.104],[73.5917,41.015],[73.6257,41.0014],[73.6356,40.9763],[73.7117,40.9534],[73.7199,41.002],[73.7845,41.0438],[73.8379,41.1105],[73.8703,41.1267],[73.8855,41.12],[73.8853,41.092],[73.9165,41.0673],[73.9277,41.0174],[74.0417,40.972],[74.2015,40.8609],[74.2221,40.8133],[74.3192,40.7464],[74.3597,40.7028],[74.4211,40.6668],[74.5706,40.6232],[74.5926,40.5997],[74.5889,40.5539],[74.6775,40.539],[74.7107,40.5169],[74.8323,40.5081]]]}},{"type":"Feature","id":"Talas","properties":{"id":"Talas","iso_code":"KG-T","name":"Talas","name_full":"Talas","name_ja":"タラス州","center_lonlat":[72.1293,42.4338]},"geometry":{"type":"Polygon","coordinates":[[[73.5051,42.4216],[73.5337,42.419],[73.5585,42.4355],[73.5632,42.4739],[73.5804,42.4906],[73.6059,42.4546],[73.6766,42.4501],[73.6929,42.4177],[73.606,42.3147],[73.5309,42.289],[73.4926,42.285],[73.4199,42.3026],[73.325,42.285],[73.2654,42.2918],[73.2039,42.2807],[73.1453,42.2478],[73.0882,42.2431],[73.0697,42.1881],[73.1239,42.1667],[73.1123,42.1393],[73.081,42.1315],[73.0431,42.1461],[72.9464,42.1282],[72.9035,42.1092],[72.8859,42.0688],[72.8177,42.0612],[72.7366,42.114],[72.6281,42.1522],[72.5718,42.1416],[72.5204,42.1622],[72.4363,42.1655],[72.3964,42.203],[72.3514,42.2062],[72.2351,42.1857],[72.1645,42.0812],[72.0619,42.0717],[72.0189,42.0965],[71.8879,42.1365],[71.8215,42.1409],[71.6272,42.2029],[71.5023,42.1998],[71.4207,42.1808],[71.2752,42.2043],[71.2499,42.1984],[71.0458,42.291],[71.014,42.2877],[70.9478,42.2481],[70.8978,42.2616],[70.8527,42.3061],[70.9327,42.3762],[70.9299,42.4123],[70.962,42.4681],[70.9771,42.4788],[71.041,42.4548],[71.0642,42.4703],[71.0579,42.4934],[71.0127,42.526],[71.0032,42.5635],[71.0407,42.5805],[71.127,42.5906],[71.1481,42.6174],[71.1575,42.6879],[71.2114,42.7052],[71.2625,42.7536],[71.3476,42.7428],[71.4046,42.7949],[71.5042,42.7896],[71.5663,42.7572],[71.6935,42.8118],[71.8477,42.8341],[72.1049,42.7503],[72.1641,42.7651],[72.2924,42.7611],[72.4767,42.6826],[72.5838,42.6783],[72.7258,42.6529],[72.7806,42.6204],[72.8152,42.573],[72.8745,42.544],[72.9423,42.536],[73.1151,42.5508],[73.1891,42.5208],[73.3014,42.5071],[73.3166,42.4937],[73.3144,42.4416],[73.3262,42.4287],[73.4769,42.3991],[73.5051,42.4029],[73.5051,42.4216]]]}}]}
