{"type":"FeatureCollection","features":[{"type":"Feature","id":"Attapeu","properties":{"id":"Attapeu","iso_code":"LA-AT","name":"Attapeu","name_full":"Attapeu","name_ja":"アッタプー県","center_lonlat":[106.93,14.7992]},"geometry":{"type":"Polygon","coordinates":[[[107.5024,15.044],[107.4456,15.0254],[107.4539,14.9679],[107.5582,14.8867],[107.4909,14.8042],[107.5093,14.7586],[107.4981,14.7459],[107.5223,14.7187],[107.5204,14.7046],[107.4518,14.6322],[107.4149,14.5434],[107.3516,14.5616],[107.3057,14.5972],[107.2873,14.5985],[107.2339,14.5449],[107.2197,14.498],[107.1806,14.4962],[107.1587,14.4515],[107.1008,14.4076],[107.0786,14.4008],[107.0272,14.4353],[106.9779,14.3654],[106.9611,14.3604],[106.9461,14.3235],[106.8851,14.3355],[106.8358,14.3071],[106.793,14.3226],[106.7072,14.4293],[106.6344,14.4509],[106.6054,14.4666],[106.5857,14.496],[106.5438,14.5121],[106.531,14.566],[106.5125,14.5904],[106.4722,14.5641],[106.4848,14.5238],[106.4365,14.5238],[106.4336,14.5057],[106.4452,14.4995],[106.4192,14.4665],[106.34,14.449],[106.3517,14.4751],[106.341,14.5281],[106.2843,14.5885],[106.2634,14.6687],[106.1906,14.7261],[106.176,14.7534],[106.1733,14.8269],[106.2149,14.8893],[106.3037,14.9665],[106.3181,14.9924],[106.3714,15.0056],[106.4319,14.9537],[106.4816,14.9821],[106.5022,14.9622],[106.4843,14.8526],[106.4852,14.8266],[106.5054,14.8024],[106.6108,14.7682],[106.631,14.7818],[106.6913,14.7862],[106.7081,14.8377],[106.7556,14.886],[106.8192,14.8946],[106.8035,14.9348],[106.8222,14.9651],[106.8221,15.016],[106.812,15.0661],[106.7613,15.1241],[106.7203,15.1148],[106.6983,15.1191],[106.684,15.1382],[106.7059,15.1473],[106.743,15.221],[106.7907,15.2547],[106.8232,15.2584],[106.9103,15.2281],[106.9451,15.2291],[106.9992,15.2475],[107.0495,15.2423],[107.0974,15.2714],[107.1686,15.2763],[107.238,15.2536],[107.2925,15.1915],[107.3467,15.1655],[107.3778,15.1581],[107.417,15.1881],[107.4607,15.1815],[107.5196,15.0848],[107.5024,15.044]]]}},{"type":"Feature","id":"Bokeo","properties":{"id":"Bokeo","iso_code":"LA-BK","name":"Bokeo","name_full":"Bokeo","name_ja":"ボーケーオ県","center_lonlat":[100.6406,20.3472]},"geometry":{"type":"Polygon","coordinates":[[[100.6078,20.8399],[100.6351,20.8031],[100.681,20.7899],[100.7176,20.7612],[100.7342,20.7163],[100.7889,20.6619],[100.8242,20.5938],[100.832,20.4998],[100.864,20.4876],[100.9381,20.4961],[100.966,20.4762],[101.0043,20.4093],[101.007,20.351],[101.0439,20.3219],[101.1274,20.2995],[101.1972,20.3155],[101.2286,20.3083],[101.2467,20.2475],[101.244,20.136],[101.2066,20.0893],[101.175,20.0738],[101.1411,20.0779],[101.0824,20.1182],[101.0433,20.1115],[101.0117,20.092],[101.0019,20.0567],[100.9365,19.9972],[100.8228,19.9849],[100.7417,19.957],[100.7431,19.9159],[100.7632,19.8707],[100.6782,19.8187],[100.5802,19.804],[100.5499,19.7862],[100.4828,19.7786],[100.4077,19.7943],[100.4384,19.8472],[100.484,19.8807],[100.5434,20.0666],[100.5465,20.1679],[100.5292,20.1497],[100.461,20.1907],[100.3443,20.39],[100.3065,20.3997],[100.2404,20.3728],[100.2092,20.313],[100.1671,20.2926],[100.1677,20.2536],[100.1525,20.2392],[100.1346,20.2391],[100.103,20.2636],[100.0971,20.3484],[100.1209,20.3888],[100.1729,20.6221],[100.2113,20.6974],[100.2745,20.762],[100.3297,20.786],[100.3648,20.8282],[100.5367,20.8077],[100.6078,20.8399]]]}},{"type":"Feature","id":"Bolikhamsai","properties":{"id":"Bolikhamsai","iso_code":"LA-BL","name":"Bolikhamsai","name_full":"Bolikhamsai","name_ja":"ボーリカムサイ県","center_lonlat":[104.2449,18.4824]},"geometry":{"type":"Polygon","coordinates":[[[103.0877,18.1387],[103.0683,18.1679],[103.0355,18.1262],[103.0049,18.1254],[102.9968,18.1476],[103.0132,18.1868],[102.9955,18.2509],[102.9039,18.2935],[102.9139,18.3432],[102.9021,18.3932],[102.8575,18.4361],[102.8217,18.5107],[102.8878,18.5249],[103.0839,18.5132],[103.2893,18.533],[103.3683,18.5514],[103.4382,18.59],[103.4877,18.6328],[103.4987,18.6689],[103.4816,18.8078],[103.4916,18.8315],[103.5179,18.8388],[103.4896,18.876],[103.4842,18.9304],[103.5708,18.9498],[103.6115,18.9114],[103.7754,18.8272],[103.8855,18.8771],[104.0372,18.8119],[104.1216,18.8259],[104.1907,18.8991],[104.2104,18.9481],[104.2533,18.9844],[104.2481,19.0534],[104.2596,19.1041],[104.3029,19.0687],[104.3552,19.0479],[104.4132,18.9831],[104.4977,18.968],[104.5561,18.8965],[104.6462,18.8325],[104.6856,18.8248],[104.7103,18.7961],[104.8016,18.7751],[104.8729,18.778],[104.8994,18.7706],[104.9197,18.7356],[104.9902,18.733],[105.0646,18.6966],[105.1127,18.6983],[105.1695,18.6306],[105.1695,18.6149],[105.1621,18.5982],[105.1281,18.5989],[105.1136,18.5808],[105.08,18.4544],[105.0908,18.4265],[105.1629,18.366],[105.1567,18.3198],[105.1662,18.3068],[105.2147,18.2779],[105.2359,18.2495],[105.2569,18.2475],[105.241,18.1756],[105.1922,18.1118],[105.1322,17.9912],[105.0943,17.9503],[105.0397,17.9408],[104.9279,17.9569],[104.8713,17.9981],[104.8313,18.0038],[104.8242,18.0402],[104.793,18.0759],[104.5784,18.2016],[104.5497,18.2295],[104.5117,18.2116],[104.5115,18.1997],[104.4329,18.1849],[104.282,17.8615],[104.2109,18.0086],[104.1224,18.0953],[104.0186,18.2991],[103.9754,18.3307],[103.9293,18.3276],[103.8739,18.2832],[103.8014,18.3383],[103.6956,18.3532],[103.6071,18.4004],[103.5488,18.4154],[103.3968,18.4414],[103.3069,18.4257],[103.2608,18.4002],[103.234,18.3558],[103.2402,18.336],[103.2904,18.3051],[103.2954,18.2878],[103.1682,18.2498],[103.1386,18.1667],[103.1101,18.1418],[103.0877,18.1387]]]}},{"type":"Feature","id":"Champasak","properties":{"id":"Champasak","iso_code":"LA-CH","name":"Champasak","name_full":"Champasak","name_ja":"チャンパーサック県","center_lonlat":[105.9452,14.7767]},"geometry":{"type":"Polygon","coordinates":[[[105.5922,15.4275],[105.6341,15.4539],[105.6612,15.4566],[105.7085,15.4416],[105.7537,15.4586],[105.7944,15.4319],[105.9572,15.458],[105.981,15.4451],[106.0727,15.4599],[106.1018,15.4129],[106.0813,15.3913],[106.075,15.3623],[106.1341,15.2995],[106.1607,15.2884],[106.2792,15.3757],[106.3735,15.3999],[106.4246,15.3815],[106.4709,15.3251],[106.562,15.3026],[106.6662,15.2223],[106.6717,15.1375],[106.684,15.1382],[106.6983,15.1191],[106.7203,15.1148],[106.7613,15.1241],[106.812,15.0661],[106.8221,15.016],[106.8222,14.9651],[106.8035,14.9348],[106.8192,14.8946],[106.7556,14.886],[106.7081,14.8377],[106.6913,14.7862],[106.631,14.7818],[106.6108,14.7682],[106.5054,14.8024],[106.4852,14.8266],[106.4843,14.8526],[106.5022,14.9622],[106.4816,14.9821],[106.4319,14.9537],[106.3714,15.0056],[106.3181,14.9924],[106.3037,14.9665],[106.2149,14.8893],[106.1733,14.8269],[106.176,14.7534],[106.1906,14.7261],[106.2634,14.6687],[106.2843,14.5885],[106.341,14.5281],[106.3517,14.4751],[106.34,14.449],[106.2967,14.4479],[106.2301,14.4905],[106.2039,14.3999],[106.1732,14.3697],[106.0635,14.3729],[106.0554,14.3484],[106.0382,14.3477],[105.974,14.3658],[105.9692,14.332],[106.0045,14.29],[106.0125,14.2258],[106.0762,14.1745],[106.1017,14.1152],[106.1495,14.0536],[106.082,13.981],[106.0838,13.934],[106.0692,13.9165],[105.974,13.9293],[105.8997,13.9226],[105.7871,14.0102],[105.744,14.0869],[105.6431,14.1135],[105.6173,14.103],[105.5946,14.1363],[105.5614,14.1382],[105.5332,14.1643],[105.4501,14.1172],[105.3641,14.1041],[105.3378,14.11],[105.3039,14.1524],[105.2569,14.1824],[105.188,14.291],[105.1843,14.3457],[105.2686,14.3644],[105.2947,14.3991],[105.3351,14.3857],[105.3677,14.4145],[105.416,14.4282],[105.5075,14.564],[105.4958,14.6599],[105.5051,14.7364],[105.4891,14.7863],[105.5015,14.8273],[105.5244,14.8372],[105.5178,14.8777],[105.543,14.8801],[105.5506,14.9023],[105.5342,14.934],[105.5439,14.9531],[105.5931,14.9908],[105.5535,15.0053],[105.5209,15.0661],[105.4983,15.0661],[105.4739,15.0906],[105.4519,15.0948],[105.4438,15.1338],[105.4631,15.1894],[105.564,15.2725],[105.5615,15.3209],[105.4833,15.3345],[105.4863,15.3749],[105.5922,15.4275]]]}},{"type":"Feature","id":"Houaphanh","properties":{"id":"Houaphanh","iso_code":"LA-HO","name":"Houaphanh","name_full":"Houaphanh","name_ja":"フアパン県","center_lonlat":[104.007,20.2761]},"geometry":{"type":"Polygon","coordinates":[[[104.2002,19.6986],[104.1863,19.7869],[104.2092,19.8546],[104.2049,19.9022],[104.1917,19.8635],[104.1739,19.8489],[104.1147,19.8438],[104.0827,19.8643],[104.0378,19.8049],[103.9521,19.7826],[103.8745,19.8462],[103.8924,19.9024],[103.8875,19.9497],[103.8487,19.9978],[103.7951,20.0283],[103.7414,20.0249],[103.6953,19.9922],[103.6866,19.9296],[103.6594,19.9258],[103.6303,19.939],[103.6076,19.9122],[103.4705,19.8684],[103.368,19.8876],[103.3251,19.9152],[103.2758,19.8955],[103.2284,19.9307],[103.1382,19.9151],[103.1402,20.0664],[103.1686,20.0996],[103.1142,20.1764],[103.2356,20.3125],[103.2324,20.3876],[103.2453,20.4141],[103.2091,20.4201],[103.1773,20.4752],[103.2007,20.5008],[103.2148,20.5587],[103.214,20.6664],[103.2266,20.707],[103.3849,20.7782],[103.3891,20.7943],[103.4266,20.8207],[103.4404,20.8157],[103.4894,20.7525],[103.5779,20.7329],[103.6611,20.6608],[103.6854,20.6577],[103.7143,20.6717],[103.7072,20.7218],[103.7586,20.7497],[103.7567,20.796],[103.7853,20.846],[103.8268,20.8477],[103.8586,20.8696],[104.0106,20.9081],[104.0567,20.9588],[104.0923,20.9612],[104.1226,20.9432],[104.1939,20.9299],[104.2211,20.892],[104.2789,20.8915],[104.3891,20.771],[104.4526,20.7636],[104.4923,20.7021],[104.6152,20.6465],[104.6072,20.6191],[104.5426,20.5357],[104.4958,20.5119],[104.445,20.5346],[104.4238,20.4954],[104.3664,20.4585],[104.3598,20.4397],[104.4324,20.4111],[104.5755,20.4141],[104.6123,20.3767],[104.6809,20.341],[104.6886,20.301],[104.6574,20.2796],[104.6571,20.2127],[104.6908,20.1965],[104.8192,20.221],[104.908,20.1753],[104.9049,20.1346],[104.9644,20.0761],[104.944,20.0671],[104.9495,19.9955],[104.9357,19.9842],[104.8738,19.9827],[104.8579,19.9552],[104.7807,19.9081],[104.7555,19.867],[104.8166,19.8481],[104.805,19.7909],[104.7367,19.7457],[104.676,19.7247],[104.6143,19.6074],[104.5792,19.618],[104.5462,19.6019],[104.5058,19.6028],[104.4154,19.6508],[104.3801,19.6853],[104.3419,19.683],[104.2953,19.6549],[104.277,19.6839],[104.229,19.706],[104.2002,19.6986]]]}},{"type":"Feature","id":"Khammouane","properties":{"id":"Khammouane","iso_code":"LA-KH","name":"Khammouane","name_full":"Khammouane","name_ja":"カムムアン県","center_lonlat":[105.2448,17.5679]},"geometry":{"type":"Polygon","coordinates":[[[104.7463,16.9435],[104.7453,17.0248],[104.8145,17.194],[104.8193,17.3611],[104.7927,17.4235],[104.7568,17.4499],[104.7026,17.5273],[104.4812,17.6404],[104.4223,17.6998],[104.3526,17.8193],[104.282,17.8615],[104.4329,18.1849],[104.5115,18.1997],[104.5117,18.2116],[104.5497,18.2295],[104.5784,18.2016],[104.793,18.0759],[104.8242,18.0402],[104.8313,18.0038],[104.8713,17.9981],[104.9279,17.9569],[105.0397,17.9408],[105.0943,17.9503],[105.1322,17.9912],[105.1922,18.1118],[105.241,18.1756],[105.2569,18.2475],[105.2925,18.2527],[105.3056,18.1811],[105.3683,18.15],[105.392,18.1942],[105.41,18.2019],[105.4667,18.181],[105.476,18.1273],[105.5465,18.059],[105.5593,18.0153],[105.5898,17.9958],[105.606,17.9641],[105.5942,17.8881],[105.6052,17.8543],[105.644,17.8201],[105.7231,17.6735],[105.8199,17.6216],[106.0193,17.3945],[106.1854,17.2574],[106.2218,17.2449],[106.26,17.2892],[106.2846,17.2848],[106.288,17.2538],[106.3105,17.2271],[106.3064,17.1765],[106.3365,17.1286],[106.3846,17.0854],[106.404,17.0146],[106.3414,17.0094],[106.2545,17.0322],[106.1813,17.089],[106.1263,17.1074],[106.1173,17.0766],[106.0939,17.0588],[105.9933,17.0449],[105.8883,17.0512],[105.6909,17.1172],[105.6546,17.1106],[105.6339,17.0434],[105.4843,17.1004],[105.3723,17.097],[105.3072,17.0529],[105.2282,17.0557],[105.1648,17.1114],[105.0866,17.0747],[105.0531,17.0789],[105.0308,17.099],[104.9791,17.0867],[104.9505,17.0978],[104.9135,17.0714],[104.8634,17.0858],[104.8402,17.0766],[104.8369,17.0483],[104.7953,17.0116],[104.7942,16.9936],[104.8139,17.0069],[104.8312,16.9904],[104.8458,16.9323],[104.8322,16.9072],[104.7765,16.914],[104.7463,16.9435]]]}},{"type":"Feature","id":"Luang Namtha","properties":{"id":"Luang Namtha","iso_code":"LA-LM","name":"Luang Namtha","name_full":"Luang Namtha","name_ja":"ルアンナムター県","center_lonlat":[101.1391,20.8821]},"geometry":{"type":"Polygon","coordinates":[[[101.7685,21.1605],[101.7802,21.1416],[101.7527,21.0296],[101.7309,20.9987],[101.6535,20.9663],[101.62,20.9388],[101.6235,20.8702],[101.5259,20.8546],[101.4806,20.816],[101.4444,20.7494],[101.4085,20.7318],[101.5053,20.7007],[101.5607,20.6332],[101.5683,20.5546],[101.5403,20.4757],[101.4552,20.3557],[101.3769,20.3217],[101.2274,20.3188],[101.2286,20.3083],[101.1972,20.3155],[101.1274,20.2995],[101.0439,20.3219],[101.007,20.351],[101.0043,20.4093],[100.966,20.4762],[100.9381,20.4961],[100.864,20.4876],[100.832,20.4998],[100.8242,20.5938],[100.7889,20.6619],[100.7342,20.7163],[100.7176,20.7612],[100.681,20.7899],[100.6351,20.8031],[100.6078,20.8399],[100.6521,20.8828],[100.5342,20.8739],[100.5157,20.8865],[100.5292,20.9684],[100.5573,20.992],[100.5435,21.0274],[100.6068,21.0439],[100.6376,21.0697],[100.6894,21.1593],[100.7254,21.3117],[100.792,21.2974],[100.8513,21.3148],[100.896,21.3558],[101.0034,21.406],[101.1571,21.5197],[101.159,21.5527],[101.1866,21.5353],[101.1714,21.4034],[101.2348,21.3637],[101.2074,21.3148],[101.2204,21.2963],[101.209,21.2455],[101.2597,21.1795],[101.2927,21.1761],[101.3815,21.2225],[101.5176,21.2426],[101.584,21.2244],[101.5818,21.1757],[101.6551,21.1892],[101.7043,21.1351],[101.756,21.1433],[101.7685,21.1605]]]}},{"type":"Feature","id":"Luang Prabang","properties":{"id":"Luang Prabang","iso_code":"LA-LP","name":"Luang Prabang","name_full":"Luang Prabang","name_ja":"ルアンパバーン県","center_lonlat":[102.5466,20.1265]},"geometry":{"type":"Polygon","coordinates":[[[102.9259,21.1406],[102.9516,21.069],[102.9992,21.0574],[103.0145,21.0405],[103.0682,20.9313],[103.13,20.8549],[103.2069,20.8246],[103.2634,20.8264],[103.3477,20.7891],[103.3891,20.7943],[103.3849,20.7782],[103.2266,20.707],[103.214,20.6664],[103.2148,20.5587],[103.2007,20.5008],[103.1773,20.4752],[103.2091,20.4201],[103.2453,20.4141],[103.2324,20.3876],[103.2356,20.3125],[103.1142,20.1764],[103.1686,20.0996],[103.1402,20.0664],[103.1382,19.9151],[103.1057,19.877],[103.0555,19.8737],[102.9525,19.8188],[102.9442,19.7246],[102.8668,19.7192],[102.871,19.6956],[102.8579,19.6774],[102.6711,19.5263],[102.6606,19.4734],[102.6735,19.4219],[102.7251,19.3716],[102.7459,19.3144],[102.7038,19.2737],[102.5758,19.2243],[102.5086,19.2784],[102.4876,19.3213],[102.4464,19.3349],[102.4596,19.3681],[102.4025,19.3681],[102.3709,19.3892],[102.3093,19.3624],[102.2785,19.3826],[102.2446,19.3758],[102.2152,19.4033],[102.1899,19.4093],[102.1272,19.4017],[102.097,19.3843],[102.0822,19.323],[101.9967,19.2542],[101.9568,19.1535],[101.8104,19.0499],[101.8305,19.2009],[101.8243,19.2791],[101.8662,19.3602],[101.9063,19.4032],[101.8414,19.4408],[101.8209,19.4671],[101.815,19.615],[101.8243,19.6496],[101.758,19.6554],[101.7468,19.6808],[101.746,19.7413],[101.773,19.8055],[101.7717,19.8533],[101.7076,19.9308],[101.8652,19.9575],[101.9745,20.0537],[102.0471,20.0537],[102.1192,20.0885],[102.1521,20.0916],[102.195,20.1453],[102.2022,20.1795],[102.1578,20.2491],[102.1736,20.3192],[102.1707,20.347],[102.1401,20.3795],[102.1432,20.4094],[102.2357,20.6298],[102.3038,20.6393],[102.3386,20.6747],[102.3537,20.7215],[102.3359,20.8084],[102.3513,20.8694],[102.3105,20.935],[102.3094,20.9625],[102.3782,20.9267],[102.4372,20.9204],[102.4538,20.8891],[102.5089,20.869],[102.5882,20.9475],[102.647,20.9482],[102.663,20.9787],[102.7443,21.0126],[102.7493,21.0262],[102.787,21.0316],[102.814,21.1396],[102.9259,21.1406]]]}},{"type":"Feature","id":"Oudomxay","properties":{"id":"Oudomxay","iso_code":"LA-OU","name":"Oudomxay","name_full":"Oudomxay","name_ja":"ウドムサイ県","center_lonlat":[101.7317,20.425]},"geometry":{"type":"Polygon","coordinates":[[[101.8215,21.2211],[101.9296,21.1537],[102.0384,21.1184],[102.0852,21.06],[102.1477,21.0152],[102.2157,21.0215],[102.2846,20.9891],[102.3094,20.9625],[102.3105,20.935],[102.3513,20.8694],[102.3359,20.8084],[102.3537,20.7215],[102.3386,20.6747],[102.3038,20.6393],[102.2357,20.6298],[102.1432,20.4094],[102.1401,20.3795],[102.1707,20.347],[102.1736,20.3192],[102.1578,20.2491],[102.2022,20.1795],[102.195,20.1453],[102.1521,20.0916],[102.1192,20.0885],[102.0471,20.0537],[101.9745,20.0537],[101.8652,19.9575],[101.7076,19.9308],[101.6069,19.8631],[101.6188,19.8557],[101.5969,19.8313],[101.5594,19.8235],[101.2579,19.8213],[101.1313,19.8887],[101.0433,19.8408],[101.0224,19.8557],[101.0094,19.834],[100.928,19.8732],[100.8059,19.892],[100.7632,19.8707],[100.7431,19.9159],[100.7417,19.957],[100.8228,19.9849],[100.9365,19.9972],[101.0019,20.0567],[101.0117,20.092],[101.0433,20.1115],[101.0824,20.1182],[101.1411,20.0779],[101.175,20.0738],[101.2066,20.0893],[101.244,20.136],[101.2467,20.2475],[101.2286,20.3083],[101.2274,20.3188],[101.3769,20.3217],[101.4552,20.3557],[101.5403,20.4757],[101.5683,20.5546],[101.5607,20.6332],[101.5053,20.7007],[101.4085,20.7318],[101.4444,20.7494],[101.4806,20.816],[101.5259,20.8546],[101.6235,20.8702],[101.62,20.9388],[101.6535,20.9663],[101.7309,20.9987],[101.7527,21.0296],[101.7802,21.1416],[101.7685,21.1605],[101.7601,21.196],[101.7736,21.2074],[101.8052,21.2045],[101.8215,21.2211]]]}},{"type":"Feature","id":"Phongsaly","properties":{"id":"Phongsaly","iso_code":"LA-PH","name":"Phongsaly","name_full":"Phongsaly","name_ja":"ポンサーリー県","center_lonlat":[102.2198,21.6512]},"geometry":{"type":"Polygon","coordinates":[[[102.9259,21.1406],[102.814,21.1396],[102.787,21.0316],[102.7493,21.0262],[102.7443,21.0126],[102.663,20.9787],[102.647,20.9482],[102.5882,20.9475],[102.5089,20.869],[102.4538,20.8891],[102.4372,20.9204],[102.3782,20.9267],[102.3094,20.9625],[102.2846,20.9891],[102.2157,21.0215],[102.1477,21.0152],[102.0852,21.06],[102.0384,21.1184],[101.9296,21.1537],[101.8215,21.2211],[101.8123,21.2581],[101.7365,21.2923],[101.7151,21.3211],[101.7297,21.4742],[101.7482,21.5145],[101.7362,21.5709],[101.7936,21.5882],[101.8062,21.606],[101.8038,21.6259],[101.7559,21.6487],[101.7548,21.6898],[101.7285,21.7175],[101.7511,21.8161],[101.7213,21.8444],[101.6737,21.9314],[101.6381,21.9409],[101.6068,21.9676],[101.5922,22.0281],[101.5554,22.0903],[101.5615,22.1761],[101.5157,22.2454],[101.551,22.2767],[101.6012,22.277],[101.6237,22.3466],[101.6437,22.3647],[101.6545,22.4461],[101.6891,22.4789],[101.7418,22.496],[101.7849,22.4722],[101.8178,22.4063],[101.8426,22.3833],[101.8679,22.3788],[101.8916,22.4297],[101.9094,22.4359],[102.0146,22.4461],[102.0953,22.4231],[102.1561,22.3281],[102.1544,22.3047],[102.2006,22.2655],[102.207,22.2454],[102.2864,22.2],[102.3894,22.1171],[102.4222,22.0622],[102.4829,22.0214],[102.4664,21.9954],[102.4781,21.9576],[102.591,21.9014],[102.6251,21.8286],[102.6319,21.7063],[102.6507,21.6578],[102.7212,21.6617],[102.7522,21.6809],[102.7867,21.7399],[102.7892,21.8203],[102.8067,21.8361],[102.8265,21.8213],[102.8351,21.7165],[102.8472,21.7045],[102.9478,21.7371],[102.9618,21.7015],[102.9741,21.5753],[102.895,21.4953],[102.8497,21.4254],[102.918,21.4501],[102.8838,21.3884],[102.8752,21.3053],[102.8292,21.2859],[102.8013,21.2548],[102.8781,21.2376],[102.893,21.2151],[102.883,21.1764],[102.9259,21.1406]]]}},{"type":"Feature","id":"Sainyabuli","properties":{"id":"Sainyabuli","iso_code":"LA-XA","name":"Sainyabuli","name_full":"Sainyabuli","name_ja":"サイニャブーリー県","center_lonlat":[101.3333,18.93]},"geometry":{"type":"Polygon","coordinates":[[[100.4077,19.7943],[100.4828,19.7786],[100.5499,19.7862],[100.5802,19.804],[100.6782,19.8187],[100.7632,19.8707],[100.8059,19.892],[100.928,19.8732],[101.0094,19.834],[101.0224,19.8557],[101.0433,19.8408],[101.1313,19.8887],[101.2579,19.8213],[101.5594,19.8235],[101.5969,19.8313],[101.6188,19.8557],[101.6069,19.8631],[101.7076,19.9308],[101.7717,19.8533],[101.773,19.8055],[101.746,19.7413],[101.7468,19.6808],[101.758,19.6554],[101.8243,19.6496],[101.815,19.615],[101.8209,19.4671],[101.8414,19.4408],[101.9063,19.4032],[101.8662,19.3602],[101.8243,19.2791],[101.8305,19.2009],[101.8104,19.0499],[101.8031,19.0105],[101.8159,18.9412],[101.8032,18.8856],[101.851,18.8266],[101.8617,18.7933],[101.8243,18.7037],[101.8107,18.6218],[101.7299,18.4884],[101.696,18.4667],[101.6598,18.4709],[101.6446,18.4576],[101.6151,18.4055],[101.5778,18.3851],[101.547,18.3253],[101.4812,18.2938],[101.4032,18.1822],[101.3991,18.1413],[101.427,18.0839],[101.4332,18.0123],[101.4236,17.9289],[101.4563,17.8773],[101.4954,17.8791],[101.509,17.8608],[101.5511,17.8751],[101.5575,17.8645],[101.5369,17.8267],[101.5455,17.8137],[101.534,17.8096],[101.5563,17.7921],[101.5027,17.7654],[101.4683,17.7204],[101.4535,17.751],[101.432,17.7336],[101.388,17.7293],[101.3819,17.7207],[101.404,17.7156],[101.3838,17.6849],[101.3573,17.679],[101.247,17.5922],[101.2022,17.5232],[101.1667,17.5106],[101.1323,17.4617],[101.0493,17.4957],[100.9815,17.5476],[100.886,17.5738],[100.8857,17.5959],[100.9538,17.6998],[100.9586,17.7641],[100.9755,17.7798],[100.9652,17.7976],[101.0003,17.8305],[101.0008,17.8848],[101.0662,17.934],[101.1123,18.0113],[101.1652,18.0534],[101.1416,18.124],[101.1628,18.1953],[101.1284,18.2457],[101.1301,18.2912],[101.1554,18.3229],[101.0823,18.3642],[101.0303,18.4278],[101.0738,18.5058],[101.1554,18.5567],[101.1609,18.5998],[101.2347,18.6584],[101.2348,18.6895],[101.2058,18.7301],[101.2286,18.7956],[101.2249,18.8748],[101.2673,18.9345],[101.2839,18.9815],[101.3264,19.0205],[101.3179,19.0501],[101.2357,19.1281],[101.2113,19.3264],[101.1785,19.3466],[101.1724,19.3764],[101.1929,19.4528],[101.2382,19.4723],[101.2517,19.4944],[101.2549,19.5472],[101.2382,19.5782],[101.208,19.5896],[101.1247,19.5651],[101.0682,19.5771],[101.0025,19.6106],[100.8798,19.6136],[100.753,19.4824],[100.7148,19.5125],[100.6333,19.5422],[100.607,19.5409],[100.5667,19.4956],[100.5206,19.5026],[100.462,19.5371],[100.4556,19.5847],[100.4189,19.6344],[100.4072,19.6999],[100.3792,19.7457],[100.4077,19.7943]]]}},{"type":"Feature","id":"Salavan","properties":{"id":"Salavan","iso_code":"LA-SL","name":"Salavan","name_full":"Salavan","name_ja":"サーラワン県","center_lonlat":[106.2729,15.8439]},"geometry":{"type":"Polygon","coordinates":[[[105.4232,16.005],[105.5003,15.9977],[105.7901,15.8854],[105.8423,15.8916],[105.8932,15.8801],[105.9827,15.9579],[106.0688,15.9516],[106.1402,15.9909],[106.1211,16.1428],[106.1639,16.1765],[106.2506,16.1668],[106.304,16.0998],[106.3149,16.1419],[106.3872,16.1361],[106.4828,16.1576],[106.534,16.1862],[106.5821,16.1724],[106.6303,16.1931],[106.6439,16.2167],[106.6397,16.2737],[106.6646,16.3202],[106.6815,16.3337],[106.7041,16.3195],[106.7301,16.3217],[106.7786,16.3434],[106.7915,16.3684],[106.7958,16.3984],[106.783,16.4225],[106.7515,16.4283],[106.7591,16.4525],[106.7973,16.4795],[106.8229,16.531],[106.8467,16.5301],[106.8641,16.5041],[106.8559,16.4147],[106.8763,16.418],[106.8977,16.3785],[106.946,16.3461],[106.9673,16.2999],[107.0534,16.2952],[107.1083,16.2675],[107.136,16.1848],[107.0819,16.1143],[107.0691,16.0776],[106.9843,16.0388],[106.9566,16.046],[106.9347,16.0286],[106.8988,16.0296],[106.8176,16.0493],[106.793,15.9925],[106.8044,15.962],[106.735,15.8969],[106.6737,15.7931],[106.652,15.776],[106.6549,15.7527],[106.6994,15.7159],[106.6734,15.6824],[106.6981,15.6239],[106.6855,15.6073],[106.6906,15.559],[106.6791,15.5452],[106.6278,15.5526],[106.5924,15.5306],[106.4622,15.5307],[106.4306,15.4918],[106.3512,15.513],[106.3278,15.5041],[106.3224,15.4792],[106.3001,15.4678],[106.3165,15.4201],[106.3735,15.3999],[106.2792,15.3757],[106.1607,15.2884],[106.1341,15.2995],[106.075,15.3623],[106.0813,15.3913],[106.1018,15.4129],[106.0727,15.4599],[105.981,15.4451],[105.9572,15.458],[105.7944,15.4319],[105.7537,15.4586],[105.7085,15.4416],[105.6612,15.4566],[105.6341,15.4539],[105.5922,15.4275],[105.6104,15.4572],[105.6163,15.5213],[105.651,15.6346],[105.6409,15.682],[105.6129,15.7215],[105.5685,15.7494],[105.5254,15.7635],[105.448,15.7649],[105.412,15.7998],[105.3606,15.9194],[105.3625,15.9548],[105.4232,16.005]]]}},{"type":"Feature","id":"Savannakhet","properties":{"id":"Savannakhet","iso_code":"LA-SV","name":"Savannakhet","name_full":"Savannakhet","name_ja":"サワンナケート県","center_lonlat":[105.7086,16.5539]},"geometry":{"type":"Polygon","coordinates":[[[104.7463,16.9435],[104.7765,16.914],[104.8322,16.9072],[104.8458,16.9323],[104.8312,16.9904],[104.8139,17.0069],[104.7942,16.9936],[104.7953,17.0116],[104.8369,17.0483],[104.8402,17.0766],[104.8634,17.0858],[104.9135,17.0714],[104.9505,17.0978],[104.9791,17.0867],[105.0308,17.099],[105.0531,17.0789],[105.0866,17.0747],[105.1648,17.1114],[105.2282,17.0557],[105.3072,17.0529],[105.3723,17.097],[105.4843,17.1004],[105.6339,17.0434],[105.6546,17.1106],[105.6909,17.1172],[105.8883,17.0512],[105.9933,17.0449],[106.0939,17.0588],[106.1173,17.0766],[106.1263,17.1074],[106.1813,17.089],[106.2545,17.0322],[106.3414,17.0094],[106.404,17.0146],[106.4203,16.9887],[106.4968,16.9639],[106.5245,16.9892],[106.5334,16.9727],[106.5407,16.6591],[106.5724,16.6136],[106.6402,16.5866],[106.6412,16.5104],[106.6707,16.4444],[106.6929,16.4279],[106.7227,16.4325],[106.7257,16.4171],[106.7515,16.4283],[106.783,16.4225],[106.7958,16.3984],[106.7915,16.3684],[106.7786,16.3434],[106.7301,16.3217],[106.7041,16.3195],[106.6815,16.3337],[106.6646,16.3202],[106.6397,16.2737],[106.6439,16.2167],[106.6303,16.1931],[106.5821,16.1724],[106.534,16.1862],[106.4828,16.1576],[106.3872,16.1361],[106.3149,16.1419],[106.304,16.0998],[106.2506,16.1668],[106.1639,16.1765],[106.1211,16.1428],[106.1402,15.9909],[106.0688,15.9516],[105.9827,15.9579],[105.8932,15.8801],[105.8423,15.8916],[105.7901,15.8854],[105.5003,15.9977],[105.4232,16.005],[105.4049,16.0188],[105.2372,16.0508],[105.0581,16.1212],[105.0326,16.1653],[105.0155,16.2767],[104.908,16.3534],[104.8555,16.4541],[104.7652,16.5113],[104.7484,16.5719],[104.779,16.7049],[104.7568,16.7985],[104.7664,16.8682],[104.7463,16.9435]]]}},{"type":"Feature","id":"Sekong","properties":{"id":"Sekong","iso_code":"LA-XE","name":"Sekong","name_full":"Sekong","name_ja":"セーコーン県","center_lonlat":[107.0279,15.5718]},"geometry":{"type":"Polygon","coordinates":[[[107.136,16.1848],[107.1697,16.1569],[107.2388,16.1298],[107.299,16.0642],[107.3269,16.0561],[107.4356,16.0688],[107.4321,16.0383],[107.4447,16.01],[107.3755,15.9191],[107.3051,15.8991],[107.2357,15.8555],[107.1863,15.8594],[107.1488,15.7735],[107.2257,15.7168],[107.2391,15.6451],[107.3164,15.5887],[107.3693,15.4961],[107.3816,15.4885],[107.4051,15.5086],[107.443,15.5092],[107.4608,15.4844],[107.4875,15.4814],[107.4939,15.42],[107.5126,15.4094],[107.5732,15.4112],[107.5866,15.3434],[107.6576,15.2824],[107.6568,15.2057],[107.6273,15.1965],[107.6158,15.1355],[107.5805,15.0968],[107.5891,15.0582],[107.578,15.0472],[107.5024,15.044],[107.5196,15.0848],[107.4607,15.1815],[107.417,15.1881],[107.3778,15.1581],[107.3467,15.1655],[107.2925,15.1915],[107.238,15.2536],[107.1686,15.2763],[107.0974,15.2714],[107.0495,15.2423],[106.9992,15.2475],[106.9451,15.2291],[106.9103,15.2281],[106.8232,15.2584],[106.7907,15.2547],[106.743,15.221],[106.7059,15.1473],[106.684,15.1382],[106.6717,15.1375],[106.6662,15.2223],[106.562,15.3026],[106.4709,15.3251],[106.4246,15.3815],[106.3735,15.3999],[106.3165,15.4201],[106.3001,15.4678],[106.3224,15.4792],[106.3278,15.5041],[106.3512,15.513],[106.4306,15.4918],[106.4622,15.5307],[106.5924,15.5306],[106.6278,15.5526],[106.6791,15.5452],[106.6906,15.559],[106.6855,15.6073],[106.6981,15.6239],[106.6734,15.6824],[106.6994,15.7159],[106.6549,15.7527],[106.652,15.776],[106.6737,15.7931],[106.735,15.8969],[106.8044,15.962],[106.793,15.9925],[106.8176,16.0493],[106.8988,16.0296],[106.9347,16.0286],[106.9566,16.046],[106.9843,16.0388],[107.0691,16.0776],[107.0819,16.1143],[107.136,16.1848]]]}},{"type":"Feature","id":"Vientiane","properties":{"id":"Vientiane","iso_code":"LA-VI","name":"Vientiane","name_full":"Vientiane","name_ja":"ヴィエンチャン県","center_lonlat":[102.5011,18.7302]},"geometry":{"type":"Polygon","coordinates":[[[102.0555,18.1923],[101.9043,18.0371],[101.8838,18.0308],[101.7904,18.0736],[101.7658,18.0403],[101.7291,17.9122],[101.6362,17.8948],[101.6004,17.8544],[101.5776,17.8681],[101.5705,17.8289],[101.5455,17.8137],[101.5369,17.8267],[101.5575,17.8645],[101.5511,17.8751],[101.509,17.8608],[101.4954,17.8791],[101.4563,17.8773],[101.4236,17.9289],[101.4332,18.0123],[101.427,18.0839],[101.3991,18.1413],[101.4032,18.1822],[101.4812,18.2938],[101.547,18.3253],[101.5778,18.3851],[101.6151,18.4055],[101.6446,18.4576],[101.6598,18.4709],[101.696,18.4667],[101.7299,18.4884],[101.8107,18.6218],[101.8243,18.7037],[101.8617,18.7933],[101.851,18.8266],[101.8032,18.8856],[101.8159,18.9412],[101.8031,19.0105],[101.8104,19.0499],[101.9568,19.1535],[101.9967,19.2542],[102.0822,19.323],[102.097,19.3843],[102.1272,19.4017],[102.1899,19.4093],[102.2152,19.4033],[102.2446,19.3758],[102.2785,19.3826],[102.3093,19.3624],[102.3709,19.3892],[102.4025,19.3681],[102.4596,19.3681],[102.4464,19.3349],[102.4876,19.3213],[102.5086,19.2784],[102.5758,19.2243],[102.7038,19.2737],[102.7459,19.3144],[102.7589,19.2905],[102.8218,19.264],[102.9051,19.202],[103.0412,19.1845],[103.0922,19.1483],[103.2632,19.122],[103.3483,19.1436],[103.4373,19.1224],[103.4446,19.1444],[103.4604,19.1512],[103.5082,19.1493],[103.5815,19.0859],[103.6564,19.0682],[103.7207,19.0714],[103.7917,19.0387],[103.8611,19.0312],[103.8858,19.0089],[103.8938,18.9441],[103.8855,18.8771],[103.7754,18.8272],[103.6115,18.9114],[103.5708,18.9498],[103.4842,18.9304],[103.4896,18.876],[103.5179,18.8388],[103.4916,18.8315],[103.4816,18.8078],[103.4987,18.6689],[103.4877,18.6328],[103.4382,18.59],[103.3683,18.5514],[103.2893,18.533],[103.0839,18.5132],[102.8878,18.5249],[102.8217,18.5107],[102.8575,18.4361],[102.9021,18.3932],[102.9139,18.3432],[102.9039,18.2935],[102.8513,18.3087],[102.7694,18.2934],[102.665,18.2635],[102.6194,18.2253],[102.5391,18.2374],[102.5332,18.2705],[102.4892,18.2978],[102.3721,18.309],[102.2883,18.336],[102.255,18.3581],[102.244,18.3915],[102.2066,18.4334],[102.1754,18.4346],[102.1446,18.4282],[102.1024,18.3973],[102.0507,18.4174],[102.0432,18.3964],[102.0589,18.3738],[102.0583,18.3471],[102.0388,18.2669],[102.0408,18.216],[102.0555,18.1923]]]}},{"type":"Feature","id":"Vientiane Prefecture","properties":{"id":"Vientiane Prefecture","iso_code":"LA-VI","name":"Vientiane Prefecture","name_full":"Vientiane Prefecture","name_ja":"ヴィエンチャン都","center_lonlat":[102.5722,18.147]},"geometry":{"type":"Polygon","coordinates":[[[102.0555,18.1923],[102.0408,18.216],[102.0388,18.2669],[102.0583,18.3471],[102.0589,18.3738],[102.0432,18.3964],[102.0507,18.4174],[102.1024,18.3973],[102.1446,18.4282],[102.1754,18.4346],[102.2066,18.4334],[102.244,18.3915],[102.255,18.3581],[102.2883,18.336],[102.3721,18.309],[102.4892,18.2978],[102.5332,18.2705],[102.5391,18.2374],[102.6194,18.2253],[102.665,18.2635],[102.7694,18.2934],[102.8513,18.3087],[102.9039,18.2935],[102.9955,18.2509],[103.0132,18.1868],[102.9968,18.1476],[103.0049,18.1254],[103.0355,18.1262],[103.0683,18.1679],[103.0877,18.1387],[103.0663,18.1123],[103.0731,18.0355],[103.0379,17.9907],[103.0205,17.9842],[102.9549,18.0121],[102.8527,17.972],[102.7374,17.8904],[102.673,17.8654],[102.6676,17.8501],[102.6829,17.8101],[102.5953,17.8408],[102.6123,17.9153],[102.5996,17.9552],[102.5675,17.9708],[102.4455,17.9778],[102.3664,18.0388],[102.3067,18.0515],[102.1916,18.1521],[102.1719,18.2003],[102.1535,18.2101],[102.0785,18.2138],[102.0555,18.1923]]]}},{"type":"Feature","id":"Xiangkhouang","properties":{"id":"Xiangkhouang","iso_code":"LA-XI","name":"Xiangkhouang","name_full":"Xiangkhouang","name_ja":"シエンクワーン県","center_lonlat":[103.508,19.4654]},"geometry":{"type":"Polygon","coordinates":[[[104.2002,19.6986],[104.1363,19.6875],[104.1092,19.6549],[104.0887,19.6519],[104.001,19.6807],[103.9977,19.6525],[104.0174,19.6004],[104.0716,19.5591],[104.09,19.4837],[104.0605,19.4713],[104.0383,19.4129],[103.9528,19.391],[103.9213,19.3528],[103.87,19.3269],[103.8484,19.2999],[103.8927,19.2939],[103.9109,19.263],[103.9728,19.2253],[104.0367,19.2302],[104.1477,19.1829],[104.1981,19.1469],[104.2106,19.1007],[104.2596,19.1041],[104.2481,19.0534],[104.2533,18.9844],[104.2104,18.9481],[104.1907,18.8991],[104.1216,18.8259],[104.0372,18.8119],[103.8855,18.8771],[103.8938,18.9441],[103.8858,19.0089],[103.8611,19.0312],[103.7917,19.0387],[103.7207,19.0714],[103.6564,19.0682],[103.5815,19.0859],[103.5082,19.1493],[103.4604,19.1512],[103.4446,19.1444],[103.4373,19.1224],[103.3483,19.1436],[103.2632,19.122],[103.0922,19.1483],[103.0412,19.1845],[102.9051,19.202],[102.8218,19.264],[102.7589,19.2905],[102.7459,19.3144],[102.7251,19.3716],[102.6735,19.4219],[102.6606,19.4734],[102.6711,19.5263],[102.8579,19.6774],[102.871,19.6956],[102.8668,19.7192],[102.9442,19.7246],[102.9525,19.8188],[103.0555,19.8737],[103.1057,19.877],[103.1382,19.9151],[103.2284,19.9307],[103.2758,19.8955],[103.3251,19.9152],[103.368,19.8876],[103.4705,19.8684],[103.6076,19.9122],[103.6303,19.939],[103.6594,19.9258],[103.6866,19.9296],[103.6953,19.9922],[103.7414,20.0249],[103.7951,20.0283],[103.8487,19.9978],[103.8875,19.9497],[103.8924,19.9024],[103.8745,19.8462],[103.9521,19.7826],[104.0378,19.8049],[104.0827,19.8643],[104.1147,19.8438],[104.1739,19.8489],[104.1917,19.8635],[104.2049,19.9022],[104.2092,19.8546],[104.1863,19.7869],[104.2002,19.6986]]]}}]}
