{"type":"FeatureCollection","features":[{"type":"Feature","id":"Adazi","properties":{"id":"Adazi","iso_code":"LV-011","name":"Adazi","name_full":"Ādaži","name_ja":"アーダジ","center_lonlat":[24.3816,57.1088]},"geometry":{"type":"Polygon","coordinates":[[[24.3488,57.1838],[24.3724,57.1824],[24.467,57.1824],[24.5087,57.1059],[24.4587,57.0726],[24.3627,57.0573],[24.321,57.0281],[24.2612,57.042],[24.2473,57.0601],[24.2654,57.099],[24.3377,57.1282],[24.3488,57.1838]]]}},{"type":"Feature","id":"Aglona","properties":{"id":"Aglona","iso_code":"LV-001","name":"Aglona","name_full":"Aglona","name_ja":"アグルァナ","center_lonlat":[27.1059,56.1019]},"geometry":{"type":"Polygon","coordinates":[[[27.038,56.1801],[27.1016,56.1708],[27.1024,56.1891],[27.1623,56.2108],[27.2959,56.203],[27.3002,56.1816],[27.3312,56.1609],[27.339,56.1402],[27.2406,56.1117],[27.2639,56.0729],[27.1889,56.0547],[27.194,56.0107],[27.1474,55.9849],[27.0413,55.9823],[26.9677,56.0078],[26.9519,56.041],[26.9687,56.0602],[26.9311,56.0587],[26.8908,56.1051],[26.8885,56.1289],[26.9285,56.1242],[26.9368,56.1358],[26.9202,56.1457],[26.9318,56.1573],[27.038,56.1801]]]}},{"type":"Feature","id":"Aizkraukle","properties":{"id":"Aizkraukle","iso_code":"LV-002","name":"Aizkraukle","name_full":"Aizkraukle","name_ja":"アイズクラウクレ","center_lonlat":[25.23,56.6446]},"geometry":{"type":"Polygon","coordinates":[[[25.2784,56.6968],[25.2931,56.676],[25.2934,56.5911],[25.2153,56.5889],[25.1386,56.6191],[25.1796,56.6404],[25.1685,56.6805],[25.1763,56.7033],[25.2784,56.6968]]]}},{"type":"Feature","id":"Aizpute","properties":{"id":"Aizpute","iso_code":"LV-003","name":"Aizpute","name_full":"Aizpute","name_ja":"アイズプテ","center_lonlat":[21.5768,56.7147]},"geometry":{"type":"Polygon","coordinates":[[[21.4364,56.8676],[21.4931,56.8647],[21.526,56.842],[21.593,56.8451],[21.6442,56.7912],[21.6801,56.7916],[21.7384,56.7641],[21.7612,56.7412],[21.7761,56.6987],[21.823,56.6879],[21.8093,56.6693],[21.8205,56.6392],[21.7767,56.6137],[21.7954,56.5733],[21.7124,56.55],[21.6613,56.5606],[21.5845,56.55],[21.5717,56.5606],[21.6186,56.5883],[21.608,56.6438],[21.5717,56.6587],[21.4523,56.6459],[21.431,56.6736],[21.4033,56.6715],[21.399,56.6928],[21.3372,56.7184],[21.3159,56.7397],[21.3202,56.8079],[21.4395,56.8399],[21.4364,56.8676]]]}},{"type":"Feature","id":"Akniste","properties":{"id":"Akniste","iso_code":"LV-004","name":"Akniste","name_full":"Aknīste","name_ja":"アクニーステ","center_lonlat":[25.8145,56.1415]},"geometry":{"type":"Polygon","coordinates":[[[25.7955,56.0401],[25.6966,56.0879],[25.6497,56.1438],[25.6938,56.2085],[25.6938,56.2286],[25.8007,56.2352],[25.8764,56.2219],[25.9053,56.1707],[25.9766,56.1484],[25.9855,56.1106],[26.0122,56.1084],[26.0255,56.0794],[26.0077,56.0873],[25.9418,56.0617],[25.8313,56.1229],[25.8598,56.0818],[25.7955,56.0401]]]}},{"type":"Feature","id":"Aloja","properties":{"id":"Aloja","iso_code":"LV-005","name":"Aloja","name_full":"Aloja","name_ja":"アロヤ","center_lonlat":[24.8356,57.7982]},"geometry":{"type":"Polygon","coordinates":[[[24.8274,57.9819],[24.8423,57.9009],[24.885,57.8891],[24.9011,57.8255],[24.946,57.8175],[24.9533,57.8001],[24.9657,57.8083],[25.0175,57.7965],[25.0773,57.7672],[25.0987,57.736],[25.0762,57.7145],[25.0925,57.6882],[25.0937,57.6531],[25.0622,57.6524],[25.0847,57.6298],[25.0616,57.624],[25.0191,57.6381],[24.9345,57.612],[24.8814,57.6247],[24.8926,57.6525],[24.8314,57.6664],[24.8286,57.7192],[24.7994,57.7331],[24.7479,57.7318],[24.6492,57.7707],[24.5977,57.8708],[24.5741,57.882],[24.5908,57.8945],[24.5824,57.946],[24.6848,57.9476],[24.7335,57.9922],[24.8274,57.9819]]]}},{"type":"Feature","id":"Alsunga","properties":{"id":"Alsunga","iso_code":"LV-006","name":"Alsunga","name_full":"Alsunga","name_ja":"アルスンガ","center_lonlat":[21.5585,56.985]},"geometry":{"type":"Polygon","coordinates":[[[21.4934,56.9038],[21.4061,56.9235],[21.3958,56.9424],[21.4467,56.9497],[21.472,56.9714],[21.4736,57.013],[21.5062,57.0756],[21.539,57.0706],[21.5738,57.0856],[21.6398,57.0478],[21.6329,57.034],[21.6558,57.0089],[21.6923,56.9975],[21.7061,56.9563],[21.6398,56.9335],[21.5849,56.9312],[21.5643,56.9106],[21.4934,56.9038]]]}},{"type":"Feature","id":"Aluksne","properties":{"id":"Aluksne","iso_code":"LV-007","name":"Aluksne","name_full":"Alūksne","name_ja":"アルークスネ","center_lonlat":[27.1368,57.4085]},"geometry":{"type":"Polygon","coordinates":[[[27.6944,57.3564],[27.6819,57.3268],[27.6002,57.2978],[27.5556,57.2589],[27.4871,57.2739],[27.4063,57.2631],[27.3549,57.2848],[27.2759,57.2467],[27.1566,57.2264],[27.0459,57.2503],[27.0669,57.2687],[26.9885,57.3044],[26.865,57.2995],[26.8493,57.3153],[26.7607,57.3217],[26.7148,57.3065],[26.6332,57.3503],[26.5942,57.3913],[26.6146,57.4194],[26.7035,57.424],[26.7217,57.49],[26.8083,57.5037],[26.7958,57.5713],[26.8727,57.6272],[26.8961,57.615],[26.9811,57.609],[27.0854,57.5494],[27.1657,57.5467],[27.32,57.5161],[27.3529,57.5276],[27.5282,57.5285],[27.5113,57.4304],[27.6408,57.389],[27.6944,57.3564]]]}},{"type":"Feature","id":"Auce","properties":{"id":"Auce","iso_code":"LV-010","name":"Auce","name_full":"Auce","name_ja":"アウツェ","center_lonlat":[22.9486,56.4635]},"geometry":{"type":"Polygon","coordinates":[[[22.8596,56.3971],[22.7266,56.4245],[22.7482,56.4557],[22.7413,56.4754],[22.7014,56.4933],[22.7121,56.5654],[22.7981,56.5683],[22.8484,56.5386],[22.8967,56.5672],[22.9307,56.569],[22.9253,56.5886],[22.9611,56.6012],[22.9807,56.5779],[23.0219,56.5904],[23.088,56.5457],[23.0898,56.4796],[23.122,56.4706],[23.1291,56.4456],[23.1488,56.4331],[23.1184,56.4099],[23.1524,56.3902],[23.1726,56.358],[23.1127,56.3109],[23.0623,56.3042],[23.0167,56.3239],[22.957,56.402],[22.9245,56.4121],[22.8596,56.3971]]]}},{"type":"Feature","id":"Babite","properties":{"id":"Babite","iso_code":"LV-012","name":"Babite","name_full":"Babīte","name_ja":"バビーテ","center_lonlat":[23.7597,56.9002]},"geometry":{"type":"Polygon","coordinates":[[[23.9545,56.9914],[24.001,56.9793],[23.9427,56.9387],[23.8228,56.8836],[23.855,56.8264],[23.8246,56.8032],[23.7817,56.8211],[23.7696,56.8],[23.6695,56.8749],[23.6262,56.8892],[23.5068,56.8946],[23.492,56.9346],[23.5904,56.923],[23.7066,56.9319],[23.7674,56.9426],[23.7799,56.9569],[23.8014,56.9498],[23.9033,56.9623],[23.9545,56.9914]]]}},{"type":"Feature","id":"Baldone","properties":{"id":"Baldone","iso_code":"LV-013","name":"Baldone","name_full":"Baldone","name_ja":"バルドゥアネ","center_lonlat":[24.3602,56.7283]},"geometry":{"type":"Polygon","coordinates":[[[24.5255,56.7524],[24.5219,56.7136],[24.3554,56.6616],[24.2946,56.6755],[24.2578,56.7012],[24.2305,56.6994],[24.1882,56.7179],[24.1947,56.7406],[24.2286,56.7513],[24.2537,56.7388],[24.2698,56.746],[24.2537,56.7853],[24.3466,56.7871],[24.5255,56.7524]]]}},{"type":"Feature","id":"Baltinava","properties":{"id":"Baltinava","iso_code":"LV-014","name":"Baltinava","name_full":"Baltinava","name_ja":"バルティナヴァ","center_lonlat":[27.5949,56.9263]},"geometry":{"type":"Polygon","coordinates":[[[27.7458,57.0315],[27.7234,56.9988],[27.7151,56.9574],[27.6284,56.8442],[27.6444,56.8418],[27.5616,56.8707],[27.4467,56.8527],[27.4166,56.9022],[27.444,56.9159],[27.4941,56.9136],[27.5374,56.9341],[27.5191,56.9546],[27.665,56.9888],[27.6376,57.0184],[27.7458,57.0315]]]}},{"type":"Feature","id":"Balvi","properties":{"id":"Balvi","iso_code":"LV-015","name":"Balvi","name_full":"Balvi","name_ja":"バルヴィ","center_lonlat":[27.4746,57.0249]},"geometry":{"type":"Polygon","coordinates":[[[27.4871,57.2739],[27.4462,57.244],[27.4029,57.1597],[27.4553,57.1141],[27.5146,57.0799],[27.5419,57.0777],[27.5533,57.0389],[27.6308,57.0389],[27.6376,57.0184],[27.665,56.9888],[27.5191,56.9546],[27.5374,56.9341],[27.4941,56.9136],[27.444,56.9159],[27.4166,56.9022],[27.4467,56.8527],[27.4122,56.8453],[27.3834,56.8214],[27.3552,56.8216],[27.3399,56.7827],[27.1861,56.7938],[27.1608,56.8114],[26.984,56.8059],[26.9285,56.8311],[26.9533,56.8467],[26.9851,56.8782],[27.0361,56.884],[27.2002,56.8612],[27.2252,56.8954],[27.3323,56.9364],[27.3141,56.9797],[27.2617,56.9728],[27.2549,56.9934],[27.289,57.0002],[27.3141,57.0253],[27.3255,57.0617],[27.1181,57.0845],[27.0976,57.0913],[27.0976,57.1141],[27.0081,57.1145],[27.1566,57.2264],[27.2759,57.2467],[27.3549,57.2848],[27.4063,57.2631],[27.4871,57.2739]]]}},{"type":"Feature","id":"Bauska","properties":{"id":"Bauska","iso_code":"LV-016","name":"Bauska","name_full":"Bauska","name_ja":"バウスカ","center_lonlat":[24.2692,56.3947]},"geometry":{"type":"Polygon","coordinates":[[[24.5728,56.3098],[24.539,56.2876],[24.4472,56.2605],[24.3185,56.2986],[24.1389,56.2574],[23.9813,56.3124],[24.0356,56.3312],[24.0409,56.3509],[24.0731,56.3634],[24.0677,56.383],[24.1267,56.3687],[24.1553,56.3866],[24.0374,56.4259],[24.0177,56.502],[24.0429,56.5028],[24.0789,56.5355],[24.234,56.501],[24.3002,56.535],[24.3806,56.5296],[24.4378,56.4742],[24.4736,56.4832],[24.5129,56.4545],[24.5308,56.4099],[24.4468,56.3812],[24.4521,56.3669],[24.5058,56.3616],[24.4682,56.3312],[24.4807,56.3097],[24.529,56.3222],[24.5728,56.3098]]]}},{"type":"Feature","id":"Broceni","properties":{"id":"Broceni","iso_code":"LV-018","name":"Broceni","name_full":"Brocēni","name_ja":"ブルアツェーニ","center_lonlat":[22.6478,56.7076]},"geometry":{"type":"Polygon","coordinates":[[[22.7889,56.8039],[22.8206,56.7715],[22.8287,56.726],[22.8144,56.7152],[22.826,56.6981],[22.8001,56.696],[22.8053,56.6784],[22.8593,56.6442],[22.8293,56.6105],[22.777,56.6014],[22.7981,56.5683],[22.7121,56.5654],[22.6937,56.5882],[22.6549,56.6042],[22.6046,56.5997],[22.5748,56.5677],[22.5497,56.5791],[22.536,56.6202],[22.5017,56.6385],[22.488,56.7231],[22.4605,56.7368],[22.4422,56.7711],[22.4909,56.8515],[22.6343,56.8241],[22.642,56.8082],[22.7889,56.8039]]]}},{"type":"Feature","id":"Carnikava","properties":{"id":"Carnikava","iso_code":"LV-020","name":"Carnikava","name_full":"Carnikava","name_ja":"ツァルニカヴァ","center_lonlat":[24.2455,57.1174]},"geometry":{"type":"Polygon","coordinates":[[[24.113,57.0887],[24.2108,57.1237],[24.3308,57.1998],[24.3488,57.1838],[24.3377,57.1282],[24.2654,57.099],[24.2473,57.0601],[24.232,57.0726],[24.1624,57.0528],[24.113,57.0887]]]}},{"type":"Feature","id":"Cesis","properties":{"id":"Cesis","iso_code":"LV-022","name":"Cesis","name_full":"Cēsis","name_ja":"ツェースィス","center_lonlat":[25.4184,57.2354]},"geometry":{"type":"Polygon","coordinates":[[[25.2315,57.2961],[25.2315,57.3306],[25.3239,57.3087],[25.3113,57.2961],[25.3943,57.3024],[25.4663,57.2774],[25.5008,57.2492],[25.5008,57.2163],[25.5227,57.2085],[25.5603,57.2226],[25.5759,57.2038],[25.5634,57.1474],[25.4585,57.1568],[25.4115,57.1866],[25.3802,57.1881],[25.3599,57.232],[25.3176,57.232],[25.3192,57.2586],[25.2315,57.2961]]]}},{"type":"Feature","id":"Cibla","properties":{"id":"Cibla","iso_code":"LV-023","name":"Cibla","name_full":"Cibla","name_ja":"ツィブラ","center_lonlat":[27.8375,56.6075]},"geometry":{"type":"Polygon","coordinates":[[[27.8655,56.7427],[27.8826,56.7255],[27.981,56.687],[27.9974,56.6038],[28.011,56.5876],[28.1261,56.5478],[28.1322,56.536],[28.0933,56.5016],[28.0535,56.5181],[27.9888,56.5233],[27.9189,56.4819],[27.8852,56.4974],[27.8645,56.5285],[27.8127,56.5518],[27.7765,56.5414],[27.7558,56.5207],[27.6911,56.5673],[27.5611,56.5759],[27.5615,56.5996],[27.5802,56.6194],[27.5927,56.6553],[27.6445,56.6864],[27.761,56.6916],[27.8024,56.6657],[27.8205,56.689],[27.8205,56.7278],[27.8655,56.7427]]]}},{"type":"Feature","id":"Dagda","properties":{"id":"Dagda","iso_code":"LV-024","name":"Dagda","name_full":"Dagda","name_ja":"ダグダ","center_lonlat":[27.6341,56.1239]},"geometry":{"type":"Polygon","coordinates":[[[28.0511,56.1407],[27.9271,56.1094],[27.8807,56.0639],[27.7812,56.0164],[27.7601,55.9754],[27.6548,56.0211],[27.6419,56.0159],[27.6445,55.9874],[27.572,55.9978],[27.4607,56.0366],[27.3675,56.0237],[27.3701,56.0806],[27.2639,56.0729],[27.2406,56.1117],[27.339,56.1402],[27.3312,56.1609],[27.3002,56.1816],[27.2959,56.203],[27.4479,56.2094],[27.4472,56.2299],[27.509,56.2411],[27.535,56.2611],[27.5681,56.2423],[27.6516,56.2497],[27.6676,56.2402],[27.7225,56.2066],[27.8109,56.1963],[27.8384,56.1823],[27.9131,56.1837],[28.0398,56.2157],[28.0704,56.2085],[28.0775,56.1967],[28.0437,56.158],[28.0511,56.1407]]]}},{"type":"Feature","id":"Daugavpils","properties":{"id":"Daugavpils","iso_code":"LV-DGV","name":"Daugavpils","name_full":"Daugavpils","name_ja":"ダウガフピルス","center_lonlat":[26.6161,55.9156]},"geometry":{"type":"Polygon","coordinates":[[[26.2269,55.7969],[26.3494,55.8099],[26.3362,55.8397],[26.2766,55.881],[26.3196,55.9075],[26.2865,55.924],[26.2915,55.9406],[26.3378,55.9654],[26.3726,55.9538],[26.393,55.9777],[26.3655,56.0217],[26.3696,56.0438],[26.3453,56.0934],[26.3366,56.1494],[26.3008,56.1833],[26.3354,56.1897],[26.3808,56.1969],[26.4554,56.1804],[26.4845,56.1678],[26.5075,56.1323],[26.5408,56.1339],[26.5566,56.1566],[26.6248,56.1211],[26.6479,56.1353],[26.7185,56.1113],[26.8885,56.1289],[26.8908,56.1051],[26.9311,56.0587],[26.9687,56.0602],[26.9519,56.041],[26.9677,56.0078],[26.9327,56.0033],[26.9556,55.9503],[26.9356,55.9322],[26.9546,55.9276],[26.9342,55.8739],[26.978,55.8642],[26.9794,55.8263],[26.9001,55.7787],[26.8228,55.7061],[26.743,55.6829],[26.6401,55.6956],[26.5945,55.667],[26.481,55.6783],[26.3423,55.7163],[26.2797,55.7432],[26.2269,55.7969]],[[26.5184,55.8266],[26.5817,55.8406],[26.6319,55.8974],[26.6112,55.9039],[26.6098,55.9587],[26.5949,55.9621],[26.5411,55.9271],[26.4719,55.9332],[26.4379,55.9146],[26.4858,55.8929],[26.4903,55.8533],[26.5184,55.8266]]]}},{"type":"Feature","id":"Daugavpils (LV-DGV)","properties":{"id":"Daugavpils (LV-DGV)","iso_code":"LV-DGV","name":"Daugavpils (LV-DGV)","name_full":"Daugavpils","name_ja":"ダウガフピルス","center_lonlat":[26.5458,55.8927]},"geometry":{"type":"Polygon","coordinates":[[[26.5949,55.9621],[26.6098,55.9587],[26.6112,55.9039],[26.6319,55.8974],[26.5817,55.8406],[26.5184,55.8266],[26.4903,55.8533],[26.4858,55.8929],[26.4379,55.9146],[26.4719,55.9332],[26.5411,55.9271],[26.5949,55.9621]]]}},{"type":"Feature","id":"Dobele","properties":{"id":"Dobele","iso_code":"LV-026","name":"Dobele","name_full":"Dobele","name_ja":"ドベレ","center_lonlat":[23.1923,56.6241]},"geometry":{"type":"Polygon","coordinates":[[[23.4866,56.8159],[23.5055,56.8082],[23.5253,56.7637],[23.4174,56.7068],[23.4782,56.6848],[23.4854,56.6603],[23.4059,56.6064],[23.4803,56.5995],[23.4772,56.5869],[23.4321,56.5708],[23.4593,56.5298],[23.4475,56.5056],[23.4151,56.4933],[23.383,56.5457],[23.3562,56.5457],[23.2739,56.4903],[23.3097,56.4599],[23.172,56.451],[23.1488,56.4331],[23.1291,56.4456],[23.122,56.4706],[23.0898,56.4796],[23.088,56.5457],[23.0219,56.5904],[22.9807,56.5779],[22.9611,56.6012],[22.9253,56.5886],[22.9307,56.569],[22.8967,56.5672],[22.8484,56.5386],[22.7981,56.5683],[22.777,56.6014],[22.8293,56.6105],[22.8593,56.6442],[22.8053,56.6784],[22.8001,56.696],[22.826,56.6981],[22.9034,56.7116],[22.9862,56.7108],[23.0839,56.6906],[23.1233,56.6988],[23.1717,56.6924],[23.2158,56.7111],[23.2996,56.7154],[23.3252,56.7495],[23.315,56.7655],[23.322,56.7821],[23.375,56.8008],[23.3972,56.7922],[23.4517,56.7994],[23.4866,56.8159]]]}},{"type":"Feature","id":"Dundaga","properties":{"id":"Dundaga","iso_code":"LV-027","name":"Dundaga","name_full":"Dundaga","name_ja":"ドゥンダガ","center_lonlat":[22.4041,57.5694]},"geometry":{"type":"Polygon","coordinates":[[[22.1945,57.6576],[22.4837,57.7425],[22.5858,57.7597],[22.6104,57.7546],[22.5872,57.665],[22.568,57.6742],[22.5703,57.617],[22.6091,57.5782],[22.6251,57.5027],[22.5474,57.4982],[22.504,57.4616],[22.4765,57.4136],[22.3485,57.4113],[22.3256,57.4341],[22.2822,57.4273],[22.2596,57.3979],[22.2449,57.4071],[22.1517,57.4046],[22.078,57.4232],[22.1379,57.4375],[22.1774,57.4591],[22.1745,57.4719],[22.2719,57.5072],[22.2721,57.5491],[22.2471,57.5996],[22.2356,57.6197],[22.2064,57.6269],[22.1945,57.6576]]]}},{"type":"Feature","id":"Durbe","properties":{"id":"Durbe","iso_code":"LV-028","name":"Durbe","name_full":"Durbe","name_ja":"ドゥルベ","center_lonlat":[21.4083,56.6123]},"geometry":{"type":"Polygon","coordinates":[[[21.3159,56.7397],[21.3372,56.7184],[21.399,56.6928],[21.4033,56.6715],[21.431,56.6736],[21.4523,56.6459],[21.5717,56.6587],[21.608,56.6438],[21.6186,56.5883],[21.5717,56.5606],[21.5291,56.5713],[21.4992,56.5521],[21.5291,56.5137],[21.4822,56.5116],[21.399,56.5585],[21.4076,56.5201],[21.3543,56.503],[21.3479,56.5436],[21.2562,56.5308],[21.2541,56.5883],[21.2818,56.6118],[21.2583,56.6566],[21.2882,56.6821],[21.2605,56.7397],[21.2924,56.7568],[21.3159,56.7397]]]}},{"type":"Feature","id":"Engure","properties":{"id":"Engure","iso_code":"LV-029","name":"Engure","name_full":"Engure","name_ja":"エングレ","center_lonlat":[23.2931,57.0484]},"geometry":{"type":"Polygon","coordinates":[[[23.1602,57.3186],[23.1987,57.2242],[23.2224,57.207],[23.2609,57.0989],[23.3401,57.0586],[23.5086,57.0312],[23.5786,56.9821],[23.4998,56.9614],[23.4772,56.9365],[23.3723,56.9104],[23.2006,56.9301],[23.1488,56.9212],[23.1416,56.9355],[23.1971,56.9677],[23.1685,56.9855],[23.1774,57.0124],[23.231,57.066],[23.2042,57.1053],[23.113,57.1375],[23.1005,57.1554],[23.1202,57.1715],[23.1327,57.209],[23.1128,57.2653],[23.1208,57.3052],[23.1602,57.3186]]]}},{"type":"Feature","id":"Garkalne","properties":{"id":"Garkalne","iso_code":"LV-031","name":"Garkalne","name_full":"Garkalne","name_ja":"ガルカルネ","center_lonlat":[24.3896,57.0274]},"geometry":{"type":"Polygon","coordinates":[[[24.3202,56.969],[24.2879,56.9999],[24.1624,57.0528],[24.232,57.0726],[24.2473,57.0601],[24.2612,57.042],[24.321,57.0281],[24.3627,57.0573],[24.4587,57.0726],[24.5087,57.1059],[24.5143,57.0795],[24.5505,57.0837],[24.5655,57.06],[24.5211,57.0521],[24.5318,57.002],[24.4013,56.9949],[24.3959,56.9681],[24.3717,56.9444],[24.3202,56.969]]]}},{"type":"Feature","id":"Grobina","properties":{"id":"Grobina","iso_code":"LV-032","name":"Grobina","name_full":"Grobiņa","name_ja":"グルアビナニャ","center_lonlat":[21.2406,56.4932]},"geometry":{"type":"Polygon","coordinates":[[[21.0632,56.494],[21.0529,56.5111],[21.1032,56.5328],[21.0938,56.5688],[21.0774,56.5628],[21.0672,56.6057],[21.0206,56.615],[21.0462,56.6562],[21.0579,56.6438],[21.1219,56.6352],[21.1539,56.6821],[21.2114,56.6459],[21.2583,56.6566],[21.2818,56.6118],[21.2541,56.5883],[21.2562,56.5308],[21.3479,56.5436],[21.3543,56.503],[21.3841,56.4903],[21.3862,56.4647],[21.4374,56.4071],[21.4161,56.3538],[21.3799,56.3282],[21.2626,56.3261],[21.2263,56.3517],[21.2114,56.4327],[21.1475,56.4306],[21.1283,56.4988],[21.0632,56.494]]]}},{"type":"Feature","id":"Gulbene","properties":{"id":"Gulbene","iso_code":"LV-033","name":"Gulbene","name_full":"Gulbene","name_ja":"グルベネ","center_lonlat":[26.5988,57.1822]},"geometry":{"type":"Polygon","coordinates":[[[26.2762,57.331],[26.3595,57.3225],[26.4235,57.3322],[26.43,57.346],[26.3939,57.3507],[26.4747,57.3751],[26.4758,57.4051],[26.5942,57.3913],[26.6332,57.3503],[26.7148,57.3065],[26.7607,57.3217],[26.8493,57.3153],[26.865,57.2995],[26.9885,57.3044],[27.0669,57.2687],[27.0459,57.2503],[27.1566,57.2264],[27.0081,57.1145],[26.9532,57.0648],[26.8605,57.018],[26.8712,57.0026],[26.86,56.983],[26.7576,56.993],[26.5682,56.9484],[26.5443,57.0092],[26.4973,57.0558],[26.462,57.0613],[26.3694,57.0446],[26.3289,57.0719],[26.3213,57.0979],[26.1832,57.0826],[26.1168,57.0781],[26.1682,57.1434],[26.0893,57.2099],[26.0134,57.2211],[26.0041,57.2438],[26.0586,57.2513],[26.0586,57.2653],[26.1013,57.2782],[26.262,57.2819],[26.2762,57.331]]]}},{"type":"Feature","id":"Iecava","properties":{"id":"Iecava","iso_code":"LV-034","name":"Iecava","name_full":"Iecava","name_ja":"ラカヴァ","center_lonlat":[24.2024,56.6053]},"geometry":{"type":"Polygon","coordinates":[[[24.3554,56.6616],[24.3681,56.619],[24.3091,56.6119],[24.3216,56.5636],[24.3878,56.5529],[24.3806,56.5296],[24.3002,56.535],[24.234,56.501],[24.0789,56.5355],[24.1102,56.5749],[24.0266,56.6027],[24.0575,56.6191],[24.0067,56.6648],[24.0421,56.6612],[24.0339,56.6882],[24.1486,56.6681],[24.1847,56.6926],[24.2305,56.6994],[24.2578,56.7012],[24.2946,56.6755],[24.3554,56.6616]]]}},{"type":"Feature","id":"Ikskile","properties":{"id":"Ikskile","iso_code":"LV-035","name":"Ikskile","name_full":"Ikskile","name_ja":"イクシレ","center_lonlat":[24.5742,56.8576]},"geometry":{"type":"Polygon","coordinates":[[[24.5127,56.8171],[24.444,56.8377],[24.4482,56.8655],[24.4356,56.884],[24.4574,56.8868],[24.4999,56.8704],[24.5114,56.8779],[24.507,56.8965],[24.5202,56.9001],[24.5743,56.8867],[24.6933,56.8955],[24.7024,56.8747],[24.7364,56.8658],[24.7006,56.8389],[24.6667,56.8532],[24.5877,56.8122],[24.5127,56.8171]]]}},{"type":"Feature","id":"Ilukste","properties":{"id":"Ilukste","iso_code":"LV-036","name":"Ilukste","name_full":"Ilūkste","name_ja":"イルークステ","center_lonlat":[26.1512,55.9986]},"geometry":{"type":"Polygon","coordinates":[[[25.7955,56.0401],[25.8598,56.0818],[25.8313,56.1229],[25.9418,56.0617],[26.0077,56.0873],[26.0255,56.0794],[26.0589,56.0677],[26.1086,56.1015],[26.1524,56.1092],[26.139,56.1311],[26.2058,56.1636],[26.2434,56.1671],[26.3131,56.1504],[26.3163,56.1227],[26.3453,56.0934],[26.3696,56.0438],[26.3655,56.0217],[26.393,55.9777],[26.3726,55.9538],[26.3378,55.9654],[26.2915,55.9406],[26.2865,55.924],[26.3196,55.9075],[26.2766,55.881],[26.3362,55.8397],[26.3494,55.8099],[26.2269,55.7969],[26.1786,55.8496],[26.0176,55.9374],[25.8713,55.9921],[25.7955,56.0401]]]}},{"type":"Feature","id":"Incukalns","properties":{"id":"Incukalns","iso_code":"LV-037","name":"Incukalns","name_full":"Inčukalns","name_ja":"インチュカルンス","center_lonlat":[24.6469,57.1017]},"geometry":{"type":"Polygon","coordinates":[[[24.6301,57.061],[24.5655,57.06],[24.5505,57.0837],[24.5143,57.0795],[24.5087,57.1059],[24.5685,57.1379],[24.6659,57.1254],[24.7368,57.1477],[24.773,57.1477],[24.7799,57.1352],[24.7493,57.099],[24.7591,57.0781],[24.6784,57.0601],[24.6506,57.074],[24.6301,57.061]]]}},{"type":"Feature","id":"Jaunjelgava","properties":{"id":"Jaunjelgava","iso_code":"LV-038","name":"Jaunjelgava","name_full":"Jaunjelgava","name_ja":"ヤウンヤルガワ","center_lonlat":[25.286,56.5141]},"geometry":{"type":"Polygon","coordinates":[[[24.95,56.5786],[25.0422,56.59],[25.0568,56.6013],[25.0495,56.612],[25.1386,56.6191],[25.2153,56.5889],[25.2934,56.5911],[25.3984,56.6307],[25.4955,56.6118],[25.4936,56.5891],[25.509,56.5788],[25.5698,56.5767],[25.5603,56.5739],[25.6072,56.5677],[25.5586,56.5107],[25.5946,56.4671],[25.5667,56.4476],[25.5235,56.4448],[25.4556,56.4134],[25.2962,56.4208],[25.2936,56.4079],[25.1333,56.4134],[25.0743,56.4027],[25.0511,56.4635],[25.0278,56.4599],[25.0135,56.4957],[24.9956,56.5511],[24.9563,56.5511],[24.95,56.5786]]]}},{"type":"Feature","id":"Jaunpils","properties":{"id":"Jaunpils","iso_code":"LV-040","name":"Jaunpils","name_full":"Jaunpils","name_ja":"ヤウンピルス","center_lonlat":[22.9405,56.7649]},"geometry":{"type":"Polygon","coordinates":[[[22.826,56.6981],[22.8144,56.7152],[22.8287,56.726],[22.8206,56.7715],[22.7889,56.8039],[22.8467,56.8282],[22.8359,56.8497],[22.9432,56.855],[22.9235,56.8336],[22.9325,56.8103],[23.0362,56.8068],[23.0558,56.7942],[23.0934,56.7209],[23.1233,56.6988],[23.0839,56.6906],[22.9862,56.7108],[22.9034,56.7116],[22.826,56.6981]]]}},{"type":"Feature","id":"Jekabpils","properties":{"id":"Jekabpils","iso_code":"LV-JKB","name":"Jekabpils","name_full":"Jēkabpils","name_ja":"イェーカブピルス","center_lonlat":[25.9914,56.2852]},"geometry":{"type":"Polygon","coordinates":[[[26.0885,56.4064],[26.157,56.3803],[26.1843,56.2909],[26.1979,56.2841],[26.1935,56.2261],[26.2643,56.2108],[26.3008,56.1833],[26.3366,56.1494],[26.3453,56.0934],[26.3163,56.1227],[26.3131,56.1504],[26.2434,56.1671],[26.2058,56.1636],[26.139,56.1311],[26.1524,56.1092],[26.1086,56.1015],[26.0589,56.0677],[26.0255,56.0794],[26.0122,56.1084],[25.9855,56.1106],[25.9766,56.1484],[25.9053,56.1707],[25.8764,56.2219],[25.8007,56.2352],[25.6938,56.2286],[25.6805,56.2931],[25.7339,56.2998],[25.7339,56.351],[25.794,56.3599],[25.843,56.4133],[25.8096,56.4445],[25.8207,56.4868],[25.8831,56.4757],[25.8766,56.4953],[26.0553,56.4514],[26.0885,56.4064]]]}},{"type":"Feature","id":"Jekabpils (LV-JKB)","properties":{"id":"Jekabpils (LV-JKB)","iso_code":"LV-JKB","name":"Jekabpils (LV-JKB)","name_full":"Jēkabpils","name_ja":"イェーカブピルス","center_lonlat":[25.8645,56.5089]},"geometry":{"type":"Polygon","coordinates":[[[25.8207,56.4868],[25.8264,56.5272],[25.8541,56.5358],[25.8786,56.5358],[25.8897,56.5224],[25.9187,56.5291],[25.9254,56.5135],[25.8766,56.4953],[25.8831,56.4757],[25.8207,56.4868]]]}},{"type":"Feature","id":"Jelgava","properties":{"id":"Jelgava","iso_code":"LV-JEL","name":"Jelgava","name_full":"Jelgava","name_ja":"イェルガヴァ","center_lonlat":[23.6493,56.5714]},"geometry":{"type":"Polygon","coordinates":[[[23.378,56.3546],[23.4624,56.398],[23.4131,56.4594],[23.4307,56.4776],[23.4151,56.4933],[23.4475,56.5056],[23.4593,56.5298],[23.4321,56.5708],[23.4772,56.5869],[23.4803,56.5995],[23.4059,56.6064],[23.4854,56.6603],[23.4782,56.6848],[23.4174,56.7068],[23.5253,56.7637],[23.5055,56.8082],[23.4866,56.8159],[23.462,56.8842],[23.5068,56.8946],[23.6262,56.8892],[23.6695,56.8749],[23.7696,56.8],[23.7563,56.7441],[23.7012,56.737],[23.7012,56.7209],[23.6708,56.7156],[23.6834,56.6977],[23.7102,56.7066],[23.7312,56.6905],[23.618,56.6695],[23.6312,56.6503],[23.677,56.6299],[23.671,56.6015],[23.7076,56.5919],[23.7788,56.6176],[23.7698,56.6367],[23.7919,56.6469],[23.9122,56.6083],[23.9641,56.5547],[23.9694,56.5189],[23.9923,56.5025],[23.875,56.4629],[23.8407,56.4342],[23.8505,56.4185],[23.8362,56.3879],[23.8793,56.3843],[23.8711,56.3321],[23.725,56.3288],[23.7235,56.3458],[23.7067,56.3544],[23.6099,56.3538],[23.4816,56.3301],[23.378,56.3546]]]}},{"type":"Feature","id":"Jelgava (LV-JEL)","properties":{"id":"Jelgava (LV-JEL)","iso_code":"LV-JEL","name":"Jelgava (LV-JEL)","name_full":"Jelgava","name_ja":"イェルガヴァ","center_lonlat":[23.7182,56.6474]},"geometry":{"type":"Polygon","coordinates":[[[23.7312,56.6905],[23.7936,56.6815],[23.8078,56.6542],[23.7919,56.6469],[23.7698,56.6367],[23.7788,56.6176],[23.7076,56.5919],[23.671,56.6015],[23.677,56.6299],[23.6312,56.6503],[23.618,56.6695],[23.7312,56.6905]]]}},{"type":"Feature","id":"Jurmala","properties":{"id":"Jurmala","iso_code":"LV-JUR","name":"Jurmala","name_full":"Jūrmala","name_ja":"ユールマラ","center_lonlat":[23.7038,56.9599]},"geometry":{"type":"Polygon","coordinates":[[[23.5786,56.9821],[23.6952,56.9673],[23.9269,57.0063],[23.9545,56.9914],[23.9033,56.9623],[23.8014,56.9498],[23.7799,56.9569],[23.7674,56.9426],[23.7066,56.9319],[23.5904,56.923],[23.492,56.9346],[23.4772,56.9365],[23.4998,56.9614],[23.5786,56.9821]]]}},{"type":"Feature","id":"Kandava","properties":{"id":"Kandava","iso_code":"LV-043","name":"Kandava","name_full":"Kandava","name_ja":"カンダヴァ","center_lonlat":[22.7117,56.9564]},"geometry":{"type":"Polygon","coordinates":[[[22.4549,56.9171],[22.4454,56.9385],[22.5082,57.0138],[22.6358,57.0158],[22.6495,57.0417],[22.6415,57.0947],[22.7609,57.1123],[22.808,57.1366],[22.9309,57.1446],[22.9557,57.1268],[22.9414,57.1143],[22.8967,57.0892],[22.8413,57.0785],[22.8788,57.0195],[22.8306,57.007],[22.818,56.9748],[22.8306,56.9498],[22.9164,56.9158],[22.9235,56.8747],[22.9432,56.855],[22.8359,56.8497],[22.8467,56.8282],[22.7889,56.8039],[22.642,56.8082],[22.6343,56.8241],[22.4909,56.8515],[22.519,56.8768],[22.5292,56.9088],[22.4549,56.9171]]]}},{"type":"Feature","id":"Karsava","properties":{"id":"Karsava","iso_code":"LV-044","name":"Karsava","name_full":"Kārsava","name_ja":"カールサヴァ","center_lonlat":[27.6425,56.7716]},"geometry":{"type":"Polygon","coordinates":[[[27.6444,56.8418],[27.7864,56.8713],[27.8308,56.8643],[27.9135,56.8201],[27.9189,56.8059],[27.8655,56.7427],[27.8205,56.7278],[27.8205,56.689],[27.8024,56.6657],[27.761,56.6916],[27.6445,56.6864],[27.5927,56.6553],[27.5802,56.6194],[27.5416,56.6451],[27.472,56.6633],[27.4863,56.6934],[27.4555,56.7718],[27.4037,56.7848],[27.3399,56.7827],[27.3552,56.8216],[27.3834,56.8214],[27.4122,56.8453],[27.4467,56.8527],[27.5616,56.8707],[27.6444,56.8418]]]}},{"type":"Feature","id":"Kegums","properties":{"id":"Kegums","iso_code":"LV-051","name":"Kegums","name_full":"Ķegums","name_ja":"ケグムス","center_lonlat":[24.7538,56.675]},"geometry":{"type":"Polygon","coordinates":[[[24.5219,56.7136],[24.5255,56.7524],[24.537,56.7775],[24.5127,56.8171],[24.5877,56.8122],[24.6184,56.7849],[24.7249,56.7364],[24.7833,56.7807],[24.7789,56.8007],[24.8056,56.8074],[24.8167,56.8341],[24.9236,56.8007],[24.8524,56.7629],[24.8457,56.7384],[24.7998,56.7152],[24.8682,56.6954],[24.9197,56.6402],[24.9917,56.6204],[25.0243,56.6246],[25.0194,56.6081],[25.0495,56.612],[25.0568,56.6013],[25.0422,56.59],[24.95,56.5786],[24.7325,56.5442],[24.6571,56.5436],[24.6971,56.5789],[24.6172,56.6072],[24.5928,56.643],[24.5897,56.661],[24.6341,56.6769],[24.6009,56.707],[24.5219,56.7136]]]}},{"type":"Feature","id":"Kekava","properties":{"id":"Kekava","iso_code":"LV-052","name":"Kekava","name_full":"Ķekava","name_ja":"キェカワ","center_lonlat":[24.2446,56.796]},"geometry":{"type":"Polygon","coordinates":[[[24.197,56.8821],[24.1768,56.8675],[24.2179,56.8282],[24.3109,56.8246],[24.342,56.8511],[24.444,56.8377],[24.5127,56.8171],[24.537,56.7775],[24.5255,56.7524],[24.3466,56.7871],[24.2537,56.7853],[24.2698,56.746],[24.2537,56.7388],[24.2286,56.7513],[24.1947,56.7406],[24.1882,56.7179],[24.1456,56.7282],[24.0081,56.71],[23.9963,56.7305],[24.0052,56.7621],[24.0856,56.7621],[24.0874,56.7799],[24.1142,56.8014],[24.1232,56.8211],[24.091,56.8461],[24.0881,56.8761],[24.1554,56.9024],[24.197,56.8821]]]}},{"type":"Feature","id":"Koknese","properties":{"id":"Koknese","iso_code":"LV-046","name":"Koknese","name_full":"Koknese","name_ja":"クアクネセ","center_lonlat":[25.4549,56.7093]},"geometry":{"type":"Polygon","coordinates":[[[25.5054,56.8131],[25.6688,56.789],[25.6922,56.7705],[25.656,56.7539],[25.6003,56.7651],[25.5959,56.7517],[25.6159,56.7384],[25.6159,56.7161],[25.5692,56.7117],[25.5825,56.676],[25.5313,56.6426],[25.5202,56.6137],[25.4955,56.6118],[25.3984,56.6307],[25.2934,56.5911],[25.2931,56.676],[25.2784,56.6968],[25.2981,56.7193],[25.2571,56.7361],[25.2682,56.7452],[25.3912,56.7613],[25.5054,56.8131]]]}},{"type":"Feature","id":"Kraslava","properties":{"id":"Kraslava","iso_code":"LV-047","name":"Kraslava","name_full":"Krāslava","name_ja":"クラスラヴァ","center_lonlat":[27.3217,55.9237]},"geometry":{"type":"Polygon","coordinates":[[[27.7601,55.9754],[27.645,55.9228],[27.6172,55.8786],[27.5927,55.7942],[27.4388,55.7987],[27.3496,55.8312],[27.263,55.7872],[27.1514,55.8325],[26.9794,55.8263],[26.978,55.8642],[26.9342,55.8739],[26.9546,55.9276],[26.9356,55.9322],[26.9556,55.9503],[26.9327,56.0033],[26.9677,56.0078],[27.0413,55.9823],[27.1474,55.9849],[27.194,56.0107],[27.1889,56.0547],[27.2639,56.0729],[27.3701,56.0806],[27.3675,56.0237],[27.4607,56.0366],[27.572,55.9978],[27.6445,55.9874],[27.6419,56.0159],[27.6548,56.0211],[27.7601,55.9754]]]}},{"type":"Feature","id":"Krimulda","properties":{"id":"Krimulda","iso_code":"LV-048","name":"Krimulda","name_full":"Krimulda","name_ja":"クリムルダ","center_lonlat":[24.7776,57.2686]},"geometry":{"type":"Polygon","coordinates":[[[24.8316,57.3955],[24.881,57.3372],[24.9033,57.3277],[24.8887,57.3092],[24.9358,57.2783],[24.9331,57.2462],[24.9004,57.2187],[24.8842,57.1991],[24.823,57.1824],[24.7799,57.1352],[24.773,57.1477],[24.7368,57.1477],[24.6659,57.1254],[24.6742,57.1699],[24.62,57.1769],[24.6158,57.2033],[24.6816,57.2231],[24.7131,57.227],[24.6854,57.2867],[24.6478,57.3006],[24.6367,57.3201],[24.684,57.3285],[24.702,57.3493],[24.6881,57.3896],[24.7479,57.4105],[24.7507,57.3966],[24.8316,57.3955]]]}},{"type":"Feature","id":"Krustpils","properties":{"id":"Krustpils","iso_code":"LV-049","name":"Krustpils","name_full":"Krustpils","name_ja":"クルストピルス","center_lonlat":[26.1761,56.5496]},"geometry":{"type":"Polygon","coordinates":[[[26.0885,56.4064],[26.0553,56.4514],[25.8766,56.4953],[25.9254,56.5135],[25.9187,56.5291],[25.8897,56.5224],[25.8786,56.5358],[25.8541,56.5358],[25.8264,56.5272],[25.7869,56.5303],[25.7481,56.5664],[25.7569,56.6123],[25.831,56.6132],[25.9321,56.6378],[25.9836,56.6656],[26.0021,56.6397],[26.04,56.6265],[26.131,56.6539],[26.1911,56.6423],[26.2246,56.6099],[26.2813,56.6109],[26.2913,56.5867],[26.3427,56.6038],[26.3756,56.6359],[26.4845,56.6061],[26.5938,56.5951],[26.5866,56.5514],[26.6278,56.5437],[26.5952,56.5066],[26.5964,56.4888],[26.5405,56.4897],[26.4752,56.4941],[26.3626,56.4508],[26.3157,56.512],[26.2572,56.512],[26.1534,56.4293],[26.0885,56.4064]]]}},{"type":"Feature","id":"Kuldiga","properties":{"id":"Kuldiga","iso_code":"LV-050","name":"Kuldiga","name_full":"Kuldīga","name_ja":"クルディーガ","center_lonlat":[21.9858,56.9446]},"geometry":{"type":"Polygon","coordinates":[[[21.4364,56.8676],[21.4934,56.9038],[21.5643,56.9106],[21.5849,56.9312],[21.6398,56.9335],[21.7061,56.9563],[21.6923,56.9975],[21.6558,57.0089],[21.6329,57.034],[21.6398,57.0478],[21.5738,57.0856],[21.6539,57.1162],[21.7892,57.1041],[21.7831,57.0852],[22.0153,57.1137],[22.0952,57.1016],[22.1925,57.1246],[22.2064,57.1779],[22.3489,57.1101],[22.3627,57.0424],[22.3824,57.0197],[22.5082,57.0138],[22.4454,56.9385],[22.4549,56.9171],[22.4178,56.8893],[22.3923,56.8859],[22.3044,56.9197],[22.264,56.8939],[22.3203,56.8804],[22.342,56.8642],[22.3413,56.8475],[22.2511,56.8231],[22.2049,56.7952],[22.1627,56.795],[22.0924,56.8237],[21.9827,56.8214],[21.9347,56.7986],[21.9598,56.7323],[21.9301,56.7185],[21.8867,56.7208],[21.823,56.6879],[21.7761,56.6987],[21.7612,56.7412],[21.7384,56.7641],[21.6801,56.7916],[21.6442,56.7912],[21.593,56.8451],[21.526,56.842],[21.4931,56.8647],[21.4364,56.8676]]]}},{"type":"Feature","id":"Lielvarde","properties":{"id":"Lielvarde","iso_code":"LV-053","name":"Lielvarde","name_full":"Lielvārde","name_ja":"リエルワールデ","center_lonlat":[24.9559,56.7219]},"geometry":{"type":"Polygon","coordinates":[[[25.0975,56.7372],[25.0287,56.7271],[25.0552,56.7014],[25.0169,56.6815],[25.0243,56.6246],[24.9917,56.6204],[24.9197,56.6402],[24.8682,56.6954],[24.7998,56.7152],[24.8457,56.7384],[24.8524,56.7629],[24.9236,56.8007],[24.9436,56.8096],[25.0416,56.7896],[25.0975,56.7372]]]}},{"type":"Feature","id":"Liepaja","properties":{"id":"Liepaja","iso_code":"LV-LPX","name":"Liepaja","name_full":"Liepāja","name_ja":"リエパーヤ","center_lonlat":[21.0451,56.5596]},"geometry":{"type":"MultiPolygon","coordinates":[[[[21.0529,56.5111],[21.0031,56.53],[20.9922,56.5489],[21.0206,56.615],[21.0672,56.6057],[21.0774,56.5628],[21.0938,56.5688],[21.1032,56.5328],[21.0529,56.5111]]],[[[21.0054,56.4459],[21.0064,56.52],[21.0243,56.5105],[21.0358,56.4739],[21.024,56.4714],[21.0195,56.4471],[21.0054,56.4459]]]]}},{"type":"Feature","id":"Limbazi","properties":{"id":"Limbazi","iso_code":"LV-054","name":"Limbazi","name_full":"Limbaži","name_ja":"リンバジ","center_lonlat":[24.6872,57.5186]},"geometry":{"type":"Polygon","coordinates":[[[24.4048,57.3481],[24.3949,57.4],[24.4865,57.4161],[24.5115,57.4481],[24.5783,57.4647],[24.5296,57.5218],[24.5532,57.5412],[24.4907,57.544],[24.4976,57.5551],[24.4781,57.5677],[24.4336,57.5677],[24.4183,57.6706],[24.5644,57.6733],[24.563,57.7178],[24.6089,57.7151],[24.5991,57.7526],[24.6492,57.7707],[24.7479,57.7318],[24.7994,57.7331],[24.8286,57.7192],[24.8314,57.6664],[24.8926,57.6525],[24.8814,57.6247],[24.88,57.583],[24.8949,57.5672],[24.9162,57.5558],[25.0043,57.5622],[25.0464,57.5354],[25.0478,57.5141],[25.0871,57.5072],[25.0796,57.5002],[24.8759,57.413],[24.7995,57.4171],[24.8316,57.3955],[24.7507,57.3966],[24.7479,57.4105],[24.6881,57.3896],[24.702,57.3493],[24.684,57.3285],[24.6367,57.3201],[24.6478,57.3006],[24.6854,57.2867],[24.7131,57.227],[24.6816,57.2231],[24.6433,57.2372],[24.55,57.3163],[24.4613,57.2948],[24.4279,57.2914],[24.4293,57.3285],[24.4048,57.3481]]]}},{"type":"Feature","id":"Livani","properties":{"id":"Livani","iso_code":"LV-056","name":"Livani","name_full":"Līvāni","name_ja":"リーヴァーニ","center_lonlat":[26.3474,56.3677]},"geometry":{"type":"Polygon","coordinates":[[[26.3354,56.1897],[26.3008,56.1833],[26.2643,56.2108],[26.1935,56.2261],[26.1979,56.2841],[26.1843,56.2909],[26.157,56.3803],[26.0885,56.4064],[26.1534,56.4293],[26.2572,56.512],[26.3157,56.512],[26.3626,56.4508],[26.4752,56.4941],[26.5405,56.4897],[26.5371,56.4457],[26.5764,56.4333],[26.5412,56.3754],[26.4792,56.3919],[26.4606,56.3588],[26.5144,56.334],[26.5909,56.3195],[26.6012,56.2823],[26.5619,56.2678],[26.442,56.2658],[26.4027,56.2823],[26.38,56.3133],[26.3551,56.3113],[26.3531,56.2741],[26.2931,56.2844],[26.3354,56.1897]]]}},{"type":"Feature","id":"Ludza","properties":{"id":"Ludza","iso_code":"LV-058","name":"Ludza","name_full":"Ludza","name_ja":"ルヅァ","center_lonlat":[27.827,56.3871]},"geometry":{"type":"Polygon","coordinates":[[[28.0933,56.5016],[28.1679,56.4271],[27.9784,56.4327],[28.0121,56.3835],[27.9551,56.3783],[27.8412,56.3214],[27.8645,56.2851],[27.9163,56.2851],[27.9318,56.3084],[28.0043,56.3317],[28.0949,56.2981],[28.1208,56.2748],[28.0704,56.2085],[28.0398,56.2157],[27.9131,56.1837],[27.8384,56.1823],[27.8109,56.1963],[27.7225,56.2066],[27.6676,56.2402],[27.7005,56.255],[27.6868,56.2763],[27.7155,56.2985],[27.6902,56.3324],[27.6899,56.3606],[27.6224,56.3925],[27.6218,56.4207],[27.5911,56.4218],[27.5499,56.4786],[27.5087,56.4602],[27.4871,56.4995],[27.4868,56.5149],[27.5068,56.5281],[27.5666,56.5417],[27.5743,56.557],[27.5611,56.5759],[27.6911,56.5673],[27.7558,56.5207],[27.7765,56.5414],[27.8127,56.5518],[27.8645,56.5285],[27.8852,56.4974],[27.9189,56.4819],[27.9888,56.5233],[28.0535,56.5181],[28.0933,56.5016]]]}},{"type":"Feature","id":"Madona","properties":{"id":"Madona","iso_code":"LV-059","name":"Madona","name_full":"Madona","name_ja":"マドゥアナ","center_lonlat":[26.2757,56.831]},"geometry":{"type":"Polygon","coordinates":[[[26.9533,56.8467],[26.9285,56.8311],[26.7829,56.7074],[26.7726,56.681],[26.711,56.7075],[26.7079,56.7231],[26.6829,56.7215],[26.6484,56.7168],[26.6077,56.6902],[26.5357,56.6777],[26.3885,56.6777],[26.3756,56.6359],[26.3427,56.6038],[26.2913,56.5867],[26.2813,56.6109],[26.2246,56.6099],[26.1911,56.6423],[26.131,56.6539],[26.04,56.6265],[26.0021,56.6397],[25.9836,56.6656],[25.9321,56.6378],[25.9138,56.6648],[25.9357,56.6816],[25.8344,56.7123],[25.8255,56.7408],[25.8508,56.7703],[25.8427,56.7892],[25.7655,56.8282],[25.7482,56.8672],[25.7748,56.8906],[25.947,56.9063],[25.9533,56.9251],[25.8864,56.9642],[25.9208,56.9819],[25.92,57.0001],[25.8957,57.0263],[25.9231,57.0974],[26.0384,57.0769],[26.065,57.0887],[26.1168,57.0781],[26.1832,57.0826],[26.1756,57.0347],[26.1865,56.9846],[26.1709,56.9533],[26.2006,56.9517],[26.2226,56.9282],[26.2867,56.9407],[26.3588,56.9313],[26.3525,56.9486],[26.4057,56.9893],[26.3838,57.0049],[26.3694,57.0446],[26.462,57.0613],[26.4973,57.0558],[26.5443,57.0092],[26.5682,56.9484],[26.4731,56.8546],[26.5357,56.8014],[26.6093,56.8186],[26.7126,56.9032],[26.7267,56.8906],[26.8613,56.9],[26.8848,56.8734],[26.9334,56.8656],[26.9533,56.8467]]]}},{"type":"Feature","id":"Malpils","properties":{"id":"Malpils","iso_code":"LV-061","name":"Malpils","name_full":"Mālpils","name_ja":"マールピルス","center_lonlat":[24.9682,56.9942]},"geometry":{"type":"Polygon","coordinates":[[[25.1475,56.9894],[25.1381,56.9801],[25.1426,56.9508],[25.0363,56.934],[24.9383,56.9391],[24.8773,56.9215],[24.8074,56.9339],[24.8178,56.9895],[24.8453,56.985],[24.8898,57.0114],[24.88,57.0378],[24.8884,57.0559],[24.8661,57.0934],[24.8787,57.1046],[24.8995,57.0879],[24.984,57.0799],[24.9893,57.0606],[25.1475,56.9894]]]}},{"type":"Feature","id":"Marupe","properties":{"id":"Marupe","iso_code":"LV-062","name":"Marupe","name_full":"Mārupe","name_ja":"マールペ","center_lonlat":[23.9413,56.8842]},"geometry":{"type":"Polygon","coordinates":[[[23.9427,56.9387],[24.0266,56.9196],[24.0663,56.8861],[24.0123,56.8514],[23.8854,56.8425],[23.855,56.8264],[23.8228,56.8836],[23.9427,56.9387]]]}},{"type":"Feature","id":"Mersrags","properties":{"id":"Mersrags","iso_code":"LV-063","name":"Mersrags","name_full":"Mērsrags","name_ja":"メールスラグス","center_lonlat":[23.0511,57.3266]},"geometry":{"type":"Polygon","coordinates":[[[23.0314,57.3945],[23.1302,57.3708],[23.1602,57.3186],[23.1208,57.3052],[23.1128,57.2653],[23.0804,57.2385],[23.055,57.2832],[22.9544,57.297],[22.9201,57.3335],[23.0069,57.3678],[23.0314,57.3945]]]}},{"type":"Feature","id":"Nereta","properties":{"id":"Nereta","iso_code":"LV-065","name":"Nereta","name_full":"Nereta","name_ja":"ネレタ","center_lonlat":[25.1456,56.3134]},"geometry":{"type":"Polygon","coordinates":[[[25.3491,56.1599],[25.1092,56.1831],[25.0731,56.1978],[25.0262,56.2602],[24.9732,56.3008],[24.9101,56.422],[24.871,56.4426],[24.9205,56.4867],[25.0135,56.4957],[25.0278,56.4599],[25.0511,56.4635],[25.0743,56.4027],[25.1333,56.4134],[25.2936,56.4079],[25.2962,56.3369],[25.3703,56.3273],[25.3243,56.3093],[25.3105,56.2874],[25.4034,56.2316],[25.3955,56.2021],[25.4086,56.1786],[25.3491,56.1599]]]}},{"type":"Feature","id":"Nica","properties":{"id":"Nica","iso_code":"LV-066","name":"Nica","name_full":"Nīca","name_ja":"ニーツァ","center_lonlat":[21.0882,56.3476]},"geometry":{"type":"Polygon","coordinates":[[[20.971,56.2597],[20.9827,56.3015],[20.9706,56.389],[21.0054,56.4459],[21.0195,56.4471],[21.024,56.4714],[21.0358,56.4739],[21.0447,56.4621],[21.0305,56.4484],[21.0447,56.4422],[21.0447,56.4211],[21.0305,56.4081],[21.0702,56.3894],[21.0798,56.4031],[21.0632,56.494],[21.1283,56.4988],[21.1475,56.4306],[21.2114,56.4327],[21.2263,56.3517],[21.1794,56.3559],[21.1794,56.2877],[21.1091,56.2195],[21.0856,56.228],[21.0835,56.1662],[21.0558,56.1683],[21.0345,56.2664],[20.971,56.2597]]]}},{"type":"Feature","id":"Ogre","properties":{"id":"Ogre","iso_code":"LV-067","name":"Ogre","name_full":"Ogre","name_ja":"ウアグレ","center_lonlat":[25.1245,56.8502]},"geometry":{"type":"Polygon","coordinates":[[[25.4882,56.9945],[25.5316,56.9326],[25.5159,56.8979],[25.5557,56.8739],[25.4836,56.8672],[25.5054,56.8131],[25.3912,56.7613],[25.2682,56.7452],[25.2571,56.7361],[25.2981,56.7193],[25.2784,56.6968],[25.1763,56.7033],[25.0975,56.7372],[25.0416,56.7896],[24.9436,56.8096],[24.9236,56.8007],[24.8167,56.8341],[24.8056,56.8074],[24.7789,56.8007],[24.7833,56.7807],[24.7249,56.7364],[24.6184,56.7849],[24.5877,56.8122],[24.6667,56.8532],[24.7006,56.8389],[24.7364,56.8658],[24.7024,56.8747],[24.6933,56.8955],[24.8074,56.9339],[24.8773,56.9215],[24.9383,56.9391],[25.0363,56.934],[25.1426,56.9508],[25.2517,56.9349],[25.2473,56.9427],[25.2841,56.9648],[25.3437,56.9774],[25.3722,56.9414],[25.3958,56.9373],[25.4526,56.9696],[25.4469,56.9916],[25.4882,56.9945]]]}},{"type":"Feature","id":"Olaine","properties":{"id":"Olaine","iso_code":"LV-068","name":"Olaine","name_full":"Olaine","name_ja":"ウアライネ","center_lonlat":[23.9445,56.7945]},"geometry":{"type":"MultiPolygon","coordinates":[[[[24.0663,56.8861],[24.0708,56.8725],[24.0881,56.8761],[24.091,56.8461],[24.1232,56.8211],[24.1142,56.8014],[24.0874,56.7799],[24.0856,56.7621],[24.0052,56.7621],[23.9963,56.7305],[23.9414,56.7286],[23.9009,56.7458],[23.8013,56.7295],[23.7563,56.7441],[23.7696,56.8],[23.7817,56.8211],[23.8246,56.8032],[23.855,56.8264],[23.8854,56.8425],[24.0123,56.8514],[24.0663,56.8861]]],[[[24.2305,56.6994],[24.1847,56.6926],[24.1486,56.6681],[24.0339,56.6882],[24.0007,56.6956],[24.0081,56.71],[24.1456,56.7282],[24.1882,56.7179],[24.2305,56.6994]]]]}},{"type":"Feature","id":"Ozolnieki","properties":{"id":"Ozolnieki","iso_code":"LV-069","name":"Ozolnieki","name_full":"Ozolnieki","name_ja":"ウアズアルニエキ","center_lonlat":[23.9254,56.6459]},"geometry":{"type":"Polygon","coordinates":[[[23.9963,56.7305],[24.0081,56.71],[24.0007,56.6956],[24.0339,56.6882],[24.0421,56.6612],[24.0067,56.6648],[24.0575,56.6191],[24.0266,56.6027],[24.1102,56.5749],[24.0789,56.5355],[24.0429,56.5028],[24.0177,56.502],[23.9923,56.5025],[23.9694,56.5189],[23.9641,56.5547],[23.9122,56.6083],[23.7919,56.6469],[23.8078,56.6542],[23.7936,56.6815],[23.7312,56.6905],[23.7102,56.7066],[23.6834,56.6977],[23.6708,56.7156],[23.7012,56.7209],[23.7012,56.737],[23.7563,56.7441],[23.8013,56.7295],[23.9009,56.7458],[23.9414,56.7286],[23.9963,56.7305]]]}},{"type":"Feature","id":"Pavilosta","properties":{"id":"Pavilosta","iso_code":"LV-071","name":"Pavilosta","name_full":"Pāvilosta","name_ja":"パーヴィルアスタ","center_lonlat":[21.2302,56.8051]},"geometry":{"type":"Polygon","coordinates":[[[21.0462,56.6562],[21.0652,56.7743],[21.0527,56.8289],[21.0652,56.8463],[21.2229,56.9077],[21.3282,56.9736],[21.3848,56.9565],[21.3958,56.9424],[21.4061,56.9235],[21.4934,56.9038],[21.4364,56.8676],[21.4395,56.8399],[21.3202,56.8079],[21.3159,56.7397],[21.2924,56.7568],[21.2605,56.7397],[21.2882,56.6821],[21.2583,56.6566],[21.2114,56.6459],[21.1539,56.6821],[21.1219,56.6352],[21.0579,56.6438],[21.0462,56.6562]]]}},{"type":"Feature","id":"Plavinas","properties":{"id":"Plavinas","iso_code":"LV-072","name":"Plavinas","name_full":"Pļaviņas","name_ja":"プリャヴィニャス","center_lonlat":[25.7177,56.682]},"geometry":{"type":"Polygon","coordinates":[[[25.7655,56.8282],[25.8427,56.7892],[25.8508,56.7703],[25.8255,56.7408],[25.8344,56.7123],[25.9357,56.6816],[25.9138,56.6648],[25.9321,56.6378],[25.831,56.6132],[25.7569,56.6123],[25.5698,56.5767],[25.509,56.5788],[25.4936,56.5891],[25.4955,56.6118],[25.5202,56.6137],[25.5313,56.6426],[25.5825,56.676],[25.5692,56.7117],[25.6159,56.7161],[25.6159,56.7384],[25.5959,56.7517],[25.6003,56.7651],[25.656,56.7539],[25.6922,56.7705],[25.7302,56.7823],[25.7488,56.8088],[25.7397,56.8184],[25.7655,56.8282]]]}},{"type":"Feature","id":"Preili","properties":{"id":"Preili","iso_code":"LV-073","name":"Preili","name_full":"Preiļi","name_ja":"プレイリ","center_lonlat":[26.6865,56.2701]},"geometry":{"type":"Polygon","coordinates":[[[26.6479,56.1353],[26.6033,56.1665],[26.6467,56.1645],[26.6715,56.1769],[26.6736,56.2182],[26.6405,56.2761],[26.6012,56.2823],[26.5909,56.3195],[26.5144,56.334],[26.4606,56.3588],[26.4792,56.3919],[26.5412,56.3754],[26.5764,56.4333],[26.624,56.4498],[26.686,56.4291],[26.7335,56.3961],[26.6694,56.3692],[26.6508,56.3361],[26.7832,56.2823],[26.839,56.2141],[26.8349,56.1996],[26.8018,56.1851],[26.8824,56.1521],[26.8885,56.1289],[26.7185,56.1113],[26.6479,56.1353]]]}},{"type":"Feature","id":"Priekule","properties":{"id":"Priekule","iso_code":"LV-074","name":"Priekule","name_full":"Priekule","name_ja":"プリエクレ","center_lonlat":[21.5584,56.4249]},"geometry":{"type":"Polygon","coordinates":[[[21.7365,56.3237],[21.596,56.3079],[21.4855,56.2658],[21.4523,56.3026],[21.3799,56.3282],[21.4161,56.3538],[21.4374,56.4071],[21.3862,56.4647],[21.3841,56.4903],[21.3543,56.503],[21.4076,56.5201],[21.399,56.5585],[21.4822,56.5116],[21.5291,56.5137],[21.4992,56.5521],[21.5291,56.5713],[21.5717,56.5606],[21.5845,56.55],[21.6613,56.5606],[21.7124,56.55],[21.7082,56.5052],[21.7338,56.4988],[21.7338,56.4732],[21.6805,56.4647],[21.6847,56.4327],[21.6655,56.4178],[21.7231,56.3815],[21.7508,56.3815],[21.7508,56.3687],[21.7252,56.3559],[21.7365,56.3237]]]}},{"type":"Feature","id":"Rezekne","properties":{"id":"Rezekne","iso_code":"LV-REZ","name":"Rezekne","name_full":"Rēzekne","name_ja":"レーゼクネ","center_lonlat":[27.2432,56.4997]},"geometry":{"type":"Polygon","coordinates":[[[26.9285,56.8311],[26.984,56.8059],[27.1608,56.8114],[27.1861,56.7938],[27.3399,56.7827],[27.4037,56.7848],[27.4555,56.7718],[27.4863,56.6934],[27.472,56.6633],[27.5416,56.6451],[27.5802,56.6194],[27.5615,56.5996],[27.5611,56.5759],[27.5743,56.557],[27.5666,56.5417],[27.5068,56.5281],[27.4868,56.5149],[27.4871,56.4995],[27.5087,56.4602],[27.5499,56.4786],[27.5911,56.4218],[27.6218,56.4207],[27.6224,56.3925],[27.6899,56.3606],[27.6902,56.3324],[27.7155,56.2985],[27.6868,56.2763],[27.7005,56.255],[27.6676,56.2402],[27.6516,56.2497],[27.5681,56.2423],[27.535,56.2611],[27.509,56.2411],[27.4472,56.2299],[27.4479,56.2094],[27.2959,56.203],[27.1623,56.2108],[27.1024,56.1891],[27.1016,56.1708],[27.038,56.1801],[27.0289,56.2154],[27.0016,56.2306],[26.9465,56.3043],[26.9508,56.3197],[26.9911,56.3315],[26.8976,56.4113],[26.9254,56.4476],[27.0335,56.4482],[27.0413,56.4664],[27.0076,56.5233],[27.0051,56.5621],[26.9818,56.5932],[26.9144,56.601],[26.8523,56.6579],[26.7726,56.681],[26.7829,56.7074],[26.9285,56.8311]],[[27.3391,56.4749],[27.3655,56.5388],[27.3637,56.5552],[27.3402,56.5608],[27.3101,56.5533],[27.2743,56.5155],[27.2846,56.4897],[27.3391,56.4749]]]}},{"type":"Feature","id":"Rezekne (LV-REZ)","properties":{"id":"Rezekne (LV-REZ)","iso_code":"LV-REZ","name":"Rezekne (LV-REZ)","name_full":"Rēzekne","name_ja":"レーゼクネ","center_lonlat":[27.3233,56.5183]},"geometry":{"type":"Polygon","coordinates":[[[27.3402,56.5608],[27.3637,56.5552],[27.3555,56.495],[27.3391,56.4749],[27.2846,56.4897],[27.2743,56.5155],[27.3101,56.5533],[27.3402,56.5608]]]}},{"type":"Feature","id":"Riebini","properties":{"id":"Riebini","iso_code":"LV-078","name":"Riebini","name_full":"Riebiņi","name_ja":"リエビニ","center_lonlat":[26.8126,56.3642]},"geometry":{"type":"Polygon","coordinates":[[[26.9254,56.4476],[26.8976,56.4113],[26.9911,56.3315],[26.9508,56.3197],[26.9465,56.3043],[27.0016,56.2306],[27.0289,56.2154],[27.038,56.1801],[26.9318,56.1573],[26.9202,56.1457],[26.9368,56.1358],[26.9285,56.1242],[26.8885,56.1289],[26.8824,56.1521],[26.8018,56.1851],[26.8349,56.1996],[26.839,56.2141],[26.7832,56.2823],[26.6508,56.3361],[26.6694,56.3692],[26.7335,56.3961],[26.686,56.4291],[26.624,56.4498],[26.5764,56.4333],[26.5371,56.4457],[26.5405,56.4897],[26.5964,56.4888],[26.5952,56.5066],[26.6278,56.5437],[26.7223,56.5431],[26.7437,56.5588],[26.8157,56.54],[26.8261,56.5242],[26.7755,56.512],[26.8076,56.4985],[26.9527,56.4769],[26.9584,56.4611],[26.9254,56.4476]]]}},{"type":"Feature","id":"Riga","properties":{"id":"Riga","iso_code":"LV-RIX","name":"Riga","name_full":"Riga","name_ja":"リガ","center_lonlat":[24.1205,56.9768]},"geometry":{"type":"Polygon","coordinates":[[[23.9269,57.0063],[23.9912,57.0312],[24.0357,57.069],[24.113,57.0887],[24.1624,57.0528],[24.2879,56.9999],[24.3202,56.969],[24.2347,56.9304],[24.2367,56.9041],[24.2587,56.873],[24.197,56.8821],[24.1554,56.9024],[24.0881,56.8761],[24.0708,56.8725],[24.0663,56.8861],[24.0266,56.9196],[23.9427,56.9387],[24.001,56.9793],[23.9545,56.9914],[23.9269,57.0063]]]}},{"type":"Feature","id":"Roja","properties":{"id":"Roja","iso_code":"LV-079","name":"Roja","name_full":"Roja","name_ja":"ルアヤ","center_lonlat":[22.7679,57.4887]},"geometry":{"type":"Polygon","coordinates":[[[22.5872,57.665],[22.6008,57.6301],[22.6561,57.5858],[22.8789,57.4813],[22.9946,57.4119],[22.9498,57.4021],[22.9338,57.377],[22.8949,57.3747],[22.8469,57.3884],[22.7417,57.4593],[22.7052,57.4364],[22.6777,57.457],[22.6937,57.4822],[22.6251,57.5027],[22.6091,57.5782],[22.5703,57.617],[22.568,57.6742],[22.5872,57.665]]]}},{"type":"Feature","id":"Ropazi","properties":{"id":"Ropazi","iso_code":"LV-080","name":"Ropazi","name_full":"Ropaži","name_ja":"ルアパジ","center_lonlat":[24.5946,56.9607]},"geometry":{"type":"Polygon","coordinates":[[[24.8074,56.9339],[24.6933,56.8955],[24.5743,56.8867],[24.5202,56.9001],[24.507,56.8965],[24.5114,56.8779],[24.4999,56.8704],[24.4574,56.8868],[24.4289,56.9248],[24.4056,56.9265],[24.3717,56.9444],[24.3959,56.9681],[24.4013,56.9949],[24.5318,57.002],[24.5211,57.0521],[24.5655,57.06],[24.6301,57.061],[24.6695,57.0128],[24.7267,56.9895],[24.7749,56.9984],[24.8178,56.9895],[24.8074,56.9339]]]}},{"type":"Feature","id":"Rucava","properties":{"id":"Rucava","iso_code":"LV-081","name":"Rucava","name_full":"Rucava","name_ja":"ルツァヴァ","center_lonlat":[21.2083,56.2211]},"geometry":{"type":"Polygon","coordinates":[[[21.4855,56.2658],[21.4193,56.2374],[21.3276,56.2244],[21.2549,56.1852],[21.2296,56.1632],[21.1904,56.0845],[21.0534,56.0726],[21.0288,56.1474],[20.9734,56.232],[20.971,56.2597],[21.0345,56.2664],[21.0558,56.1683],[21.0835,56.1662],[21.0856,56.228],[21.1091,56.2195],[21.1794,56.2877],[21.1794,56.3559],[21.2263,56.3517],[21.2626,56.3261],[21.3799,56.3282],[21.4523,56.3026],[21.4855,56.2658]]]}},{"type":"Feature","id":"Rugaji","properties":{"id":"Rugaji","iso_code":"LV-082","name":"Rugaji","name_full":"Rugāji","name_ja":"ルガーイ","center_lonlat":[27.1018,56.9875]},"geometry":{"type":"Polygon","coordinates":[[[26.86,56.983],[26.8712,57.0026],[26.8605,57.018],[26.9532,57.0648],[27.0081,57.1145],[27.0976,57.1141],[27.0976,57.0913],[27.1181,57.0845],[27.3255,57.0617],[27.3141,57.0253],[27.289,57.0002],[27.2549,56.9934],[27.2617,56.9728],[27.3141,56.9797],[27.3323,56.9364],[27.2252,56.8954],[27.2002,56.8612],[27.0361,56.884],[26.9851,56.8782],[26.9539,56.9207],[26.9114,56.9393],[26.9119,56.9738],[26.86,56.983]]]}},{"type":"Feature","id":"Rundale","properties":{"id":"Rundale","iso_code":"LV-083","name":"Rundale","name_full":"Rundāle","name_ja":"ルンダーレ","center_lonlat":[23.9679,56.4023]},"geometry":{"type":"Polygon","coordinates":[[[23.9813,56.3124],[23.8711,56.3321],[23.8793,56.3843],[23.8362,56.3879],[23.8505,56.4185],[23.8407,56.4342],[23.875,56.4629],[23.9923,56.5025],[24.0177,56.502],[24.0374,56.4259],[24.1553,56.3866],[24.1267,56.3687],[24.0677,56.383],[24.0731,56.3634],[24.0409,56.3509],[24.0356,56.3312],[23.9813,56.3124]]]}},{"type":"Feature","id":"Sala","properties":{"id":"Sala","iso_code":"LV-086","name":"Sala","name_full":"Sala","name_ja":"サラ","center_lonlat":[25.7056,56.4804]},"geometry":{"type":"Polygon","coordinates":[[[25.7569,56.6123],[25.7481,56.5664],[25.7869,56.5303],[25.8264,56.5272],[25.8207,56.4868],[25.8096,56.4445],[25.843,56.4133],[25.794,56.3599],[25.7339,56.351],[25.7272,56.3688],[25.676,56.3666],[25.6115,56.4312],[25.6159,56.4467],[25.5946,56.4671],[25.5586,56.5107],[25.6072,56.5677],[25.5603,56.5739],[25.5698,56.5767],[25.7569,56.6123]]]}},{"type":"Feature","id":"Salacgriva","properties":{"id":"Salacgriva","iso_code":"LV-085","name":"Salacgriva","name_full":"Salacgrīva","name_ja":"サラツグリーヴァ","center_lonlat":[24.4601,57.7107]},"geometry":{"type":"Polygon","coordinates":[[[24.5824,57.946],[24.5908,57.8945],[24.5741,57.882],[24.5977,57.8708],[24.6492,57.7707],[24.5991,57.7526],[24.6089,57.7151],[24.563,57.7178],[24.5644,57.6733],[24.4183,57.6706],[24.4336,57.5677],[24.4781,57.5677],[24.4976,57.5551],[24.4907,57.544],[24.5532,57.5412],[24.5296,57.5218],[24.5783,57.4647],[24.5115,57.4481],[24.4865,57.4161],[24.3949,57.4],[24.3752,57.5286],[24.3586,57.5504],[24.3748,57.6135],[24.363,57.6723],[24.2996,57.7438],[24.2888,57.8453],[24.3062,57.8682],[24.3497,57.8586],[24.4015,57.8665],[24.4416,57.9081],[24.5338,57.9451],[24.5824,57.946]]]}},{"type":"Feature","id":"Salaspils","properties":{"id":"Salaspils","iso_code":"LV-087","name":"Salaspils","name_full":"Salaspils","name_ja":"サラスピルス","center_lonlat":[24.3222,56.875]},"geometry":{"type":"Polygon","coordinates":[[[24.2347,56.9304],[24.3252,56.9158],[24.3359,56.8961],[24.4056,56.9265],[24.4289,56.9248],[24.4574,56.8868],[24.4356,56.884],[24.4482,56.8655],[24.444,56.8377],[24.342,56.8511],[24.3109,56.8246],[24.2179,56.8282],[24.1768,56.8675],[24.197,56.8821],[24.2587,56.873],[24.2367,56.9041],[24.2347,56.9304]]]}},{"type":"Feature","id":"Saldus","properties":{"id":"Saldus","iso_code":"LV-088","name":"Saldus","name_full":"Saldus","name_ja":"サルドゥス","center_lonlat":[22.3657,56.5771]},"geometry":{"type":"Polygon","coordinates":[[[21.9832,56.3884],[21.9456,56.4167],[21.9954,56.4393],[21.9546,56.4706],[21.9667,56.5066],[22.056,56.5091],[22.0574,56.5233],[22.0114,56.5551],[22.1261,56.5822],[22.1093,56.6136],[22.1035,56.6729],[22.167,56.7082],[22.1889,56.7357],[22.1627,56.795],[22.2049,56.7952],[22.2511,56.8231],[22.3413,56.8475],[22.342,56.8642],[22.3203,56.8804],[22.264,56.8939],[22.3044,56.9197],[22.3923,56.8859],[22.4178,56.8893],[22.4549,56.9171],[22.5292,56.9088],[22.519,56.8768],[22.4909,56.8515],[22.4422,56.7711],[22.4605,56.7368],[22.488,56.7231],[22.5017,56.6385],[22.536,56.6202],[22.5497,56.5791],[22.5748,56.5677],[22.6046,56.5997],[22.6549,56.6042],[22.6937,56.5882],[22.7121,56.5654],[22.7014,56.4933],[22.7413,56.4754],[22.7482,56.4557],[22.7266,56.4245],[22.8596,56.3971],[22.6663,56.3491],[22.6047,56.3791],[22.5117,56.396],[22.2149,56.3904],[22.1391,56.4157],[22.0941,56.4174],[21.9832,56.3884]]]}},{"type":"Feature","id":"Saulkrasti","properties":{"id":"Saulkrasti","iso_code":"LV-089","name":"Saulkrasti","name_full":"Saulkrasti","name_ja":"サウルクラスチ","center_lonlat":[24.4132,57.2508]},"geometry":{"type":"Polygon","coordinates":[[[24.3308,57.1998],[24.4006,57.2581],[24.4048,57.3481],[24.4293,57.3285],[24.4279,57.2914],[24.4613,57.2948],[24.4879,57.2381],[24.4448,57.2353],[24.3724,57.1824],[24.3488,57.1838],[24.3308,57.1998]]]}},{"type":"Feature","id":"Seja","properties":{"id":"Seja","iso_code":"LV-090","name":"Seja","name_full":"Sēja","name_ja":"セーヤ","center_lonlat":[24.5436,57.2091]},"geometry":{"type":"Polygon","coordinates":[[[24.6816,57.2231],[24.6158,57.2033],[24.62,57.1769],[24.6742,57.1699],[24.6659,57.1254],[24.5685,57.1379],[24.5087,57.1059],[24.467,57.1824],[24.3724,57.1824],[24.4448,57.2353],[24.4879,57.2381],[24.4613,57.2948],[24.55,57.3163],[24.6433,57.2372],[24.6816,57.2231]]]}},{"type":"Feature","id":"Sigulda","properties":{"id":"Sigulda","iso_code":"LV-091","name":"Sigulda","name_full":"Sigulda","name_ja":"スィグルダ","center_lonlat":[25.0462,57.0836]},"geometry":{"type":"Polygon","coordinates":[[[25.1475,56.9894],[24.9893,57.0606],[24.984,57.0799],[24.8995,57.0879],[24.8787,57.1046],[24.8661,57.0934],[24.8884,57.0559],[24.88,57.0378],[24.8898,57.0114],[24.8453,56.985],[24.8178,56.9895],[24.7749,56.9984],[24.7267,56.9895],[24.6695,57.0128],[24.6301,57.061],[24.6506,57.074],[24.6784,57.0601],[24.7591,57.0781],[24.7493,57.099],[24.7799,57.1352],[24.823,57.1824],[24.8842,57.1991],[24.9004,57.2187],[24.9674,57.185],[24.9874,57.1247],[25.1125,57.1098],[25.1689,57.0676],[25.1328,57.0519],[25.1689,57.0143],[25.1673,56.9987],[25.1475,56.9894]]]}},{"type":"Feature","id":"Skriveri","properties":{"id":"Skriveri","iso_code":"LV-092","name":"Skriveri","name_full":"Skrīveri","name_ja":"スクリーヴェリ","center_lonlat":[25.0954,56.6702]},"geometry":{"type":"Polygon","coordinates":[[[25.0975,56.7372],[25.1763,56.7033],[25.1685,56.6805],[25.1796,56.6404],[25.1386,56.6191],[25.0495,56.612],[25.0194,56.6081],[25.0243,56.6246],[25.0169,56.6815],[25.0552,56.7014],[25.0287,56.7271],[25.0975,56.7372]]]}},{"type":"Feature","id":"Skrunda","properties":{"id":"Skrunda","iso_code":"LV-093","name":"Skrunda","name_full":"Skrunda","name_ja":"スクルンダ","center_lonlat":[21.9854,56.6607]},"geometry":{"type":"Polygon","coordinates":[[[21.7954,56.5733],[21.7767,56.6137],[21.8205,56.6392],[21.8093,56.6693],[21.823,56.6879],[21.8867,56.7208],[21.9301,56.7185],[21.9598,56.7323],[21.9347,56.7986],[21.9827,56.8214],[22.0924,56.8237],[22.1627,56.795],[22.1889,56.7357],[22.167,56.7082],[22.1035,56.6729],[22.1093,56.6136],[22.1261,56.5822],[22.0114,56.5551],[22.0574,56.5233],[22.056,56.5091],[21.9667,56.5066],[21.8331,56.524],[21.7932,56.5544],[21.7954,56.5733]]]}},{"type":"Feature","id":"Stopini","properties":{"id":"Stopini","iso_code":"LV-095","name":"Stopini","name_full":"Stopiņi","name_ja":"ストゥアピニ","center_lonlat":[24.3264,56.9339]},"geometry":{"type":"Polygon","coordinates":[[[24.2347,56.9304],[24.3202,56.969],[24.3717,56.9444],[24.4056,56.9265],[24.3359,56.8961],[24.3252,56.9158],[24.2347,56.9304]]]}},{"type":"Feature","id":"Talsi","properties":{"id":"Talsi","iso_code":"LV-097","name":"Talsi","name_full":"Talsi","name_ja":"タルスィ","center_lonlat":[22.6064,57.2554]},"geometry":{"type":"Polygon","coordinates":[[[22.9946,57.4119],[23.0314,57.3945],[23.0069,57.3678],[22.9201,57.3335],[22.9544,57.297],[23.055,57.2832],[23.0804,57.2385],[22.9673,57.1835],[22.9309,57.1446],[22.808,57.1366],[22.7609,57.1123],[22.6415,57.0947],[22.6495,57.0417],[22.6358,57.0158],[22.5082,57.0138],[22.3824,57.0197],[22.3627,57.0424],[22.3489,57.1101],[22.2064,57.1779],[22.1881,57.1987],[22.194,57.2124],[22.2971,57.2711],[22.3089,57.2889],[22.286,57.3343],[22.2821,57.3814],[22.2596,57.3979],[22.2822,57.4273],[22.3256,57.4341],[22.3485,57.4113],[22.4765,57.4136],[22.504,57.4616],[22.5474,57.4982],[22.6251,57.5027],[22.6937,57.4822],[22.6777,57.457],[22.7052,57.4364],[22.7417,57.4593],[22.8469,57.3884],[22.8949,57.3747],[22.9338,57.377],[22.9498,57.4021],[22.9946,57.4119]]]}},{"type":"Feature","id":"Tervete","properties":{"id":"Tervete","iso_code":"LV-098","name":"Tervete","name_full":"Tērvete","name_ja":"テールヴェテ","center_lonlat":[23.3096,56.4315]},"geometry":{"type":"Polygon","coordinates":[[[23.378,56.3546],[23.2884,56.373],[23.1726,56.358],[23.1524,56.3902],[23.1184,56.4099],[23.1488,56.4331],[23.172,56.451],[23.3097,56.4599],[23.2739,56.4903],[23.3562,56.5457],[23.383,56.5457],[23.4151,56.4933],[23.4307,56.4776],[23.4131,56.4594],[23.4624,56.398],[23.378,56.3546]]]}},{"type":"Feature","id":"Tukums","properties":{"id":"Tukums","iso_code":"LV-099","name":"Tukums","name_full":"Tukums","name_ja":"トゥクムス","center_lonlat":[23.1212,56.9389]},"geometry":{"type":"Polygon","coordinates":[[[23.492,56.9346],[23.5068,56.8946],[23.462,56.8842],[23.4866,56.8159],[23.4517,56.7994],[23.3972,56.7922],[23.375,56.8008],[23.322,56.7821],[23.315,56.7655],[23.3252,56.7495],[23.2996,56.7154],[23.2158,56.7111],[23.1717,56.6924],[23.1233,56.6988],[23.0934,56.7209],[23.0558,56.7942],[23.0362,56.8068],[22.9325,56.8103],[22.9235,56.8336],[22.9432,56.855],[22.9235,56.8747],[22.9164,56.9158],[22.8306,56.9498],[22.818,56.9748],[22.8306,57.007],[22.8788,57.0195],[22.8413,57.0785],[22.8967,57.0892],[22.9414,57.1143],[22.9557,57.1268],[22.9309,57.1446],[22.9673,57.1835],[23.0804,57.2385],[23.1128,57.2653],[23.1327,57.209],[23.1202,57.1715],[23.1005,57.1554],[23.113,57.1375],[23.2042,57.1053],[23.231,57.066],[23.1774,57.0124],[23.1685,56.9855],[23.1971,56.9677],[23.1416,56.9355],[23.1488,56.9212],[23.2006,56.9301],[23.3723,56.9104],[23.4772,56.9365],[23.492,56.9346]]]}},{"type":"Feature","id":"Vainode","properties":{"id":"Vainode","iso_code":"LV-100","name":"Vainode","name_full":"Vaiņode","name_ja":"ヴァイニョデ基礎自治体","center_lonlat":[21.8226,56.4441]},"geometry":{"type":"Polygon","coordinates":[[[21.7365,56.3237],[21.7252,56.3559],[21.7508,56.3687],[21.7508,56.3815],[21.7231,56.3815],[21.6655,56.4178],[21.6847,56.4327],[21.6805,56.4647],[21.7338,56.4732],[21.7338,56.4988],[21.7082,56.5052],[21.7124,56.55],[21.7954,56.5733],[21.7932,56.5544],[21.8331,56.524],[21.9667,56.5066],[21.9546,56.4706],[21.9954,56.4393],[21.9456,56.4167],[21.9832,56.3884],[21.7365,56.3237]]]}},{"type":"Feature","id":"Valka","properties":{"id":"Valka","iso_code":"LV-101","name":"Valka","name_full":"Valka","name_ja":"ヴァルカス","center_lonlat":[25.9355,57.7163]},"geometry":{"type":"Polygon","coordinates":[[[26.3513,57.5802],[26.3412,57.5378],[26.3618,57.5128],[26.3115,57.4993],[26.3016,57.5277],[26.2454,57.5228],[26.2406,57.5424],[26.1551,57.5472],[26.1234,57.5692],[25.9768,57.5497],[25.9451,57.5301],[25.8963,57.5301],[25.8889,57.5497],[25.9036,57.5692],[25.9011,57.5887],[25.8767,57.6034],[25.9597,57.6205],[25.989,57.6718],[25.8596,57.684],[25.8572,57.7035],[25.8279,57.706],[25.8474,57.7524],[25.7351,57.7304],[25.6887,57.7377],[25.6166,57.758],[25.5529,57.7924],[25.5554,57.8161],[25.4663,57.8598],[25.4695,57.8739],[25.5223,57.8689],[25.5828,57.8831],[25.6135,57.8661],[25.6534,57.8637],[25.6661,57.9144],[25.7038,57.9213],[25.7303,57.9231],[25.7675,57.8689],[25.7926,57.856],[26.0145,57.8428],[26.0253,57.8284],[26.0131,57.8073],[26.0247,57.7744],[26.1352,57.7248],[26.2632,57.6208],[26.3513,57.5802]]]}},{"type":"Feature","id":"Valmiera","properties":{"id":"Valmiera","iso_code":"LV-084","name":"Valmiera","name_full":"Valmiera","name_ja":"ヴァルミエラ","center_lonlat":[25.2047,57.9263]},"geometry":{"type":"Polygon","coordinates":[[[25.4197,58.0082],[25.4037,57.971],[25.3458,57.9663],[25.327,57.9913],[25.2612,57.9381],[25.2706,57.913],[25.3818,57.8833],[25.4178,57.816],[25.4522,57.816],[25.4554,57.7893],[25.2706,57.7784],[25.2675,57.7956],[25.2456,57.8003],[25.2471,57.852],[25.1955,57.9052],[25.1344,57.9302],[25.125,57.9506],[25.1375,57.9569],[25.1328,57.9772],[25.1047,57.9819],[25.0953,58.0038],[25.1094,58.0445],[25.0942,58.0673],[25.167,58.0587],[25.2021,57.992],[25.2168,57.9854],[25.2844,58.0081],[25.2495,58.0512],[25.2635,58.0751],[25.2996,58.0656],[25.3246,58.0348],[25.3565,58.0348],[25.4197,58.0082]]]}},{"type":"Feature","id":"Valmiera (LV-008)","properties":{"id":"Valmiera (LV-008)","iso_code":"LV-008","name":"Valmiera (LV-008)","name_full":"Valmiera","name_ja":"ヴァルミエラ","center_lonlat":[25.3298,57.0963]},"geometry":{"type":"Polygon","coordinates":[[[25.4882,56.9945],[25.4469,56.9916],[25.4526,56.9696],[25.3958,56.9373],[25.3722,56.9414],[25.3437,56.9774],[25.2841,56.9648],[25.2473,56.9427],[25.2517,56.9349],[25.1426,56.9508],[25.1381,56.9801],[25.1475,56.9894],[25.1673,56.9987],[25.1689,57.0143],[25.1328,57.0519],[25.1689,57.0676],[25.1125,57.1098],[25.1735,57.1177],[25.2127,57.1458],[25.1892,57.1631],[25.1595,57.2273],[25.1047,57.2335],[25.0906,57.2476],[25.1313,57.2664],[25.2064,57.2648],[25.2315,57.2961],[25.3192,57.2586],[25.3176,57.232],[25.3599,57.232],[25.3802,57.1881],[25.4115,57.1866],[25.4585,57.1568],[25.5634,57.1474],[25.5415,57.1224],[25.5947,57.1098],[25.6166,57.066],[25.5477,57.0206],[25.507,57.0362],[25.4929,57.0269],[25.5102,57.0081],[25.504,56.9948],[25.4882,56.9945]]]}},{"type":"Feature","id":"Valmiera (LV-009)","properties":{"id":"Valmiera (LV-009)","iso_code":"LV-009","name":"Valmiera (LV-009)","name_full":"Valmiera","name_ja":"ヴァルミエラ","center_lonlat":[26.5095,57.4639]},"geometry":{"type":"Polygon","coordinates":[[[26.7958,57.5713],[26.8083,57.5037],[26.7217,57.49],[26.7035,57.424],[26.6146,57.4194],[26.5942,57.3913],[26.4758,57.4051],[26.4747,57.3751],[26.3939,57.3507],[26.43,57.346],[26.4235,57.3322],[26.3595,57.3225],[26.2762,57.331],[26.2775,57.3647],[26.302,57.3748],[26.3205,57.4238],[26.2935,57.4427],[26.326,57.4676],[26.311,57.4698],[26.3115,57.4993],[26.3618,57.5128],[26.3412,57.5378],[26.3513,57.5802],[26.4307,57.5618],[26.4995,57.5158],[26.5422,57.5282],[26.5901,57.5204],[26.6048,57.5403],[26.667,57.5649],[26.7958,57.5713]]]}},{"type":"Feature","id":"Valmiera (LV-017)","properties":{"id":"Valmiera (LV-017)","iso_code":"LV-017","name":"Valmiera (LV-017)","name_full":"Valmiera","name_ja":"ヴァルミエラ","center_lonlat":[25.5915,57.5226]},"geometry":{"type":"Polygon","coordinates":[[[25.7763,57.4997],[25.7184,57.4966],[25.6579,57.4646],[25.6024,57.4686],[25.5268,57.4382],[25.5004,57.4501],[25.3988,57.4412],[25.3771,57.5091],[25.4319,57.5059],[25.4522,57.5153],[25.4569,57.5373],[25.5697,57.5921],[25.5912,57.6141],[25.6949,57.6155],[25.7247,57.5889],[25.7106,57.5764],[25.7826,57.5529],[25.7341,57.5467],[25.7435,57.5341],[25.8092,57.5373],[25.8217,57.5247],[25.7763,57.4997]]]}},{"type":"Feature","id":"Valmiera (LV-019)","properties":{"id":"Valmiera (LV-019)","iso_code":"LV-019","name":"Valmiera (LV-019)","name_full":"Valmiera","name_ja":"ヴァルミエラ","center_lonlat":[25.3555,57.698]},"geometry":{"type":"Polygon","coordinates":[[[25.5529,57.7924],[25.6166,57.758],[25.6887,57.7377],[25.6714,57.7204],[25.6213,57.7189],[25.601,57.697],[25.601,57.6688],[25.5099,57.6462],[25.5912,57.6141],[25.5697,57.5921],[25.4569,57.5373],[25.4397,57.5561],[25.3787,57.5498],[25.2784,57.5936],[25.2691,57.6155],[25.1986,57.6547],[25.1892,57.6735],[25.0937,57.6531],[25.0925,57.6882],[25.0762,57.7145],[25.0987,57.736],[25.0773,57.7672],[25.0175,57.7965],[25.0342,57.8144],[25.1281,57.7987],[25.1125,57.8379],[25.1422,57.8441],[25.2456,57.8003],[25.2675,57.7956],[25.2706,57.7784],[25.4554,57.7893],[25.5529,57.7924]]]}},{"type":"Feature","id":"Valmiera (LV-021)","properties":{"id":"Valmiera (LV-021)","iso_code":"LV-021","name":"Valmiera (LV-021)","name_full":"Valmiera","name_ja":"ヴァルミエラ","center_lonlat":[26.2766,57.0109]},"geometry":{"type":"Polygon","coordinates":[[[26.3694,57.0446],[26.3838,57.0049],[26.4057,56.9893],[26.3525,56.9486],[26.3588,56.9313],[26.2867,56.9407],[26.2226,56.9282],[26.2006,56.9517],[26.1709,56.9533],[26.1865,56.9846],[26.1756,57.0347],[26.1832,57.0826],[26.3213,57.0979],[26.3289,57.0719],[26.3694,57.0446]]]}},{"type":"Feature","id":"Valmiera (LV-030)","properties":{"id":"Valmiera (LV-030)","iso_code":"LV-030","name":"Valmiera (LV-030)","name_full":"Valmiera","name_ja":"ヴァルミエラ","center_lonlat":[25.6807,56.8996]},"geometry":{"type":"Polygon","coordinates":[[[25.4882,56.9945],[25.504,56.9948],[25.5823,56.9819],[25.6385,56.9948],[25.6295,56.9631],[25.7271,56.9987],[25.7794,56.981],[25.8226,56.985],[25.8541,56.9626],[25.8864,56.9642],[25.9533,56.9251],[25.947,56.9063],[25.7748,56.8906],[25.7482,56.8672],[25.7655,56.8282],[25.7397,56.8184],[25.7488,56.8088],[25.7302,56.7823],[25.6922,56.7705],[25.6688,56.789],[25.5054,56.8131],[25.4836,56.8672],[25.5557,56.8739],[25.5159,56.8979],[25.5316,56.9326],[25.4882,56.9945]]]}},{"type":"Feature","id":"Valmiera (LV-039)","properties":{"id":"Valmiera (LV-039)","iso_code":"LV-039","name":"Valmiera (LV-039)","name_full":"Valmiera","name_ja":"ヴァルミエラ","center_lonlat":[25.9793,57.1489]},"geometry":{"type":"Polygon","coordinates":[[[26.0134,57.2211],[26.0893,57.2099],[26.1682,57.1434],[26.1168,57.0781],[26.065,57.0887],[26.0384,57.0769],[25.9231,57.0974],[25.8812,57.0973],[25.8624,57.1208],[25.839,57.1208],[25.7748,57.1537],[25.7638,57.1693],[25.7716,57.1991],[25.8186,57.2069],[25.8938,57.185],[25.9454,57.1912],[26.0134,57.2211]]]}},{"type":"Feature","id":"Valmiera (LV-045)","properties":{"id":"Valmiera (LV-045)","iso_code":"LV-045","name":"Valmiera (LV-045)","name_full":"Valmiera","name_ja":"ヴァルミエラ","center_lonlat":[25.1839,57.5374]},"geometry":{"type":"Polygon","coordinates":[[[24.8814,57.6247],[24.9345,57.612],[25.0191,57.6381],[25.0616,57.624],[25.0847,57.6298],[25.0622,57.6524],[25.0937,57.6531],[25.1892,57.6735],[25.1986,57.6547],[25.2691,57.6155],[25.2784,57.5936],[25.3787,57.5498],[25.3771,57.5091],[25.3988,57.4412],[25.3869,57.3861],[25.1969,57.4218],[25.1406,57.4618],[25.123,57.4949],[25.0978,57.488],[25.0796,57.5002],[25.0871,57.5072],[25.0478,57.5141],[25.0464,57.5354],[25.0043,57.5622],[24.9162,57.5558],[24.8949,57.5672],[24.88,57.583],[24.8814,57.6247]]]}},{"type":"Feature","id":"Valmiera (LV-055)","properties":{"id":"Valmiera (LV-055)","iso_code":"LV-055","name":"Valmiera (LV-055)","name_full":"Valmiera","name_ja":"ヴァルミエラ","center_lonlat":[25.0658,57.1804]},"geometry":{"type":"Polygon","coordinates":[[[25.0906,57.2476],[25.1047,57.2335],[25.1595,57.2273],[25.1892,57.1631],[25.2127,57.1458],[25.1735,57.1177],[25.1125,57.1098],[24.9874,57.1247],[24.9674,57.185],[24.9004,57.2187],[24.9331,57.2462],[24.981,57.2382],[25.0906,57.2476]]]}},{"type":"Feature","id":"Valmiera (LV-057)","properties":{"id":"Valmiera (LV-057)","iso_code":"LV-057","name":"Valmiera (LV-057)","name_full":"Valmiera","name_ja":"ヴァルミエラ","center_lonlat":[26.7144,56.9095]},"geometry":{"type":"Polygon","coordinates":[[[26.9851,56.8782],[26.9533,56.8467],[26.9334,56.8656],[26.8848,56.8734],[26.8613,56.9],[26.7267,56.8906],[26.7126,56.9032],[26.6093,56.8186],[26.5357,56.8014],[26.4731,56.8546],[26.5682,56.9484],[26.7576,56.993],[26.86,56.983],[26.9119,56.9738],[26.9114,56.9393],[26.9539,56.9207],[26.9851,56.8782]]]}},{"type":"Feature","id":"Valmiera (LV-060)","properties":{"id":"Valmiera (LV-060)","iso_code":"LV-060","name":"Valmiera (LV-060)","name_full":"Valmiera","name_ja":"ヴァルミエラ","center_lonlat":[25.0249,57.9137]},"geometry":{"type":"Polygon","coordinates":[[[25.0942,58.0673],[25.1094,58.0445],[25.0953,58.0038],[25.1047,57.9819],[25.1328,57.9772],[25.1375,57.9569],[25.125,57.9506],[25.1344,57.9302],[25.1955,57.9052],[25.2471,57.852],[25.2456,57.8003],[25.1422,57.8441],[25.1125,57.8379],[25.1281,57.7987],[25.0342,57.8144],[25.0175,57.7965],[24.9657,57.8083],[24.9533,57.8001],[24.946,57.8175],[24.9011,57.8255],[24.885,57.8891],[24.8423,57.9009],[24.8274,57.9819],[24.8725,58.0004],[24.9493,58.0064],[25.0942,58.0673]]]}},{"type":"Feature","id":"Valmiera (LV-064)","properties":{"id":"Valmiera (LV-064)","iso_code":"LV-064","name":"Valmiera (LV-064)","name_full":"Valmiera","name_ja":"ヴァルミエラ","center_lonlat":[25.4567,57.9041]},"geometry":{"type":"Polygon","coordinates":[[[25.7038,57.9213],[25.6661,57.9144],[25.6534,57.8637],[25.6135,57.8661],[25.5828,57.8831],[25.5223,57.8689],[25.4695,57.8739],[25.4663,57.8598],[25.5554,57.8161],[25.5529,57.7924],[25.4554,57.7893],[25.4522,57.816],[25.4178,57.816],[25.3818,57.8833],[25.2706,57.913],[25.2612,57.9381],[25.327,57.9913],[25.3458,57.9663],[25.4037,57.971],[25.4197,58.0082],[25.4572,57.9841],[25.5417,57.9628],[25.5583,57.9342],[25.6015,57.9122],[25.7038,57.9213]]]}},{"type":"Feature","id":"Valmiera (LV-070)","properties":{"id":"Valmiera (LV-070)","iso_code":"LV-070","name":"Valmiera (LV-070)","name_full":"Valmiera","name_ja":"ヴァルミエラ","center_lonlat":[25.0713,57.3622]},"geometry":{"type":"Polygon","coordinates":[[[25.0796,57.5002],[25.0978,57.488],[25.123,57.4949],[25.1406,57.4618],[25.1969,57.4218],[25.3869,57.3861],[25.3567,57.3572],[25.2863,57.3603],[25.2456,57.3478],[25.2315,57.3306],[25.2315,57.2961],[25.2064,57.2648],[25.1313,57.2664],[25.0906,57.2476],[24.981,57.2382],[24.9331,57.2462],[24.9358,57.2783],[24.8887,57.3092],[24.9033,57.3277],[24.881,57.3372],[24.8316,57.3955],[24.7995,57.4171],[24.8759,57.413],[25.0796,57.5002]]]}},{"type":"Feature","id":"Valmiera (LV-075)","properties":{"id":"Valmiera (LV-075)","iso_code":"LV-075","name":"Valmiera (LV-075)","name_full":"Valmiera","name_ja":"ヴァルミエラ","center_lonlat":[25.4756,57.352]},"geometry":{"type":"Polygon","coordinates":[[[25.6579,57.4646],[25.6025,57.3776],[25.5462,57.3776],[25.5117,57.3603],[25.5556,57.3055],[25.5978,57.2852],[25.601,57.2648],[25.5994,57.2476],[25.5603,57.2226],[25.5227,57.2085],[25.5008,57.2163],[25.5008,57.2492],[25.4663,57.2774],[25.3943,57.3024],[25.3113,57.2961],[25.3239,57.3087],[25.2315,57.3306],[25.2456,57.3478],[25.2863,57.3603],[25.3567,57.3572],[25.3869,57.3861],[25.3988,57.4412],[25.5004,57.4501],[25.5268,57.4382],[25.6024,57.4686],[25.6579,57.4646]]]}},{"type":"Feature","id":"Valmiera (LV-076)","properties":{"id":"Valmiera (LV-076)","iso_code":"LV-076","name":"Valmiera (LV-076)","name_full":"Valmiera","name_ja":"ヴァルミエラ","center_lonlat":[25.6455,57.3442]},"geometry":{"type":"MultiPolygon","coordinates":[[[[25.6579,57.4646],[25.714,57.401],[25.7049,57.3838],[25.7516,57.3377],[25.733,57.2966],[25.7451,57.2751],[25.601,57.2648],[25.5978,57.2852],[25.5556,57.3055],[25.5117,57.3603],[25.5462,57.3776],[25.6025,57.3776],[25.6579,57.4646]]],[[[26.0586,57.2653],[26.0586,57.2513],[26.0041,57.2438],[26.0134,57.2211],[25.9454,57.1912],[25.8938,57.185],[25.8186,57.2069],[25.7716,57.1991],[25.745,57.2132],[25.7699,57.2787],[25.9917,57.29],[26.0437,57.28],[26.0586,57.2653]]]]}},{"type":"Feature","id":"Valmiera (LV-094)","properties":{"id":"Valmiera (LV-094)","iso_code":"LV-094","name":"Valmiera (LV-094)","name_full":"Valmiera","name_ja":"ヴァルミエラ","center_lonlat":[26.0185,57.4091]},"geometry":{"type":"Polygon","coordinates":[[[26.3115,57.4993],[26.311,57.4698],[26.326,57.4676],[26.2935,57.4427],[26.3205,57.4238],[26.302,57.3748],[26.2775,57.3647],[26.2762,57.331],[26.262,57.2819],[26.1013,57.2782],[26.0586,57.2653],[26.0437,57.28],[25.9917,57.29],[25.7699,57.2787],[25.7451,57.2751],[25.733,57.2966],[25.7516,57.3377],[25.7049,57.3838],[25.714,57.401],[25.6579,57.4646],[25.7184,57.4966],[25.7763,57.4997],[25.9353,57.4764],[25.9597,57.496],[25.9451,57.5301],[25.9768,57.5497],[26.1234,57.5692],[26.1551,57.5472],[26.2406,57.5424],[26.2454,57.5228],[26.3016,57.5277],[26.3115,57.4993]]]}},{"type":"Feature","id":"Valmiera (LV-096)","properties":{"id":"Valmiera (LV-096)","iso_code":"LV-096","name":"Valmiera (LV-096)","name_full":"Valmiera","name_ja":"ヴァルミエラ","center_lonlat":[25.7831,57.6277]},"geometry":{"type":"Polygon","coordinates":[[[25.5912,57.6141],[25.5099,57.6462],[25.601,57.6688],[25.601,57.697],[25.6213,57.7189],[25.6714,57.7204],[25.6887,57.7377],[25.7351,57.7304],[25.8474,57.7524],[25.8279,57.706],[25.8572,57.7035],[25.8596,57.684],[25.989,57.6718],[25.9597,57.6205],[25.8767,57.6034],[25.9011,57.5887],[25.9036,57.5692],[25.8889,57.5497],[25.8963,57.5301],[25.9451,57.5301],[25.9597,57.496],[25.9353,57.4764],[25.7763,57.4997],[25.8217,57.5247],[25.8092,57.5373],[25.7435,57.5341],[25.7341,57.5467],[25.7826,57.5529],[25.7106,57.5764],[25.7247,57.5889],[25.6949,57.6155],[25.5912,57.6141]]]}},{"type":"Feature","id":"Valmiera (LV-102)","properties":{"id":"Valmiera (LV-102)","iso_code":"LV-102","name":"Valmiera (LV-102)","name_full":"Valmiera","name_ja":"ヴァルミエラ","center_lonlat":[26.6164,56.6339]},"geometry":{"type":"Polygon","coordinates":[[[26.7726,56.681],[26.7797,56.6215],[26.7924,56.6103],[26.7365,56.5873],[26.7293,56.5783],[26.7437,56.5588],[26.7223,56.5431],[26.6278,56.5437],[26.5866,56.5514],[26.5938,56.5951],[26.4845,56.6061],[26.3756,56.6359],[26.3885,56.6777],[26.5357,56.6777],[26.6077,56.6902],[26.6484,56.7168],[26.6829,56.7215],[26.7079,56.7231],[26.711,56.7075],[26.7726,56.681]]]}},{"type":"Feature","id":"Valmiera (LV-104)","properties":{"id":"Valmiera (LV-104)","iso_code":"LV-104","name":"Valmiera (LV-104)","name_full":"Valmiera","name_ja":"ヴァルミエラ","center_lonlat":[25.7125,57.1013]},"geometry":{"type":"Polygon","coordinates":[[[25.7451,57.2751],[25.7699,57.2787],[25.745,57.2132],[25.7716,57.1991],[25.7638,57.1693],[25.7748,57.1537],[25.839,57.1208],[25.8624,57.1208],[25.8812,57.0973],[25.9231,57.0974],[25.8957,57.0263],[25.92,57.0001],[25.9208,56.9819],[25.8864,56.9642],[25.8541,56.9626],[25.8226,56.985],[25.7794,56.981],[25.7271,56.9987],[25.6295,56.9631],[25.6385,56.9948],[25.5823,56.9819],[25.504,56.9948],[25.5102,57.0081],[25.4929,57.0269],[25.507,57.0362],[25.5477,57.0206],[25.6166,57.066],[25.5947,57.1098],[25.5415,57.1224],[25.5634,57.1474],[25.5759,57.2038],[25.5603,57.2226],[25.5994,57.2476],[25.601,57.2648],[25.7451,57.2751]]]}},{"type":"Feature","id":"Valmiera (LV-VMR)","properties":{"id":"Valmiera (LV-VMR)","iso_code":"LV-VMR","name":"Valmiera (LV-VMR)","name_full":"Valmiera","name_ja":"ヴァルミエラ","center_lonlat":[25.4155,57.5303]},"geometry":{"type":"Polygon","coordinates":[[[25.4569,57.5373],[25.4522,57.5153],[25.4319,57.5059],[25.3771,57.5091],[25.3787,57.5498],[25.4397,57.5561],[25.4569,57.5373]]]}},{"type":"Feature","id":"Varkava","properties":{"id":"Varkava","iso_code":"LV-103","name":"Varkava","name_full":"Vārkava","name_ja":"ヴァールカヴァ","center_lonlat":[26.5019,56.2193]},"geometry":{"type":"Polygon","coordinates":[[[26.3354,56.1897],[26.2931,56.2844],[26.3531,56.2741],[26.3551,56.3113],[26.38,56.3133],[26.4027,56.2823],[26.442,56.2658],[26.5619,56.2678],[26.6012,56.2823],[26.6405,56.2761],[26.6736,56.2182],[26.6715,56.1769],[26.6467,56.1645],[26.6033,56.1665],[26.6479,56.1353],[26.6248,56.1211],[26.5566,56.1566],[26.5408,56.1339],[26.5075,56.1323],[26.4845,56.1678],[26.4554,56.1804],[26.3808,56.1969],[26.3354,56.1897]]]}},{"type":"Feature","id":"Vecumnieki","properties":{"id":"Vecumnieki","iso_code":"LV-105","name":"Vecumnieki","name_full":"Vecumnieki","name_ja":"ヴェツムニエキ","center_lonlat":[24.6194,56.5158]},"geometry":{"type":"Polygon","coordinates":[[[24.871,56.4426],[24.8459,56.4049],[24.8055,56.4085],[24.6786,56.3773],[24.5728,56.3098],[24.529,56.3222],[24.4807,56.3097],[24.4682,56.3312],[24.5058,56.3616],[24.4521,56.3669],[24.4468,56.3812],[24.5308,56.4099],[24.5129,56.4545],[24.4736,56.4832],[24.4378,56.4742],[24.3806,56.5296],[24.3878,56.5529],[24.3216,56.5636],[24.3091,56.6119],[24.3681,56.619],[24.3554,56.6616],[24.5219,56.7136],[24.6009,56.707],[24.6341,56.6769],[24.5897,56.661],[24.5928,56.643],[24.6172,56.6072],[24.6971,56.5789],[24.6571,56.5436],[24.7325,56.5442],[24.95,56.5786],[24.9563,56.5511],[24.9956,56.5511],[25.0135,56.4957],[24.9205,56.4867],[24.871,56.4426]]]}},{"type":"Feature","id":"Ventspils","properties":{"id":"Ventspils","iso_code":"LV-VEN","name":"Ventspils","name_full":"Ventspils","name_ja":"ベンツピルス","center_lonlat":[21.8638,57.3196]},"geometry":{"type":"Polygon","coordinates":[[[21.3282,56.9736],[21.3825,57.0089],[21.4136,57.0732],[21.4011,57.1513],[21.4148,57.1849],[21.4214,57.2887],[21.4802,57.3336],[21.5115,57.3787],[21.542,57.341],[21.5917,57.3608],[21.6264,57.3546],[21.6215,57.3894],[21.6748,57.4009],[21.6217,57.4732],[21.7297,57.5738],[21.7717,57.5861],[21.9993,57.6003],[22.1945,57.6576],[22.2064,57.6269],[22.2356,57.6197],[22.2471,57.5996],[22.2721,57.5491],[22.2719,57.5072],[22.1745,57.4719],[22.1774,57.4591],[22.1379,57.4375],[22.078,57.4232],[22.1517,57.4046],[22.2449,57.4071],[22.2596,57.3979],[22.2821,57.3814],[22.286,57.3343],[22.3089,57.2889],[22.2971,57.2711],[22.194,57.2124],[22.1881,57.1987],[22.2064,57.1779],[22.1925,57.1246],[22.0952,57.1016],[22.0153,57.1137],[21.7831,57.0852],[21.7892,57.1041],[21.6539,57.1162],[21.5738,57.0856],[21.539,57.0706],[21.5062,57.0756],[21.4736,57.013],[21.472,56.9714],[21.4467,56.9497],[21.3958,56.9424],[21.3848,56.9565],[21.3282,56.9736]]]}},{"type":"Feature","id":"Ventspils (LV-VEN)","properties":{"id":"Ventspils (LV-VEN)","iso_code":"LV-VEN","name":"Ventspils (LV-VEN)","name_full":"Ventspils","name_ja":"ヴェンツピルス","center_lonlat":[21.5927,57.4009]},"geometry":{"type":"Polygon","coordinates":[[[21.5115,57.3787],[21.6217,57.4732],[21.6748,57.4009],[21.6215,57.3894],[21.6264,57.3546],[21.5917,57.3608],[21.542,57.341],[21.5115,57.3787]]]}},{"type":"Feature","id":"Viesite","properties":{"id":"Viesite","iso_code":"LV-107","name":"Viesite","name_full":"Viesīte","name_ja":"ヴィエスィーテ","center_lonlat":[25.5186,56.2985]},"geometry":{"type":"Polygon","coordinates":[[[25.3491,56.1599],[25.4086,56.1786],[25.3955,56.2021],[25.4034,56.2316],[25.3105,56.2874],[25.3243,56.3093],[25.3703,56.3273],[25.2962,56.3369],[25.2936,56.4079],[25.2962,56.4208],[25.4556,56.4134],[25.5235,56.4448],[25.5667,56.4476],[25.5946,56.4671],[25.6159,56.4467],[25.6115,56.4312],[25.676,56.3666],[25.7272,56.3688],[25.7339,56.351],[25.7339,56.2998],[25.6805,56.2931],[25.6938,56.2286],[25.6938,56.2085],[25.6497,56.1438],[25.3491,56.1599]]]}},{"type":"Feature","id":"Vilaka","properties":{"id":"Vilaka","iso_code":"LV-108","name":"Vilaka","name_full":"Viļaka","name_ja":"ヴィリャカ","center_lonlat":[27.6386,57.1869]},"geometry":{"type":"Polygon","coordinates":[[[27.6944,57.3564],[27.8277,57.305],[27.8461,57.2673],[27.8243,57.1591],[27.6822,57.1037],[27.6961,57.0855],[27.7455,57.068],[27.7458,57.0315],[27.6376,57.0184],[27.6308,57.0389],[27.5533,57.0389],[27.5419,57.0777],[27.5146,57.0799],[27.4553,57.1141],[27.4029,57.1597],[27.4462,57.244],[27.4871,57.2739],[27.5556,57.2589],[27.6002,57.2978],[27.6819,57.3268],[27.6944,57.3564]]]}},{"type":"Feature","id":"Vilani","properties":{"id":"Vilani","iso_code":"LV-109","name":"Vilani","name_full":"Viļāni","name_ja":"ヴィラヌ","center_lonlat":[26.8881,56.5545]},"geometry":{"type":"Polygon","coordinates":[[[26.7437,56.5588],[26.7293,56.5783],[26.7365,56.5873],[26.7924,56.6103],[26.7797,56.6215],[26.7726,56.681],[26.8523,56.6579],[26.9144,56.601],[26.9818,56.5932],[27.0051,56.5621],[27.0076,56.5233],[27.0413,56.4664],[27.0335,56.4482],[26.9254,56.4476],[26.9584,56.4611],[26.9527,56.4769],[26.8076,56.4985],[26.7755,56.512],[26.8261,56.5242],[26.8157,56.54],[26.7437,56.5588]]]}},{"type":"Feature","id":"Zilupe","properties":{"id":"Zilupe","iso_code":"LV-110","name":"Zilupe","name_full":"Zilupe","name_ja":"ジルペ","center_lonlat":[28.077,56.3101]},"geometry":{"type":"Polygon","coordinates":[[[28.1679,56.4271],[28.1671,56.3699],[28.2148,56.2814],[28.2153,56.256],[28.1489,56.1424],[28.111,56.1568],[28.0511,56.1407],[28.0437,56.158],[28.0775,56.1967],[28.0704,56.2085],[28.1208,56.2748],[28.0949,56.2981],[28.0043,56.3317],[27.9318,56.3084],[27.9163,56.2851],[27.8645,56.2851],[27.8412,56.3214],[27.9551,56.3783],[28.0121,56.3835],[27.9784,56.4327],[28.1679,56.4271]]]}}]}
