{"type":"FeatureCollection","features":[{"type":"Feature","id":"Beirut","properties":{"id":"Beirut","iso_code":"LB-BA","name":"Beirut","name_full":"Beirut","name_ja":"ベイルート県","center_lonlat":[35.5094,33.8893]},"geometry":{"type":"Polygon","coordinates":[[[35.483,33.8652],[35.4758,33.91],[35.5481,33.9062],[35.5363,33.872],[35.483,33.8652]]]}},{"type":"Feature","id":"Beqaa","properties":{"id":"Beqaa","iso_code":"LB-BI","name":"Beqaa","name_full":"Beqaa","name_ja":"ベッカー県","center_lonlat":[36.13,33.9922]},"geometry":{"type":"Polygon","coordinates":[[[35.8451,33.4187],[35.7822,33.4275],[35.756,33.4651],[35.7161,33.4807],[35.6617,33.4304],[35.6349,33.4333],[35.6136,33.5097],[35.6366,33.5328],[35.6712,33.6234],[35.7559,33.7167],[35.741,33.7347],[35.7684,33.7681],[35.7962,33.7684],[35.8076,33.7809],[35.7701,33.8081],[35.8684,33.9192],[35.9252,33.9578],[35.9531,33.9931],[35.9979,34.0678],[36.0113,34.1522],[36.0434,34.1591],[36.0707,34.2231],[36.1385,34.2886],[36.1553,34.3286],[36.1975,34.3612],[36.249,34.4616],[36.2959,34.4922],[36.3299,34.4986],[36.4335,34.4943],[36.4498,34.4645],[36.5251,34.4229],[36.5186,34.3536],[36.5558,34.3111],[36.582,34.2999],[36.5628,34.2629],[36.574,34.2297],[36.6041,34.1991],[36.4884,34.0886],[36.4752,34.0535],[36.3911,34.0447],[36.2886,33.9465],[36.2689,33.9068],[36.3111,33.872],[36.3676,33.8575],[36.3575,33.8238],[36.2318,33.8525],[36.1657,33.8298],[36.1383,33.8506],[36.0504,33.8164],[35.994,33.7607],[35.9484,33.7092],[35.9472,33.6731],[35.9254,33.6617],[35.9216,33.6403],[36.0297,33.5976],[36.0352,33.5678],[35.9993,33.5413],[35.9332,33.5278],[35.9219,33.5146],[35.9354,33.4943],[35.9195,33.4624],[35.8451,33.4187]]]}},{"type":"Feature","id":"Mount Lebanon","properties":{"id":"Mount Lebanon","iso_code":"LB-JL","name":"Mount Lebanon","name_full":"Mount Lebanon","name_ja":"山岳レバノン県","center_lonlat":[35.6949,33.8949]},"geometry":{"type":"Polygon","coordinates":[[[35.5481,33.9062],[35.5784,33.9167],[35.6135,33.9931],[35.6409,33.9994],[35.627,34.0443],[35.6477,34.1191],[35.6304,34.1528],[35.6272,34.2011],[35.645,34.2177],[35.7384,34.1872],[35.8442,34.1931],[35.8956,34.1689],[35.9218,34.1655],[35.9362,34.1764],[36.0113,34.1522],[35.9979,34.0678],[35.9531,33.9931],[35.9252,33.9578],[35.8684,33.9192],[35.7701,33.8081],[35.8076,33.7809],[35.7962,33.7684],[35.7684,33.7681],[35.741,33.7347],[35.7559,33.7167],[35.6712,33.6234],[35.6366,33.5328],[35.6136,33.5097],[35.6195,33.5381],[35.5996,33.556],[35.5964,33.6062],[35.4767,33.5717],[35.3771,33.5895],[35.3944,33.65],[35.4099,33.6613],[35.4216,33.7023],[35.4385,33.7114],[35.4773,33.8039],[35.483,33.8652],[35.5363,33.872],[35.5481,33.9062]]]}},{"type":"Feature","id":"Nabatieh","properties":{"id":"Nabatieh","iso_code":"LB-NA","name":"Nabatieh","name_full":"Nabatieh","name_ja":"ナバティーエ県","center_lonlat":[35.5116,33.2998]},"geometry":{"type":"Polygon","coordinates":[[[35.2888,33.0992],[35.3046,33.1668],[35.3678,33.204],[35.3549,33.2166],[35.4156,33.2667],[35.4302,33.3139],[35.3538,33.3177],[35.3382,33.3317],[35.3402,33.3539],[35.2966,33.3681],[35.3147,33.3739],[35.3205,33.3944],[35.3431,33.4012],[35.3676,33.3792],[35.3885,33.4249],[35.3785,33.4353],[35.3914,33.4534],[35.4168,33.4601],[35.4103,33.4719],[35.5236,33.5013],[35.5244,33.3857],[35.543,33.3486],[35.5592,33.382],[35.5914,33.3861],[35.6349,33.4333],[35.6617,33.4304],[35.7161,33.4807],[35.756,33.4651],[35.7822,33.4275],[35.8451,33.4187],[35.8057,33.3913],[35.7694,33.3426],[35.6985,33.3227],[35.6521,33.2767],[35.6201,33.2695],[35.6039,33.2401],[35.5495,33.281],[35.52,33.2222],[35.5123,33.1474],[35.4801,33.0874],[35.3452,33.0556],[35.2888,33.0992]]]}},{"type":"Feature","id":"North","properties":{"id":"North","iso_code":"LB-AS","name":"North","name_full":"North","name_ja":"北レバノン県","center_lonlat":[36.0204,34.4051]},"geometry":{"type":"Polygon","coordinates":[[[36.3299,34.4986],[36.2959,34.4922],[36.249,34.4616],[36.1975,34.3612],[36.1553,34.3286],[36.1385,34.2886],[36.0707,34.2231],[36.0434,34.1591],[36.0113,34.1522],[35.9362,34.1764],[35.9218,34.1655],[35.8956,34.1689],[35.8442,34.1931],[35.7384,34.1872],[35.645,34.2177],[35.6652,34.3113],[35.6887,34.3283],[35.7058,34.3166],[35.7507,34.3898],[35.8062,34.415],[35.8236,34.4345],[35.8054,34.4649],[35.9033,34.478],[35.9832,34.5386],[35.9896,34.5997],[35.9699,34.6498],[36.0379,34.6284],[36.2616,34.6272],[36.2807,34.6391],[36.2882,34.6756],[36.3089,34.6875],[36.3675,34.6292],[36.4402,34.6294],[36.4363,34.5978],[36.3889,34.5962],[36.3835,34.5538],[36.3199,34.5141],[36.3299,34.4986]]]}},{"type":"Feature","id":"South","properties":{"id":"South","iso_code":"LB-JA","name":"South","name_full":"South","name_ja":"南レバノン県","center_lonlat":[35.2826,33.3586]},"geometry":{"type":"Polygon","coordinates":[[[35.2888,33.0992],[35.1853,33.084],[35.1052,33.089],[35.0996,33.1013],[35.1476,33.1403],[35.1678,33.1702],[35.1618,33.1769],[35.1747,33.1702],[35.2092,33.2546],[35.1883,33.28],[35.2248,33.312],[35.271,33.4575],[35.3491,33.5139],[35.3771,33.5895],[35.4767,33.5717],[35.5964,33.6062],[35.5996,33.556],[35.6195,33.5381],[35.6136,33.5097],[35.6349,33.4333],[35.5914,33.3861],[35.5592,33.382],[35.543,33.3486],[35.5244,33.3857],[35.5236,33.5013],[35.4103,33.4719],[35.4168,33.4601],[35.3914,33.4534],[35.3785,33.4353],[35.3885,33.4249],[35.3676,33.3792],[35.3431,33.4012],[35.3205,33.3944],[35.3147,33.3739],[35.2966,33.3681],[35.3402,33.3539],[35.3382,33.3317],[35.3538,33.3177],[35.4302,33.3139],[35.4156,33.2667],[35.3549,33.2166],[35.3678,33.204],[35.3046,33.1668],[35.2888,33.0992]]]}}]}
