{"type":"FeatureCollection","features":[{"type":"Feature","id":"Berea","properties":{"id":"Berea","iso_code":"LS-D","name":"Berea","name_full":"Berea","name_ja":"ベレア県","center_lonlat":[27.9227,-29.1793]},"geometry":{"type":"Polygon","coordinates":[[[27.5107,-29.2708],[27.5289,-29.261],[27.5215,-29.2165],[27.613,-29.1338],[27.6345,-29.091],[27.7226,-29.0843],[27.8251,-29.0314],[27.8933,-29.0521],[28.0002,-28.9374],[28.082,-28.9886],[28.1116,-29.0305],[28.1723,-29.0494],[28.2311,-29.1111],[28.2645,-29.1192],[28.2486,-29.1533],[28.2857,-29.2499],[28.2034,-29.3322],[28.1644,-29.2891],[28.0418,-29.3734],[28.0249,-29.3584],[28.0253,-29.3076],[28.0103,-29.2648],[27.9507,-29.3177],[27.8913,-29.3356],[27.7824,-29.2936],[27.7463,-29.3007],[27.7282,-29.3276],[27.7133,-29.33],[27.6191,-29.2955],[27.5906,-29.3201],[27.5447,-29.3269],[27.5282,-29.3112],[27.5332,-29.2896],[27.5107,-29.2708]]]}},{"type":"Feature","id":"Butha-Buthe","properties":{"id":"Butha-Buthe","iso_code":"LS-B","name":"Butha-Buthe","name_full":"Butha-Buthe","name_ja":"ブータ・ブーテ県","center_lonlat":[28.5644,-28.8]},"geometry":{"type":"Polygon","coordinates":[[[28.8279,-28.7595],[28.818,-28.8209],[28.83,-28.8669],[28.7913,-28.8892],[28.7412,-28.9155],[28.6766,-29.0346],[28.6212,-29.0514],[28.5396,-29.0344],[28.5024,-29.0715],[28.4826,-29.0363],[28.505,-28.9501],[28.4889,-28.8812],[28.4318,-28.8687],[28.3334,-28.8082],[28.2662,-28.8014],[28.2463,-28.7173],[28.2181,-28.7007],[28.2971,-28.7069],[28.3364,-28.6847],[28.3829,-28.6265],[28.5625,-28.6065],[28.6343,-28.5708],[28.6666,-28.5972],[28.6995,-28.6885],[28.7439,-28.6895],[28.7877,-28.7487],[28.8279,-28.7595]]]}},{"type":"Feature","id":"Leribe","properties":{"id":"Leribe","iso_code":"LS-C","name":"Leribe","name_full":"Leribe","name_ja":"レリベ県","center_lonlat":[28.2726,-29.0031]},"geometry":{"type":"Polygon","coordinates":[[[28.2181,-28.7007],[28.2463,-28.7173],[28.2662,-28.8014],[28.3334,-28.8082],[28.4318,-28.8687],[28.4889,-28.8812],[28.505,-28.9501],[28.4826,-29.0363],[28.5024,-29.0715],[28.5396,-29.0344],[28.6212,-29.0514],[28.6766,-29.0346],[28.7412,-28.9155],[28.7913,-28.8892],[28.7525,-29.0712],[28.6548,-29.1529],[28.5927,-29.182],[28.5697,-29.2104],[28.5621,-29.2589],[28.6174,-29.3378],[28.5634,-29.3453],[28.4175,-29.2959],[28.3829,-29.2437],[28.3359,-29.1141],[28.2964,-29.1058],[28.2645,-29.1192],[28.2311,-29.1111],[28.1723,-29.0494],[28.1116,-29.0305],[28.082,-28.9886],[28.0002,-28.9374],[27.8933,-29.0521],[27.8251,-29.0314],[27.7226,-29.0843],[27.6345,-29.091],[27.6375,-29.0657],[27.665,-29.0657],[27.6392,-29.0353],[27.7117,-28.991],[27.7201,-28.9459],[27.7548,-28.9255],[27.7474,-28.9086],[27.8613,-28.9154],[27.888,-28.9049],[27.9262,-28.8534],[27.9775,-28.8807],[28.0136,-28.8784],[28.0187,-28.8568],[28.155,-28.7023],[28.2181,-28.7007]]]}},{"type":"Feature","id":"Mafeteng","properties":{"id":"Mafeteng","iso_code":"LS-E","name":"Mafeteng","name_full":"Mafeteng","name_ja":"マフェテング県","center_lonlat":[27.4371,-29.7854]},"geometry":{"type":"MultiPolygon","coordinates":[[[[27.3003,-29.5201],[27.3582,-29.5307],[27.385,-29.5936],[27.4365,-29.6674],[27.4953,-29.6655],[27.5285,-29.637],[27.5509,-29.6887],[27.6269,-29.702],[27.6754,-29.7714],[27.6551,-29.8211],[27.7893,-29.8158],[27.9397,-29.8439],[27.984,-29.8676],[28.0449,-29.8771],[28.0781,-29.9048],[28.0572,-29.9155],[28.0556,-29.9384],[27.9888,-29.9139],[27.9383,-29.9139],[27.9042,-29.8879],[27.883,-29.94],[27.8537,-29.9058],[27.8357,-29.9042],[27.8374,-29.9384],[27.8211,-29.9547],[27.7999,-29.9595],[27.7609,-29.9351],[27.7332,-29.9612],[27.6807,-29.9753],[27.6253,-29.9325],[27.5785,-29.9321],[27.5594,-29.9202],[27.5223,-29.9766],[27.4689,-30.0305],[27.4427,-30.0408],[27.3884,-30.0054],[27.3723,-29.9747],[27.3673,-29.9322],[27.3858,-29.8516],[27.3311,-29.8709],[27.285,-29.8681],[27.1714,-29.9215],[27.0801,-29.7351],[27.051,-29.6968],[27.0022,-29.6665],[27.0149,-29.6256],[27.033,-29.6162],[27.0424,-29.6281],[27.0622,-29.6002],[27.0859,-29.6144],[27.1281,-29.5786],[27.2418,-29.549],[27.3003,-29.5201]]],[[[28.1841,-29.7095],[28.2054,-29.712],[28.2298,-29.7348],[28.2046,-29.7615],[28.2363,-29.8537],[28.264,-29.8651],[28.2819,-29.8944],[28.3096,-29.94],[28.2901,-29.9612],[28.2201,-29.9107],[28.1289,-29.9042],[28.1256,-29.8667],[28.1647,-29.8586],[28.1516,-29.8179],[28.1614,-29.7983],[28.1012,-29.7983],[28.0914,-29.7511],[28.0572,-29.7185],[28.0898,-29.7022],[28.1841,-29.7095]]]]}},{"type":"Feature","id":"Maseru","properties":{"id":"Maseru","iso_code":"LS-A","name":"Maseru","name_full":"Maseru","name_ja":"マセル県","center_lonlat":[27.7973,-29.5566]},"geometry":{"type":"Polygon","coordinates":[[[27.5107,-29.2708],[27.5332,-29.2896],[27.5282,-29.3112],[27.5447,-29.3269],[27.5906,-29.3201],[27.6191,-29.2955],[27.7133,-29.33],[27.7282,-29.3276],[27.7463,-29.3007],[27.7824,-29.2936],[27.8913,-29.3356],[27.9507,-29.3177],[28.0103,-29.2648],[28.0253,-29.3076],[28.0249,-29.3584],[28.0418,-29.3734],[28.1644,-29.2891],[28.2034,-29.3322],[28.1134,-29.3916],[28.1,-29.4522],[28.1431,-29.5102],[28.1841,-29.7095],[28.0898,-29.7022],[28.0572,-29.7185],[28.0914,-29.7511],[28.1012,-29.7983],[28.1614,-29.7983],[28.1516,-29.8179],[28.1647,-29.8586],[28.1256,-29.8667],[28.1289,-29.9042],[28.0865,-29.927],[28.0781,-29.9048],[28.0449,-29.8771],[27.984,-29.8676],[27.9397,-29.8439],[27.7893,-29.8158],[27.6551,-29.8211],[27.6754,-29.7714],[27.6269,-29.702],[27.5509,-29.6887],[27.5285,-29.637],[27.4953,-29.6655],[27.4365,-29.6674],[27.385,-29.5936],[27.3582,-29.5307],[27.3003,-29.5201],[27.316,-29.4872],[27.3502,-29.4803],[27.3655,-29.4467],[27.4137,-29.4025],[27.4086,-29.3571],[27.4458,-29.332],[27.4533,-29.2916],[27.5107,-29.2708]]]}},{"type":"Feature","id":"Mohale's Hoek","properties":{"id":"Mohale's Hoek","iso_code":"LS-F","name":"Mohale's Hoek","name_full":"Mohale's Hoek","name_ja":"モハレス・フーク県","center_lonlat":[27.7595,-30.0716]},"geometry":{"type":"Polygon","coordinates":[[[27.1714,-29.9215],[27.285,-29.8681],[27.3311,-29.8709],[27.3858,-29.8516],[27.3673,-29.9322],[27.3723,-29.9747],[27.3884,-30.0054],[27.4427,-30.0408],[27.4689,-30.0305],[27.5223,-29.9766],[27.5594,-29.9202],[27.5785,-29.9321],[27.6253,-29.9325],[27.6807,-29.9753],[27.7332,-29.9612],[27.7609,-29.9351],[27.7999,-29.9595],[27.8211,-29.9547],[27.8374,-29.9384],[27.8357,-29.9042],[27.8537,-29.9058],[27.883,-29.94],[27.9042,-29.8879],[27.9383,-29.9139],[27.9888,-29.9139],[28.0556,-29.9384],[28.0572,-29.9155],[28.0781,-29.9048],[28.0865,-29.927],[28.1289,-29.9042],[28.2201,-29.9107],[28.2901,-29.9612],[28.3096,-29.94],[28.2819,-29.8944],[28.3357,-29.8797],[28.3406,-29.8488],[28.4024,-29.8439],[28.4529,-29.8162],[28.5018,-29.8064],[28.5399,-29.7762],[28.5547,-29.7999],[28.5523,-29.9073],[28.5407,-29.9253],[28.4842,-29.949],[28.368,-30.0301],[28.3368,-29.9915],[28.3006,-29.9848],[28.2647,-30.0013],[28.2063,-30.0264],[28.1402,-30.0263],[28.1242,-30.053],[28.0751,-30.0704],[28.0053,-30.0611],[27.9337,-30.0701],[27.8933,-30.1312],[27.9026,-30.1827],[27.8627,-30.2344],[27.7978,-30.2736],[27.7461,-30.268],[27.7211,-30.253],[27.7353,-30.3348],[27.7237,-30.3542],[27.6899,-30.3677],[27.6219,-30.3439],[27.5863,-30.3523],[27.5659,-30.3906],[27.5334,-30.3934],[27.4775,-30.3563],[27.4521,-30.3101],[27.4078,-30.3186],[27.3662,-30.311],[27.3437,-30.2129],[27.3814,-30.1427],[27.3128,-30.1316],[27.2802,-30.0535],[27.1988,-29.9785],[27.1714,-29.9215]]]}},{"type":"Feature","id":"Mokhotlong","properties":{"id":"Mokhotlong","iso_code":"LS-J","name":"Mokhotlong","name_full":"Mokhotlong","name_ja":"モコトロング県","center_lonlat":[29.0205,-29.2253]},"geometry":{"type":"Polygon","coordinates":[[[29.2752,-29.5283],[29.2539,-29.5264],[29.1583,-29.576],[29.0979,-29.5181],[29.0206,-29.4912],[28.9091,-29.5034],[28.7826,-29.4893],[28.7764,-29.4726],[28.8029,-29.4353],[28.8041,-29.3527],[28.7587,-29.3402],[28.7303,-29.353],[28.6741,-29.3109],[28.7153,-29.2307],[28.7091,-29.1902],[28.602,-29.2509],[28.5621,-29.2589],[28.5697,-29.2104],[28.5927,-29.182],[28.6548,-29.1529],[28.7525,-29.0712],[28.7913,-28.8892],[28.83,-28.8669],[28.818,-28.8209],[28.8279,-28.7595],[28.8728,-28.7836],[28.9259,-28.8595],[28.9808,-28.909],[29.0405,-28.923],[29.0558,-28.9654],[29.126,-28.9924],[29.2084,-29.0689],[29.3118,-29.0898],[29.3168,-29.1474],[29.3575,-29.1833],[29.376,-29.2355],[29.414,-29.2903],[29.415,-29.3189],[29.4359,-29.3424],[29.4137,-29.3801],[29.4079,-29.4215],[29.3038,-29.4668],[29.2827,-29.4856],[29.2752,-29.5283]]]}},{"type":"Feature","id":"Qacha's Nek","properties":{"id":"Qacha's Nek","iso_code":"LS-H","name":"Qacha's Nek","name_full":"Qacha's Nek","name_ja":"クァクハスネック県","center_lonlat":[28.6962,-29.9714]},"geometry":{"type":"Polygon","coordinates":[[[28.3556,-30.1732],[28.3272,-30.1469],[28.2269,-30.139],[28.2048,-30.1218],[28.2139,-30.0749],[28.2761,-30.0489],[28.2647,-30.0013],[28.3006,-29.9848],[28.3368,-29.9915],[28.368,-30.0301],[28.4842,-29.949],[28.5407,-29.9253],[28.5523,-29.9073],[28.5547,-29.7999],[28.5399,-29.7762],[28.6001,-29.7747],[28.6658,-29.806],[28.6811,-29.8261],[28.6828,-29.8684],[28.6974,-29.8794],[28.7405,-29.8505],[28.7791,-29.8499],[28.7869,-29.8375],[28.7778,-29.8125],[28.7887,-29.8104],[28.8374,-29.8178],[28.906,-29.8618],[28.9586,-29.8567],[28.9961,-29.8237],[29.0137,-29.7435],[29.1136,-29.7529],[29.1058,-29.8256],[29.133,-29.852],[29.1442,-29.9197],[28.7956,-30.0894],[28.6397,-30.1315],[28.5406,-30.1133],[28.4562,-30.147],[28.3839,-30.1442],[28.3556,-30.1732]]]}},{"type":"Feature","id":"Quthing","properties":{"id":"Quthing","iso_code":"LS-G","name":"Quthing","name_full":"Quthing","name_ja":"クティング県","center_lonlat":[27.9666,-30.3517]},"geometry":{"type":"Polygon","coordinates":[[[28.3556,-30.1732],[28.2944,-30.2425],[28.237,-30.2563],[28.2006,-30.2825],[28.1985,-30.3011],[28.2358,-30.3294],[28.2385,-30.3523],[28.2182,-30.3874],[28.1254,-30.4573],[28.1412,-30.5008],[28.1208,-30.5534],[28.0816,-30.5869],[28.0788,-30.6588],[27.9366,-30.6408],[27.8582,-30.6037],[27.8204,-30.6146],[27.7436,-30.6003],[27.5986,-30.4903],[27.5868,-30.455],[27.5334,-30.3934],[27.5659,-30.3906],[27.5863,-30.3523],[27.6219,-30.3439],[27.6899,-30.3677],[27.7237,-30.3542],[27.7353,-30.3348],[27.7211,-30.253],[27.7461,-30.268],[27.7978,-30.2736],[27.8627,-30.2344],[27.9026,-30.1827],[27.8933,-30.1312],[27.9337,-30.0701],[28.0053,-30.0611],[28.0751,-30.0704],[28.1242,-30.053],[28.1402,-30.0263],[28.2063,-30.0264],[28.2647,-30.0013],[28.2761,-30.0489],[28.2139,-30.0749],[28.2048,-30.1218],[28.2269,-30.139],[28.3272,-30.1469],[28.3556,-30.1732]]]}},{"type":"Feature","id":"Thaba-Tseka","properties":{"id":"Thaba-Tseka","iso_code":"LS-K","name":"Thaba-Tseka","name_full":"Thaba-Tseka","name_ja":"ターバ・ツェーカ県","center_lonlat":[28.5956,-29.567]},"geometry":{"type":"Polygon","coordinates":[[[29.2752,-29.5283],[29.2963,-29.5716],[29.2799,-29.5814],[29.2786,-29.6136],[29.1613,-29.6669],[29.1136,-29.7529],[29.0137,-29.7435],[28.9961,-29.8237],[28.9586,-29.8567],[28.906,-29.8618],[28.8374,-29.8178],[28.7887,-29.8104],[28.7778,-29.8125],[28.7869,-29.8375],[28.7791,-29.8499],[28.7405,-29.8505],[28.6974,-29.8794],[28.6828,-29.8684],[28.6811,-29.8261],[28.6658,-29.806],[28.6001,-29.7747],[28.5399,-29.7762],[28.5018,-29.8064],[28.4529,-29.8162],[28.4024,-29.8439],[28.3406,-29.8488],[28.3357,-29.8797],[28.2819,-29.8944],[28.264,-29.8651],[28.2363,-29.8537],[28.2046,-29.7615],[28.2298,-29.7348],[28.2054,-29.712],[28.1841,-29.7095],[28.1431,-29.5102],[28.1,-29.4522],[28.1134,-29.3916],[28.2034,-29.3322],[28.2857,-29.2499],[28.2486,-29.1533],[28.2645,-29.1192],[28.2964,-29.1058],[28.3359,-29.1141],[28.3829,-29.2437],[28.4175,-29.2959],[28.5634,-29.3453],[28.6174,-29.3378],[28.5621,-29.2589],[28.602,-29.2509],[28.7091,-29.1902],[28.7153,-29.2307],[28.6741,-29.3109],[28.7303,-29.353],[28.7587,-29.3402],[28.8041,-29.3527],[28.8029,-29.4353],[28.7764,-29.4726],[28.7826,-29.4893],[28.9091,-29.5034],[29.0206,-29.4912],[29.0979,-29.5181],[29.1583,-29.576],[29.2539,-29.5264],[29.2752,-29.5283]]]}}]}
