{"type":"FeatureCollection","features":[{"type":"Feature","id":"Bomi","properties":{"id":"Bomi","iso_code":"LR-BM","name":"Bomi","name_full":"Bomi","name_ja":"ボミ郡","center_lonlat":[-10.8058,6.7168]},"geometry":{"type":"Polygon","coordinates":[[[-10.8066,6.4024],[-10.8573,6.4728],[-11.0771,6.5925],[-11.0818,6.6175],[-11.0694,6.6449],[-11.0305,6.6684],[-11.0125,6.7124],[-10.9737,6.7282],[-10.9621,6.795],[-10.9791,6.8369],[-10.9399,6.9359],[-10.9391,6.9931],[-10.7458,6.9693],[-10.734,6.9491],[-10.7597,6.9447],[-10.7612,6.8592],[-10.7295,6.8163],[-10.6083,6.8704],[-10.4688,6.8773],[-10.5061,6.8361],[-10.5599,6.8213],[-10.5742,6.7752],[-10.5674,6.7425],[-10.5941,6.7047],[-10.6009,6.6193],[-10.5617,6.5661],[-10.6082,6.5342],[-10.6919,6.5784],[-10.7475,6.5373],[-10.798,6.5206],[-10.8075,6.4943],[-10.7937,6.4426],[-10.8066,6.4024]]]}},{"type":"Feature","id":"Bong","properties":{"id":"Bong","iso_code":"LR-BG","name":"Bong","name_full":"Bong","name_ja":"ボン郡","center_lonlat":[-9.6676,6.9366]},"geometry":{"type":"Polygon","coordinates":[[[-9.4871,7.3732],[-9.4381,7.4216],[-9.4074,7.3781],[-9.3752,7.4193],[-9.3492,7.4216],[-9.3194,7.412],[-9.2995,7.3766],[-9.2343,7.3813],[-9.2063,7.2984],[-9.1815,7.2757],[-9.1531,7.2755],[-9.1469,7.2541],[-9.1196,7.238],[-9.1254,7.1902],[-9.1061,7.203],[-9.1603,7.0603],[-9.1689,7.0003],[-9.188,6.9798],[-9.1095,6.878],[-9.1114,6.8015],[-9.1365,6.7746],[-9.1291,6.754],[-9.1673,6.673],[-9.1654,6.6327],[-9.1844,6.6262],[-9.3069,6.6015],[-9.33,6.6157],[-9.4469,6.5084],[-9.4977,6.5025],[-9.5246,6.471],[-9.572,6.4761],[-9.6424,6.4381],[-9.6468,6.4685],[-9.5859,6.5442],[-9.5838,6.5679],[-9.6526,6.6415],[-9.7335,6.641],[-9.7454,6.652],[-9.72,6.7115],[-9.724,6.7406],[-9.7527,6.7728],[-9.795,6.7921],[-9.8249,6.7697],[-9.8272,6.7159],[-9.8506,6.6873],[-9.8611,6.6415],[-9.8886,6.6269],[-9.9288,6.6667],[-9.9623,6.6813],[-10.0136,6.6921],[-10.0811,6.6707],[-10.2044,6.7115],[-10.2804,6.7646],[-10.3569,6.762],[-10.3835,6.7788],[-10.4614,6.7831],[-10.5061,6.8361],[-10.4688,6.8773],[-10.4534,6.9553],[-10.3965,6.9834],[-10.3442,6.9826],[-10.2748,7.0671],[-10.1977,7.1339],[-10.112,7.1228],[-10.1216,7.0955],[-10.1118,7.0501],[-10.08,7.0449],[-9.9946,7.1132],[-9.9498,7.1292],[-9.9206,7.1248],[-9.8132,7.2118],[-9.7332,7.1896],[-9.6829,7.2056],[-9.6563,7.2268],[-9.6418,7.2767],[-9.5464,7.3112],[-9.5078,7.337],[-9.4837,7.3626],[-9.4871,7.3732]]]}},{"type":"Feature","id":"Gbarpolu","properties":{"id":"Gbarpolu","iso_code":"LR-X1~","name":"Gbarpolu","name_full":"Gbarpolu","name_ja":"バルポル郡","center_lonlat":[-10.2955,7.4447]},"geometry":{"type":"Polygon","coordinates":[[[-10.864,7.5437],[-10.7306,7.7055],[-10.6926,7.7376],[-10.6152,7.769],[-10.6162,8.0225],[-10.5648,7.9783],[-10.4645,8.0043],[-10.4088,7.9523],[-10.2269,7.8967],[-10.2009,7.9337],[-10.1081,7.8038],[-9.9484,7.8409],[-9.6959,7.737],[-9.6848,7.6701],[-9.8333,7.3285],[-9.8132,7.2118],[-9.9206,7.1248],[-9.9498,7.1292],[-9.9946,7.1132],[-10.08,7.0449],[-10.1118,7.0501],[-10.1216,7.0955],[-10.112,7.1228],[-10.1977,7.1339],[-10.2748,7.0671],[-10.3442,6.9826],[-10.3965,6.9834],[-10.4534,6.9553],[-10.4688,6.8773],[-10.6083,6.8704],[-10.7295,6.8163],[-10.7612,6.8592],[-10.7597,6.9447],[-10.734,6.9491],[-10.7458,6.9693],[-10.9391,6.9931],[-10.9436,7.0054],[-10.9105,7.02],[-10.8832,7.0569],[-10.7618,7.1283],[-10.7024,7.1934],[-10.5471,7.2739],[-10.5145,7.3105],[-10.5258,7.3915],[-10.5955,7.4841],[-10.798,7.5197],[-10.864,7.5437]]]}},{"type":"Feature","id":"Grand Bassa","properties":{"id":"Grand Bassa","iso_code":"LR-GB","name":"Grand Bassa","name_full":"Grand Bassa","name_ja":"グランドバッサ郡","center_lonlat":[-9.8024,6.226]},"geometry":{"type":"Polygon","coordinates":[[[-9.7331,5.5812],[-10.0399,5.8543],[-10.0555,5.9118],[-10.115,5.9433],[-10.2266,6.0436],[-10.3537,6.1024],[-10.3615,6.1292],[-10.3445,6.1227],[-10.3336,6.1361],[-10.367,6.1511],[-10.3435,6.1992],[-10.3433,6.2538],[-10.3036,6.301],[-10.3114,6.3359],[-10.2634,6.374],[-10.2648,6.414],[-10.2158,6.491],[-10.2432,6.531],[-10.1674,6.5479],[-10.1603,6.5233],[-10.1057,6.4861],[-10.0754,6.4904],[-10.0477,6.5153],[-9.9613,6.505],[-9.8986,6.5544],[-9.8416,6.5416],[-9.7454,6.652],[-9.7335,6.641],[-9.6526,6.6415],[-9.5838,6.5679],[-9.5859,6.5442],[-9.6468,6.4685],[-9.6424,6.4381],[-9.572,6.4761],[-9.5246,6.471],[-9.4977,6.5025],[-9.4469,6.5084],[-9.33,6.6157],[-9.3069,6.6015],[-9.1844,6.6262],[-9.0911,6.6067],[-9.0986,6.5797],[-9.1323,6.5524],[-9.1509,6.4912],[-9.1274,6.4814],[-9.1441,6.3551],[-9.355,6.3541],[-9.4563,6.3152],[-9.4608,6.1591],[-9.5249,6.0821],[-9.5505,6.0975],[-9.5941,6.0976],[-9.6135,6.0543],[-9.6519,6.0323],[-9.6682,5.9233],[-9.6574,5.8878],[-9.6977,5.8091],[-9.6845,5.7692],[-9.6936,5.7291],[-9.6741,5.6617],[-9.7331,5.5812]]]}},{"type":"Feature","id":"Grand Cape Mount","properties":{"id":"Grand Cape Mount","iso_code":"LR-CM","name":"Grand Cape Mount","name_full":"Grand Cape Mount","name_ja":"グランドケープマウント郡","center_lonlat":[-11.0271,7.1079]},"geometry":{"type":"Polygon","coordinates":[[[-10.864,7.5437],[-10.798,7.5197],[-10.5955,7.4841],[-10.5258,7.3915],[-10.5145,7.3105],[-10.5471,7.2739],[-10.7024,7.1934],[-10.7618,7.1283],[-10.8832,7.0569],[-10.9105,7.02],[-10.9436,7.0054],[-10.9391,6.9931],[-10.9399,6.9359],[-10.9791,6.8369],[-10.9621,6.795],[-10.9737,6.7282],[-11.0125,6.7124],[-11.0305,6.6684],[-11.0694,6.6449],[-11.0818,6.6175],[-11.0771,6.5925],[-11.3532,6.7012],[-11.3749,6.7269],[-11.3683,6.8113],[-11.3819,6.8368],[-11.4411,6.8733],[-11.4762,6.9194],[-11.4367,6.9385],[-11.4347,6.9808],[-11.3977,7.0128],[-11.3897,7.0735],[-11.3551,7.0841],[-11.3732,7.1388],[-11.3172,7.2136],[-11.2179,7.2541],[-11.1263,7.368],[-10.9779,7.4849],[-10.8857,7.5222],[-10.864,7.5437]]]}},{"type":"Feature","id":"Grand Gedeh","properties":{"id":"Grand Gedeh","iso_code":"LR-GG","name":"Grand Gedeh","name_full":"Grand Gedeh","name_ja":"グランドゲデ郡","center_lonlat":[-8.1913,5.9074]},"geometry":{"type":"Polygon","coordinates":[[[-8.6187,6.4928],[-8.5565,6.487],[-8.5156,6.4376],[-8.4972,6.4314],[-8.4612,6.4829],[-8.4051,6.4363],[-8.419,6.4076],[-8.406,6.3722],[-8.4237,6.352],[-8.4118,6.34],[-8.3529,6.3611],[-8.3224,6.3365],[-8.3027,6.3406],[-8.2951,6.3134],[-8.1706,6.274],[-8.033,6.3018],[-7.9144,6.2717],[-7.8466,6.1975],[-7.8618,6.0815],[-7.8509,6.0676],[-7.8284,6.0807],[-7.8097,6.0712],[-7.7865,6.0251],[-7.8,6.0102],[-7.8007,5.9817],[-7.7866,5.9582],[-7.7471,5.9376],[-7.7172,5.9008],[-7.6805,5.9409],[-7.6483,5.9113],[-7.5842,5.8837],[-7.5872,5.8668],[-7.5663,5.8437],[-7.5278,5.8588],[-7.5311,5.842],[-7.5156,5.8392],[-7.4944,5.8062],[-7.4786,5.8599],[-7.4465,5.8459],[-7.4495,5.7324],[-7.431,5.654],[-7.3841,5.569],[-7.4051,5.5724],[-7.4119,5.5604],[-7.3936,5.524],[-7.42,5.5231],[-7.4099,5.5134],[-8.0899,5.4853],[-8.2857,5.4582],[-8.3958,5.4567],[-8.4308,5.47],[-8.4344,5.4956],[-8.4772,5.5136],[-8.4797,5.5399],[-8.4421,5.6079],[-8.3652,5.6198],[-8.3517,5.6372],[-8.3615,5.6849],[-8.41,5.7546],[-8.46,5.785],[-8.5107,5.7876],[-8.585,5.705],[-8.9028,5.8752],[-8.9086,5.9092],[-8.9237,5.9229],[-8.9383,5.9093],[-8.9437,5.9198],[-8.9197,5.9664],[-8.9399,5.9974],[-8.9272,6.0144],[-8.8536,6.0353],[-8.8403,6.0804],[-8.8538,6.1213],[-8.8265,6.1663],[-8.7578,6.206],[-8.7193,6.2563],[-8.6593,6.3763],[-8.6187,6.4928]]]}},{"type":"Feature","id":"Grand Kru","properties":{"id":"Grand Kru","iso_code":"LR-GK","name":"Grand Kru","name_full":"Grand Kru","name_ja":"グランドクル郡","center_lonlat":[-8.234,4.8248]},"geometry":{"type":"Polygon","coordinates":[[[-7.844,4.4556],[-7.9599,4.512],[-8.1003,4.5533],[-8.2573,4.58],[-8.3002,4.6273],[-8.4385,4.6762],[-8.6075,4.7869],[-8.7036,4.8219],[-8.6685,4.8566],[-8.6505,4.9181],[-8.6041,4.9308],[-8.5523,5.019],[-8.4527,5.0887],[-8.3843,5.0955],[-8.3358,5.1552],[-8.3091,5.1701],[-8.2502,5.1599],[-8.2085,5.1345],[-8.025,5.1128],[-8.0145,5.06],[-8.0652,4.9734],[-8.1004,4.8865],[-8.0978,4.8628],[-8.0774,4.8393],[-7.9412,4.7872],[-7.8968,4.7506],[-7.809,4.599],[-7.8196,4.5016],[-7.844,4.4556]]]}},{"type":"Feature","id":"Lofa","properties":{"id":"Lofa","iso_code":"LR-LO","name":"Lofa","name_full":"Lofa","name_ja":"ロファ郡","center_lonlat":[-9.8513,7.9861]},"geometry":{"type":"Polygon","coordinates":[[[-10.6162,8.0225],[-10.5672,8.0632],[-10.5292,8.1243],[-10.4857,8.1389],[-10.3846,8.1421],[-10.3209,8.1831],[-10.3313,8.2723],[-10.2829,8.4329],[-10.2822,8.4846],[-10.2403,8.4937],[-10.2324,8.4771],[-10.1649,8.5246],[-10.0911,8.5101],[-10.0693,8.4869],[-10.0794,8.44],[-10.0617,8.4222],[-9.9442,8.4883],[-9.8728,8.5004],[-9.8586,8.4871],[-9.8068,8.5063],[-9.7906,8.5654],[-9.7736,8.563],[-9.7463,8.4681],[-9.7221,8.4356],[-9.7033,8.4873],[-9.6505,8.4648],[-9.6451,8.4434],[-9.6759,8.4096],[-9.6773,8.3915],[-9.6195,8.3927],[-9.6002,8.4109],[-9.4991,8.3435],[-9.5394,8.3146],[-9.5092,8.2656],[-9.5254,8.2408],[-9.5301,8.1855],[-9.4814,8.1647],[-9.4598,8.0688],[-9.4742,8.0288],[-9.4515,8.0518],[-9.4241,8.0262],[-9.4484,7.9078],[-9.4157,7.8244],[-9.3555,7.7419],[-9.3762,7.6806],[-9.3747,7.6469],[-9.3535,7.6224],[-9.4087,7.5274],[-9.4134,7.4923],[-9.4662,7.4334],[-9.4871,7.3732],[-9.4837,7.3626],[-9.5078,7.337],[-9.5464,7.3112],[-9.6418,7.2767],[-9.6563,7.2268],[-9.6829,7.2056],[-9.7332,7.1896],[-9.8132,7.2118],[-9.8333,7.3285],[-9.6848,7.6701],[-9.6959,7.737],[-9.9484,7.8409],[-10.1081,7.8038],[-10.2009,7.9337],[-10.2269,7.8967],[-10.4088,7.9523],[-10.4645,8.0043],[-10.5648,7.9783],[-10.6162,8.0225]]]}},{"type":"Feature","id":"Margibi","properties":{"id":"Margibi","iso_code":"LR-MG","name":"Margibi","name_full":"Margibi","name_ja":"マージビ郡","center_lonlat":[-10.3059,6.5086]},"geometry":{"type":"Polygon","coordinates":[[[-10.367,6.1511],[-10.4447,6.2038],[-10.4639,6.1975],[-10.3894,6.1522],[-10.3819,6.1292],[-10.4567,6.1775],[-10.6368,6.2219],[-10.6096,6.2987],[-10.4784,6.3688],[-10.4416,6.4237],[-10.3836,6.4522],[-10.3844,6.5585],[-10.4115,6.6159],[-10.3556,6.7279],[-10.3569,6.762],[-10.2804,6.7646],[-10.2044,6.7115],[-10.0811,6.6707],[-10.0136,6.6921],[-9.9623,6.6813],[-9.9288,6.6667],[-9.8886,6.6269],[-9.8611,6.6415],[-9.8506,6.6873],[-9.8272,6.7159],[-9.8249,6.7697],[-9.795,6.7921],[-9.7527,6.7728],[-9.724,6.7406],[-9.72,6.7115],[-9.7454,6.652],[-9.8416,6.5416],[-9.8986,6.5544],[-9.9613,6.505],[-10.0477,6.5153],[-10.0754,6.4904],[-10.1057,6.4861],[-10.1603,6.5233],[-10.1674,6.5479],[-10.2432,6.531],[-10.2158,6.491],[-10.2648,6.414],[-10.2634,6.374],[-10.3114,6.3359],[-10.3036,6.301],[-10.3433,6.2538],[-10.3435,6.1992],[-10.367,6.1511]]]}},{"type":"Feature","id":"Maryland","properties":{"id":"Maryland","iso_code":"LR-MY","name":"Maryland","name_full":"Maryland","name_ja":"メリーランド郡","center_lonlat":[-7.7904,4.7267]},"geometry":{"type":"Polygon","coordinates":[[[-7.606,4.8174],[-7.5796,4.7843],[-7.5725,4.7234],[-7.5769,4.5093],[-7.5643,4.4258],[-7.5792,4.3871],[-7.5407,4.3528],[-7.5933,4.3472],[-7.6444,4.3615],[-7.7127,4.3615],[-7.7332,4.382],[-7.801,4.4063],[-7.844,4.4556],[-7.8196,4.5016],[-7.809,4.599],[-7.8968,4.7506],[-7.9412,4.7872],[-8.0774,4.8393],[-8.0978,4.8628],[-8.1004,4.8865],[-8.0652,4.9734],[-8.0145,5.06],[-8.025,5.1128],[-7.847,5.075],[-7.8339,4.8611],[-7.7852,4.8592],[-7.725,4.8812],[-7.6644,4.8584],[-7.6434,4.8316],[-7.606,4.8174]]]}},{"type":"Feature","id":"Montserrado","properties":{"id":"Montserrado","iso_code":"LR-MO","name":"Montserrado","name_full":"Montserrado","name_ja":"モンセラード郡","center_lonlat":[-10.5717,6.5164]},"geometry":{"type":"Polygon","coordinates":[[[-10.6368,6.2219],[-10.8079,6.3109],[-10.8004,6.3278],[-10.7724,6.3074],[-10.7923,6.359],[-10.7594,6.4042],[-10.8004,6.3899],[-10.8066,6.4024],[-10.7937,6.4426],[-10.8075,6.4943],[-10.798,6.5206],[-10.7475,6.5373],[-10.6919,6.5784],[-10.6082,6.5342],[-10.5617,6.5661],[-10.6009,6.6193],[-10.5941,6.7047],[-10.5674,6.7425],[-10.5742,6.7752],[-10.5599,6.8213],[-10.5061,6.8361],[-10.4614,6.7831],[-10.3835,6.7788],[-10.3569,6.762],[-10.3556,6.7279],[-10.4115,6.6159],[-10.3844,6.5585],[-10.3836,6.4522],[-10.4416,6.4237],[-10.4784,6.3688],[-10.6096,6.2987],[-10.6368,6.2219]]]}},{"type":"Feature","id":"Nimba","properties":{"id":"Nimba","iso_code":"LR-NI","name":"Nimba","name_full":"Nimba","name_ja":"ニンバ郡","center_lonlat":[-8.7665,6.8341]},"geometry":{"type":"Polygon","coordinates":[[[-8.6187,6.4928],[-8.6593,6.3763],[-8.7193,6.2563],[-8.7578,6.206],[-8.8265,6.1663],[-8.8538,6.1213],[-8.8403,6.0804],[-8.8536,6.0353],[-8.9272,6.0144],[-8.9399,5.9974],[-8.9197,5.9664],[-8.9437,5.9198],[-8.9383,5.9093],[-8.9237,5.9229],[-8.9086,5.9092],[-8.9028,5.8752],[-8.9439,5.8355],[-9.0864,5.8319],[-9.0715,5.8821],[-9.0912,5.9198],[-9.0761,5.9409],[-9.1017,5.9683],[-9.0957,5.9881],[-9.0681,5.9976],[-9.0919,6.0213],[-9.0705,6.0518],[-9.0932,6.082],[-9.0901,6.1178],[-9.1205,6.1437],[-9.1021,6.1804],[-9.0915,6.1719],[-9.0799,6.2003],[-9.0617,6.2092],[-9.0614,6.275],[-9.1149,6.2988],[-9.1441,6.3551],[-9.1274,6.4814],[-9.1509,6.4912],[-9.1323,6.5524],[-9.0986,6.5797],[-9.0911,6.6067],[-9.1844,6.6262],[-9.1654,6.6327],[-9.1673,6.673],[-9.1291,6.754],[-9.1365,6.7746],[-9.1114,6.8015],[-9.1095,6.878],[-9.188,6.9798],[-9.1689,7.0003],[-9.1603,7.0603],[-9.1061,7.203],[-9.0329,7.2403],[-8.981,7.2506],[-8.9777,7.2662],[-8.9626,7.263],[-8.9572,7.2865],[-8.9254,7.2486],[-8.8578,7.273],[-8.8514,7.2929],[-8.8654,7.3469],[-8.8334,7.3939],[-8.7992,7.4122],[-8.7904,7.4508],[-8.7296,7.5087],[-8.7268,7.5518],[-8.7392,7.5657],[-8.7276,7.622],[-8.6866,7.6944],[-8.5674,7.6882],[-8.5665,7.6234],[-8.5156,7.5772],[-8.4436,7.5371],[-8.4051,7.4313],[-8.3877,7.315],[-8.3026,7.1376],[-8.2866,6.9938],[-8.32,6.96],[-8.3337,6.8826],[-8.3157,6.8638],[-8.3166,6.8363],[-8.3518,6.7554],[-8.4613,6.6334],[-8.5672,6.5506],[-8.5727,6.5308],[-8.5941,6.5239],[-8.6187,6.4928]]]}},{"type":"Feature","id":"River Cess","properties":{"id":"River Cess","iso_code":"LR-RI","name":"River Cess","name_full":"River Cess","name_ja":"リバーセス郡","center_lonlat":[-9.3847,5.8757]},"geometry":{"type":"Polygon","coordinates":[[[-9.4182,5.2712],[-9.4708,5.3205],[-9.508,5.3996],[-9.5937,5.4303],[-9.5807,5.4645],[-9.597,5.4883],[-9.6968,5.5464],[-9.7331,5.5812],[-9.6741,5.6617],[-9.6936,5.7291],[-9.6845,5.7692],[-9.6977,5.8091],[-9.6574,5.8878],[-9.6682,5.9233],[-9.6519,6.0323],[-9.6135,6.0543],[-9.5941,6.0976],[-9.5505,6.0975],[-9.5249,6.0821],[-9.4608,6.1591],[-9.4563,6.3152],[-9.355,6.3541],[-9.1441,6.3551],[-9.1149,6.2988],[-9.0614,6.275],[-9.0617,6.2092],[-9.0799,6.2003],[-9.0915,6.1719],[-9.1021,6.1804],[-9.1205,6.1437],[-9.0901,6.1178],[-9.0932,6.082],[-9.0705,6.0518],[-9.0919,6.0213],[-9.0681,5.9976],[-9.0957,5.9881],[-9.1017,5.9683],[-9.0761,5.9409],[-9.0912,5.9198],[-9.0715,5.8821],[-9.0864,5.8319],[-9.124,5.7962],[-9.1535,5.7129],[-9.2646,5.6611],[-9.3574,5.583],[-9.3164,5.4228],[-9.3527,5.3606],[-9.3761,5.3537],[-9.3885,5.328],[-9.4292,5.3052],[-9.4182,5.2712]]]}},{"type":"Feature","id":"River Gee","properties":{"id":"River Gee","iso_code":"LR-X2~","name":"River Gee","name_full":"River Gee","name_ja":"リバージー郡","center_lonlat":[-7.8579,5.2575]},"geometry":{"type":"Polygon","coordinates":[[[-7.4099,5.5134],[-7.4324,5.4796],[-7.4362,5.4313],[-7.4502,5.4387],[-7.45,5.4228],[-7.4297,5.3743],[-7.3969,5.3664],[-7.3898,5.3171],[-7.4188,5.2605],[-7.4285,5.2561],[-7.4285,5.2882],[-7.4399,5.2902],[-7.4757,5.2642],[-7.4905,5.2222],[-7.4889,5.1407],[-7.5158,5.0918],[-7.5468,5.0977],[-7.5758,5.0721],[-7.5716,4.9754],[-7.5495,4.9139],[-7.575,4.9216],[-7.6055,4.8974],[-7.606,4.8174],[-7.6434,4.8316],[-7.6644,4.8584],[-7.725,4.8812],[-7.7852,4.8592],[-7.8339,4.8611],[-7.847,5.075],[-8.025,5.1128],[-8.2085,5.1345],[-8.2502,5.1599],[-8.3091,5.1701],[-8.3162,5.2419],[-8.4279,5.3789],[-8.4395,5.4205],[-8.4308,5.47],[-8.3958,5.4567],[-8.2857,5.4582],[-8.0899,5.4853],[-7.4099,5.5134]]]}},{"type":"Feature","id":"Sinoe","properties":{"id":"Sinoe","iso_code":"LR-SI","name":"Sinoe","name_full":"Sinoe","name_ja":"シノエ郡","center_lonlat":[-8.8484,5.3749]},"geometry":{"type":"Polygon","coordinates":[[[-8.7036,4.8219],[-8.7781,4.8543],[-8.8743,4.9301],[-8.9913,4.9675],[-9.032,4.9914],[-9.0258,4.9989],[-9.105,5.0316],[-9.1623,5.0809],[-9.2787,5.1457],[-9.2921,5.1816],[-9.3541,5.2112],[-9.4182,5.2712],[-9.4292,5.3052],[-9.3885,5.328],[-9.3761,5.3537],[-9.3527,5.3606],[-9.3164,5.4228],[-9.3574,5.583],[-9.2646,5.6611],[-9.1535,5.7129],[-9.124,5.7962],[-9.0864,5.8319],[-8.9439,5.8355],[-8.9028,5.8752],[-8.585,5.705],[-8.5107,5.7876],[-8.46,5.785],[-8.41,5.7546],[-8.3615,5.6849],[-8.3517,5.6372],[-8.3652,5.6198],[-8.4421,5.6079],[-8.4797,5.5399],[-8.4772,5.5136],[-8.4344,5.4956],[-8.4308,5.47],[-8.4395,5.4205],[-8.4279,5.3789],[-8.3162,5.2419],[-8.3091,5.1701],[-8.3358,5.1552],[-8.3843,5.0955],[-8.4527,5.0887],[-8.5523,5.019],[-8.6041,4.9308],[-8.6505,4.9181],[-8.6685,4.8566],[-8.7036,4.8219]]]}}]}
