{"type":"FeatureCollection","features":[{"type":"Feature","id":"Ajdabiya","properties":{"id":"Ajdabiya","iso_code":"LY-AJ","name":"Ajdabiya","name_full":"Ajdabiya","name_ja":"アジュダービヤー","center_lonlat":[21.3507,28.8225]},"geometry":{"type":"Polygon","coordinates":[[[24.9812,28.0967],[24.9812,27.0492],[23.0919,27.0147],[21.9228,27.0076],[20.7231,27.0218],[19.1698,27.0129],[19.1722,28.3474],[19.0042,28.3582],[18.4993,28.5021],[18.5136,29.1647],[18.5799,29.3692],[18.6993,29.5174],[18.7332,29.666],[18.7137,29.8334],[18.7805,30.3759],[18.968,30.2777],[19.146,30.2647],[19.3386,30.2988],[19.5305,30.3968],[19.6164,30.4214],[19.7489,30.5109],[19.9143,30.6829],[19.9822,30.7786],[20.0365,30.8191],[20.1467,31.0456],[20.1416,31.2239],[20.1534,31.2284],[20.1329,31.2607],[20.1892,31.2628],[20.2991,31.2317],[20.4175,31.0883],[20.5235,31.0254],[20.5937,31.007],[20.7381,31.0138],[20.9341,31.0461],[21.319,31.0351],[21.6552,31.0431],[21.7172,31.0656],[21.7928,31.093],[22.1125,31.1199],[22.2589,31.1452],[22.4565,30.9928],[22.5118,30.8935],[22.6192,30.829],[22.7899,30.7916],[22.9689,30.7994],[23.057,30.77],[23.0621,28.1393],[24.9812,28.0967]]]}},{"type":"Feature","id":"Al Qubbah","properties":{"id":"Al Qubbah","iso_code":"LY-QB","name":"Al Qubbah","name_full":"Al Qubbah","name_ja":"アル・クバ","center_lonlat":[22.543,31.9038]},"geometry":{"type":"Polygon","coordinates":[[[21.9862,32.9131],[22.0962,32.9231],[22.1167,32.9442],[22.1496,32.9479],[22.2068,32.8881],[22.3396,32.8821],[22.5138,32.791],[22.5789,32.7846],[22.8125,32.7245],[22.9292,32.6767],[22.9769,32.6767],[23.1061,32.6398],[23.1209,32.6152],[23.0944,32.5774],[23.1039,32.5163],[23.1489,32.4781],[23.1284,32.3955],[23.1087,32.4023],[23.1099,32.4203],[23.0944,32.4365],[23.0806,32.3341],[23.1951,32.2917],[23.2514,32.2167],[23.1184,31.848],[23.1053,31.6683],[23.0714,31.5122],[22.9854,31.4036],[22.9566,31.2333],[22.9689,30.7994],[22.7899,30.7916],[22.6192,30.829],[22.5118,30.8935],[22.4565,30.9928],[22.2589,31.1452],[22.1125,31.1199],[21.9178,31.282],[21.9674,31.4612],[21.9676,31.6229],[21.9912,31.6778],[22.0005,31.7883],[22.0044,32.0512],[21.9804,32.1439],[21.9781,32.2315],[21.9593,32.3195],[22.0332,32.5526],[22.0249,32.6264],[21.9693,32.7564],[21.9862,32.9131]]]}},{"type":"Feature","id":"Ash Shati","properties":{"id":"Ash Shati","iso_code":"LY-WS","name":"Ash Shati","name_full":"Ash Shati","name_ja":"アッシュシャチ","center_lonlat":[12.729,27.96]},"geometry":{"type":"Polygon","coordinates":[[[9.9313,27.8186],[9.9359,27.8667],[9.7899,28.2094],[9.777,28.2676],[9.8273,28.6186],[10.1379,28.7173],[10.2316,28.6853],[10.3749,28.614],[10.4407,28.6246],[10.7058,28.7301],[10.8526,28.8274],[10.9099,28.8446],[10.9383,28.7872],[10.9538,28.7146],[11.0163,28.6416],[11.1449,28.6228],[11.191,28.593],[11.3239,28.5449],[11.3876,28.5451],[11.4924,28.6033],[11.5873,28.5901],[11.7248,28.6103],[11.7888,28.5517],[11.8979,28.529],[11.9519,28.5951],[11.9833,28.6472],[12.1569,28.6097],[12.2782,28.5652],[12.4924,28.5435],[12.5016,28.4656],[12.589,28.427],[12.6885,28.4303],[12.7576,28.4937],[12.7905,28.5632],[12.8495,28.6092],[13.1045,28.7393],[13.2084,28.8426],[13.4202,29.1077],[13.517,29.2667],[13.659,29.422],[13.8247,29.5459],[13.9105,29.5676],[13.992,29.5525],[14.1818,29.4666],[14.287,29.4006],[14.4222,29.2644],[14.4198,29.2091],[14.4081,28.9881],[14.4225,28.8785],[14.527,28.7195],[14.6599,28.622],[14.8397,28.5204],[14.9587,28.4077],[15.0176,28.1448],[15.1227,28.1295],[15.2493,28.1414],[15.3803,28.207],[15.5897,28.2148],[15.7921,28.1564],[15.8789,28.0792],[15.894,27.9963],[15.7959,27.7212],[15.5641,27.7411],[15.3535,27.6638],[15.0685,27.632],[14.9213,27.5738],[14.849,27.4605],[14.5248,27.2775],[14.4836,27.2206],[14.4212,27.1727],[13.9832,27.1289],[13.6252,27.1898],[13.3494,27.2678],[13.1905,27.2922],[13.0124,27.2504],[12.7737,27.1131],[12.3099,26.7911],[11.3747,26.2175],[11.3589,26.3577],[11.2207,26.9531],[11.164,27.3259],[11.1068,27.4362],[11.0202,27.4893],[10.8918,27.5315],[10.6576,27.5696],[10.2726,27.667],[10.0786,27.7435],[9.9313,27.8186]]]}},{"type":"Feature","id":"Benghazi","properties":{"id":"Benghazi","iso_code":"LY-BA","name":"Benghazi","name_full":"Benghazi","name_ja":"ベンガジ","center_lonlat":[20.5321,31.5423]},"geometry":{"type":"Polygon","coordinates":[[[20.1416,31.2239],[20.1033,31.3087],[20.0222,31.3968],[19.9548,31.5595],[19.948,31.6451],[19.9172,31.7592],[19.948,31.926],[19.9401,31.9578],[20.0715,32.1764],[20.2617,32.3395],[20.3255,32.4098],[20.3855,32.4346],[20.576,32.5627],[20.5647,32.4371],[20.5193,32.3733],[20.4303,32.3055],[20.3572,32.219],[20.311,32.109],[20.3093,32.0353],[20.3504,31.9287],[20.4654,31.7379],[20.5063,31.6312],[20.5485,31.5797],[20.6837,31.5592],[20.766,31.5903],[20.8422,31.5937],[20.9721,31.5777],[21.1464,31.5977],[21.2154,31.541],[21.2424,31.3557],[21.2889,31.2763],[21.319,31.0351],[20.9341,31.0461],[20.7381,31.0138],[20.5937,31.007],[20.5235,31.0254],[20.4175,31.0883],[20.2991,31.2317],[20.1892,31.2628],[20.1329,31.2607],[20.1534,31.2284],[20.1416,31.2239]]]}},{"type":"Feature","id":"Butnan","properties":{"id":"Butnan","iso_code":"LY-BU","name":"Butnan","name_full":"Butnan","name_ja":"ブトナーン県","center_lonlat":[23.9825,30.1034]},"geometry":{"type":"Polygon","coordinates":[[[24.9812,28.0967],[23.0621,28.1393],[23.057,30.77],[22.9689,30.7994],[22.9566,31.2333],[22.9854,31.4036],[23.0714,31.5122],[23.1053,31.6683],[23.1184,31.848],[23.2514,32.2167],[23.2854,32.2038],[23.3122,32.1627],[23.2991,32.2242],[23.362,32.2171],[23.4053,32.1907],[23.6697,32.1833],[23.8403,32.1491],[23.9987,32.0939],[23.9707,32.0666],[24.0907,32.0058],[24.5461,31.9914],[24.6703,32.0324],[24.7337,32.0331],[24.7918,32.0078],[24.9817,31.9679],[25.0179,31.949],[25.0334,31.9163],[25.0222,31.8547],[25.0296,31.8369],[25.1169,31.738],[25.1563,31.6631],[25.0604,31.5794],[25.0237,31.4944],[24.8613,31.3804],[24.849,31.3486],[24.8595,31.146],[24.8826,31.0391],[24.9949,30.7851],[24.9077,30.4987],[24.8297,30.3876],[24.7724,30.331],[24.6887,30.1828],[24.6973,30.1226],[24.8116,29.8909],[24.8149,29.8486],[24.7982,29.7964],[24.8049,29.7548],[24.8707,29.6383],[24.8638,29.5029],[24.9743,29.2389],[24.9812,28.0967]]]}},{"type":"Feature","id":"Ghadames","properties":{"id":"Ghadames","iso_code":"LY-GD","name":"Ghadames","name_full":"Ghadames","name_ja":"グダーミス","center_lonlat":[10.8589,30.2965]},"geometry":{"type":"Polygon","coordinates":[[[11.5261,32.4179],[11.6431,32.3224],[11.7007,32.3057],[11.8627,32.3076],[11.8627,32.1886],[11.8228,31.9618],[11.8555,31.7813],[11.8373,31.6808],[11.8329,31.5621],[11.8452,31.4623],[11.8367,31.3359],[11.853,31.2474],[11.9457,31.0868],[11.963,31.0809],[11.8673,30.931],[11.6508,30.6463],[11.5986,30.5983],[11.5899,30.5424],[11.6163,30.4133],[11.6197,30.0327],[11.7299,29.3665],[11.7293,29.087],[11.8974,28.8592],[11.9519,28.5951],[11.8979,28.529],[11.7888,28.5517],[11.7248,28.6103],[11.5873,28.5901],[11.4924,28.6033],[11.3876,28.5451],[11.3239,28.5449],[11.191,28.593],[11.1449,28.6228],[11.0163,28.6416],[10.9538,28.7146],[10.9383,28.7872],[10.9099,28.8446],[10.8526,28.8274],[10.7058,28.7301],[10.4407,28.6246],[10.3749,28.614],[10.2316,28.6853],[10.1379,28.7173],[9.8273,28.6186],[9.8513,28.786],[9.8483,28.9757],[9.8261,29.1285],[9.6677,29.6083],[9.5497,29.8023],[9.4217,29.9687],[9.2865,30.1171],[9.7435,30.3313],[9.8713,30.3552],[9.9956,30.4945],[10.1012,30.6417],[10.1922,30.7313],[10.2539,30.8418],[10.2702,30.9156],[10.245,30.9857],[10.2448,31.0782],[10.2132,31.1354],[10.1062,31.4292],[10.1169,31.4944],[10.1965,31.5786],[10.264,31.6805],[10.3154,31.7158],[10.4278,31.7146],[10.4989,31.7443],[10.5424,31.8066],[10.5846,31.8403],[10.6059,31.9536],[10.6285,31.9741],[10.6836,31.957],[10.7031,31.9622],[10.7729,32.0045],[10.8056,32.0324],[10.8459,32.1118],[10.8732,32.1367],[11.444,32.3685],[11.5261,32.4179]]]}},{"type":"Feature","id":"Ghat","properties":{"id":"Ghat","iso_code":"LY-GT","name":"Ghat","name_full":"Ghat","name_ja":"ガート県","center_lonlat":[10.5479,26.0748]},"geometry":{"type":"Polygon","coordinates":[[[9.9313,27.8186],[10.0786,27.7435],[10.2726,27.667],[10.6576,27.5696],[10.8918,27.5315],[11.0202,27.4893],[11.1068,27.4362],[11.164,27.3259],[11.2207,26.9531],[11.3589,26.3577],[11.3747,26.2175],[11.3161,25.9413],[11.3037,25.7492],[11.3346,25.6377],[11.3995,25.5514],[11.3326,25.3893],[11.334,24.7968],[11.4555,24.5939],[11.481,24.463],[11.4672,24.3263],[10.6991,24.5561],[10.4105,24.4733],[10.2603,24.5766],[10.2422,24.5951],[10.2122,24.7229],[10.1934,24.7499],[10.0445,24.8296],[10.032,24.8563],[10.0214,25.268],[10.0079,25.3314],[9.9695,25.3954],[9.4012,26.1134],[9.3778,26.1689],[9.4348,26.272],[9.4776,26.3156],[9.4826,26.3526],[9.8358,26.5042],[9.8546,26.5244],[9.8963,26.6528],[9.8826,26.7018],[9.9067,26.8575],[9.8461,26.892],[9.8255,26.9206],[9.8061,27.0251],[9.7213,27.2919],[9.7563,27.423],[9.8216,27.5057],[9.7939,27.5697],[9.8634,27.6192],[9.9313,27.8186]]]}},{"type":"Feature","id":"Jabal al Akhdar","properties":{"id":"Jabal al Akhdar","iso_code":"LY-JA","name":"Jabal al Akhdar","name_full":"Jabal al Akhdar","name_ja":"ジャバル・アル・アフダル県","center_lonlat":[21.7488,32.137]},"geometry":{"type":"Polygon","coordinates":[[[21.357,32.7803],[21.4546,32.8126],[21.6232,32.9368],[21.7163,32.9504],[21.7437,32.9309],[21.8361,32.9066],[21.9862,32.9131],[21.9693,32.7564],[22.0249,32.6264],[22.0332,32.5526],[21.9593,32.3195],[21.9781,32.2315],[21.9804,32.1439],[22.0044,32.0512],[22.0005,31.7883],[21.9912,31.6778],[21.9676,31.6229],[21.9674,31.4612],[21.9178,31.282],[22.1125,31.1199],[21.7928,31.093],[21.7172,31.0656],[21.7118,31.2818],[21.6801,31.3056],[21.6544,31.3523],[21.6149,31.4733],[21.6188,31.5887],[21.6596,31.6756],[21.6618,31.9063],[21.6321,31.9992],[21.5254,32.0704],[21.462,32.1316],[21.4268,32.229],[21.3644,32.327],[21.3349,32.4288],[21.3319,32.5117],[21.4616,32.6335],[21.4581,32.6979],[21.3874,32.7806],[21.357,32.7803]]]}},{"type":"Feature","id":"Jafara","properties":{"id":"Jafara","iso_code":"LY-JI","name":"Jafara","name_full":"Jafara","name_ja":"ジファーラ県","center_lonlat":[13.0234,32.4607]},"geometry":{"type":"Polygon","coordinates":[[[13.2508,32.3174],[13.1896,32.3123],[13.1551,32.293],[12.8196,32.2602],[12.8297,32.3369],[12.8233,32.407],[12.8977,32.5602],[12.9693,32.669],[13.0763,32.7212],[13.1632,32.6492],[13.19,32.46],[13.1875,32.3898],[13.2364,32.3337],[13.2508,32.3174]]]}},{"type":"Feature","id":"Jufra","properties":{"id":"Jufra","iso_code":"LY-JU","name":"Jufra","name_full":"Jufra","name_ja":"ジュフラ県","center_lonlat":[17.104,27.9153]},"geometry":{"type":"Polygon","coordinates":[[[14.4198,29.2091],[14.5066,29.232],[14.712,29.3557],[14.7524,29.4053],[14.7573,29.5372],[14.7386,29.6077],[14.7366,29.6833],[14.8542,29.862],[14.8999,29.8392],[15.0519,29.702],[15.3851,29.6133],[15.503,29.6147],[15.5675,29.5875],[15.7406,29.394],[15.8797,29.3768],[15.9436,29.4239],[16.0395,29.4712],[16.1356,29.5],[16.3713,29.4366],[16.4186,29.4088],[16.4356,29.4184],[16.5533,29.3912],[16.7459,29.4016],[16.8529,29.4393],[16.9812,29.4305],[17.0881,29.3471],[17.3339,29.2826],[17.4303,29.3572],[17.5052,29.3945],[17.5801,29.3946],[17.6654,29.3294],[17.7287,29.1619],[17.8985,28.9848],[17.9821,28.7331],[18.0878,28.6396],[18.2255,28.5553],[18.4993,28.4846],[18.4993,28.5021],[19.0042,28.3582],[19.1722,28.3474],[19.1698,27.0129],[19.1681,26.0038],[19.0208,26.0552],[18.8856,26.0858],[18.515,26.1498],[18.4124,26.2335],[18.3206,26.3294],[18.2041,26.3765],[18.0628,26.3452],[17.9542,26.2941],[17.9081,26.2428],[17.778,26.1575],[17.6966,26.1355],[17.5666,26.1258],[17.4098,26.0523],[17.2634,26.1009],[16.9405,26.1634],[16.883,26.2341],[16.7276,26.3262],[16.6207,26.4258],[16.568,26.5281],[16.5751,26.6309],[16.52,26.7015],[16.3227,26.7928],[16.2784,26.8462],[16.2691,26.9293],[16.2797,27.0752],[16.258,27.1517],[16.1919,27.1853],[16.0232,27.3059],[15.9632,27.4666],[15.7948,27.692],[15.7959,27.7212],[15.894,27.9963],[15.8789,28.0792],[15.7921,28.1564],[15.5897,28.2148],[15.3803,28.207],[15.2493,28.1414],[15.1227,28.1295],[15.0176,28.1448],[14.9587,28.4077],[14.8397,28.5204],[14.6599,28.622],[14.527,28.7195],[14.4225,28.8785],[14.4081,28.9881],[14.4198,29.2091]]]}},{"type":"Feature","id":"Kufra","properties":{"id":"Kufra","iso_code":"LY-KF","name":"Kufra","name_full":"Kufra","name_ja":"クフラ県","center_lonlat":[22.2448,23.7588]},"geometry":{"type":"Polygon","coordinates":[[[19.1858,21.8642],[19.1681,26.0038],[19.1698,27.0129],[20.7231,27.0218],[21.9228,27.0076],[23.0919,27.0147],[24.9812,27.0492],[24.9768,19.996],[23.9813,19.9954],[23.9813,19.4961],[19.1858,21.8642]]]}},{"type":"Feature","id":"Marj","properties":{"id":"Marj","iso_code":"LY-MJ","name":"Marj","name_full":"Marj","name_ja":"マルジュ県","center_lonlat":[21.0671,31.9781]},"geometry":{"type":"Polygon","coordinates":[[[20.576,32.5627],[20.7966,32.643],[20.9341,32.7226],[21.051,32.7723],[21.357,32.7803],[21.3874,32.7806],[21.4581,32.6979],[21.4616,32.6335],[21.3319,32.5117],[21.3349,32.4288],[21.3644,32.327],[21.4268,32.229],[21.462,32.1316],[21.5254,32.0704],[21.6321,31.9992],[21.6618,31.9063],[21.6596,31.6756],[21.6188,31.5887],[21.6149,31.4733],[21.6544,31.3523],[21.6801,31.3056],[21.7118,31.2818],[21.7172,31.0656],[21.6552,31.0431],[21.319,31.0351],[21.2889,31.2763],[21.2424,31.3557],[21.2154,31.541],[21.1464,31.5977],[20.9721,31.5777],[20.8422,31.5937],[20.766,31.5903],[20.6837,31.5592],[20.5485,31.5797],[20.5063,31.6312],[20.4654,31.7379],[20.3504,31.9287],[20.3093,32.0353],[20.311,32.109],[20.3572,32.219],[20.4303,32.3055],[20.5193,32.3733],[20.5647,32.4371],[20.576,32.5627]]]}},{"type":"Feature","id":"Misrata","properties":{"id":"Misrata","iso_code":"LY-MI","name":"Misrata","name_full":"Misrata","name_ja":"ミスラタ県","center_lonlat":[15.1349,30.9336]},"geometry":{"type":"Polygon","coordinates":[[[14.7558,32.4497],[14.9111,32.4439],[15.1148,32.4128],[15.196,32.3898],[15.2332,32.3471],[15.2831,32.3173],[15.3008,32.2608],[15.3705,32.1591],[15.3552,32.0385],[15.3705,31.9294],[15.5144,31.6284],[15.6228,31.4973],[15.7615,31.3881],[16.0446,31.2755],[16.1374,31.2612],[16.1146,31.2158],[16.1156,31.0493],[16.2257,30.689],[16.303,30.3094],[16.4659,29.9207],[16.5312,29.6329],[16.5101,29.5305],[16.4186,29.4088],[16.3713,29.4366],[16.1356,29.5],[16.0395,29.4712],[15.9436,29.4239],[15.8797,29.3768],[15.7406,29.394],[15.5675,29.5875],[15.503,29.6147],[15.3851,29.6133],[15.0519,29.702],[14.8999,29.8392],[14.8542,29.862],[14.9312,29.9407],[14.9797,30.0171],[14.9824,30.1318],[14.9501,30.4092],[14.7818,30.4988],[14.5607,30.5505],[14.4517,30.619],[14.2117,30.721],[14.0659,31.032],[13.9342,31.2432],[13.7982,31.3226],[13.6324,31.5083],[13.5999,31.6145],[13.4899,31.8136],[13.4526,31.9609],[13.3977,32.0508],[13.6164,32.0481],[13.8337,32.1005],[13.8992,32.1018],[13.9916,32.074],[14.0657,32.0865],[14.1221,32.1426],[14.2851,32.0461],[14.365,31.9771],[14.4705,31.9456],[14.6667,31.9678],[14.6826,32.0562],[14.7162,32.1381],[14.755,32.1794],[14.7584,32.2385],[14.7217,32.3451],[14.7558,32.4497]]]}},{"type":"Feature","id":"Mizdah","properties":{"id":"Mizdah","iso_code":"LY-MZ","name":"Mizdah","name_full":"Mizdah","name_ja":"メスダ","center_lonlat":[12.9842,30.389]},"geometry":{"type":"Polygon","coordinates":[[[12.8196,32.2602],[13.1551,32.293],[13.1896,32.3123],[13.2508,32.3174],[13.3632,32.2016],[13.3977,32.0508],[13.4526,31.9609],[13.4899,31.8136],[13.5999,31.6145],[13.6324,31.5083],[13.7982,31.3226],[13.9342,31.2432],[14.0659,31.032],[14.2117,30.721],[14.4517,30.619],[14.5607,30.5505],[14.7818,30.4988],[14.9501,30.4092],[14.9824,30.1318],[14.9797,30.0171],[14.9312,29.9407],[14.8542,29.862],[14.7366,29.6833],[14.7386,29.6077],[14.7573,29.5372],[14.7524,29.4053],[14.712,29.3557],[14.5066,29.232],[14.4198,29.2091],[14.4222,29.2644],[14.287,29.4006],[14.1818,29.4666],[13.992,29.5525],[13.9105,29.5676],[13.8247,29.5459],[13.659,29.422],[13.517,29.2667],[13.4202,29.1077],[13.2084,28.8426],[13.1045,28.7393],[12.8495,28.6092],[12.7905,28.5632],[12.7576,28.4937],[12.6885,28.4303],[12.589,28.427],[12.5016,28.4656],[12.4924,28.5435],[12.2782,28.5652],[12.1569,28.6097],[11.9833,28.6472],[11.9519,28.5951],[11.8974,28.8592],[11.7293,29.087],[11.7299,29.3665],[11.6197,30.0327],[11.6163,30.4133],[11.5899,30.5424],[11.5986,30.5983],[11.6508,30.6463],[11.8673,30.931],[11.963,31.0809],[11.9457,31.0868],[11.853,31.2474],[11.8367,31.3359],[11.8452,31.4623],[11.8329,31.5621],[11.8373,31.6808],[11.8555,31.7813],[11.8228,31.9618],[11.8627,32.1886],[11.8627,32.3076],[12.4015,32.3037],[12.649,32.2326],[12.8196,32.2602]]]}},{"type":"Feature","id":"Murqub","properties":{"id":"Murqub","iso_code":"LY-MB","name":"Murqub","name_full":"Murqub","name_ja":"ムルクブ県","center_lonlat":[14.0541,32.3307]},"geometry":{"type":"Polygon","coordinates":[[[13.9544,32.7582],[14.1853,32.7145],[14.3171,32.6304],[14.4494,32.5254],[14.6316,32.4957],[14.7067,32.4563],[14.7558,32.4497],[14.7217,32.3451],[14.7584,32.2385],[14.755,32.1794],[14.7162,32.1381],[14.6826,32.0562],[14.6667,31.9678],[14.4705,31.9456],[14.365,31.9771],[14.2851,32.0461],[14.1221,32.1426],[14.0657,32.0865],[13.9916,32.074],[13.8992,32.1018],[13.8337,32.1005],[13.6164,32.0481],[13.3977,32.0508],[13.3632,32.2016],[13.2508,32.3174],[13.2364,32.3337],[13.3848,32.3832],[13.4513,32.5286],[13.7038,32.6114],[13.8089,32.6209],[13.8128,32.6394],[13.9544,32.7582]]]}},{"type":"Feature","id":"Murzuq","properties":{"id":"Murzuq","iso_code":"LY-MQ","name":"Murzuq","name_full":"Murzuq","name_ja":"ムルズク県","center_lonlat":[15.6905,24.6142]},"geometry":{"type":"Polygon","coordinates":[[[19.1858,21.8642],[15.9851,23.4447],[14.9799,22.9957],[14.2162,22.6163],[13.5996,23.119],[13.4823,23.1797],[11.9689,23.5174],[11.5671,24.2668],[11.5414,24.2975],[11.4672,24.3263],[11.481,24.463],[11.4555,24.5939],[11.334,24.7968],[11.3326,25.3893],[11.3995,25.5514],[11.5941,25.652],[11.8584,25.5478],[12.1599,25.5759],[12.3636,25.7323],[12.5,25.708],[12.6249,25.7209],[12.7067,25.7794],[12.9655,25.8614],[13.2054,25.8768],[13.3083,25.945],[13.4101,26.06],[13.4819,26.118],[13.6693,26.1597],[13.9344,26.2469],[14.133,26.2677],[14.4244,26.3763],[14.8276,26.7579],[14.974,26.8069],[15.278,26.8767],[15.761,26.9479],[16.2797,27.0752],[16.2691,26.9293],[16.2784,26.8462],[16.3227,26.7928],[16.52,26.7015],[16.5751,26.6309],[16.568,26.5281],[16.6207,26.4258],[16.7276,26.3262],[16.883,26.2341],[16.9405,26.1634],[17.2634,26.1009],[17.4098,26.0523],[17.5666,26.1258],[17.6966,26.1355],[17.778,26.1575],[17.9081,26.2428],[17.9542,26.2941],[18.0628,26.3452],[18.2041,26.3765],[18.3206,26.3294],[18.4124,26.2335],[18.515,26.1498],[18.8856,26.0858],[19.0208,26.0552],[19.1681,26.0038],[19.1858,21.8642]]]}},{"type":"Feature","id":"Nuqat al Khams","properties":{"id":"Nuqat al Khams","iso_code":"LY-NQ","name":"Nuqat al Khams","name_full":"Nuqat al Khams","name_ja":"ヌカート・アル・ハムス県","center_lonlat":[11.9022,32.7053]},"geometry":{"type":"Polygon","coordinates":[[[11.5261,32.4179],[11.5641,32.4655],[11.5606,32.5076],[11.5374,32.5435],[11.4704,32.5993],[11.4499,32.638],[11.4638,32.7985],[11.4565,32.9021],[11.4774,33.0412],[11.506,33.1364],[11.5051,33.1812],[11.575,33.1579],[11.5877,33.1323],[11.6358,33.1087],[11.7935,33.0808],[11.773,33.0994],[11.7078,33.1172],[11.6911,33.136],[11.847,33.0828],[12.0807,32.9578],[12.1224,32.9213],[12.3039,32.8431],[12.5732,32.8126],[12.5549,32.7993],[12.5014,32.6571],[12.4621,32.6008],[12.3372,32.531],[12.2864,32.4742],[12.1221,32.4068],[12.0976,32.3544],[11.8627,32.3076],[11.7007,32.3057],[11.6431,32.3224],[11.5261,32.4179]]]}},{"type":"Feature","id":"Sabha","properties":{"id":"Sabha","iso_code":"LY-SB","name":"Sabha","name_full":"Sabha","name_ja":"サブハー県","center_lonlat":[15.0176,27.0827]},"geometry":{"type":"Polygon","coordinates":[[[15.7959,27.7212],[15.7948,27.692],[15.9632,27.4666],[16.0232,27.3059],[16.1919,27.1853],[16.258,27.1517],[16.2797,27.0752],[15.761,26.9479],[15.278,26.8767],[14.974,26.8069],[14.8276,26.7579],[14.4244,26.3763],[14.133,26.2677],[13.9344,26.2469],[13.9323,26.3482],[13.972,26.4615],[14.0855,26.5575],[14.1462,26.6712],[14.1347,26.7272],[14.0811,26.7824],[14.0376,26.8565],[14.0455,26.9878],[14.0224,27.0904],[13.9832,27.1289],[14.4212,27.1727],[14.4836,27.2206],[14.5248,27.2775],[14.849,27.4605],[14.9213,27.5738],[15.0685,27.632],[15.3535,27.6638],[15.5641,27.7411],[15.7959,27.7212]]]}},{"type":"Feature","id":"Sirte","properties":{"id":"Sirte","iso_code":"LY-SR","name":"Sirte","name_full":"Sirte","name_ja":"スルト県","center_lonlat":[17.5109,30.0773]},"geometry":{"type":"Polygon","coordinates":[[[16.1374,31.2612],[16.3587,31.2271],[16.728,31.2238],[16.9419,31.1833],[17.1603,31.1188],[17.3659,31.0866],[17.4668,31.03],[17.7761,30.9352],[17.8486,30.9237],[17.9268,30.8552],[18.1753,30.7861],[18.2357,30.7468],[18.3242,30.6569],[18.5684,30.5001],[18.6532,30.4223],[18.7805,30.3759],[18.7137,29.8334],[18.7332,29.666],[18.6993,29.5174],[18.5799,29.3692],[18.5136,29.1647],[18.4993,28.5021],[18.4993,28.4846],[18.2255,28.5553],[18.0878,28.6396],[17.9821,28.7331],[17.8985,28.9848],[17.7287,29.1619],[17.6654,29.3294],[17.5801,29.3946],[17.5052,29.3945],[17.4303,29.3572],[17.3339,29.2826],[17.0881,29.3471],[16.9812,29.4305],[16.8529,29.4393],[16.7459,29.4016],[16.5533,29.3912],[16.4356,29.4184],[16.4186,29.4088],[16.5101,29.5305],[16.5312,29.6329],[16.4659,29.9207],[16.303,30.3094],[16.2257,30.689],[16.1156,31.0493],[16.1146,31.2158],[16.1374,31.2612]]]}},{"type":"Feature","id":"Tripoli District","properties":{"id":"Tripoli District","iso_code":"LY-TN","name":"Tripoli District","name_full":"Tripoli District","name_ja":"タジュラ・ワアン・ナワヒ・アル・アルバ","center_lonlat":[13.418,32.6729]},"geometry":{"type":"Polygon","coordinates":[[[13.1032,32.8774],[13.1647,32.9127],[13.2571,32.9186],[13.3517,32.9042],[13.5715,32.8028],[13.617,32.7934],[13.7871,32.7996],[13.9544,32.7582],[13.8128,32.6394],[13.8089,32.6209],[13.7038,32.6114],[13.4513,32.5286],[13.3848,32.3832],[13.2364,32.3337],[13.1875,32.3898],[13.19,32.46],[13.1632,32.6492],[13.0763,32.7212],[13.111,32.783],[13.1032,32.8774]]]}},{"type":"Feature","id":"Wadi al Hayaa","properties":{"id":"Wadi al Hayaa","iso_code":"LY-WD","name":"Wadi al Hayaa","name_full":"Wadi al Hayaa","name_ja":"ワジ・アル・ハヤー県","center_lonlat":[12.7527,26.3951]},"geometry":{"type":"Polygon","coordinates":[[[13.9832,27.1289],[14.0224,27.0904],[14.0455,26.9878],[14.0376,26.8565],[14.0811,26.7824],[14.1347,26.7272],[14.1462,26.6712],[14.0855,26.5575],[13.972,26.4615],[13.9323,26.3482],[13.9344,26.2469],[13.6693,26.1597],[13.4819,26.118],[13.4101,26.06],[13.3083,25.945],[13.2054,25.8768],[12.9655,25.8614],[12.7067,25.7794],[12.6249,25.7209],[12.5,25.708],[12.3636,25.7323],[12.1599,25.5759],[11.8584,25.5478],[11.5941,25.652],[11.3995,25.5514],[11.3346,25.6377],[11.3037,25.7492],[11.3161,25.9413],[11.3747,26.2175],[12.3099,26.7911],[12.7737,27.1131],[13.0124,27.2504],[13.1905,27.2922],[13.3494,27.2678],[13.6252,27.1898],[13.9832,27.1289]]]}},{"type":"Feature","id":"Zawiya","properties":{"id":"Zawiya","iso_code":"LY-ZA","name":"Zawiya","name_full":"Zawiya","name_ja":"ザーウィヤ県","center_lonlat":[12.6259,32.5274]},"geometry":{"type":"Polygon","coordinates":[[[12.5732,32.8126],[12.7298,32.7986],[12.8244,32.8043],[13.1032,32.8774],[13.111,32.783],[13.0763,32.7212],[12.9693,32.669],[12.8977,32.5602],[12.8233,32.407],[12.8297,32.3369],[12.8196,32.2602],[12.649,32.2326],[12.4015,32.3037],[11.8627,32.3076],[12.0976,32.3544],[12.1221,32.4068],[12.2864,32.4742],[12.3372,32.531],[12.4621,32.6008],[12.5014,32.6571],[12.5549,32.7993],[12.5732,32.8126]]]}}]}
