{"type":"FeatureCollection","features":[{"type":"Feature","id":"Balzers","properties":{"id":"Balzers","iso_code":"LI-01","name":"Balzers","name_full":"Balzers","name_ja":"バルザース","center_lonlat":[9.5075,47.073]},"geometry":{"type":"MultiPolygon","coordinates":[[[[9.5331,47.0555],[9.477,47.0639],[9.5029,47.0947],[9.5222,47.0868],[9.5331,47.0555]]],[[[9.6095,47.1224],[9.5633,47.148],[9.5671,47.1608],[9.5818,47.1549],[9.6095,47.1224]]]]}},{"type":"Feature","id":"Eschen","properties":{"id":"Eschen","iso_code":"LI-02","name":"Eschen","name_full":"Eschen","name_ja":"エッシェン","center_lonlat":[9.5339,47.2072]},"geometry":{"type":"Polygon","coordinates":[[[9.5543,47.2116],[9.5619,47.1906],[9.5311,47.1947],[9.5094,47.2047],[9.5127,47.2247],[9.5199,47.2253],[9.5543,47.2116]]]}},{"type":"Feature","id":"Gamprin","properties":{"id":"Gamprin","iso_code":"LI-03","name":"Gamprin","name_full":"Gamprin","name_ja":"ガンプリン","center_lonlat":[9.503,47.2091]},"geometry":{"type":"Polygon","coordinates":[[[9.4864,47.1969],[9.497,47.2289],[9.5127,47.2247],[9.5094,47.2047],[9.5311,47.1947],[9.4864,47.1969]]]}},{"type":"Feature","id":"Mauren","properties":{"id":"Mauren","iso_code":"LI-04","name":"Mauren","name_full":"Mauren","name_ja":"マウレン","center_lonlat":[9.5391,47.2239]},"geometry":{"type":"Polygon","coordinates":[[[9.5431,47.2348],[9.5543,47.2116],[9.5199,47.2253],[9.5431,47.2348]]]}},{"type":"Feature","id":"Planken","properties":{"id":"Planken","iso_code":"LI-05","name":"Planken","name_full":"Planken","name_ja":"プランケン","center_lonlat":[9.5483,47.187]},"geometry":{"type":"Polygon","coordinates":[[[9.5619,47.1906],[9.552,47.1756],[9.5311,47.1947],[9.5619,47.1906]]]}},{"type":"Feature","id":"Ruggell","properties":{"id":"Ruggell","iso_code":"LI-06","name":"Ruggell","name_full":"Ruggell","name_ja":"ルッゲル","center_lonlat":[9.5171,47.2413]},"geometry":{"type":"Polygon","coordinates":[[[9.5342,47.2512],[9.5199,47.2253],[9.5127,47.2247],[9.497,47.2289],[9.5212,47.2628],[9.5342,47.2512]]]}},{"type":"Feature","id":"Schaan","properties":{"id":"Schaan","iso_code":"LI-07","name":"Schaan","name_full":"Schaan","name_ja":"シャーン","center_lonlat":[9.5169,47.1781]},"geometry":{"type":"MultiPolygon","coordinates":[[[[9.552,47.1756],[9.5483,47.1608],[9.5055,47.1691],[9.5083,47.153],[9.4955,47.156],[9.4864,47.1969],[9.5311,47.1947],[9.552,47.1756]]],[[[9.6095,47.1224],[9.6142,47.1107],[9.5917,47.1113],[9.5761,47.1085],[9.5633,47.148],[9.6095,47.1224]]],[[[9.6051,47.0776],[9.5883,47.063],[9.5828,47.0868],[9.5978,47.0907],[9.6051,47.0776]]]]}},{"type":"Feature","id":"Schellenberg","properties":{"id":"Schellenberg","iso_code":"LI-08","name":"Schellenberg","name_full":"Schellenberg","name_ja":"シェレンベルク","center_lonlat":[9.5324,47.2371]},"geometry":{"type":"Polygon","coordinates":[[[9.5342,47.2512],[9.5431,47.2348],[9.5199,47.2253],[9.5342,47.2512]]]}},{"type":"Feature","id":"Triesen","properties":{"id":"Triesen","iso_code":"LI-09","name":"Triesen","name_full":"Triesen","name_ja":"トリーゼン","center_lonlat":[9.5411,47.0874]},"geometry":{"type":"Polygon","coordinates":[[[9.5883,47.063],[9.5331,47.0555],[9.5222,47.0868],[9.5029,47.0947],[9.5119,47.1294],[9.5272,47.1307],[9.5372,47.1029],[9.5605,47.089],[9.5605,47.0757],[9.5705,47.0757],[9.5678,47.0885],[9.5828,47.0868],[9.5883,47.063]]]}},{"type":"Feature","id":"Triesenberg","properties":{"id":"Triesenberg","iso_code":"LI-10","name":"Triesenberg","name_full":"Triesenberg","name_ja":"トリーゼンベルク","center_lonlat":[9.5525,47.1224]},"geometry":{"type":"MultiPolygon","coordinates":[[[[9.5605,47.089],[9.5372,47.1029],[9.5272,47.1307],[9.5483,47.1608],[9.5633,47.148],[9.5761,47.1085],[9.5678,47.0885],[9.5605,47.089]]],[[[9.6142,47.1107],[9.6051,47.0776],[9.5978,47.0907],[9.5917,47.1113],[9.6142,47.1107]]]]}},{"type":"Feature","id":"Vaduz","properties":{"id":"Vaduz","iso_code":"LI-11","name":"Vaduz","name_full":"Vaduz","name_ja":"ファドゥーツ","center_lonlat":[9.5212,47.1499]},"geometry":{"type":"MultiPolygon","coordinates":[[[[9.5119,47.1294],[9.4955,47.156],[9.5083,47.153],[9.5055,47.1691],[9.5483,47.1608],[9.5272,47.1307],[9.5119,47.1294]]],[[[9.5678,47.0885],[9.5761,47.1085],[9.5917,47.1113],[9.5978,47.0907],[9.5828,47.0868],[9.5678,47.0885]]]]}}]}
