{"type":"FeatureCollection","features":[{"type":"Feature","id":"Alytus","properties":{"id":"Alytus","iso_code":"LT-AL","name":"Alytus","name_full":"Alytus","name_ja":"アリートゥス郡","center_lonlat":[24.1245,54.2162]},"geometry":{"type":"Polygon","coordinates":[[[24.851,54.145],[24.8216,54.1345],[24.8182,54.1101],[24.7825,54.0929],[24.8214,54.0199],[24.8064,53.9753],[24.7056,53.9642],[24.6668,53.9939],[24.5287,53.9584],[24.3779,53.8868],[24.2571,53.894],[24.2291,53.9324],[24.1696,53.9589],[24.0454,53.9309],[23.9813,53.9304],[23.9198,53.9478],[23.8283,53.9201],[23.7872,53.9279],[23.6271,53.8982],[23.4856,53.9393],[23.4904,53.9506],[23.4629,53.9725],[23.4593,53.9923],[23.4965,54.022],[23.4962,54.0446],[23.463,54.1349],[23.4325,54.1693],[23.3915,54.1801],[23.336,54.2263],[23.3448,54.2969],[23.3695,54.3404],[23.4014,54.3604],[23.4661,54.3722],[23.4481,54.3892],[23.4651,54.4011],[23.5408,54.418],[23.542,54.4556],[23.557,54.4686],[23.6505,54.5091],[23.7045,54.478],[23.7563,54.4698],[23.8786,54.4616],[24.0018,54.5018],[23.9872,54.5349],[24.0299,54.551],[24.0963,54.5414],[24.2457,54.5608],[24.3239,54.5371],[24.4128,54.5439],[24.4228,54.521],[24.4119,54.4993],[24.4347,54.4785],[24.426,54.447],[24.4499,54.4329],[24.555,54.4267],[24.656,54.4501],[24.7193,54.4355],[24.7191,54.4113],[24.737,54.4057],[24.8171,54.411],[24.864,54.4312],[24.996,54.4513],[24.9938,54.3946],[24.9341,54.3794],[24.9137,54.3154],[24.7699,54.2254],[24.7714,54.2079],[24.8151,54.1922],[24.851,54.145]]]}},{"type":"Feature","id":"Kaunas","properties":{"id":"Kaunas","iso_code":"LT-KU","name":"Kaunas","name_full":"Kaunas","name_ja":"カウナス県","center_lonlat":[23.8827,55.0838]},"geometry":{"type":"Polygon","coordinates":[[[24.4156,55.3932],[24.3886,55.3165],[24.4147,55.2869],[24.4226,55.2516],[24.4955,55.2235],[24.4734,55.212],[24.4735,55.1902],[24.5241,55.1578],[24.5368,55.1204],[24.5896,55.1213],[24.6079,55.0906],[24.6381,55.0821],[24.6521,55.061],[24.5488,54.9878],[24.6755,54.9321],[24.7551,54.9219],[24.8,54.8903],[24.7402,54.8485],[24.6565,54.8167],[24.6177,54.7262],[24.5587,54.7301],[24.4737,54.6938],[24.4793,54.6438],[24.4949,54.63],[24.49,54.6091],[24.4415,54.6008],[24.4128,54.5439],[24.3239,54.5371],[24.2457,54.5608],[24.0963,54.5414],[24.0299,54.551],[23.9872,54.5349],[24.0018,54.5018],[23.8786,54.4616],[23.7563,54.4698],[23.7788,54.4975],[23.7596,54.5374],[23.7161,54.5459],[23.6646,54.5757],[23.6848,54.6059],[23.6236,54.6321],[23.6756,54.6528],[23.6821,54.6716],[23.6495,54.7698],[23.6138,54.7812],[23.6478,54.8106],[23.6317,54.8686],[23.5572,54.9055],[23.4945,54.8962],[23.4632,54.944],[23.3989,54.9636],[23.4315,54.9857],[23.5024,54.9864],[23.5759,55.0312],[23.5512,55.05],[23.4843,55.0507],[23.4123,55.0787],[23.456,55.1455],[23.4548,55.1939],[23.4775,55.215],[23.4577,55.2292],[23.3668,55.2251],[23.3262,55.2455],[23.2231,55.2414],[23.1629,55.278],[23.0088,55.261],[22.9961,55.271],[23.0132,55.2938],[22.9264,55.3348],[22.9024,55.3094],[22.862,55.2948],[22.8062,55.3389],[22.797,55.3918],[22.7266,55.4022],[22.7258,55.4274],[22.6793,55.4411],[22.6457,55.4743],[22.7345,55.5021],[22.8087,55.5084],[22.8665,55.4807],[23.0208,55.5155],[23.1142,55.5743],[23.1764,55.5786],[23.223,55.5727],[23.252,55.5421],[23.3248,55.5673],[23.4562,55.5177],[23.5383,55.5455],[23.5859,55.529],[23.5691,55.4991],[23.581,55.4832],[23.6341,55.4746],[23.6851,55.512],[23.8671,55.5693],[23.9017,55.5649],[23.9292,55.5194],[23.9908,55.5188],[24.0508,55.4832],[24.0538,55.4357],[24.2097,55.472],[24.2515,55.447],[24.2864,55.4433],[24.3025,55.4567],[24.3495,55.4422],[24.4156,55.3932]]]}},{"type":"Feature","id":"Klaipeda","properties":{"id":"Klaipeda","iso_code":"LT-KL","name":"Klaipeda","name_full":"Klaipėda","name_ja":"クライペダ県","center_lonlat":[21.555,55.6875]},"geometry":{"type":"MultiPolygon","coordinates":[[[[21.9653,56.3837],[21.9029,56.3449],[21.9335,56.3146],[21.9394,56.2757],[21.987,56.2104],[21.9526,56.2005],[21.8992,56.1328],[21.7313,56.1015],[21.6837,56.0761],[21.6321,56.0093],[21.5873,55.9965],[21.585,55.9221],[21.618,55.8786],[21.5156,55.8141],[21.5167,55.8025],[21.5589,55.8002],[21.6053,55.8133],[21.6071,55.7959],[21.6311,55.7759],[21.6253,55.752],[21.7521,55.7569],[21.7457,55.72],[21.7946,55.6526],[21.8776,55.6018],[21.8734,55.5814],[21.8142,55.5647],[21.8861,55.4364],[21.9333,55.4397],[22.0457,55.4056],[22.0156,55.356],[21.9104,55.2903],[21.9031,55.269],[22.0508,55.2334],[22.0845,55.1853],[22.0842,55.1532],[22.1561,55.1712],[22.2053,55.1539],[22.2975,55.1464],[22.2699,55.0695],[22.1427,55.0546],[22.0768,55.0286],[22.0277,55.0444],[22.0154,55.0884],[22.0034,55.0935],[21.9428,55.0783],[21.8199,55.1193],[21.7506,55.128],[21.6051,55.1925],[21.5039,55.1944],[21.4677,55.2112],[21.3748,55.29],[21.2676,55.2487],[21.2644,55.284],[21.2912,55.2971],[21.2595,55.3362],[21.2571,55.3694],[21.1888,55.3386],[21.1834,55.3462],[21.2483,55.4179],[21.2229,55.5202],[21.1994,55.5377],[21.1951,55.5851],[21.1472,55.6782],[21.0744,55.7449],[21.0606,55.7893],[21.0447,55.8737],[21.0584,55.9519],[21.0534,56.0726],[21.1904,56.0845],[21.2296,56.1632],[21.3276,56.2244],[21.4193,56.2374],[21.596,56.3079],[21.6845,56.3101],[21.9653,56.3837]]],[[[20.9894,55.2731],[20.9246,55.2827],[20.9995,55.357],[21.0824,55.4976],[21.0994,55.5987],[21.0852,55.7228],[21.1174,55.6998],[21.1315,55.6556],[21.1336,55.5683],[21.1199,55.4894],[21.0872,55.4411],[21.1062,55.4212],[21.0735,55.3918],[21.0379,55.3286],[20.9889,55.2913],[20.9894,55.2731]]]]}},{"type":"Feature","id":"Marijampole","properties":{"id":"Marijampole","iso_code":"LT-MR","name":"Marijampole","name_full":"Marijampolė","name_ja":"マリヤーンポレ県","center_lonlat":[23.1629,54.7013]},"geometry":{"type":"Polygon","coordinates":[[[22.5712,55.064],[22.5993,55.0715],[22.6442,55.0571],[22.871,55.0923],[22.9254,55.0835],[23.0017,55.1054],[23.3198,55.0712],[23.4123,55.0787],[23.4843,55.0507],[23.5512,55.05],[23.5759,55.0312],[23.5024,54.9864],[23.4315,54.9857],[23.3989,54.9636],[23.4632,54.944],[23.4945,54.8962],[23.5572,54.9055],[23.6317,54.8686],[23.6478,54.8106],[23.6138,54.7812],[23.6495,54.7698],[23.6821,54.6716],[23.6756,54.6528],[23.6236,54.6321],[23.6848,54.6059],[23.6646,54.5757],[23.7161,54.5459],[23.7596,54.5374],[23.7788,54.4975],[23.7563,54.4698],[23.7045,54.478],[23.6505,54.5091],[23.557,54.4686],[23.542,54.4556],[23.5408,54.418],[23.4651,54.4011],[23.4481,54.3892],[23.4661,54.3722],[23.4014,54.3604],[23.3695,54.3404],[23.3448,54.2969],[23.336,54.2263],[23.1171,54.3035],[23.0501,54.2948],[23.0321,54.3096],[23.0416,54.341],[22.9897,54.3534],[22.9627,54.3817],[22.8376,54.4009],[22.7672,54.3563],[22.707,54.4187],[22.6804,54.4532],[22.6746,54.4923],[22.6817,54.5699],[22.7081,54.6356],[22.7009,54.6796],[22.727,54.7053],[22.7248,54.7234],[22.8328,54.7787],[22.8484,54.8138],[22.8213,54.8855],[22.7492,54.9099],[22.741,54.9176],[22.7521,54.9311],[22.7155,54.9514],[22.6335,54.9579],[22.5712,55.064]]]}},{"type":"Feature","id":"Panevezys","properties":{"id":"Panevezys","iso_code":"LT-PN","name":"Panevezys","name_full":"Panevėžys","name_ja":"パネヴェジース県","center_lonlat":[24.7775,55.9209]},"geometry":{"type":"Polygon","coordinates":[[[25.9613,55.9585],[25.9413,55.9385],[25.9397,55.9105],[25.8772,55.8703],[25.8083,55.776],[25.747,55.7777],[25.6874,55.7301],[25.666,55.7463],[25.558,55.7443],[25.4879,55.7242],[25.4567,55.7493],[25.4162,55.7411],[25.3786,55.7746],[25.3027,55.7502],[25.2888,55.7383],[25.2874,55.7139],[25.2373,55.7175],[25.0934,55.6886],[25.0694,55.6902],[25.0681,55.7064],[25.0178,55.7345],[24.8603,55.7277],[24.8315,55.7137],[24.6893,55.7212],[24.6861,55.6963],[24.7176,55.6719],[24.7043,55.6596],[24.6681,55.6676],[24.6313,55.659],[24.6687,55.6402],[24.6859,55.6123],[24.6459,55.5847],[24.6501,55.5412],[24.6305,55.5226],[24.6008,55.5136],[24.6322,55.4913],[24.6274,55.482],[24.5543,55.4872],[24.512,55.4285],[24.476,55.4064],[24.4156,55.3932],[24.3495,55.4422],[24.3025,55.4567],[24.2864,55.4433],[24.2515,55.447],[24.2097,55.472],[24.0538,55.4357],[24.0508,55.4832],[23.9908,55.5188],[23.9292,55.5194],[23.9017,55.5649],[23.8671,55.5693],[23.9155,55.6236],[24.005,55.642],[23.9932,55.6917],[24.0274,55.7145],[24.0213,55.7626],[23.9954,55.7958],[23.9501,55.8144],[23.9374,55.8435],[23.9759,55.846],[23.9892,55.8725],[24.0603,55.9041],[24.0682,55.9597],[24.0115,55.9852],[24.0047,56.0374],[24.048,56.0485],[24.1034,56.142],[24.1577,56.1617],[24.159,56.1922],[24.1245,56.2071],[24.1446,56.2371],[24.1404,56.2576],[24.3185,56.2986],[24.4144,56.2655],[24.4813,56.2688],[24.539,56.2876],[24.6786,56.3773],[24.8055,56.4085],[24.8459,56.4049],[24.871,56.4426],[24.9101,56.422],[24.9732,56.3008],[25.0262,56.2602],[25.0731,56.1978],[25.1092,56.1831],[25.4548,56.1496],[25.5228,56.1566],[25.6619,56.1408],[25.6966,56.0879],[25.8713,55.9921],[25.9613,55.9585]]]}},{"type":"Feature","id":"Siauliai","properties":{"id":"Siauliai","iso_code":"LT-SA","name":"Siauliai","name_full":"Šiauliai","name_ja":"シャウレイ県","center_lonlat":[23.2659,55.951]},"geometry":{"type":"Polygon","coordinates":[[[24.1404,56.2576],[24.1446,56.2371],[24.1245,56.2071],[24.159,56.1922],[24.1577,56.1617],[24.1034,56.142],[24.048,56.0485],[24.0047,56.0374],[24.0115,55.9852],[24.0682,55.9597],[24.0603,55.9041],[23.9892,55.8725],[23.9759,55.846],[23.9374,55.8435],[23.9501,55.8144],[23.9954,55.7958],[24.0213,55.7626],[24.0274,55.7145],[23.9932,55.6917],[24.005,55.642],[23.9155,55.6236],[23.8671,55.5693],[23.6851,55.512],[23.6341,55.4746],[23.581,55.4832],[23.5691,55.4991],[23.5859,55.529],[23.5383,55.5455],[23.4562,55.5177],[23.3248,55.5673],[23.252,55.5421],[23.223,55.5727],[23.1764,55.5786],[23.1142,55.5743],[23.0208,55.5155],[22.8665,55.4807],[22.8087,55.5084],[22.7345,55.5021],[22.6457,55.4743],[22.6214,55.4812],[22.6156,55.5048],[22.6349,55.5277],[22.5692,55.5745],[22.5091,55.5984],[22.4922,55.6233],[22.5003,55.6407],[22.4634,55.6572],[22.4571,55.6779],[22.5051,55.7022],[22.5064,55.7658],[22.4919,55.798],[22.5664,55.8244],[22.5697,55.8606],[22.6218,55.8741],[22.6757,55.926],[22.6721,55.9371],[22.6983,55.9493],[22.655,55.9747],[22.6078,55.9595],[22.5807,55.9834],[22.6094,56.0071],[22.6018,56.0523],[22.7021,56.0796],[22.6814,56.0972],[22.6842,56.1262],[22.6419,56.1314],[22.4673,56.1036],[22.4096,56.1328],[22.4169,56.1541],[22.3746,56.1641],[22.3886,56.2224],[22.4552,56.2773],[22.4458,56.3036],[22.4732,56.3241],[22.5543,56.3271],[22.5679,56.3527],[22.5531,56.3727],[22.5782,56.387],[22.6663,56.3491],[22.9245,56.4121],[22.957,56.402],[23.0167,56.3239],[23.0623,56.3042],[23.1127,56.3109],[23.1726,56.358],[23.2884,56.373],[23.4816,56.3301],[23.6099,56.3538],[23.7067,56.3544],[23.7235,56.3458],[23.725,56.3288],[23.8581,56.3344],[23.9813,56.3124],[24.0752,56.2712],[24.1404,56.2576]]]}},{"type":"Feature","id":"Taurage","properties":{"id":"Taurage","iso_code":"LT-TA","name":"Taurage","name_full":"Tauragė","name_ja":"タウラゲ県","center_lonlat":[22.5183,55.3272]},"geometry":{"type":"Polygon","coordinates":[[[22.5712,55.064],[22.5411,55.0758],[22.4363,55.0578],[22.2699,55.0695],[22.2975,55.1464],[22.2053,55.1539],[22.1561,55.1712],[22.0842,55.1532],[22.0845,55.1853],[22.0508,55.2334],[21.9031,55.269],[21.9104,55.2903],[22.0156,55.356],[22.0457,55.4056],[21.9333,55.4397],[21.8861,55.4364],[21.8142,55.5647],[21.8734,55.5814],[21.8776,55.6018],[22.0283,55.6099],[22.0582,55.6283],[22.0696,55.6617],[22.172,55.6798],[22.4571,55.6779],[22.4634,55.6572],[22.5003,55.6407],[22.4922,55.6233],[22.5091,55.5984],[22.5692,55.5745],[22.6349,55.5277],[22.6156,55.5048],[22.6214,55.4812],[22.6457,55.4743],[22.6793,55.4411],[22.7258,55.4274],[22.7266,55.4022],[22.797,55.3918],[22.8062,55.3389],[22.862,55.2948],[22.9024,55.3094],[22.9264,55.3348],[23.0132,55.2938],[22.9961,55.271],[23.0088,55.261],[23.1629,55.278],[23.2231,55.2414],[23.3262,55.2455],[23.3668,55.2251],[23.4577,55.2292],[23.4775,55.215],[23.4548,55.1939],[23.456,55.1455],[23.4123,55.0787],[23.3198,55.0712],[23.0017,55.1054],[22.9254,55.0835],[22.871,55.0923],[22.6442,55.0571],[22.5993,55.0715],[22.5712,55.064]]]}},{"type":"Feature","id":"Telsiai","properties":{"id":"Telsiai","iso_code":"LT-TE","name":"Telsiai","name_full":"Telšiai","name_ja":"テルシェイ県","center_lonlat":[22.1306,55.9886]},"geometry":{"type":"Polygon","coordinates":[[[22.5782,56.387],[22.5531,56.3727],[22.5679,56.3527],[22.5543,56.3271],[22.4732,56.3241],[22.4458,56.3036],[22.4552,56.2773],[22.3886,56.2224],[22.3746,56.1641],[22.4169,56.1541],[22.4096,56.1328],[22.4673,56.1036],[22.6419,56.1314],[22.6842,56.1262],[22.6814,56.0972],[22.7021,56.0796],[22.6018,56.0523],[22.6094,56.0071],[22.5807,55.9834],[22.6078,55.9595],[22.655,55.9747],[22.6983,55.9493],[22.6721,55.9371],[22.6757,55.926],[22.6218,55.8741],[22.5697,55.8606],[22.5664,55.8244],[22.4919,55.798],[22.5064,55.7658],[22.5051,55.7022],[22.4571,55.6779],[22.172,55.6798],[22.0696,55.6617],[22.0582,55.6283],[22.0283,55.6099],[21.8776,55.6018],[21.7946,55.6526],[21.7457,55.72],[21.7521,55.7569],[21.6253,55.752],[21.6311,55.7759],[21.6071,55.7959],[21.6053,55.8133],[21.5589,55.8002],[21.5167,55.8025],[21.5156,55.8141],[21.618,55.8786],[21.585,55.9221],[21.5873,55.9965],[21.6321,56.0093],[21.6837,56.0761],[21.7313,56.1015],[21.8992,56.1328],[21.9526,56.2005],[21.987,56.2104],[21.9394,56.2757],[21.9335,56.3146],[21.9029,56.3449],[21.9653,56.3837],[22.0941,56.4174],[22.1391,56.4157],[22.2149,56.3904],[22.5117,56.396],[22.5782,56.387]]]}},{"type":"Feature","id":"Utena","properties":{"id":"Utena","iso_code":"LT-UT","name":"Utena","name_full":"Utena","name_ja":"ウテナ県","center_lonlat":[25.6629,55.4856]},"geometry":{"type":"Polygon","coordinates":[[[26.7399,55.2428],[26.7159,55.269],[26.679,55.2772],[26.4558,55.2251],[26.3207,55.2289],[26.216,55.2533],[26.1545,55.2487],[26.1489,55.2681],[26.1633,55.2919],[26.1171,55.3132],[26.0311,55.3121],[25.9987,55.2862],[25.9583,55.2751],[25.9311,55.2934],[25.8834,55.2916],[25.8527,55.3163],[25.8148,55.3042],[25.7343,55.327],[25.7083,55.2786],[25.6498,55.2479],[25.6379,55.2204],[25.7194,55.1549],[25.7811,55.1305],[25.7504,55.1071],[25.7588,55.0927],[25.7309,55.0774],[25.736,55.057],[25.6171,55.0709],[25.3491,55.0267],[25.2224,55.0417],[25.2078,55.0766],[25.126,55.1035],[25.1354,55.1505],[25.2523,55.195],[25.1521,55.2208],[25.1484,55.2329],[25.1761,55.2682],[25.1092,55.2724],[25.0557,55.3053],[25.0582,55.3252],[24.9631,55.3257],[24.9538,55.3626],[24.8873,55.3478],[24.8718,55.3712],[24.7848,55.3826],[24.7693,55.4077],[24.7995,55.4325],[24.7931,55.447],[24.6305,55.5226],[24.6501,55.5412],[24.6459,55.5847],[24.6859,55.6123],[24.6687,55.6402],[24.6313,55.659],[24.6681,55.6676],[24.7043,55.6596],[24.7176,55.6719],[24.6861,55.6963],[24.6893,55.7212],[24.8315,55.7137],[24.8603,55.7277],[25.0178,55.7345],[25.0681,55.7064],[25.0694,55.6902],[25.0934,55.6886],[25.2373,55.7175],[25.2874,55.7139],[25.2888,55.7383],[25.3027,55.7502],[25.3786,55.7746],[25.4162,55.7411],[25.4567,55.7493],[25.4879,55.7242],[25.558,55.7443],[25.666,55.7463],[25.6874,55.7301],[25.747,55.7777],[25.8083,55.776],[25.8772,55.8703],[25.9397,55.9105],[25.9413,55.9385],[25.9613,55.9585],[26.1786,55.8496],[26.2797,55.7432],[26.481,55.6783],[26.5945,55.667],[26.6077,55.6165],[26.5956,55.568],[26.5321,55.5163],[26.5277,55.4922],[26.5433,55.4596],[26.5078,55.4391],[26.4455,55.3375],[26.4658,55.3209],[26.5254,55.3081],[26.6027,55.3169],[26.7916,55.2902],[26.8007,55.2733],[26.7897,55.2572],[26.7399,55.2428]]]}},{"type":"Feature","id":"Vilnius","properties":{"id":"Vilnius","iso_code":"LT-VL","name":"Vilnius","name_full":"Vilnius","name_ja":"ヴィリニュス県","center_lonlat":[25.244,54.8253]},"geometry":{"type":"Polygon","coordinates":[[[26.7399,55.2428],[26.6857,55.2316],[26.6411,55.2028],[26.6009,55.1208],[26.4734,55.1457],[26.4288,55.1282],[26.2644,55.1401],[26.233,55.1116],[26.2246,55.0549],[26.1386,54.9689],[25.9811,54.9427],[25.8702,54.9388],[25.8467,54.9062],[25.7827,54.8697],[25.7723,54.8509],[25.7785,54.8053],[25.7349,54.7891],[25.7212,54.7667],[25.7246,54.7157],[25.7084,54.663],[25.7399,54.6077],[25.7404,54.5685],[25.6309,54.5084],[25.6126,54.4218],[25.53,54.3461],[25.5287,54.321],[25.564,54.3031],[25.696,54.321],[25.7192,54.2815],[25.7393,54.2826],[25.7892,54.2362],[25.7719,54.2179],[25.7631,54.1564],[25.6906,54.1482],[25.6535,54.1287],[25.516,54.1448],[25.4858,54.1754],[25.529,54.1957],[25.4993,54.2118],[25.5017,54.2218],[25.554,54.2313],[25.4594,54.2989],[25.3697,54.2479],[25.2062,54.2568],[25.1565,54.1757],[25.072,54.1322],[24.851,54.145],[24.8151,54.1922],[24.7714,54.2079],[24.7699,54.2254],[24.9137,54.3154],[24.9341,54.3794],[24.9938,54.3946],[24.996,54.4513],[24.864,54.4312],[24.8171,54.411],[24.737,54.4057],[24.7191,54.4113],[24.7193,54.4355],[24.656,54.4501],[24.555,54.4267],[24.4499,54.4329],[24.426,54.447],[24.4347,54.4785],[24.4119,54.4993],[24.4228,54.521],[24.4128,54.5439],[24.4415,54.6008],[24.49,54.6091],[24.4949,54.63],[24.4793,54.6438],[24.4737,54.6938],[24.5587,54.7301],[24.6177,54.7262],[24.6565,54.8167],[24.7402,54.8485],[24.8,54.8903],[24.7551,54.9219],[24.6755,54.9321],[24.5488,54.9878],[24.6521,55.061],[24.6381,55.0821],[24.6079,55.0906],[24.5896,55.1213],[24.5368,55.1204],[24.5241,55.1578],[24.4735,55.1902],[24.4734,55.212],[24.4955,55.2235],[24.4226,55.2516],[24.4147,55.2869],[24.3886,55.3165],[24.4156,55.3932],[24.476,55.4064],[24.512,55.4285],[24.5543,55.4872],[24.6274,55.482],[24.6322,55.4913],[24.6008,55.5136],[24.6305,55.5226],[24.7931,55.447],[24.7995,55.4325],[24.7693,55.4077],[24.7848,55.3826],[24.8718,55.3712],[24.8873,55.3478],[24.9538,55.3626],[24.9631,55.3257],[25.0582,55.3252],[25.0557,55.3053],[25.1092,55.2724],[25.1761,55.2682],[25.1484,55.2329],[25.1521,55.2208],[25.2523,55.195],[25.1354,55.1505],[25.126,55.1035],[25.2078,55.0766],[25.2224,55.0417],[25.3491,55.0267],[25.6171,55.0709],[25.736,55.057],[25.7309,55.0774],[25.7588,55.0927],[25.7504,55.1071],[25.7811,55.1305],[25.7194,55.1549],[25.6379,55.2204],[25.6498,55.2479],[25.7083,55.2786],[25.7343,55.327],[25.8148,55.3042],[25.8527,55.3163],[25.8834,55.2916],[25.9311,55.2934],[25.9583,55.2751],[25.9987,55.2862],[26.0311,55.3121],[26.1171,55.3132],[26.1633,55.2919],[26.1489,55.2681],[26.1545,55.2487],[26.216,55.2533],[26.3207,55.2289],[26.4558,55.2251],[26.679,55.2772],[26.7159,55.269],[26.7399,55.2428]]]}}]}
