{"type":"FeatureCollection","features":[{"type":"Feature","id":"Diekirch","properties":{"id":"Diekirch","iso_code":"LU-D","name":"Diekirch","name_full":"Diekirch","name_ja":"ディーキルヒ広域行政区","center_lonlat":[5.9685,49.9221]},"geometry":{"type":"Polygon","coordinates":[[[6.2956,49.8486],[6.2639,49.8411],[6.2561,49.8281],[6.2659,49.8122],[6.2463,49.7906],[6.1847,49.8194],[6.0598,49.8296],[6.0013,49.7813],[5.994,49.7289],[5.8564,49.7058],[5.8054,49.7219],[5.7785,49.773],[5.7277,49.8002],[5.7202,49.8247],[5.7365,49.8394],[5.7269,49.8452],[5.7319,49.86],[5.7581,49.8582],[5.7149,49.8819],[5.7637,49.9468],[5.8126,49.9776],[5.8027,50.0025],[5.8364,50.0185],[5.8377,50.0474],[5.8644,50.0675],[5.8724,50.0969],[5.9411,50.1283],[5.9616,50.1656],[5.9983,50.175],[6.0274,50.1494],[6.0842,50.1593],[6.0971,50.1513],[6.1026,50.1247],[6.1175,50.1205],[6.0994,50.0641],[6.1094,50.0636],[6.0964,50.0486],[6.1138,50.0364],[6.1215,49.9963],[6.1619,49.9425],[6.1727,49.9562],[6.1898,49.9383],[6.2227,49.8871],[6.2956,49.8486]]]}},{"type":"Feature","id":"Grevenmacher","properties":{"id":"Grevenmacher","iso_code":"LU-G","name":"Grevenmacher","name_full":"Grevenmacher","name_ja":"グレーヴェンマハ広域行政区","center_lonlat":[6.3425,49.685]},"geometry":{"type":"Polygon","coordinates":[[[6.2956,49.8486],[6.3026,49.8349],[6.3344,49.8402],[6.3971,49.8086],[6.4972,49.7994],[6.4855,49.7338],[6.4997,49.7122],[6.4027,49.6558],[6.4179,49.6391],[6.3508,49.5666],[6.3453,49.4553],[6.2511,49.4895],[6.2339,49.5536],[6.2988,49.5875],[6.2851,49.6091],[6.3122,49.6272],[6.2783,49.6802],[6.1746,49.69],[6.2201,49.7369],[6.263,49.7467],[6.2746,49.7701],[6.2463,49.7906],[6.2659,49.8122],[6.2561,49.8281],[6.2639,49.8411],[6.2956,49.8486]]]}},{"type":"Feature","id":"Luxembourg","properties":{"id":"Luxembourg","iso_code":"LU-L","name":"Luxembourg","name_full":"Luxembourg","name_ja":"ルクセンブルグ","center_lonlat":[6.0652,49.6263]},"geometry":{"type":"Polygon","coordinates":[[[5.8564,49.7058],[5.994,49.7289],[6.0013,49.7813],[6.0598,49.8296],[6.1847,49.8194],[6.2463,49.7906],[6.2746,49.7701],[6.263,49.7467],[6.2201,49.7369],[6.1746,49.69],[6.2783,49.6802],[6.3122,49.6272],[6.2851,49.6091],[6.2988,49.5875],[6.2339,49.5536],[6.2511,49.4895],[6.1361,49.4953],[6.1426,49.4861],[6.1073,49.4825],[6.078,49.452],[5.9607,49.4413],[5.9281,49.4823],[5.8396,49.4999],[5.7907,49.5378],[5.8374,49.5611],[5.8469,49.5767],[5.83,49.5828],[5.8855,49.6435],[5.8799,49.6577],[5.8423,49.6739],[5.8564,49.7058]]]}}]}
