{"type":"FeatureCollection","features":[{"type":"Feature","id":"Johor","properties":{"id":"Johor","iso_code":"MY-01","name":"Johor","name_full":"Johor","name_ja":"ジョホール州","center_lonlat":[103.3841,2.0489]},"geometry":{"type":"MultiPolygon","coordinates":[[[[103.6403,2.6713],[103.7162,2.6415],[103.7651,2.6489],[103.7671,2.6238],[103.814,2.5815],[103.8397,2.5248],[103.8303,2.4824],[103.8377,2.4638],[103.949,2.3399],[103.9558,2.2983],[103.9837,2.2536],[103.9694,2.2127],[103.9764,2.1924],[104.0233,2.1345],[104.0488,2.0718],[104.1128,1.9761],[104.1243,1.8706],[104.1492,1.8375],[104.1675,1.8471],[104.1953,1.7987],[104.2295,1.6783],[104.2552,1.6378],[104.2937,1.4716],[104.2774,1.3673],[104.2396,1.3673],[104.2192,1.3462],[104.1741,1.3482],[104.1062,1.3752],[104.1006,1.4188],[104.065,1.4486],[104.0594,1.4853],[104.1232,1.5175],[104.1476,1.5454],[104.1112,1.5451],[104.0534,1.5063],[104.0122,1.5969],[103.966,1.6479],[103.9704,1.6086],[104.0083,1.5487],[104.0098,1.4486],[103.9745,1.4198],[103.8397,1.4765],[103.7531,1.4486],[103.6976,1.4506],[103.6001,1.3535],[103.5647,1.3598],[103.5479,1.3821],[103.5485,1.3317],[103.5164,1.2705],[103.4548,1.3394],[103.4139,1.4678],[103.3674,1.5384],[103.2061,1.6104],[103.0371,1.7155],[102.9346,1.7475],[102.8875,1.8071],[102.8356,1.8456],[102.8045,1.8601],[102.7388,1.8466],[102.6994,1.8594],[102.6506,1.9409],[102.5576,2.0187],[102.5573,2.0451],[102.4889,2.093],[102.5061,2.1202],[102.5306,2.1237],[102.5365,2.1365],[102.5354,2.1711],[102.4882,2.1896],[102.4806,2.2079],[102.502,2.2338],[102.5197,2.3498],[102.5469,2.3904],[102.5994,2.4217],[102.6211,2.4813],[102.6195,2.5614],[102.642,2.6049],[102.6341,2.6339],[102.7046,2.839],[102.8144,2.7947],[102.9921,2.5952],[103.155,2.5294],[103.3081,2.5853],[103.3645,2.5939],[103.446,2.557],[103.6185,2.4459],[103.636,2.4948],[103.6024,2.5308],[103.6239,2.6021],[103.6002,2.6324],[103.6403,2.6713]]],[[[104.2227,2.7856],[104.2251,2.7359],[104.2108,2.7151],[104.1721,2.7077],[104.1306,2.7458],[104.127,2.7856],[104.1603,2.8179],[104.1538,2.8641],[104.1707,2.8911],[104.1862,2.8853],[104.2227,2.7856]]]]}},{"type":"Feature","id":"Kedah","properties":{"id":"Kedah","iso_code":"MY-02","name":"Kedah","name_full":"Kedah","name_ja":"ケダ州","center_lonlat":[100.6569,5.9165]},"geometry":{"type":"MultiPolygon","coordinates":[[[[100.3777,6.5268],[100.4672,6.5132],[100.5174,6.4819],[100.6307,6.4448],[100.73,6.4932],[100.7339,6.4564],[100.7733,6.4473],[100.8056,6.4148],[100.8107,6.3558],[100.829,6.3163],[100.8221,6.2599],[100.833,6.2367],[100.8551,6.2479],[100.9101,6.2358],[100.9743,6.2726],[101.0231,6.241],[101.0817,6.2465],[101.0892,6.1888],[101.0534,6.1576],[101.0525,6.1346],[101.0943,6.0858],[101.0788,5.9382],[101.0711,5.9198],[101.0153,5.8983],[100.9677,5.8041],[100.9724,5.7729],[100.9546,5.7663],[100.9843,5.7221],[100.97,5.6591],[100.9288,5.6133],[100.9495,5.5852],[100.9433,5.538],[100.9179,5.5002],[100.8951,5.5001],[100.8788,5.478],[100.8527,5.3541],[100.833,5.3362],[100.7557,5.3156],[100.6862,5.2073],[100.6153,5.1442],[100.5709,5.0845],[100.5175,5.0991],[100.5037,5.1342],[100.5466,5.1292],[100.5591,5.1428],[100.5249,5.4692],[100.5332,5.5498],[100.3543,5.569],[100.344,5.6693],[100.3763,5.6633],[100.3864,5.6791],[100.3645,5.6941],[100.3757,5.8109],[100.3491,6.0127],[100.2479,6.2208],[100.1987,6.2605],[100.2143,6.299],[100.3655,6.4558],[100.3777,6.5268]]],[[[99.9006,6.3643],[99.9163,6.3315],[99.8705,6.3049],[99.8657,6.2905],[99.8494,6.3007],[99.8446,6.3247],[99.8253,6.3241],[99.778,6.283],[99.7287,6.2615],[99.7155,6.3101],[99.719,6.3532],[99.6587,6.3626],[99.6452,6.4358],[99.6694,6.4269],[99.7214,6.4342],[99.7709,6.4198],[99.8143,6.454],[99.8392,6.4548],[99.8328,6.4709],[99.842,6.4696],[99.8665,6.4297],[99.9133,6.3902],[99.9006,6.3643]]],[[[99.7863,6.2418],[99.8004,6.2728],[99.837,6.2942],[99.8249,6.2577],[99.8264,6.1907],[99.8056,6.1718],[99.7672,6.2238],[99.7863,6.2418]]]]}},{"type":"Feature","id":"Kelantan","properties":{"id":"Kelantan","iso_code":"MY-03","name":"Kelantan","name_full":"Kelantan","name_ja":"クランタン州","center_lonlat":[102.0324,5.2854]},"geometry":{"type":"Polygon","coordinates":[[[102.542,5.8548],[102.3863,5.686],[102.4058,5.6084],[102.3942,5.4273],[102.4403,5.3694],[102.4224,5.3154],[102.412,5.188],[102.4738,5.1545],[102.5286,5.1061],[102.5031,5.0758],[102.5152,5.0218],[102.5003,5.0016],[102.5112,4.9151],[102.5281,4.9016],[102.5472,4.9088],[102.5756,4.8968],[102.6362,4.8583],[102.6653,4.7906],[102.6606,4.7684],[102.619,4.7815],[102.6066,4.7739],[102.6025,4.6945],[102.5525,4.7082],[102.507,4.6739],[102.4505,4.7122],[102.4029,4.7182],[102.372,4.704],[102.372,4.6842],[102.3433,4.645],[102.277,4.6622],[102.2277,4.637],[102.179,4.6637],[102.1734,4.6842],[102.1288,4.7212],[102.1161,4.7591],[102.0426,4.7338],[102.0015,4.763],[101.9807,4.7525],[101.9676,4.7626],[101.9543,4.7465],[101.9445,4.6737],[101.9121,4.6178],[101.8976,4.629],[101.8919,4.6705],[101.8503,4.6948],[101.845,4.7157],[101.8206,4.7262],[101.8145,4.76],[101.802,4.7631],[101.7777,4.7431],[101.7672,4.6356],[101.7276,4.6221],[101.648,4.5619],[101.5926,4.5607],[101.5215,4.5994],[101.4878,4.5902],[101.4729,4.5703],[101.3791,4.6128],[101.3434,4.6818],[101.3556,4.7005],[101.3879,4.7099],[101.385,4.7506],[101.4191,4.7933],[101.4106,4.8307],[101.449,4.8543],[101.4614,4.8882],[101.4565,4.9407],[101.4351,4.9746],[101.4566,4.9951],[101.4973,5.1853],[101.5288,5.2722],[101.5513,5.2753],[101.5845,5.3331],[101.6169,5.3599],[101.6764,5.3336],[101.7279,5.3489],[101.7499,5.3686],[101.7502,5.4986],[101.7218,5.5154],[101.7031,5.5091],[101.6694,5.5222],[101.6874,5.5819],[101.6675,5.6128],[101.6644,5.6582],[101.6944,5.6949],[101.6976,5.7671],[101.7268,5.7865],[101.7629,5.7495],[101.8005,5.7399],[101.8255,5.7798],[101.9129,5.8593],[101.9347,5.9817],[102.06,6.0948],[102.0713,6.1267],[102.0731,6.2575],[102.1636,6.1975],[102.1917,6.2151],[102.1668,6.218],[102.1781,6.2336],[102.1996,6.2328],[102.3381,6.177],[102.3799,6.133],[102.4998,5.8974],[102.542,5.8548]]]}},{"type":"Feature","id":"Kuala Lumpur","properties":{"id":"Kuala Lumpur","iso_code":"MY-14","name":"Kuala Lumpur","name_full":"Kuala Lumpur","name_ja":"クアラルンプール","center_lonlat":[101.6945,3.1358]},"geometry":{"type":"Polygon","coordinates":[[[101.6685,3.2322],[101.7083,3.207],[101.7462,3.2147],[101.7622,3.1819],[101.7418,3.1263],[101.752,3.0522],[101.7279,3.0269],[101.7169,3.0379],[101.6621,3.0407],[101.6654,3.0859],[101.6248,3.1441],[101.6224,3.1821],[101.6406,3.2154],[101.6685,3.2322]]]}},{"type":"Feature","id":"Labuan","properties":{"id":"Labuan","iso_code":"MY-15","name":"Labuan","name_full":"Labuan","name_ja":"ラブアン","center_lonlat":[115.2167,5.3174]},"geometry":{"type":"Polygon","coordinates":[[[115.2485,5.3655],[115.2593,5.2912],[115.2417,5.2727],[115.2041,5.2836],[115.1592,5.2522],[115.1891,5.3448],[115.2417,5.3874],[115.2485,5.3655]]]}},{"type":"Feature","id":"Melaka","properties":{"id":"Melaka","iso_code":"MY-04","name":"Melaka","name_full":"Melaka","name_ja":"ムラカ州","center_lonlat":[102.3106,2.325]},"geometry":{"type":"Polygon","coordinates":[[[102.4889,2.093],[102.1543,2.2357],[102.0513,2.3409],[101.999,2.3616],[101.9885,2.3913],[102.0465,2.4377],[102.0609,2.4273],[102.0747,2.4596],[102.1497,2.4675],[102.1804,2.4923],[102.2673,2.4633],[102.3837,2.4879],[102.4566,2.4549],[102.5994,2.4217],[102.5469,2.3904],[102.5197,2.3498],[102.502,2.2338],[102.4806,2.2079],[102.4882,2.1896],[102.5354,2.1711],[102.5365,2.1365],[102.5306,2.1237],[102.5061,2.1202],[102.4889,2.093]]]}},{"type":"Feature","id":"Negeri Sembilan","properties":{"id":"Negeri Sembilan","iso_code":"MY-05","name":"Negeri Sembilan","name_full":"Negeri Sembilan","name_ja":"ヌグリ・スンビラン州","center_lonlat":[102.2103,2.7755]},"geometry":{"type":"Polygon","coordinates":[[[101.9885,2.3913],[101.9268,2.4224],[101.8652,2.3945],[101.8511,2.4789],[101.8032,2.518],[101.7831,2.5759],[101.761,2.5921],[101.7212,2.5958],[101.7726,2.7382],[101.7595,2.8628],[101.8551,2.8568],[101.88,2.871],[101.9025,2.9394],[101.9313,2.9659],[101.942,3.0176],[101.9634,3.033],[101.9617,3.1425],[101.9445,3.1832],[101.9457,3.2213],[101.916,3.2606],[101.9397,3.2823],[102.0002,3.2285],[102.0493,3.2233],[102.069,3.1717],[102.1302,3.1945],[102.3045,3.132],[102.3886,3.1179],[102.4663,3.0292],[102.6681,2.8918],[102.6873,2.8965],[102.7046,2.839],[102.6341,2.6339],[102.642,2.6049],[102.6195,2.5614],[102.6211,2.4813],[102.5994,2.4217],[102.4566,2.4549],[102.3837,2.4879],[102.2673,2.4633],[102.1804,2.4923],[102.1497,2.4675],[102.0747,2.4596],[102.0609,2.4273],[102.0465,2.4377],[101.9885,2.3913]]]}},{"type":"Feature","id":"Pahang","properties":{"id":"Pahang","iso_code":"MY-06","name":"Pahang","name_full":"Pahang","name_ja":"パハン州","center_lonlat":[102.5474,3.7359]},"geometry":{"type":"Polygon","coordinates":[[[103.4428,4.169],[103.404,4.1318],[103.3941,4.0986],[103.438,3.975],[103.4343,3.95],[103.4116,3.9639],[103.3947,3.935],[103.3784,3.8024],[103.361,3.802],[103.3387,3.7582],[103.3872,3.6247],[103.4622,3.5341],[103.448,3.505],[103.4822,3.5118],[103.4334,3.4084],[103.4281,3.3672],[103.4561,3.2038],[103.4346,2.9618],[103.4736,2.851],[103.5202,2.789],[103.6403,2.6713],[103.6002,2.6324],[103.6239,2.6021],[103.6024,2.5308],[103.636,2.4948],[103.6185,2.4459],[103.446,2.557],[103.3645,2.5939],[103.3081,2.5853],[103.155,2.5294],[102.9921,2.5952],[102.8144,2.7947],[102.7046,2.839],[102.6873,2.8965],[102.6681,2.8918],[102.4663,3.0292],[102.3886,3.1179],[102.3045,3.132],[102.1302,3.1945],[102.069,3.1717],[102.0493,3.2233],[102.0002,3.2285],[101.9397,3.2823],[101.916,3.2606],[101.8303,3.2892],[101.765,3.3733],[101.7859,3.4258],[101.7656,3.4995],[101.7862,3.5412],[101.8055,3.5532],[101.8134,3.5976],[101.7716,3.6689],[101.6681,3.7157],[101.6269,3.7718],[101.5989,3.7976],[101.6014,3.867],[101.5805,3.9065],[101.5744,3.9798],[101.5608,4.0042],[101.5849,4.082],[101.551,4.1247],[101.522,4.1273],[101.5116,4.2009],[101.4653,4.2206],[101.4695,4.2521],[101.4541,4.277],[101.4525,4.3184],[101.4332,4.3442],[101.4458,4.382],[101.3702,4.4024],[101.342,4.4315],[101.3863,4.4997],[101.3627,4.5579],[101.3791,4.6128],[101.4729,4.5703],[101.4878,4.5902],[101.5215,4.5994],[101.5926,4.5607],[101.648,4.5619],[101.7276,4.6221],[101.7672,4.6356],[101.7777,4.7431],[101.802,4.7631],[101.8145,4.76],[101.8206,4.7262],[101.845,4.7157],[101.8503,4.6948],[101.8919,4.6705],[101.8976,4.629],[101.9121,4.6178],[101.9445,4.6737],[101.9543,4.7465],[101.9676,4.7626],[101.9807,4.7525],[102.0015,4.763],[102.0426,4.7338],[102.1161,4.7591],[102.1288,4.7212],[102.1734,4.6842],[102.179,4.6637],[102.2277,4.637],[102.277,4.6622],[102.3433,4.645],[102.372,4.6842],[102.372,4.704],[102.4029,4.7182],[102.4505,4.7122],[102.507,4.6739],[102.5525,4.7082],[102.6025,4.6945],[102.6066,4.7739],[102.619,4.7815],[102.6606,4.7684],[102.6904,4.7174],[102.7345,4.6893],[102.829,4.6809],[102.8625,4.659],[102.881,4.6129],[102.8708,4.5738],[102.8433,4.5471],[102.8575,4.4982],[102.8875,4.4699],[102.9488,4.4561],[102.9751,4.4753],[103.0245,4.4128],[103.0139,4.3386],[102.9648,4.325],[102.934,4.2732],[102.9207,4.1735],[102.9033,4.1408],[102.922,4.1107],[103.0082,4.1345],[103.1185,4.087],[103.177,4.0359],[103.2034,4.0382],[103.2137,4.0152],[103.2397,4.0175],[103.2773,3.9558],[103.2791,3.9303],[103.3202,3.8753],[103.3209,3.9057],[103.3437,3.9494],[103.3233,4.0093],[103.3264,4.0444],[103.3032,4.0792],[103.3246,4.1431],[103.3186,4.1936],[103.3452,4.18],[103.4428,4.169]]]}},{"type":"Feature","id":"Penang","properties":{"id":"Penang","iso_code":"MY-07","name":"Penang","name_full":"Penang","name_ja":"ペナン州","center_lonlat":[100.4683,5.3526]},"geometry":{"type":"MultiPolygon","coordinates":[[[[100.4041,5.1202],[100.4309,5.1906],[100.419,5.2485],[100.4333,5.29],[100.3802,5.3907],[100.3849,5.4993],[100.3543,5.569],[100.5332,5.5498],[100.5249,5.4692],[100.5591,5.1428],[100.5466,5.1292],[100.5037,5.1342],[100.4041,5.1202]]],[[[100.3098,5.4508],[100.3434,5.4176],[100.2887,5.2627],[100.1843,5.2685],[100.179,5.278],[100.1961,5.3],[100.1795,5.4582],[100.1921,5.463],[100.2106,5.444],[100.2347,5.4645],[100.2741,5.4685],[100.3098,5.4508]]]]}},{"type":"Feature","id":"Perak","properties":{"id":"Perak","iso_code":"MY-08","name":"Perak","name_full":"Perak","name_ja":"ペラ州","center_lonlat":[101.1134,4.7692]},"geometry":{"type":"Polygon","coordinates":[[[100.9724,5.7729],[100.9986,5.7295],[101.0598,5.7096],[101.1054,5.6376],[101.1222,5.6299],[101.2123,5.6815],[101.249,5.787],[101.5579,5.9113],[101.5793,5.9063],[101.6051,5.8661],[101.6341,5.8556],[101.6308,5.8284],[101.6659,5.7656],[101.6976,5.7671],[101.6944,5.6949],[101.6644,5.6582],[101.6675,5.6128],[101.6874,5.5819],[101.6694,5.5222],[101.7031,5.5091],[101.7218,5.5154],[101.7502,5.4986],[101.7499,5.3686],[101.7279,5.3489],[101.6764,5.3336],[101.6169,5.3599],[101.5845,5.3331],[101.5513,5.2753],[101.5288,5.2722],[101.4973,5.1853],[101.4566,4.9951],[101.4351,4.9746],[101.4565,4.9407],[101.4614,4.8882],[101.449,4.8543],[101.4106,4.8307],[101.4191,4.7933],[101.385,4.7506],[101.3879,4.7099],[101.3556,4.7005],[101.3434,4.6818],[101.3791,4.6128],[101.3627,4.5579],[101.3863,4.4997],[101.342,4.4315],[101.3702,4.4024],[101.4458,4.382],[101.4332,4.3442],[101.4525,4.3184],[101.4541,4.277],[101.4695,4.2521],[101.4653,4.2206],[101.5116,4.2009],[101.522,4.1273],[101.551,4.1247],[101.5849,4.082],[101.5608,4.0042],[101.5744,3.9798],[101.5805,3.9065],[101.6014,3.867],[101.5989,3.7976],[101.6269,3.7718],[101.6061,3.764],[101.5432,3.6888],[101.5144,3.675],[101.3803,3.789],[101.3415,3.7914],[101.3251,3.7662],[101.3471,3.7033],[101.316,3.6769],[101.2656,3.6683],[101.2405,3.7167],[101.1749,3.7152],[101.1589,3.736],[101.1455,3.7302],[101.1328,3.7526],[101.1094,3.7335],[101.0807,3.7303],[101.0817,3.7479],[101.1044,3.7506],[101.0925,3.7763],[101.0617,3.7531],[101.0585,3.7857],[101.0351,3.7842],[101.0198,3.8002],[100.9684,3.7732],[100.9762,3.8063],[100.9433,3.8333],[100.9395,3.8611],[100.8406,3.8428],[100.8454,3.8513],[100.834,3.8544],[100.7848,3.8393],[100.7601,3.8472],[100.7207,3.8681],[100.7034,3.8989],[100.7063,3.9836],[100.8015,3.9911],[100.8346,4.0185],[100.8714,4.0189],[100.8615,4.0404],[100.8032,4.0189],[100.7776,4.0214],[100.7761,4.0865],[100.7659,4.0998],[100.6777,4.1652],[100.6555,4.1695],[100.6326,4.1555],[100.6226,4.1758],[100.6152,4.2517],[100.6003,4.2565],[100.591,4.3],[100.5654,4.3192],[100.6455,4.56],[100.6302,4.5539],[100.5973,4.5719],[100.5944,4.6109],[100.617,4.6383],[100.6326,4.6291],[100.6662,4.6699],[100.6042,4.6658],[100.5945,4.7431],[100.6326,4.7656],[100.6121,4.7724],[100.6174,4.7929],[100.5762,4.7993],[100.5774,4.8543],[100.5531,4.862],[100.5501,4.8754],[100.4944,4.8723],[100.5153,4.8891],[100.511,4.9069],[100.4817,4.9247],[100.4539,4.9089],[100.4416,4.9228],[100.3645,5.0843],[100.4041,5.1202],[100.5037,5.1342],[100.5175,5.0991],[100.5709,5.0845],[100.6153,5.1442],[100.6862,5.2073],[100.7557,5.3156],[100.833,5.3362],[100.8527,5.3541],[100.8788,5.478],[100.8951,5.5001],[100.9179,5.5002],[100.9433,5.538],[100.9495,5.5852],[100.9288,5.6133],[100.97,5.6591],[100.9843,5.7221],[100.9546,5.7663],[100.9724,5.7729]]]}},{"type":"Feature","id":"Perlis","properties":{"id":"Perlis","iso_code":"MY-09","name":"Perlis","name_full":"Perlis","name_ja":"プルリス州","center_lonlat":[100.2369,6.4984]},"geometry":{"type":"Polygon","coordinates":[[[100.3777,6.5268],[100.3655,6.4558],[100.2143,6.299],[100.1987,6.2605],[100.1528,6.3339],[100.1273,6.4423],[100.1444,6.4796],[100.1457,6.5395],[100.1672,6.5661],[100.1561,6.6206],[100.1733,6.7034],[100.1876,6.708],[100.2124,6.6892],[100.274,6.6963],[100.3292,6.5578],[100.3777,6.5268]]]}},{"type":"Feature","id":"Putrajaya","properties":{"id":"Putrajaya","iso_code":"MY-16","name":"Putrajaya","name_full":"Putrajaya","name_ja":"プトラジャヤ","center_lonlat":[101.6972,2.9292]},"geometry":{"type":"Polygon","coordinates":[[[101.713,2.9812],[101.7304,2.9289],[101.7029,2.8886],[101.6771,2.8755],[101.6669,2.8939],[101.6779,2.9188],[101.6716,2.9604],[101.713,2.9812]]]}},{"type":"Feature","id":"Sabah","properties":{"id":"Sabah","iso_code":"MY-12","name":"Sabah","name_full":"Sabah","name_ja":"サバ州","center_lonlat":[117.1251,5.3342]},"geometry":{"type":"MultiPolygon","coordinates":[[[[115.6391,4.146],[115.6279,4.2208],[115.6664,4.2803],[115.6735,4.3233],[115.6441,4.3625],[115.5906,4.3881],[115.584,4.4485],[115.5601,4.4969],[115.557,4.5735],[115.5959,4.6539],[115.6078,4.7268],[115.6385,4.7637],[115.6585,4.8248],[115.6363,4.9405],[115.6093,4.9605],[115.514,4.9525],[115.4216,4.9623],[115.4797,5.026],[115.5317,5.0446],[115.557,5.0672],[115.5735,5.1697],[115.6052,5.2121],[115.5986,5.2255],[115.5608,5.2078],[115.5238,5.2088],[115.4898,5.223],[115.4006,5.3],[115.3997,5.3242],[115.3652,5.3074],[115.3626,5.3339],[115.3926,5.4133],[115.4564,5.4543],[115.4795,5.4897],[115.5501,5.5402],[115.6048,5.6358],[115.6188,5.6129],[115.5843,5.5485],[115.6048,5.5197],[115.6192,5.5681],[115.6741,5.5294],[115.7624,5.5231],[115.8177,5.5334],[115.8486,5.56],[115.8942,5.6433],[115.9307,5.763],[116.0508,5.8423],[116.0664,5.9306],[116.1419,6.0731],[116.1262,6.1025],[116.1038,6.0947],[116.096,6.1077],[116.106,6.1265],[116.1541,6.1473],[116.2227,6.2372],[116.2522,6.2459],[116.2915,6.2326],[116.2927,6.2758],[116.2361,6.2726],[116.2832,6.3074],[116.32,6.3134],[116.3477,6.3796],[116.5032,6.4952],[116.5207,6.5688],[116.5515,6.5884],[116.639,6.6993],[116.6692,6.8764],[116.7058,6.9053],[116.7189,6.9754],[116.7551,7.0187],[116.7774,7.0268],[116.7909,7.0001],[116.8381,6.9621],[116.8518,6.8902],[116.8225,6.9041],[116.8108,6.8629],[116.8524,6.8385],[116.8587,6.8179],[116.8439,6.7523],[116.7927,6.6697],[116.7785,6.6265],[116.7839,6.5916],[116.8245,6.5817],[116.8455,6.592],[116.8731,6.6284],[116.9738,6.7081],[116.9841,6.755],[117.0579,6.8455],[117.0305,6.9311],[117.0386,6.9426],[117.0681,6.938],[117.0833,6.9485],[117.0784,6.9926],[117.1199,6.9858],[117.1502,7.0031],[117.2565,6.938],[117.251,6.8728],[117.2328,6.8555],[117.2303,6.8175],[117.272,6.7537],[117.2959,6.6363],[117.3648,6.6251],[117.4585,6.5476],[117.4749,6.5515],[117.5337,6.621],[117.5376,6.5783],[117.565,6.5544],[117.5581,6.5401],[117.6033,6.5147],[117.6409,6.5217],[117.6953,6.4514],[117.7107,6.4638],[117.7271,6.4512],[117.7438,6.3899],[117.7285,6.3624],[117.7388,6.3357],[117.723,6.2546],[117.6563,6.2528],[117.6004,6.1978],[117.6433,6.1175],[117.6611,6.1056],[117.6611,6.0678],[117.6333,6.0399],[117.6399,6.0234],[117.6683,6.0134],[117.669,5.9726],[117.6196,5.9374],[117.4928,5.8947],[117.4688,5.8686],[117.5693,5.9029],[117.7743,5.908],[117.7717,5.9443],[117.884,5.9547],[117.9736,6.0478],[118.0169,6.061],[118.051,6.0262],[118.0537,5.9963],[118.071,5.9874],[118.0772,5.9316],[118.1252,5.8639],[118.096,5.8242],[118.0588,5.809],[117.9212,5.809],[117.9085,5.7847],[117.9603,5.6872],[118.0547,5.7183],[118.0789,5.7047],[118.1066,5.7126],[118.134,5.6896],[118.1515,5.7051],[118.1471,5.7246],[118.1672,5.7644],[118.1608,5.7934],[118.1763,5.8052],[118.2622,5.8279],[118.3407,5.7943],[118.3652,5.8138],[118.594,5.6821],[118.5996,5.6693],[118.5785,5.6463],[118.562,5.568],[118.5654,5.5259],[118.6006,5.5813],[118.603,5.6187],[118.6511,5.6364],[118.7366,5.5478],[118.8001,5.5221],[118.8193,5.4781],[118.8324,5.5054],[118.9188,5.455],[118.9357,5.434],[118.9395,5.4128],[118.9217,5.403],[118.9326,5.3941],[118.9764,5.3956],[118.9709,5.4283],[118.9839,5.4365],[119.0857,5.4099],[119.1893,5.4508],[119.2743,5.3612],[119.2671,5.2011],[119.1956,5.1286],[119.1559,5.1062],[118.6815,4.9443],[118.5723,4.9716],[118.4994,4.9315],[118.4284,5.0188],[118.3572,5.0388],[118.3049,4.9989],[118.2917,5.0009],[118.2913,4.9779],[118.2527,4.9871],[118.217,4.9658],[118.1365,4.8823],[118.1349,4.8596],[118.178,4.8308],[118.219,4.7563],[118.2776,4.6951],[118.3335,4.6516],[118.3805,4.6426],[118.4111,4.6015],[118.4284,4.5943],[118.4308,4.6113],[118.4446,4.6149],[118.4767,4.6011],[118.4895,4.5751],[118.4694,4.5372],[118.4966,4.5083],[118.5049,4.5024],[118.5519,4.5328],[118.5996,4.5192],[118.594,4.5055],[118.6458,4.4368],[118.6262,4.4193],[118.5921,4.4291],[118.5928,4.3974],[118.5569,4.3635],[118.3919,4.3464],[118.3533,4.3615],[118.3325,4.339],[118.1608,4.3062],[118.0046,4.2316],[117.9827,4.2311],[117.8923,4.257],[117.8225,4.3062],[117.8083,4.3336],[117.7075,4.3699],[117.6712,4.426],[117.656,4.4242],[117.6058,4.382],[117.6288,4.3618],[117.6333,4.3096],[117.6537,4.2722],[117.599,4.2069],[117.6271,4.1765],[117.5671,4.1597],[117.5422,4.1738],[117.4365,4.1856],[117.3566,4.2595],[117.2027,4.3561],[117.1647,4.3331],[116.9806,4.3296],[116.883,4.3449],[116.8045,4.3301],[116.7117,4.3668],[116.68,4.3399],[116.6418,4.3339],[116.6155,4.3441],[116.5902,4.3311],[116.5769,4.332],[116.5222,4.3968],[116.4865,4.3488],[116.4941,4.3249],[116.4859,4.3169],[116.4464,4.3173],[116.4113,4.2887],[116.3911,4.2947],[116.3582,4.3554],[116.3375,4.3572],[116.3107,4.3834],[116.2288,4.3561],[116.1258,4.3789],[116.1099,4.3451],[116.0206,4.2709],[115.9936,4.2889],[115.9772,4.3286],[115.8788,4.3521],[115.8561,4.3908],[115.831,4.3761],[115.8175,4.2813],[115.7794,4.2489],[115.7707,4.2256],[115.7326,4.2394],[115.676,4.1842],[115.6559,4.1786],[115.6391,4.146]]],[[[117.1712,7.3427],[117.2463,7.3558],[117.2819,7.3323],[117.2624,7.202],[117.2471,7.1832],[117.2297,7.1918],[117.1404,7.1676],[117.0989,7.1435],[117.0715,7.1025],[117.0564,7.2029],[117.0677,7.28],[117.1712,7.3427]]],[[[117.7036,4.1634],[117.6401,4.2274],[117.7017,4.2675],[117.7854,4.2466],[117.8177,4.2047],[117.8963,4.1813],[117.907,4.1567],[117.7036,4.1634]]],[[[117.4688,6.7667],[117.5108,6.7043],[117.5066,6.6735],[117.443,6.6357],[117.3817,6.6394],[117.3469,6.655],[117.355,6.6796],[117.4439,6.6986],[117.4393,6.7239],[117.4036,6.7258],[117.3999,6.7393],[117.4688,6.7667]]],[[[118.5103,4.6489],[118.5238,4.6657],[118.5495,4.6652],[118.5996,4.6352],[118.5754,4.6274],[118.5723,4.6011],[118.5481,4.6216],[118.5352,4.6013],[118.3464,4.6762],[118.4253,4.6762],[118.4563,4.6973],[118.4761,4.6938],[118.5103,4.6489]]],[[[117.0026,7.3557],[117.0227,7.3188],[117.01,7.28],[116.9915,7.2972],[116.9767,7.2902],[116.9714,7.2714],[116.9822,7.2533],[116.8865,7.2294],[116.9051,7.2089],[116.891,7.1937],[116.8518,7.1981],[116.9002,7.2874],[116.9617,7.3079],[117.0026,7.3557]]],[[[118.7262,4.4919],[118.7488,4.4855],[118.7561,4.4572],[118.6958,4.4509],[118.6748,4.4366],[118.6441,4.4953],[118.7262,4.4919]]],[[[118.2195,5.8555],[118.2331,5.8511],[118.2308,5.8319],[118.1892,5.8197],[118.1655,5.8275],[118.181,5.8513],[118.2195,5.8555]]]]}},{"type":"Feature","id":"Sarawak","properties":{"id":"Sarawak","iso_code":"MY-13","name":"Sarawak","name_full":"Sarawak","name_ja":"サラワク州","center_lonlat":[113.2868,2.5885]},"geometry":{"type":"MultiPolygon","coordinates":[[[[115.4216,4.9623],[115.514,4.9525],[115.6093,4.9605],[115.6363,4.9405],[115.6585,4.8248],[115.6385,4.7637],[115.6078,4.7268],[115.5959,4.6539],[115.557,4.5735],[115.5601,4.4969],[115.584,4.4485],[115.5906,4.3881],[115.6441,4.3625],[115.6735,4.3233],[115.6664,4.2803],[115.6279,4.2208],[115.6391,4.146],[115.6095,3.9969],[115.581,3.9469],[115.5388,3.9206],[115.5383,3.8978],[115.5886,3.8576],[115.5894,3.8245],[115.5505,3.7082],[115.5444,3.6292],[115.6012,3.4302],[115.585,3.4168],[115.5572,3.4255],[115.5176,3.3572],[115.4828,3.2065],[115.4835,3.189],[115.517,3.1573],[115.4822,3.111],[115.4641,3.0308],[115.31,2.9859],[115.2421,3.0416],[115.208,2.9807],[115.1228,2.9129],[115.0991,2.8597],[115.0691,2.8326],[115.1046,2.7615],[115.0936,2.737],[115.057,2.7113],[115.0719,2.6718],[115.0565,2.6086],[115.0715,2.5946],[115.115,2.6079],[115.152,2.5971],[115.1924,2.5511],[115.2061,2.5099],[115.1927,2.4905],[115.105,2.4657],[115.0674,2.4231],[114.973,2.3575],[114.9222,2.3539],[114.9133,2.284],[114.809,2.2647],[114.7788,2.2472],[114.753,2.1348],[114.7806,2.0361],[114.8411,2.0382],[114.832,1.9025],[114.7631,1.8687],[114.6992,1.8581],[114.6795,1.8407],[114.669,1.694],[114.6245,1.5988],[114.5632,1.5364],[114.568,1.4694],[114.5456,1.435],[114.5006,1.436],[114.4214,1.4922],[114.3749,1.5069],[114.1734,1.4205],[114.1309,1.4542],[114.0943,1.4657],[113.9097,1.4425],[113.8682,1.4155],[113.8082,1.3397],[113.6495,1.2333],[113.6248,1.2276],[113.5245,1.3136],[113.4429,1.2924],[113.3976,1.2939],[113.3237,1.3514],[113.1586,1.3882],[113.089,1.4313],[113.0506,1.4348],[112.9582,1.4157],[112.9612,1.4344],[113.0073,1.4733],[113.0243,1.5144],[113.0141,1.5508],[112.9732,1.5699],[112.855,1.5827],[112.8015,1.5438],[112.4705,1.5677],[112.4459,1.5621],[112.3985,1.5233],[112.2952,1.5038],[112.1616,1.4345],[112.1541,1.4095],[112.1818,1.4],[112.1874,1.3797],[112.0929,1.1431],[111.9734,1.134],[111.9101,1.114],[111.8231,1.0085],[111.7628,0.993],[111.6552,1.0308],[111.6227,1.0303],[111.5389,0.9977],[111.5032,0.9584],[111.4721,1.0222],[111.3741,1.0075],[111.1976,1.0752],[110.9734,1.0177],[110.8804,1.0105],[110.797,0.9497],[110.7767,0.9033],[110.7583,0.9145],[110.7248,0.8973],[110.7042,0.9014],[110.6613,0.8721],[110.6134,0.894],[110.5961,0.8711],[110.5539,0.8514],[110.5064,0.8573],[110.4603,0.8797],[110.3641,0.9814],[110.3008,0.9977],[110.2635,0.9943],[110.2566,1.0391],[110.1704,1.1745],[110.0746,1.1986],[110.0121,1.2705],[109.9638,1.2986],[109.9202,1.3948],[109.8428,1.4033],[109.8006,1.4668],[109.7756,1.4579],[109.7664,1.4965],[109.6773,1.5729],[109.647,1.6176],[109.6418,1.781],[109.567,1.7926],[109.5347,1.839],[109.5294,1.9052],[109.6003,1.9831],[109.6453,2.0832],[109.6636,1.9831],[109.6546,1.937],[109.693,1.8731],[109.7318,1.8396],[109.8867,1.7602],[109.9277,1.6923],[110.1677,1.7019],[110.2117,1.682],[110.2542,1.7062],[110.2908,1.674],[110.3079,1.7093],[110.301,1.7707],[110.3294,1.8026],[110.343,1.7975],[110.3665,1.7159],[110.3901,1.699],[110.4212,1.6957],[110.4436,1.7187],[110.508,1.7409],[110.5208,1.723],[110.4656,1.6206],[110.5064,1.633],[110.5363,1.5969],[110.589,1.6063],[110.7267,1.5474],[110.7393,1.5237],[110.7334,1.4987],[110.6779,1.4486],[110.7251,1.4531],[110.7634,1.4797],[110.7734,1.4986],[110.7666,1.5517],[110.7933,1.5724],[110.9248,1.5312],[111.044,1.4269],[111.1419,1.3715],[111.1786,1.3708],[111.2327,1.3946],[111.3406,1.3333],[111.3836,1.3537],[111.3255,1.3673],[111.3047,1.4076],[111.2463,1.4213],[111.1768,1.4006],[111.065,1.4627],[111.0111,1.543],[111.0056,1.5845],[111.0379,1.6769],[111.0955,1.688],[111.1371,1.682],[111.1795,1.627],[111.2151,1.6398],[111.2458,1.6213],[111.2674,1.6273],[111.1729,1.6594],[111.1546,1.696],[111.1261,1.7066],[111.096,1.7745],[111.1302,1.7919],[111.1099,1.8154],[111.1131,1.8355],[111.1753,1.9532],[111.2059,2.069],[111.2678,2.0675],[111.2419,2.0894],[111.2401,2.1133],[111.2539,2.1261],[111.3364,2.1121],[111.3779,2.1618],[111.3568,2.1662],[111.3291,2.1287],[111.2705,2.1538],[111.1847,2.1451],[111.1848,2.1948],[111.22,2.2204],[111.2401,2.2164],[111.2295,2.2353],[111.1848,2.2536],[111.221,2.4161],[111.2463,2.4361],[111.3655,2.3408],[111.4483,2.3724],[111.4934,2.3461],[111.4242,2.4272],[111.4046,2.484],[111.4873,2.4739],[111.5213,2.4907],[111.4617,2.508],[111.4172,2.5551],[111.4403,2.6801],[111.4579,2.7056],[111.6696,2.8431],[111.8606,2.8806],[112.0135,2.8859],[112.7273,3.0661],[113.0078,3.1617],[113.0823,3.2568],[113.0693,3.279],[113.1621,3.3535],[113.1996,3.4155],[113.2776,3.4842],[113.3081,3.5593],[113.3914,3.6483],[113.4343,3.7532],[113.7368,4.0013],[113.9468,4.2738],[113.9678,4.3222],[113.9606,4.3615],[113.9922,4.4371],[113.9694,4.5785],[113.9758,4.5947],[113.9988,4.6011],[114.0642,4.57],[114.119,4.5616],[114.2091,4.5081],[114.2167,4.4877],[114.2456,4.4814],[114.2899,4.3613],[114.2967,4.3167],[114.2763,4.289],[114.2827,4.2649],[114.3605,4.2539],[114.4199,4.2601],[114.4774,4.145],[114.5694,4.0644],[114.5866,4.0214],[114.6278,4.0167],[114.6749,4.0441],[114.7669,4.1318],[114.7871,4.2072],[114.8172,4.2597],[114.8138,4.2771],[114.7826,4.2644],[114.782,4.2849],[114.829,4.3405],[114.8456,4.3951],[114.8479,4.4237],[114.806,4.4333],[114.7882,4.4612],[114.7739,4.6368],[114.742,4.7295],[114.8558,4.8067],[114.9484,4.8189],[114.9589,4.8663],[115.0158,4.9164],[115.0298,4.8206],[115.0268,4.66],[115.0798,4.504],[115.0918,4.4054],[115.113,4.3824],[115.17,4.3613],[115.2207,4.3598],[115.3463,4.3138],[115.3607,4.3296],[115.3583,4.3503],[115.2856,4.4354],[115.2725,4.4747],[115.2727,4.6368],[115.2074,4.8256],[115.1468,4.8856],[115.1462,4.9085],[115.1895,4.9175],[115.2106,4.9597],[115.2386,4.9373],[115.2853,4.9312],[115.304,4.9062],[115.3584,4.9028],[115.4216,4.9623]]],[[[111.4114,2.3911],[111.4105,2.3722],[111.391,2.3821],[111.3699,2.3598],[111.3426,2.4139],[111.3127,2.4313],[111.3176,2.5368],[111.299,2.7027],[111.3154,2.7845],[111.3499,2.7713],[111.381,2.6979],[111.3818,2.5233],[111.4114,2.3911]]]]}},{"type":"Feature","id":"Selangor","properties":{"id":"Selangor","iso_code":"MY-10","name":"Selangor","name_full":"Selangor","name_ja":"セランゴール州","center_lonlat":[101.5127,3.2705]},"geometry":{"type":"MultiPolygon","coordinates":[[[[101.7212,2.5958],[101.6735,2.6273],[101.5423,2.6613],[101.5028,2.6894],[101.3992,2.8191],[101.3106,2.8336],[101.2864,2.8497],[101.3035,2.8948],[101.281,2.8979],[101.2831,2.9112],[101.3728,3.0023],[101.365,3.0764],[101.3234,3.1245],[101.2976,3.2746],[101.2357,3.3441],[101.1976,3.3593],[101.1084,3.4739],[101.0405,3.622],[100.9336,3.6893],[100.8865,3.7563],[100.8123,3.7866],[100.8237,3.8271],[100.8406,3.8428],[100.9395,3.8611],[100.9433,3.8333],[100.9762,3.8063],[100.9684,3.7732],[101.0198,3.8002],[101.0351,3.7842],[101.0585,3.7857],[101.0617,3.7531],[101.0925,3.7763],[101.1044,3.7506],[101.0817,3.7479],[101.0807,3.7303],[101.1094,3.7335],[101.1328,3.7526],[101.1455,3.7302],[101.1589,3.736],[101.1749,3.7152],[101.2405,3.7167],[101.2656,3.6683],[101.316,3.6769],[101.3471,3.7033],[101.3251,3.7662],[101.3415,3.7914],[101.3803,3.789],[101.5144,3.675],[101.5432,3.6888],[101.6061,3.764],[101.6269,3.7718],[101.6681,3.7157],[101.7716,3.6689],[101.8134,3.5976],[101.8055,3.5532],[101.7862,3.5412],[101.7656,3.4995],[101.7859,3.4258],[101.765,3.3733],[101.8303,3.2892],[101.916,3.2606],[101.9457,3.2213],[101.9445,3.1832],[101.9617,3.1425],[101.9634,3.033],[101.942,3.0176],[101.9313,2.9659],[101.9025,2.9394],[101.88,2.871],[101.8551,2.8568],[101.7595,2.8628],[101.7726,2.7382],[101.7212,2.5958]],[[101.7164,3.2061],[101.6651,3.2317],[101.6406,3.2154],[101.6217,3.1788],[101.6261,3.1405],[101.6654,3.0859],[101.6621,3.0407],[101.7169,3.0379],[101.7279,3.0269],[101.752,3.0522],[101.7418,3.1263],[101.7631,3.176],[101.7462,3.2147],[101.7164,3.2061]],[[101.6815,2.8742],[101.7304,2.9289],[101.713,2.9812],[101.6716,2.9604],[101.6779,2.9188],[101.6669,2.8939],[101.6815,2.8742]]],[[[101.3377,3.0518],[101.3353,3.009],[101.2681,2.9652],[101.3059,3.064],[101.3235,3.0711],[101.3377,3.0518]]],[[[101.2712,3.0465],[101.2596,3.0302],[101.237,3.0351],[101.2629,3.0563],[101.2712,3.0465]]]]}},{"type":"Feature","id":"Terengganu","properties":{"id":"Terengganu","iso_code":"MY-11","name":"Terengganu","name_full":"Terengganu","name_ja":"トレンガヌ州","center_lonlat":[102.9568,4.9285]},"geometry":{"type":"Polygon","coordinates":[[[102.542,5.8548],[102.6263,5.7972],[102.6692,5.725],[102.8757,5.5714],[102.9756,5.5313],[103.1203,5.3813],[103.2224,5.2211],[103.2573,5.1362],[103.448,4.8065],[103.4426,4.7428],[103.4694,4.55],[103.4514,4.4885],[103.4964,4.3062],[103.448,4.2175],[103.4548,4.1828],[103.4428,4.169],[103.3452,4.18],[103.3186,4.1936],[103.3246,4.1431],[103.3032,4.0792],[103.3264,4.0444],[103.3233,4.0093],[103.3437,3.9494],[103.3209,3.9057],[103.3202,3.8753],[103.2791,3.9303],[103.2773,3.9558],[103.2397,4.0175],[103.2137,4.0152],[103.2034,4.0382],[103.177,4.0359],[103.1185,4.087],[103.0082,4.1345],[102.922,4.1107],[102.9033,4.1408],[102.9207,4.1735],[102.934,4.2732],[102.9648,4.325],[103.0139,4.3386],[103.0245,4.4128],[102.9751,4.4753],[102.9488,4.4561],[102.8875,4.4699],[102.8575,4.4982],[102.8433,4.5471],[102.8708,4.5738],[102.881,4.6129],[102.8625,4.659],[102.829,4.6809],[102.7345,4.6893],[102.6904,4.7174],[102.6606,4.7684],[102.6653,4.7906],[102.6362,4.8583],[102.5756,4.8968],[102.5472,4.9088],[102.5281,4.9016],[102.5112,4.9151],[102.5003,5.0016],[102.5152,5.0218],[102.5031,5.0758],[102.5286,5.1061],[102.4738,5.1545],[102.412,5.188],[102.4224,5.3154],[102.4403,5.3694],[102.3942,5.4273],[102.4058,5.6084],[102.3863,5.686],[102.542,5.8548]]]}}]}
