{"type":"FeatureCollection","features":[{"type":"Feature","id":"Addu Atoll","properties":{"id":"Addu Atoll","iso_code":"MV-01","name":"Addu Atoll","name_full":"Addu Atoll","name_ja":"アッドゥ環礁","center_lonlat":[73.096,-0.6007]},"geometry":{"type":"Polygon","coordinates":[[[73.0975,-0.5997],[73.1187,-0.6413],[73.0949,-0.6047],[73.0912,-0.586],[73.105,-0.5792],[73.0975,-0.5997]]]}},{"type":"Feature","id":"Alif Alif Atoll","properties":{"id":"Alif Alif Atoll","iso_code":"MV-02","name":"Alif Alif Atoll","name_full":"Alif Alif Atoll","name_ja":"アリフ・アリフ・アトル","center_lonlat":[72.9534,4.4278]},"geometry":{"type":"Polygon","coordinates":[[[72.957,4.4383],[72.9561,4.4221],[72.9471,4.4231],[72.957,4.4383]]]}},{"type":"Feature","id":"Alif Dhaal Atoll","properties":{"id":"Alif Dhaal Atoll","iso_code":"MV-00","name":"Alif Dhaal Atoll","name_full":"Alif Dhaal Atoll","name_ja":"アリフ・ダール環礁区","center_lonlat":[72.9194,3.5485]},"geometry":{"type":"Polygon","coordinates":[[[72.9284,3.5519],[72.9118,3.5417],[72.9116,3.5417],[72.9157,3.549],[72.9199,3.5522],[72.9243,3.5525],[72.9284,3.5519]]]}},{"type":"Feature","id":"Baa Atoll","properties":{"id":"Baa Atoll","iso_code":"MV-20","name":"Baa Atoll","name_full":"Baa Atoll","name_ja":"バア環礁","center_lonlat":[72.9733,4.8898]},"geometry":{"type":"Polygon","coordinates":[[[72.9793,4.8955],[72.9793,4.8954],[72.9697,4.8807],[72.9695,4.8805],[72.9701,4.8904],[72.9727,4.8944],[72.9761,4.8952],[72.9793,4.8955]]]}},{"type":"Feature","id":"Dhaalu Atoll","properties":{"id":"Dhaalu Atoll","iso_code":"MV-17","name":"Dhaalu Atoll","name_full":"Dhaalu Atoll","name_ja":"ダァール環礁","center_lonlat":[72.8708,2.6884]},"geometry":{"type":"Polygon","coordinates":[[[72.8726,2.6942],[72.8737,2.6837],[72.8737,2.6836],[72.8674,2.6867],[72.867,2.689],[72.8698,2.6912],[72.8726,2.6942]]]}},{"type":"Feature","id":"Faafu Atoll","properties":{"id":"Faafu Atoll","iso_code":"MV-14","name":"Faafu Atoll","name_full":"Faafu Atoll","name_ja":"北ニランデ環礁区","center_lonlat":[72.9783,3.1058]},"geometry":{"type":"Polygon","coordinates":[[[72.9779,3.1102],[72.978,3.1101],[72.9792,3.1081],[72.9813,3.1066],[72.9818,3.105],[72.9782,3.1027],[72.9751,3.1042],[72.9754,3.1057],[72.9769,3.1077],[72.9779,3.1102]]]}},{"type":"Feature","id":"Gaafu Alif Atoll","properties":{"id":"Gaafu Alif Atoll","iso_code":"MV-27","name":"Gaafu Alif Atoll","name_full":"Gaafu Alif Atoll","name_ja":"ガーフ・アリフ環礁","center_lonlat":[73.5091,0.3852]},"geometry":{"type":"Polygon","coordinates":[[[73.5134,0.3878],[73.5134,0.3877],[73.5086,0.3807],[73.5086,0.3806],[73.5064,0.385],[73.5059,0.3861],[73.5066,0.3878],[73.5098,0.3874],[73.5134,0.3878]]]}},{"type":"Feature","id":"Gaafu Dhaalu Atoll","properties":{"id":"Gaafu Dhaalu Atoll","iso_code":"MV-28","name":"Gaafu Dhaalu Atoll","name_full":"Gaafu Dhaalu Atoll","name_ja":"ガーフ・ダール環礁","center_lonlat":[73.1003,0.2202]},"geometry":{"type":"Polygon","coordinates":[[[73.0955,0.228],[73.0989,0.2249],[73.1025,0.2228],[73.1043,0.2196],[73.103,0.2135],[73.1029,0.2134],[73.0989,0.2164],[73.0978,0.2188],[73.0974,0.2197],[73.0973,0.2202],[73.0967,0.2237],[73.0955,0.228]]]}},{"type":"Feature","id":"Gnaviyani Atoll","properties":{"id":"Gnaviyani Atoll","iso_code":"MV-29","name":"Gnaviyani Atoll","name_full":"Gnaviyani Atoll","name_ja":"ニヤヴィヤニ環礁","center_lonlat":[73.4397,-0.2943]},"geometry":{"type":"Polygon","coordinates":[[[73.4351,-0.2836],[73.443,-0.2927],[73.4451,-0.2975],[73.4445,-0.3043],[73.438,-0.2986],[73.4352,-0.2936],[73.4346,-0.2888],[73.4351,-0.2836]]]}},{"type":"Feature","id":"Haa Alif Atoll","properties":{"id":"Haa Alif Atoll","iso_code":"MV-07","name":"Haa Alif Atoll","name_full":"Haa Alif Atoll","name_ja":"ハーアリフ環礁","center_lonlat":[73.2075,6.9029]},"geometry":{"type":"Polygon","coordinates":[[[73.214,6.9186],[73.214,6.9185],[73.2131,6.9046],[73.2088,6.8911],[73.2039,6.885],[73.201,6.8931],[73.2019,6.9022],[73.2049,6.9118],[73.2092,6.9183],[73.214,6.9186]]]}},{"type":"Feature","id":"Haa Dhaalu Atoll","properties":{"id":"Haa Dhaalu Atoll","iso_code":"MV-23","name":"Haa Dhaalu Atoll","name_full":"Haa Dhaalu Atoll","name_ja":"南ティラドゥンマティー環礁区","center_lonlat":[73.148,6.7536]},"geometry":{"type":"Polygon","coordinates":[[[73.1595,6.7865],[73.1528,6.7492],[73.1317,6.725],[73.1595,6.7865]]]}},{"type":"Feature","id":"Kaafu Atoll","properties":{"id":"Kaafu Atoll","iso_code":"MV-26","name":"Kaafu Atoll","name_full":"Kaafu Atoll","name_ja":"カーフ環礁","center_lonlat":[73.5059,4.0989]},"geometry":{"type":"Polygon","coordinates":[[[73.5081,4.1036],[73.5083,4.0934],[73.5083,4.0933],[73.5046,4.0966],[73.5025,4.0985],[73.5023,4.1008],[73.5052,4.102],[73.5081,4.1036]]]}},{"type":"Feature","id":"Laamu Atoll","properties":{"id":"Laamu Atoll","iso_code":"MV-05","name":"Laamu Atoll","name_full":"Laamu Atoll","name_ja":"ラーム環礁","center_lonlat":[73.5716,2.1047]},"geometry":{"type":"Polygon","coordinates":[[[73.5676,2.1099],[73.5855,2.1096],[73.5618,2.0947],[73.5676,2.1099]]]}},{"type":"Feature","id":"Lhaviyani Atoll","properties":{"id":"Lhaviyani Atoll","iso_code":"MV-03","name":"Lhaviyani Atoll","name_full":"Lhaviyani Atoll","name_ja":"ラビアニ環礁","center_lonlat":[73.6324,5.4034]},"geometry":{"type":"Polygon","coordinates":[[[73.6296,5.4185],[73.6345,5.411],[73.6367,5.4029],[73.6359,5.3945],[73.6325,5.3863],[73.6325,5.3861],[73.6278,5.4133],[73.6296,5.4185]]]}},{"type":"Feature","id":"Male","properties":{"id":"Male","iso_code":"MV-12","name":"Male","name_full":"Malé","name_ja":"マレ","center_lonlat":[73.5258,4.1877]},"geometry":{"type":"Polygon","coordinates":[[[73.5462,4.243],[73.5382,4.1833],[73.5109,4.1621],[73.4312,4.1846],[73.512,4.1863],[73.5462,4.243]]]}},{"type":"Feature","id":"Meemu Atoll","properties":{"id":"Meemu Atoll","iso_code":"MV-12","name":"Meemu Atoll","name_full":"Meemu Atoll","name_ja":"ミーム環礁","center_lonlat":[73.5809,2.9573]},"geometry":{"type":"Polygon","coordinates":[[[73.5859,2.9616],[73.5859,2.9615],[73.5775,2.9512],[73.5785,2.9573],[73.5813,2.9602],[73.5842,2.9612],[73.5859,2.9616]]]}},{"type":"Feature","id":"Noonu Atoll","properties":{"id":"Noonu Atoll","iso_code":"MV-25","name":"Noonu Atoll","name_full":"Noonu Atoll","name_ja":"ヌーヌ環礁","center_lonlat":[73.3897,5.9639]},"geometry":{"type":"Polygon","coordinates":[[[73.3898,5.9703],[73.3953,5.9578],[73.3867,5.962],[73.3845,5.9647],[73.3898,5.9703]]]}},{"type":"Feature","id":"Raa Atoll","properties":{"id":"Raa Atoll","iso_code":"MV-13","name":"Raa Atoll","name_full":"Raa Atoll","name_ja":"ラー環礁","center_lonlat":[72.929,5.9637]},"geometry":{"type":"Polygon","coordinates":[[[72.9317,5.9691],[72.9302,5.9569],[72.9258,5.9633],[72.9264,5.9663],[72.9317,5.9691]]]}},{"type":"Feature","id":"Shaviyani Atoll","properties":{"id":"Shaviyani Atoll","iso_code":"MV-24","name":"Shaviyani Atoll","name_full":"Shaviyani Atoll","name_ja":"北ミラドゥンマドゥル環礁区","center_lonlat":[73.2404,6.2334]},"geometry":{"type":"Polygon","coordinates":[[[73.2417,6.2397],[73.2422,6.2365],[73.2437,6.234],[73.2439,6.2316],[73.2402,6.2289],[73.2363,6.2321],[73.2371,6.2343],[73.2398,6.2365],[73.2417,6.2397]]]}},{"type":"Feature","id":"Thaa Atoll","properties":{"id":"Thaa Atoll","iso_code":"MV-08","name":"Thaa Atoll","name_full":"Thaa Atoll","name_ja":"ター","center_lonlat":[73.3609,2.4113]},"geometry":{"type":"Polygon","coordinates":[[[73.3543,2.4372],[73.3613,2.4247],[73.3653,2.4139],[73.3662,2.4115],[73.367,2.398],[73.3626,2.3851],[73.3626,2.3849],[73.3539,2.429],[73.3543,2.4372]]]}},{"type":"Feature","id":"Vaavu Atoll","properties":{"id":"Vaavu Atoll","iso_code":"MV-04","name":"Vaavu Atoll","name_full":"Vaavu Atoll","name_ja":"フェリデ環礁","center_lonlat":[73.7497,3.4485]},"geometry":{"type":"Polygon","coordinates":[[[73.7476,3.4511],[73.7477,3.451],[73.7531,3.4464],[73.7532,3.4464],[73.7512,3.4471],[73.7485,3.4482],[73.7484,3.4486],[73.7476,3.4511]]]}}]}
