{"type":"FeatureCollection","features":[{"type":"Feature","id":"Bamako","properties":{"id":"Bamako","iso_code":"ML-BKO","name":"Bamako","name_full":"Bamako","name_ja":"バマコ","center_lonlat":[-7.9978,12.6239]},"geometry":{"type":"Polygon","coordinates":[[[-8.0016,12.704],[-7.9532,12.685],[-7.9338,12.6358],[-7.9327,12.5751],[-7.9445,12.5532],[-7.9781,12.5429],[-8.0294,12.5576],[-8.0646,12.6044],[-8.0646,12.6704],[-8.0512,12.6908],[-8.0016,12.704]]]}},{"type":"Feature","id":"Gao","properties":{"id":"Gao","iso_code":"ML-7","name":"Gao","name_full":"Gao","name_ja":"ガオ州","center_lonlat":[1.3624,16.7672]},"geometry":{"type":"Polygon","coordinates":[[[-0.5003,15.0797],[-0.5591,15.4483],[-0.694,16.047],[-0.71,16.6129],[-0.6871,16.7379],[-0.683,16.9329],[-0.7171,16.9499],[-0.8181,16.962],[-1.6085,17.0357],[-1.6211,17.0769],[-1.6094,17.1253],[-1.7069,17.5145],[-1.6302,17.5634],[-0.9347,17.8861],[-0.8852,18.9553],[0.0652,18.7078],[0.3622,18.3514],[0.5701,18.1336],[1.2037,17.6287],[1.7976,17.7574],[1.9758,17.9752],[4.2324,17.9752],[4.2356,16.9959],[4.2037,16.9828],[4.1978,16.9652],[4.202,16.8489],[4.182,16.8096],[4.184,16.4161],[4.1759,16.3926],[4.0948,16.3408],[4.0606,16.2983],[3.9712,16.0861],[3.9842,15.9869],[3.9099,15.9048],[3.8945,15.7887],[3.8712,15.7148],[3.8084,15.6656],[3.7289,15.6509],[3.6922,15.6314],[3.6141,15.5477],[3.5265,15.496],[3.5071,15.354],[3.0335,15.4265],[3.0103,15.4177],[3.0002,15.3391],[1.3315,15.2836],[1.2709,15.2599],[0.9737,14.9913],[0.9221,14.974],[0.7692,14.9691],[0.6701,14.9397],[0.5148,14.9936],[0.3532,14.9634],[0.2213,14.9959],[0.2185,14.911],[-0.2367,15.0656],[-0.2992,15.0547],[-0.3977,15.0021],[-0.4257,15.0026],[-0.4586,15.0755],[-0.5003,15.0797]]]}},{"type":"Feature","id":"Kayes","properties":{"id":"Kayes","iso_code":"ML-1","name":"Kayes","name_full":"Kayes","name_ja":"カイ州","center_lonlat":[-10.244,13.874]},"geometry":{"type":"Polygon","coordinates":[[[-9.1414,15.4956],[-8.99,15.368],[-8.849,15.2929],[-8.8041,15.245],[-8.788,15.143],[-8.741,15.026],[-8.677,14.982],[-8.507,14.963],[-8.4751,14.8759],[-8.485,14.733],[-8.463,14.6979],[-8.3001,14.5809],[-8.237,14.5199],[-8.164,14.5029],[-8.1501,14.488],[-8.16,14.434],[-8.1321,14.34],[-8.162,14.32],[-8.272,14.3049],[-8.3261,14.3159],[-8.472,14.3009],[-8.529,14.3799],[-8.571,14.4129],[-8.594,14.408],[-8.65,14.314],[-8.7221,14.2879],[-8.8094,14.2882],[-8.764,14.1808],[-8.7579,14.1374],[-8.7647,14.109],[-8.8187,14.1062],[-8.8184,14.0576],[-8.8552,13.9892],[-8.8466,13.9687],[-8.7874,13.932],[-8.7687,13.905],[-8.7513,13.9166],[-8.7039,13.8504],[-8.618,13.837],[-8.5926,13.8395],[-8.5797,13.8631],[-8.5938,13.8662],[-8.5927,13.8793],[-8.5661,13.9457],[-8.5119,13.9523],[-8.4648,13.9227],[-8.4512,13.8757],[-8.4576,13.8231],[-8.5514,13.7036],[-8.5549,13.6834],[-8.5406,13.5687],[-8.4566,13.463],[-8.4488,13.4235],[-8.4618,13.3902],[-8.4943,13.3658],[-8.5264,13.2596],[-8.5607,13.1967],[-8.5643,13.133],[-8.5788,13.0989],[-8.5713,13.0067],[-8.6337,12.8846],[-8.6342,12.8594],[-8.5982,12.8069],[-8.682,12.7629],[-8.723,12.714],[-8.762,12.6899],[-8.891,12.65],[-8.924,12.586],[-9.003,12.523],[-9.045,12.4469],[-9.0101,12.4239],[-9.0278,12.4048],[-9.1473,12.4655],[-9.2659,12.4952],[-9.2941,12.4838],[-9.3273,12.4975],[-9.3982,12.4732],[-9.4126,12.4554],[-9.4073,12.4451],[-9.3472,12.3965],[-9.3392,12.3706],[-9.3092,12.3577],[-9.3129,12.3261],[-9.335,12.3065],[-9.3368,12.2698],[-9.3602,12.2466],[-9.4389,12.2548],[-9.5156,12.2071],[-9.6282,12.1702],[-9.6751,12.134],[-9.6863,12.0682],[-9.723,12.0254],[-9.7786,12.0267],[-9.8337,12.0551],[-9.8707,12.0521],[-9.9232,12.0876],[-10.0602,12.1475],[-10.2478,12.2011],[-10.2669,12.2178],[-10.311,12.191],[-10.3236,12.202],[-10.3541,12.1809],[-10.3534,12.1665],[-10.3814,12.1801],[-10.4457,12.1207],[-10.5116,12.1181],[-10.5044,12.0884],[-10.5173,12.0803],[-10.5151,12.0529],[-10.5665,12.0173],[-10.5595,11.9952],[-10.6138,11.9677],[-10.6551,11.899],[-10.7114,11.8904],[-10.8078,12.0228],[-10.8049,12.096],[-10.8696,12.1384],[-10.9098,12.2001],[-10.9521,12.2195],[-11.0523,12.2025],[-11.0728,12.1495],[-11.1363,12.0851],[-11.1594,12.0775],[-11.1912,12.0144],[-11.275,11.9963],[-11.3347,12.0262],[-11.3917,12.0937],[-11.4896,12.1512],[-11.5078,12.1916],[-11.4446,12.2895],[-11.4472,12.3745],[-11.3886,12.3845],[-11.3778,12.4802],[-11.3904,12.4975],[-11.4005,12.4795],[-11.417,12.5293],[-11.4298,12.5083],[-11.4678,12.5435],[-11.4374,12.5708],[-11.4368,12.6375],[-11.4619,12.6731],[-11.4374,12.7122],[-11.4022,12.7317],[-11.4146,12.7597],[-11.4085,12.8045],[-11.4325,12.8355],[-11.4151,12.8967],[-11.4272,12.9186],[-11.3878,12.9271],[-11.3888,12.9706],[-11.4018,12.9895],[-11.4115,12.9607],[-11.4387,12.9589],[-11.423,13.0094],[-11.459,13.0547],[-11.4503,13.0751],[-11.5331,13.1118],[-11.5385,13.163],[-11.5723,13.2171],[-11.5543,13.2569],[-11.6058,13.3197],[-11.6131,13.3608],[-11.644,13.3556],[-11.6498,13.3841],[-11.704,13.3804],[-11.7412,13.4078],[-11.7666,13.3832],[-11.7751,13.3433],[-11.8281,13.3073],[-11.8546,13.3506],[-11.8976,13.3712],[-11.8904,13.4651],[-11.9182,13.4747],[-12.0152,13.5644],[-12.0976,13.7044],[-12.0123,13.7512],[-11.9788,13.7848],[-11.9629,13.8295],[-11.9629,13.9092],[-12.0153,13.9593],[-12.0253,13.9852],[-11.9976,14.1662],[-12.0443,14.2649],[-12.1196,14.3106],[-12.1278,14.3243],[-12.113,14.3296],[-12.1156,14.3551],[-12.2217,14.3912],[-12.2364,14.5195],[-12.2042,14.5543],[-12.1984,14.5876],[-12.165,14.6419],[-12.1898,14.656],[-12.1803,14.6928],[-12.2228,14.7033],[-12.2641,14.7749],[-12.2248,14.7634],[-12.1389,14.7845],[-12.0704,14.7344],[-12.0497,14.7672],[-11.9915,14.768],[-11.936,14.8236],[-11.8775,14.8415],[-11.8204,14.9],[-11.8309,14.9264],[-11.8138,15.0285],[-11.8328,15.049],[-11.8609,15.049],[-11.8457,15.1791],[-11.7677,15.4372],[-11.7294,15.4961],[-11.7271,15.5412],[-11.6441,15.5264],[-11.5792,15.578],[-11.5243,15.6003],[-11.5123,15.6202],[-11.5244,15.6435],[-11.4582,15.6329],[-11.4096,15.6022],[-11.2982,15.451],[-11.0454,15.2702],[-10.9152,15.1029],[-10.8909,15.1767],[-10.8441,15.2345],[-10.8272,15.2877],[-10.7468,15.3411],[-10.7364,15.4226],[-10.7254,15.4331],[-10.6071,15.4244],[-10.535,15.4417],[-10.3226,15.4371],[-10.2232,15.402],[-10.1884,15.4047],[-10.1083,15.3659],[-10.0676,15.3647],[-9.9514,15.3812],[-9.8356,15.3711],[-9.6721,15.4307],[-9.4239,15.4405],[-9.4517,15.5883],[-9.3565,15.6979],[-9.3324,15.6876],[-9.3293,15.6552],[-9.3492,15.4956],[-9.1414,15.4956]]]}},{"type":"Feature","id":"Kidal","properties":{"id":"Kidal","iso_code":"ML-8","name":"Kidal","name_full":"Kidal","name_ja":"キダル州","center_lonlat":[1.1489,19.4379]},"geometry":{"type":"Polygon","coordinates":[[[0.0037,21.8489],[1.1465,21.1017],[1.1801,20.9953],[1.1453,20.7959],[1.1546,20.7388],[1.2967,20.7335],[1.364,20.6577],[1.5597,20.5975],[1.644,20.5227],[1.6492,20.4121],[1.6592,20.3975],[1.7781,20.3043],[1.855,20.2948],[1.8914,20.2318],[1.9134,20.2311],[1.9553,20.2549],[2.0712,20.2133],[2.1613,20.2749],[2.2008,20.2739],[2.3165,20.1802],[2.4004,20.0566],[2.5148,20.0159],[2.946,19.9417],[3.1988,19.8205],[3.2168,19.7941],[3.1994,19.5538],[3.2323,19.4955],[3.226,19.4597],[3.2608,19.3883],[3.251,19.3655],[3.1929,19.3258],[3.1744,19.2516],[3.1393,19.2219],[3.1027,19.1536],[3.1041,19.1355],[3.1388,19.096],[3.226,19.0511],[3.2849,18.9957],[3.3184,18.9777],[3.3587,18.9769],[4.2286,19.1422],[4.2324,17.9752],[1.9758,17.9752],[1.7976,17.7574],[1.2037,17.6287],[0.5701,18.1336],[0.3622,18.3514],[0.0652,18.7078],[-0.8852,18.9553],[-0.9643,19.0642],[-1.4197,19.4107],[-2.0434,19.9155],[-1.3208,20.2818],[-0.2219,21.153],[0.0037,21.8489]]]}},{"type":"Feature","id":"Koulikoro","properties":{"id":"Koulikoro","iso_code":"ML-2","name":"Koulikoro","name_full":"Koulikoro","name_ja":"クリコロ州","center_lonlat":[-7.6417,13.6086]},"geometry":{"type":"Polygon","coordinates":[[[-9.0278,12.4048],[-9.0101,12.4239],[-9.045,12.4469],[-9.003,12.523],[-8.924,12.586],[-8.891,12.65],[-8.762,12.6899],[-8.723,12.714],[-8.682,12.7629],[-8.5982,12.8069],[-8.6342,12.8594],[-8.6337,12.8846],[-8.5713,13.0067],[-8.5788,13.0989],[-8.5643,13.133],[-8.5607,13.1967],[-8.5264,13.2596],[-8.4943,13.3658],[-8.4618,13.3902],[-8.4488,13.4235],[-8.4566,13.463],[-8.5406,13.5687],[-8.5549,13.6834],[-8.5514,13.7036],[-8.4576,13.8231],[-8.4512,13.8757],[-8.4648,13.9227],[-8.5119,13.9523],[-8.5661,13.9457],[-8.5927,13.8793],[-8.5938,13.8662],[-8.5797,13.8631],[-8.5926,13.8395],[-8.618,13.837],[-8.7039,13.8504],[-8.7513,13.9166],[-8.7687,13.905],[-8.7874,13.932],[-8.8466,13.9687],[-8.8552,13.9892],[-8.8184,14.0576],[-8.8187,14.1062],[-8.7647,14.109],[-8.7579,14.1374],[-8.764,14.1808],[-8.8094,14.2882],[-8.7221,14.2879],[-8.65,14.314],[-8.594,14.408],[-8.571,14.4129],[-8.529,14.3799],[-8.472,14.3009],[-8.3261,14.3159],[-8.272,14.3049],[-8.162,14.32],[-8.1321,14.34],[-8.16,14.434],[-8.1501,14.488],[-8.164,14.5029],[-8.237,14.5199],[-8.3001,14.5809],[-8.463,14.6979],[-8.485,14.733],[-8.4751,14.8759],[-8.507,14.963],[-8.677,14.982],[-8.741,15.026],[-8.788,15.143],[-8.8041,15.245],[-8.849,15.2929],[-8.99,15.368],[-9.1414,15.4956],[-6.3201,15.4945],[-6.336,15.376],[-6.405,15.168],[-6.528,14.9979],[-6.545,14.9439],[-6.436,14.781],[-6.381,14.602],[-6.382,14.536],[-6.429,14.465],[-6.4591,14.4459],[-6.582,14.4799],[-6.617,14.4699],[-6.637,14.422],[-6.751,14.2649],[-6.9001,13.998],[-6.914,13.816],[-6.9001,13.749],[-6.783,13.6239],[-6.764,13.4949],[-6.717,13.4519],[-6.7431,13.383],[-6.774,13.366],[-6.867,13.36],[-6.9261,13.342],[-6.971,13.3009],[-7.022,13.1819],[-7.033,13.087],[-7.069,13.0509],[-7.081,13.016],[-7.019,12.9449],[-6.908,12.9279],[-6.886,12.9079],[-6.894,12.788],[-6.881,12.765],[-6.625,12.8089],[-6.512,12.7659],[-6.487,12.6929],[-6.469,12.681],[-6.39,12.6999],[-6.3541,12.5919],[-6.261,12.5549],[-6.2271,12.502],[-6.211,12.4009],[-6.175,12.4069],[-6.122,12.3669],[-6.1031,12.324],[-6.07,12.308],[-5.98,12.3129],[-5.951,12.2999],[-5.945,12.2119],[-5.982,12.1219],[-6.0181,12.1249],[-6.145,12.093],[-6.141,12.0229],[-6.1531,12.013],[-6.201,12.0579],[-6.252,12.0769],[-6.3021,12.073],[-6.347,12.0269],[-6.334,11.905],[-6.396,11.845],[-6.469,11.653],[-6.498,11.6499],[-6.543,11.6699],[-6.536,11.7279],[-6.553,11.746],[-6.64,11.7479],[-6.7691,11.807],[-6.841,11.8249],[-6.871,11.862],[-6.897,11.871],[-6.947,11.862],[-6.949,11.955],[-6.968,11.978],[-7.015,11.9659],[-7.079,12.012],[-7.08,12.067],[-7.0481,12.1379],[-7.05,12.173],[-7.1161,12.4329],[-7.171,12.4129],[-7.212,12.348],[-7.289,12.3059],[-7.319,12.227],[-7.48,12.1479],[-7.544,12.0059],[-7.576,11.9809],[-7.862,11.8429],[-7.963,11.7779],[-8.071,11.686],[-8.155,11.7069],[-8.206,11.7049],[-8.3331,11.6569],[-8.397,11.659],[-8.4311,11.642],[-8.488,11.5159],[-8.5394,11.4563],[-8.5496,11.4901],[-8.5752,11.4703],[-8.6568,11.4964],[-8.6873,11.55],[-8.7129,11.6401],[-8.7265,11.6495],[-8.7772,11.6359],[-8.8472,11.6579],[-8.7978,11.9251],[-8.8149,11.9554],[-8.8198,12.0127],[-8.838,12.0282],[-8.9037,12.0304],[-8.9221,12.0454],[-8.906,12.1477],[-8.927,12.1874],[-8.942,12.1958],[-8.9738,12.1876],[-8.9943,12.2248],[-8.9959,12.261],[-8.9631,12.3242],[-8.9647,12.3463],[-8.9938,12.3875],[-9.0278,12.4048]],[[-7.9781,12.5429],[-7.9445,12.5532],[-7.9327,12.5751],[-7.9386,12.6616],[-7.9752,12.6982],[-8.0279,12.7011],[-8.0646,12.6704],[-8.0646,12.6044],[-8.0294,12.5576],[-7.9781,12.5429]]]}},{"type":"Feature","id":"Mopti","properties":{"id":"Mopti","iso_code":"ML-5","name":"Mopti","name_full":"Mopti","name_ja":"モプティ州","center_lonlat":[-3.5269,14.703]},"geometry":{"type":"Polygon","coordinates":[[[-3.9655,13.4892],[-3.958,13.598],[-4.01,13.6999],[-4.0411,13.8389],[-4.086,13.927],[-4.114,13.938],[-4.169,13.9229],[-4.283,13.836],[-4.387,13.6469],[-4.511,13.6259],[-4.603,13.5749],[-4.683,13.635],[-4.797,13.6259],[-4.855,13.5889],[-4.877,13.6369],[-4.878,13.6939],[-4.857,13.779],[-4.8831,13.8249],[-4.882,13.853],[-4.855,13.877],[-4.842,13.9289],[-4.854,13.9689],[-5.0511,13.9459],[-5.126,13.957],[-5.208,13.9899],[-5.214,14.0359],[-5.187,14.1709],[-5.283,14.2989],[-5.664,14.532],[-5.662,14.559],[-5.621,14.5909],[-5.613,14.6609],[-5.594,14.686],[-5.607,14.7629],[-5.546,14.9309],[-5.349,14.9759],[-5.272,14.9729],[-5.208,15.0239],[-5.1,15.1959],[-5.184,15.4709],[-5.234,15.4949],[-5.343,15.499],[-5.3571,15.553],[-5.23,15.674],[-5.151,15.6089],[-4.688,15.581],[-4.45,15.6559],[-4.377,15.7049],[-4.239,15.7189],[-4.1351,15.8099],[-3.983,15.825],[-3.955,15.735],[-3.869,15.672],[-3.848,15.607],[-3.845,15.4939],[-3.73,15.5079],[-3.642,15.4909],[-3.597,15.5389],[-3.524,15.5709],[-3.49,15.6],[-3.497,15.688],[-3.4821,15.7329],[-3.4211,15.7729],[-3.33,15.7709],[-3.202,15.8949],[-3.1641,15.8779],[-3.156,15.8329],[-3.041,15.84],[-2.962,15.86],[-2.924,15.8539],[-2.772,15.7169],[-2.754,15.64],[-2.597,15.3689],[-2.532,15.322],[-2.4501,15.304],[-2.147,15.4069],[-1.989,15.4279],[-1.686,15.4309],[-1.495,15.375],[-1.386,15.322],[-1.214,15.1789],[-0.7713,15.0566],[-1.0786,14.7964],[-1.3503,14.715],[-1.6969,14.4961],[-1.837,14.4796],[-1.967,14.4837],[-1.9971,14.4707],[-2.0234,14.1986],[-2.0359,14.1812],[-2.1043,14.1512],[-2.1519,14.1561],[-2.3856,14.2647],[-2.4617,14.2809],[-2.5161,14.2679],[-2.5974,14.2223],[-2.6932,14.1232],[-2.8409,14.043],[-2.8673,14.0005],[-2.8554,13.9962],[-2.8945,13.8666],[-2.9281,13.7996],[-2.8952,13.6516],[-2.9723,13.6245],[-3.0191,13.6375],[-3.0675,13.6068],[-3.0822,13.6462],[-3.1251,13.6773],[-3.1958,13.6749],[-3.2671,13.717],[-3.287,13.6978],[-3.2663,13.6823],[-3.2597,13.6583],[-3.284,13.5422],[-3.2486,13.2928],[-3.4485,13.2658],[-3.4395,13.1849],[-3.4495,13.1688],[-3.545,13.1745],[-3.57,13.1968],[-3.5969,13.1994],[-3.7986,13.3471],[-3.8926,13.3789],[-3.9716,13.3868],[-3.984,13.3965],[-3.9186,13.4403],[-3.918,13.4511],[-3.9561,13.4617],[-3.9655,13.4892]]]}},{"type":"Feature","id":"Segou","properties":{"id":"Segou","iso_code":"ML-4","name":"Segou","name_full":"Ségou","name_ja":"セグー州","center_lonlat":[-5.7007,13.8005]},"geometry":{"type":"Polygon","coordinates":[[[-3.9655,13.4892],[-3.9813,13.499],[-3.998,13.4805],[-3.9716,13.47],[-3.9769,13.4606],[-4.1043,13.3827],[-4.166,13.2782],[-4.2055,13.273],[-4.2388,13.2468],[-4.2581,13.2141],[-4.23,13.1931],[-4.2348,13.1756],[-4.327,13.1686],[-4.3511,13.1183],[-4.2897,13.0135],[-4.2293,12.949],[-4.2119,12.8192],[-4.2341,12.7424],[-4.2576,12.7209],[-4.2972,12.7121],[-4.3689,12.739],[-4.4644,12.7173],[-4.569,12.7199],[-4.585,12.704],[-4.612,12.7029],[-4.629,12.7559],[-4.6911,12.7399],[-4.776,12.623],[-5.065,12.5749],[-5.098,12.5989],[-5.0951,12.6589],[-5.1321,12.7059],[-5.145,12.744],[-5.269,12.7959],[-5.376,12.6799],[-5.406,12.6159],[-5.434,12.607],[-5.4941,12.66],[-5.503,12.7149],[-5.532,12.7359],[-5.565,12.8099],[-5.579,12.8169],[-5.896,12.6519],[-5.9811,12.6729],[-6.004,12.6359],[-6.211,12.6049],[-6.261,12.5549],[-6.3541,12.5919],[-6.39,12.6999],[-6.469,12.681],[-6.487,12.6929],[-6.512,12.7659],[-6.625,12.8089],[-6.881,12.765],[-6.894,12.788],[-6.886,12.9079],[-6.908,12.9279],[-7.019,12.9449],[-7.081,13.016],[-7.069,13.0509],[-7.033,13.087],[-7.022,13.1819],[-6.971,13.3009],[-6.9261,13.342],[-6.867,13.36],[-6.774,13.366],[-6.7431,13.383],[-6.717,13.4519],[-6.764,13.4949],[-6.783,13.6239],[-6.9001,13.749],[-6.914,13.816],[-6.9001,13.998],[-6.751,14.2649],[-6.637,14.422],[-6.617,14.4699],[-6.582,14.4799],[-6.4591,14.4459],[-6.429,14.465],[-6.382,14.536],[-6.381,14.602],[-6.436,14.781],[-6.545,14.9439],[-6.528,14.9979],[-6.405,15.168],[-6.336,15.376],[-6.3201,15.4945],[-5.5117,15.4934],[-5.5088,15.5069],[-5.3571,15.553],[-5.343,15.499],[-5.234,15.4949],[-5.184,15.4709],[-5.1,15.1959],[-5.208,15.0239],[-5.272,14.9729],[-5.349,14.9759],[-5.546,14.9309],[-5.607,14.7629],[-5.594,14.686],[-5.613,14.6609],[-5.621,14.5909],[-5.662,14.559],[-5.664,14.532],[-5.283,14.2989],[-5.187,14.1709],[-5.214,14.0359],[-5.208,13.9899],[-5.126,13.957],[-5.0511,13.9459],[-4.854,13.9689],[-4.842,13.9289],[-4.855,13.877],[-4.882,13.853],[-4.8831,13.8249],[-4.857,13.779],[-4.878,13.6939],[-4.877,13.6369],[-4.855,13.5889],[-4.797,13.6259],[-4.683,13.635],[-4.603,13.5749],[-4.511,13.6259],[-4.387,13.6469],[-4.283,13.836],[-4.169,13.9229],[-4.114,13.938],[-4.086,13.927],[-4.0411,13.8389],[-4.01,13.6999],[-3.958,13.598],[-3.9655,13.4892]]]}},{"type":"Feature","id":"Tombouctou","properties":{"id":"Tombouctou","iso_code":"ML-6","name":"Tombouctou","name_full":"Tombouctou","name_ja":"トンブクトゥ州","center_lonlat":[-3.581,20.0432]},"geometry":{"type":"Polygon","coordinates":[[[0.0037,21.8489],[-0.2219,21.153],[-1.3208,20.2818],[-2.0434,19.9155],[-1.4197,19.4107],[-0.9643,19.0642],[-0.8852,18.9553],[-0.9347,17.8861],[-1.6302,17.5634],[-1.7069,17.5145],[-1.6094,17.1253],[-1.6211,17.0769],[-1.6085,17.0357],[-0.8181,16.962],[-0.7171,16.9499],[-0.683,16.9329],[-0.6871,16.7379],[-0.71,16.6129],[-0.694,16.047],[-0.5591,15.4483],[-0.5003,15.0797],[-0.7197,15.0785],[-0.7713,15.0566],[-1.214,15.1789],[-1.386,15.322],[-1.495,15.375],[-1.686,15.4309],[-1.989,15.4279],[-2.147,15.4069],[-2.4501,15.304],[-2.532,15.322],[-2.597,15.3689],[-2.754,15.64],[-2.772,15.7169],[-2.924,15.8539],[-2.962,15.86],[-3.041,15.84],[-3.156,15.8329],[-3.1641,15.8779],[-3.202,15.8949],[-3.33,15.7709],[-3.4211,15.7729],[-3.4821,15.7329],[-3.497,15.688],[-3.49,15.6],[-3.524,15.5709],[-3.597,15.5389],[-3.642,15.4909],[-3.73,15.5079],[-3.845,15.4939],[-3.848,15.607],[-3.869,15.672],[-3.955,15.735],[-3.983,15.825],[-4.1351,15.8099],[-4.239,15.7189],[-4.377,15.7049],[-4.45,15.6559],[-4.688,15.581],[-5.151,15.6089],[-5.23,15.674],[-5.3571,15.553],[-5.5088,15.5069],[-5.3533,16.312],[-5.3649,16.3349],[-5.6059,16.4959],[-5.6233,16.5278],[-5.9491,19.4956],[-6.5931,24.9941],[-4.8216,24.9951],[0.0037,21.8489]]]}},{"type":"Feature","id":"Wassoulou","properties":{"id":"Wassoulou","iso_code":"ML-3","name":"Wassoulou","name_full":"Wassoulou","name_ja":"シカソ州","center_lonlat":[-6.5765,11.4066]},"geometry":{"type":"Polygon","coordinates":[[[-4.4644,12.7173],[-4.4853,12.7147],[-4.4913,12.6628],[-4.4225,12.5972],[-4.3872,12.534],[-4.4516,12.4353],[-4.4061,12.3075],[-4.4358,12.3017],[-4.4625,12.3282],[-4.4882,12.3207],[-4.4935,12.2728],[-4.5855,12.1972],[-4.5605,12.1495],[-4.5702,12.1389],[-4.6003,12.1376],[-4.6361,12.1176],[-4.6537,12.0691],[-4.7146,12.059],[-4.7613,12.0066],[-4.8068,11.9963],[-4.8262,12.0127],[-4.89,11.9979],[-4.9538,12.0051],[-5.0047,11.9807],[-5.0893,11.9793],[-5.1678,11.9437],[-5.2752,11.8374],[-5.3065,11.846],[-5.3699,11.8202],[-5.4124,11.8285],[-5.3706,11.7911],[-5.3343,11.7908],[-5.2871,11.7589],[-5.2807,11.6995],[-5.3076,11.6176],[-5.2339,11.576],[-5.2183,11.4222],[-5.2635,11.3902],[-5.2629,11.2516],[-5.3067,11.1994],[-5.3325,11.1216],[-5.3901,11.0947],[-5.5042,11.0727],[-5.5018,10.9702],[-5.4791,10.9755],[-5.4314,10.8447],[-5.4465,10.7687],[-5.468,10.7527],[-5.4826,10.6842],[-5.4759,10.6504],[-5.4606,10.6446],[-5.4774,10.6196],[-5.4681,10.5878],[-5.4817,10.5353],[-5.509,10.4909],[-5.5226,10.4255],[-5.594,10.4539],[-5.8063,10.4135],[-5.8781,10.3761],[-5.9048,10.3483],[-5.9047,10.2753],[-5.9164,10.2666],[-5.963,10.2827],[-5.9852,10.2273],[-6.0159,10.1899],[-6.1053,10.1893],[-6.1809,10.2158],[-6.2248,10.255],[-6.24,10.2519],[-6.2407,10.3026],[-6.2283,10.3161],[-6.2062,10.3108],[-6.2083,10.332],[-6.1839,10.3589],[-6.1988,10.3708],[-6.1806,10.4202],[-6.2004,10.4488],[-6.1903,10.4911],[-6.2613,10.5141],[-6.2562,10.5372],[-6.2314,10.5602],[-6.2387,10.598],[-6.2044,10.6296],[-6.2466,10.6576],[-6.2458,10.7207],[-6.256,10.7265],[-6.3417,10.6914],[-6.427,10.6861],[-6.4359,10.6287],[-6.3992,10.5925],[-6.4028,10.5691],[-6.446,10.5523],[-6.5376,10.5697],[-6.5986,10.6049],[-6.634,10.653],[-6.6692,10.6542],[-6.689,10.6079],[-6.6828,10.566],[-6.6975,10.4883],[-6.6831,10.4517],[-6.6478,10.4327],[-6.6689,10.361],[-6.7003,10.3417],[-6.7226,10.344],[-6.7821,10.373],[-6.8628,10.3438],[-6.9612,10.3449],[-6.9971,10.2528],[-6.9616,10.211],[-6.9594,10.1855],[-6.9716,10.1644],[-7.0158,10.1409],[-7.0405,10.1401],[-7.1064,10.2073],[-7.2047,10.2345],[-7.3634,10.2522],[-7.3723,10.3448],[-7.4444,10.3342],[-7.4662,10.4295],[-7.5015,10.4586],[-7.5564,10.4173],[-7.6644,10.4371],[-7.679,10.4059],[-7.7086,10.4025],[-7.736,10.3783],[-7.724,10.3636],[-7.7353,10.3471],[-7.7776,10.3299],[-7.7644,10.3129],[-7.7783,10.2783],[-7.829,10.2117],[-7.929,10.161],[-7.9897,10.162],[-7.9626,10.2333],[-7.9712,10.2818],[-7.9963,10.3283],[-8.0961,10.3467],[-8.1155,10.3602],[-8.1354,10.4273],[-8.189,10.4136],[-8.2289,10.4234],[-8.2955,10.5374],[-8.3111,10.7353],[-8.3156,10.7531],[-8.3419,10.7632],[-8.3036,10.8749],[-8.3051,10.9782],[-8.3266,11.0238],[-8.3693,11.0542],[-8.4105,11.0419],[-8.5058,11.0528],[-8.5416,10.9838],[-8.5595,10.9716],[-8.648,10.9658],[-8.6809,10.9523],[-8.6962,10.9627],[-8.6969,10.996],[-8.6337,11.0713],[-8.6246,11.122],[-8.5782,11.1421],[-8.5518,11.2107],[-8.4988,11.2335],[-8.4926,11.2778],[-8.4067,11.2753],[-8.3767,11.2947],[-8.371,11.3206],[-8.418,11.3255],[-8.4261,11.3405],[-8.3753,11.3677],[-8.4277,11.4001],[-8.5276,11.4234],[-8.5394,11.4563],[-8.488,11.5159],[-8.4311,11.642],[-8.397,11.659],[-8.3331,11.6569],[-8.206,11.7049],[-8.155,11.7069],[-8.071,11.686],[-7.963,11.7779],[-7.862,11.8429],[-7.576,11.9809],[-7.544,12.0059],[-7.48,12.1479],[-7.319,12.227],[-7.289,12.3059],[-7.212,12.348],[-7.171,12.4129],[-7.1161,12.4329],[-7.05,12.173],[-7.0481,12.1379],[-7.08,12.067],[-7.079,12.012],[-7.015,11.9659],[-6.968,11.978],[-6.949,11.955],[-6.947,11.862],[-6.897,11.871],[-6.871,11.862],[-6.841,11.8249],[-6.7691,11.807],[-6.64,11.7479],[-6.553,11.746],[-6.536,11.7279],[-6.543,11.6699],[-6.498,11.6499],[-6.469,11.653],[-6.396,11.845],[-6.334,11.905],[-6.347,12.0269],[-6.3021,12.073],[-6.252,12.0769],[-6.201,12.0579],[-6.1531,12.013],[-6.141,12.0229],[-6.145,12.093],[-6.0181,12.1249],[-5.982,12.1219],[-5.945,12.2119],[-5.951,12.2999],[-5.98,12.3129],[-6.07,12.308],[-6.1031,12.324],[-6.122,12.3669],[-6.175,12.4069],[-6.211,12.4009],[-6.2271,12.502],[-6.261,12.5549],[-6.211,12.6049],[-6.004,12.6359],[-5.9811,12.6729],[-5.896,12.6519],[-5.579,12.8169],[-5.565,12.8099],[-5.532,12.7359],[-5.503,12.7149],[-5.4941,12.66],[-5.434,12.607],[-5.406,12.6159],[-5.376,12.6799],[-5.269,12.7959],[-5.145,12.744],[-5.1321,12.7059],[-5.0951,12.6589],[-5.098,12.5989],[-5.065,12.5749],[-4.776,12.623],[-4.6911,12.7399],[-4.629,12.7559],[-4.612,12.7029],[-4.585,12.704],[-4.569,12.7199],[-4.4644,12.7173]]]}}]}
