{"type":"FeatureCollection","features":[{"type":"Feature","id":"Attard","properties":{"id":"Attard","iso_code":"MT-01","name":"Attard","name_full":"Attard","name_ja":"アタード","center_lonlat":[14.4315,35.8883]},"geometry":{"type":"Polygon","coordinates":[[[14.4353,35.8952],[14.4459,35.8949],[14.4578,35.889],[14.4545,35.883],[14.4128,35.8795],[14.411,35.8842],[14.4116,35.8913],[14.4131,35.8975],[14.4353,35.8952]]]}},{"type":"Feature","id":"Balzan","properties":{"id":"Balzan","iso_code":"MT-02","name":"Balzan","name_full":"Balzan","name_ja":"バルツァーン","center_lonlat":[14.4518,35.8955]},"geometry":{"type":"Polygon","coordinates":[[[14.4486,35.9011],[14.4545,35.899],[14.4578,35.889],[14.4459,35.8949],[14.4486,35.9011]]]}},{"type":"Feature","id":"Birgu","properties":{"id":"Birgu","iso_code":"MT-03","name":"Birgu","name_full":"Birgu","name_ja":"ビルグ","center_lonlat":[14.5214,35.889]},"geometry":{"type":"Polygon","coordinates":[[[14.5213,35.8871],[14.5154,35.8911],[14.5195,35.8943],[14.5294,35.8816],[14.5213,35.8871]]]}},{"type":"Feature","id":"Birkirkara","properties":{"id":"Birkirkara","iso_code":"MT-04","name":"Birkirkara","name_full":"Birkirkara","name_ja":"ビルキルカラ","center_lonlat":[14.4649,35.8935]},"geometry":{"type":"Polygon","coordinates":[[[14.4545,35.899],[14.4625,35.9011],[14.4722,35.8989],[14.4741,35.8917],[14.4702,35.8842],[14.4578,35.889],[14.4545,35.899]]]}},{"type":"Feature","id":"Birzebbuga","properties":{"id":"Birzebbuga","iso_code":"MT-05","name":"Birzebbuga","name_full":"Birżebbuġa","name_ja":"ビルゼブジャ","center_lonlat":[14.5202,35.8198]},"geometry":{"type":"Polygon","coordinates":[[[14.5403,35.829],[14.5275,35.8012],[14.4976,35.8094],[14.509,35.8298],[14.5252,35.8398],[14.5403,35.829]]]}},{"type":"Feature","id":"Cospicua","properties":{"id":"Cospicua","iso_code":"MT-06","name":"Cospicua","name_full":"Cospicua","name_ja":"ボルムラ","center_lonlat":[14.5211,35.8795]},"geometry":{"type":"Polygon","coordinates":[[[14.5294,35.8816],[14.5267,35.8745],[14.5137,35.8739],[14.5137,35.8804],[14.5213,35.8871],[14.5294,35.8816]]]}},{"type":"Feature","id":"Dingli","properties":{"id":"Dingli","iso_code":"MT-07","name":"Dingli","name_full":"Dingli","name_ja":"ディングリ","center_lonlat":[14.3842,35.8547]},"geometry":{"type":"Polygon","coordinates":[[[14.3892,35.8395],[14.3648,35.8644],[14.3986,35.8603],[14.3892,35.8395]]]}},{"type":"Feature","id":"Fgura","properties":{"id":"Fgura","iso_code":"MT-08","name":"Fgura","name_full":"Fgura","name_ja":"フグーラ","center_lonlat":[14.5182,35.8685]},"geometry":{"type":"Polygon","coordinates":[[[14.5252,35.8656],[14.5163,35.8603],[14.5084,35.8691],[14.5137,35.8739],[14.5267,35.8745],[14.5252,35.8656]]]}},{"type":"Feature","id":"Floriana","properties":{"id":"Floriana","iso_code":"MT-09","name":"Floriana","name_full":"Floriana","name_ja":"フロリアーナ","center_lonlat":[14.5025,35.8877]},"geometry":{"type":"Polygon","coordinates":[[[14.498,35.8925],[14.5016,35.8952],[14.5107,35.889],[14.5084,35.8854],[14.5007,35.8798],[14.4966,35.8844],[14.4962,35.8883],[14.498,35.8925]]]}},{"type":"Feature","id":"Fontana","properties":{"id":"Fontana","iso_code":"MT-10","name":"Fontana","name_full":"Fontana","name_ja":"フォンターナ","center_lonlat":[14.2392,36.0325]},"geometry":{"type":"Polygon","coordinates":[[[14.2355,36.0318],[14.2357,36.0379],[14.2447,36.0306],[14.2411,36.0285],[14.2355,36.0318]]]}},{"type":"Feature","id":"Gudja","properties":{"id":"Gudja","iso_code":"MT-11","name":"Gudja","name_full":"Gudja","name_ja":"グーディア","center_lonlat":[14.5025,35.8459]},"geometry":{"type":"Polygon","coordinates":[[[14.5098,35.8502],[14.5033,35.8366],[14.4945,35.8508],[14.5098,35.8502]]]}},{"type":"Feature","id":"Gzira","properties":{"id":"Gzira","iso_code":"MT-12","name":"Gzira","name_full":"Gżira","name_ja":"グジラ","center_lonlat":[14.4956,35.9004]},"geometry":{"type":"Polygon","coordinates":[[[14.5072,35.8987],[14.5016,35.8952],[14.4892,35.8974],[14.4859,35.9004],[14.4886,35.9047],[14.4929,35.9066],[14.5072,35.8987]]]}},{"type":"Feature","id":"Għajnsielem","properties":{"id":"Għajnsielem","iso_code":"MT-13","name":"Għajnsielem","name_full":"Għajnsielem","name_ja":"アインシーレム","center_lonlat":[14.285,36.0253]},"geometry":{"type":"Polygon","coordinates":[[[14.3001,36.025],[14.2736,36.016],[14.2717,36.0192],[14.2807,36.0334],[14.297,36.0304],[14.3001,36.025]]]}},{"type":"Feature","id":"Għarb","properties":{"id":"Għarb","iso_code":"MT-14","name":"Għarb","name_full":"Għarb","name_ja":"アーブ","center_lonlat":[14.2051,36.0614]},"geometry":{"type":"Polygon","coordinates":[[[14.1836,36.0648],[14.2129,36.0702],[14.2189,36.0514],[14.2118,36.0519],[14.1836,36.0648]]]}},{"type":"Feature","id":"Għargħur","properties":{"id":"Għargħur","iso_code":"MT-15","name":"Għargħur","name_full":"Għargħur","name_ja":"アーウール","center_lonlat":[14.457,35.917]},"geometry":{"type":"Polygon","coordinates":[[[14.4513,35.9129],[14.4551,35.9289],[14.4637,35.9117],[14.4622,35.9094],[14.4513,35.9129]]]}},{"type":"Feature","id":"Għasri","properties":{"id":"Għasri","iso_code":"MT-16","name":"Għasri","name_full":"Għasri","name_ja":"アーシリ","center_lonlat":[14.2267,36.0603]},"geometry":{"type":"Polygon","coordinates":[[[14.2129,36.0702],[14.2335,36.0728],[14.2395,36.0493],[14.2286,36.0476],[14.2189,36.0514],[14.2129,36.0702]]]}},{"type":"Feature","id":"Għaxaq","properties":{"id":"Għaxaq","iso_code":"MT-17","name":"Għaxaq","name_full":"Għaxaq","name_ja":"アーシャ","center_lonlat":[14.5138,35.8421]},"geometry":{"type":"Polygon","coordinates":[[[14.5252,35.8398],[14.509,35.8298],[14.5033,35.8366],[14.5098,35.8502],[14.5098,35.8549],[14.511,35.8567],[14.5246,35.8446],[14.5252,35.8398]]]}},{"type":"Feature","id":"Iklin","properties":{"id":"Iklin","iso_code":"MT-19","name":"Iklin","name_full":"Iklin","name_ja":"イキリン","center_lonlat":[14.455,35.9055]},"geometry":{"type":"Polygon","coordinates":[[[14.4513,35.9129],[14.4622,35.9094],[14.4625,35.9011],[14.4545,35.899],[14.4486,35.9011],[14.4465,35.9043],[14.4513,35.9129]]]}},{"type":"Feature","id":"Kalkara","properties":{"id":"Kalkara","iso_code":"MT-21","name":"Kalkara","name_full":"Kalkara","name_ja":"カルカラ","center_lonlat":[14.5328,35.8895]},"geometry":{"type":"Polygon","coordinates":[[[14.5249,35.898],[14.548,35.89],[14.54,35.8827],[14.5294,35.8816],[14.5195,35.8943],[14.5249,35.898]]]}},{"type":"Feature","id":"Kercem","properties":{"id":"Kercem","iso_code":"MT-22","name":"Kercem","name_full":"Kerċem","name_ja":"ケルチャム","center_lonlat":[14.2164,36.037]},"geometry":{"type":"Polygon","coordinates":[[[14.2097,36.0231],[14.1948,36.0294],[14.2118,36.0519],[14.2189,36.0514],[14.2286,36.0476],[14.2357,36.0379],[14.2355,36.0318],[14.2097,36.0231]]]}},{"type":"Feature","id":"Kirkop","properties":{"id":"Kirkop","iso_code":"MT-23","name":"Kirkop","name_full":"Kirkop","name_ja":"キルコップ","center_lonlat":[14.4823,35.8399]},"geometry":{"type":"Polygon","coordinates":[[[14.4835,35.8342],[14.4764,35.8384],[14.4782,35.8464],[14.4903,35.8396],[14.4835,35.8342]]]}},{"type":"Feature","id":"Lija","properties":{"id":"Lija","iso_code":"MT-24","name":"Lija","name_full":"Lija","name_ja":"リーヤ","center_lonlat":[14.4411,35.9001]},"geometry":{"type":"Polygon","coordinates":[[[14.4353,35.8952],[14.435,35.9058],[14.4465,35.9043],[14.4486,35.9011],[14.4459,35.8949],[14.4353,35.8952]]]}},{"type":"Feature","id":"Luqa","properties":{"id":"Luqa","iso_code":"MT-25","name":"Luqa","name_full":"Luqa","name_ja":"ルア","center_lonlat":[14.4836,35.8521]},"geometry":{"type":"Polygon","coordinates":[[[14.4699,35.8603],[14.4803,35.8721],[14.4933,35.8629],[14.4948,35.8585],[14.4945,35.8508],[14.5033,35.8366],[14.509,35.8298],[14.5042,35.8292],[14.4903,35.8396],[14.4782,35.8464],[14.4572,35.8472],[14.4699,35.8603]]]}},{"type":"Feature","id":"Marsa","properties":{"id":"Marsa","iso_code":"MT-26","name":"Marsa","name_full":"Marsa","name_ja":"マルサ","center_lonlat":[14.4916,35.8739]},"geometry":{"type":"Polygon","coordinates":[[[14.4803,35.8721],[14.4841,35.8759],[14.4966,35.8844],[14.5007,35.8798],[14.4933,35.8629],[14.4803,35.8721]]]}},{"type":"Feature","id":"Marsaskala","properties":{"id":"Marsaskala","iso_code":"MT-27","name":"Marsaskala","name_full":"Marsaskala","name_ja":"マルサスカラ","center_lonlat":[14.5554,35.856]},"geometry":{"type":"Polygon","coordinates":[[[14.5609,35.873],[14.5658,35.8417],[14.5483,35.8458],[14.543,35.8609],[14.5609,35.873]]]}},{"type":"Feature","id":"Marsaxlokk","properties":{"id":"Marsaxlokk","iso_code":"MT-28","name":"Marsaxlokk","name_full":"Marsaxlokk","name_ja":"マルサシロク","center_lonlat":[14.546,35.8378]},"geometry":{"type":"Polygon","coordinates":[[[14.5658,35.8417],[14.5618,35.8298],[14.5403,35.829],[14.5252,35.8398],[14.5246,35.8446],[14.5483,35.8458],[14.5658,35.8417]]]}},{"type":"Feature","id":"Mdina","properties":{"id":"Mdina","iso_code":"MT-29","name":"Mdina","name_full":"Mdina","name_ja":"イムディーナ","center_lonlat":[14.4087,35.8818]},"geometry":{"type":"Polygon","coordinates":[[[14.4024,35.8816],[14.411,35.8842],[14.4128,35.8795],[14.4024,35.8816]]]}},{"type":"Feature","id":"Mellieħa","properties":{"id":"Mellieħa","iso_code":"MT-30","name":"Mellieħa","name_full":"Mellieħa","name_ja":"メリッハ","center_lonlat":[14.3572,35.9581]},"geometry":{"type":"Polygon","coordinates":[[[14.3409,35.9256],[14.322,35.9731],[14.3347,35.9824],[14.3773,35.9936],[14.3494,35.9731],[14.4058,35.9678],[14.3737,35.9363],[14.3409,35.9256]]]}},{"type":"Feature","id":"Mgarr","properties":{"id":"Mgarr","iso_code":"MT-31","name":"Mgarr","name_full":"Mġarr","name_ja":"イムジャー","center_lonlat":[14.3679,35.9159]},"geometry":{"type":"Polygon","coordinates":[[[14.3426,35.9002],[14.3409,35.9256],[14.3737,35.9363],[14.4033,35.9082],[14.4042,35.9052],[14.3426,35.9002]]]}},{"type":"Feature","id":"Mosta","properties":{"id":"Mosta","iso_code":"MT-32","name":"Mosta","name_full":"Mosta","name_ja":"モスタ","center_lonlat":[14.4191,35.9089]},"geometry":{"type":"Polygon","coordinates":[[[14.4042,35.9052],[14.4033,35.9082],[14.4116,35.9132],[14.3965,35.9245],[14.4258,35.9203],[14.435,35.9058],[14.4353,35.8952],[14.4131,35.8975],[14.4042,35.9052]]]}},{"type":"Feature","id":"Mqabba","properties":{"id":"Mqabba","iso_code":"MT-33","name":"Mqabba","name_full":"Mqabba","name_ja":"アッバ","center_lonlat":[14.4655,35.8424]},"geometry":{"type":"Polygon","coordinates":[[[14.4507,35.8393],[14.4572,35.8472],[14.4782,35.8464],[14.4764,35.8384],[14.4669,35.8378],[14.4507,35.8393]]]}},{"type":"Feature","id":"Msida","properties":{"id":"Msida","iso_code":"MT-34","name":"Msida","name_full":"Msida","name_ja":"イムシーダ","center_lonlat":[14.4817,35.8943]},"geometry":{"type":"Polygon","coordinates":[[[14.4866,35.8864],[14.4741,35.8917],[14.4722,35.8989],[14.4859,35.9004],[14.4892,35.8974],[14.4894,35.8919],[14.4866,35.8864]]]}},{"type":"Feature","id":"Mtarfa","properties":{"id":"Mtarfa","iso_code":"MT-35","name":"Mtarfa","name_full":"Mtarfa","name_ja":"イムタルファ","center_lonlat":[14.4049,35.8864]},"geometry":{"type":"Polygon","coordinates":[[[14.4024,35.8816],[14.3956,35.8875],[14.4116,35.8913],[14.411,35.8842],[14.4024,35.8816]]]}},{"type":"Feature","id":"Munxar","properties":{"id":"Munxar","iso_code":"MT-36","name":"Munxar","name_full":"Munxar","name_ja":"ムンシー","center_lonlat":[14.2283,36.0242]},"geometry":{"type":"Polygon","coordinates":[[[14.233,36.0165],[14.2097,36.0231],[14.2355,36.0318],[14.2411,36.0285],[14.2404,36.0266],[14.233,36.0165]]]}},{"type":"Feature","id":"Nadur","properties":{"id":"Nadur","iso_code":"MT-37","name":"Nadur","name_full":"Nadur","name_ja":"ナドゥール","center_lonlat":[14.2973,36.0455]},"geometry":{"type":"Polygon","coordinates":[[[14.2891,36.0645],[14.3204,36.0462],[14.297,36.0304],[14.2807,36.0334],[14.2891,36.0645]]]}},{"type":"Feature","id":"Naxxar","properties":{"id":"Naxxar","iso_code":"MT-38","name":"Naxxar","name_full":"Naxxar","name_ja":"ナッシャー","center_lonlat":[14.4422,35.9337]},"geometry":{"type":"Polygon","coordinates":[[[14.4382,35.9626],[14.4649,35.9466],[14.4625,35.9292],[14.4551,35.9289],[14.4513,35.9129],[14.4465,35.9043],[14.435,35.9058],[14.4258,35.9203],[14.4211,35.9381],[14.4382,35.9626]]]}},{"type":"Feature","id":"Paola","properties":{"id":"Paola","iso_code":"MT-39","name":"Paola","name_full":"Paola","name_ja":"パウラ","center_lonlat":[14.504,35.8729]},"geometry":{"type":"Polygon","coordinates":[[[14.5084,35.8691],[14.4948,35.8585],[14.4933,35.8629],[14.5007,35.8798],[14.5084,35.8854],[14.5137,35.8804],[14.5137,35.8739],[14.5084,35.8691]]]}},{"type":"Feature","id":"Pembroke","properties":{"id":"Pembroke","iso_code":"MT-40","name":"Pembroke","name_full":"Pembroke","name_ja":"ペンブローク","center_lonlat":[14.4786,35.9322]},"geometry":{"type":"Polygon","coordinates":[[[14.4649,35.9466],[14.5014,35.9304],[14.4841,35.92],[14.4625,35.9292],[14.4649,35.9466]]]}},{"type":"Feature","id":"Pieta","properties":{"id":"Pieta","iso_code":"MT-41","name":"Pieta","name_full":"Pietà","name_ja":"ピータ","center_lonlat":[14.4923,35.8897]},"geometry":{"type":"Polygon","coordinates":[[[14.498,35.8925],[14.4962,35.8883],[14.4866,35.8864],[14.4894,35.8919],[14.498,35.8925]]]}},{"type":"Feature","id":"Qala","properties":{"id":"Qala","iso_code":"MT-42","name":"Qala","name_full":"Qala","name_ja":"アラ","center_lonlat":[14.3152,36.0349]},"geometry":{"type":"Polygon","coordinates":[[[14.3204,36.0462],[14.3342,36.0344],[14.3001,36.025],[14.297,36.0304],[14.3204,36.0462]]]}},{"type":"Feature","id":"Qormi","properties":{"id":"Qormi","iso_code":"MT-43","name":"Qormi","name_full":"Qormi","name_ja":"オルミ","center_lonlat":[14.4682,35.8753]},"geometry":{"type":"Polygon","coordinates":[[[14.4634,35.8626],[14.4545,35.883],[14.4578,35.889],[14.4702,35.8842],[14.4791,35.8819],[14.4841,35.8759],[14.4803,35.8721],[14.4699,35.8603],[14.4634,35.8626]]]}},{"type":"Feature","id":"Qrendi","properties":{"id":"Qrendi","iso_code":"MT-44","name":"Qrendi","name_full":"Qrendi","name_ja":"レンディ","center_lonlat":[14.4494,35.8281]},"geometry":{"type":"Polygon","coordinates":[[[14.4536,35.8163],[14.4288,35.8226],[14.4507,35.8393],[14.4669,35.8378],[14.4536,35.8163]]]}},{"type":"Feature","id":"Rabat","properties":{"id":"Rabat","iso_code":"MT-46","name":"Rabat","name_full":"Rabat","name_ja":"ラバト","center_lonlat":[14.3798,35.8833]},"geometry":{"type":"Polygon","coordinates":[[[14.3648,35.8644],[14.3426,35.8807],[14.3426,35.9002],[14.4042,35.9052],[14.4131,35.8975],[14.4116,35.8913],[14.3956,35.8875],[14.4024,35.8816],[14.4128,35.8795],[14.4163,35.8638],[14.3986,35.8603],[14.3648,35.8644]]]}},{"type":"Feature","id":"Safi","properties":{"id":"Safi","iso_code":"MT-47","name":"Safi","name_full":"Safi","name_ja":"サーフィ","center_lonlat":[14.4919,35.8317]},"geometry":{"type":"Polygon","coordinates":[[[14.4835,35.8342],[14.4903,35.8396],[14.5042,35.8292],[14.4862,35.8251],[14.4835,35.8342]]]}},{"type":"Feature","id":"Saint Lawrence","properties":{"id":"Saint Lawrence","iso_code":"MT-50","name":"Saint Lawrence","name_full":"Saint Lawrence","name_ja":"サン・ローレンツ","center_lonlat":[14.1967,36.0487]},"geometry":{"type":"Polygon","coordinates":[[[14.1948,36.0294],[14.1836,36.0648],[14.2118,36.0519],[14.1948,36.0294]]]}},{"type":"Feature","id":"San Gwann","properties":{"id":"San Gwann","iso_code":"MT-49","name":"San Gwann","name_full":"San Ġwann","name_ja":"サンジュワン","center_lonlat":[14.4745,35.9057]},"geometry":{"type":"Polygon","coordinates":[[[14.482,35.9123],[14.4886,35.9047],[14.4859,35.9004],[14.4722,35.8989],[14.4625,35.9011],[14.4622,35.9094],[14.4637,35.9117],[14.482,35.9123]]]}},{"type":"Feature","id":"Sannat","properties":{"id":"Sannat","iso_code":"MT-52","name":"Sannat","name_full":"Sannat","name_ja":"サンナット","center_lonlat":[14.2512,36.0199]},"geometry":{"type":"Polygon","coordinates":[[[14.2736,36.016],[14.233,36.0165],[14.2404,36.0266],[14.2717,36.0192],[14.2736,36.016]]]}},{"type":"Feature","id":"Santa Lucija","properties":{"id":"Santa Lucija","iso_code":"MT-53","name":"Santa Lucija","name_full":"Santa Luċija","name_ja":"サンタルーチャ","center_lonlat":[14.5016,35.8537]},"geometry":{"type":"Polygon","coordinates":[[[14.5098,35.8549],[14.5098,35.8502],[14.4945,35.8508],[14.4948,35.8585],[14.5098,35.8549]]]}},{"type":"Feature","id":"Santa Venera","properties":{"id":"Santa Venera","iso_code":"MT-54","name":"Santa Venera","name_full":"Santa Venera","name_ja":"サンタヴェネラ","center_lonlat":[14.4775,35.8863]},"geometry":{"type":"Polygon","coordinates":[[[14.4791,35.8819],[14.4702,35.8842],[14.4741,35.8917],[14.4866,35.8864],[14.4791,35.8819]]]}},{"type":"Feature","id":"Senglea","properties":{"id":"Senglea","iso_code":"MT-20","name":"Senglea","name_full":"Senglea","name_ja":"イシーラ","center_lonlat":[14.5145,35.8861]},"geometry":{"type":"Polygon","coordinates":[[[14.5107,35.889],[14.5154,35.8911],[14.5213,35.8871],[14.5137,35.8804],[14.5084,35.8854],[14.5107,35.889]]]}},{"type":"Feature","id":"Siggiewi","properties":{"id":"Siggiewi","iso_code":"MT-55","name":"Siggiewi","name_full":"Siġġiewi","name_ja":"シッジウィー","center_lonlat":[14.4267,35.847]},"geometry":{"type":"Polygon","coordinates":[[[14.4288,35.8226],[14.3892,35.8395],[14.3986,35.8603],[14.4163,35.8638],[14.4634,35.8626],[14.4699,35.8603],[14.4572,35.8472],[14.4507,35.8393],[14.4288,35.8226]]]}},{"type":"Feature","id":"Sliema","properties":{"id":"Sliema","iso_code":"MT-56","name":"Sliema","name_full":"Sliema","name_ja":"スリマ","center_lonlat":[14.5056,35.9094]},"geometry":{"type":"Polygon","coordinates":[[[14.5104,35.9246],[14.5139,35.9008],[14.5072,35.8987],[14.4929,35.9066],[14.5104,35.9246]]]}},{"type":"Feature","id":"St. Julian's","properties":{"id":"St. Julian's","iso_code":"MT-48","name":"St. Julian's","name_full":"St. Julian's","name_ja":"センジュリアン","center_lonlat":[14.4948,35.9181]},"geometry":{"type":"Polygon","coordinates":[[[14.5014,35.9304],[14.5104,35.9246],[14.4929,35.9066],[14.4886,35.9047],[14.482,35.9123],[14.4841,35.92],[14.5014,35.9304]]]}},{"type":"Feature","id":"St. Paul's Bay","properties":{"id":"St. Paul's Bay","iso_code":"MT-51","name":"St. Paul's Bay","name_full":"St. Paul's Bay","name_ja":"セントポールズ・ベイ","center_lonlat":[14.4059,35.9414]},"geometry":{"type":"Polygon","coordinates":[[[14.4058,35.9678],[14.4382,35.9626],[14.4211,35.9381],[14.4258,35.9203],[14.3965,35.9245],[14.4116,35.9132],[14.4033,35.9082],[14.3737,35.9363],[14.4058,35.9678]]]}},{"type":"Feature","id":"Swieqi","properties":{"id":"Swieqi","iso_code":"MT-57","name":"Swieqi","name_full":"Swieqi","name_ja":"シウィーイ","center_lonlat":[14.4696,35.9197]},"geometry":{"type":"Polygon","coordinates":[[[14.4551,35.9289],[14.4625,35.9292],[14.4841,35.92],[14.482,35.9123],[14.4637,35.9117],[14.4551,35.9289]]]}},{"type":"Feature","id":"Ta' Xbiex","properties":{"id":"Ta' Xbiex","iso_code":"MT-58","name":"Ta' Xbiex","name_full":"Ta' Xbiex","name_ja":"タシビイシェ","center_lonlat":[14.4941,35.8944]},"geometry":{"type":"Polygon","coordinates":[[[14.5016,35.8952],[14.498,35.8925],[14.4894,35.8919],[14.4892,35.8974],[14.5016,35.8952]]]}},{"type":"Feature","id":"Tarxien","properties":{"id":"Tarxien","iso_code":"MT-59","name":"Tarxien","name_full":"Tarxien","name_ja":"タルシーン","center_lonlat":[14.5066,35.8611]},"geometry":{"type":"Polygon","coordinates":[[[14.5163,35.8603],[14.511,35.8567],[14.5098,35.8549],[14.4948,35.8585],[14.5084,35.8691],[14.5163,35.8603]]]}},{"type":"Feature","id":"Valletta","properties":{"id":"Valletta","iso_code":"MT-60","name":"Valletta","name_full":"Valletta","name_ja":"バレッタ","center_lonlat":[14.5127,35.8955]},"geometry":{"type":"Polygon","coordinates":[[[14.5139,35.9008],[14.5249,35.898],[14.5195,35.8943],[14.5154,35.8911],[14.5107,35.889],[14.5016,35.8952],[14.5072,35.8987],[14.5139,35.9008]]]}},{"type":"Feature","id":"Victoria","properties":{"id":"Victoria","iso_code":"MT-45","name":"Victoria","name_full":"Victoria","name_ja":"ラバット","center_lonlat":[14.2427,36.0411]},"geometry":{"type":"Polygon","coordinates":[[[14.2357,36.0379],[14.2286,36.0476],[14.2395,36.0493],[14.2506,36.0458],[14.2551,36.0375],[14.2447,36.0306],[14.2357,36.0379]]]}},{"type":"Feature","id":"Xagħra","properties":{"id":"Xagħra","iso_code":"MT-61","name":"Xagħra","name_full":"Xagħra","name_ja":"シャーラ","center_lonlat":[14.2713,36.0509]},"geometry":{"type":"Polygon","coordinates":[[[14.272,36.071],[14.2891,36.0645],[14.2807,36.0334],[14.2551,36.0375],[14.2506,36.0458],[14.272,36.071]]]}},{"type":"Feature","id":"Xewkija","properties":{"id":"Xewkija","iso_code":"MT-62","name":"Xewkija","name_full":"Xewkija","name_ja":"シェウキーヤ","center_lonlat":[14.2617,36.0289]},"geometry":{"type":"Polygon","coordinates":[[[14.2404,36.0266],[14.2411,36.0285],[14.2447,36.0306],[14.2551,36.0375],[14.2807,36.0334],[14.2717,36.0192],[14.2404,36.0266]]]}},{"type":"Feature","id":"Xgħajra","properties":{"id":"Xgħajra","iso_code":"MT-63","name":"Xgħajra","name_full":"Xgħajra","name_ja":"シャイラ","center_lonlat":[14.5481,35.884]},"geometry":{"type":"Polygon","coordinates":[[[14.548,35.89],[14.5562,35.8793],[14.54,35.8827],[14.548,35.89]]]}},{"type":"Feature","id":"Zabbar","properties":{"id":"Zabbar","iso_code":"MT-64","name":"Zabbar","name_full":"Żabbar","name_ja":"ザッパール","center_lonlat":[14.5413,35.8725]},"geometry":{"type":"Polygon","coordinates":[[[14.5562,35.8793],[14.5609,35.873],[14.543,35.8609],[14.5252,35.8656],[14.5267,35.8745],[14.5294,35.8816],[14.54,35.8827],[14.5562,35.8793]]]}},{"type":"Feature","id":"Zebbug","properties":{"id":"Zebbug","iso_code":"MT-65","name":"Zebbug","name_full":"Żebbuġ","name_ja":"ゼバグ","center_lonlat":[14.25,36.0618]},"geometry":{"type":"Polygon","coordinates":[[[14.2335,36.0728],[14.272,36.071],[14.2506,36.0458],[14.2395,36.0493],[14.2335,36.0728]]]}},{"type":"Feature","id":"Zebbug Gozo","properties":{"id":"Zebbug Gozo","iso_code":"MT-66","name":"Zebbug Gozo","name_full":"Żebbuġ Gozo","name_ja":"ゼブージ","center_lonlat":[14.4378,35.8721]},"geometry":{"type":"Polygon","coordinates":[[[14.4163,35.8638],[14.4128,35.8795],[14.4545,35.883],[14.4634,35.8626],[14.4163,35.8638]]]}},{"type":"Feature","id":"Zejtun","properties":{"id":"Zejtun","iso_code":"MT-67","name":"Zejtun","name_full":"Żejtun","name_ja":"ゼイトゥン","center_lonlat":[14.5306,35.8543]},"geometry":{"type":"Polygon","coordinates":[[[14.5246,35.8446],[14.511,35.8567],[14.5163,35.8603],[14.5252,35.8656],[14.543,35.8609],[14.5483,35.8458],[14.5246,35.8446]]]}},{"type":"Feature","id":"Zurrieq","properties":{"id":"Zurrieq","iso_code":"MT-68","name":"Zurrieq","name_full":"Żurrieq","name_ja":"ズッリー","center_lonlat":[14.48,35.8228]},"geometry":{"type":"Polygon","coordinates":[[[14.4976,35.8094],[14.4536,35.8163],[14.4669,35.8378],[14.4764,35.8384],[14.4835,35.8342],[14.4862,35.8251],[14.5042,35.8292],[14.509,35.8298],[14.4976,35.8094]]]}},{"type":"Feature","id":"Ħamrun","properties":{"id":"Ħamrun","iso_code":"MT-18","name":"Ħamrun","name_full":"Ħamrun","name_ja":"ハムルーン","center_lonlat":[14.488,35.8827]},"geometry":{"type":"Polygon","coordinates":[[[14.4841,35.8759],[14.4791,35.8819],[14.4866,35.8864],[14.4962,35.8883],[14.4966,35.8844],[14.4841,35.8759]]]}}]}
