{"type":"FeatureCollection","features":[{"type":"Feature","id":"Ralik Chain","properties":{"id":"Ralik Chain","iso_code":"MH-L","name":"Ralik Chain","name_full":"Ralik Chain","name_ja":"ラリック列島","center_lonlat":[169.6514,5.9069]},"geometry":{"type":"MultiPolygon","coordinates":[[[[169.5903,5.8009],[169.6296,5.8402],[169.6555,5.9429],[169.7345,6.0131],[169.7214,5.9766],[169.6652,5.9388],[169.635,5.829],[169.6152,5.7988],[169.5903,5.8009]]],[[[168.7578,7.3079],[168.8301,7.3079],[168.8153,7.2925],[168.7915,7.2934],[168.6751,7.3209],[168.6792,7.3352],[168.7578,7.3079]]],[[[166.9041,11.1729],[166.8753,11.145],[166.8358,11.1592],[166.9041,11.1729]]],[[[168.5768,7.4041],[168.5552,7.4303],[168.5625,7.4643],[168.5768,7.4041]]],[[[168.6854,4.5738],[168.735,4.5905],[168.7681,4.6291],[168.7414,4.5858],[168.6854,4.5738]]]]}},{"type":"Feature","id":"Ratak Chain","properties":{"id":"Ratak Chain","iso_code":"MH-T","name":"Ratak Chain","name_full":"Ratak Chain","name_ja":"ラタック列島","center_lonlat":[171.3459,7.0955]},"geometry":{"type":"MultiPolygon","coordinates":[[[[171.3936,7.1099],[171.3669,7.0945],[171.2352,7.0677],[171.2022,7.0725],[171.0357,7.1551],[171.0503,7.1707],[171.0571,7.1435],[171.2264,7.0758],[171.3936,7.1099]]],[[[171.7567,6.9721],[171.7303,6.9756],[171.6887,7.0066],[171.6139,7.0061],[171.5926,7.0153],[171.5773,7.0472],[171.6112,7.0199],[171.6895,7.0199],[171.7567,6.9721]]],[[[172.0298,6.0541],[171.9624,6.0518],[171.9484,6.0678],[172.0298,6.0541]]],[[[171.7246,6.1017],[171.7451,6.0791],[171.7228,6.0834],[171.7246,6.1017]]],[[[171.7922,7.055],[171.801,7.0627],[171.7642,7.0195],[171.7922,7.055]]],[[[171.9097,7.0988],[171.9219,7.1118],[171.9154,7.1251],[171.9289,7.1183],[171.9089,7.0923],[171.8921,7.0908],[171.9097,7.0988]]]]}}]}
