{"type":"FeatureCollection","features":[{"type":"Feature","id":"Adrar","properties":{"id":"Adrar","iso_code":"MR-07","name":"Adrar","name_full":"Adrar","name_ja":"アドラル州","center_lonlat":[-10.2181,21.0133]},"geometry":{"type":"Polygon","coordinates":[[[-14.2956,21.3332],[-13.0152,21.3334],[-13.0321,21.5819],[-12.378,21.3516],[-10.7878,21.52],[-6.5063,24.276],[-6.3716,23.124],[-7.9877,19.7254],[-11.0348,19.7114],[-11.4225,19.4088],[-11.4506,19.2031],[-11.6779,19.3198],[-12.3421,18.8996],[-12.6691,18.557],[-13.2442,19.0005],[-14.2218,19.0005],[-14.2197,19.4285],[-14.1545,21.1181],[-14.1732,21.1445],[-14.2956,21.3332]]]}},{"type":"Feature","id":"Assaba","properties":{"id":"Assaba","iso_code":"MR-03","name":"Assaba","name_full":"Assaba","name_ja":"アサバ州","center_lonlat":[-11.5374,16.5804]},"geometry":{"type":"Polygon","coordinates":[[[-11.7017,15.5374],[-11.6693,15.6257],[-11.651,15.7264],[-11.6127,15.7674],[-11.5918,15.8433],[-11.5565,15.8842],[-11.5538,15.9198],[-11.5003,15.9693],[-11.6073,15.9856],[-11.6772,16.0311],[-11.7371,16.0444],[-11.7896,16.0381],[-11.8126,16.0554],[-11.821,16.0396],[-11.7962,15.9727],[-11.8314,15.9415],[-11.8342,15.9091],[-11.9362,15.9018],[-11.9745,15.9342],[-12.0049,15.9394],[-12.0194,15.9795],[-12.0103,16.0521],[-12.0518,16.0561],[-12.0984,16.1067],[-12.1428,16.1205],[-12.1543,16.1075],[-12.2222,16.1218],[-12.234,16.1414],[-12.2402,16.2205],[-12.256,16.2369],[-12.3124,16.2567],[-12.3884,16.209],[-12.4278,16.2055],[-12.4331,16.2354],[-12.4126,16.3043],[-12.4294,16.4428],[-12.6576,16.4851],[-12.7049,16.4561],[-12.7622,16.4589],[-12.7665,16.494],[-12.7471,16.5109],[-12.7357,16.553],[-12.7515,16.5654],[-12.7788,16.6422],[-12.8315,16.6737],[-12.8347,16.7424],[-12.8016,16.8224],[-12.823,16.8583],[-12.8104,16.9493],[-12.7279,17.0471],[-12.5179,17.1212],[-12.4691,17.186],[-12.3482,17.2273],[-12.337,17.2564],[-12.3102,17.2754],[-12.2136,17.1868],[-11.9099,17.0862],[-11.7525,17.1391],[-11.5704,17.1239],[-11.5271,17.1772],[-11.5185,17.3823],[-11.4925,17.4381],[-11.5089,17.4932],[-11.4688,17.5097],[-11.4741,17.5478],[-11.5145,17.557],[-11.4218,17.6026],[-11.4152,17.633],[-11.43,17.6605],[-11.425,17.675],[-11.5293,17.8167],[-11.5065,17.8153],[-11.5953,17.9557],[-11.5811,17.9853],[-11.5493,18.0016],[-11.5479,18.0505],[-11.4918,18.0467],[-11.4864,18.0779],[-11.3555,18.0758],[-11.3234,18.0645],[-11.2401,18.0986],[-11.2125,18.0964],[-11.1689,18.1615],[-11.1942,18.1852],[-11.1361,18.2411],[-10.9707,18.3109],[-11.0795,17.7228],[-11.0936,17.6576],[-11.0586,17.524],[-10.9914,17.3914],[-10.9867,17.3563],[-10.9939,17.3201],[-10.9805,17.2839],[-11.0106,17.1608],[-10.9797,17.0998],[-10.9957,16.9795],[-10.9932,16.8893],[-10.9796,16.8652],[-10.997,16.8378],[-10.9904,16.8164],[-10.9352,16.75],[-10.8978,16.7402],[-10.8827,16.7236],[-10.8746,16.6729],[-10.8387,16.6141],[-10.7766,16.5935],[-10.7478,16.6084],[-10.7363,16.5954],[-10.7054,16.6042],[-10.6998,16.595],[-10.7131,16.5681],[-10.7363,16.5664],[-10.737,16.5414],[-10.7684,16.5093],[-10.8724,16.4649],[-10.863,16.4421],[-10.8096,16.4227],[-10.8448,16.3019],[-10.8319,16.2786],[-10.8371,16.2483],[-10.7756,16.215],[-10.7599,16.1851],[-10.7631,16.0961],[-10.7787,16.0449],[-10.6669,15.9381],[-10.5847,15.4281],[-10.7092,15.4339],[-10.7364,15.4226],[-10.7468,15.3411],[-10.8272,15.2877],[-10.8441,15.2345],[-10.8909,15.1767],[-10.9152,15.1029],[-11.0127,15.2396],[-11.2982,15.451],[-11.4348,15.6234],[-11.5273,15.6426],[-11.5154,15.6101],[-11.5792,15.578],[-11.6149,15.5412],[-11.6441,15.5264],[-11.7017,15.5374]]]}},{"type":"Feature","id":"Brakna","properties":{"id":"Brakna","iso_code":"MR-05","name":"Brakna","name_full":"Brakna","name_ja":"ブラクナ州","center_lonlat":[-13.4009,17.2494]},"geometry":{"type":"Polygon","coordinates":[[[-14.9489,16.6706],[-14.8348,16.7518],[-14.6202,16.8556],[-14.5692,16.9094],[-14.3202,17.0881],[-13.9587,17.6035],[-13.7337,17.8],[-12.6691,18.557],[-12.4787,18.2742],[-12.5448,17.4919],[-12.4096,17.3556],[-12.3102,17.2754],[-12.337,17.2564],[-12.3482,17.2273],[-12.4691,17.186],[-12.5179,17.1212],[-12.7279,17.0471],[-12.8104,16.9493],[-12.823,16.8583],[-12.8254,16.8212],[-12.8727,16.7554],[-12.9315,16.6164],[-13.0161,16.5852],[-13.1101,16.5759],[-13.158,16.5204],[-13.1635,16.4403],[-13.1816,16.414],[-13.6325,16.2896],[-13.6494,16.2056],[-13.6686,16.1822],[-13.7183,16.1593],[-13.7106,16.1889],[-13.7294,16.1895],[-13.8113,16.1221],[-13.8448,16.126],[-13.8838,16.1937],[-13.9641,16.2301],[-13.9779,16.338],[-14.073,16.4007],[-14.2142,16.535],[-14.2681,16.5479],[-14.278,16.5813],[-14.3353,16.5865],[-14.3313,16.6241],[-14.3433,16.6367],[-14.4066,16.6608],[-14.4931,16.6325],[-14.5551,16.6406],[-14.6081,16.6288],[-14.656,16.6459],[-14.7112,16.6358],[-14.9125,16.6406],[-14.9309,16.6434],[-14.9489,16.6706]]]}},{"type":"Feature","id":"Dakhlet Nouadhibou","properties":{"id":"Dakhlet Nouadhibou","iso_code":"MR-08","name":"Dakhlet Nouadhibou","name_full":"Dakhlet Nouadhibou","name_ja":"ダフレト・ヌアジブ州","center_lonlat":[-15.983,20.8445]},"geometry":{"type":"MultiPolygon","coordinates":[[[[-14.2956,21.3332],[-14.1732,21.1445],[-15.8398,21.1508],[-15.5784,20.7374],[-16.283,19.4951],[-16.3232,19.4579],[-16.2849,19.5293],[-16.2926,19.5466],[-16.3915,19.4641],[-16.3505,19.5466],[-16.3647,19.5393],[-16.4263,19.4825],[-16.4399,19.4132],[-16.4651,19.4125],[-16.4672,19.4641],[-16.4316,19.5059],[-16.4225,19.5438],[-16.3846,19.5739],[-16.2338,19.7936],[-16.248,19.8278],[-16.2338,19.862],[-16.2549,19.8483],[-16.2578,19.8642],[-16.248,19.9029],[-16.2665,19.9137],[-16.3056,19.873],[-16.3133,19.8897],[-16.298,19.9225],[-16.2225,20.0036],[-16.2184,20.0579],[-16.2611,20.1357],[-16.2396,20.1381],[-16.2117,20.1756],[-16.2023,20.2333],[-16.2376,20.29],[-16.2675,20.2982],[-16.2951,20.3306],[-16.3232,20.3964],[-16.3479,20.4175],[-16.34,20.4411],[-16.3912,20.5695],[-16.4239,20.6013],[-16.4296,20.6442],[-16.4467,20.6365],[-16.4672,20.6496],[-16.4087,20.675],[-16.4808,20.6751],[-16.5013,20.726],[-16.5293,20.739],[-16.5284,20.5986],[-16.5423,20.5609],[-16.6212,20.6465],[-16.6727,20.6776],[-16.659,20.698],[-16.6711,20.7371],[-16.7102,20.77],[-16.7751,20.9376],[-16.7887,20.924],[-16.8032,20.9374],[-16.8166,20.986],[-16.8733,21.0646],[-16.9176,21.1592],[-17.0159,21.0312],[-17.0084,21.0134],[-16.9972,21.0185],[-17.0044,20.9324],[-17.0494,20.9035],[-17.0279,20.8542],[-17.0569,20.7669],[-17.0812,20.8747],[-17.0774,20.9045],[-17.0049,21.1419],[-16.9683,21.3246],[-16.9588,21.3329],[-14.2956,21.3332]]],[[[-16.3778,19.8135],[-16.3459,19.8684],[-16.3368,19.8557],[-16.3671,19.7211],[-16.4325,19.6013],[-16.453,19.6292],[-16.4502,19.6565],[-16.464,19.6846],[-16.4263,19.749],[-16.4182,19.8056],[-16.3909,19.8261],[-16.3778,19.8135]]],[[[-16.3209,19.7285],[-16.3016,19.7226],[-16.3977,19.5999],[-16.3209,19.7285]]],[[[-16.4772,19.7315],[-16.4715,19.6997],[-16.4842,19.6777],[-16.4969,19.7055],[-16.4772,19.7315]]],[[[-16.4593,20.6147],[-16.4464,20.6073],[-16.4542,20.5711],[-16.4742,20.5942],[-16.4593,20.6147]]]]}},{"type":"Feature","id":"Gorgol","properties":{"id":"Gorgol","iso_code":"MR-04","name":"Gorgol","name_full":"Gorgol","name_ja":"ゴルゴル州","center_lonlat":[-12.8326,16.0091]},"geometry":{"type":"Polygon","coordinates":[[[-13.7183,16.1593],[-13.6686,16.1822],[-13.6494,16.2056],[-13.6325,16.2896],[-13.1816,16.414],[-13.1635,16.4403],[-13.158,16.5204],[-13.1101,16.5759],[-13.0161,16.5852],[-12.9315,16.6164],[-12.8727,16.7554],[-12.8254,16.8212],[-12.823,16.8583],[-12.8016,16.8224],[-12.8347,16.7424],[-12.8315,16.6737],[-12.7788,16.6422],[-12.7515,16.5654],[-12.7357,16.553],[-12.7471,16.5109],[-12.7665,16.494],[-12.7622,16.4589],[-12.7049,16.4561],[-12.6576,16.4851],[-12.4294,16.4428],[-12.4126,16.3043],[-12.4331,16.2354],[-12.4278,16.2055],[-12.3884,16.209],[-12.3124,16.2567],[-12.256,16.2369],[-12.2402,16.2205],[-12.234,16.1414],[-12.2222,16.1218],[-12.1543,16.1075],[-12.1428,16.1205],[-12.0984,16.1067],[-12.0518,16.0561],[-12.0103,16.0521],[-12.0194,15.9795],[-12.0049,15.9394],[-12.1418,15.8858],[-12.1926,15.8925],[-12.2375,15.8806],[-12.2927,15.808],[-12.4631,15.6585],[-12.4941,15.5682],[-12.5877,15.4739],[-12.6749,15.3365],[-12.7466,15.1311],[-12.7798,15.1464],[-12.7872,15.2142],[-12.8568,15.222],[-12.8884,15.2509],[-12.8944,15.2634],[-12.8842,15.2708],[-12.8334,15.27],[-12.828,15.2839],[-12.8473,15.3133],[-12.919,15.3654],[-12.9331,15.4383],[-12.9643,15.5092],[-12.9958,15.5142],[-13.0389,15.4869],[-13.0838,15.4927],[-13.095,15.5147],[-13.0918,15.5751],[-13.1097,15.5964],[-13.1782,15.6282],[-13.2378,15.6234],[-13.2487,15.6567],[-13.2283,15.7113],[-13.2861,15.7696],[-13.28,15.8229],[-13.316,15.8818],[-13.3159,15.9305],[-13.3698,15.9855],[-13.3886,16.0521],[-13.44,16.1019],[-13.5017,16.0951],[-13.4849,16.155],[-13.669,16.1057],[-13.7196,16.1356],[-13.7183,16.1593]]]}},{"type":"Feature","id":"Guidimaka","properties":{"id":"Guidimaka","iso_code":"MR-10","name":"Guidimaka","name_full":"Guidimaka","name_ja":"ギディマカ州","center_lonlat":[-12.1279,15.3841]},"geometry":{"type":"Polygon","coordinates":[[[-12.7466,15.1311],[-12.6749,15.3365],[-12.5877,15.4739],[-12.4941,15.5682],[-12.4631,15.6585],[-12.2927,15.808],[-12.2375,15.8806],[-12.1926,15.8925],[-12.1418,15.8858],[-12.0049,15.9394],[-11.9745,15.9342],[-11.9362,15.9018],[-11.8342,15.9091],[-11.8314,15.9415],[-11.7962,15.9727],[-11.821,16.0396],[-11.8126,16.0554],[-11.7896,16.0381],[-11.7371,16.0444],[-11.6772,16.0311],[-11.6073,15.9856],[-11.5003,15.9693],[-11.5538,15.9198],[-11.5565,15.8842],[-11.5918,15.8433],[-11.6127,15.7674],[-11.651,15.7264],[-11.6693,15.6257],[-11.7017,15.5374],[-11.7271,15.5412],[-11.7294,15.4961],[-11.7677,15.4372],[-11.8457,15.1791],[-11.8609,15.049],[-11.8328,15.049],[-11.8138,15.0285],[-11.8309,14.9264],[-11.8204,14.9],[-11.8775,14.8415],[-11.936,14.8236],[-11.9915,14.768],[-12.0497,14.7672],[-12.0704,14.7344],[-12.1389,14.7845],[-12.2248,14.7634],[-12.2641,14.7749],[-12.3825,14.846],[-12.4476,14.9074],[-12.4849,15.0173],[-12.6021,15.0788],[-12.6229,15.1023],[-12.6903,15.0924],[-12.7466,15.1311]]]}},{"type":"Feature","id":"Hodh Ech Chargui","properties":{"id":"Hodh Ech Chargui","iso_code":"MR-01","name":"Hodh Ech Chargui","name_full":"Hodh Ech Chargui","name_ja":"ホズ・エッ・シャルギ州","center_lonlat":[-7.1003,18.1811]},"geometry":{"type":"Polygon","coordinates":[[[-6.3716,23.124],[-5.9491,19.4956],[-5.6233,16.5278],[-5.6059,16.4959],[-5.3649,16.3349],[-5.3533,16.312],[-5.511,15.4942],[-9.0032,15.4955],[-8.9594,15.5391],[-8.9695,15.857],[-9.0675,16.0622],[-8.869,16.3216],[-8.8938,16.3917],[-8.2892,17.023],[-8.5983,17.3506],[-9.1497,17.2823],[-7.9877,19.7254],[-6.3716,23.124]]]}},{"type":"Feature","id":"Hodh El Gharbi","properties":{"id":"Hodh El Gharbi","iso_code":"MR-02","name":"Hodh El Gharbi","name_full":"Hodh El Gharbi","name_ja":"ホズ・エル・ガルビ州","center_lonlat":[-9.8331,16.5679]},"geometry":{"type":"Polygon","coordinates":[[[-9.0032,15.4955],[-9.3492,15.4956],[-9.3293,15.6552],[-9.3324,15.6876],[-9.3565,15.6979],[-9.4517,15.5883],[-9.4239,15.4405],[-9.6721,15.4307],[-9.8356,15.3711],[-9.9514,15.3812],[-10.0676,15.3647],[-10.1083,15.3659],[-10.1884,15.4047],[-10.2232,15.402],[-10.3226,15.4371],[-10.535,15.4417],[-10.5847,15.4281],[-10.6669,15.9381],[-10.7787,16.0449],[-10.7631,16.0961],[-10.7599,16.1851],[-10.7756,16.215],[-10.8371,16.2483],[-10.8319,16.2786],[-10.8448,16.3019],[-10.8096,16.4227],[-10.863,16.4421],[-10.8724,16.4649],[-10.7684,16.5093],[-10.737,16.5414],[-10.7363,16.5664],[-10.7131,16.5681],[-10.6998,16.595],[-10.7054,16.6042],[-10.7363,16.5954],[-10.7478,16.6084],[-10.7766,16.5935],[-10.8387,16.6141],[-10.8746,16.6729],[-10.8827,16.7236],[-10.8978,16.7402],[-10.9352,16.75],[-10.9904,16.8164],[-10.997,16.8378],[-10.9796,16.8652],[-10.9932,16.8893],[-10.9957,16.9795],[-10.9797,17.0998],[-11.0106,17.1608],[-10.9805,17.2839],[-10.9939,17.3201],[-10.9867,17.3563],[-10.9914,17.3914],[-11.0586,17.524],[-11.0936,17.6576],[-11.0795,17.7228],[-10.3325,17.5182],[-9.7227,17.5563],[-9.1497,17.2823],[-8.5983,17.3506],[-8.2892,17.023],[-8.8938,16.3917],[-8.869,16.3216],[-9.0675,16.0622],[-8.9695,15.857],[-8.9594,15.5391],[-9.0032,15.4955]]]}},{"type":"Feature","id":"Inchiri","properties":{"id":"Inchiri","iso_code":"MR-12","name":"Inchiri","name_full":"Inchiri","name_ja":"インシリ州","center_lonlat":[-15.1121,19.9926]},"geometry":{"type":"Polygon","coordinates":[[[-16.2104,18.9959],[-16.2828,19.1304],[-16.3683,19.2215],[-16.4672,19.2593],[-16.5048,19.35],[-16.5355,19.3808],[-16.5218,19.3964],[-16.4637,19.3815],[-16.4078,19.3892],[-16.3592,19.4158],[-16.3232,19.4579],[-16.283,19.4951],[-15.5784,20.7374],[-15.8398,21.1508],[-14.1732,21.1445],[-14.1545,21.1181],[-14.2197,19.4285],[-14.2218,19.0005],[-16.2104,18.9959]]]}},{"type":"Feature","id":"Nouakchott","properties":{"id":"Nouakchott","iso_code":"MR-NKC","name":"Nouakchott","name_full":"Nouakchott","name_ja":"ヌアクショット","center_lonlat":[-15.9109,18.1453]},"geometry":{"type":"Polygon","coordinates":[[[-16.0321,17.8864],[-16.0242,17.9601],[-16.0601,18.3909],[-15.7811,18.3931],[-15.7815,17.8866],[-16.0321,17.8864]]]}},{"type":"Feature","id":"Tagant","properties":{"id":"Tagant","iso_code":"MR-09","name":"Tagant","name_full":"Tagant","name_ja":"タガント州","center_lonlat":[-10.393,18.5739]},"geometry":{"type":"Polygon","coordinates":[[[-7.9877,19.7254],[-9.1497,17.2823],[-9.7227,17.5563],[-10.3325,17.5182],[-11.0795,17.7228],[-10.9707,18.3109],[-11.1361,18.2411],[-11.1942,18.1852],[-11.1689,18.1615],[-11.2125,18.0964],[-11.2401,18.0986],[-11.3234,18.0645],[-11.3555,18.0758],[-11.4864,18.0779],[-11.4918,18.0467],[-11.5479,18.0505],[-11.5493,18.0016],[-11.5811,17.9853],[-11.5953,17.9557],[-11.5065,17.8153],[-11.5293,17.8167],[-11.425,17.675],[-11.43,17.6605],[-11.4152,17.633],[-11.4218,17.6026],[-11.5145,17.557],[-11.4741,17.5478],[-11.4688,17.5097],[-11.5089,17.4932],[-11.4925,17.4381],[-11.5185,17.3823],[-11.5271,17.1772],[-11.5704,17.1239],[-11.7525,17.1391],[-11.9099,17.0862],[-12.2136,17.1868],[-12.3102,17.2754],[-12.4096,17.3556],[-12.5448,17.4919],[-12.4787,18.2742],[-12.6691,18.557],[-12.3421,18.8996],[-11.6779,19.3198],[-11.4506,19.2031],[-11.4225,19.4088],[-11.0348,19.7114],[-7.9877,19.7254]]]}},{"type":"Feature","id":"Tiris Zemmour","properties":{"id":"Tiris Zemmour","iso_code":"MR-11","name":"Tiris Zemmour","name_full":"Tiris Zemmour","name_ja":"ティリス・ゼムール州","center_lonlat":[-9.6822,24.1927]},"geometry":{"type":"Polygon","coordinates":[[[-6.5063,24.276],[-10.7878,21.52],[-12.378,21.3516],[-13.0321,21.5819],[-13.0933,22.4955],[-13.1655,22.7527],[-13.1523,22.82],[-13.1199,22.8835],[-13.0152,23.018],[-12.6194,23.2708],[-12.3539,23.3225],[-12.1346,23.4193],[-12.0327,23.445],[-12.0193,23.461],[-12.0153,25.9949],[-8.6877,26.0],[-8.6824,27.2854],[-5.516,25.4233],[-4.8216,24.9951],[-6.5931,24.9941],[-6.5063,24.276]]]}},{"type":"Feature","id":"Trarza","properties":{"id":"Trarza","iso_code":"MR-06","name":"Trarza","name_full":"Trarza","name_ja":"トラルザ州","center_lonlat":[-14.8513,17.92]},"geometry":{"type":"Polygon","coordinates":[[[-14.9489,16.6706],[-14.9743,16.6914],[-14.9966,16.6824],[-15.0237,16.64],[-15.0444,16.6319],[-15.0789,16.665],[-15.1076,16.6654],[-15.1183,16.6426],[-15.0932,16.6002],[-15.1251,16.5827],[-15.2325,16.5664],[-15.328,16.572],[-15.4145,16.548],[-15.464,16.5815],[-15.5248,16.5222],[-15.6097,16.5213],[-15.6722,16.4814],[-15.813,16.5138],[-15.8969,16.5184],[-15.9581,16.4984],[-15.9856,16.5059],[-16.0538,16.4954],[-16.1323,16.5548],[-16.1954,16.5227],[-16.2738,16.5232],[-16.3135,16.4933],[-16.3349,16.4558],[-16.3854,16.2349],[-16.4588,16.1942],[-16.4704,16.1064],[-16.5075,16.0104],[-16.5197,15.8464],[-16.5423,15.8088],[-16.5273,15.9774],[-16.5392,16.2672],[-16.5293,16.3327],[-16.4672,16.4929],[-16.4592,16.6439],[-16.3578,16.8747],[-16.3431,16.9423],[-16.2781,17.0407],[-16.1726,17.2624],[-16.049,17.6672],[-16.0321,17.8864],[-15.7815,17.8866],[-15.7811,18.3931],[-16.0601,18.3909],[-16.0694,18.484],[-16.132,18.6286],[-16.173,18.7931],[-16.1656,18.8442],[-16.2104,18.9959],[-14.2218,19.0005],[-13.2442,19.0005],[-12.6691,18.557],[-13.7337,17.8],[-13.9587,17.6035],[-14.3202,17.0881],[-14.5692,16.9094],[-14.6202,16.8556],[-14.8348,16.7518],[-14.9489,16.6706]]]}}]}
