{"type":"FeatureCollection","features":[{"type":"Feature","id":"Andrijevica","properties":{"id":"Andrijevica","iso_code":"ME-01","name":"Andrijevica","name_full":"Andrijevica","name_ja":"アンドリイェヴィツァ","center_lonlat":[19.756,42.712]},"geometry":{"type":"Polygon","coordinates":[[[19.7469,42.5889],[19.7221,42.6461],[19.6993,42.6548],[19.658,42.6346],[19.6281,42.6651],[19.6644,42.7021],[19.6649,42.7281],[19.659,42.7828],[19.6295,42.8032],[19.6439,42.8222],[19.6757,42.8253],[19.7759,42.7851],[19.8776,42.7633],[19.8592,42.7497],[19.8592,42.7327],[19.9094,42.6893],[19.7469,42.5889]]]}},{"type":"Feature","id":"Bar","properties":{"id":"Bar","iso_code":"ME-02","name":"Bar","name_full":"Bar","name_ja":"バール","center_lonlat":[19.1402,42.1695]},"geometry":{"type":"Polygon","coordinates":[[[19.2834,42.198],[19.272,42.1807],[19.282,42.1647],[19.37,42.1065],[19.2969,42.0886],[19.2145,42.1016],[19.2501,42.0366],[19.2418,42.0115],[19.1412,42.0198],[19.1392,42.0424],[19.0825,42.0812],[19.0747,42.0956],[19.0838,42.1101],[19.0487,42.1402],[19.0106,42.1396],[18.9714,42.1833],[19.0009,42.2085],[18.9959,42.2216],[18.9225,42.3021],[19.0247,42.2839],[19.047,42.3219],[19.1095,42.3003],[19.136,42.2672],[19.2184,42.246],[19.2834,42.198]]]}},{"type":"Feature","id":"Berane","properties":{"id":"Berane","iso_code":"ME-03","name":"Berane","name_full":"Berane","name_ja":"ベラネ","center_lonlat":[19.9161,42.8528]},"geometry":{"type":"Polygon","coordinates":[[[20.0556,42.7639],[20.0265,42.7432],[20.037,42.7074],[19.9094,42.6893],[19.8592,42.7327],[19.8592,42.7497],[19.8776,42.7633],[19.7759,42.7851],[19.6757,42.8253],[19.679,42.8816],[19.6988,42.9075],[19.8321,42.9488],[19.8943,42.94],[20.0269,42.9853],[20.0563,43.0208],[20.1295,42.9736],[20.0564,42.8381],[20.0476,42.7899],[20.0556,42.7639]]]}},{"type":"Feature","id":"Bijelo Polje","properties":{"id":"Bijelo Polje","iso_code":"ME-04","name":"Bijelo Polje","name_full":"Bijelo Polje","name_ja":"ビイェロ・ポリェ","center_lonlat":[19.7411,43.0472]},"geometry":{"type":"Polygon","coordinates":[[[19.5478,43.2188],[19.6187,43.1682],[19.6846,43.1567],[19.7136,43.1656],[19.7612,43.1087],[19.8051,43.09],[19.8722,43.0904],[19.9291,43.1139],[19.9597,43.0786],[20.0563,43.0208],[20.0269,42.9853],[19.8943,42.94],[19.8321,42.9488],[19.6988,42.9075],[19.6581,42.9403],[19.6632,42.9788],[19.6485,42.999],[19.4595,43.0496],[19.4725,43.0971],[19.5284,43.1426],[19.5478,43.2188]]]}},{"type":"Feature","id":"Budva","properties":{"id":"Budva","iso_code":"ME-05","name":"Budva","name_full":"Budva","name_ja":"ブドヴァ","center_lonlat":[18.8923,42.279]},"geometry":{"type":"Polygon","coordinates":[[[18.9714,42.1833],[18.9133,42.2222],[18.886,42.2844],[18.854,42.2905],[18.8314,42.2775],[18.8176,42.2912],[18.7887,42.276],[18.7936,42.3542],[18.8846,42.3395],[18.9225,42.3021],[18.9959,42.2216],[19.0009,42.2085],[18.9714,42.1833]]]}},{"type":"Feature","id":"Cetinje","properties":{"id":"Cetinje","iso_code":"ME-06","name":"Cetinje","name_full":"Cetinje","name_ja":"ツェティニェ","center_lonlat":[18.8829,42.4927]},"geometry":{"type":"Polygon","coordinates":[[[18.9372,42.6202],[18.9378,42.6024],[19.0057,42.5588],[18.9853,42.5063],[18.956,42.5045],[19.1426,42.3709],[19.1351,42.3356],[19.1095,42.3003],[19.047,42.3219],[19.0247,42.2839],[18.9225,42.3021],[18.8846,42.3395],[18.7936,42.3542],[18.7619,42.4253],[18.7721,42.4767],[18.7605,42.5074],[18.698,42.5405],[18.6483,42.6293],[18.6838,42.6419],[18.69,42.6747],[18.7274,42.7181],[18.7971,42.6953],[18.8599,42.6908],[18.9143,42.6575],[18.9372,42.6202]]]}},{"type":"Feature","id":"Danilovgrad","properties":{"id":"Danilovgrad","iso_code":"ME-07","name":"Danilovgrad","name_full":"Danilovgrad","name_ja":"ダニロヴグラード","center_lonlat":[19.121,42.606]},"geometry":{"type":"Polygon","coordinates":[[[19.2107,42.7595],[19.2449,42.7515],[19.2616,42.6972],[19.301,42.6769],[19.2597,42.6424],[19.2515,42.5974],[19.2206,42.5709],[19.1988,42.4874],[19.0412,42.4899],[18.9853,42.5063],[19.0057,42.5588],[18.9378,42.6024],[18.9372,42.6202],[18.9817,42.6222],[19.0144,42.6873],[19.05,42.7038],[19.1779,42.695],[19.2131,42.7082],[19.2107,42.7595]]]}},{"type":"Feature","id":"Herceg Novi","properties":{"id":"Herceg Novi","iso_code":"ME-08","name":"Herceg Novi","name_full":"Herceg Novi","name_ja":"ヘルツェグ・ノヴィ","center_lonlat":[18.5264,42.5049]},"geometry":{"type":"MultiPolygon","coordinates":[[[[18.5068,42.5985],[18.5571,42.5484],[18.6112,42.5219],[18.6541,42.4518],[18.5025,42.4556],[18.5213,42.438],[18.513,42.409],[18.5298,42.4004],[18.4964,42.4163],[18.4929,42.4424],[18.4549,42.4647],[18.4371,42.4934],[18.4374,42.5592],[18.459,42.5697],[18.4921,42.5648],[18.4867,42.5898],[18.5068,42.5985]]],[[[18.6585,42.3866],[18.6532,42.3663],[18.6167,42.3681],[18.5706,42.393],[18.5781,42.4004],[18.5452,42.4236],[18.5628,42.4385],[18.6449,42.4184],[18.6585,42.3866]]]]}},{"type":"Feature","id":"Kolasin","properties":{"id":"Kolasin","iso_code":"ME-09","name":"Kolasin","name_full":"Kolašin","name_ja":"コラシン","center_lonlat":[19.4341,42.7988]},"geometry":{"type":"Polygon","coordinates":[[[19.2107,42.7595],[19.2057,42.792],[19.2187,42.8397],[19.2086,42.8589],[19.1999,42.8876],[19.2278,42.9105],[19.343,42.9009],[19.3723,42.9345],[19.4491,42.8992],[19.5783,42.9015],[19.679,42.8816],[19.6757,42.8253],[19.6439,42.8222],[19.6295,42.8032],[19.659,42.7828],[19.6649,42.7281],[19.6644,42.7021],[19.6281,42.6651],[19.5842,42.6936],[19.5726,42.736],[19.5351,42.7391],[19.4987,42.7278],[19.4954,42.7082],[19.4469,42.6751],[19.3653,42.6619],[19.301,42.6769],[19.2616,42.6972],[19.2449,42.7515],[19.2107,42.7595]]]}},{"type":"Feature","id":"Kotor","properties":{"id":"Kotor","iso_code":"ME-10","name":"Kotor","name_full":"Kotor","name_ja":"コトル","center_lonlat":[18.6764,42.4879]},"geometry":{"type":"Polygon","coordinates":[[[18.5068,42.5985],[18.5428,42.6264],[18.6483,42.6293],[18.698,42.5405],[18.7605,42.5074],[18.7721,42.4767],[18.7619,42.4253],[18.7936,42.3542],[18.7887,42.276],[18.7786,42.2715],[18.7295,42.3116],[18.6936,42.3576],[18.7147,42.3771],[18.7346,42.4282],[18.6857,42.4767],[18.6541,42.4518],[18.6112,42.5219],[18.5571,42.5484],[18.5068,42.5985]]]}},{"type":"Feature","id":"Mojkovac","properties":{"id":"Mojkovac","iso_code":"ME-11","name":"Mojkovac","name_full":"Mojkovac","name_ja":"モイコヴァツ","center_lonlat":[19.5072,42.9656]},"geometry":{"type":"Polygon","coordinates":[[[19.3317,42.9901],[19.3494,43.0216],[19.4111,43.0452],[19.4595,43.0496],[19.6485,42.999],[19.6632,42.9788],[19.6581,42.9403],[19.6988,42.9075],[19.679,42.8816],[19.5783,42.9015],[19.4491,42.8992],[19.3723,42.9345],[19.3417,42.9536],[19.3317,42.9901]]]}},{"type":"Feature","id":"Niksic","properties":{"id":"Niksic","iso_code":"ME-12","name":"Niksic","name_full":"Nikšić","name_ja":"ニクシチ","center_lonlat":[18.7851,42.8373]},"geometry":{"type":"Polygon","coordinates":[[[18.6211,43.1246],[18.7374,43.0951],[18.8162,42.9794],[18.8501,42.9552],[18.9781,42.9334],[19.0897,42.8824],[19.2086,42.8589],[19.2187,42.8397],[19.2057,42.792],[19.2107,42.7595],[19.2131,42.7082],[19.1779,42.695],[19.05,42.7038],[19.0144,42.6873],[18.9817,42.6222],[18.9372,42.6202],[18.9143,42.6575],[18.8599,42.6908],[18.7971,42.6953],[18.7274,42.7181],[18.69,42.6747],[18.6838,42.6419],[18.6483,42.6293],[18.5428,42.6264],[18.55,42.6681],[18.5397,42.6955],[18.4674,42.7692],[18.4446,42.8171],[18.4437,42.8345],[18.4733,42.8626],[18.4335,42.9542],[18.4528,42.9934],[18.483,43.0146],[18.639,43.0202],[18.6211,43.1246]]]}},{"type":"Feature","id":"Plav","properties":{"id":"Plav","iso_code":"ME-13","name":"Plav","name_full":"Plav","name_ja":"プラヴ","center_lonlat":[19.9161,42.5886]},"geometry":{"type":"Polygon","coordinates":[[[20.037,42.7074],[20.1039,42.6531],[20.0757,42.6031],[20.077,42.5599],[20.065,42.5468],[20.0392,42.5578],[19.9818,42.5108],[19.9075,42.5064],[19.8355,42.4703],[19.8014,42.4681],[19.7516,42.4934],[19.7343,42.5244],[19.7322,42.5555],[19.7469,42.5889],[19.9094,42.6893],[20.037,42.7074]]]}},{"type":"Feature","id":"Pljevlja","properties":{"id":"Pljevlja","iso_code":"ME-14","name":"Pljevlja","name_full":"Pljevlja","name_ja":"プリェヴリャ","center_lonlat":[19.2437,43.3014]},"geometry":{"type":"Polygon","coordinates":[[[19.5478,43.2188],[19.5284,43.1426],[19.4725,43.0971],[19.4595,43.0496],[19.4111,43.0452],[19.3212,43.1205],[19.1875,43.1888],[19.1426,43.2021],[19.072,43.1977],[19.048,43.2156],[19.0225,43.2965],[19.0697,43.3088],[19.0099,43.411],[18.9683,43.4481],[18.9463,43.4439],[18.9512,43.4638],[18.9056,43.4906],[18.911,43.5073],[18.9775,43.5462],[19.0002,43.5479],[19.055,43.5067],[19.096,43.5129],[19.1228,43.5359],[19.1953,43.5328],[19.1752,43.5096],[19.1922,43.4545],[19.3723,43.3842],[19.4731,43.2933],[19.5124,43.2406],[19.5478,43.2188]]]}},{"type":"Feature","id":"Pluzine","properties":{"id":"Pluzine","iso_code":"ME-15","name":"Pluzine","name_full":"Plužine","name_ja":"プルジネ","center_lonlat":[18.8483,43.1544]},"geometry":{"type":"Polygon","coordinates":[[[18.9895,43.272],[18.994,43.1632],[19.0247,43.0942],[18.9772,43.0941],[18.9309,43.0301],[18.9367,43.0023],[18.9838,42.9794],[18.9882,42.9389],[18.9781,42.9334],[18.8501,42.9552],[18.8162,42.9794],[18.7374,43.0951],[18.6211,43.1246],[18.6453,43.1802],[18.6884,43.2245],[18.6643,43.2332],[18.8335,43.3242],[18.8212,43.3414],[18.9234,43.3468],[18.9573,43.3259],[18.9595,43.3035],[18.9895,43.272]]]}},{"type":"Feature","id":"Podgorica","properties":{"id":"Podgorica","iso_code":"ME-16","name":"Podgorica","name_full":"Podgorica","name_ja":"ポドゴリツァ","center_lonlat":[19.3423,42.4824]},"geometry":{"type":"Polygon","coordinates":[[[19.658,42.6346],[19.605,42.5848],[19.5881,42.5329],[19.5493,42.5086],[19.5178,42.458],[19.4121,42.3684],[19.4004,42.3259],[19.2834,42.198],[19.2184,42.246],[19.136,42.2672],[19.1095,42.3003],[19.1351,42.3356],[19.1426,42.3709],[18.956,42.5045],[18.9853,42.5063],[19.0412,42.4899],[19.1988,42.4874],[19.2206,42.5709],[19.2515,42.5974],[19.2597,42.6424],[19.301,42.6769],[19.3653,42.6619],[19.4469,42.6751],[19.4954,42.7082],[19.4987,42.7278],[19.5351,42.7391],[19.5726,42.736],[19.5842,42.6936],[19.6281,42.6651],[19.658,42.6346]]]}},{"type":"Feature","id":"Rozaje","properties":{"id":"Rozaje","iso_code":"ME-17","name":"Rozaje","name_full":"Rožaje","name_ja":"ロジャイェ","center_lonlat":[20.19,42.8602]},"geometry":{"type":"Polygon","coordinates":[[[20.0556,42.7639],[20.0476,42.7899],[20.0564,42.8381],[20.1295,42.9736],[20.2232,42.9577],[20.3371,42.907],[20.3536,42.891],[20.3454,42.8274],[20.2176,42.8027],[20.2084,42.7633],[20.1834,42.7425],[20.0763,42.7734],[20.0556,42.7639]]]}},{"type":"Feature","id":"Savnik","properties":{"id":"Savnik","iso_code":"ME-18","name":"Savnik","name_full":"Šavnik","name_ja":"シャヴニク","center_lonlat":[19.1323,42.9771]},"geometry":{"type":"Polygon","coordinates":[[[19.0247,43.0942],[19.0662,43.072],[19.121,43.0753],[19.1582,43.0409],[19.2115,43.0478],[19.2525,43.0147],[19.3317,42.9901],[19.3417,42.9536],[19.3723,42.9345],[19.343,42.9009],[19.2278,42.9105],[19.1999,42.8876],[19.2086,42.8589],[19.0897,42.8824],[18.9781,42.9334],[18.9882,42.9389],[18.9838,42.9794],[18.9367,43.0023],[18.9309,43.0301],[18.9772,43.0941],[19.0247,43.0942]]]}},{"type":"Feature","id":"Tivat","properties":{"id":"Tivat","iso_code":"ME-19","name":"Tivat","name_full":"Tivat","name_ja":"ティヴァト","center_lonlat":[18.7163,42.4114]},"geometry":{"type":"Polygon","coordinates":[[[18.6936,42.3576],[18.6958,42.3738],[18.6585,42.3866],[18.6449,42.4184],[18.7005,42.393],[18.7066,42.421],[18.6838,42.4588],[18.6857,42.4767],[18.7346,42.4282],[18.7147,42.3771],[18.6936,42.3576]]]}},{"type":"Feature","id":"Ulcinj","properties":{"id":"Ulcinj","iso_code":"ME-20","name":"Ulcinj","name_full":"Ulcinj","name_ja":"ウルツィニ","center_lonlat":[19.2763,41.9909]},"geometry":{"type":"Polygon","coordinates":[[[19.37,42.1065],[19.3506,42.0278],[19.371,41.9866],[19.3658,41.9697],[19.3464,41.9615],[19.3454,41.9212],[19.3649,41.889],[19.3651,41.8524],[19.3102,41.8945],[19.1703,41.938],[19.1603,41.969],[19.138,41.9853],[19.1412,42.0198],[19.2418,42.0115],[19.2501,42.0366],[19.2145,42.1016],[19.2969,42.0886],[19.37,42.1065]]]}},{"type":"Feature","id":"Zabljak","properties":{"id":"Zabljak","iso_code":"ME-21","name":"Zabljak","name_full":"Žabljak","name_ja":"ジャブリャク","center_lonlat":[19.1739,43.1184]},"geometry":{"type":"Polygon","coordinates":[[[19.0225,43.2965],[19.048,43.2156],[19.072,43.1977],[19.1426,43.2021],[19.1875,43.1888],[19.3212,43.1205],[19.4111,43.0452],[19.3494,43.0216],[19.3317,42.9901],[19.2525,43.0147],[19.2115,43.0478],[19.1582,43.0409],[19.121,43.0753],[19.0662,43.072],[19.0247,43.0942],[18.994,43.1632],[18.9895,43.272],[19.0225,43.2965]]]}}]}
