{"type":"FeatureCollection","features":[{"type":"Feature","id":"Chaouia-Ouardigha","properties":{"id":"Chaouia-Ouardigha","iso_code":"MA-09","name":"Chaouia-Ouardigha","name_full":"Chaouia-Ouardigha","name_ja":"シャウイア＝ウアルディガ地方","center_lonlat":[-7.1869,33.0399]},"geometry":{"type":"Polygon","coordinates":[[[-7.3411,33.7311],[-7.2293,33.8009],[-7.117,33.8349],[-7.0584,33.7843],[-6.9787,33.6141],[-6.7881,33.5525],[-6.7828,33.5347],[-6.8158,33.4661],[-6.8019,33.4416],[-6.8204,33.3301],[-6.8071,33.2828],[-6.7315,33.2428],[-6.5556,33.1879],[-6.5049,33.1978],[-6.4198,33.2383],[-6.4035,33.1954],[-6.2028,33.0778],[-6.1327,33.0118],[-6.1535,32.9259],[-6.1368,32.9108],[-6.0575,32.8972],[-6.0371,32.8571],[-6.0417,32.7931],[-6.0632,32.7608],[-6.0917,32.7473],[-6.2921,32.7018],[-6.5786,32.721],[-6.6614,32.6848],[-6.8576,32.6906],[-6.9791,32.6389],[-7.0697,32.4073],[-7.1267,32.3466],[-7.1959,32.3561],[-7.3718,32.4589],[-7.6211,32.4892],[-7.75,32.6264],[-7.9088,32.7364],[-7.9902,32.834],[-8.0016,32.8678],[-8.0344,32.8802],[-8.0537,32.9138],[-8.0757,33.0834],[-8.1179,33.1678],[-8.0904,33.213],[-8.0378,33.2322],[-7.9838,33.292],[-7.9685,33.3351],[-7.9691,33.3815],[-8.0116,33.4664],[-7.886,33.5091],[-7.6813,33.442],[-7.5903,33.4458],[-7.5769,33.4325],[-7.6113,33.4048],[-7.6137,33.383],[-7.5814,33.3625],[-7.5501,33.3786],[-7.5172,33.4194],[-7.4263,33.4723],[-7.3935,33.5259],[-7.3942,33.6345],[-7.3411,33.7311]]]}},{"type":"Feature","id":"Doukkala Abda","properties":{"id":"Doukkala Abda","iso_code":"MA-10","name":"Doukkala Abda","name_full":"Doukkala Abda","name_ja":"ドゥカラ＝アブダ地方","center_lonlat":[-8.6453,32.5173]},"geometry":{"type":"Polygon","coordinates":[[[-9.4588,31.9446],[-9.3661,32.0263],[-9.3281,32.1304],[-9.2777,32.1966],[-9.2648,32.3306],[-9.292,32.3508],[-9.2488,32.4525],[-9.2469,32.4723],[-9.2783,32.5295],[-9.2599,32.5769],[-9.1122,32.6828],[-8.9985,32.7971],[-8.8678,32.8819],[-8.7547,33.0106],[-8.6291,33.1276],[-8.621,33.1735],[-8.5292,33.2687],[-8.4517,33.2642],[-8.3788,33.3047],[-8.2847,33.3898],[-8.1066,33.4309],[-8.0116,33.4664],[-7.9691,33.3815],[-7.9685,33.3351],[-7.9838,33.292],[-8.0378,33.2322],[-8.0904,33.213],[-8.1179,33.1678],[-8.0757,33.0834],[-8.0537,32.9138],[-8.0344,32.8802],[-8.0016,32.8678],[-7.9902,32.834],[-8.0316,32.8126],[-8.0511,32.7874],[-8.0915,32.5826],[-8.1992,32.4909],[-8.3325,32.4196],[-8.4505,32.335],[-8.4495,32.2888],[-8.3915,32.2009],[-8.278,32.1429],[-8.2637,32.1118],[-8.275,32.0561],[-8.3336,31.9896],[-8.4495,31.7736],[-8.5027,31.7504],[-8.5669,31.7449],[-8.6812,31.7615],[-8.8572,31.765],[-8.969,31.7983],[-9.0556,31.9089],[-9.1844,31.9302],[-9.3338,31.9029],[-9.4172,31.9218],[-9.4588,31.9446]]]}},{"type":"Feature","id":"Fes-meknas-boulmane","properties":{"id":"Fes-meknas-boulmane","iso_code":"MA-05","name":"Fes-meknas-boulmane","name_full":"Fès-méknas-boulmane","name_ja":"フェズ・ブルマーヌ地方","center_lonlat":[-4.1892,33.4433]},"geometry":{"type":"Polygon","coordinates":[[[-3.1024,33.7851],[-3.0507,33.7543],[-3.0606,33.7175],[-3.1118,33.656],[-3.2374,33.5439],[-3.2144,33.5126],[-3.0898,33.4395],[-2.983,33.342],[-2.9396,33.2671],[-2.9261,33.211],[-3.0338,33.1486],[-3.3194,33.1017],[-3.4921,33.1026],[-3.5983,33.0872],[-3.678,33.0296],[-3.8611,32.823],[-3.9992,32.6173],[-4.1874,32.6132],[-4.2371,32.6291],[-4.2793,32.6527],[-4.3974,32.8022],[-4.4935,32.8845],[-4.7194,32.9255],[-4.7549,32.9504],[-4.7804,33.0236],[-4.8641,33.1271],[-4.9941,33.4169],[-4.98,33.4591],[-4.8979,33.5407],[-4.9041,33.5941],[-4.9327,33.6385],[-4.9768,33.666],[-5.1191,33.6931],[-5.1484,33.7179],[-5.1518,33.749],[-5.0879,33.8363],[-5.2477,34.1089],[-5.3133,34.0897],[-5.3294,34.1022],[-5.3522,34.1978],[-5.4205,34.2806],[-5.3203,34.2688],[-5.1754,34.3107],[-5.1363,34.3025],[-5.1068,34.276],[-5.0895,34.2905],[-4.9739,34.2913],[-4.9447,34.2651],[-4.9121,34.2654],[-4.8761,34.22],[-4.8428,34.2208],[-4.8059,34.1926],[-4.7207,34.0882],[-4.5965,34.0359],[-4.5652,34.0078],[-4.5596,33.9527],[-4.4766,33.9038],[-4.2789,33.8985],[-4.2057,33.9146],[-4.1852,33.9048],[-4.1866,33.8703],[-4.0645,33.7088],[-4.0811,33.6686],[-4.0834,33.5985],[-4.0724,33.5718],[-3.9741,33.5364],[-3.8858,33.5522],[-3.8648,33.5134],[-3.8508,33.516],[-3.8119,33.5746],[-3.8172,33.6],[-3.7981,33.644],[-3.5763,33.8593],[-3.4989,33.9075],[-3.4259,33.8956],[-3.3427,33.8378],[-3.1024,33.7851]]]}},{"type":"Feature","id":"Gharb-Chrarda-Beni Hssen","properties":{"id":"Gharb-Chrarda-Beni Hssen","iso_code":"MA-02","name":"Gharb-Chrarda-Beni Hssen","name_full":"Gharb-Chrarda-Béni Hssen","name_ja":"ガルブ＝チャラルダ＝ベニ・ハッセン地方","center_lonlat":[-5.9534,34.514]},"geometry":{"type":"Polygon","coordinates":[[[-6.7226,34.1824],[-6.6678,34.2805],[-6.5478,34.4347],[-6.2921,34.8808],[-6.2492,35.0014],[-6.1131,35.0102],[-6.0618,34.9894],[-5.7817,34.9307],[-5.6978,34.8811],[-5.633,34.823],[-5.513,34.8199],[-5.4201,34.7377],[-5.3495,34.7147],[-5.2392,34.7259],[-5.1902,34.7164],[-5.1779,34.6314],[-5.1971,34.5761],[-5.3229,34.4961],[-5.3497,34.4583],[-5.4907,34.37],[-5.4205,34.2806],[-5.4545,34.2128],[-5.4505,34.1783],[-5.4687,34.1654],[-5.5712,34.1294],[-5.6786,34.1336],[-5.7028,34.1425],[-5.71,34.1646],[-5.7421,34.192],[-5.7888,34.2119],[-5.8851,34.1167],[-5.9171,34.1052],[-6.0171,34.1072],[-6.2022,34.1576],[-6.3628,34.1686],[-6.4368,34.1598],[-6.5551,34.1203],[-6.6879,34.1572],[-6.7226,34.1824]]]}},{"type":"Feature","id":"Grand Casablanca","properties":{"id":"Grand Casablanca","iso_code":"MA-08","name":"Grand Casablanca","name_full":"Grand Casablanca","name_ja":"グラン・カサブランカ地方","center_lonlat":[-7.571,33.5395]},"geometry":{"type":"Polygon","coordinates":[[[-7.886,33.5091],[-7.8697,33.5266],[-7.701,33.5827],[-7.6676,33.6127],[-7.6062,33.6083],[-7.5291,33.6326],[-7.4064,33.727],[-7.3871,33.7325],[-7.394,33.725],[-7.3739,33.7193],[-7.3411,33.7311],[-7.3942,33.6345],[-7.3935,33.5259],[-7.4263,33.4723],[-7.5172,33.4194],[-7.5501,33.3786],[-7.5814,33.3625],[-7.6137,33.383],[-7.6113,33.4048],[-7.5769,33.4325],[-7.5903,33.4458],[-7.6813,33.442],[-7.886,33.5091]]]}},{"type":"Feature","id":"Guelmim-Es Semara","properties":{"id":"Guelmim-Es Semara","iso_code":"MA-14","name":"Guelmim-Es Semara","name_full":"Guelmim-Es Semara","name_ja":"ゲルミン＝エス・スマラ地方","center_lonlat":[-9.7667,28.2408]},"geometry":{"type":"Polygon","coordinates":[[[-12.0562,25.9953],[-12.445,25.9926],[-12.4974,26.2318],[-12.5774,26.46],[-12.561,26.5409],[-12.4865,26.6821],[-12.3125,26.844],[-12.2618,26.9115],[-12.153,27.1192],[-12.034,27.4405],[-11.927,27.5751],[-11.8132,27.6622],[-11.6707,27.7388],[-11.5437,27.7901],[-11.5537,27.8346],[-11.7823,28.2101],[-11.4856,28.3256],[-11.4528,28.3485],[-11.341,28.4797],[-11.3259,28.5152],[-11.2665,28.5516],[-11.0631,28.7524],[-10.5738,28.9904],[-10.4509,29.0922],[-10.3991,29.1612],[-10.3331,29.1311],[-10.2624,29.1342],[-10.2088,29.1192],[-10.1454,29.0759],[-10.0979,29.0789],[-10.0237,29.1388],[-9.9741,29.1607],[-9.9242,29.1737],[-9.8719,29.1661],[-9.8272,29.2108],[-9.7869,29.2803],[-9.7253,29.3012],[-9.6312,29.2693],[-9.5824,29.2767],[-9.5099,29.3209],[-9.4148,29.3163],[-9.1885,29.3559],[-9.149,29.333],[-9.0774,29.4249],[-8.9818,29.4507],[-8.8751,29.4569],[-8.7394,29.4048],[-8.6699,29.4269],[-8.6457,29.4423],[-8.695,29.5848],[-8.7009,29.7923],[-8.6708,29.8443],[-8.6872,29.8973],[-8.6441,29.9633],[-8.5731,29.9671],[-8.5119,29.9497],[-8.3667,29.9555],[-8.2988,29.997],[-8.2178,30.0079],[-8.1551,30.0069],[-8.1003,29.9813],[-8.0554,29.9965],[-8.0192,30.0267],[-7.9673,30.1158],[-7.921,30.1288],[-7.76,30.1295],[-7.7214,30.1652],[-7.6273,30.219],[-7.5392,30.2303],[-7.4671,30.2238],[-7.3247,30.1907],[-7.2189,30.3553],[-7.1772,30.3923],[-7.1003,30.3885],[-7.035,30.3687],[-6.9109,30.3764],[-6.8762,30.4019],[-6.8435,30.4525],[-6.7156,30.487],[-6.6607,30.4686],[-6.5823,30.4163],[-6.5267,30.3524],[-6.5733,30.2462],[-6.5688,30.2033],[-6.5394,30.1055],[-6.5112,30.0709],[-6.4149,30.0481],[-6.4191,30.0195],[-6.4851,29.9254],[-6.4948,29.8894],[-6.3439,29.5721],[-6.6996,29.5162],[-6.7835,29.4463],[-6.9582,29.5092],[-7.0701,29.5162],[-7.1469,29.5092],[-7.2588,29.4673],[-7.3496,29.3834],[-7.6195,29.3894],[-7.945,29.1762],[-8.0363,29.0999],[-8.1823,29.0355],[-8.3168,28.9391],[-8.3685,28.9165],[-8.4304,28.841],[-8.6676,28.7117],[-8.6824,28.6659],[-8.6824,27.6614],[-8.8184,27.6594],[-8.7734,27.46],[-8.8017,27.3604],[-8.7958,27.3077],[-8.7529,27.1905],[-8.7529,27.1505],[-8.7939,27.1202],[-9.0009,27.0899],[-9.2075,27.0997],[-9.4121,27.088],[-9.4863,27.0499],[-9.7344,26.8604],[-9.8169,26.8497],[-9.8994,26.8497],[-10.0317,26.9102],[-10.0659,26.9083],[-10.1884,26.8604],[-10.2505,26.8604],[-10.5503,26.9903],[-10.7568,27.0196],[-10.9218,27.0098],[-11.3916,26.8829],[-11.3603,26.793],[-11.3159,26.7442],[-11.3159,26.6836],[-11.3369,26.6329],[-11.4697,26.5196],[-11.5107,26.4698],[-11.6835,26.213],[-11.7172,26.1036],[-11.7539,26.086],[-11.8799,26.0704],[-12.0298,26.0303],[-12.0562,25.9953]]]}},{"type":"Feature","id":"Laayoune-Boujdour-Sakia El Hamra","properties":{"id":"Laayoune-Boujdour-Sakia El Hamra","iso_code":"MA-15","name":"Laayoune-Boujdour-Sakia El Hamra","name_full":"Laâyoune-Boujdour-Sakia El Hamra","name_ja":"アイウン＝ブジュール＝サキア・エル・ハムラ地方","center_lonlat":[-13.2736,25.9969]},"geometry":{"type":"Polygon","coordinates":[[[-12.0562,25.9953],[-12.0801,25.92],[-12.0801,25.8702],[-12.1699,25.6397],[-12.31,25.1104],[-12.3999,24.88],[-12.4301,24.8302],[-12.5,24.7696],[-12.7099,24.63],[-12.9469,24.4967],[-13.0642,24.5186],[-13.2335,24.5198],[-13.3143,24.5058],[-13.6848,24.394],[-13.9492,24.461],[-14.1422,24.4844],[-14.3065,24.4708],[-14.6328,24.4058],[-14.6785,24.4208],[-14.7435,24.4961],[-14.7856,24.526],[-15.0122,24.5915],[-14.9762,24.6414],[-14.9078,24.6855],[-14.8956,24.7057],[-14.8859,24.7707],[-14.836,24.9187],[-14.8435,24.9876],[-14.8292,25.0502],[-14.8497,25.2142],[-14.8192,25.3302],[-14.7821,25.4469],[-14.7149,25.5256],[-14.6852,25.5909],[-14.6614,25.6913],[-14.621,25.7836],[-14.5139,25.937],[-14.4866,26.0154],[-14.4804,26.0878],[-14.4928,26.1327],[-14.4661,26.1942],[-14.4007,26.2663],[-14.2989,26.3022],[-14.2159,26.3755],[-14.1802,26.4244],[-14.0469,26.4444],[-13.9237,26.5009],[-13.62,26.6889],[-13.5611,26.7491],[-13.4803,26.9117],[-13.4025,27.1772],[-13.3011,27.3244],[-13.3079,27.345],[-13.2943,27.3518],[-13.2408,27.4654],[-13.1713,27.685],[-13.0452,27.7598],[-13.003,27.821],[-12.9681,27.9146],[-12.9331,27.9387],[-12.8389,27.9704],[-12.6578,27.998],[-12.5135,27.9954],[-12.335,28.0473],[-12.0614,28.089],[-12.0231,28.1196],[-11.7823,28.2101],[-11.5537,27.8346],[-11.5437,27.7901],[-11.6707,27.7388],[-11.8132,27.6622],[-11.927,27.5751],[-12.034,27.4405],[-12.153,27.1192],[-12.2618,26.9115],[-12.3125,26.844],[-12.4865,26.6821],[-12.561,26.5409],[-12.5774,26.46],[-12.4974,26.2318],[-12.445,25.9926],[-12.0562,25.9953]]]}},{"type":"Feature","id":"Marrakesh-Tensift-El Haouz","properties":{"id":"Marrakesh-Tensift-El Haouz","iso_code":"MA-11","name":"Marrakesh-Tensift-El Haouz","name_full":"Marrakesh-Tensift-El Haouz","name_ja":"マラケシュ＝タンシフト＝アルハウズ地方","center_lonlat":[-8.3713,31.6289]},"geometry":{"type":"Polygon","coordinates":[[[-9.8236,30.96],[-9.8277,31.0675],[-9.8475,31.1213],[-9.8089,31.2862],[-9.8066,31.3435],[-9.8109,31.3668],[-9.8475,31.4024],[-9.793,31.4713],[-9.7696,31.5315],[-9.6942,31.6257],[-9.6673,31.7311],[-9.4588,31.9446],[-9.4172,31.9218],[-9.3338,31.9029],[-9.1844,31.9302],[-9.0556,31.9089],[-8.969,31.7983],[-8.8572,31.765],[-8.6812,31.7615],[-8.5669,31.7449],[-8.5027,31.7504],[-8.4495,31.7736],[-8.3336,31.9896],[-8.275,32.0561],[-8.2637,32.1118],[-8.278,32.1429],[-8.3915,32.2009],[-8.4495,32.2888],[-8.4505,32.335],[-8.3325,32.4196],[-8.1992,32.4909],[-8.0915,32.5826],[-8.0511,32.7874],[-8.0316,32.8126],[-7.9902,32.834],[-7.9088,32.7364],[-7.75,32.6264],[-7.6211,32.4892],[-7.3718,32.4589],[-7.1959,32.3561],[-7.1267,32.3466],[-7.109,32.3052],[-7.1132,32.1534],[-7.0977,32.0655],[-7.0276,31.8819],[-7.0408,31.8291],[-7.0805,31.7859],[-7.2239,31.7594],[-7.2688,31.7347],[-7.2844,31.6969],[-7.2568,31.6565],[-7.1499,31.5621],[-7.1865,31.4472],[-7.3263,31.3406],[-7.7071,31.1787],[-7.8251,31.1401],[-7.8901,31.0955],[-7.9894,30.9751],[-8.0338,30.9464],[-8.1644,30.9555],[-8.3603,30.8987],[-8.5963,30.8977],[-8.7507,30.8778],[-8.7693,30.8943],[-8.7926,30.953],[-8.8201,30.9688],[-9.0485,30.8554],[-9.2367,30.8472],[-9.3307,30.8826],[-9.5477,30.8819],[-9.6434,30.8301],[-9.6904,30.8294],[-9.7269,30.8617],[-9.7682,30.926],[-9.8236,30.96]]]}},{"type":"Feature","id":"Meknes-Tafilalet","properties":{"id":"Meknes-Tafilalet","iso_code":"MA-06","name":"Meknes-Tafilalet","name_full":"Meknès-Tafilalet","name_ja":"メクネス＝タフィラルト地方","center_lonlat":[-4.8032,32.0806]},"geometry":{"type":"Polygon","coordinates":[[[-3.1617,31.7325],[-3.5116,31.6727],[-3.5914,31.6783],[-3.6595,31.6478],[-3.6735,31.3892],[-3.7475,31.3852],[-3.8152,31.3372],[-3.815,31.2205],[-3.8362,31.1898],[-3.8393,31.1528],[-3.8108,31.1429],[-3.7489,31.1802],[-3.7314,31.1763],[-3.6897,31.1256],[-3.6241,31.0865],[-3.6087,31.0309],[-3.5547,30.9559],[-3.6106,30.879],[-3.6595,30.8371],[-3.6455,30.7113],[-3.8342,30.6275],[-4.002,30.5925],[-4.1557,30.5855],[-4.2745,30.5576],[-4.3724,30.5086],[-4.4842,30.3828],[-4.624,30.285],[-4.7707,30.2291],[-5.1107,30.4378],[-5.1627,30.4546],[-5.2191,30.4979],[-5.2271,30.5598],[-5.2077,30.6029],[-5.2059,30.6531],[-5.2795,30.734],[-5.2963,30.7712],[-5.361,30.8242],[-5.3632,30.8715],[-5.3595,30.9064],[-5.3326,30.9291],[-5.3028,30.9987],[-5.3043,31.1109],[-5.2333,31.3016],[-5.2138,31.4124],[-5.2526,31.4745],[-5.406,31.5656],[-5.4541,31.6089],[-5.5651,31.6384],[-5.6399,31.6232],[-5.7356,31.6384],[-5.7127,31.7047],[-5.6211,31.7999],[-5.5719,31.8748],[-5.5885,31.938],[-5.6585,31.9697],[-5.8059,31.9302],[-5.8287,31.9852],[-5.8596,32.0134],[-5.8516,32.0577],[-5.8211,32.1021],[-5.6379,32.2147],[-5.5559,32.2436],[-5.4761,32.2452],[-5.4684,32.2621],[-5.5273,32.3899],[-5.5078,32.4402],[-5.4373,32.5079],[-5.5223,32.5288],[-5.6523,32.6033],[-5.7747,32.6432],[-5.8995,32.7441],[-6.0417,32.7931],[-6.0371,32.8571],[-6.0575,32.8972],[-6.1368,32.9108],[-6.1535,32.9259],[-6.1327,33.0118],[-6.2028,33.0778],[-6.4035,33.1954],[-6.4198,33.2383],[-6.3933,33.268],[-6.4085,33.335],[-6.3993,33.3825],[-6.3536,33.4683],[-6.3286,33.4754],[-6.2348,33.4536],[-6.213,33.4381],[-6.2098,33.3801],[-6.1975,33.3659],[-6.0242,33.3156],[-5.9495,33.3324],[-5.8354,33.3277],[-5.7881,33.3503],[-5.807,33.401],[-5.789,33.6196],[-5.7395,33.7188],[-5.7245,33.788],[-5.7865,33.886],[-5.7598,33.9555],[-5.7719,33.9807],[-5.8121,34.0291],[-5.8372,34.0881],[-5.8851,34.1167],[-5.7888,34.2119],[-5.7421,34.192],[-5.71,34.1646],[-5.7028,34.1425],[-5.6786,34.1336],[-5.5712,34.1294],[-5.4687,34.1654],[-5.4505,34.1783],[-5.4545,34.2128],[-5.4205,34.2806],[-5.3522,34.1978],[-5.3294,34.1022],[-5.3133,34.0897],[-5.2477,34.1089],[-5.0879,33.8363],[-5.1518,33.749],[-5.1484,33.7179],[-5.1191,33.6931],[-4.9768,33.666],[-4.9327,33.6385],[-4.9041,33.5941],[-4.8979,33.5407],[-4.98,33.4591],[-4.9941,33.4169],[-4.8641,33.1271],[-4.7804,33.0236],[-4.7549,32.9504],[-4.7194,32.9255],[-4.4935,32.8845],[-4.3974,32.8022],[-4.2793,32.6527],[-4.2371,32.6291],[-4.1874,32.6132],[-3.9992,32.6173],[-3.8449,32.4096],[-3.8022,32.335],[-3.788,32.2843],[-3.7471,32.2626],[-3.7342,32.2205],[-3.696,32.189],[-3.6846,32.1531],[-3.6575,32.1412],[-3.6006,32.1518],[-3.5292,32.1848],[-3.4883,32.1856],[-3.3625,32.1528],[-3.2693,32.1641],[-3.2292,32.1543],[-3.2483,32.105],[-3.2399,31.9576],[-3.1919,31.8644],[-3.1523,31.8388],[-3.1617,31.7325]]]}},{"type":"Feature","id":"Oriental","properties":{"id":"Oriental","iso_code":"MA-04","name":"Oriental","name_full":"Oriental","name_ja":"オリアンタル地方","center_lonlat":[-2.562,33.44]},"geometry":{"type":"Polygon","coordinates":[[[-3.1617,31.7325],[-3.1523,31.8388],[-3.1919,31.8644],[-3.2399,31.9576],[-3.2483,32.105],[-3.2292,32.1543],[-3.2693,32.1641],[-3.3625,32.1528],[-3.4883,32.1856],[-3.5292,32.1848],[-3.6006,32.1518],[-3.6575,32.1412],[-3.6846,32.1531],[-3.696,32.189],[-3.7342,32.2205],[-3.7471,32.2626],[-3.788,32.2843],[-3.8022,32.335],[-3.8449,32.4096],[-3.9992,32.6173],[-3.8611,32.823],[-3.678,33.0296],[-3.5983,33.0872],[-3.4921,33.1026],[-3.3194,33.1017],[-3.0338,33.1486],[-2.9261,33.211],[-2.9396,33.2671],[-2.983,33.342],[-3.0898,33.4395],[-3.2144,33.5126],[-3.2374,33.5439],[-3.1118,33.656],[-3.0606,33.7175],[-3.0507,33.7543],[-3.1024,33.7851],[-3.1946,33.946],[-3.2103,33.996],[-3.2028,34.0253],[-3.11,34.0608],[-3.0833,34.0956],[-3.0695,34.1457],[-3.1101,34.2581],[-3.1961,34.3637],[-3.194,34.4016],[-3.0693,34.4983],[-3.0403,34.5959],[-3.025,34.6099],[-2.9611,34.6105],[-2.9491,34.6209],[-2.9704,34.6862],[-2.9856,34.7067],[-3.1984,34.7773],[-3.2721,34.7733],[-3.3642,34.6881],[-3.5114,34.5935],[-3.5448,34.5926],[-3.6227,34.6429],[-3.6325,34.6631],[-3.6335,34.684],[-3.6089,34.7176],[-3.5959,34.796],[-3.6114,34.8408],[-3.7303,34.8714],[-3.8106,34.9309],[-3.8219,35.2068],[-3.7648,35.2185],[-3.7471,35.2637],[-3.6996,35.2908],[-3.6736,35.2879],[-3.591,35.2333],[-3.4129,35.1979],[-3.3192,35.2018],[-3.1951,35.2382],[-3.118,35.2941],[-3.0771,35.2879],[-3.0454,35.3144],[-2.9686,35.4464],[-2.9522,35.4331],[-2.963,35.3735],[-2.9478,35.3298],[-2.9669,35.3139],[-2.9638,35.2862],[-2.943,35.2679],[-2.9129,35.2769],[-2.899,35.26],[-2.9123,35.2358],[-2.9098,35.1867],[-2.8561,35.1313],[-2.7481,35.116],[-2.8683,35.2174],[-2.8784,35.2463],[-2.7611,35.1433],[-2.6667,35.1082],[-2.5175,35.0994],[-2.4167,35.1492],[-2.2753,35.1096],[-2.2226,35.0893],[-2.2211,35.05],[-2.1938,35.0036],[-2.0612,34.9297],[-2.0163,34.9262],[-1.9797,34.8653],[-1.7695,34.7413],[-1.8711,34.5966],[-1.7507,34.4942],[-1.703,34.4797],[-1.8096,34.3725],[-1.7461,34.2903],[-1.6696,34.0792],[-1.7187,33.8981],[-1.7221,33.8512],[-1.7032,33.7618],[-1.7468,33.7024],[-1.7407,33.6866],[-1.6624,33.6447],[-1.6173,33.5544],[-1.6127,33.5215],[-1.6832,33.3692],[-1.6742,33.238],[-1.6236,33.1966],[-1.5714,33.112],[-1.4995,33.0602],[-1.503,32.9746],[-1.5588,32.9337],[-1.4233,32.7424],[-1.3905,32.7188],[-1.327,32.6989],[-1.0475,32.517],[-1.032,32.4944],[-1.1232,32.4179],[-1.218,32.3926],[-1.2441,32.3569],[-1.2766,32.2009],[-1.3096,32.1674],[-1.3052,32.1512],[-1.2327,32.1637],[-1.1956,32.146],[-1.1906,32.1252],[-1.2103,32.0897],[-1.2496,32.0817],[-2.5161,32.1322],[-2.6956,32.0897],[-2.8812,32.0763],[-2.9387,32.0486],[-2.8278,31.7946],[-3.0026,31.7736],[-3.1617,31.7325]]]}},{"type":"Feature","id":"Oued Ed-Dahab","properties":{"id":"Oued Ed-Dahab","iso_code":"MA-16","name":"Oued Ed-Dahab","name_full":"Oued Ed-Dahab","name_ja":"オウィド・エッ＝ダハブ州","center_lonlat":[-15.1355,22.9501]},"geometry":{"type":"Polygon","coordinates":[[[-12.9469,24.4967],[-13.06,24.4005],[-13.23,24.0899],[-13.31,23.9806],[-13.77,23.7901],[-13.8398,23.7501],[-13.8901,23.6905],[-13.9799,23.5196],[-14.02,23.4103],[-14.1001,23.0997],[-14.1201,22.96],[-14.1699,22.7599],[-14.1899,22.5899],[-14.1899,22.4503],[-14.2202,22.3096],[-14.3101,22.1905],[-14.3798,22.1202],[-14.4399,22.0802],[-14.4599,22.0401],[-14.52,21.9903],[-14.6299,21.8604],[-14.6098,21.7501],[-14.6699,21.5997],[-14.75,21.5001],[-14.8398,21.4503],[-14.9702,21.4405],[-15.4599,21.4503],[-15.75,21.4903],[-16.04,21.5001],[-16.1899,21.4806],[-16.73,21.4698],[-17.0137,21.42],[-16.9711,21.5926],[-16.968,21.6973],[-16.9477,21.736],[-16.947,21.76],[-16.9669,21.7812],[-16.921,21.9313],[-16.8166,22.1306],[-16.7068,22.2755],[-16.659,22.2951],[-16.6317,22.2739],[-16.5218,22.3149],[-16.4666,22.3774],[-16.4294,22.5104],[-16.3573,22.5831],[-16.3368,22.7537],[-16.2965,22.8321],[-16.3022,22.8683],[-16.2896,22.8998],[-16.2386,22.9116],[-16.1632,22.9932],[-16.1513,23.0591],[-16.1595,23.0825],[-16.2202,23.0759],[-16.2131,23.0944],[-16.1867,23.1379],[-16.1393,23.1785],[-16.0604,23.3446],[-16.0255,23.3749],[-15.9812,23.4458],[-15.9565,23.5317],[-15.9055,23.6103],[-15.8304,23.686],[-15.8161,23.7276],[-15.7726,23.7878],[-15.7655,23.8568],[-15.782,23.8983],[-15.7751,23.9119],[-15.7868,23.9039],[-15.7953,23.8566],[-15.8304,23.8362],[-15.8617,23.8362],[-15.8882,23.8107],[-15.9396,23.6962],[-15.9949,23.645],[-16.0098,23.6554],[-16.0032,23.6721],[-15.9396,23.7748],[-15.8409,23.9027],[-15.7681,23.9599],[-15.6201,24.0263],[-15.5144,24.1522],[-15.4597,24.1919],[-15.4447,24.2219],[-15.2982,24.3452],[-15.204,24.4675],[-15.1536,24.5056],[-15.0483,24.5383],[-15.0148,24.5624],[-15.0122,24.5915],[-14.7856,24.526],[-14.7435,24.4961],[-14.6785,24.4208],[-14.6328,24.4058],[-14.3065,24.4708],[-14.1422,24.4844],[-13.9492,24.461],[-13.6848,24.394],[-13.3143,24.5058],[-13.2335,24.5198],[-13.0642,24.5186],[-12.9469,24.4967]]]}},{"type":"Feature","id":"Rabat-Sale-Zemmour-Zaer","properties":{"id":"Rabat-Sale-Zemmour-Zaer","iso_code":"MA-07","name":"Rabat-Sale-Zemmour-Zaer","name_full":"Rabat-Salé-Zemmour-Zaër","name_ja":"ラバト＝サレ＝ゼムール＝ザイール地方","center_lonlat":[-6.3675,33.7263]},"geometry":{"type":"Polygon","coordinates":[[[-7.117,33.8349],[-7.0318,33.8743],[-6.9274,33.9442],[-6.8221,34.0396],[-6.7226,34.1824],[-6.6879,34.1572],[-6.5551,34.1203],[-6.4368,34.1598],[-6.3628,34.1686],[-6.2022,34.1576],[-6.0171,34.1072],[-5.9171,34.1052],[-5.8851,34.1167],[-5.8372,34.0881],[-5.8121,34.0291],[-5.7719,33.9807],[-5.7598,33.9555],[-5.7865,33.886],[-5.7245,33.788],[-5.7395,33.7188],[-5.789,33.6196],[-5.807,33.401],[-5.7881,33.3503],[-5.8354,33.3277],[-5.9495,33.3324],[-6.0242,33.3156],[-6.1975,33.3659],[-6.2098,33.3801],[-6.213,33.4381],[-6.2348,33.4536],[-6.3286,33.4754],[-6.3536,33.4683],[-6.3993,33.3825],[-6.4085,33.335],[-6.3933,33.268],[-6.4198,33.2383],[-6.5049,33.1978],[-6.5556,33.1879],[-6.7315,33.2428],[-6.8071,33.2828],[-6.8204,33.3301],[-6.8019,33.4416],[-6.8158,33.4661],[-6.7828,33.5347],[-6.7881,33.5525],[-6.9787,33.6141],[-7.0584,33.7843],[-7.117,33.8349]]]}},{"type":"Feature","id":"Suss-Massa-Draa","properties":{"id":"Suss-Massa-Draa","iso_code":"MA-13","name":"Suss-Massa-Draa","name_full":"Suss-Massa-Draa","name_ja":"スース＝マサ＝ドラア地方","center_lonlat":[-7.3513,30.494]},"geometry":{"type":"Polygon","coordinates":[[[-4.7707,30.2291],[-4.8756,30.1802],[-5.1761,29.9775],[-5.2739,29.8866],[-5.4347,29.642],[-5.5395,29.5232],[-5.6373,29.4953],[-5.7212,29.5232],[-5.7562,29.6141],[-6.0008,29.5791],[-6.3439,29.5721],[-6.4948,29.8894],[-6.4851,29.9254],[-6.4191,30.0195],[-6.4149,30.0481],[-6.5112,30.0709],[-6.5394,30.1055],[-6.5688,30.2033],[-6.5733,30.2462],[-6.5267,30.3524],[-6.5823,30.4163],[-6.6607,30.4686],[-6.7156,30.487],[-6.8435,30.4525],[-6.8762,30.4019],[-6.9109,30.3764],[-7.035,30.3687],[-7.1003,30.3885],[-7.1772,30.3923],[-7.2189,30.3553],[-7.3247,30.1907],[-7.4671,30.2238],[-7.5392,30.2303],[-7.6273,30.219],[-7.7214,30.1652],[-7.76,30.1295],[-7.921,30.1288],[-7.9673,30.1158],[-8.0192,30.0267],[-8.0554,29.9965],[-8.1003,29.9813],[-8.1551,30.0069],[-8.2178,30.0079],[-8.2988,29.997],[-8.3667,29.9555],[-8.5119,29.9497],[-8.5731,29.9671],[-8.6441,29.9633],[-8.6872,29.8973],[-8.6708,29.8443],[-8.7009,29.7923],[-8.695,29.5848],[-8.6457,29.4423],[-8.6699,29.4269],[-8.7394,29.4048],[-8.8751,29.4569],[-8.9818,29.4507],[-9.0774,29.4249],[-9.149,29.333],[-9.1885,29.3559],[-9.4148,29.3163],[-9.5099,29.3209],[-9.5824,29.2767],[-9.6312,29.2693],[-9.7253,29.3012],[-9.7869,29.2803],[-9.8272,29.2108],[-9.8719,29.1661],[-9.9242,29.1737],[-9.9741,29.1607],[-10.0237,29.1388],[-10.0979,29.0789],[-10.1454,29.0759],[-10.2088,29.1192],[-10.2624,29.1342],[-10.3331,29.1311],[-10.3991,29.1612],[-10.3209,29.258],[-10.2484,29.2994],[-10.1776,29.4058],[-10.1418,29.4286],[-10.087,29.51],[-10.053,29.5999],[-9.8202,29.8389],[-9.7179,29.9966],[-9.6551,30.1269],[-9.61,30.3578],[-9.6116,30.4044],[-9.6662,30.4593],[-9.7001,30.5427],[-9.7308,30.5521],[-9.7582,30.5868],[-9.8297,30.6286],[-9.874,30.634],[-9.8885,30.6483],[-9.8867,30.6867],[-9.8137,30.8147],[-9.8244,30.852],[-9.8236,30.96],[-9.7682,30.926],[-9.7269,30.8617],[-9.6904,30.8294],[-9.6434,30.8301],[-9.5477,30.8819],[-9.3307,30.8826],[-9.2367,30.8472],[-9.0485,30.8554],[-8.8201,30.9688],[-8.7926,30.953],[-8.7693,30.8943],[-8.7507,30.8778],[-8.5963,30.8977],[-8.3603,30.8987],[-8.1644,30.9555],[-8.0338,30.9464],[-7.9894,30.9751],[-7.8901,31.0955],[-7.8251,31.1401],[-7.7071,31.1787],[-7.3263,31.3406],[-7.1865,31.4472],[-7.1095,31.4023],[-6.9837,31.3731],[-6.89,31.372],[-6.8039,31.3923],[-6.7487,31.4318],[-6.7026,31.4947],[-6.4313,31.5837],[-6.0563,31.7528],[-5.861,31.8683],[-5.8059,31.9302],[-5.6585,31.9697],[-5.5885,31.938],[-5.5719,31.8748],[-5.6211,31.7999],[-5.7127,31.7047],[-5.7356,31.6384],[-5.6399,31.6232],[-5.5651,31.6384],[-5.4541,31.6089],[-5.406,31.5656],[-5.2526,31.4745],[-5.2138,31.4124],[-5.2333,31.3016],[-5.3043,31.1109],[-5.3028,30.9987],[-5.3326,30.9291],[-5.3595,30.9064],[-5.3632,30.8715],[-5.361,30.8242],[-5.2963,30.7712],[-5.2795,30.734],[-5.2059,30.6531],[-5.2077,30.6029],[-5.2271,30.5598],[-5.2191,30.4979],[-5.1627,30.4546],[-5.1107,30.4378],[-4.7707,30.2291]]]}},{"type":"Feature","id":"Tadla-Azilal","properties":{"id":"Tadla-Azilal","iso_code":"MA-12","name":"Tadla-Azilal","name_full":"Tadla-Azilal","name_ja":"タドラ＝アジラル地方","center_lonlat":[-6.4403,32.1419]},"geometry":{"type":"Polygon","coordinates":[[[-6.0417,32.7931],[-5.8995,32.7441],[-5.7747,32.6432],[-5.6523,32.6033],[-5.5223,32.5288],[-5.4373,32.5079],[-5.5078,32.4402],[-5.5273,32.3899],[-5.4684,32.2621],[-5.4761,32.2452],[-5.5559,32.2436],[-5.6379,32.2147],[-5.8211,32.1021],[-5.8516,32.0577],[-5.8596,32.0134],[-5.8287,31.9852],[-5.8059,31.9302],[-5.861,31.8683],[-6.0563,31.7528],[-6.4313,31.5837],[-6.7026,31.4947],[-6.7487,31.4318],[-6.8039,31.3923],[-6.89,31.372],[-6.9837,31.3731],[-7.1095,31.4023],[-7.1865,31.4472],[-7.1499,31.5621],[-7.2568,31.6565],[-7.2844,31.6969],[-7.2688,31.7347],[-7.2239,31.7594],[-7.0805,31.7859],[-7.0408,31.8291],[-7.0276,31.8819],[-7.0977,32.0655],[-7.1132,32.1534],[-7.109,32.3052],[-7.1267,32.3466],[-7.0697,32.4073],[-6.9791,32.6389],[-6.8576,32.6906],[-6.6614,32.6848],[-6.5786,32.721],[-6.2921,32.7018],[-6.0917,32.7473],[-6.0632,32.7608],[-6.0417,32.7931]]]}},{"type":"Feature","id":"Tangier-Tetouan","properties":{"id":"Tangier-Tetouan","iso_code":"MA-01","name":"Tangier-Tetouan","name_full":"Tangier-Tetouan","name_ja":"タンジェ＝テトゥアン地方","center_lonlat":[-5.4301,35.2452]},"geometry":{"type":"Polygon","coordinates":[[[-4.4954,35.1808],[-4.4958,35.139],[-4.4777,35.1273],[-4.4642,35.0791],[-4.4756,35.0512],[-4.5401,34.9889],[-4.5795,34.9634],[-4.6657,34.9476],[-4.8325,34.8457],[-4.9734,34.8001],[-5.1306,34.7677],[-5.1902,34.7164],[-5.2392,34.7259],[-5.3495,34.7147],[-5.4201,34.7377],[-5.513,34.8199],[-5.633,34.823],[-5.6978,34.8811],[-5.7817,34.9307],[-6.0618,34.9894],[-6.1131,35.0102],[-6.2492,35.0014],[-6.2054,35.1246],[-6.0239,35.5012],[-5.9272,35.7807],[-5.908,35.7973],[-5.8734,35.802],[-5.7693,35.7928],[-5.6935,35.8343],[-5.6397,35.8364],[-5.599,35.8223],[-5.54,35.851],[-5.4689,35.9103],[-5.4481,35.9185],[-5.4142,35.9094],[-5.4055,35.9265],[-5.3407,35.8474],[-5.3188,35.7017],[-5.3048,35.6852],[-5.2768,35.6852],[-5.2494,35.5846],[-5.1508,35.5161],[-5.0663,35.4175],[-4.9885,35.3879],[-4.9093,35.3145],[-4.865,35.302],[-4.7705,35.241],[-4.4954,35.1808]]]}},{"type":"Feature","id":"Taza-Al Hoceima-Taounate","properties":{"id":"Taza-Al Hoceima-Taounate","iso_code":"MA-03","name":"Taza-Al Hoceima-Taounate","name_full":"Taza-Al Hoceïma-Taounate","name_ja":"タザ＝アル・ホセイマ＝タウナート地方","center_lonlat":[-4.1043,34.4227]},"geometry":{"type":"Polygon","coordinates":[[[-4.4954,35.1808],[-4.3476,35.1501],[-4.2694,35.1849],[-4.1306,35.2048],[-3.9193,35.2668],[-3.9094,35.2553],[-3.9295,35.2438],[-3.9039,35.2142],[-3.8219,35.2068],[-3.8106,34.9309],[-3.7303,34.8714],[-3.6114,34.8408],[-3.5959,34.796],[-3.6089,34.7176],[-3.6335,34.684],[-3.6325,34.6631],[-3.6227,34.6429],[-3.5448,34.5926],[-3.5114,34.5935],[-3.3642,34.6881],[-3.2721,34.7733],[-3.1984,34.7773],[-2.9856,34.7067],[-2.9704,34.6862],[-2.9491,34.6209],[-2.9611,34.6105],[-3.025,34.6099],[-3.0403,34.5959],[-3.0693,34.4983],[-3.194,34.4016],[-3.1961,34.3637],[-3.1101,34.2581],[-3.0695,34.1457],[-3.0833,34.0956],[-3.11,34.0608],[-3.2028,34.0253],[-3.2103,33.996],[-3.1946,33.946],[-3.1024,33.7851],[-3.3427,33.8378],[-3.4259,33.8956],[-3.4989,33.9075],[-3.5763,33.8593],[-3.7981,33.644],[-3.8172,33.6],[-3.8119,33.5746],[-3.8508,33.516],[-3.8648,33.5134],[-3.8858,33.5522],[-3.9741,33.5364],[-4.0724,33.5718],[-4.0834,33.5985],[-4.0811,33.6686],[-4.0645,33.7088],[-4.1866,33.8703],[-4.1852,33.9048],[-4.2057,33.9146],[-4.2789,33.8985],[-4.4766,33.9038],[-4.5596,33.9527],[-4.5652,34.0078],[-4.5965,34.0359],[-4.7207,34.0882],[-4.8059,34.1926],[-4.8428,34.2208],[-4.8761,34.22],[-4.9121,34.2654],[-4.9447,34.2651],[-4.9739,34.2913],[-5.0895,34.2905],[-5.1068,34.276],[-5.1363,34.3025],[-5.1754,34.3107],[-5.3203,34.2688],[-5.4205,34.2806],[-5.4907,34.37],[-5.3497,34.4583],[-5.3229,34.4961],[-5.1971,34.5761],[-5.1779,34.6314],[-5.1902,34.7164],[-5.1306,34.7677],[-4.9734,34.8001],[-4.8325,34.8457],[-4.6657,34.9476],[-4.5795,34.9634],[-4.5401,34.9889],[-4.4756,35.0512],[-4.4642,35.0791],[-4.4777,35.1273],[-4.4958,35.139],[-4.4954,35.1808]]]}}]}
