{"type":"FeatureCollection","features":[{"type":"Feature","id":"Ayeyarwady","properties":{"id":"Ayeyarwady","iso_code":"MM-07","name":"Ayeyarwady","name_full":"Ayeyarwady","name_ja":"エーヤワディ管区","center_lonlat":[95.1381,16.8947]},"geometry":{"type":"MultiPolygon","coordinates":[[[[96.0173,16.3782],[96.0666,16.3356],[96.0676,16.3102],[95.98,16.2231],[95.9424,16.2191],[95.9514,16.2576],[95.9079,16.2117],[95.8831,16.2092],[95.8899,16.244],[95.7977,16.1449],[95.7766,16.1407],[95.7459,16.1584],[95.7249,16.2228],[95.7323,16.1273],[95.697,16.066],[95.6873,15.9882],[95.6647,15.9492],[95.5234,15.8037],[95.3965,15.7164],[95.3106,15.7232],[95.2879,15.7401],[95.2826,15.8383],[95.3127,15.8665],[95.314,15.9007],[95.3386,15.922],[95.3643,15.9846],[95.3685,16.0388],[95.3455,16.105],[95.3616,16.1484],[95.3275,16.1074],[95.3486,16.0416],[95.3418,15.9839],[95.3119,15.9471],[95.2971,15.903],[95.2516,15.8682],[95.2388,15.8939],[95.2759,15.9706],[95.273,16.0037],[95.224,15.9186],[95.2244,15.8101],[95.2127,15.7866],[95.1736,15.7778],[95.1445,15.7891],[95.1257,15.8176],[95.1152,15.8939],[95.1375,16.0067],[95.1289,16.0385],[95.1078,15.9839],[95.0977,16.0251],[95.1102,16.0675],[95.138,16.1003],[95.2259,16.1199],[95.1836,16.1409],[95.1487,16.132],[95.1358,16.1484],[95.0706,16.0749],[95.0729,15.9706],[95.055,15.8461],[95.0339,15.8057],[94.9976,15.7953],[94.9756,15.7641],[94.8469,15.7906],[94.8904,15.8271],[94.8963,15.8474],[94.8826,15.8672],[94.8532,15.8403],[94.8347,15.9492],[94.8628,15.9918],[94.9207,16.0186],[94.9241,16.0385],[94.8893,16.0174],[94.8631,16.1278],[94.9001,16.1838],[94.9592,16.2009],[94.9924,16.2508],[94.967,16.2204],[94.8931,16.2058],[94.8547,16.1602],[94.8484,16.0965],[94.8694,16.041],[94.8462,16.0],[94.7869,15.9621],[94.7212,15.8567],[94.6838,15.8467],[94.6587,15.8545],[94.6355,15.9081],[94.6328,15.8897],[94.6224,15.8915],[94.6013,15.9212],[94.7031,15.9824],[94.7323,16.0174],[94.7417,16.0673],[94.7659,16.0932],[94.7937,16.162],[94.766,16.1395],[94.7053,16.0207],[94.6148,15.9437],[94.5666,15.9355],[94.5623,15.9619],[94.6423,16.0447],[94.6789,16.1213],[94.6838,16.2092],[94.6652,16.2576],[94.7049,16.3532],[94.7323,16.3607],[94.7058,16.4731],[94.7323,16.5246],[94.6973,16.5084],[94.6839,16.5108],[94.677,16.532],[94.6838,16.3641],[94.6279,16.2602],[94.584,16.2365],[94.6355,16.3265],[94.6297,16.3442],[94.6067,16.326],[94.5837,16.2748],[94.5212,16.2955],[94.507,16.1896],[94.4281,16.0742],[94.3606,16.0493],[94.34,15.9962],[94.2866,15.9975],[94.2515,15.9685],[94.2395,15.9763],[94.2098,16.029],[94.2151,16.1577],[94.2378,16.2731],[94.2354,16.3484],[94.2586,16.3874],[94.2731,16.4665],[94.2683,16.5275],[94.2731,16.5382],[94.3311,16.5286],[94.3413,16.5484],[94.3462,16.5924],[94.3276,16.6064],[94.362,16.6355],[94.3644,16.7011],[94.4027,16.7883],[94.3823,16.9013],[94.4232,16.9013],[94.4647,16.9497],[94.4443,16.9497],[94.4578,16.9829],[94.4579,17.0596],[94.4888,17.1242],[94.4857,17.141],[94.4578,17.1538],[94.4544,17.1801],[94.4647,17.1893],[94.5109,17.169],[94.5379,17.1874],[94.5086,17.2301],[94.512,17.2752],[94.5454,17.2961],[94.5462,17.3196],[94.5945,17.2923],[94.5677,17.4629],[94.6362,17.4163],[94.696,17.4013],[94.7366,17.3694],[94.7544,17.3717],[94.7994,17.4654],[94.8095,17.624],[94.8829,17.73],[94.9027,17.8508],[94.8579,17.9424],[94.8754,17.9989],[94.8901,18.2365],[94.8366,18.3576],[94.9355,18.4182],[94.9653,18.4116],[95.0116,18.3719],[95.0645,18.3603],[95.0844,18.3769],[95.1092,18.4579],[95.1534,18.4713],[95.3878,18.2199],[95.4503,18.0331],[95.4449,17.957],[95.4903,17.9145],[95.4814,17.8224],[95.4502,17.7901],[95.4735,17.6859],[95.5165,17.634],[95.6726,17.5665],[95.7467,17.4622],[95.6907,17.3001],[95.7067,17.2064],[95.7958,17.1182],[95.8501,17.0327],[95.8523,16.9884],[95.9007,16.9327],[95.9043,16.905],[95.8723,16.8426],[95.9061,16.7421],[95.8997,16.7037],[95.8861,16.6707],[95.8614,16.6522],[95.8832,16.6137],[95.889,16.5526],[95.8323,16.4791],[95.9042,16.4061],[95.9814,16.3989],[96.0173,16.3782]]],[[[94.6621,16.2219],[94.6675,16.1719],[94.6296,16.0752],[94.5696,16.0052],[94.478,15.9661],[94.4784,15.9423],[94.4368,15.9007],[94.4331,15.8696],[94.4027,15.8393],[94.4172,15.8718],[94.3823,15.9696],[94.3897,16.0009],[94.4854,16.059],[94.5188,16.1204],[94.6116,16.2217],[94.6428,16.2455],[94.6621,16.2219]]],[[[94.828,15.932],[94.8416,15.8774],[94.8037,15.7966],[94.7778,15.7916],[94.7249,15.812],[94.8068,15.9311],[94.8233,15.9458],[94.828,15.932]]],[[[93.396,14.1404],[93.4002,14.0956],[93.3948,14.0764],[93.3748,14.0647],[93.3903,14.1538],[93.396,14.1404]]],[[[93.6758,14.8592],[93.7039,14.9044],[93.7244,14.9138],[93.7044,14.871],[93.6758,14.8592]]]]}},{"type":"Feature","id":"Bago","properties":{"id":"Bago","iso_code":"MM-02","name":"Bago","name_full":"Bago","name_ja":"バゴー管区","center_lonlat":[96.2004,18.2772]},"geometry":{"type":"Polygon","coordinates":[[[96.8829,17.4572],[96.8557,17.3885],[96.8421,17.409],[96.8215,17.3947],[96.9107,17.3171],[96.9109,17.2849],[96.8494,17.213],[96.8557,17.1688],[96.9102,17.0668],[96.9109,17.0248],[96.8791,16.9347],[96.8352,16.936],[96.8557,16.9013],[96.8079,16.9087],[96.8272,16.8904],[96.7145,16.9765],[96.5737,16.9937],[96.3945,16.9894],[96.3873,17.1107],[96.3288,17.206],[96.2939,17.3542],[96.0605,17.7574],[96.04,17.7573],[95.9769,17.6888],[95.9026,17.6468],[95.8485,17.5687],[95.7738,17.5133],[95.7467,17.4622],[95.6726,17.5665],[95.5165,17.634],[95.4735,17.6859],[95.4502,17.7901],[95.4814,17.8224],[95.4903,17.9145],[95.4449,17.957],[95.4503,18.0331],[95.3878,18.2199],[95.1534,18.4713],[95.0845,18.5222],[95.0631,18.5617],[95.0798,18.667],[95.1015,18.6975],[95.163,18.7167],[95.2046,18.7678],[95.213,18.8055],[95.204,18.8483],[95.1843,18.8749],[95.1883,18.9009],[95.2787,18.9647],[95.2902,19.0345],[95.3069,19.0553],[95.3802,19.0686],[95.4328,19.1304],[95.4636,19.1453],[95.5241,19.1626],[95.7368,19.1818],[95.8218,19.1663],[95.8293,19.2135],[95.8525,19.2398],[95.8572,19.304],[95.8233,19.3715],[95.8003,19.4636],[95.8841,19.4457],[95.9069,19.4731],[95.9522,19.4808],[96.0701,19.4445],[96.1122,19.4156],[96.1623,19.443],[96.1799,19.4849],[96.3989,19.47],[96.4236,19.4381],[96.4233,19.3997],[96.4637,19.3543],[96.4626,19.3029],[96.5185,19.1961],[96.5384,19.1799],[96.5012,19.1397],[96.5058,19.1247],[96.5512,19.0523],[96.6516,18.9685],[96.6845,18.9218],[96.6148,18.8566],[96.643,18.7936],[96.6156,18.7477],[96.6618,18.6533],[96.7027,18.6044],[96.741,18.624],[96.8213,18.6002],[96.882,18.6309],[96.9302,18.6452],[96.9499,18.6386],[96.9824,18.588],[96.9893,18.5385],[96.9704,18.439],[96.9765,18.4157],[97.0066,18.3727],[97.0605,18.3386],[97.0722,18.2926],[97.0883,18.2895],[97.1031,18.3127],[97.1224,18.3136],[97.1415,18.2606],[97.1403,18.2064],[97.2035,18.1527],[97.186,18.0652],[97.1303,17.9656],[97.1787,17.8449],[97.2029,17.819],[97.179,17.7236],[97.2179,17.6211],[97.213,17.5595],[97.234,17.5455],[97.1998,17.5109],[97.1226,17.482],[97.1,17.5366],[97.0384,17.5671],[97.0069,17.604],[96.9658,17.6159],[96.9163,17.6121],[96.8908,17.6027],[96.8829,17.4572]]]}},{"type":"Feature","id":"Chin State","properties":{"id":"Chin State","iso_code":"MM-14","name":"Chin State","name_full":"Chin State","name_ja":"チン州","center_lonlat":[93.5087,22.1593]},"geometry":{"type":"Polygon","coordinates":[[[92.641,21.3086],[92.5902,21.4955],[92.5756,21.734],[92.593,21.8869],[92.5759,21.9776],[92.6153,22.0088],[92.6509,22.0192],[92.6562,22.0753],[92.6621,22.0948],[92.674,22.0952],[92.6711,22.1339],[92.6838,22.1543],[92.7716,22.1042],[92.8361,22.0465],[92.8775,21.957],[92.9062,22.0173],[92.921,22.0218],[92.9681,21.9872],[92.9799,22.0023],[92.9672,22.0627],[92.9855,22.096],[93.0255,22.1129],[93.0245,22.2019],[93.0725,22.2025],[93.1195,22.181],[93.1417,22.1873],[93.1235,22.2307],[93.169,22.2469],[93.1737,22.2594],[93.1659,22.3866],[93.1535,22.4275],[93.1179,22.4629],[93.0992,22.512],[93.1105,22.5963],[93.0739,22.6719],[93.0795,22.7727],[93.1159,22.7984],[93.1755,22.8817],[93.1382,23.0053],[93.1524,23.0499],[93.1965,23.0538],[93.2465,23.0045],[93.2728,23.0059],[93.3183,23.0337],[93.3749,23.1297],[93.3779,23.2968],[93.4072,23.3473],[93.4002,23.454],[93.4324,23.6473],[93.426,23.6908],[93.3748,23.739],[93.356,23.907],[93.303,23.9953],[93.3097,24.064],[93.3485,24.0889],[93.3683,24.0785],[93.4567,23.96],[93.4957,23.9591],[93.5435,23.9809],[93.5711,23.968],[93.6124,24.0091],[93.7111,24.0055],[93.743,23.9953],[93.8037,23.9361],[93.9123,23.939],[93.9979,23.917],[94.0551,23.8879],[94.0997,23.8426],[94.1289,23.8539],[94.1401,23.7783],[94.1701,23.695],[94.1425,23.4993],[94.1235,23.4759],[94.0503,23.4994],[94.0491,23.348],[94.0003,23.3305],[94.0115,23.278],[93.9981,23.22],[94.0017,23.1669],[94.02,23.052],[93.9925,22.9203],[94.0092,22.8814],[94.0139,22.815],[93.9944,22.7432],[94.007,22.678],[94.0275,22.5731],[94.0354,22.4332],[94.0238,22.3951],[94.0507,22.3744],[94.0215,22.3128],[94.0503,22.1398],[94.0215,22.0494],[94.0537,21.952],[94.0169,21.9219],[94.0073,21.8911],[94.007,21.7901],[94.1303,21.573],[94.1253,21.5386],[94.0755,21.4366],[94.0578,21.3204],[94.028,21.2658],[94.106,21.2087],[94.1191,21.1114],[94.1097,21.0655],[94.0463,20.9574],[94.0395,20.9166],[94.0959,20.7603],[94.1383,20.6929],[94.1082,20.6723],[94.023,20.6516],[93.9779,20.6557],[93.9046,20.7019],[93.8544,20.7509],[93.8022,20.7623],[93.7498,20.869],[93.7248,20.8877],[93.6891,20.8919],[93.6558,20.8539],[93.6518,20.7827],[93.6836,20.7159],[93.6715,20.6983],[93.6025,20.6634],[93.5475,20.6801],[93.474,20.6737],[93.4128,20.7011],[93.2462,20.8068],[93.224,20.86],[93.1767,20.8888],[93.1602,20.9185],[93.1486,21.0198],[93.1326,21.0441],[92.9397,21.0796],[92.8812,21.0385],[92.8548,21.0433],[92.6692,21.2969],[92.641,21.3086]]]}},{"type":"Feature","id":"Kachin State","properties":{"id":"Kachin State","iso_code":"MM-11","name":"Kachin State","name_full":"Kachin State","name_ja":"カチン州","center_lonlat":[97.3339,26.083]},"geometry":{"type":"Polygon","coordinates":[[[97.6473,23.8685],[97.6411,23.8332],[97.6171,23.8172],[97.4713,23.7853],[97.4203,23.7502],[97.3774,23.7498],[97.3095,23.7052],[97.2598,23.7034],[97.227,23.6797],[97.1734,23.6759],[97.0976,23.6454],[97.0196,23.6468],[96.9945,23.7078],[96.9123,23.7268],[96.8783,23.7216],[96.7832,23.7507],[96.7804,23.7726],[96.8929,23.8234],[96.9163,23.873],[96.9123,23.928],[96.8861,23.9898],[96.8333,23.9655],[96.7298,24.0281],[96.6993,24.0701],[96.6962,24.1178],[96.6736,24.1419],[96.6201,24.209],[96.6067,24.2498],[96.6077,24.3553],[96.6562,24.4172],[96.4247,24.5011],[96.2793,24.4798],[96.2351,24.4587],[96.1398,24.5482],[96.1038,24.637],[95.9881,24.6672],[95.9479,24.69],[95.8404,24.965],[95.9696,25.0114],[96.0216,25.0562],[96.0339,25.0403],[96.0159,24.9634],[96.0392,24.9572],[96.0683,24.9859],[96.0731,25.078],[96.0388,25.1413],[95.988,25.1997],[95.9772,25.2414],[95.9685,25.5157],[95.9896,25.5671],[96.0432,25.5337],[96.0608,25.5388],[96.1664,25.6321],[96.1819,25.6717],[96.171,25.7014],[96.1176,25.7605],[96.0777,25.8729],[96.1301,26.0],[96.1638,26.0311],[96.1694,26.0654],[96.1549,26.1422],[96.0841,26.2622],[96.0782,26.303],[96.0141,26.3882],[96.007,26.4177],[96.0199,26.4355],[96.1279,26.47],[96.1517,26.4992],[96.132,26.5788],[96.0472,26.6661],[96.0697,26.6943],[96.1983,26.7662],[96.2051,26.8242],[96.2746,26.858],[96.2929,26.9159],[96.239,26.959],[96.3422,26.9632],[96.4494,26.9424],[96.6776,26.9652],[96.7646,26.9884],[96.9652,26.9913],[96.9903,27.0028],[97.0588,27.0921],[97.1192,27.0873],[97.1348,27.1273],[97.1044,27.156],[97.0955,27.1913],[96.8814,27.4441],[96.8885,27.5072],[96.8621,27.5993],[96.8835,27.6363],[96.9909,27.7266],[97.0567,27.7468],[97.0653,27.774],[97.2229,27.8997],[97.2764,27.9103],[97.2929,27.8775],[97.3335,27.8942],[97.34,27.9518],[97.3623,27.9949],[97.3551,28.023],[97.2929,28.0951],[97.3287,28.19],[97.3235,28.2175],[97.3696,28.2535],[97.3844,28.2848],[97.4367,28.2864],[97.4478,28.2976],[97.4453,28.383],[97.4881,28.4419],[97.5277,28.5295],[97.5462,28.5385],[97.6136,28.482],[97.6705,28.5113],[97.6996,28.488],[97.74,28.3826],[97.7653,28.3524],[97.7973,28.3439],[97.8591,28.3701],[97.8975,28.3553],[97.9447,28.2988],[97.9929,28.2689],[97.9911,28.214],[98.0486,28.1996],[98.1187,28.1408],[98.128,28.1055],[98.1225,28.0154],[98.1071,27.9731],[98.1773,27.9129],[98.1767,27.8981],[98.1401,27.8786],[98.1624,27.8428],[98.1966,27.8232],[98.1979,27.7806],[98.2115,27.7603],[98.2044,27.7273],[98.2544,27.6481],[98.2947,27.5366],[98.3286,27.5229],[98.3639,27.5322],[98.3833,27.5558],[98.4,27.6757],[98.4103,27.6843],[98.4923,27.6434],[98.5222,27.6563],[98.5784,27.5917],[98.6472,27.6117],[98.6793,27.5773],[98.6683,27.4752],[98.6744,27.3866],[98.6974,27.3689],[98.7077,27.3372],[98.6726,27.1756],[98.6914,27.0924],[98.7314,27.0688],[98.7378,27.0487],[98.7127,26.9951],[98.7363,26.8983],[98.7145,26.862],[98.7504,26.792],[98.732,26.7135],[98.7556,26.625],[98.7211,26.5389],[98.7135,26.3895],[98.6578,26.3116],[98.6422,26.2545],[98.677,26.2393],[98.7055,26.1749],[98.6808,26.125],[98.6444,26.0979],[98.6243,26.1085],[98.6193,26.1457],[98.563,26.1312],[98.5455,26.1056],[98.5824,25.9823],[98.6253,25.97],[98.6673,25.9058],[98.6898,25.8916],[98.6902,25.8656],[98.6778,25.8433],[98.61,25.8006],[98.5268,25.8388],[98.4981,25.8307],[98.4187,25.7242],[98.4132,25.6921],[98.3752,25.6493],[98.3471,25.5778],[98.3121,25.5575],[98.2766,25.5524],[98.2324,25.5866],[98.1401,25.6115],[98.1342,25.5346],[98.0998,25.5],[98.112,25.4485],[98.1084,25.3889],[98.0757,25.3761],[98.0335,25.3013],[97.9763,25.2723],[97.9099,25.2076],[97.8889,25.2056],[97.8603,25.2441],[97.8236,25.2616],[97.801,25.2376],[97.7541,25.1136],[97.7036,25.0739],[97.7083,24.9273],[97.7241,24.8972],[97.773,24.8547],[97.7485,24.8265],[97.6639,24.8298],[97.5361,24.745],[97.5386,24.5973],[97.5139,24.4617],[97.5196,24.4308],[97.6399,24.4393],[97.6626,24.3901],[97.6883,24.3677],[97.6896,24.3465],[97.6382,24.3281],[97.6445,24.3024],[97.7184,24.2777],[97.7241,24.2415],[97.7016,24.2109],[97.7231,24.1713],[97.7077,24.1253],[97.5165,23.9428],[97.6099,23.8831],[97.6247,23.8467],[97.6473,23.8685]]]}},{"type":"Feature","id":"Kayah State","properties":{"id":"Kayah State","iso_code":"MM-12","name":"Kayah State","name_full":"Kayah State","name_ja":"カヤー州","center_lonlat":[97.3712,19.2346]},"geometry":{"type":"Polygon","coordinates":[[[97.8691,19.5705],[97.8398,19.5553],[97.8421,19.4794],[97.7671,19.3975],[97.8062,19.3011],[97.7983,19.2814],[97.768,19.2771],[97.7641,19.2664],[97.8126,19.2085],[97.8108,19.1122],[97.7278,19.0371],[97.7033,18.9644],[97.6578,18.9257],[97.7234,18.852],[97.7204,18.8176],[97.7597,18.6228],[97.7518,18.5825],[97.7428,18.5693],[97.6179,18.5532],[97.5095,18.4913],[97.4275,18.4895],[97.3729,18.5486],[97.3164,18.6777],[97.1266,18.6885],[97.1146,18.7003],[97.0535,18.827],[97.0117,18.8746],[97.0125,18.9112],[96.9759,18.9554],[96.9573,19.0692],[96.9323,19.1179],[96.8637,19.1734],[96.8362,19.2602],[96.8399,19.2884],[96.9006,19.355],[96.9267,19.4054],[96.9268,19.4359],[96.895,19.5003],[96.9376,19.585],[97.0269,19.6668],[97.1354,19.7278],[97.1442,19.8656],[97.1573,19.8817],[97.1678,19.9887],[97.2259,19.9725],[97.2361,19.9125],[97.2634,19.8931],[97.3399,19.899],[97.3678,19.9458],[97.3918,19.9531],[97.4473,19.882],[97.5193,19.899],[97.5541,19.8437],[97.586,19.8273],[97.5601,19.7424],[97.612,19.6866],[97.7268,19.6563],[97.7587,19.6703],[97.8388,19.6472],[97.8691,19.5705]]]}},{"type":"Feature","id":"Kayin State","properties":{"id":"Kayin State","iso_code":"MM-13","name":"Kayin State","name_full":"Kayin State","name_ja":"カレン州","center_lonlat":[97.7856,17.1542]},"geometry":{"type":"Polygon","coordinates":[[[97.3729,18.5486],[97.3514,18.5512],[97.4431,18.4033],[97.4526,18.3336],[97.4865,18.2921],[97.5283,18.2653],[97.5606,18.3283],[97.5738,18.3331],[97.6376,18.3063],[97.6433,18.273],[97.6179,18.2417],[97.6843,18.1461],[97.6991,18.0907],[97.6942,18.0615],[97.7201,18.0531],[97.7541,17.969],[97.7201,17.9432],[97.6855,17.8807],[97.6991,17.8333],[97.6761,17.8303],[97.7496,17.7398],[97.7593,17.6915],[97.9338,17.5318],[97.9828,17.5054],[98.0355,17.405],[98.0887,17.3728],[98.0926,17.3122],[98.279,17.1366],[98.2683,17.1077],[98.2944,17.1076],[98.2862,17.0874],[98.2997,17.0647],[98.3133,17.052],[98.3798,17.0458],[98.4179,17.029],[98.4745,16.9504],[98.4845,16.9059],[98.5095,16.8927],[98.5246,16.8504],[98.5006,16.8622],[98.49,16.8432],[98.5205,16.8141],[98.5175,16.803],[98.4745,16.7767],[98.4567,16.7232],[98.4863,16.701],[98.5123,16.6433],[98.5616,16.6017],[98.5642,16.552],[98.6316,16.4631],[98.6398,16.445],[98.6295,16.4027],[98.6633,16.2867],[98.6824,16.2735],[98.7283,16.3283],[98.7886,16.3746],[98.8187,16.4556],[98.8396,16.4724],[98.8434,16.4384],[98.9025,16.3816],[98.8837,16.2587],[98.8431,16.2087],[98.8354,16.1445],[98.8072,16.1105],[98.783,16.1024],[98.7584,16.1192],[98.6796,16.1261],[98.6587,16.1163],[98.6191,16.051],[98.547,16.0475],[98.5838,15.977],[98.5686,15.9202],[98.5744,15.836],[98.5403,15.712],[98.5671,15.4525],[98.5599,15.3553],[98.5336,15.326],[98.5155,15.3635],[98.4745,15.3835],[98.4034,15.3601],[98.3991,15.3218],[98.3775,15.2965],[98.3947,15.2801],[98.3923,15.2582],[98.2951,15.2926],[98.2329,15.2268],[98.2077,15.2192],[98.1899,15.3017],[98.1276,15.3596],[97.9986,15.5648],[97.9517,15.6062],[97.9456,15.6395],[97.8708,15.6836],[97.8866,15.7373],[97.8354,15.8971],[97.8387,15.9676],[97.8636,16.04],[97.8234,16.1339],[98.0059,16.1528],[98.0752,16.1242],[98.1319,16.1628],[98.1349,16.193],[98.0843,16.2444],[98.0765,16.2835],[98.0053,16.3391],[97.9855,16.4263],[97.9195,16.4297],[97.9004,16.466],[97.8596,16.4867],[97.8543,16.5355],[97.7859,16.5182],[97.7402,16.5593],[97.7219,16.5769],[97.7035,16.5735],[97.6986,16.5989],[97.6513,16.6074],[97.6348,16.6494],[97.5629,16.7191],[97.5343,16.8388],[97.4959,16.8855],[97.4993,16.9444],[97.473,16.9804],[97.4683,17.014],[97.4922,17.0392],[97.4863,17.0733],[97.5314,17.1252],[97.5089,17.1853],[97.5219,17.2108],[97.5036,17.2695],[97.521,17.3012],[97.4727,17.3806],[97.4448,17.4642],[97.4557,17.5336],[97.4124,17.5654],[97.3843,17.6319],[97.3911,17.6621],[97.4222,17.6918],[97.4193,17.7084],[97.3774,17.7015],[97.3759,17.6757],[97.3579,17.661],[97.3263,17.5902],[97.2841,17.5988],[97.252,17.5693],[97.2489,17.5473],[97.234,17.5455],[97.213,17.5595],[97.2179,17.6211],[97.179,17.7236],[97.2029,17.819],[97.1787,17.8449],[97.1303,17.9656],[97.186,18.0652],[97.2035,18.1527],[97.1403,18.2064],[97.1415,18.2606],[97.1224,18.3136],[97.1031,18.3127],[97.0883,18.2895],[97.0722,18.2926],[97.0605,18.3386],[97.0066,18.3727],[96.9765,18.4157],[96.9704,18.439],[96.9893,18.5385],[96.9824,18.588],[96.9499,18.6386],[96.9302,18.6452],[96.882,18.6309],[96.8213,18.6002],[96.741,18.624],[96.7027,18.6044],[96.6618,18.6533],[96.6156,18.7477],[96.643,18.7936],[96.6148,18.8566],[96.6845,18.9218],[96.6516,18.9685],[96.5512,19.0523],[96.5058,19.1247],[96.5012,19.1397],[96.5384,19.1799],[96.5185,19.1961],[96.4626,19.3029],[96.4637,19.3543],[96.4233,19.3997],[96.4236,19.4381],[96.3989,19.47],[96.5248,19.477],[96.5838,19.4596],[96.5922,19.4311],[96.6342,19.4503],[96.6733,19.4958],[96.7036,19.4466],[96.8216,19.383],[96.8468,19.3355],[96.8399,19.2884],[96.8362,19.2602],[96.8637,19.1734],[96.9323,19.1179],[96.9573,19.0692],[96.9759,18.9554],[97.0125,18.9112],[97.0117,18.8746],[97.0535,18.827],[97.1146,18.7003],[97.1266,18.6885],[97.3164,18.6777],[97.3729,18.5486]]]}},{"type":"Feature","id":"Magway","properties":{"id":"Magway","iso_code":"MM-03","name":"Magway","name_full":"Magway","name_ja":"マグウェ管区","center_lonlat":[94.8438,20.3658]},"geometry":{"type":"Polygon","coordinates":[[[94.8366,18.3576],[94.7637,18.4663],[94.7758,18.536],[94.744,18.6236],[94.786,18.6724],[94.7919,18.6972],[94.7201,18.7838],[94.7972,18.8131],[94.8047,18.8372],[94.7465,18.9239],[94.7185,18.9437],[94.6823,19.025],[94.6345,19.0755],[94.5712,19.0992],[94.5595,19.1149],[94.5336,19.1979],[94.5427,19.2331],[94.5595,19.2364],[94.5555,19.2641],[94.4301,19.4513],[94.3698,19.7306],[94.3279,19.8181],[94.3414,19.9331],[94.2652,20.0169],[94.2527,20.0487],[94.2562,20.1114],[94.2076,20.1667],[94.1559,20.2874],[94.0117,20.5179],[93.9839,20.5447],[93.9138,20.5644],[93.904,20.5811],[93.9046,20.7019],[93.9779,20.6557],[94.023,20.6516],[94.1082,20.6723],[94.1383,20.6929],[94.0959,20.7603],[94.0395,20.9166],[94.0463,20.9574],[94.1097,21.0655],[94.1191,21.1114],[94.106,21.2087],[94.028,21.2658],[94.0578,21.3204],[94.0755,21.4366],[94.1253,21.5386],[94.1303,21.573],[94.007,21.7901],[94.0073,21.8911],[94.0169,21.9219],[94.0537,21.952],[94.0215,22.0494],[94.0503,22.1398],[94.0215,22.3128],[94.0507,22.3744],[94.0238,22.3951],[94.0354,22.4332],[94.0275,22.5731],[94.007,22.678],[94.064,22.6838],[94.0978,22.7118],[94.1133,22.7081],[94.1207,22.6696],[94.2166,22.5556],[94.29,22.4215],[94.2958,22.3889],[94.2442,22.2758],[94.2562,22.1454],[94.2794,22.1063],[94.3493,22.1105],[94.3657,22.0796],[94.4056,22.0557],[94.4162,21.9896],[94.3957,21.8244],[94.409,21.8038],[94.4904,21.7673],[94.6019,21.8197],[94.6843,21.8086],[94.844,21.8289],[94.9212,21.8134],[95.0522,21.81],[95.0791,21.8273],[95.1277,21.8303],[95.1521,21.8233],[95.2425,21.7119],[95.2485,21.661],[95.3014,21.6214],[95.3422,21.6089],[95.3244,21.5375],[95.3302,21.4639],[95.2756,21.4451],[95.1416,21.3139],[95.0773,21.3013],[95.0476,21.315],[95.0217,21.3112],[95.0022,21.2967],[94.9856,21.2498],[94.9098,21.2256],[94.8483,21.2256],[94.8194,21.2043],[94.7999,21.1436],[94.8147,20.953],[94.9034,20.8897],[95.0015,20.8806],[95.0499,20.8596],[95.0817,20.8298],[95.0804,20.7915],[95.0599,20.7492],[95.0727,20.6752],[95.0627,20.6099],[95.1091,20.532],[95.1225,20.5374],[95.1394,20.5946],[95.1855,20.6353],[95.2825,20.6519],[95.3546,20.6994],[95.44,20.7248],[95.4838,20.7609],[95.5879,20.7574],[95.6198,20.732],[95.6331,20.6431],[95.718,20.4975],[95.7572,20.3756],[95.7359,20.3361],[95.7517,20.2788],[95.8025,20.156],[95.8314,20.1306],[95.8025,20.065],[95.781,20.0472],[95.7853,20.0073],[95.7646,19.9749],[95.7837,19.9575],[95.8156,19.8331],[95.7909,19.8146],[95.7674,19.7589],[95.7748,19.7118],[95.7254,19.6094],[95.7392,19.5071],[95.8003,19.4636],[95.8233,19.3715],[95.8572,19.304],[95.8525,19.2398],[95.8293,19.2135],[95.8218,19.1663],[95.7368,19.1818],[95.5241,19.1626],[95.4636,19.1453],[95.4328,19.1304],[95.3802,19.0686],[95.3069,19.0553],[95.2902,19.0345],[95.2787,18.9647],[95.1883,18.9009],[95.1843,18.8749],[95.204,18.8483],[95.213,18.8055],[95.2046,18.7678],[95.163,18.7167],[95.1015,18.6975],[95.0798,18.667],[95.0631,18.5617],[95.0845,18.5222],[95.1534,18.4713],[95.1092,18.4579],[95.0844,18.3769],[95.0645,18.3603],[95.0116,18.3719],[94.9653,18.4116],[94.9355,18.4182],[94.8366,18.3576]]]}},{"type":"Feature","id":"Mandalay","properties":{"id":"Mandalay","iso_code":"MM-04","name":"Mandalay","name_full":"Mandalay","name_ja":"マンダレー管区","center_lonlat":[95.9961,21.2037]},"geometry":{"type":"Polygon","coordinates":[[[96.3207,23.5067],[96.2984,23.464],[96.3065,23.4295],[96.2492,23.3907],[96.2334,23.344],[96.1901,23.3479],[96.205,23.3077],[96.1929,23.2123],[96.1582,23.1582],[96.2064,23.0838],[96.2038,23.0609],[96.2608,23.0228],[96.3465,23.0175],[96.4827,23.0382],[96.5194,23.0587],[96.5548,23.0314],[96.5881,23.0373],[96.5861,22.9959],[96.6222,22.976],[96.7076,22.9575],[96.7174,22.9339],[96.6353,22.8197],[96.6057,22.81],[96.5439,22.8185],[96.4712,22.7831],[96.4298,22.7802],[96.4076,22.7947],[96.3515,22.7737],[96.2718,22.7816],[96.2036,22.7397],[96.2193,22.6921],[96.2387,22.6904],[96.2391,22.6441],[96.2942,22.5703],[96.2948,22.5275],[96.3334,22.4878],[96.3175,22.398],[96.3244,22.3738],[96.4025,22.3653],[96.427,22.3371],[96.4368,22.2839],[96.4787,22.2239],[96.4837,22.1598],[96.7363,22.0772],[96.7625,21.9914],[96.8468,21.8734],[96.8519,21.8259],[96.8733,21.8139],[96.8886,21.7598],[96.8795,21.7326],[96.8422,21.739],[96.8153,21.76],[96.7881,21.7311],[96.7391,21.7119],[96.7046,21.717],[96.5759,21.594],[96.535,21.589],[96.4609,21.5541],[96.3403,21.5378],[96.3291,21.5103],[96.3378,21.4937],[96.2883,21.4597],[96.3315,21.2495],[96.3737,21.1713],[96.358,21.1611],[96.2885,21.1675],[96.2404,21.15],[96.2239,21.1341],[96.2297,21.0969],[96.2105,21.0595],[96.2155,21.0078],[96.2579,20.9742],[96.3934,20.9259],[96.4297,20.9283],[96.4761,20.8984],[96.5058,20.9156],[96.5377,20.8854],[96.5647,20.8814],[96.5875,20.8503],[96.5687,20.7691],[96.4947,20.7611],[96.4567,20.7241],[96.4539,20.6808],[96.504,20.6082],[96.5469,20.5894],[96.5485,20.5209],[96.4963,20.5086],[96.4994,20.4757],[96.4764,20.4231],[96.5466,20.2164],[96.4536,20.1324],[96.46,20.0906],[96.4789,20.0717],[96.4529,20.0328],[96.4328,20.0197],[96.4133,20.0278],[96.3749,20.0172],[96.3979,19.965],[96.4498,19.9],[96.4545,19.8566],[96.5371,19.8494],[96.6197,19.7327],[96.6583,19.7027],[96.6556,19.6775],[96.6182,19.6393],[96.5709,19.6237],[96.5562,19.6062],[96.5802,19.5823],[96.6565,19.5684],[96.6788,19.5242],[96.6733,19.4958],[96.6342,19.4503],[96.5922,19.4311],[96.5838,19.4596],[96.5248,19.477],[96.3989,19.47],[96.1799,19.4849],[96.1623,19.443],[96.1122,19.4156],[96.0701,19.4445],[95.9522,19.4808],[95.9069,19.4731],[95.8841,19.4457],[95.8003,19.4636],[95.7392,19.5071],[95.7254,19.6094],[95.7748,19.7118],[95.7674,19.7589],[95.7909,19.8146],[95.8156,19.8331],[95.7837,19.9575],[95.7646,19.9749],[95.7853,20.0073],[95.781,20.0472],[95.8025,20.065],[95.8314,20.1306],[95.8025,20.156],[95.7517,20.2788],[95.7359,20.3361],[95.7572,20.3756],[95.718,20.4975],[95.6331,20.6431],[95.6198,20.732],[95.5879,20.7574],[95.4838,20.7609],[95.44,20.7248],[95.3546,20.6994],[95.2825,20.6519],[95.1855,20.6353],[95.1394,20.5946],[95.1225,20.5374],[95.1091,20.532],[95.0627,20.6099],[95.0727,20.6752],[95.0599,20.7492],[95.0804,20.7915],[95.0817,20.8298],[95.0499,20.8596],[95.0015,20.8806],[94.9034,20.8897],[94.8147,20.953],[94.7999,21.1436],[94.8194,21.2043],[94.8483,21.2256],[94.9098,21.2256],[94.9856,21.2498],[95.0022,21.2967],[95.0217,21.3112],[95.0476,21.315],[95.0773,21.3013],[95.1416,21.3139],[95.2756,21.4451],[95.3302,21.4639],[95.3244,21.5375],[95.3422,21.6089],[95.3799,21.7074],[95.5226,21.7448],[95.5615,21.7396],[95.6571,21.6269],[95.7427,21.6376],[95.7721,21.6261],[95.8358,21.705],[95.8843,21.8512],[95.9732,21.8672],[96.0412,21.9234],[96.0481,21.994],[96.0075,22.0894],[95.9878,22.2165],[95.9861,22.2814],[96.0128,22.3318],[95.9637,22.3925],[95.9646,22.4725],[95.9902,22.5293],[95.9013,22.7072],[95.9102,22.7394],[95.955,22.7503],[95.9648,22.7691],[95.9752,23.154],[95.9095,23.3446],[95.9093,23.3791],[95.9453,23.452],[96.0076,23.5225],[96.0349,23.5852],[96.082,23.6294],[96.1252,23.6226],[96.1347,23.5894],[96.124,23.5369],[96.1386,23.5203],[96.193,23.5002],[96.2898,23.5316],[96.3207,23.5067]]]}},{"type":"Feature","id":"Mon State","properties":{"id":"Mon State","iso_code":"MM-15","name":"Mon State","name_full":"Mon State","name_ja":"モン州","center_lonlat":[97.8725,15.7577]},"geometry":{"type":"MultiPolygon","coordinates":[[[[98.2077,15.2192],[98.1772,15.2206],[98.1907,15.1792],[98.1604,15.1064],[98.199,15.0514],[98.2044,15.0296],[98.1912,14.9932],[98.1007,14.9991],[98.0208,15.0991],[97.9023,15.0784],[97.8549,14.9449],[97.7949,14.8802],[97.8128,14.9833],[97.7743,15.0175],[97.8084,15.0312],[97.7948,15.0585],[97.8102,15.0951],[97.8071,15.175],[97.8228,15.2093],[97.7803,15.2115],[97.7694,15.2233],[97.7432,15.2668],[97.742,15.3179],[97.7264,15.3396],[97.7505,15.3601],[97.7608,15.3942],[97.7948,15.4079],[97.7614,15.4905],[97.7743,15.5314],[97.7429,15.6045],[97.7437,15.6649],[97.7256,15.7013],[97.7339,15.7263],[97.7129,15.7573],[97.7264,15.7778],[97.7271,15.8432],[97.7061,15.8603],[97.7122,15.8877],[97.6914,15.9123],[97.6372,15.9492],[97.5757,16.0174],[97.5689,16.0624],[97.5718,16.08],[97.6008,16.0925],[97.6196,16.1254],[97.6509,16.2713],[97.6231,16.3945],[97.6372,16.4774],[97.6738,16.5334],[97.7402,16.5593],[97.7859,16.5182],[97.8543,16.5355],[97.8596,16.4867],[97.9004,16.466],[97.9195,16.4297],[97.9855,16.4263],[98.0053,16.3391],[98.0765,16.2835],[98.0843,16.2444],[98.1349,16.193],[98.1319,16.1628],[98.0752,16.1242],[98.0059,16.1528],[97.8234,16.1339],[97.8636,16.04],[97.8387,15.9676],[97.8354,15.8971],[97.8866,15.7373],[97.8708,15.6836],[97.9456,15.6395],[97.9517,15.6062],[97.9986,15.5648],[98.1276,15.3596],[98.1899,15.3017],[98.2077,15.2192]]],[[[97.7035,16.5735],[97.6304,16.532],[97.5483,16.5382],[97.4763,16.5183],[97.4231,16.5234],[97.3703,16.4835],[97.3298,16.6798],[97.3112,16.6524],[97.2858,16.6589],[97.2554,16.6979],[97.2302,16.7691],[97.2448,16.8175],[97.2331,16.8398],[97.2405,16.8746],[97.2195,16.8262],[97.2046,16.8598],[97.2195,16.9013],[97.1916,16.9013],[97.1833,16.9215],[97.1983,17.0135],[97.1572,17.0869],[97.1745,17.1125],[97.2337,17.0952],[97.261,17.1073],[97.2026,17.1316],[97.1581,17.1293],[97.1306,17.0794],[97.1003,17.1338],[97.096,17.1658],[97.1096,17.1893],[97.0887,17.1935],[97.0686,17.2514],[97.0072,17.2781],[97.0134,17.2991],[96.8955,17.3847],[96.8829,17.4572],[96.8908,17.6027],[96.9163,17.6121],[96.9658,17.6159],[97.0069,17.604],[97.0384,17.5671],[97.1,17.5366],[97.1226,17.482],[97.1998,17.5109],[97.234,17.5455],[97.2489,17.5473],[97.252,17.5693],[97.2841,17.5988],[97.3263,17.5902],[97.3579,17.661],[97.3759,17.6757],[97.3774,17.7015],[97.4193,17.7084],[97.4222,17.6918],[97.3911,17.6621],[97.3843,17.6319],[97.4124,17.5654],[97.4557,17.5336],[97.4448,17.4642],[97.4727,17.3806],[97.521,17.3012],[97.5036,17.2695],[97.5219,17.2108],[97.5089,17.1853],[97.5314,17.1252],[97.4863,17.0733],[97.4922,17.0392],[97.4683,17.014],[97.473,16.9804],[97.4993,16.9444],[97.4959,16.8855],[97.5343,16.8388],[97.5629,16.7191],[97.6348,16.6494],[97.6513,16.6074],[97.6986,16.5989],[97.7035,16.5735]]],[[[97.5894,16.4153],[97.5894,16.3402],[97.5689,16.2986],[97.5714,16.2227],[97.5475,16.1999],[97.5169,16.2098],[97.5105,16.2542],[97.4593,16.3014],[97.4849,16.3639],[97.4548,16.4369],[97.4596,16.4774],[97.5205,16.5109],[97.6063,16.4835],[97.6106,16.4462],[97.5894,16.4153]]],[[[97.6644,15.5656],[97.6644,15.5041],[97.6509,15.5922],[97.6644,15.5656]]]]}},{"type":"Feature","id":"Rakhine State","properties":{"id":"Rakhine State","iso_code":"MM-16","name":"Rakhine State","name_full":"Rakhine State","name_ja":"ラカイン州","center_lonlat":[93.7435,19.7425]},"geometry":{"type":"MultiPolygon","coordinates":[[[[92.641,21.3086],[92.6692,21.2969],[92.8548,21.0433],[92.8812,21.0385],[92.9397,21.0796],[93.1326,21.0441],[93.1486,21.0198],[93.1602,20.9185],[93.1767,20.8888],[93.224,20.86],[93.2462,20.8068],[93.4128,20.7011],[93.474,20.6737],[93.5475,20.6801],[93.6025,20.6634],[93.6715,20.6983],[93.6836,20.7159],[93.6518,20.7827],[93.6558,20.8539],[93.6891,20.8919],[93.7248,20.8877],[93.7498,20.869],[93.8022,20.7623],[93.8544,20.7509],[93.9046,20.7019],[93.904,20.5811],[93.9138,20.5644],[93.9839,20.5447],[94.0117,20.5179],[94.1559,20.2874],[94.2076,20.1667],[94.2562,20.1114],[94.2527,20.0487],[94.2652,20.0169],[94.3414,19.9331],[94.3279,19.8181],[94.3698,19.7306],[94.4301,19.4513],[94.5555,19.2641],[94.5595,19.2364],[94.5427,19.2331],[94.5336,19.1979],[94.5595,19.1149],[94.5712,19.0992],[94.6345,19.0755],[94.6823,19.025],[94.7185,18.9437],[94.7465,18.9239],[94.8047,18.8372],[94.7972,18.8131],[94.7201,18.7838],[94.7919,18.6972],[94.786,18.6724],[94.744,18.6236],[94.7758,18.536],[94.7637,18.4663],[94.8366,18.3576],[94.8901,18.2365],[94.8754,17.9989],[94.8579,17.9424],[94.9027,17.8508],[94.8829,17.73],[94.8095,17.624],[94.7994,17.4654],[94.7544,17.3717],[94.7366,17.3694],[94.696,17.4013],[94.6362,17.4163],[94.5677,17.4629],[94.5703,17.5052],[94.5539,17.5436],[94.5603,17.5821],[94.615,17.5456],[94.5907,17.5932],[94.5952,17.6155],[94.563,17.6617],[94.544,17.748],[94.5017,17.7866],[94.4834,17.9023],[94.4474,17.9733],[94.4509,18.0024],[94.4922,18.0259],[94.4906,18.0725],[94.4368,18.1824],[94.4229,18.2425],[94.3416,18.2475],[94.3259,18.2677],[94.3311,18.3031],[94.3892,18.286],[94.417,18.314],[94.3897,18.3627],[94.3506,18.3752],[94.3311,18.426],[94.259,18.509],[94.245,18.5393],[94.2622,18.5451],[94.2488,18.6389],[94.1489,18.731],[94.1564,18.7385],[94.1746,18.725],[94.2116,18.7255],[94.2793,18.7385],[94.2525,18.7521],[94.228,18.7355],[94.2124,18.7418],[94.1531,18.821],[94.1489,18.8682],[94.1336,18.8465],[94.1351,18.8205],[94.1196,18.8166],[94.0669,18.8483],[94.0532,18.8409],[94.0381,18.8591],[94.0366,18.918],[94.0532,18.9365],[94.0412,18.9976],[94.0661,19.0429],[94.0601,19.0637],[94.0942,19.0873],[94.0466,19.0811],[94.0291,19.0954],[94.0391,19.1221],[94.0327,19.1693],[94.0532,19.2214],[94.0459,19.3047],[94.0697,19.3509],[94.0669,19.389],[94.0252,19.2866],[94.0334,19.2045],[93.9735,19.1463],[93.9471,19.1597],[93.9373,19.2047],[93.9255,19.2103],[93.9104,19.191],[93.9099,19.1767],[93.9554,19.1269],[93.9525,19.0321],[93.9844,18.9678],[93.9739,18.9228],[93.9373,18.8894],[93.9441,18.8682],[93.9304,18.8586],[93.9074,18.8818],[93.8657,18.8955],[93.8137,18.944],[93.7346,18.9812],[93.7039,19.0185],[93.6789,19.0196],[93.6423,19.1342],[93.594,19.1767],[93.5671,19.2311],[93.4871,19.3337],[93.4909,19.4076],[93.5301,19.4321],[93.553,19.4306],[93.568,19.4067],[93.6113,19.4033],[93.637,19.3491],[93.6213,19.3344],[93.6653,19.3056],[93.7175,19.2934],[93.7229,19.2685],[93.7546,19.2471],[93.8342,19.2382],[93.9299,19.2997],[93.9873,19.3867],[93.9844,19.4641],[93.9238,19.4624],[93.9192,19.4843],[93.9373,19.492],[93.8821,19.5019],[93.7312,19.6326],[93.7561,19.6611],[93.8001,19.6565],[93.7944,19.6736],[93.8274,19.7186],[93.8068,19.7458],[93.7839,19.6911],[93.7611,19.6749],[93.7312,19.6776],[93.7095,19.7135],[93.7188,19.7436],[93.7516,19.7657],[93.7219,19.769],[93.6935,19.7248],[93.6484,19.7252],[93.6355,19.7595],[93.6014,19.7186],[93.6065,19.7961],[93.6607,19.8708],[93.6799,19.8834],[93.738,19.8825],[93.7256,19.9056],[93.7454,19.9166],[93.74,19.9251],[93.7175,19.9377],[93.7075,19.9166],[93.6113,19.9103],[93.6008,19.8886],[93.5807,19.8813],[93.5467,19.9029],[93.5659,19.9166],[93.5183,19.9396],[93.5319,19.9514],[93.512,19.9704],[93.5319,19.9848],[93.5256,19.9992],[93.4922,19.965],[93.4705,19.9848],[93.457,19.9542],[93.4232,19.9653],[93.3823,20.0885],[93.3721,20.0308],[93.3618,20.0264],[93.3407,20.1022],[93.3128,20.0654],[93.2725,20.0475],[93.1903,20.0644],[93.1763,20.0537],[93.1284,20.0947],[93.1763,19.9575],[93.2358,19.8472],[93.2383,19.821],[93.2014,19.8628],[93.1481,19.9943],[93.1315,20.0066],[93.1091,19.9938],[93.1061,19.9306],[93.1345,19.8483],[93.1688,19.8073],[93.125,19.8467],[93.0594,19.9511],[93.0384,20.0129],[92.9807,20.0779],[92.9702,20.1295],[93.0425,20.1295],[93.0801,20.1705],[93.0942,20.15],[93.1209,20.212],[93.0892,20.2104],[93.0186,20.15],[92.9905,20.1549],[93.0012,20.2393],[93.0188,20.2565],[93.0413,20.332],[93.0808,20.3585],[93.0913,20.381],[93.1004,20.4311],[93.0819,20.417],[93.0596,20.3622],[93.0432,20.3649],[93.031,20.4097],[93.0856,20.5329],[93.0733,20.5546],[93.0226,20.4525],[93.0163,20.3249],[92.936,20.212],[92.8984,20.1357],[92.8677,20.122],[92.7721,20.2015],[92.7782,20.2316],[92.7995,20.2592],[92.864,20.3008],[92.9429,20.3212],[92.8933,20.3295],[92.8469,20.3773],[92.8269,20.4951],[92.7927,20.5063],[92.7966,20.4838],[92.7693,20.4551],[92.7586,20.4721],[92.779,20.4783],[92.751,20.4985],[92.7207,20.5922],[92.6629,20.6792],[92.635,20.698],[92.7083,20.5787],[92.717,20.5],[92.7375,20.4448],[92.7312,20.2592],[92.6971,20.3083],[92.6532,20.4183],[92.5399,20.5275],[92.507,20.6093],[92.4536,20.6685],[92.3811,20.7001],[92.281,20.9594],[92.2705,21.049],[92.2243,21.0932],[92.175,21.1756],[92.1837,21.3172],[92.2363,21.4171],[92.2845,21.4191],[92.3227,21.4619],[92.3547,21.4518],[92.3812,21.3848],[92.4003,21.371],[92.5245,21.3611],[92.5706,21.2473],[92.6143,21.2631],[92.641,21.3086]]],[[[93.9707,19.4169],[93.9658,19.363],[93.9172,19.3183],[93.8894,19.2996],[93.8752,19.3139],[93.8628,19.3078],[93.8569,19.2789],[93.8027,19.2767],[93.7498,19.3333],[93.7254,19.3869],[93.738,19.4033],[93.7305,19.4193],[93.6691,19.4465],[93.6418,19.492],[93.6566,19.4974],[93.6492,19.5131],[93.6882,19.5595],[93.7236,19.5564],[93.82,19.4715],[93.8802,19.4792],[93.9707,19.4169]]],[[[93.7454,18.8],[93.759,18.7556],[93.7319,18.6897],[93.6931,18.6738],[93.6453,18.6793],[93.4978,18.8409],[93.4841,18.875],[93.5772,18.8819],[93.6218,18.9103],[93.6633,18.8732],[93.7424,18.8723],[93.7454,18.8]]],[[[93.5052,19.8073],[93.5169,19.7772],[93.512,19.7458],[93.4407,19.8109],[93.4028,19.9531],[93.4426,19.9381],[93.4988,19.887],[93.5052,19.8073]]],[[[92.964,20.0367],[93.0147,19.9056],[93.0249,19.8278],[93.0012,19.9066],[92.9094,20.0651],[92.912,20.0847],[92.9465,20.0705],[92.964,20.0367]]]]}},{"type":"Feature","id":"Sagaing","properties":{"id":"Sagaing","iso_code":"MM-01","name":"Sagaing","name_full":"Sagaing","name_ja":"ザガイン管区","center_lonlat":[95.3268,24.1521]},"geometry":{"type":"Polygon","coordinates":[[[97.0588,27.0921],[96.9903,27.0028],[96.9652,26.9913],[96.7646,26.9884],[96.6776,26.9652],[96.4494,26.9424],[96.3422,26.9632],[96.239,26.959],[96.2929,26.9159],[96.2746,26.858],[96.2051,26.8242],[96.1983,26.7662],[96.0697,26.6943],[96.0472,26.6661],[96.132,26.5788],[96.1517,26.4992],[96.1279,26.47],[96.0199,26.4355],[96.007,26.4177],[96.0141,26.3882],[96.0782,26.303],[96.0841,26.2622],[96.1549,26.1422],[96.1694,26.0654],[96.1638,26.0311],[96.1301,26.0],[96.0777,25.8729],[96.1176,25.7605],[96.171,25.7014],[96.1819,25.6717],[96.1664,25.6321],[96.0608,25.5388],[96.0432,25.5337],[95.9896,25.5671],[95.9685,25.5157],[95.9772,25.2414],[95.988,25.1997],[96.0388,25.1413],[96.0731,25.078],[96.0683,24.9859],[96.0392,24.9572],[96.0159,24.9634],[96.0339,25.0403],[96.0216,25.0562],[95.9696,25.0114],[95.8404,24.965],[95.9479,24.69],[95.9881,24.6672],[96.1038,24.637],[96.1398,24.5482],[96.2351,24.4587],[96.2793,24.4798],[96.4247,24.5011],[96.6562,24.4172],[96.6077,24.3553],[96.6067,24.2498],[96.6201,24.209],[96.6736,24.1419],[96.5901,24.1249],[96.4146,24.0512],[96.3894,24.0285],[96.3891,24.0013],[96.41,23.9831],[96.4548,24.0224],[96.4858,24.0251],[96.508,24.0107],[96.5127,23.9513],[96.5599,23.8488],[96.501,23.7405],[96.4398,23.6886],[96.4316,23.6388],[96.3965,23.5737],[96.3207,23.5067],[96.2898,23.5316],[96.193,23.5002],[96.1386,23.5203],[96.124,23.5369],[96.1347,23.5894],[96.1252,23.6226],[96.082,23.6294],[96.0349,23.5852],[96.0076,23.5225],[95.9453,23.452],[95.9093,23.3791],[95.9095,23.3446],[95.9752,23.154],[95.9648,22.7691],[95.955,22.7503],[95.9102,22.7394],[95.9013,22.7072],[95.9902,22.5293],[95.9646,22.4725],[95.9637,22.3925],[96.0128,22.3318],[95.9861,22.2814],[95.9878,22.2165],[96.0075,22.0894],[96.0481,21.994],[96.0412,21.9234],[95.9732,21.8672],[95.8843,21.8512],[95.8358,21.705],[95.7721,21.6261],[95.7427,21.6376],[95.6571,21.6269],[95.5615,21.7396],[95.5226,21.7448],[95.3799,21.7074],[95.3422,21.6089],[95.3014,21.6214],[95.2485,21.661],[95.2425,21.7119],[95.1521,21.8233],[95.1277,21.8303],[95.0791,21.8273],[95.0522,21.81],[94.9212,21.8134],[94.844,21.8289],[94.6843,21.8086],[94.6019,21.8197],[94.4904,21.7673],[94.409,21.8038],[94.3957,21.8244],[94.4162,21.9896],[94.4056,22.0557],[94.3657,22.0796],[94.3493,22.1105],[94.2794,22.1063],[94.2562,22.1454],[94.2442,22.2758],[94.2958,22.3889],[94.29,22.4215],[94.2166,22.5556],[94.1207,22.6696],[94.1133,22.7081],[94.0978,22.7118],[94.064,22.6838],[94.007,22.678],[93.9944,22.7432],[94.0139,22.815],[94.0092,22.8814],[93.9925,22.9203],[94.02,23.052],[94.0017,23.1669],[93.9981,23.22],[94.0115,23.278],[94.0003,23.3305],[94.0491,23.348],[94.0503,23.4994],[94.1235,23.4759],[94.1425,23.4993],[94.1701,23.695],[94.1401,23.7783],[94.1289,23.8539],[94.1351,23.919],[94.1903,23.9953],[94.2954,24.3326],[94.3307,24.3629],[94.3287,24.3945],[94.3612,24.4254],[94.3637,24.4658],[94.3971,24.4951],[94.4185,24.5603],[94.475,24.5974],[94.5163,24.705],[94.5557,24.7089],[94.5815,24.7301],[94.599,24.8135],[94.6548,24.8892],[94.6735,24.9748],[94.7086,25.0259],[94.7068,25.1099],[94.6891,25.1385],[94.5769,25.1736],[94.5533,25.2041],[94.5501,25.2453],[94.608,25.3946],[94.6595,25.4555],[94.692,25.4763],[94.7644,25.4917],[94.8224,25.5591],[94.8603,25.5672],[94.8535,25.586],[94.9615,25.718],[95.0088,25.7371],[95.0135,25.7777],[94.9932,25.881],[95.0006,25.922],[95.0659,25.9538],[95.1512,26.0499],[95.1375,26.083],[95.0882,26.1041],[95.0784,26.1713],[95.0945,26.195],[95.0587,26.2177],[95.0418,26.2876],[95.0661,26.4074],[95.0406,26.4756],[95.1096,26.5513],[95.1228,26.6116],[95.1732,26.6338],[95.2049,26.6676],[95.2233,26.6704],[95.2391,26.6496],[95.2606,26.6476],[95.4106,26.7016],[95.4898,26.8107],[95.5748,26.8161],[95.5913,26.8237],[95.6243,26.8807],[95.6993,26.8962],[95.778,26.9951],[95.8615,27.0142],[95.9164,27.0514],[96.0132,27.1908],[96.1426,27.2575],[96.4078,27.2982],[96.5109,27.2925],[96.5473,27.3064],[96.5869,27.3536],[96.649,27.3362],[96.6759,27.3577],[96.7052,27.3608],[96.7763,27.3306],[96.8538,27.2487],[96.8427,27.1885],[97.003,27.1145],[97.0268,27.0915],[97.0588,27.0921]]]}},{"type":"Feature","id":"Shan State","properties":{"id":"Shan State","iso_code":"MM-17","name":"Shan State","name_full":"Shan State","name_ja":"シャン州","center_lonlat":[98.1178,21.7171]},"geometry":{"type":"Polygon","coordinates":[[[97.8691,19.5705],[97.8388,19.6472],[97.7587,19.6703],[97.7268,19.6563],[97.612,19.6866],[97.5601,19.7424],[97.586,19.8273],[97.5541,19.8437],[97.5193,19.899],[97.4473,19.882],[97.3918,19.9531],[97.3678,19.9458],[97.3399,19.899],[97.2634,19.8931],[97.2361,19.9125],[97.2259,19.9725],[97.1678,19.9887],[97.1573,19.8817],[97.1442,19.8656],[97.1354,19.7278],[97.0269,19.6668],[96.9376,19.585],[96.895,19.5003],[96.9268,19.4359],[96.9267,19.4054],[96.9006,19.355],[96.8399,19.2884],[96.8468,19.3355],[96.8216,19.383],[96.7036,19.4466],[96.6733,19.4958],[96.6788,19.5242],[96.6565,19.5684],[96.5802,19.5823],[96.5562,19.6062],[96.5709,19.6237],[96.6182,19.6393],[96.6556,19.6775],[96.6583,19.7027],[96.6197,19.7327],[96.5371,19.8494],[96.4545,19.8566],[96.4498,19.9],[96.3979,19.965],[96.3749,20.0172],[96.4133,20.0278],[96.4328,20.0197],[96.4529,20.0328],[96.4789,20.0717],[96.46,20.0906],[96.4536,20.1324],[96.5466,20.2164],[96.4764,20.4231],[96.4994,20.4757],[96.4963,20.5086],[96.5485,20.5209],[96.5469,20.5894],[96.504,20.6082],[96.4539,20.6808],[96.4567,20.7241],[96.4947,20.7611],[96.5687,20.7691],[96.5875,20.8503],[96.5647,20.8814],[96.5377,20.8854],[96.5058,20.9156],[96.4761,20.8984],[96.4297,20.9283],[96.3934,20.9259],[96.2579,20.9742],[96.2155,21.0078],[96.2105,21.0595],[96.2297,21.0969],[96.2239,21.1341],[96.2404,21.15],[96.2885,21.1675],[96.358,21.1611],[96.3737,21.1713],[96.3315,21.2495],[96.2883,21.4597],[96.3378,21.4937],[96.3291,21.5103],[96.3403,21.5378],[96.4609,21.5541],[96.535,21.589],[96.5759,21.594],[96.7046,21.717],[96.7391,21.7119],[96.7881,21.7311],[96.8153,21.76],[96.8422,21.739],[96.8795,21.7326],[96.8886,21.7598],[96.8733,21.8139],[96.8519,21.8259],[96.8468,21.8734],[96.7625,21.9914],[96.7363,22.0772],[96.4837,22.1598],[96.4787,22.2239],[96.4368,22.2839],[96.427,22.3371],[96.4025,22.3653],[96.3244,22.3738],[96.3175,22.398],[96.3334,22.4878],[96.2948,22.5275],[96.2942,22.5703],[96.2391,22.6441],[96.2387,22.6904],[96.2193,22.6921],[96.2036,22.7397],[96.2718,22.7816],[96.3515,22.7737],[96.4076,22.7947],[96.4298,22.7802],[96.4712,22.7831],[96.5439,22.8185],[96.6057,22.81],[96.6353,22.8197],[96.7174,22.9339],[96.7076,22.9575],[96.6222,22.976],[96.5861,22.9959],[96.5881,23.0373],[96.5548,23.0314],[96.5194,23.0587],[96.4827,23.0382],[96.3465,23.0175],[96.2608,23.0228],[96.2038,23.0609],[96.2064,23.0838],[96.1582,23.1582],[96.1929,23.2123],[96.205,23.3077],[96.1901,23.3479],[96.2334,23.344],[96.2492,23.3907],[96.3065,23.4295],[96.2984,23.464],[96.3207,23.5067],[96.3965,23.5737],[96.4316,23.6388],[96.4398,23.6886],[96.501,23.7405],[96.5599,23.8488],[96.5127,23.9513],[96.508,24.0107],[96.4858,24.0251],[96.4548,24.0224],[96.41,23.9831],[96.3891,24.0013],[96.3894,24.0285],[96.4146,24.0512],[96.5901,24.1249],[96.6736,24.1419],[96.6962,24.1178],[96.6993,24.0701],[96.7298,24.0281],[96.8333,23.9655],[96.8861,23.9898],[96.9123,23.928],[96.9163,23.873],[96.8929,23.8234],[96.7804,23.7726],[96.7832,23.7507],[96.8783,23.7216],[96.9123,23.7268],[96.9945,23.7078],[97.0196,23.6468],[97.0976,23.6454],[97.1734,23.6759],[97.227,23.6797],[97.2598,23.7034],[97.3095,23.7052],[97.3774,23.7498],[97.4203,23.7502],[97.4713,23.7853],[97.6171,23.8172],[97.6411,23.8332],[97.6473,23.8685],[97.6968,23.8871],[97.7678,23.9465],[97.8178,23.9582],[97.89,24.0226],[98.1051,24.1015],[98.1815,24.1187],[98.3307,24.0995],[98.3956,24.1281],[98.435,24.1303],[98.5033,24.1213],[98.5852,24.0757],[98.7162,24.1213],[98.8181,24.129],[98.8657,24.1457],[98.8735,24.1145],[98.8562,24.0838],[98.6588,23.9611],[98.6745,23.9369],[98.6637,23.7969],[98.7932,23.7585],[98.8003,23.6927],[98.856,23.61],[98.8502,23.5906],[98.7963,23.5579],[98.7809,23.5329],[98.8,23.4807],[98.8489,23.4804],[98.864,23.4666],[98.8896,23.4068],[98.8901,23.3679],[98.8534,23.3249],[98.8965,23.3233],[98.9107,23.2976],[98.8601,23.2123],[98.859,23.1794],[99.0264,23.1604],[99.0551,23.1096],[99.1942,23.0958],[99.2166,23.0574],[99.2848,23.0882],[99.3141,23.1265],[99.3338,23.1296],[99.4033,23.0683],[99.4931,23.0574],[99.4904,23.012],[99.5346,22.9493],[99.538,22.9264],[99.5153,22.9088],[99.4845,22.9103],[99.4299,22.9367],[99.4134,22.9307],[99.4144,22.8569],[99.359,22.7749],[99.308,22.7452],[99.3079,22.7196],[99.355,22.6085],[99.3441,22.5333],[99.3578,22.4955],[99.2828,22.4119],[99.2431,22.3932],[99.2437,22.3412],[99.1594,22.1847],[99.1751,22.1687],[99.1445,22.1535],[99.1664,22.1321],[99.2529,22.1028],[99.3649,22.0989],[99.4386,22.1242],[99.4904,22.1043],[99.539,22.1067],[99.6335,22.0848],[99.6839,22.039],[99.7237,22.0706],[99.821,22.0178],[99.8417,22.0271],[99.8478,22.055],[99.9424,22.0455],[99.9343,22.0189],[99.9657,21.963],[99.918,21.8292],[99.9503,21.7212],[99.9967,21.6861],[100.0823,21.6845],[100.1428,21.6549],[100.1437,21.64],[100.1157,21.6295],[100.0949,21.5988],[100.09,21.5289],[100.1625,21.4364],[100.1871,21.4279],[100.2895,21.4831],[100.342,21.5304],[100.3991,21.5189],[100.4567,21.455],[100.5718,21.4551],[100.6217,21.4691],[100.704,21.5164],[100.8349,21.6575],[100.9928,21.7114],[101.0828,21.7667],[101.1189,21.7598],[101.1277,21.6952],[101.1615,21.6584],[101.1739,21.6119],[101.1542,21.568],[101.1571,21.5197],[101.0034,21.406],[100.896,21.3558],[100.8513,21.3148],[100.8146,21.3002],[100.7254,21.3117],[100.6894,21.1593],[100.6255,21.0541],[100.5435,21.0274],[100.5573,20.992],[100.5292,20.9684],[100.5178,20.9063],[100.5157,20.8865],[100.5342,20.8739],[100.6231,20.8885],[100.6521,20.8766],[100.5989,20.8335],[100.5367,20.8077],[100.3648,20.8282],[100.3297,20.786],[100.2902,20.775],[100.2113,20.6974],[100.1493,20.5481],[100.1209,20.3888],[100.0998,20.3622],[100.0993,20.3178],[100.0555,20.3442],[100.0361,20.3731],[99.9859,20.387],[99.9371,20.445],[99.8377,20.4168],[99.7872,20.3341],[99.6519,20.3068],[99.5029,20.3452],[99.44,20.3822],[99.4206,20.3756],[99.4664,20.3222],[99.4863,20.2455],[99.5258,20.1962],[99.5103,20.1538],[99.4414,20.1016],[99.2957,20.0625],[99.2365,20.1027],[99.1777,20.1218],[99.0735,20.1012],[99.0365,20.0752],[99.0168,20.041],[99.0009,19.821],[98.9738,19.7881],[98.8993,19.7486],[98.8837,19.7455],[98.8519,19.784],[98.8079,19.8065],[98.7492,19.7635],[98.6238,19.7375],[98.5984,19.7091],[98.5326,19.6759],[98.4888,19.7067],[98.4396,19.6877],[98.3073,19.69],[98.2375,19.6647],[98.2192,19.677],[98.2133,19.7178],[98.172,19.7316],[98.1114,19.7771],[98.0729,19.7773],[98.0456,19.8076],[98.0179,19.7894],[98.0046,19.7239],[98.0083,19.6391],[97.8691,19.5705]]]}},{"type":"Feature","id":"Tanintharyi","properties":{"id":"Tanintharyi","iso_code":"MM-05","name":"Tanintharyi","name_full":"Tanintharyi","name_ja":"タニンダーイー管区","center_lonlat":[98.787,12.7495]},"geometry":{"type":"MultiPolygon","coordinates":[[[[98.1912,14.9932],[98.2216,14.9213],[98.2221,14.8643],[98.2391,14.844],[98.2433,14.8051],[98.2975,14.7212],[98.4182,14.6076],[98.4528,14.5281],[98.4782,14.5165],[98.5477,14.3777],[98.6015,14.3136],[98.6442,14.2957],[98.6704,14.2679],[98.707,14.27],[98.7537,14.2001],[98.8723,14.1125],[98.9353,14.0854],[98.953,14.028],[99.0071,13.9496],[99.09,13.8701],[99.1012,13.7788],[99.1525,13.7149],[99.152,13.582],[99.1879,13.4271],[99.1869,13.3291],[99.1728,13.3009],[99.1902,13.2295],[99.1728,13.1995],[99.1141,13.1881],[99.1021,13.1713],[99.0932,13.0383],[99.1648,12.9755],[99.1553,12.9045],[99.1753,12.8334],[99.2107,12.7923],[99.2245,12.7175],[99.2667,12.7028],[99.2769,12.6656],[99.3097,12.6535],[99.4033,12.5759],[99.4042,12.5081],[99.387,12.4659],[99.4206,12.3834],[99.4267,12.3087],[99.4544,12.2673],[99.4556,12.2276],[99.4738,12.1873],[99.4488,12.1472],[99.4523,12.1294],[99.5417,12.1407],[99.5184,12.0259],[99.567,11.9933],[99.574,11.9763],[99.5541,11.895],[99.5614,11.8729],[99.63,11.8158],[99.6069,11.7257],[99.5426,11.6405],[99.4498,11.6138],[99.4282,11.4969],[99.387,11.4515],[99.3643,11.3767],[99.3157,11.3208],[99.2884,11.2583],[99.2433,11.1977],[99.213,11.1083],[99.0769,10.9965],[99.0551,10.9452],[99.0056,10.9588],[98.9923,10.948],[98.9796,10.9077],[98.9899,10.8604],[98.9745,10.8242],[98.934,10.8077],[98.8921,10.8085],[98.8682,10.7699],[98.8301,10.7636],[98.7667,10.6888],[98.7479,10.6231],[98.7773,10.5832],[98.7904,10.5003],[98.7474,10.3505],[98.7189,10.3126],[98.6961,10.2237],[98.6442,10.155],[98.5899,10.0421],[98.5431,9.9875],[98.521,10.029],[98.5139,10.1469],[98.4896,10.1979],[98.5285,10.3642],[98.4942,10.4525],[98.4955,10.5569],[98.4634,10.63],[98.4593,10.7154],[98.4636,10.7294],[98.4983,10.7316],[98.5285,10.6931],[98.5383,10.7187],[98.521,10.741],[98.5437,10.7451],[98.5632,10.7273],[98.5999,10.8055],[98.5967,10.8371],[98.6309,10.8508],[98.5864,10.861],[98.5816,10.882],[98.6138,10.8903],[98.648,10.9191],[98.6731,10.9055],[98.7124,10.9244],[98.7202,10.9805],[98.6929,11.0084],[98.7224,11.0449],[98.7066,11.0978],[98.6763,11.1006],[98.6582,11.132],[98.7241,11.1562],[98.7593,11.2689],[98.7219,11.3501],[98.7271,11.3852],[98.7026,11.3791],[98.698,11.388],[98.7153,11.4432],[98.7749,11.4535],[98.7544,11.5224],[98.7289,11.5176],[98.7179,11.5319],[98.7363,11.5888],[98.7356,11.642],[98.7522,11.6817],[98.7803,11.6865],[98.8059,11.6732],[98.8171,11.6774],[98.8226,11.708],[98.8916,11.6937],[98.8767,11.7226],[98.8049,11.7365],[98.783,11.7551],[98.8257,11.8259],[98.8089,11.8513],[98.8161,11.8338],[98.7681,11.7619],[98.7442,11.7625],[98.7122,11.7365],[98.7031,11.6975],[98.6742,11.6852],[98.6104,11.7313],[98.606,11.7692],[98.6321,11.7929],[98.6309,11.8036],[98.6035,11.8036],[98.624,11.8303],[98.6514,11.8303],[98.6809,11.8773],[98.7066,11.8786],[98.6941,11.8929],[98.6309,11.8786],[98.549,11.8786],[98.5581,11.8991],[98.5781,11.9067],[98.6275,11.906],[98.6641,11.9204],[98.6909,11.9543],[98.7202,11.9643],[98.7214,11.9978],[98.7031,12.0481],[98.7127,12.0636],[98.665,12.0602],[98.6338,12.0903],[98.641,12.1137],[98.6296,12.132],[98.6309,12.1462],[98.6731,12.1592],[98.6582,12.1667],[98.7097,12.2043],[98.7033,12.2378],[98.6629,12.2368],[98.5967,12.194],[98.5632,12.2077],[98.5391,12.2418],[98.5402,12.261],[98.5684,12.2909],[98.6768,12.3153],[98.7066,12.3479],[98.7,12.364],[98.6514,12.3857],[98.6052,12.4289],[98.6162,12.4857],[98.7014,12.4987],[98.7097,12.5124],[98.64,12.5319],[98.6231,12.5582],[98.6514,12.6223],[98.6731,12.6254],[98.6677,12.6748],[98.6929,12.7253],[98.6484,12.7233],[98.6445,12.742],[98.6787,12.7563],[98.6277,12.7563],[98.6178,12.7663],[98.6174,12.7774],[98.6418,12.7824],[98.6514,12.7973],[98.6343,12.8786],[98.5899,12.9196],[98.614,12.9543],[98.5838,13.0266],[98.5899,13.0847],[98.5785,13.1868],[98.5005,13.2492],[98.4899,13.2978],[98.48,13.2839],[98.4605,13.3558],[98.4732,13.413],[98.4528,13.3795],[98.4453,13.4243],[98.4186,13.4546],[98.4264,13.4901],[98.3941,13.5428],[98.3572,13.5639],[98.3566,13.5849],[98.3361,13.5986],[98.3364,13.6198],[98.2883,13.6948],[98.2957,13.688],[98.302,13.701],[98.2448,13.7141],[98.2542,13.8518],[98.2337,13.9173],[98.2337,14.0026],[98.1921,14.0647],[98.179,14.0197],[98.1995,13.9927],[98.1983,13.9649],[98.1802,13.925],[98.1995,13.8692],[98.1795,13.7324],[98.1961,13.6684],[98.1685,13.5843],[98.1869,13.5439],[98.1711,13.5378],[98.1511,13.5576],[98.1443,13.5371],[98.1414,13.5732],[98.1297,13.5823],[98.1511,13.606],[98.1375,13.6265],[98.1585,13.6423],[98.1511,13.6737],[98.1688,13.6808],[98.1033,13.701],[98.117,13.7289],[98.0921,13.7397],[98.0828,13.77],[98.0889,13.7951],[98.1101,13.7904],[98.1108,13.9022],[98.0823,13.9245],[98.0617,14.0101],[98.1077,14.11],[98.0964,14.1678],[98.1101,14.1678],[98.1011,14.1918],[98.0896,14.1814],[98.0418,14.2429],[97.9935,14.3305],[97.9797,14.3974],[98.0003,14.4687],[97.9764,14.4438],[97.9661,14.4483],[97.9136,14.5867],[97.9251,14.6128],[97.8855,14.656],[97.8855,14.6841],[97.9041,14.709],[97.9431,14.7202],[97.9924,14.6637],[98.0276,14.6475],[97.9822,14.7153],[98.0003,14.7221],[97.9646,14.7471],[97.9729,14.7636],[97.9499,14.7989],[97.9382,14.7847],[97.9456,14.7636],[97.9312,14.7522],[97.8972,14.7978],[97.9022,14.7377],[97.8755,14.7167],[97.8504,14.7236],[97.8151,14.8508],[97.7949,14.8802],[97.8549,14.9449],[97.9023,15.0784],[98.0208,15.0991],[98.1007,14.9991],[98.1912,14.9932]]],[[[98.4663,12.5837],[98.4702,12.5175],[98.4558,12.4578],[98.3913,12.3615],[98.3499,12.3259],[98.302,12.338],[98.3361,12.4509],[98.3156,12.4956],[98.333,12.5192],[98.3027,12.5986],[98.3156,12.6874],[98.4055,12.639],[98.3981,12.5875],[98.4255,12.5297],[98.4509,12.604],[98.4663,12.5837]]],[[[98.5353,11.8036],[98.5564,11.7587],[98.549,11.6217],[98.5285,11.5805],[98.5353,11.5292],[98.459,11.5838],[98.4324,11.5667],[98.4317,11.6049],[98.4157,11.6044],[98.4186,11.6323],[98.3794,11.6911],[98.3821,11.7042],[98.4055,11.708],[98.3814,11.7314],[98.3799,11.7509],[98.4131,11.7734],[98.3821,11.7762],[98.3708,11.7893],[98.4382,11.7871],[98.4528,11.7893],[98.4453,11.8036],[98.5353,11.8036]]],[[[98.2783,11.7998],[98.3067,11.7774],[98.323,11.7313],[98.302,11.7142],[98.2752,11.4808],[98.2678,11.4882],[98.2609,11.4678],[98.2337,11.5019],[98.2268,11.4739],[98.202,11.4663],[98.22,11.4535],[98.1765,11.4492],[98.1653,11.4535],[98.1653,11.4739],[98.1841,11.4726],[98.1995,11.4882],[98.1875,11.535],[98.2131,11.5534],[98.2026,11.5892],[98.2405,11.6248],[98.2337,11.6664],[98.2678,11.7414],[98.2783,11.7998]]],[[[98.6035,11.9674],[98.6592,11.9487],[98.6582,11.9339],[98.5726,11.9316],[98.5159,11.8959],[98.478,11.8909],[98.4597,11.9337],[98.471,11.9881],[98.4403,12.0154],[98.4309,12.1007],[98.4391,12.112],[98.5199,12.007],[98.5415,11.9953],[98.5596,12.0008],[98.6035,11.9674]]],[[[98.2678,10.8371],[98.2764,10.7845],[98.2957,10.7819],[98.283,10.7565],[98.2957,10.7347],[98.2678,10.6965],[98.2507,10.6931],[98.2322,10.7083],[98.2337,10.741],[98.2555,10.7464],[98.2337,10.7683],[98.2405,10.831],[98.22,10.8409],[98.1987,10.8817],[98.179,10.8986],[98.1716,10.885],[98.1653,10.9191],[98.1467,10.9245],[98.1003,10.882],[98.0774,10.8881],[98.1312,10.9464],[98.1409,10.9774],[98.1719,10.9787],[98.2057,10.96],[98.2318,10.8703],[98.2678,10.8371]]],[[[98.2957,10.0489],[98.2739,10.048],[98.2941,10.0191],[98.2883,10.008],[98.2692,10.0026],[98.2439,9.9601],[98.179,9.9328],[98.1716,9.8981],[98.1335,9.8456],[98.1172,9.882],[98.1275,9.9601],[98.2346,10.0542],[98.2544,10.0627],[98.2957,10.0489]]],[[[98.0653,12.3653],[98.048,12.3305],[98.0105,12.31],[98.0003,12.269],[97.9824,12.3064],[97.9456,12.31],[97.971,12.3449],[97.9661,12.3585],[97.9382,12.338],[97.94,12.3663],[98.0178,12.4027],[98.0054,12.3673],[98.0418,12.3585],[98.0456,12.3891],[98.0636,12.3978],[98.0759,12.4274],[98.0906,12.4223],[98.1045,12.383],[98.0877,12.3601],[98.0653,12.3653]]],[[[98.2957,13.0847],[98.3185,13.0914],[98.3364,13.0739],[98.302,13.0294],[98.3143,12.9255],[98.302,12.9133],[98.2405,13.1393],[98.2473,13.215],[98.2688,13.1989],[98.2957,13.0847]]],[[[98.0964,12.1872],[98.1318,12.1986],[98.1375,12.1387],[98.1167,12.1655],[98.0767,12.1619],[98.0394,12.2073],[98.0462,12.262],[98.0725,12.2895],[98.1082,12.2847],[98.1238,12.2595],[98.0964,12.1872]]],[[[98.0554,11.7011],[98.0896,11.6323],[98.0117,11.7047],[98.0244,11.708],[98.0286,11.737],[98.0071,11.7619],[97.9998,11.8418],[98.0139,11.865],[98.0139,11.8166],[98.0523,11.776],[98.058,11.7291],[98.0823,11.7347],[98.0554,11.7011]]],[[[98.5285,10.9743],[98.508,10.9464],[98.4771,10.9737],[98.4868,11.0084],[98.5142,11.0358],[98.5247,11.0867],[98.5446,11.0312],[98.5415,10.9538],[98.5339,10.9508],[98.5285,10.9743]]],[[[98.1858,10.1212],[98.1716,10.1481],[98.1852,10.1768],[98.179,10.1929],[98.2405,10.1723],[98.2278,10.1553],[98.2337,10.1445],[98.2014,10.1181],[98.1858,10.0421],[98.1858,10.1212]]],[[[98.4937,10.8911],[98.5422,10.8601],[98.5532,10.8328],[98.5271,10.7869],[98.4984,10.7936],[98.5285,10.8201],[98.5183,10.8295],[98.5005,10.8235],[98.4937,10.8911]]],[[[98.5142,12.4956],[98.5142,12.4237],[98.4956,12.4058],[98.4743,12.425],[98.4998,12.5131],[98.5142,12.4956]]],[[[98.2542,12.5676],[98.2899,12.5263],[98.2829,12.5039],[98.2605,12.4953],[98.2302,12.517],[98.2337,12.5537],[98.2542,12.5676]]],[[[97.8904,10.885],[97.8963,10.9133],[97.912,10.9243],[97.9518,10.9191],[97.9277,10.872],[97.8836,10.8445],[97.8904,10.885]]],[[[98.2752,11.248],[98.302,11.2412],[98.2473,11.2145],[98.2432,11.243],[98.22,11.2691],[98.2814,11.2759],[98.2752,11.248]]],[[[97.9115,10.4945],[97.9026,10.4793],[97.9251,10.4741],[97.9435,10.4438],[97.9177,10.4331],[97.9319,10.412],[97.9102,10.4019],[97.8894,10.42],[97.9041,10.4393],[97.8963,10.4875],[97.9115,10.4945]]],[[[98.0575,9.7969],[98.0183,9.7949],[98.0081,9.8074],[98.0154,9.8264],[98.0461,9.8279],[98.0575,9.7969]]],[[[98.2542,11.8581],[98.2654,11.9085],[98.2891,11.8824],[98.2737,11.8533],[98.2542,11.8581]]],[[[97.6644,11.906],[97.6785,11.8879],[97.6667,11.8634],[97.6719,11.8377],[97.6509,11.8445],[97.6428,11.8677],[97.6644,11.906]]],[[[98.2287,10.52],[98.2219,10.4981],[98.1927,10.4824],[98.1897,10.5156],[98.2337,10.5294],[98.2287,10.52]]],[[[98.2678,11.9339],[98.2461,11.9254],[98.2271,11.9539],[98.2358,11.9683],[98.2609,11.9711],[98.2678,11.9339]]],[[[97.8228,12.5875],[97.8499,12.5946],[97.8618,12.5598],[97.8499,12.5373],[97.8294,12.5571],[97.8228,12.5875]]],[[[97.9319,13.8593],[97.9177,13.7836],[97.9187,13.8533],[97.9319,13.8593]]],[[[97.8369,12.7724],[97.8353,12.7928],[97.8528,12.8065],[97.868,12.7748],[97.8369,12.7724]]],[[[98.4295,10.9777],[98.4329,10.9936],[98.4514,11.0019],[98.4403,10.9656],[98.4295,10.9777]]],[[[97.4645,11.7825],[97.4443,11.8002],[97.4629,11.7998],[97.4797,11.778],[97.4645,11.7825]]]]}},{"type":"Feature","id":"Yangon","properties":{"id":"Yangon","iso_code":"MM-06","name":"Yangon","name_full":"Yangon","name_ja":"ヤンゴン管区","center_lonlat":[96.1837,16.9636]},"geometry":{"type":"Polygon","coordinates":[[[96.8272,16.8904],[96.844,16.8739],[96.8467,16.8449],[96.8113,16.7647],[96.7894,16.7561],[96.801,16.7374],[96.7163,16.6584],[96.6795,16.5749],[96.6159,16.518],[96.4976,16.4842],[96.4363,16.4778],[96.3571,16.5185],[96.2731,16.5821],[96.2258,16.7613],[96.2871,16.8131],[96.2576,16.8159],[96.2066,16.7775],[96.1712,16.7716],[96.1941,16.7431],[96.2046,16.6965],[96.2409,16.6501],[96.2346,16.5764],[96.3364,16.4394],[96.2853,16.366],[96.1441,16.3249],[96.0977,16.3286],[96.0774,16.3608],[96.0066,16.3874],[96.0173,16.3782],[95.9814,16.3989],[95.9042,16.4061],[95.8323,16.4791],[95.889,16.5526],[95.8832,16.6137],[95.8614,16.6522],[95.8861,16.6707],[95.8997,16.7037],[95.9061,16.7421],[95.8723,16.8426],[95.9043,16.905],[95.9007,16.9327],[95.8523,16.9884],[95.8501,17.0327],[95.7958,17.1182],[95.7067,17.2064],[95.6907,17.3001],[95.7467,17.4622],[95.7738,17.5133],[95.8485,17.5687],[95.9026,17.6468],[95.9769,17.6888],[96.04,17.7573],[96.0605,17.7574],[96.2939,17.3542],[96.3288,17.206],[96.3873,17.1107],[96.3945,16.9894],[96.5737,16.9937],[96.7145,16.9765],[96.8272,16.8904]]]}}]}
