{"type":"FeatureCollection","features":[{"type":"Feature","id":"Loyalty Islands","properties":{"id":"Loyalty Islands","iso_code":"NC-X01~","name":"Loyalty Islands","name_full":"Loyalty Islands","name_ja":"ロイヤルティ諸島","center_lonlat":[167.2431,-20.9374]},"geometry":{"type":"MultiPolygon","coordinates":[[[[167.4323,-21.0278],[167.4647,-21.0637],[167.4318,-21.0749],[167.4233,-21.1476],[167.3908,-21.1786],[167.3311,-21.1642],[167.3224,-21.1342],[167.2821,-21.1235],[167.2676,-21.0915],[167.176,-21.0822],[167.1201,-21.0519],[167.0884,-21.0038],[167.0615,-20.9863],[167.0686,-20.9596],[167.0208,-20.9117],[167.0822,-20.9162],[167.1216,-20.9015],[167.1909,-20.81],[167.1853,-20.7882],[167.1201,-20.7602],[167.0444,-20.7682],[167.0588,-20.716],[167.1131,-20.7011],[167.1543,-20.7131],[167.1785,-20.6821],[167.2126,-20.6721],[167.3013,-20.7131],[167.3083,-20.7309],[167.2815,-20.7844],[167.3013,-20.8497],[167.2815,-20.8943],[167.3311,-20.9295],[167.3855,-20.9417],[167.405,-20.9724],[167.3908,-21.0079],[167.4323,-21.0278]]],[[[168.1375,-21.4318],[168.1437,-21.4887],[168.1238,-21.5554],[168.1268,-21.6222],[168.0354,-21.6585],[167.9929,-21.655],[167.9582,-21.6384],[167.96,-21.6106],[167.939,-21.6017],[167.8612,-21.6007],[167.8568,-21.5895],[167.8799,-21.5727],[167.8916,-21.5417],[167.8568,-21.5007],[167.8439,-21.4392],[167.8084,-21.384],[167.8488,-21.3748],[167.905,-21.3928],[167.9878,-21.3356],[167.9666,-21.3943],[168.0077,-21.4529],[168.0745,-21.4557],[168.1375,-21.4318]]],[[[166.6372,-20.4251],[166.6733,-20.4457],[166.6738,-20.4636],[166.6113,-20.4772],[166.5786,-20.5649],[166.5877,-20.5999],[166.6297,-20.5964],[166.5752,-20.6852],[166.4939,-20.7131],[166.4797,-20.6994],[166.509,-20.6835],[166.5583,-20.6244],[166.5596,-20.5457],[166.6038,-20.4586],[166.5637,-20.402],[166.6038,-20.3835],[166.6372,-20.4251]]],[[[166.425,-20.7199],[166.4585,-20.7199],[166.4181,-20.7404],[166.3909,-20.7267],[166.425,-20.7199]]]]}},{"type":"Feature","id":"North","properties":{"id":"North","iso_code":"NC-X03~","name":"North","name_full":"North","name_ja":"北部州","center_lonlat":[164.96,-20.917]},"geometry":{"type":"MultiPolygon","coordinates":[[[[165.1117,-21.3731],[165.0871,-21.3776],[165.0757,-21.3961],[165.0619,-21.3772],[165.0466,-21.3884],[165.0266,-21.384],[165.0454,-21.3647],[165.0431,-21.3481],[165.0055,-21.343],[165.0093,-21.318],[164.9855,-21.302],[164.9719,-21.3499],[164.9514,-21.3538],[164.9378,-21.3356],[164.9514,-21.302],[164.9204,-21.2851],[164.8342,-21.1833],[164.8272,-21.1147],[164.8192,-21.1041],[164.8001,-21.1103],[164.8074,-21.0823],[164.7864,-21.0763],[164.791,-21.0644],[164.759,-21.0825],[164.7459,-21.0592],[164.7273,-21.0602],[164.7118,-21.0898],[164.6934,-21.0429],[164.6641,-21.0141],[164.6833,-21.0012],[164.6367,-20.9724],[164.6608,-20.9648],[164.6566,-20.9459],[164.6228,-20.9335],[164.6224,-20.9179],[164.6006,-20.9277],[164.561,-20.898],[164.5194,-20.8906],[164.5026,-20.8632],[164.4624,-20.8486],[164.3755,-20.774],[164.3656,-20.7581],[164.4027,-20.7541],[164.4043,-20.7254],[164.3572,-20.7023],[164.2866,-20.5759],[164.2661,-20.5827],[164.1926,-20.5258],[164.1587,-20.4325],[164.1234,-20.4108],[164.1187,-20.3903],[164.157,-20.3971],[164.1665,-20.3867],[164.1665,-20.3321],[164.1325,-20.301],[164.0737,-20.2941],[164.0749,-20.2612],[164.0402,-20.301],[163.9948,-20.2643],[164.0166,-20.2311],[164.0471,-20.2394],[164.0564,-20.2276],[164.0335,-20.1923],[164.0525,-20.1778],[164.0471,-20.1515],[164.0322,-20.1403],[163.992,-20.1515],[164.0055,-20.1235],[163.986,-20.1096],[163.992,-20.0831],[164.0135,-20.0831],[164.0518,-20.1093],[164.0774,-20.1498],[164.1091,-20.165],[164.1979,-20.2605],[164.2443,-20.2853],[164.2928,-20.281],[164.3166,-20.3191],[164.3345,-20.3215],[164.3109,-20.2752],[164.3065,-20.235],[164.4956,-20.3002],[164.5952,-20.4036],[164.7254,-20.4728],[164.8278,-20.5827],[164.9198,-20.6451],[164.9479,-20.6837],[164.9885,-20.6853],[165.0615,-20.7341],[165.1672,-20.7541],[165.1841,-20.7682],[165.2175,-20.7644],[165.2644,-20.8132],[165.2804,-20.8839],[165.3233,-20.9128],[165.3283,-20.9284],[165.4131,-20.9492],[165.3955,-21.0182],[165.4067,-21.0554],[165.5022,-21.1271],[165.543,-21.1347],[165.541,-21.152],[165.5549,-21.1445],[165.5855,-21.1684],[165.6154,-21.2065],[165.5549,-21.1861],[165.6026,-21.2265],[165.6231,-21.268],[165.7066,-21.2922],[165.7254,-21.3095],[165.7544,-21.3023],[165.7813,-21.3162],[165.8086,-21.3635],[165.8262,-21.3596],[165.8367,-21.402],[165.8563,-21.4187],[165.8496,-21.384],[165.8682,-21.3792],[165.8836,-21.3977],[165.8904,-21.378],[165.8761,-21.3567],[165.8941,-21.3611],[165.9499,-21.4557],[165.9241,-21.4597],[165.9723,-21.4938],[165.9665,-21.503],[165.9929,-21.4972],[165.964,-21.4358],[165.9694,-21.4104],[166.0203,-21.4529],[166.0646,-21.4631],[166.0482,-21.4797],[166.068,-21.4871],[166.0749,-21.528],[166.0823,-21.5246],[166.0291,-21.6018],[166.0138,-21.607],[165.9336,-21.5848],[165.8705,-21.5958],[165.7733,-21.5293],[165.7153,-21.5132],[165.6684,-21.5217],[165.5757,-21.4618],[165.5477,-21.4222],[165.5116,-21.4279],[165.4834,-21.4115],[165.4305,-21.4346],[165.3783,-21.4138],[165.3631,-21.3592],[165.2805,-21.3188],[165.2029,-21.3196],[165.1117,-21.3731]]],[[[163.6828,-19.7398],[163.6961,-19.7651],[163.6697,-19.7877],[163.64,-19.7237],[163.6379,-19.6606],[163.6157,-19.6362],[163.6218,-19.6237],[163.6497,-19.6463],[163.6828,-19.7398]]],[[[164.2246,-20.1376],[164.2402,-20.1583],[164.1692,-20.1233],[164.1637,-20.0619],[164.2246,-20.1376]]],[[[163.9851,-20.0476],[163.9782,-20.0831],[163.9714,-20.0688],[163.9471,-20.066],[163.9373,-20.0339],[163.9497,-20.0022],[163.9671,-20.0081],[163.9851,-20.0476]]]]}},{"type":"Feature","id":"South","properties":{"id":"South","iso_code":"NC-X02~","name":"South","name_full":"South","name_ja":"南部州","center_lonlat":[166.1764,-21.8598]},"geometry":{"type":"MultiPolygon","coordinates":[[[[166.0823,-21.5246],[166.1165,-21.5173],[166.2539,-21.6187],[166.3704,-21.6589],[166.3425,-21.6652],[166.3567,-21.6931],[166.4255,-21.7123],[166.5734,-21.8749],[166.6614,-21.9396],[166.6712,-21.9252],[166.7191,-21.9526],[166.6851,-21.9806],[166.76,-21.9867],[166.7783,-22.0146],[166.8737,-22.0351],[166.9388,-22.0798],[166.9608,-22.1192],[166.948,-22.1637],[166.9715,-22.1702],[167.0344,-22.2375],[167.0134,-22.2548],[167.0271,-22.2765],[167.0007,-22.3367],[166.9608,-22.3508],[166.9662,-22.3647],[166.9346,-22.3884],[166.891,-22.392],[166.9253,-22.3709],[166.9031,-22.3733],[166.8743,-22.322],[166.86,-22.3505],[166.8518,-22.3464],[166.8358,-22.3163],[166.8495,-22.3102],[166.8403,-22.2979],[166.8247,-22.3142],[166.8189,-22.3536],[166.8433,-22.3784],[166.7526,-22.3867],[166.7406,-22.3604],[166.76,-22.3443],[166.72,-22.3438],[166.7061,-22.3347],[166.7056,-22.3102],[166.6675,-22.3072],[166.6328,-22.277],[166.5996,-22.289],[166.5666,-22.2771],[166.5545,-22.2407],[166.5163,-22.2336],[166.4951,-22.2491],[166.4784,-22.2872],[166.4523,-22.289],[166.4601,-22.3077],[166.4367,-22.308],[166.4461,-22.2481],[166.4181,-22.2457],[166.3976,-22.2268],[166.43,-22.2281],[166.4523,-22.214],[166.4282,-22.2043],[166.4318,-22.1723],[166.3909,-22.1723],[166.3805,-22.2003],[166.344,-22.2275],[166.3499,-22.2003],[166.3151,-22.1723],[166.3281,-22.145],[166.312,-22.1547],[166.2859,-22.1493],[166.2878,-22.1586],[166.2687,-22.1658],[166.2188,-22.1518],[166.2088,-22.1178],[166.1575,-22.0867],[166.1453,-22.0846],[166.1301,-22.1041],[166.1089,-22.0904],[166.1165,-22.0624],[166.1504,-22.072],[166.1445,-22.0466],[166.1165,-22.0284],[166.1643,-22.0351],[166.1633,-22.0246],[166.1353,-22.0086],[166.1438,-21.9806],[166.1358,-21.9583],[166.0886,-21.9389],[166.07,-21.943],[166.0823,-21.9252],[166.0645,-21.913],[166.0612,-21.8912],[166.0399,-21.9099],[166.0361,-21.9416],[166.0066,-21.9389],[166.0032,-21.964],[165.8728,-21.861],[165.8109,-21.8586],[165.8086,-21.8434],[165.8296,-21.8521],[165.7949,-21.8167],[165.8003,-21.7921],[165.7808,-21.7911],[165.7808,-21.8167],[165.764,-21.8112],[165.7595,-21.7688],[165.7329,-21.7389],[165.7329,-21.7198],[165.6777,-21.7614],[165.6699,-21.7253],[165.6379,-21.7402],[165.5046,-21.6782],[165.4739,-21.6518],[165.4858,-21.6236],[165.4631,-21.6259],[165.479,-21.6169],[165.4631,-21.6056],[165.4134,-21.6236],[165.2908,-21.5768],[165.2568,-21.5151],[165.1735,-21.483],[165.1117,-21.3731],[165.2029,-21.3196],[165.2805,-21.3188],[165.3631,-21.3592],[165.3783,-21.4138],[165.4305,-21.4346],[165.4834,-21.4115],[165.5116,-21.4279],[165.5477,-21.4222],[165.5757,-21.4618],[165.6684,-21.5217],[165.7153,-21.5132],[165.7733,-21.5293],[165.8705,-21.5958],[165.9336,-21.5848],[166.0138,-21.607],[166.0291,-21.6018],[166.0823,-21.5246]]],[[[167.521,-22.5696],[167.5547,-22.6122],[167.5552,-22.6384],[167.521,-22.6037],[167.521,-22.6487],[167.5073,-22.6707],[167.4187,-22.6453],[167.4323,-22.5422],[167.4769,-22.5434],[167.521,-22.5696]]],[[[166.8018,-22.3989],[166.8254,-22.3957],[166.8434,-22.4244],[166.8018,-22.4399],[166.821,-22.4488],[166.8018,-22.4631],[166.7708,-22.4506],[166.8018,-22.3989]]]]}}]}
