{"type":"FeatureCollection","features":[{"type":"Feature","id":"Boaco","properties":{"id":"Boaco","iso_code":"NI-BO","name":"Boaco","name_full":"Boaco","name_ja":"ボアコ県","center_lonlat":[-85.5131,12.4713]},"geometry":{"type":"Polygon","coordinates":[[[-85.1792,12.6602],[-85.1543,12.6627],[-85.1655,12.6937],[-85.1308,12.7216],[-85.1177,12.7762],[-85.0799,12.7937],[-84.9982,12.7307],[-84.9853,12.6604],[-84.9685,12.6495],[-85.0232,12.5617],[-85.0357,12.4832],[-85.078,12.4409],[-85.1637,12.417],[-85.275,12.3574],[-85.4009,12.3389],[-85.5085,12.3455],[-85.5863,12.3047],[-85.6011,12.2845],[-85.6021,12.222],[-85.64,12.147],[-85.6567,12.0465],[-85.7315,12.0413],[-85.7851,12.115],[-85.8421,12.1567],[-85.8515,12.1988],[-85.8281,12.2568],[-85.9208,12.3464],[-85.9214,12.3961],[-85.9744,12.4709],[-85.9723,12.5221],[-85.8895,12.5788],[-85.8557,12.623],[-85.6819,12.6585],[-85.6441,12.6489],[-85.5529,12.6746],[-85.5308,12.7089],[-85.4477,12.709],[-85.4076,12.7433],[-85.371,12.7117],[-85.2891,12.6806],[-85.2959,12.6527],[-85.2608,12.6618],[-85.2295,12.6275],[-85.2161,12.6393],[-85.186,12.6254],[-85.1792,12.6602]]]}},{"type":"Feature","id":"Carazo","properties":{"id":"Carazo","iso_code":"NI-CA","name":"Carazo","name_full":"Carazo","name_ja":"カラソ県","center_lonlat":[-86.2561,11.7499]},"geometry":{"type":"Polygon","coordinates":[[[-86.1752,11.5195],[-86.2444,11.5716],[-86.3521,11.6226],[-86.3766,11.6695],[-86.5023,11.7668],[-86.4672,11.7968],[-86.4324,11.8046],[-86.2814,11.957],[-86.1497,11.8944],[-86.1343,11.874],[-86.0725,11.8562],[-86.0978,11.809],[-86.0955,11.7307],[-86.1232,11.6563],[-86.1017,11.6108],[-86.1366,11.5879],[-86.1752,11.5195]]]}},{"type":"Feature","id":"Chinandega","properties":{"id":"Chinandega","iso_code":"NI-CI","name":"Chinandega","name_full":"Chinandega","name_ja":"チナンデガ県","center_lonlat":[-87.0852,12.8505]},"geometry":{"type":"Polygon","coordinates":[[[-86.7327,13.2685],[-86.7039,13.2501],[-86.7149,13.2004],[-86.7322,13.1497],[-86.7207,13.0902],[-86.6639,12.9592],[-86.6546,12.8382],[-86.67,12.7788],[-86.793,12.7462],[-86.8333,12.6904],[-86.9222,12.6106],[-86.9539,12.5524],[-87.0058,12.4997],[-87.1208,12.4584],[-87.1579,12.481],[-87.1804,12.523],[-87.1764,12.4859],[-87.2381,12.5502],[-87.313,12.6028],[-87.3312,12.639],[-87.3448,12.6192],[-87.4549,12.7438],[-87.4678,12.77],[-87.4473,12.7625],[-87.4803,12.8],[-87.523,12.8172],[-87.4825,12.7812],[-87.482,12.77],[-87.4922,12.7714],[-87.6709,12.8935],[-87.6858,12.9476],[-87.667,12.9822],[-87.5888,13.0463],[-87.5839,13.0847],[-87.5839,13.0573],[-87.5476,13.0522],[-87.5064,13.0197],[-87.4678,12.9822],[-87.4678,12.9543],[-87.435,12.9224],[-87.3925,12.9134],[-87.2896,12.9196],[-87.379,12.9376],[-87.314,12.9816],[-87.0847,12.9959],[-87.035,12.9798],[-87.0296,12.9961],[-86.9832,13.0219],[-86.9229,13.0864],[-86.9323,13.1085],[-86.9237,13.1611],[-86.9349,13.1855],[-86.9108,13.2396],[-86.8334,13.2934],[-86.7493,13.2613],[-86.7327,13.2685]]]}},{"type":"Feature","id":"Chontales","properties":{"id":"Chontales","iso_code":"NI-CO","name":"Chontales","name_full":"Chontales","name_ja":"チョンタレス県","center_lonlat":[-85.1671,12.0603]},"geometry":{"type":"Polygon","coordinates":[[[-84.9685,12.6495],[-84.9156,12.5892],[-84.8473,12.4776],[-84.8522,12.3899],[-84.7842,12.2803],[-84.7727,12.15],[-84.7093,11.9929],[-84.5746,11.9225],[-84.6216,11.8996],[-84.6074,11.8625],[-84.805,11.8656],[-84.8743,11.8011],[-84.9421,11.7756],[-84.9857,11.7086],[-85.0767,11.6689],[-85.1015,11.6315],[-85.5229,11.6805],[-85.6567,12.0465],[-85.64,12.147],[-85.6021,12.222],[-85.6011,12.2845],[-85.5863,12.3047],[-85.5085,12.3455],[-85.4009,12.3389],[-85.275,12.3574],[-85.1637,12.417],[-85.078,12.4409],[-85.0357,12.4832],[-85.0232,12.5617],[-84.9685,12.6495]]]}},{"type":"Feature","id":"Esteli","properties":{"id":"Esteli","iso_code":"NI-ES","name":"Esteli","name_full":"Estelí","name_ja":"エステリ県","center_lonlat":[-86.3963,13.1732]},"geometry":{"type":"Polygon","coordinates":[[[-86.0995,13.047],[-86.1506,12.9602],[-86.2424,12.9168],[-86.2639,12.8485],[-86.42,12.8998],[-86.4289,12.9373],[-86.4068,12.9755],[-86.4047,13.0069],[-86.4715,13.1145],[-86.4912,13.1215],[-86.6334,13.0839],[-86.6805,13.0976],[-86.7207,13.0902],[-86.7322,13.1497],[-86.7149,13.2004],[-86.631,13.283],[-86.5628,13.3968],[-86.5228,13.4304],[-86.4963,13.4345],[-86.4284,13.4044],[-86.2537,13.4381],[-86.2349,13.4322],[-86.2129,13.3903],[-86.2301,13.343],[-86.2212,13.2788],[-86.2479,13.1891],[-86.1591,13.091],[-86.0995,13.047]]]}},{"type":"Feature","id":"Granada","properties":{"id":"Granada","iso_code":"NI-GR","name":"Granada","name_full":"Granada","name_ja":"グラナダ県","center_lonlat":[-85.8406,11.8726]},"geometry":{"type":"Polygon","coordinates":[[[-85.8515,12.1988],[-85.8421,12.1567],[-85.7851,12.115],[-85.7315,12.0413],[-85.6567,12.0465],[-85.5229,11.6805],[-85.8944,11.6821],[-85.9713,11.6615],[-86.0034,11.6808],[-86.0356,11.6258],[-86.0706,11.6058],[-86.1017,11.6108],[-86.1232,11.6563],[-86.0955,11.7307],[-86.0978,11.809],[-86.0725,11.8562],[-85.9641,12.0914],[-86.0005,12.1438],[-85.8851,12.2032],[-85.8515,12.1988]]]}},{"type":"Feature","id":"Jinotega","properties":{"id":"Jinotega","iso_code":"NI-JI","name":"Jinotega","name_full":"Jinotega","name_ja":"ヒノテガ県","center_lonlat":[-85.5026,13.7486]},"geometry":{"type":"Polygon","coordinates":[[[-85.0237,14.6025],[-84.9995,14.5823],[-85.0081,14.5078],[-84.9686,14.4691],[-84.9896,14.3734],[-84.9345,14.3143],[-84.838,14.3068],[-84.8621,14.1078],[-84.8548,14.0595],[-85.0568,13.7375],[-85.1569,13.7785],[-85.2826,13.7033],[-85.3651,13.6919],[-85.4109,13.6206],[-85.3888,13.5605],[-85.4006,13.4972],[-85.5004,13.4192],[-85.5064,13.3706],[-85.5621,13.3351],[-85.6259,13.3139],[-85.745,13.1622],[-85.9183,13.0175],[-85.9894,13.0121],[-86.0075,12.9939],[-86.0717,13.0434],[-86.0995,13.047],[-86.1591,13.091],[-86.2479,13.1891],[-86.2212,13.2788],[-86.2301,13.343],[-86.2129,13.3903],[-86.16,13.4427],[-86.1177,13.441],[-86.0597,13.4933],[-86.0389,13.5091],[-86.0283,13.4963],[-85.949,13.5039],[-85.9067,13.4869],[-85.8422,13.5402],[-85.8313,13.5534],[-85.8299,13.6377],[-85.7875,13.7214],[-85.7831,13.7819],[-85.7431,13.824],[-85.723,13.8634],[-85.7474,13.8883],[-85.7273,13.965],[-85.6992,13.9615],[-85.6662,13.9845],[-85.6515,13.982],[-85.6479,13.9993],[-85.6128,14.0097],[-85.5936,14.0335],[-85.528,14.0509],[-85.5106,14.0938],[-85.4317,14.1328],[-85.384,14.2264],[-85.3629,14.2501],[-85.3436,14.2501],[-85.3214,14.2813],[-85.1696,14.3218],[-85.159,14.3611],[-85.2058,14.4072],[-85.1785,14.4276],[-85.1785,14.4556],[-85.1518,14.486],[-85.1455,14.5643],[-85.1375,14.5785],[-85.1193,14.574],[-85.0864,14.5445],[-85.0237,14.6025]]]}},{"type":"Feature","id":"Leon","properties":{"id":"Leon","iso_code":"NI-LE","name":"Leon","name_full":"León","name_ja":"レオン県","center_lonlat":[-86.6308,12.5701]},"geometry":{"type":"Polygon","coordinates":[[[-86.6707,12.0005],[-86.7276,12.0883],[-86.7726,12.1974],[-87.0022,12.3414],[-87.102,12.421],[-87.171,12.4514],[-87.1736,12.4745],[-87.1425,12.4468],[-87.0978,12.4335],[-87.1208,12.4584],[-87.0058,12.4997],[-86.9539,12.5524],[-86.9222,12.6106],[-86.8333,12.6904],[-86.793,12.7462],[-86.67,12.7788],[-86.6546,12.8382],[-86.6639,12.9592],[-86.7207,13.0902],[-86.6805,13.0976],[-86.6334,13.0839],[-86.4912,13.1215],[-86.4715,13.1145],[-86.4047,13.0069],[-86.4068,12.9755],[-86.4289,12.9373],[-86.42,12.8998],[-86.2639,12.8485],[-86.2888,12.6365],[-86.3537,12.5824],[-86.3644,12.5238],[-86.3428,12.4738],[-86.5248,12.2897],[-86.5265,12.2033],[-86.5055,12.1589],[-86.5183,12.1311],[-86.5811,12.078],[-86.6169,12.0865],[-86.6508,12.0753],[-86.638,12.0296],[-86.6707,12.0005]]]}},{"type":"Feature","id":"Madriz","properties":{"id":"Madriz","iso_code":"NI-MD","name":"Madriz","name_full":"Madriz","name_ja":"マドリス県","center_lonlat":[-86.4757,13.4861]},"geometry":{"type":"Polygon","coordinates":[[[-86.7327,13.2685],[-86.7019,13.3142],[-86.7099,13.3489],[-86.7402,13.3819],[-86.7243,13.4394],[-86.7566,13.5594],[-86.7516,13.6244],[-86.7641,13.6373],[-86.7405,13.6601],[-86.6483,13.6472],[-86.6153,13.6006],[-86.5635,13.5695],[-86.5152,13.5922],[-86.4335,13.5922],[-86.3776,13.5747],[-86.2923,13.5787],[-86.2269,13.5493],[-86.2059,13.5997],[-86.1644,13.6145],[-86.1217,13.579],[-86.0597,13.4933],[-86.1177,13.441],[-86.16,13.4427],[-86.2129,13.3903],[-86.2349,13.4322],[-86.2537,13.4381],[-86.4284,13.4044],[-86.4963,13.4345],[-86.5228,13.4304],[-86.5628,13.3968],[-86.631,13.283],[-86.7149,13.2004],[-86.7039,13.2501],[-86.7327,13.2685]]]}},{"type":"Feature","id":"Managua","properties":{"id":"Managua","iso_code":"NI-MN","name":"Managua","name_full":"Managua","name_ja":"マナグア県","center_lonlat":[-86.2654,12.2289]},"geometry":{"type":"Polygon","coordinates":[[[-86.5023,11.7668],[-86.5424,11.8424],[-86.6052,11.9047],[-86.6304,11.9649],[-86.6707,12.0005],[-86.638,12.0296],[-86.6508,12.0753],[-86.6169,12.0865],[-86.5811,12.078],[-86.5183,12.1311],[-86.5055,12.1589],[-86.5265,12.2033],[-86.5248,12.2897],[-86.3428,12.4738],[-86.3644,12.5238],[-86.3537,12.5824],[-86.2888,12.6365],[-86.1011,12.5941],[-86.0503,12.5486],[-85.9723,12.5221],[-85.9744,12.4709],[-85.9214,12.3961],[-85.9208,12.3464],[-85.8281,12.2568],[-85.8515,12.1988],[-85.8851,12.2032],[-86.0005,12.1438],[-86.0287,12.1523],[-86.109,12.1313],[-86.1879,12.0591],[-86.162,12.0183],[-86.1802,11.9717],[-86.2116,11.9585],[-86.2578,11.9855],[-86.2814,11.957],[-86.4324,11.8046],[-86.4672,11.7968],[-86.5023,11.7668]]]}},{"type":"Feature","id":"Masaya","properties":{"id":"Masaya","iso_code":"NI-MS","name":"Masaya","name_full":"Masaya","name_ja":"マサヤ県","center_lonlat":[-86.0949,12.0096]},"geometry":{"type":"Polygon","coordinates":[[[-86.0005,12.1438],[-85.9641,12.0914],[-86.0725,11.8562],[-86.1343,11.874],[-86.1497,11.8944],[-86.2814,11.957],[-86.2578,11.9855],[-86.2116,11.9585],[-86.1802,11.9717],[-86.162,12.0183],[-86.1879,12.0591],[-86.109,12.1313],[-86.0287,12.1523],[-86.0005,12.1438]]]}},{"type":"Feature","id":"Matagalpa","properties":{"id":"Matagalpa","iso_code":"NI-MT","name":"Matagalpa","name_full":"Matagalpa","name_ja":"マタガルパ県","center_lonlat":[-85.515,12.9474]},"geometry":{"type":"Polygon","coordinates":[[[-85.9723,12.5221],[-86.0503,12.5486],[-86.1011,12.5941],[-86.2888,12.6365],[-86.2639,12.8485],[-86.2424,12.9168],[-86.1506,12.9602],[-86.0995,13.047],[-86.0717,13.0434],[-86.0075,12.9939],[-85.9894,13.0121],[-85.9183,13.0175],[-85.745,13.1622],[-85.6259,13.3139],[-85.5621,13.3351],[-85.5064,13.3706],[-85.4854,13.3251],[-85.4146,13.239],[-85.2524,13.1466],[-85.1773,13.1717],[-85.1234,13.2775],[-85.098,13.2922],[-84.9738,13.2988],[-84.8831,13.3815],[-84.7514,13.2157],[-84.8009,13.1472],[-84.7655,13.1201],[-84.7354,13.0599],[-84.6965,13.0664],[-84.7335,13.0264],[-84.7482,12.9503],[-84.84,12.9413],[-84.8984,12.8966],[-84.9185,12.9004],[-84.9582,12.8507],[-85.0306,12.8648],[-85.082,12.8531],[-85.1413,12.8594],[-85.1594,12.8192],[-85.2156,12.8123],[-85.2268,12.7787],[-85.1792,12.6602],[-85.186,12.6254],[-85.2161,12.6393],[-85.2295,12.6275],[-85.2608,12.6618],[-85.2959,12.6527],[-85.2891,12.6806],[-85.371,12.7117],[-85.4076,12.7433],[-85.4477,12.709],[-85.5308,12.7089],[-85.5529,12.6746],[-85.6441,12.6489],[-85.6819,12.6585],[-85.8557,12.623],[-85.8895,12.5788],[-85.9723,12.5221]]]}},{"type":"Feature","id":"North Caribbean Coast","properties":{"id":"North Caribbean Coast","iso_code":"NI-AN","name":"North Caribbean Coast","name_full":"North Caribbean Coast","name_ja":"北アトランティコ自治地域","center_lonlat":[-84.2166,13.9946]},"geometry":{"type":"MultiPolygon","coordinates":[[[[-83.5296,13.0326],[-83.6389,13.0315],[-83.7557,13.0936],[-83.8382,13.1558],[-83.8109,13.2228],[-83.8835,13.2471],[-83.9943,13.256],[-83.9915,13.2301],[-84.0278,13.2355],[-84.0481,13.2121],[-84.0824,13.2213],[-84.0688,13.2014],[-84.1086,13.1973],[-84.1293,13.209],[-84.1631,13.2823],[-84.2369,13.2642],[-84.291,13.2763],[-84.3535,13.2471],[-84.4929,13.2465],[-84.7514,13.2157],[-84.8831,13.3815],[-84.9738,13.2988],[-85.098,13.2922],[-85.1234,13.2775],[-85.1773,13.1717],[-85.2524,13.1466],[-85.4146,13.239],[-85.4854,13.3251],[-85.5064,13.3706],[-85.5004,13.4192],[-85.4006,13.4972],[-85.3888,13.5605],[-85.4109,13.6206],[-85.3651,13.6919],[-85.2826,13.7033],[-85.1569,13.7785],[-85.0568,13.7375],[-84.8548,14.0595],[-84.8621,14.1078],[-84.838,14.3068],[-84.9345,14.3143],[-84.9896,14.3734],[-84.9686,14.4691],[-85.0081,14.5078],[-84.9995,14.5823],[-85.0237,14.6025],[-85.0482,14.6058],[-85.0202,14.6337],[-85.0539,14.6631],[-85.033,14.6696],[-85.0157,14.7282],[-84.9042,14.817],[-84.8181,14.8287],[-84.7921,14.8211],[-84.7702,14.8051],[-84.7555,14.7815],[-84.7669,14.7669],[-84.747,14.7645],[-84.7453,14.7391],[-84.7249,14.7256],[-84.6993,14.6747],[-84.6808,14.6855],[-84.6004,14.6625],[-84.5274,14.6604],[-84.5342,14.6337],[-84.519,14.6383],[-84.4827,14.6195],[-84.4084,14.6494],[-84.3629,14.7156],[-84.3384,14.6747],[-84.2878,14.6672],[-84.2673,14.6777],[-84.2618,14.7585],[-84.1682,14.715],[-84.0954,14.7361],[-84.1227,14.7845],[-84.1118,14.7934],[-84.0408,14.7603],[-83.9247,14.7634],[-83.9247,14.8038],[-83.8966,14.7804],[-83.8838,14.7771],[-83.8899,14.7907],[-83.8695,14.7771],[-83.8012,14.8038],[-83.8211,14.8255],[-83.7653,14.8288],[-83.7445,14.8367],[-83.7466,14.8522],[-83.705,14.8385],[-83.7145,14.8672],[-83.692,14.887],[-83.65,14.8885],[-83.6156,14.8727],[-83.6043,14.9092],[-83.5405,14.9416],[-83.5473,14.9552],[-83.5269,14.9484],[-83.5286,14.9734],[-83.5132,14.9689],[-83.5091,15.0115],[-83.4859,15.0105],[-83.4592,14.9825],[-83.4155,14.9969],[-83.3903,15.031],[-83.3494,14.9968],[-83.3342,15.0064],[-83.273,15.003],[-83.2857,14.9921],[-83.2662,14.9825],[-83.1304,14.997],[-83.1652,14.9691],[-83.1798,14.986],[-83.1919,14.9743],[-83.267,14.8666],[-83.2738,14.8257],[-83.294,14.8043],[-83.3284,14.791],[-83.3085,14.8257],[-83.3195,14.8203],[-83.3284,14.8319],[-83.3051,14.8388],[-83.2874,14.8257],[-83.3079,14.9106],[-83.3222,14.9139],[-83.3699,14.883],[-83.4246,14.8039],[-83.4115,14.8183],[-83.3978,14.8076],[-83.3802,14.7574],[-83.3375,14.7314],[-83.3222,14.7499],[-83.3563,14.7705],[-83.3335,14.7733],[-83.3148,14.7499],[-83.3154,14.7728],[-83.2992,14.7712],[-83.1866,14.3476],[-83.2186,14.2503],[-83.3017,14.1199],[-83.3497,14.0488],[-83.4174,13.9886],[-83.4938,13.7377],[-83.5175,13.6237],[-83.5204,13.5316],[-83.5592,13.4158],[-83.5701,13.2871],[-83.5296,13.0326]]],[[[-82.7673,14.4141],[-82.7378,14.4219],[-82.729,14.4138],[-82.7325,14.3696],[-82.8083,14.3664],[-82.7673,14.4141]]]]}},{"type":"Feature","id":"Nueva Segovia","properties":{"id":"Nueva Segovia","iso_code":"NI-NS","name":"Nueva Segovia","name_full":"Nueva Segovia","name_ja":"ヌエバ・セゴビア県","center_lonlat":[-86.1727,13.7308]},"geometry":{"type":"Polygon","coordinates":[[[-85.7431,13.824],[-85.7831,13.7819],[-85.7875,13.7214],[-85.8299,13.6377],[-85.8313,13.5534],[-85.8422,13.5402],[-85.9067,13.4869],[-85.949,13.5039],[-86.0283,13.4963],[-86.0389,13.5091],[-86.0597,13.4933],[-86.1217,13.579],[-86.1644,13.6145],[-86.2059,13.5997],[-86.2269,13.5493],[-86.2923,13.5787],[-86.3776,13.5747],[-86.4335,13.5922],[-86.5152,13.5922],[-86.5635,13.5695],[-86.6153,13.6006],[-86.6483,13.6472],[-86.7405,13.6601],[-86.7641,13.6373],[-86.7741,13.6546],[-86.7662,13.7453],[-86.7272,13.7683],[-86.6627,13.7647],[-86.5417,13.7821],[-86.4908,13.7595],[-86.4482,13.773],[-86.4101,13.749],[-86.3252,13.7638],[-86.2841,13.8457],[-86.1841,13.9669],[-86.1497,13.9843],[-86.0967,14.0441],[-86.0202,14.0552],[-86.0284,13.9961],[-85.9294,13.9121],[-85.8616,13.9044],[-85.8242,13.8477],[-85.7583,13.8393],[-85.7431,13.824]]]}},{"type":"Feature","id":"Rio San Juan","properties":{"id":"Rio San Juan","iso_code":"NI-SJ","name":"Rio San Juan","name_full":"Río San Juan","name_ja":"リオ・サン・フアン県","center_lonlat":[-84.6066,11.2526]},"geometry":{"type":"Polygon","coordinates":[[[-84.885,10.9477],[-84.9418,10.9801],[-85.3002,11.1105],[-85.341,11.1471],[-85.1015,11.6315],[-85.0767,11.6689],[-84.9857,11.7086],[-84.9421,11.7756],[-84.8743,11.8011],[-84.805,11.8656],[-84.6074,11.8625],[-84.5872,11.7936],[-84.5552,11.7469],[-84.5551,11.7088],[-84.5343,11.6521],[-84.5633,11.5427],[-84.5526,11.4524],[-84.4861,11.4282],[-84.3775,11.362],[-84.3458,11.2927],[-84.2411,11.2251],[-84.1744,11.1444],[-84.082,11.1214],[-84.0438,11.1248],[-84.0096,11.0875],[-83.8973,11.1146],[-83.8783,11.0456],[-83.7999,11.0365],[-83.7183,10.944],[-83.7103,10.9227],[-83.6927,10.9259],[-83.6965,10.9366],[-83.6788,10.9162],[-83.663,10.807],[-83.8353,10.7476],[-83.8595,10.7218],[-83.8869,10.7271],[-83.9173,10.7135],[-83.9936,10.765],[-84.0092,10.7894],[-84.0764,10.7638],[-84.0886,10.7755],[-84.1184,10.7712],[-84.137,10.7892],[-84.1916,10.7817],[-84.2271,10.8193],[-84.2046,10.837],[-84.2084,10.861],[-84.3107,10.9194],[-84.3555,10.9946],[-84.4382,10.9522],[-84.4982,11.002],[-84.5817,11.0345],[-84.6207,11.0358],[-84.6765,11.0704],[-84.7078,11.063],[-84.885,10.9477]]]}},{"type":"Feature","id":"Rivas","properties":{"id":"Rivas","iso_code":"NI-RI","name":"Rivas","name_full":"Rivas","name_ja":"リバス県","center_lonlat":[-85.6075,11.4227]},"geometry":{"type":"Polygon","coordinates":[[[-86.1752,11.5195],[-86.1366,11.5879],[-86.1017,11.6108],[-86.0706,11.6058],[-86.0356,11.6258],[-86.0034,11.6808],[-85.9713,11.6615],[-85.8944,11.6821],[-85.5229,11.6805],[-85.1015,11.6315],[-85.341,11.1471],[-85.3002,11.1105],[-84.9418,10.9801],[-84.885,10.9477],[-84.9314,10.9419],[-85.5086,11.1524],[-85.5978,11.2099],[-85.6312,11.1962],[-85.7017,11.0809],[-85.7717,11.1047],[-85.7858,11.1122],[-85.8213,11.1928],[-85.928,11.3107],[-85.9949,11.3437],[-86.0439,11.3981],[-86.1483,11.4717],[-86.1752,11.5195]]]}},{"type":"Feature","id":"South Caribbean Coast","properties":{"id":"South Caribbean Coast","iso_code":"NI-AS","name":"South Caribbean Coast","name_full":"South Caribbean Coast","name_ja":"南アトランティコ自治地域","center_lonlat":[-84.2183,12.3304]},"geometry":{"type":"MultiPolygon","coordinates":[[[[-83.5296,13.0326],[-83.5077,12.9028],[-83.5413,12.5806],[-83.4859,12.4722],[-83.4818,12.4167],[-83.5126,12.3938],[-83.6176,12.3751],[-83.6375,12.3857],[-83.6025,12.4254],[-83.6346,12.4741],[-83.6375,12.5645],[-83.5884,12.5596],[-83.5638,12.5909],[-83.5554,12.6359],[-83.5686,12.6738],[-83.5549,12.7526],[-83.5413,12.77],[-83.5447,12.7968],[-83.564,12.8127],[-83.6164,12.8171],[-83.637,12.8053],[-83.6453,12.7665],[-83.6133,12.7353],[-83.5959,12.684],[-83.6034,12.6527],[-83.5891,12.6321],[-83.6737,12.5705],[-83.7672,12.5467],[-83.7746,12.5335],[-83.7746,12.4814],[-83.7262,12.4683],[-83.7194,12.4237],[-83.7337,12.363],[-83.7077,12.3359],[-83.6763,12.3425],[-83.6764,12.2799],[-83.6498,12.3532],[-83.617,12.348],[-83.6637,12.2561],[-83.6859,12.1374],[-83.671,11.9879],[-83.6853,11.9811],[-83.6812,12.0017],[-83.7237,12.0747],[-83.7007,12.0952],[-83.6979,12.1352],[-83.7286,12.1716],[-83.7777,12.1772],[-83.7603,12.1531],[-83.7399,12.1667],[-83.7132,12.1257],[-83.7394,12.0519],[-83.8039,12.0603],[-83.7613,12.0353],[-83.7598,11.9468],[-83.8361,11.8712],[-83.7677,11.8048],[-83.7429,11.8052],[-83.7351,11.8537],[-83.6999,11.8499],[-83.6536,11.6675],[-83.6568,11.6054],[-83.7611,11.5571],[-83.7944,11.444],[-83.8219,11.4473],[-83.868,11.3749],[-83.8679,11.2737],[-83.8373,11.1425],[-83.7759,11.0198],[-83.7183,10.944],[-83.7999,11.0365],[-83.8783,11.0456],[-83.8973,11.1146],[-84.0096,11.0875],[-84.0438,11.1248],[-84.082,11.1214],[-84.1744,11.1444],[-84.2411,11.2251],[-84.3458,11.2927],[-84.3775,11.362],[-84.4861,11.4282],[-84.5526,11.4524],[-84.5633,11.5427],[-84.5343,11.6521],[-84.5551,11.7088],[-84.5552,11.7469],[-84.5872,11.7936],[-84.6074,11.8625],[-84.6216,11.8996],[-84.5746,11.9225],[-84.7093,11.9929],[-84.7727,12.15],[-84.7842,12.2803],[-84.8522,12.3899],[-84.8473,12.4776],[-84.9156,12.5892],[-84.9685,12.6495],[-84.9853,12.6604],[-84.9982,12.7307],[-85.0799,12.7937],[-85.1177,12.7762],[-85.1308,12.7216],[-85.1655,12.6937],[-85.1543,12.6627],[-85.1792,12.6602],[-85.2268,12.7787],[-85.2156,12.8123],[-85.1594,12.8192],[-85.1413,12.8594],[-85.082,12.8531],[-85.0306,12.8648],[-84.9582,12.8507],[-84.9185,12.9004],[-84.8984,12.8966],[-84.84,12.9413],[-84.7482,12.9503],[-84.7335,13.0264],[-84.6965,13.0664],[-84.7354,13.0599],[-84.7655,13.1201],[-84.8009,13.1472],[-84.7514,13.2157],[-84.4929,13.2465],[-84.3535,13.2471],[-84.291,13.2763],[-84.2369,13.2642],[-84.1631,13.2823],[-84.1293,13.209],[-84.1086,13.1973],[-84.0688,13.2014],[-84.0824,13.2213],[-84.0481,13.2121],[-84.0278,13.2355],[-83.9915,13.2301],[-83.9943,13.256],[-83.8835,13.2471],[-83.8109,13.2228],[-83.8382,13.1558],[-83.7557,13.0936],[-83.6389,13.0315],[-83.5296,13.0326]]],[[[-83.7262,11.8786],[-83.7361,11.9418],[-83.729,11.9733],[-83.7084,11.9873],[-83.7262,11.9202],[-83.7198,11.8703],[-83.7262,11.8786]]],[[[-83.0539,12.1439],[-83.056,12.1662],[-83.0325,12.1908],[-83.0211,12.1818],[-83.0539,12.1439]]]]}}]}
