{"type":"FeatureCollection","features":[{"type":"Feature","id":"Abia State","properties":{"id":"Abia State","iso_code":"NG-AB","name":"Abia State","name_full":"Abia State","name_ja":"アビア州","center_lonlat":[7.5112,5.4517]},"geometry":{"type":"Polygon","coordinates":[[[7.8778,5.6903],[7.8943,5.6446],[7.8855,5.5888],[7.9084,5.4836],[7.9571,5.3915],[7.9446,5.3561],[7.8971,5.365],[7.7888,5.437],[7.7547,5.4893],[7.7053,5.5241],[7.6672,5.5299],[7.6408,5.5111],[7.6469,5.4425],[7.6213,5.3742],[7.6459,5.367],[7.6562,5.348],[7.65,5.3294],[7.6209,5.3104],[7.5701,5.3175],[7.5253,5.3053],[7.5355,5.2473],[7.5176,5.1414],[7.5177,5.0504],[7.4628,4.9817],[7.4762,4.9331],[7.4672,4.8985],[7.4963,4.8174],[7.4294,4.8621],[7.3383,4.8786],[7.2172,4.8612],[7.1765,4.8737],[7.1633,4.9514],[7.2662,5.1094],[7.2714,5.1579],[7.2515,5.1947],[7.3244,5.4055],[7.3623,5.4478],[7.405,5.5432],[7.4004,5.6253],[7.382,5.6701],[7.4008,5.7301],[7.3879,5.8421],[7.3495,5.8762],[7.2501,5.9263],[7.2966,5.9853],[7.3637,6.0206],[7.3725,6.0125],[7.4683,6.0222],[7.5335,5.973],[7.5262,5.8503],[7.5856,5.8206],[7.7309,5.8188],[7.7847,5.7938],[7.8083,5.7284],[7.8778,5.6903]]]}},{"type":"Feature","id":"Adamawa State","properties":{"id":"Adamawa State","iso_code":"NG-AD","name":"Adamawa State","name_full":"Adamawa State","name_ja":"アダマワ州","center_lonlat":[12.4342,9.3455]},"geometry":{"type":"Polygon","coordinates":[[[13.7498,10.9424],[13.5663,10.679],[13.5388,10.6214],[13.4448,10.2455],[13.453,10.2005],[13.4349,10.1534],[13.3598,10.1005],[13.248,10.0794],[13.2302,10.0453],[13.2464,9.9735],[13.2111,9.8928],[13.2127,9.8701],[13.2629,9.8017],[13.2413,9.7453],[13.2235,9.6131],[13.1955,9.5422],[12.9824,9.4746],[12.929,9.4161],[12.8554,9.3781],[12.8484,9.3599],[12.8816,9.3522],[12.8913,9.332],[12.8984,9.2624],[12.8221,9.0968],[12.8282,9.02],[12.8057,8.8315],[12.7729,8.7591],[12.7089,8.7509],[12.6604,8.6593],[12.558,8.6057],[12.4825,8.6232],[12.4244,8.5998],[12.3688,8.6096],[12.4005,8.5384],[12.4039,8.4965],[12.3313,8.4243],[12.2718,8.4278],[12.25,8.4188],[12.227,8.3863],[12.2193,8.3432],[12.2368,8.197],[12.1826,8.0935],[12.1978,7.9752],[12.019,7.7189],[12.0091,7.6763],[12.0211,7.5762],[11.9035,7.4536],[11.8657,7.5581],[11.8532,7.6916],[11.805,7.8064],[11.683,7.9276],[11.6477,7.9436],[11.6158,7.9293],[11.5479,7.849],[11.5152,7.8522],[11.4478,7.9515],[11.4043,8.0584],[11.4135,8.0896],[11.4684,8.1536],[11.5338,8.2115],[11.7922,8.5194],[11.8593,8.5739],[11.871,8.7127],[11.9715,8.919],[11.9654,8.9882],[11.9236,9.0393],[11.8606,9.0696],[11.8258,9.1278],[11.8301,9.1977],[11.7673,9.3301],[11.7095,9.3815],[11.6428,9.3974],[11.6184,9.4202],[11.5259,9.592],[11.6178,9.6066],[11.7027,9.644],[11.9251,9.7842],[11.9404,9.8257],[11.9351,9.9576],[11.9456,10.0447],[12.1069,10.036],[12.2342,10.1243],[12.3372,10.2573],[12.3947,10.305],[12.5479,10.3295],[12.6201,10.3614],[12.6662,10.4276],[12.6909,10.4462],[12.7284,10.4481],[12.8409,10.5632],[12.923,10.5815],[13.0093,10.5697],[13.0772,10.5408],[13.1911,10.455],[13.2592,10.44],[13.3097,10.4679],[13.3453,10.6012],[13.4005,10.7357],[13.4222,10.9303],[13.4562,10.9349],[13.5464,10.9071],[13.7498,10.9424]]]}},{"type":"Feature","id":"Akwa Ibom State","properties":{"id":"Akwa Ibom State","iso_code":"NG-AK","name":"Akwa Ibom State","name_full":"Akwa Ibom State","name_ja":"アクワ・イボム州","center_lonlat":[7.8417,4.9164]},"geometry":{"type":"Polygon","coordinates":[[[8.2992,4.7823],[8.3324,4.7178],[8.3235,4.6656],[8.3535,4.6489],[8.3565,4.6256],[8.3215,4.5998],[8.2983,4.5533],[8.2791,4.5468],[8.032,4.5588],[7.9793,4.539],[7.7645,4.5192],[7.7424,4.5263],[7.7229,4.5117],[7.7571,4.5049],[7.7031,4.4975],[7.647,4.5191],[7.5584,4.5253],[7.572,4.539],[7.5393,4.5418],[7.5584,4.58],[7.5296,4.6389],[7.551,4.711],[7.5335,4.7027],[7.5261,4.7642],[7.4963,4.8174],[7.4672,4.8985],[7.4762,4.9331],[7.4628,4.9817],[7.5177,5.0504],[7.5176,5.1414],[7.5355,5.2473],[7.5253,5.3053],[7.5701,5.3175],[7.6209,5.3104],[7.65,5.3294],[7.6562,5.348],[7.6459,5.367],[7.6213,5.3742],[7.6469,5.4425],[7.6408,5.5111],[7.6672,5.5299],[7.7053,5.5241],[7.7547,5.4893],[7.7888,5.437],[7.8971,5.365],[7.869,5.3336],[7.8968,5.2724],[7.9168,5.257],[8.0013,5.2604],[8.0625,5.2135],[8.0551,5.0911],[8.0958,4.9856],[8.249,4.8128],[8.2992,4.7823]]]}},{"type":"Feature","id":"Anambra State","properties":{"id":"Anambra State","iso_code":"NG-AN","name":"Anambra State","name_full":"Anambra State","name_ja":"アナンブラ州","center_lonlat":[6.926,6.1989]},"geometry":{"type":"Polygon","coordinates":[[[6.6057,5.7232],[6.626,5.8185],[6.689,5.9143],[6.7037,6.0759],[6.7468,6.1016],[6.7577,6.1229],[6.759,6.1811],[6.715,6.3211],[6.6767,6.5351],[6.7595,6.5343],[6.7924,6.5668],[6.8144,6.6646],[6.8381,6.712],[6.906,6.7761],[6.9137,6.716],[6.9801,6.712],[7.1003,6.6678],[7.0959,6.6005],[7.0402,6.5402],[7.0132,6.4651],[7.022,6.4405],[7.0854,6.4187],[7.1059,6.391],[7.1461,6.2991],[7.1329,6.2878],[7.1271,6.2381],[7.1354,6.2265],[7.1653,6.2408],[7.1818,6.2306],[7.1861,6.2064],[7.21,6.1889],[7.2044,6.1541],[7.2433,6.0667],[7.2651,6.0417],[7.3307,6.0435],[7.3637,6.0206],[7.2966,5.9853],[7.2501,5.9263],[7.1676,5.9041],[7.0772,5.9235],[6.9861,5.9073],[6.9485,5.8845],[6.8958,5.762],[6.8563,5.7508],[6.8133,5.769],[6.7357,5.7477],[6.6688,5.6943],[6.6358,5.6966],[6.6057,5.7232]]]}},{"type":"Feature","id":"Bauchi State","properties":{"id":"Bauchi State","iso_code":"NG-BA","name":"Bauchi State","name_full":"Bauchi State","name_ja":"バウチ州","center_lonlat":[9.988,10.7753]},"geometry":{"type":"Polygon","coordinates":[[[10.5604,9.4967],[10.3624,9.6119],[9.8723,9.8371],[9.8264,9.8209],[9.8134,9.7978],[9.8655,9.7081],[9.8561,9.6754],[9.7652,9.6287],[9.7354,9.5672],[9.6608,9.5446],[9.5024,9.5366],[9.2991,9.5822],[9.22,9.6939],[9.1837,9.705],[9.1597,9.7289],[9.203,9.8457],[9.1989,9.9275],[9.1772,9.996],[9.1133,10.0188],[8.9973,9.9986],[8.9605,10.0231],[8.9618,10.1827],[8.9368,10.2868],[8.9011,10.3301],[8.8425,10.3454],[8.785,10.3356],[8.7102,10.3976],[8.6967,10.4238],[8.7304,10.4834],[8.7413,10.549],[8.7873,10.5987],[8.8154,10.6641],[8.8083,10.7329],[8.7625,10.7868],[8.734,10.8628],[8.7375,11.0215],[8.7677,11.0848],[8.8274,11.0884],[8.8632,11.1044],[9.0319,11.2961],[9.0988,11.3262],[9.1308,11.3081],[9.2247,11.3424],[9.2858,11.3412],[9.4081,11.2991],[9.5339,11.3047],[9.5732,11.2553],[9.6238,11.2378],[9.8105,11.2614],[9.8543,11.2216],[9.8764,11.1613],[9.8676,11.0322],[9.8911,10.9769],[9.9483,10.9537],[10.106,10.9654],[10.1798,10.9334],[10.2068,10.9504],[10.1957,10.9866],[10.2165,11.0541],[10.3615,11.1174],[10.3857,11.1452],[10.3902,11.1776],[10.3182,11.2013],[10.2328,11.2045],[10.0733,11.2338],[10.0006,11.2623],[9.8631,11.4598],[9.813,11.455],[9.7933,11.4817],[9.7976,11.5145],[9.8306,11.5754],[9.7987,11.7145],[9.7644,11.7224],[9.6677,11.7012],[9.6252,11.7294],[9.6463,11.8034],[9.6997,11.8512],[9.7839,11.8582],[9.8504,11.8943],[10.155,12.0085],[10.1716,12.0427],[10.1691,12.1164],[10.2647,12.4027],[10.2875,12.4244],[10.394,12.4489],[10.4774,12.4163],[10.6095,12.5024],[10.7352,12.4023],[10.7484,12.3643],[10.7702,12.2101],[10.8104,12.1397],[10.8177,12.0268],[10.8479,11.867],[10.9681,11.5753],[10.974,11.4906],[10.9393,11.3361],[10.9657,11.3021],[11.0142,11.2947],[10.9538,11.2322],[10.8599,11.1786],[10.7792,11.0895],[10.7033,11.0666],[10.6738,11.0414],[10.5938,10.8118],[10.5415,10.7394],[10.5386,10.7116],[10.6457,10.6664],[10.677,10.5973],[10.6876,10.5187],[10.8233,10.4456],[10.844,10.3856],[10.8432,10.1876],[10.7293,10.1303],[10.7236,10.0971],[10.7651,10.0394],[10.9714,9.8878],[11.0013,9.822],[11.0243,9.6956],[11.075,9.6104],[11.0686,9.5864],[10.9992,9.5863],[10.9303,9.6026],[10.8643,9.5917],[10.7408,9.5345],[10.6141,9.5306],[10.5604,9.4967]]]}},{"type":"Feature","id":"Bayelsa State","properties":{"id":"Bayelsa State","iso_code":"NG-BY","name":"Bayelsa State","name_full":"Bayelsa State","name_ja":"バイエルサ州","center_lonlat":[6.1032,4.7752]},"geometry":{"type":"Polygon","coordinates":[[[6.7226,4.5914],[6.7018,4.5425],[6.6951,4.4229],[6.6746,4.5328],[6.6541,4.5117],[6.6643,4.4346],[6.6945,4.3591],[6.6775,4.3331],[6.6126,4.3367],[6.5959,4.4821],[6.5808,4.5079],[6.5505,4.5049],[6.5784,4.4829],[6.5884,4.4477],[6.5696,4.3349],[6.5199,4.3231],[6.4618,4.3287],[6.4343,4.3472],[6.4077,4.341],[6.4153,4.3223],[6.3989,4.316],[6.2705,4.2926],[6.2468,4.3205],[6.2671,4.363],[6.3325,4.4366],[6.2972,4.4366],[6.263,4.3957],[6.2425,4.498],[6.237,4.4528],[6.2494,4.4099],[6.2017,4.4434],[6.2302,4.388],[6.2223,4.3419],[6.1947,4.3142],[6.1948,4.3],[6.2227,4.3],[6.2171,4.2906],[6.0967,4.2781],[6.085,4.3205],[6.1053,4.3746],[6.085,4.3684],[6.0887,4.4111],[6.0554,4.4199],[6.0403,4.4059],[6.0618,4.2952],[5.9969,4.3194],[6.0033,4.3592],[5.9886,4.382],[5.9886,4.4161],[5.9751,4.382],[5.9546,4.3957],[5.9728,4.3448],[5.9463,4.3352],[5.8675,4.3873],[5.8556,4.4116],[5.8659,4.4366],[5.8475,4.4344],[5.8391,4.4161],[5.7824,4.456],[5.7703,4.4714],[5.7975,4.4571],[5.7498,4.4844],[5.5669,4.6752],[5.5573,4.7178],[5.5715,4.711],[5.5715,4.7296],[5.5277,4.7565],[5.4754,4.8475],[5.5095,4.8271],[5.469,4.8868],[5.386,5.1256],[5.4028,5.1424],[5.4338,5.1361],[5.4754,5.0945],[5.4602,5.1338],[5.5258,5.0863],[5.6658,5.025],[5.6986,5.0267],[5.8251,5.0904],[5.874,5.092],[5.9475,5.1595],[6.0028,5.1169],[6.0502,5.1046],[6.0955,5.1528],[6.1536,5.152],[6.2103,5.1837],[6.2016,5.2285],[6.2095,5.2526],[6.2885,5.2636],[6.2981,5.3057],[6.3333,5.3371],[6.4791,5.362],[6.4953,5.3713],[6.4931,5.393],[6.5856,5.3845],[6.62,5.3341],[6.5827,5.3095],[6.5362,5.2407],[6.49,5.2023],[6.4625,5.1035],[6.4446,5.0945],[6.4321,5.0644],[6.4275,5.0188],[6.448,4.9778],[6.3973,4.8922],[6.3858,4.8174],[6.4087,4.7871],[6.4458,4.7669],[6.4514,4.7176],[6.5652,4.7513],[6.6271,4.7124],[6.6505,4.6434],[6.7226,4.5914]]]}},{"type":"Feature","id":"Benue State","properties":{"id":"Benue State","iso_code":"NG-BE","name":"Benue State","name_full":"Benue State","name_ja":"ベヌエ州","center_lonlat":[8.755,7.3254]},"geometry":{"type":"Polygon","coordinates":[[[9.6448,6.5212],[9.603,6.5152],[9.549,6.4432],[9.4886,6.4182],[9.4404,6.5021],[9.3209,6.6423],[9.2325,6.6869],[9.0747,6.6573],[8.991,6.6622],[8.9716,6.6788],[8.9812,6.7387],[8.9566,6.7902],[8.8365,6.8604],[8.7645,6.8857],[8.6959,6.8917],[8.6314,6.8673],[8.6184,6.8351],[8.6278,6.7973],[8.6105,6.7689],[8.5774,6.7511],[8.5346,6.7401],[8.4113,6.7461],[8.3549,6.695],[8.2919,6.6756],[8.269,6.7015],[8.2484,6.7735],[8.2377,6.7896],[8.2178,6.7916],[8.2024,6.7648],[8.1565,6.7604],[8.1191,6.7107],[7.9986,6.6957],[7.9831,6.6627],[7.9733,6.5788],[7.9291,6.5192],[7.8603,6.5615],[7.8277,6.6302],[7.8619,6.7236],[7.8622,6.7722],[7.8511,6.8203],[7.8261,6.8599],[7.7847,6.88],[7.7189,6.8486],[7.6784,6.8438],[7.6404,6.8621],[7.5424,6.9546],[7.4937,7.0745],[7.607,7.0062],[7.6338,7.0144],[7.6528,7.0993],[7.7855,7.1711],[7.8273,7.24],[7.8473,7.3521],[7.8792,7.4162],[7.854,7.4336],[7.816,7.4285],[7.7837,7.4461],[7.7561,7.6045],[7.7543,7.7562],[7.6757,7.8649],[7.6632,7.9154],[7.666,8.0257],[7.9339,7.9737],[8.0353,7.9285],[8.1195,7.9141],[8.2004,7.8765],[8.2934,7.8555],[8.3161,7.831],[8.4182,7.7751],[8.431,7.7914],[8.4248,7.8265],[8.3544,8.0012],[8.3706,8.0715],[8.4262,8.1185],[8.558,8.1334],[8.8326,8.0507],[8.9789,8.0555],[9.1694,7.9145],[9.1141,7.833],[9.1261,7.8106],[9.2648,7.8554],[9.4184,7.8597],[9.5712,7.8423],[9.6847,7.7644],[9.7742,7.6532],[9.8766,7.5625],[9.921,7.4464],[9.8814,7.3266],[9.8747,7.209],[9.7803,7.1325],[9.7096,7.0241],[9.6767,6.85],[9.6684,6.6185],[9.6448,6.5212]]]}},{"type":"Feature","id":"Borno State","properties":{"id":"Borno State","iso_code":"NG-BO","name":"Borno State","name_full":"Borno State","name_ja":"ボルノ州","center_lonlat":[13.1713,11.8907]},"geometry":{"type":"Polygon","coordinates":[[[13.7498,10.9424],[13.5464,10.9071],[13.4562,10.9349],[13.4222,10.9303],[13.4005,10.7357],[13.3453,10.6012],[13.3097,10.4679],[13.2592,10.44],[13.1911,10.455],[13.0772,10.5408],[13.0093,10.5697],[12.923,10.5815],[12.8409,10.5632],[12.7284,10.4481],[12.6909,10.4462],[12.6662,10.4276],[12.6201,10.3614],[12.5479,10.3295],[12.3947,10.305],[12.3372,10.2573],[12.2342,10.1243],[12.1069,10.036],[11.9456,10.0447],[11.8743,10.089],[11.8071,10.1963],[11.6891,10.2632],[11.6372,10.3448],[11.6395,10.3888],[11.7134,10.5071],[11.701,10.5942],[11.7398,10.6049],[11.7938,10.6592],[11.8118,10.8577],[11.8685,10.9191],[12.1044,11.0008],[12.1667,11.0471],[12.1972,11.1157],[12.1975,11.2843],[12.3883,11.542],[12.3838,11.5785],[12.3363,11.6467],[12.2357,11.6632],[12.2412,11.7023],[12.3011,11.8197],[12.3065,11.8637],[12.2828,11.9635],[12.3289,12.2999],[12.3083,12.4496],[12.4185,12.5518],[12.4624,12.6119],[12.4875,12.6728],[12.479,12.7342],[12.3809,12.8219],[12.3629,12.8853],[12.3867,13.0786],[12.4867,13.0708],[12.4998,13.136],[12.5345,13.1459],[12.5479,13.1655],[12.5543,13.1875],[12.5383,13.1934],[12.5611,13.2428],[12.6027,13.28],[12.6202,13.2814],[12.63,13.3104],[12.6743,13.2837],[12.6901,13.312],[12.7408,13.3348],[12.7774,13.3867],[12.8052,13.373],[12.7945,13.3961],[12.8293,13.4066],[12.8293,13.4203],[12.8702,13.4612],[12.8423,13.4891],[12.8706,13.4789],[12.8838,13.496],[12.9393,13.4951],[13.0549,13.5484],[13.0825,13.5506],[13.077,13.5347],[13.0883,13.5306],[13.1235,13.537],[13.1235,13.5227],[13.144,13.5506],[13.1559,13.5408],[13.1502,13.5227],[13.2281,13.548],[13.2464,13.5711],[13.2302,13.5778],[13.2573,13.5942],[13.2592,13.629],[13.3212,13.6851],[13.3299,13.7094],[13.6073,13.7041],[14.0649,13.078],[14.1774,12.5456],[14.1798,12.3856],[14.1889,12.3704],[14.2176,12.3593],[14.4231,12.3531],[14.4871,12.3378],[14.5144,12.3235],[14.5144,12.2894],[14.5621,12.2558],[14.5485,12.2416],[14.6041,12.2043],[14.6106,12.1835],[14.6634,12.1876],[14.6699,12.1674],[14.6372,12.1242],[14.6222,12.042],[14.6043,12.0304],[14.6271,11.9501],[14.5907,11.7832],[14.5419,11.7098],[14.5524,11.689],[14.5809,11.6833],[14.6271,11.6097],[14.6238,11.5635],[14.5938,11.4964],[14.5249,11.4688],[14.4463,11.4117],[14.3682,11.383],[14.2792,11.3018],[14.2321,11.2903],[14.1655,11.2383],[14.1226,11.2357],[14.0525,11.2652],[13.9823,11.2763],[13.8732,11.1665],[13.8201,11.0693],[13.7659,11.0339],[13.7504,10.9962],[13.7498,10.9424]]]}},{"type":"Feature","id":"Cross River State","properties":{"id":"Cross River State","iso_code":"NG-CR","name":"Cross River State","name_full":"Cross River State","name_ja":"クロスリバー州","center_lonlat":[8.5821,5.8663]},"geometry":{"type":"Polygon","coordinates":[[[9.4886,6.4182],[9.4531,6.3977],[9.4229,6.3394],[9.341,6.314],[9.2733,6.2028],[9.1362,6.0925],[8.9938,5.9441],[8.9827,5.8958],[8.9217,5.9045],[8.8452,5.831],[8.8666,5.7775],[8.8622,5.7523],[8.8193,5.7035],[8.8937,5.6218],[8.9039,5.5951],[8.8995,5.571],[8.8443,5.4924],[8.8498,5.4324],[8.8153,5.3435],[8.8257,5.2955],[8.7989,5.1596],[8.7483,5.1242],[8.6383,4.9168],[8.6022,4.8813],[8.6122,4.8319],[8.5951,4.8153],[8.5767,4.8271],[8.5492,4.8042],[8.5298,4.7089],[8.469,4.7117],[8.4802,4.7525],[8.4388,4.7383],[8.4092,4.7493],[8.4219,4.8475],[8.409,4.8134],[8.387,4.7958],[8.3584,4.7973],[8.3324,4.8209],[8.3399,4.8345],[8.312,4.8475],[8.3084,4.8721],[8.2562,4.9067],[8.2321,4.9537],[8.1755,4.9914],[8.2437,4.9164],[8.2736,4.8454],[8.2573,4.8345],[8.2992,4.7823],[8.249,4.8128],[8.0958,4.9856],[8.0551,5.0911],[8.0625,5.2135],[8.0013,5.2604],[7.9168,5.257],[7.8968,5.2724],[7.869,5.3336],[7.8971,5.365],[7.9446,5.3561],[7.9571,5.3915],[7.9084,5.4836],[7.8855,5.5888],[7.8943,5.6446],[7.8778,5.6903],[7.8904,5.7388],[7.9199,5.777],[7.9176,5.8241],[7.9668,5.8916],[7.9791,5.9361],[7.963,5.9674],[7.9746,5.9926],[8.0151,6.0055],[8.0524,5.9948],[8.0722,5.9497],[8.0979,5.9508],[8.1623,5.99],[8.1908,6.0308],[8.2465,6.0179],[8.2816,6.1195],[8.3799,6.2356],[8.3883,6.3035],[8.369,6.3333],[8.3768,6.3663],[8.4389,6.4012],[8.4354,6.4326],[8.3792,6.5483],[8.3064,6.6204],[8.2919,6.6756],[8.3549,6.695],[8.4113,6.7461],[8.5346,6.7401],[8.5774,6.7511],[8.6105,6.7689],[8.6278,6.7973],[8.6184,6.8351],[8.6314,6.8673],[8.6959,6.8917],[8.7645,6.8857],[8.8365,6.8604],[8.9566,6.7902],[8.9812,6.7387],[8.9716,6.6788],[8.991,6.6622],[9.0747,6.6573],[9.2325,6.6869],[9.3209,6.6423],[9.4404,6.5021],[9.4886,6.4182]]]}},{"type":"Feature","id":"Delta State","properties":{"id":"Delta State","iso_code":"NG-DE","name":"Delta State","name_full":"Delta State","name_ja":"デルタ州","center_lonlat":[5.9587,5.7166]},"geometry":{"type":"Polygon","coordinates":[[[5.4602,5.1338],[5.4543,5.1491],[5.4959,5.1423],[5.4509,5.1901],[5.4443,5.1635],[5.3656,5.1635],[5.3457,5.3572],[5.4543,5.3688],[5.468,5.3409],[5.4891,5.3688],[5.5296,5.3864],[5.5779,5.382],[5.5369,5.4303],[5.5339,5.4764],[5.5536,5.4969],[5.614,5.505],[5.6399,5.5402],[5.5962,5.5142],[5.5779,5.5197],[5.5641,5.5054],[5.541,5.5105],[5.5171,5.4986],[5.5032,5.4765],[5.5095,5.4508],[5.4849,5.4115],[5.4686,5.4078],[5.4236,5.4365],[5.4338,5.3956],[5.376,5.3988],[5.2632,5.4365],[5.198,5.5015],[5.1885,5.5441],[5.2142,5.5751],[5.3281,5.5784],[5.3928,5.5606],[5.427,5.6221],[5.471,5.6228],[5.4925,5.5812],[5.5081,5.5845],[5.5021,5.6173],[5.4649,5.6486],[5.4285,5.6558],[5.396,5.6059],[5.3615,5.5937],[5.326,5.6054],[5.3182,5.6367],[5.3376,5.7246],[5.2803,5.6175],[5.1797,5.5826],[5.1292,5.6281],[5.0886,5.7087],[5.0874,5.7521],[5.1027,5.7932],[5.115,5.8009],[5.154,5.7792],[5.154,5.8145],[5.1854,5.842],[5.2674,5.8719],[5.2904,5.9101],[5.12,5.8242],[5.055,5.7666],[5.0447,5.7675],[5.003,5.8548],[5.1152,6.1269],[5.185,6.0932],[5.2324,6.0385],[5.2232,5.9728],[5.2313,5.9207],[5.2511,5.9057],[5.3263,5.9624],[5.3212,5.9954],[5.3314,6.0198],[5.4633,6.0185],[5.5301,5.9821],[5.6019,6.0375],[5.6634,6.0399],[5.7799,5.9768],[5.8345,5.9175],[5.8961,5.8784],[5.8918,5.8415],[5.8703,5.8066],[5.8915,5.7738],[5.8888,5.7462],[5.9235,5.7411],[6.0215,5.7619],[6.1695,5.8892],[6.2107,5.9367],[6.2225,5.9746],[6.2224,6.0135],[6.1305,6.0844],[6.0999,6.1347],[6.0849,6.208],[6.0528,6.2639],[6.0703,6.3279],[6.0936,6.3495],[6.1277,6.3462],[6.1732,6.2875],[6.2013,6.2871],[6.2691,6.3556],[6.546,6.4933],[6.6172,6.4878],[6.6456,6.4974],[6.6767,6.5351],[6.715,6.3211],[6.759,6.1811],[6.7577,6.1229],[6.7468,6.1016],[6.7037,6.0759],[6.689,5.9143],[6.626,5.8185],[6.6057,5.7232],[6.5469,5.501],[6.4747,5.4385],[6.4931,5.393],[6.4953,5.3713],[6.4791,5.362],[6.3333,5.3371],[6.2981,5.3057],[6.2885,5.2636],[6.2095,5.2526],[6.2016,5.2285],[6.2103,5.1837],[6.1536,5.152],[6.0955,5.1528],[6.0502,5.1046],[6.0028,5.1169],[5.9475,5.1595],[5.874,5.092],[5.8251,5.0904],[5.6986,5.0267],[5.6658,5.025],[5.5258,5.0863],[5.4602,5.1338]]]}},{"type":"Feature","id":"Ebonyi State","properties":{"id":"Ebonyi State","iso_code":"NG-EB","name":"Ebonyi State","name_full":"Ebonyi State","name_ja":"エボニ州","center_lonlat":[8.0023,6.2666]},"geometry":{"type":"Polygon","coordinates":[[[8.2919,6.6756],[8.3064,6.6204],[8.3792,6.5483],[8.4354,6.4326],[8.4389,6.4012],[8.3768,6.3663],[8.369,6.3333],[8.3883,6.3035],[8.3799,6.2356],[8.2816,6.1195],[8.2465,6.0179],[8.1908,6.0308],[8.1623,5.99],[8.0979,5.9508],[8.0722,5.9497],[8.0524,5.9948],[8.0151,6.0055],[7.9746,5.9926],[7.963,5.9674],[7.9791,5.9361],[7.9668,5.8916],[7.9176,5.8241],[7.9199,5.777],[7.8904,5.7388],[7.8778,5.6903],[7.8083,5.7284],[7.7847,5.7938],[7.7309,5.8188],[7.5856,5.8206],[7.5262,5.8503],[7.5335,5.973],[7.5834,5.9887],[7.6663,5.9281],[7.6932,5.9419],[7.6819,5.9942],[7.6885,6.0445],[7.7325,6.101],[7.7085,6.2483],[7.6905,6.2749],[7.7341,6.4076],[7.7351,6.4788],[7.6957,6.6065],[7.7275,6.6263],[7.8277,6.6302],[7.8603,6.5615],[7.9291,6.5192],[7.9733,6.5788],[7.9831,6.6627],[7.9986,6.6957],[8.1191,6.7107],[8.1565,6.7604],[8.2024,6.7648],[8.2178,6.7916],[8.2377,6.7896],[8.2484,6.7735],[8.269,6.7015],[8.2919,6.6756]]]}},{"type":"Feature","id":"Edo State","properties":{"id":"Edo State","iso_code":"NG-ED","name":"Edo State","name_full":"Edo State","name_ja":"エド州","center_lonlat":[5.9124,6.6261]},"geometry":{"type":"Polygon","coordinates":[[[6.6767,6.5351],[6.6456,6.4974],[6.6172,6.4878],[6.546,6.4933],[6.2691,6.3556],[6.2013,6.2871],[6.1732,6.2875],[6.1277,6.3462],[6.0936,6.3495],[6.0703,6.3279],[6.0528,6.2639],[6.0849,6.208],[6.0999,6.1347],[6.1305,6.0844],[6.2224,6.0135],[6.2225,5.9746],[6.2107,5.9367],[6.1695,5.8892],[6.0215,5.7619],[5.9235,5.7411],[5.8888,5.7462],[5.8915,5.7738],[5.8703,5.8066],[5.8918,5.8415],[5.8961,5.8784],[5.8345,5.9175],[5.7799,5.9768],[5.6634,6.0399],[5.6019,6.0375],[5.5301,5.9821],[5.4633,6.0185],[5.3314,6.0198],[5.3212,5.9954],[5.3263,5.9624],[5.2511,5.9057],[5.2313,5.9207],[5.2232,5.9728],[5.2324,6.0385],[5.185,6.0932],[5.1152,6.1269],[5.1156,6.1583],[5.0971,6.1869],[5.0526,6.2042],[5.0295,6.2424],[4.9793,6.2844],[5.0122,6.3616],[5.0597,6.3824],[5.1208,6.5141],[5.1032,6.5667],[5.0725,6.6064],[5.0912,6.7053],[5.1579,6.7774],[5.1872,6.8262],[5.1871,6.8514],[5.2156,6.8724],[5.4956,6.8723],[5.5415,6.8361],[5.5147,6.7827],[5.541,6.7171],[5.5632,6.7204],[5.6126,6.7599],[5.6858,6.739],[5.7136,6.7521],[5.7539,6.8784],[5.7766,6.8838],[5.7891,6.9174],[5.7713,6.9598],[5.7861,7.031],[5.8267,7.0761],[5.8783,7.2048],[5.8766,7.2281],[5.9527,7.299],[5.962,7.3317],[5.9488,7.399],[5.96,7.4205],[5.9548,7.4378],[5.9251,7.4573],[5.9346,7.4922],[5.9873,7.5157],[6.0284,7.5734],[6.0657,7.5684],[6.0826,7.5576],[6.0787,7.5379],[6.1111,7.5271],[6.1186,7.5047],[6.1077,7.4606],[6.1324,7.4267],[6.1783,7.4277],[6.2641,7.4633],[6.351,7.3786],[6.4327,7.3843],[6.458,7.3617],[6.5112,7.2507],[6.6284,7.279],[6.6573,7.2363],[6.6972,7.2203],[6.7194,7.1489],[6.6874,6.9552],[6.6492,6.8438],[6.6506,6.6632],[6.6767,6.5351]]]}},{"type":"Feature","id":"Ekiti State","properties":{"id":"Ekiti State","iso_code":"NG-EK","name":"Ekiti State","name_full":"Ekiti State","name_ja":"エキティ州","center_lonlat":[5.3126,7.7036]},"geometry":{"type":"Polygon","coordinates":[[[5.536,8.0696],[5.5161,8.0417],[5.5176,7.9995],[5.5366,7.9924],[5.5637,8.0083],[5.6368,8.0204],[5.6702,8.0071],[5.6686,7.9849],[5.6176,7.9359],[5.61,7.8933],[5.6248,7.8503],[5.6578,7.8211],[5.8114,7.7561],[5.7937,7.7276],[5.7689,7.7181],[5.7414,7.7302],[5.7154,7.716],[5.6934,7.6811],[5.6237,7.6197],[5.5926,7.4957],[5.5378,7.3685],[5.4325,7.2801],[5.3761,7.3019],[5.3306,7.4199],[5.2799,7.4353],[5.0993,7.439],[4.9915,7.4148],[4.9124,7.6272],[4.9072,7.679],[4.9261,7.8431],[4.9723,7.9038],[5.0414,7.9493],[5.0641,8.0306],[5.1015,7.998],[5.164,8.0164],[5.2302,7.9756],[5.2944,7.9673],[5.3537,7.9743],[5.3931,8.0553],[5.536,8.0696]]]}},{"type":"Feature","id":"Enugu State","properties":{"id":"Enugu State","iso_code":"NG-EN","name":"Enugu State","name_full":"Enugu State","name_ja":"エヌグ州","center_lonlat":[7.4208,6.5334]},"geometry":{"type":"Polygon","coordinates":[[[7.4937,7.0745],[7.5424,6.9546],[7.6404,6.8621],[7.6784,6.8438],[7.7189,6.8486],[7.7847,6.88],[7.8261,6.8599],[7.8511,6.8203],[7.8622,6.7722],[7.8619,6.7236],[7.8277,6.6302],[7.7275,6.6263],[7.6957,6.6065],[7.7351,6.4788],[7.7341,6.4076],[7.6905,6.2749],[7.7085,6.2483],[7.7325,6.101],[7.6885,6.0445],[7.6819,5.9942],[7.6932,5.9419],[7.6663,5.9281],[7.5834,5.9887],[7.5335,5.973],[7.4683,6.0222],[7.3725,6.0125],[7.3637,6.0206],[7.3307,6.0435],[7.2651,6.0417],[7.2433,6.0667],[7.2044,6.1541],[7.21,6.1889],[7.1861,6.2064],[7.1818,6.2306],[7.1653,6.2408],[7.1354,6.2265],[7.1271,6.2381],[7.1329,6.2878],[7.1461,6.2991],[7.1059,6.391],[7.0854,6.4187],[7.022,6.4405],[7.0132,6.4651],[7.0402,6.5402],[7.0959,6.6005],[7.1003,6.6678],[6.9801,6.712],[6.9137,6.716],[6.906,6.7761],[6.9327,6.829],[6.9659,6.8503],[6.9732,6.8189],[7.021,6.7783],[7.2362,6.962],[7.3118,7.053],[7.4117,7.1078],[7.4606,7.1049],[7.4937,7.0745]]]}},{"type":"Feature","id":"Federal Capital Territory","properties":{"id":"Federal Capital Territory","iso_code":"NG-FC","name":"Federal Capital Territory","name_full":"Federal Capital Territory","name_ja":"連邦首都地区","center_lonlat":[7.144,8.8623]},"geometry":{"type":"Polygon","coordinates":[[[6.9781,8.4118],[6.835,8.4068],[6.7894,8.4121],[6.759,8.4722],[6.754,9.2139],[6.7783,9.2252],[6.9631,9.2324],[7.0234,9.2138],[7.1168,9.1237],[7.1639,9.0976],[7.3108,9.2974],[7.4058,9.3076],[7.4865,9.292],[7.54,9.3514],[7.5758,9.3381],[7.5942,9.3042],[7.6258,9.3107],[7.6248,9.2716],[7.6012,9.2605],[7.5829,9.2277],[7.5599,9.1206],[7.5611,8.9607],[7.5143,8.7589],[7.4711,8.6392],[7.4359,8.5832],[7.3921,8.5348],[7.2635,8.4714],[6.9781,8.4118]]]}},{"type":"Feature","id":"Gombe State","properties":{"id":"Gombe State","iso_code":"NG-GO","name":"Gombe State","name_full":"Gombe State","name_ja":"ゴンベ州","center_lonlat":[11.2442,10.4042]},"geometry":{"type":"Polygon","coordinates":[[[11.0686,9.5864],[11.075,9.6104],[11.0243,9.6956],[11.0013,9.822],[10.9714,9.8878],[10.7651,10.0394],[10.7236,10.0971],[10.7293,10.1303],[10.8432,10.1876],[10.844,10.3856],[10.8233,10.4456],[10.6876,10.5187],[10.677,10.5973],[10.6457,10.6664],[10.5386,10.7116],[10.5415,10.7394],[10.5938,10.8118],[10.6738,11.0414],[10.7033,11.0666],[10.7792,11.0895],[10.8599,11.1786],[10.9538,11.2322],[11.0142,11.2947],[11.1528,11.3308],[11.2902,11.2648],[11.354,11.2159],[11.5837,10.9623],[11.5774,10.6987],[11.593,10.5972],[11.701,10.5942],[11.7134,10.5071],[11.6395,10.3888],[11.6372,10.3448],[11.6891,10.2632],[11.8071,10.1963],[11.8743,10.089],[11.9456,10.0447],[11.9351,9.9576],[11.9404,9.8257],[11.9251,9.7842],[11.7027,9.644],[11.6178,9.6066],[11.5259,9.592],[11.1749,9.5777],[11.0686,9.5864]]]}},{"type":"Feature","id":"Imo State","properties":{"id":"Imo State","iso_code":"NG-IM","name":"Imo State","name_full":"Imo State","name_ja":"イモ州","center_lonlat":[7.0481,5.5507]},"geometry":{"type":"Polygon","coordinates":[[[6.6688,5.6943],[6.7357,5.7477],[6.8133,5.769],[6.8563,5.7508],[6.8958,5.762],[6.9485,5.8845],[6.9861,5.9073],[7.0772,5.9235],[7.1676,5.9041],[7.2501,5.9263],[7.3495,5.8762],[7.3879,5.8421],[7.4008,5.7301],[7.382,5.6701],[7.4004,5.6253],[7.405,5.5432],[7.3623,5.4478],[7.3244,5.4055],[7.2515,5.1947],[7.1899,5.1825],[7.1371,5.1977],[7.0112,5.1852],[6.8702,5.1949],[6.7648,5.2633],[6.7244,5.3051],[6.7459,5.4431],[6.7046,5.4863],[6.6327,5.4799],[6.6262,5.502],[6.6688,5.6943]]]}},{"type":"Feature","id":"Jigawa State","properties":{"id":"Jigawa State","iso_code":"NG-JI","name":"Jigawa State","name_full":"Jigawa State","name_ja":"ジガワ州","center_lonlat":[9.5492,12.2165]},"geometry":{"type":"Polygon","coordinates":[[[8.9779,12.8432],[9.2694,12.8098],[9.3779,12.8258],[9.5903,12.8014],[9.6184,12.8058],[9.6477,12.8305],[9.7699,12.7925],[9.8573,12.8298],[9.9025,12.8946],[10.1146,12.9727],[10.1593,12.9839],[10.2011,12.9715],[10.2269,12.9328],[10.2627,12.8077],[10.3059,12.8013],[10.4047,12.8171],[10.4406,12.8004],[10.5116,12.7934],[10.5394,12.7729],[10.5699,12.7087],[10.5882,12.5675],[10.6095,12.5024],[10.4774,12.4163],[10.394,12.4489],[10.2875,12.4244],[10.2647,12.4027],[10.1691,12.1164],[10.1716,12.0427],[10.155,12.0085],[9.8504,11.8943],[9.7839,11.8582],[9.6997,11.8512],[9.6463,11.8034],[9.6252,11.7294],[9.6677,11.7012],[9.7644,11.7224],[9.7987,11.7145],[9.8306,11.5754],[9.7976,11.5145],[9.7933,11.4817],[9.813,11.455],[9.8631,11.4598],[10.0006,11.2623],[10.0733,11.2338],[10.2328,11.2045],[10.3182,11.2013],[10.3902,11.1776],[10.3857,11.1452],[10.3615,11.1174],[10.2165,11.0541],[10.1957,10.9866],[10.2068,10.9504],[10.1798,10.9334],[10.106,10.9654],[9.9483,10.9537],[9.8911,10.9769],[9.8676,11.0322],[9.8764,11.1613],[9.8543,11.2216],[9.8105,11.2614],[9.6238,11.2378],[9.5732,11.2553],[9.5339,11.3047],[9.4081,11.2991],[9.2858,11.3412],[9.2247,11.3424],[9.228,11.3959],[9.253,11.4536],[9.3416,11.5327],[9.3507,11.555],[9.2643,11.6152],[9.2273,11.6938],[9.1459,11.7014],[9.1296,11.7158],[9.1433,11.7764],[9.1798,11.8289],[9.2046,11.9077],[9.2071,11.942],[9.1812,12.0303],[9.135,12.0354],[9.0995,12.0119],[9.0372,12.012],[9.0292,12.0616],[8.9564,12.0506],[8.9366,12.0619],[8.9232,12.0831],[8.9469,12.1297],[8.9462,12.2218],[8.9045,12.2729],[8.7851,12.2987],[8.7654,12.3909],[8.6903,12.4393],[8.6783,12.5393],[8.5301,12.5747],[8.471,12.5633],[8.4207,12.5376],[8.3622,12.4252],[8.3443,12.4354],[8.3332,12.4815],[8.2828,12.5696],[8.2493,12.6224],[8.1697,12.6243],[8.1172,12.6562],[8.1233,12.7877],[8.1373,12.8137],[8.2439,12.8296],[8.5354,12.8299],[8.5992,12.7152],[8.6474,12.6908],[8.7015,12.71],[8.7282,12.6816],[8.7681,12.6783],[8.822,12.6905],[8.9144,12.7504],[8.942,12.8003],[8.9717,12.8187],[8.9779,12.8432]]]}},{"type":"Feature","id":"Kaduna State","properties":{"id":"Kaduna State","iso_code":"NG-KD","name":"Kaduna State","name_full":"Kaduna State","name_ja":"カドゥナ州","center_lonlat":[7.6998,10.3572]},"geometry":{"type":"Polygon","coordinates":[[[8.7413,10.549],[8.7304,10.4834],[8.6967,10.4238],[8.7102,10.3976],[8.785,10.3356],[8.7712,10.2731],[8.6601,10.1692],[8.6419,10.0948],[8.6678,10.0192],[8.6283,9.8877],[8.6315,9.7387],[8.59,9.6823],[8.5875,9.6473],[8.559,9.6268],[8.5593,9.4845],[8.685,9.3228],[8.6806,9.2619],[8.66,9.2048],[8.6231,9.162],[8.5654,9.0468],[8.5226,9.004],[8.4836,8.9992],[8.386,9.1163],[8.2635,9.1532],[8.1792,9.0481],[8.0998,9.005],[8.0741,9.1016],[8.0634,9.2188],[7.9918,9.2679],[7.9834,9.316],[7.9509,9.3459],[7.8895,9.3364],[7.8507,9.2657],[7.8166,9.2507],[7.7491,9.2679],[7.7245,9.2875],[7.6926,9.285],[7.6686,9.2976],[7.6539,9.3237],[7.6258,9.3107],[7.5942,9.3042],[7.5758,9.3381],[7.54,9.3514],[7.4865,9.292],[7.4058,9.3076],[7.3108,9.2974],[7.2617,9.2953],[7.2552,9.3116],[7.2686,9.3559],[7.2183,9.4166],[7.2269,9.4536],[7.2816,9.4921],[7.2901,9.5321],[7.3381,9.5866],[7.3319,9.6179],[7.3012,9.6332],[7.2872,9.6582],[7.2952,9.686],[7.2375,9.7141],[7.2173,9.741],[7.2962,9.781],[7.2792,9.9776],[7.2308,10.0111],[7.0085,10.0171],[6.9367,10.0472],[6.8921,10.1052],[7.0651,10.2646],[7.0675,10.2989],[6.9659,10.3448],[6.9445,10.3668],[6.9578,10.4025],[6.956,10.4824],[6.9009,10.5285],[6.8499,10.5225],[6.8352,10.6231],[6.768,10.6378],[6.7355,10.6239],[6.7399,10.5847],[6.7177,10.5688],[6.6412,10.5677],[6.5685,10.5347],[6.5367,10.5403],[6.5238,10.5715],[6.4976,10.589],[6.4267,10.5736],[6.3073,10.4833],[6.2081,10.3658],[6.1738,10.3612],[6.132,10.4253],[6.0996,10.4491],[6.0931,10.4826],[6.1264,10.623],[6.1091,10.6973],[6.1137,10.8061],[6.1221,10.8316],[6.1619,10.8627],[6.2224,10.8912],[6.2359,10.9432],[6.2803,10.965],[6.3228,11.0322],[6.3638,11.0375],[6.4741,11.0095],[6.576,11.0294],[6.6864,11.0763],[6.7246,11.1277],[6.7545,11.248],[6.8454,11.3169],[6.8818,11.3661],[6.9521,11.3376],[7.005,11.3367],[7.0263,11.3212],[7.035,11.2789],[6.9919,11.2377],[6.9931,11.2098],[7.0663,11.1903],[7.1533,11.1163],[7.1865,11.1122],[7.2438,11.1557],[7.2426,11.1842],[7.2254,11.21],[7.2422,11.2634],[7.3543,11.2501],[7.3818,11.2646],[7.404,11.3326],[7.4668,11.3688],[7.5781,11.3379],[7.6606,11.2746],[7.7417,11.3072],[7.7762,11.3592],[7.8451,11.365],[7.9625,11.4511],[8.1032,11.4955],[8.1388,11.4789],[8.114,11.3727],[8.1343,11.3401],[8.2373,11.2943],[8.2943,11.2358],[8.4398,11.1897],[8.5424,11.082],[8.5619,10.9428],[8.5428,10.8663],[8.5584,10.7467],[8.5439,10.7091],[8.5015,10.6988],[8.4807,10.6712],[8.5353,10.6261],[8.6156,10.6159],[8.6789,10.5545],[8.7413,10.549]]]}},{"type":"Feature","id":"Kano State","properties":{"id":"Kano State","iso_code":"NG-KN","name":"Kano State","name_full":"Kano State","name_ja":"カノ州","center_lonlat":[8.5138,11.735]},"geometry":{"type":"Polygon","coordinates":[[[9.2247,11.3424],[9.1308,11.3081],[9.0988,11.3262],[9.0319,11.2961],[8.8632,11.1044],[8.8274,11.0884],[8.7677,11.0848],[8.7375,11.0215],[8.734,10.8628],[8.7625,10.7868],[8.8083,10.7329],[8.8154,10.6641],[8.7873,10.5987],[8.7413,10.549],[8.6789,10.5545],[8.6156,10.6159],[8.5353,10.6261],[8.4807,10.6712],[8.5015,10.6988],[8.5439,10.7091],[8.5584,10.7467],[8.5428,10.8663],[8.5619,10.9428],[8.5424,11.082],[8.4398,11.1897],[8.2943,11.2358],[8.2373,11.2943],[8.1343,11.3401],[8.114,11.3727],[8.1388,11.4789],[8.1032,11.4955],[7.9625,11.4511],[7.8451,11.365],[7.7762,11.3592],[7.7074,11.4167],[7.6922,11.4673],[7.7153,11.5639],[7.7465,11.6008],[7.8937,11.6508],[7.89,11.6903],[7.8558,11.7653],[7.8593,11.818],[7.8331,11.9144],[7.8394,12.1231],[7.8296,12.2211],[7.8413,12.2661],[7.9181,12.318],[8.0938,12.3827],[8.1304,12.4165],[8.1873,12.5557],[8.2828,12.5696],[8.3332,12.4815],[8.3443,12.4354],[8.3622,12.4252],[8.4207,12.5376],[8.471,12.5633],[8.5301,12.5747],[8.6783,12.5393],[8.6903,12.4393],[8.7654,12.3909],[8.7851,12.2987],[8.9045,12.2729],[8.9462,12.2218],[8.9469,12.1297],[8.9232,12.0831],[8.9366,12.0619],[8.9564,12.0506],[9.0292,12.0616],[9.0372,12.012],[9.0995,12.0119],[9.135,12.0354],[9.1812,12.0303],[9.2071,11.942],[9.2046,11.9077],[9.1798,11.8289],[9.1433,11.7764],[9.1296,11.7158],[9.1459,11.7014],[9.2273,11.6938],[9.2643,11.6152],[9.3507,11.555],[9.3416,11.5327],[9.253,11.4536],[9.228,11.3959],[9.2247,11.3424]]]}},{"type":"Feature","id":"Katsina State","properties":{"id":"Katsina State","iso_code":"NG-KT","name":"Katsina State","name_full":"Katsina State","name_ja":"カツィナ州","center_lonlat":[7.6303,12.3765]},"geometry":{"type":"Polygon","coordinates":[[[8.9779,12.8432],[8.9717,12.8187],[8.942,12.8003],[8.9144,12.7504],[8.822,12.6905],[8.7681,12.6783],[8.7282,12.6816],[8.7015,12.71],[8.6474,12.6908],[8.5992,12.7152],[8.5354,12.8299],[8.2439,12.8296],[8.1373,12.8137],[8.1233,12.7877],[8.1172,12.6562],[8.1697,12.6243],[8.2493,12.6224],[8.2828,12.5696],[8.1873,12.5557],[8.1304,12.4165],[8.0938,12.3827],[7.9181,12.318],[7.8413,12.2661],[7.8296,12.2211],[7.8394,12.1231],[7.8331,11.9144],[7.8593,11.818],[7.8558,11.7653],[7.89,11.6903],[7.8937,11.6508],[7.7465,11.6008],[7.7153,11.5639],[7.6922,11.4673],[7.7074,11.4167],[7.7762,11.3592],[7.7417,11.3072],[7.6606,11.2746],[7.5781,11.3379],[7.4668,11.3688],[7.404,11.3326],[7.3818,11.2646],[7.3543,11.2501],[7.2422,11.2634],[7.2254,11.21],[7.2426,11.1842],[7.2438,11.1557],[7.1865,11.1122],[7.1533,11.1163],[7.0663,11.1903],[6.9931,11.2098],[6.9919,11.2377],[7.035,11.2789],[7.0263,11.3212],[7.005,11.3367],[6.9521,11.3376],[6.8818,11.3661],[6.9066,11.4573],[6.9099,11.5258],[6.8754,11.5872],[6.9134,11.7663],[6.9714,11.7929],[7.0457,11.7929],[7.0663,11.7792],[7.1485,11.8425],[7.1537,11.8751],[7.1718,11.8923],[7.2034,11.8841],[7.2332,11.8952],[7.222,11.9545],[7.113,12.0384],[7.1575,12.154],[7.1218,12.3149],[7.0944,12.3677],[7.0993,12.4276],[7.0779,12.4785],[7.0463,12.8903],[7.0629,12.9951],[7.1374,13.0472],[7.1982,13.1174],[7.3248,13.1028],[7.392,13.1125],[7.7556,13.3271],[7.824,13.3453],[8.1051,13.2997],[8.2014,13.2264],[8.2598,13.2052],[8.4052,13.0709],[8.4827,13.0816],[8.5335,13.0646],[8.5968,13.0114],[8.6427,12.9444],[8.6793,12.9236],[8.9779,12.8432]]]}},{"type":"Feature","id":"Kebbi State","properties":{"id":"Kebbi State","iso_code":"NG-KE","name":"Kebbi State","name_full":"Kebbi State","name_ja":"ケビ州","center_lonlat":[4.4958,11.7651]},"geometry":{"type":"Polygon","coordinates":[[[4.1203,13.2106],[4.27,13.2042],[4.3409,13.2281],[4.4638,13.1398],[4.6029,13.0939],[4.672,13.0545],[4.71,13.0514],[4.741,13.0695],[4.7749,13.1197],[4.8008,13.128],[4.8184,13.1065],[4.7699,12.9014],[4.8259,12.7826],[4.8031,12.6356],[4.8332,12.4748],[4.8295,12.3994],[4.7846,12.3768],[4.7164,12.3985],[4.6449,12.381],[4.6091,12.3185],[4.6157,11.9341],[4.5818,11.7783],[4.5375,11.6843],[4.5294,11.589],[4.5615,11.5528],[4.6064,11.5383],[4.65,11.5651],[4.685,11.6077],[4.8751,11.6923],[4.9562,11.6914],[4.9821,11.6663],[5.0235,11.6806],[5.0645,11.688],[5.1425,11.6548],[5.2363,11.6791],[5.2615,11.7199],[5.3286,11.7099],[5.3853,11.7184],[5.4238,11.6698],[5.5698,11.6205],[5.7222,11.6308],[5.7543,11.6434],[5.8663,11.6182],[5.9133,11.5731],[5.9082,11.5049],[5.8832,11.4298],[5.9021,11.3994],[5.9416,11.384],[6.0182,11.2642],[6.0271,11.1112],[5.9964,11.1308],[5.9613,11.129],[5.8852,11.0534],[5.816,11.0414],[5.643,10.9689],[5.4767,10.9572],[5.4497,10.9664],[5.437,11.0016],[5.4415,11.1176],[5.4255,11.151],[5.3937,11.1709],[5.3581,11.2347],[5.3443,11.3093],[5.2852,11.3445],[5.2123,11.3466],[4.9167,11.2876],[4.7794,11.2269],[4.763,11.1638],[4.8265,11.1166],[4.8985,11.0867],[4.992,11.0747],[5.0136,11.0498],[5.0541,11.0334],[5.0783,10.9238],[5.0303,10.8638],[5.0711,10.8132],[5.0931,10.7478],[5.0662,10.7266],[4.9283,10.6749],[4.8589,10.6843],[4.8271,10.6731],[4.8102,10.6067],[4.8166,10.4633],[4.8637,10.4025],[4.8942,10.3347],[4.8694,10.2692],[4.8406,10.2483],[4.6554,10.2011],[4.6319,10.0993],[4.5637,10.1031],[4.5395,10.1244],[4.561,10.2709],[4.5137,10.3135],[4.4984,10.3481],[4.5006,10.4604],[4.5384,10.5242],[4.6547,10.589],[4.6562,10.6072],[4.689,10.6458],[4.7221,10.9042],[4.6578,10.9235],[4.5368,11.0018],[4.4354,11.0285],[4.3317,11.0133],[4.0052,11.0122],[3.8042,11.1176],[3.7056,11.1207],[3.6867,11.1205],[3.6625,11.1431],[3.4833,11.3923],[3.4667,11.4425],[3.5049,11.5566],[3.5744,11.673],[3.6478,11.726],[3.667,11.7597],[3.6129,11.839],[3.6039,11.9056],[3.6536,11.9868],[3.624,12.0943],[3.6515,12.269],[3.6416,12.518],[3.9291,12.7504],[4.0888,12.9962],[4.1203,13.2106]]]}},{"type":"Feature","id":"Kogi State","properties":{"id":"Kogi State","iso_code":"NG-KO","name":"Kogi State","name_full":"Kogi State","name_ja":"コギ州","center_lonlat":[6.6953,7.7284]},"geometry":{"type":"Polygon","coordinates":[[[7.666,8.0257],[7.6632,7.9154],[7.6757,7.8649],[7.7543,7.7562],[7.7561,7.6045],[7.7837,7.4461],[7.816,7.4285],[7.854,7.4336],[7.8792,7.4162],[7.8473,7.3521],[7.8273,7.24],[7.7855,7.1711],[7.6528,7.0993],[7.6338,7.0144],[7.607,7.0062],[7.4937,7.0745],[7.4606,7.1049],[7.4117,7.1078],[7.3118,7.053],[7.2362,6.962],[7.021,6.7783],[6.9732,6.8189],[6.9659,6.8503],[6.9327,6.829],[6.906,6.7761],[6.8381,6.712],[6.8144,6.6646],[6.7924,6.5668],[6.7595,6.5343],[6.6767,6.5351],[6.6506,6.6632],[6.6492,6.8438],[6.6874,6.9552],[6.7194,7.1489],[6.6972,7.2203],[6.6573,7.2363],[6.6284,7.279],[6.5112,7.2507],[6.458,7.3617],[6.4327,7.3843],[6.351,7.3786],[6.2641,7.4633],[6.1783,7.4277],[6.1324,7.4267],[6.1077,7.4606],[6.1186,7.5047],[6.1111,7.5271],[6.0787,7.5379],[6.0826,7.5576],[6.0657,7.5684],[6.0284,7.5734],[5.9158,7.7179],[5.9224,7.7569],[5.8921,7.7704],[5.8114,7.7561],[5.6578,7.8211],[5.6248,7.8503],[5.61,7.8933],[5.6176,7.9359],[5.6686,7.9849],[5.6702,8.0071],[5.6368,8.0204],[5.5637,8.0083],[5.5366,7.9924],[5.5176,7.9995],[5.5161,8.0417],[5.536,8.0696],[5.5288,8.1295],[5.4214,8.2076],[5.3492,8.3153],[5.3569,8.3482],[5.4712,8.49],[5.5157,8.5307],[5.5552,8.5148],[5.6058,8.4656],[5.7061,8.4279],[6.0534,8.3737],[6.0868,8.3804],[6.1171,8.4339],[6.1326,8.5371],[6.1735,8.6758],[6.2159,8.73],[6.2774,8.7367],[6.3705,8.6809],[6.425,8.5642],[6.4426,8.4781],[6.4654,8.4317],[6.5722,8.3536],[6.6229,8.2779],[6.6914,8.2069],[6.7264,8.2757],[6.7389,8.2856],[6.7531,8.2776],[6.7556,8.3163],[6.8216,8.3672],[6.835,8.4068],[6.9781,8.4118],[6.9448,8.313],[6.9931,8.2281],[6.9973,8.1627],[6.9818,8.0158],[6.9515,7.9562],[6.9384,7.8744],[6.9705,7.8822],[7.084,7.9601],[7.2858,8.0281],[7.4952,8.0164],[7.666,8.0257]]]}},{"type":"Feature","id":"Kwara State","properties":{"id":"Kwara State","iso_code":"NG-KW","name":"Kwara State","name_full":"Kwara State","name_ja":"クワラ州","center_lonlat":[4.373,8.9835]},"geometry":{"type":"Polygon","coordinates":[[[3.6648,10.1287],[3.7577,10.1457],[3.9176,10.1504],[3.986,10.1414],[4.0141,10.118],[4.3504,9.7251],[4.3816,9.7037],[4.4158,9.7034],[4.4319,9.6361],[4.4207,9.4811],[4.4536,9.4254],[4.5272,9.4344],[4.6144,9.4219],[4.625,9.3247],[4.6486,9.2998],[4.7426,9.2749],[4.7548,9.2545],[4.7525,9.1683],[4.7708,9.1487],[4.8293,9.1419],[4.9792,9.1997],[5.0059,9.1966],[5.1501,9.1133],[5.1843,9.0732],[5.1902,9.0302],[5.2095,9.0083],[5.3195,8.9883],[5.401,8.9895],[5.4662,8.9412],[5.538,8.9294],[5.6343,8.829],[5.7459,8.8112],[5.7905,8.7457],[5.9146,8.7354],[5.9827,8.7575],[6.0924,8.7586],[6.1227,8.7505],[6.1607,8.7193],[6.2159,8.73],[6.1735,8.6758],[6.1326,8.5371],[6.1171,8.4339],[6.0868,8.3804],[6.0534,8.3737],[5.7061,8.4279],[5.6058,8.4656],[5.5552,8.5148],[5.5157,8.5307],[5.4712,8.49],[5.3569,8.3482],[5.3492,8.3153],[5.4214,8.2076],[5.5288,8.1295],[5.536,8.0696],[5.3931,8.0553],[5.3537,7.9743],[5.2944,7.9673],[5.2302,7.9756],[5.164,8.0164],[5.1015,7.998],[5.0641,8.0306],[4.992,8.0263],[4.9622,8.046],[4.9409,8.0804],[4.8993,8.0815],[4.6853,8.0306],[4.5556,8.0341],[4.5223,8.0479],[4.4808,8.1627],[4.4445,8.2211],[4.3955,8.2587],[4.3591,8.311],[4.3253,8.4447],[4.2895,8.4979],[4.201,8.6934],[4.1877,8.7541],[4.2004,8.8148],[4.264,8.8866],[4.2969,8.9058],[4.3313,8.9541],[4.3141,8.9926],[4.265,8.9629],[4.2374,8.9624],[4.0455,9.0207],[3.9631,9.0766],[3.9114,9.157],[3.866,9.1775],[3.818,9.1727],[3.773,9.1403],[3.7477,9.0917],[3.7381,9.0265],[3.6956,8.9892],[3.4901,8.8863],[3.3615,8.8007],[3.2437,8.7477],[3.1837,8.7778],[3.145,8.7689],[2.9193,8.5946],[2.8011,8.5777],[2.7424,8.5275],[2.7232,8.7829],[2.7511,8.8034],[2.7459,8.8365],[2.7625,8.8957],[2.7478,8.9148],[2.7702,8.9672],[2.7692,9.057],[2.8463,9.0508],[2.8884,9.0754],[2.9299,9.0784],[2.9831,9.0606],[3.076,9.0952],[3.1514,9.2886],[3.1326,9.4573],[3.2436,9.5844],[3.2457,9.6337],[3.2991,9.634],[3.3316,9.652],[3.3386,9.6782],[3.3149,9.7591],[3.3259,9.8017],[3.414,9.8428],[3.4529,9.8531],[3.5131,9.8466],[3.5308,9.863],[3.5996,9.9687],[3.6123,10.0703],[3.6549,10.1011],[3.6648,10.1287]]]}},{"type":"Feature","id":"Lagos","properties":{"id":"Lagos","iso_code":"NG-LA","name":"Lagos","name_full":"Lagos","name_ja":"ラゴス州","center_lonlat":[3.9305,6.5231]},"geometry":{"type":"Polygon","coordinates":[[[2.7119,6.474],[2.8359,6.4669],[2.8921,6.5257],[3.1101,6.5162],[3.1688,6.5245],[3.1943,6.5896],[3.2245,6.627],[3.2453,6.6926],[3.2767,6.7047],[3.3456,6.674],[3.3689,6.6447],[3.4045,6.6432],[3.4242,6.6463],[3.448,6.6868],[4.0321,6.69],[4.0918,6.6744],[4.0481,6.6042],[4.0592,6.5673],[4.0876,6.5443],[4.1484,6.5799],[4.1811,6.5867],[4.2096,6.5769],[4.2198,6.5557],[4.2109,6.5348],[4.1533,6.5031],[4.1548,6.4786],[4.2369,6.4336],[4.3448,6.4275],[4.342,6.3706],[4.1258,6.4103],[3.8703,6.4316],[3.4436,6.4103],[3.4212,6.414],[3.3849,6.4445],[3.4129,6.4445],[3.4285,6.4587],[3.4402,6.4234],[3.4754,6.4556],[3.4924,6.4465],[3.5414,6.4548],[3.5706,6.4787],[3.5708,6.5093],[3.7002,6.5271],[3.7427,6.5478],[3.7622,6.5851],[3.8579,6.6022],[3.7737,6.6224],[3.6638,6.5702],[3.5283,6.5278],[3.4785,6.5414],[3.4812,6.6022],[3.4299,6.5578],[3.4024,6.5522],[3.406,6.5128],[3.3698,6.45],[3.3895,6.42],[3.3845,6.3977],[3.2142,6.3967],[3.0824,6.3815],[2.9277,6.3891],[2.7038,6.3684],[2.7119,6.474]]]}},{"type":"Feature","id":"Nasarawa State","properties":{"id":"Nasarawa State","iso_code":"NG-NA","name":"Nasarawa State","name_full":"Nasarawa State","name_ja":"ナサラワ州","center_lonlat":[8.1891,8.5025]},"geometry":{"type":"Polygon","coordinates":[[[9.6155,8.3512],[9.5883,8.3081],[9.5475,8.282],[9.4325,8.2984],[9.36,8.3272],[9.3352,8.317],[9.3039,8.238],[9.3573,8.1714],[9.3696,8.0579],[9.1694,7.9145],[8.9789,8.0555],[8.8326,8.0507],[8.558,8.1334],[8.4262,8.1185],[8.3706,8.0715],[8.3544,8.0012],[8.4248,7.8265],[8.431,7.7914],[8.4182,7.7751],[8.3161,7.831],[8.2934,7.8555],[8.2004,7.8765],[8.1195,7.9141],[8.0353,7.9285],[7.9339,7.9737],[7.666,8.0257],[7.4952,8.0164],[7.2858,8.0281],[7.084,7.9601],[6.9705,7.8822],[6.9384,7.8744],[6.9515,7.9562],[6.9818,8.0158],[6.9973,8.1627],[6.9931,8.2281],[6.9448,8.313],[6.9781,8.4118],[7.2635,8.4714],[7.3921,8.5348],[7.4359,8.5832],[7.4711,8.6392],[7.5143,8.7589],[7.5611,8.9607],[7.5599,9.1206],[7.5829,9.2277],[7.6012,9.2605],[7.6248,9.2716],[7.6258,9.3107],[7.6539,9.3237],[7.6686,9.2976],[7.6926,9.285],[7.7245,9.2875],[7.7491,9.2679],[7.8166,9.2507],[7.8507,9.2657],[7.8895,9.3364],[7.9509,9.3459],[7.9834,9.316],[7.9918,9.2679],[8.0634,9.2188],[8.0741,9.1016],[8.0998,9.005],[8.1792,9.0481],[8.2635,9.1532],[8.386,9.1163],[8.4836,8.9992],[8.5226,9.004],[8.5654,9.0468],[8.6231,9.162],[8.66,9.2048],[8.7666,9.1407],[8.7822,9.0724],[8.8301,9.0239],[8.9639,9.0122],[9.0276,9.0301],[9.0731,8.9897],[9.0532,8.9262],[8.9878,8.847],[8.9508,8.8351],[8.8847,8.7274],[8.9285,8.6453],[8.9298,8.5557],[8.9516,8.5144],[9.0348,8.4709],[9.0958,8.4545],[9.1901,8.4537],[9.3454,8.4885],[9.4077,8.4864],[9.5788,8.4036],[9.6155,8.3512]]]}},{"type":"Feature","id":"Niger State","properties":{"id":"Niger State","iso_code":"NG-NI","name":"Niger State","name_full":"Niger State","name_ja":"ナイジャ州","center_lonlat":[5.5978,9.9414]},"geometry":{"type":"Polygon","coordinates":[[[3.7056,11.1207],[3.8042,11.1176],[4.0052,11.0122],[4.3317,11.0133],[4.4354,11.0285],[4.5368,11.0018],[4.6578,10.9235],[4.7221,10.9042],[4.689,10.6458],[4.6562,10.6072],[4.6547,10.589],[4.5384,10.5242],[4.5006,10.4604],[4.4984,10.3481],[4.5137,10.3135],[4.561,10.2709],[4.5395,10.1244],[4.5637,10.1031],[4.6319,10.0993],[4.6554,10.2011],[4.8406,10.2483],[4.8694,10.2692],[4.8942,10.3347],[4.8637,10.4025],[4.8166,10.4633],[4.8102,10.6067],[4.8271,10.6731],[4.8589,10.6843],[4.9283,10.6749],[5.0662,10.7266],[5.0931,10.7478],[5.0711,10.8132],[5.0303,10.8638],[5.0783,10.9238],[5.0541,11.0334],[5.0136,11.0498],[4.992,11.0747],[4.8985,11.0867],[4.8265,11.1166],[4.763,11.1638],[4.7794,11.2269],[4.9167,11.2876],[5.2123,11.3466],[5.2852,11.3445],[5.3443,11.3093],[5.3581,11.2347],[5.3937,11.1709],[5.4255,11.151],[5.4415,11.1176],[5.437,11.0016],[5.4497,10.9664],[5.4767,10.9572],[5.643,10.9689],[5.816,11.0414],[5.8852,11.0534],[5.9613,11.129],[5.9964,11.1308],[6.0271,11.1112],[6.1464,10.9293],[6.1619,10.8627],[6.1221,10.8316],[6.1137,10.8061],[6.1091,10.6973],[6.1264,10.623],[6.0931,10.4826],[6.0996,10.4491],[6.132,10.4253],[6.1738,10.3612],[6.2081,10.3658],[6.3073,10.4833],[6.4267,10.5736],[6.4976,10.589],[6.5238,10.5715],[6.5367,10.5403],[6.5685,10.5347],[6.6412,10.5677],[6.7177,10.5688],[6.7399,10.5847],[6.7355,10.6239],[6.768,10.6378],[6.8352,10.6231],[6.8499,10.5225],[6.9009,10.5285],[6.956,10.4824],[6.9578,10.4025],[6.9445,10.3668],[6.9659,10.3448],[7.0675,10.2989],[7.0651,10.2646],[6.8921,10.1052],[6.9367,10.0472],[7.0085,10.0171],[7.2308,10.0111],[7.2792,9.9776],[7.2962,9.781],[7.2173,9.741],[7.2375,9.7141],[7.2952,9.686],[7.2872,9.6582],[7.3012,9.6332],[7.3319,9.6179],[7.3381,9.5866],[7.2901,9.5321],[7.2816,9.4921],[7.2269,9.4536],[7.2183,9.4166],[7.2686,9.3559],[7.2552,9.3116],[7.2617,9.2953],[7.3108,9.2974],[7.1639,9.0976],[7.1168,9.1237],[7.0234,9.2138],[6.9631,9.2324],[6.7783,9.2252],[6.754,9.2139],[6.759,8.4722],[6.7894,8.4121],[6.835,8.4068],[6.8216,8.3672],[6.7556,8.3163],[6.7531,8.2776],[6.7389,8.2856],[6.7264,8.2757],[6.6914,8.2069],[6.6229,8.2779],[6.5722,8.3536],[6.4654,8.4317],[6.4426,8.4781],[6.425,8.5642],[6.3705,8.6809],[6.2774,8.7367],[6.2159,8.73],[6.1607,8.7193],[6.1227,8.7505],[6.0924,8.7586],[5.9827,8.7575],[5.9146,8.7354],[5.7905,8.7457],[5.7459,8.8112],[5.6343,8.829],[5.538,8.9294],[5.4662,8.9412],[5.401,8.9895],[5.3195,8.9883],[5.2095,9.0083],[5.1902,9.0302],[5.1843,9.0732],[5.1501,9.1133],[5.0059,9.1966],[4.9792,9.1997],[4.8293,9.1419],[4.7708,9.1487],[4.7525,9.1683],[4.7548,9.2545],[4.7426,9.2749],[4.6486,9.2998],[4.625,9.3247],[4.6144,9.4219],[4.5272,9.4344],[4.4536,9.4254],[4.4207,9.4811],[4.4319,9.6361],[4.4158,9.7034],[4.3816,9.7037],[4.3504,9.7251],[4.0141,10.118],[3.986,10.1414],[3.9176,10.1504],[3.7577,10.1457],[3.6648,10.1287],[3.6646,10.1622],[3.5876,10.2442],[3.5724,10.2857],[3.6182,10.3693],[3.626,10.4073],[3.6521,10.4358],[3.6928,10.4384],[3.7725,10.4076],[3.7943,10.4449],[3.7954,10.4965],[3.8374,10.5999],[3.823,10.7033],[3.7833,10.717],[3.73,10.8077],[3.7541,10.9071],[3.7118,11.0519],[3.7221,11.1123],[3.7056,11.1207]]]}},{"type":"Feature","id":"Ogun State","properties":{"id":"Ogun State","iso_code":"NG-OG","name":"Ogun State","name_full":"Ogun State","name_ja":"オグン州","center_lonlat":[3.4637,7.0002]},"geometry":{"type":"Polygon","coordinates":[[[2.6717,7.8934],[2.7648,7.958],[2.8618,7.9547],[2.8868,7.9078],[2.8922,7.7962],[2.9092,7.7417],[2.9374,7.7376],[2.9616,7.8322],[2.9994,7.8337],[3.0057,7.7454],[2.9698,7.6231],[2.9896,7.5712],[3.064,7.4949],[3.1091,7.4133],[3.1794,7.3498],[3.2339,7.3315],[3.2902,7.3334],[3.33,7.3678],[3.3707,7.4669],[3.412,7.4948],[3.4488,7.4675],[3.4659,7.4187],[3.4952,7.4021],[3.5543,7.4312],[3.6543,7.4287],[3.6883,7.3798],[3.6906,7.3069],[3.7488,7.27],[3.7762,7.1437],[3.7121,7.0471],[3.8958,7.0597],[4.0173,7.1052],[4.0771,7.1124],[4.1479,7.1462],[4.1769,7.0589],[4.2173,7.0637],[4.2552,7.0878],[4.3016,7.0897],[4.3345,7.0619],[4.3641,6.9805],[4.3926,6.9791],[4.4278,6.9985],[4.4704,6.9912],[4.5455,7.0074],[4.5611,6.9883],[4.5385,6.8573],[4.3795,6.7138],[4.3552,6.6477],[4.3696,6.5917],[4.4146,6.572],[4.4831,6.5674],[4.5671,6.6288],[4.586,6.6031],[4.5923,6.4718],[4.5146,6.4171],[4.466,6.4064],[4.4831,6.3863],[4.513,6.3865],[4.5686,6.3627],[4.5702,6.3358],[4.5544,6.3168],[4.493,6.3205],[4.4055,6.3589],[4.342,6.3706],[4.3448,6.4275],[4.2369,6.4336],[4.1548,6.4786],[4.1533,6.5031],[4.2109,6.5348],[4.2198,6.5557],[4.2096,6.5769],[4.1811,6.5867],[4.1484,6.5799],[4.0876,6.5443],[4.0592,6.5673],[4.0481,6.6042],[4.0918,6.6744],[4.0321,6.69],[3.448,6.6868],[3.4242,6.6463],[3.4045,6.6432],[3.3689,6.6447],[3.3456,6.674],[3.2767,6.7047],[3.2453,6.6926],[3.2245,6.627],[3.1943,6.5896],[3.1688,6.5245],[3.1101,6.5162],[2.8921,6.5257],[2.8359,6.4669],[2.7119,6.474],[2.7373,6.558],[2.7311,6.6418],[2.7786,6.6988],[2.7733,6.755],[2.7363,6.7698],[2.7236,6.7997],[2.7369,6.8633],[2.7151,6.9798],[2.7411,7.0158],[2.7797,7.0413],[2.7353,7.096],[2.7621,7.1622],[2.7412,7.4082],[2.7513,7.4236],[2.7865,7.4213],[2.7923,7.4776],[2.7206,7.5866],[2.7272,7.7933],[2.6717,7.8934]]]}},{"type":"Feature","id":"Ondo State","properties":{"id":"Ondo State","iso_code":"NG-ON","name":"Ondo State","name_full":"Ondo State","name_ja":"オンド州","center_lonlat":[5.1603,6.911]},"geometry":{"type":"Polygon","coordinates":[[[5.003,5.8548],[4.8859,6.0065],[4.8262,6.0425],[4.7478,6.1389],[4.493,6.3205],[4.5544,6.3168],[4.5702,6.3358],[4.5686,6.3627],[4.513,6.3865],[4.4831,6.3863],[4.466,6.4064],[4.5146,6.4171],[4.5923,6.4718],[4.586,6.6031],[4.5671,6.6288],[4.4831,6.5674],[4.4146,6.572],[4.3696,6.5917],[4.3552,6.6477],[4.3795,6.7138],[4.5385,6.8573],[4.5611,6.9883],[4.5998,7.0083],[4.6501,7.1017],[4.6926,7.1355],[4.7321,7.1465],[4.8323,7.0925],[4.8693,7.0982],[4.8723,7.2447],[4.8982,7.3391],[4.9907,7.3748],[4.9915,7.4148],[5.0993,7.439],[5.2799,7.4353],[5.3306,7.4199],[5.3761,7.3019],[5.4325,7.2801],[5.5378,7.3685],[5.5926,7.4957],[5.6237,7.6197],[5.6934,7.6811],[5.7154,7.716],[5.7414,7.7302],[5.7689,7.7181],[5.7937,7.7276],[5.8114,7.7561],[5.8921,7.7704],[5.9224,7.7569],[5.9158,7.7179],[6.0284,7.5734],[5.9873,7.5157],[5.9346,7.4922],[5.9251,7.4573],[5.9548,7.4378],[5.96,7.4205],[5.9488,7.399],[5.962,7.3317],[5.9527,7.299],[5.8766,7.2281],[5.8783,7.2048],[5.8267,7.0761],[5.7861,7.031],[5.7713,6.9598],[5.7891,6.9174],[5.7766,6.8838],[5.7539,6.8784],[5.7136,6.7521],[5.6858,6.739],[5.6126,6.7599],[5.5632,6.7204],[5.541,6.7171],[5.5147,6.7827],[5.5415,6.8361],[5.4956,6.8723],[5.2156,6.8724],[5.1871,6.8514],[5.1872,6.8262],[5.1579,6.7774],[5.0912,6.7053],[5.0725,6.6064],[5.1032,6.5667],[5.1208,6.5141],[5.0597,6.3824],[5.0122,6.3616],[4.9793,6.2844],[5.0295,6.2424],[5.0526,6.2042],[5.0971,6.1869],[5.1156,6.1583],[5.1152,6.1269],[5.003,5.8548]]]}},{"type":"Feature","id":"Osun State","properties":{"id":"Osun State","iso_code":"NG-OS","name":"Osun State","name_full":"Osun State","name_ja":"オスン州","center_lonlat":[4.5351,7.5335]},"geometry":{"type":"Polygon","coordinates":[[[4.0771,7.1124],[4.1455,7.4744],[4.1043,7.5575],[4.0341,7.6251],[4.0864,7.8477],[4.1539,7.8299],[4.2051,7.8665],[4.2041,7.889],[4.2635,7.954],[4.3224,7.9176],[4.359,7.8587],[4.3999,7.8506],[4.4692,7.9147],[4.5474,7.9472],[4.561,7.9659],[4.5556,8.0341],[4.6853,8.0306],[4.8993,8.0815],[4.9409,8.0804],[4.9622,8.046],[4.992,8.0263],[5.0641,8.0306],[5.0414,7.9493],[4.9723,7.9038],[4.9261,7.8431],[4.9072,7.679],[4.9124,7.6272],[4.9915,7.4148],[4.9907,7.3748],[4.8982,7.3391],[4.8723,7.2447],[4.8693,7.0982],[4.8323,7.0925],[4.7321,7.1465],[4.6926,7.1355],[4.6501,7.1017],[4.5998,7.0083],[4.5611,6.9883],[4.5455,7.0074],[4.4704,6.9912],[4.4278,6.9985],[4.3926,6.9791],[4.3641,6.9805],[4.3345,7.0619],[4.3016,7.0897],[4.2552,7.0878],[4.2173,7.0637],[4.1769,7.0589],[4.1479,7.1462],[4.0771,7.1124]]]}},{"type":"Feature","id":"Oyo State","properties":{"id":"Oyo State","iso_code":"NG-OY","name":"Oyo State","name_full":"Oyo State","name_ja":"オヨ州","center_lonlat":[3.6152,8.1444]},"geometry":{"type":"Polygon","coordinates":[[[2.6717,7.8934],[2.6871,7.9335],[2.7084,8.138],[2.7344,8.19],[2.6971,8.3207],[2.7037,8.4179],[2.7369,8.4645],[2.7424,8.5275],[2.8011,8.5777],[2.9193,8.5946],[3.145,8.7689],[3.1837,8.7778],[3.2437,8.7477],[3.3615,8.8007],[3.4901,8.8863],[3.6956,8.9892],[3.7381,9.0265],[3.7477,9.0917],[3.773,9.1403],[3.818,9.1727],[3.866,9.1775],[3.9114,9.157],[3.9631,9.0766],[4.0455,9.0207],[4.2374,8.9624],[4.265,8.9629],[4.3141,8.9926],[4.3313,8.9541],[4.2969,8.9058],[4.264,8.8866],[4.2004,8.8148],[4.1877,8.7541],[4.201,8.6934],[4.2895,8.4979],[4.3253,8.4447],[4.3591,8.311],[4.3955,8.2587],[4.4445,8.2211],[4.4808,8.1627],[4.5223,8.0479],[4.5556,8.0341],[4.561,7.9659],[4.5474,7.9472],[4.4692,7.9147],[4.3999,7.8506],[4.359,7.8587],[4.3224,7.9176],[4.2635,7.954],[4.2041,7.889],[4.2051,7.8665],[4.1539,7.8299],[4.0864,7.8477],[4.0341,7.6251],[4.1043,7.5575],[4.1455,7.4744],[4.0771,7.1124],[4.0173,7.1052],[3.8958,7.0597],[3.7121,7.0471],[3.7762,7.1437],[3.7488,7.27],[3.6906,7.3069],[3.6883,7.3798],[3.6543,7.4287],[3.5543,7.4312],[3.4952,7.4021],[3.4659,7.4187],[3.4488,7.4675],[3.412,7.4948],[3.3707,7.4669],[3.33,7.3678],[3.2902,7.3334],[3.2339,7.3315],[3.1794,7.3498],[3.1091,7.4133],[3.064,7.4949],[2.9896,7.5712],[2.9698,7.6231],[3.0057,7.7454],[2.9994,7.8337],[2.9616,7.8322],[2.9374,7.7376],[2.9092,7.7417],[2.8922,7.7962],[2.8868,7.9078],[2.8618,7.9547],[2.7648,7.958],[2.6717,7.8934]]]}},{"type":"Feature","id":"Plateau State","properties":{"id":"Plateau State","iso_code":"NG-PL","name":"Plateau State","name_full":"Plateau State","name_ja":"プラトー州","center_lonlat":[9.5475,9.2097]},"geometry":{"type":"Polygon","coordinates":[[[10.5604,9.4967],[10.582,9.4484],[10.5923,9.257],[10.646,9.1051],[10.639,9.045],[10.653,8.9446],[10.6185,8.8801],[10.4603,8.8028],[10.2289,8.7467],[10.1054,8.5915],[9.9403,8.4809],[9.8175,8.3731],[9.7451,8.3529],[9.6155,8.3512],[9.5788,8.4036],[9.4077,8.4864],[9.3454,8.4885],[9.1901,8.4537],[9.0958,8.4545],[9.0348,8.4709],[8.9516,8.5144],[8.9298,8.5557],[8.9285,8.6453],[8.8847,8.7274],[8.9508,8.8351],[8.9878,8.847],[9.0532,8.9262],[9.0731,8.9897],[9.0276,9.0301],[8.9639,9.0122],[8.8301,9.0239],[8.7822,9.0724],[8.7666,9.1407],[8.66,9.2048],[8.6806,9.2619],[8.685,9.3228],[8.5593,9.4845],[8.559,9.6268],[8.5875,9.6473],[8.59,9.6823],[8.6315,9.7387],[8.6283,9.8877],[8.6678,10.0192],[8.6419,10.0948],[8.6601,10.1692],[8.7712,10.2731],[8.785,10.3356],[8.8425,10.3454],[8.9011,10.3301],[8.9368,10.2868],[8.9618,10.1827],[8.9605,10.0231],[8.9973,9.9986],[9.1133,10.0188],[9.1772,9.996],[9.1989,9.9275],[9.203,9.8457],[9.1597,9.7289],[9.1837,9.705],[9.22,9.6939],[9.2991,9.5822],[9.5024,9.5366],[9.6608,9.5446],[9.7354,9.5672],[9.7652,9.6287],[9.8561,9.6754],[9.8655,9.7081],[9.8134,9.7978],[9.8264,9.8209],[9.8723,9.8371],[10.3624,9.6119],[10.5604,9.4967]]]}},{"type":"Feature","id":"Rivers State","properties":{"id":"Rivers State","iso_code":"NG-RI","name":"Rivers State","name_full":"Rivers State","name_ja":"リバーズ州","center_lonlat":[6.894,4.8985]},"geometry":{"type":"MultiPolygon","coordinates":[[[[7.5335,4.7027],[7.5174,4.6799],[7.5142,4.6259],[7.5311,4.6011],[7.502,4.5727],[7.4792,4.5652],[7.4627,4.5738],[7.4541,4.5532],[7.4324,4.5554],[7.3467,4.5803],[7.312,4.6079],[7.281,4.6011],[7.2637,4.58],[7.2774,4.5664],[7.2712,4.56],[7.3333,4.5294],[7.3257,4.5117],[7.281,4.5049],[7.1904,4.6116],[7.1789,4.6688],[7.1331,4.6632],[7.0991,4.6973],[7.0718,4.7581],[7.0604,4.7207],[7.0786,4.711],[7.0979,4.6618],[7.1472,4.64],[7.1697,4.6059],[7.1734,4.5729],[7.1475,4.56],[7.1846,4.519],[7.1506,4.4706],[7.1128,4.4714],[7.1128,4.4509],[7.0806,4.4704],[7.0786,4.5049],[7.0627,4.4763],[7.0786,4.4434],[7.044,4.4366],[7.0022,4.5799],[7.0178,4.5956],[7.0233,4.6489],[7.044,4.6426],[7.0036,4.7178],[6.9785,4.6924],[6.9627,4.7309],[6.9558,4.6837],[6.9893,4.6079],[6.9627,4.6216],[6.949,4.6147],[6.9006,4.6837],[6.9026,4.6669],[6.9336,4.6125],[6.9212,4.5852],[6.9285,4.5738],[6.957,4.5941],[6.9831,4.5769],[6.9756,4.4844],[7.0221,4.3885],[7.0066,4.3746],[6.9031,4.3966],[6.8801,4.3882],[6.8609,4.4157],[6.8664,4.4509],[6.8338,4.4859],[6.8186,4.5427],[6.8442,4.5975],[6.8455,4.6286],[6.8032,4.6498],[6.7702,4.7451],[6.7853,4.817],[6.7639,4.8065],[6.7497,4.8345],[6.7156,4.8345],[6.7268,4.7851],[6.7556,4.7539],[6.7722,4.663],[6.8255,4.6011],[6.7962,4.5597],[6.8376,4.3929],[6.8708,4.3608],[6.8146,4.3416],[6.7376,4.3422],[6.7156,4.3547],[6.7224,4.44],[6.7088,4.4571],[6.7088,4.4919],[6.7349,4.5678],[6.7361,4.6079],[6.7226,4.5914],[6.6505,4.6434],[6.6271,4.7124],[6.5652,4.7513],[6.4514,4.7176],[6.4458,4.7669],[6.4087,4.7871],[6.3858,4.8174],[6.3973,4.8922],[6.448,4.9778],[6.4275,5.0188],[6.4321,5.0644],[6.4446,5.0945],[6.4625,5.1035],[6.49,5.2023],[6.5362,5.2407],[6.5827,5.3095],[6.62,5.3341],[6.5856,5.3845],[6.4931,5.393],[6.4747,5.4385],[6.5469,5.501],[6.6057,5.7232],[6.6358,5.6966],[6.6688,5.6943],[6.6262,5.502],[6.6327,5.4799],[6.7046,5.4863],[6.7459,5.4431],[6.7244,5.3051],[6.7648,5.2633],[6.8702,5.1949],[7.0112,5.1852],[7.1371,5.1977],[7.1899,5.1825],[7.2515,5.1947],[7.2714,5.1579],[7.2662,5.1094],[7.1633,4.9514],[7.1765,4.8737],[7.2172,4.8612],[7.3383,4.8786],[7.4294,4.8621],[7.4963,4.8174],[7.5261,4.7642],[7.5335,4.7027]]],[[[7.2742,4.4919],[7.3325,4.4919],[7.2984,4.4147],[7.1817,4.382],[7.1477,4.3851],[7.138,4.397],[7.2295,4.5328],[7.2742,4.4919]]],[[[7.541,4.4844],[7.5845,4.4846],[7.57,4.4594],[7.4318,4.4348],[7.3582,4.4393],[7.3369,4.4601],[7.3462,4.4782],[7.4046,4.498],[7.4696,4.4714],[7.541,4.4844]]]]}},{"type":"Feature","id":"Sokoto State","properties":{"id":"Sokoto State","iso_code":"NG-SO","name":"Sokoto State","name_full":"Sokoto State","name_ja":"ソコト州","center_lonlat":[5.3132,13.0297]},"geometry":{"type":"Polygon","coordinates":[[[6.7539,13.1749],[6.6259,13.0923],[6.5285,13.0922],[6.4311,13.1156],[6.3811,13.1557],[6.294,13.1628],[6.2793,13.1504],[6.2621,13.0577],[6.237,13.0512],[6.198,13.0662],[6.1252,13.0572],[6.0621,13.0223],[6.0507,12.9944],[6.0683,12.8232],[6.0386,12.7689],[5.9655,12.7431],[5.7402,12.7218],[5.6897,12.6826],[5.5999,12.5589],[5.5527,12.5274],[5.5467,12.4617],[5.5668,12.3879],[5.5708,12.3097],[5.5208,12.2579],[5.2152,12.2455],[5.0681,12.2693],[5.0312,12.1494],[5.0235,11.6806],[4.9821,11.6663],[4.9562,11.6914],[4.8751,11.6923],[4.685,11.6077],[4.65,11.5651],[4.6064,11.5383],[4.5615,11.5528],[4.5294,11.589],[4.5375,11.6843],[4.5818,11.7783],[4.6157,11.9341],[4.6091,12.3185],[4.6449,12.381],[4.7164,12.3985],[4.7846,12.3768],[4.8295,12.3994],[4.8332,12.4748],[4.8031,12.6356],[4.8259,12.7826],[4.7699,12.9014],[4.8184,13.1065],[4.8008,13.128],[4.7749,13.1197],[4.741,13.0695],[4.71,13.0514],[4.672,13.0545],[4.6029,13.0939],[4.4638,13.1398],[4.3409,13.2281],[4.27,13.2042],[4.1203,13.2106],[4.1258,13.473],[4.1905,13.475],[4.2485,13.4941],[4.4526,13.6738],[4.8569,13.7741],[4.9251,13.7331],[5.262,13.7477],[5.3042,13.7739],[5.3463,13.8416],[5.5218,13.8803],[6.1424,13.6408],[6.2298,13.6792],[6.3022,13.6638],[6.3689,13.6263],[6.6725,13.3212],[6.7539,13.1749]]]}},{"type":"Feature","id":"Taraba State","properties":{"id":"Taraba State","iso_code":"NG-TA","name":"Taraba State","name_full":"Taraba State","name_ja":"タラバ州","center_lonlat":[10.8266,8.0275]},"geometry":{"type":"Polygon","coordinates":[[[11.9035,7.4536],[11.7366,7.2633],[11.7802,7.2411],[11.8689,7.1271],[11.8813,7.102],[11.8722,7.0794],[11.834,7.083],[11.8089,7.0719],[11.7515,7.024],[11.7411,6.9975],[11.6925,6.9916],[11.6811,6.9686],[11.5618,6.8761],[11.5381,6.8239],[11.5666,6.7842],[11.5689,6.7391],[11.5334,6.6451],[11.5098,6.6123],[11.4431,6.5933],[11.4168,6.572],[11.3894,6.4739],[11.3442,6.4431],[11.2759,6.4442],[11.2555,6.43],[11.2317,6.4398],[11.1135,6.434],[11.0774,6.4967],[11.0606,6.574],[11.0559,6.7004],[11.0367,6.7405],[11.0026,6.7673],[10.9094,6.7843],[10.8775,6.8161],[10.8319,6.9452],[10.6206,7.0438],[10.6025,7.0581],[10.5972,7.1073],[10.5787,7.1308],[10.5518,7.0663],[10.5374,6.9521],[10.5007,6.9128],[10.496,6.8747],[10.2108,6.8792],[10.1794,6.9149],[10.165,6.9885],[10.1429,7.0077],[9.8746,6.7877],[9.8512,6.7779],[9.7885,6.7948],[9.7698,6.7737],[9.693,6.5313],[9.6448,6.5212],[9.6684,6.6185],[9.6767,6.85],[9.7096,7.0241],[9.7803,7.1325],[9.8747,7.209],[9.8814,7.3266],[9.921,7.4464],[9.8766,7.5625],[9.7742,7.6532],[9.6847,7.7644],[9.5712,7.8423],[9.4184,7.8597],[9.2648,7.8554],[9.1261,7.8106],[9.1141,7.833],[9.1694,7.9145],[9.3696,8.0579],[9.3573,8.1714],[9.3039,8.238],[9.3352,8.317],[9.36,8.3272],[9.4325,8.2984],[9.5475,8.282],[9.5883,8.3081],[9.6155,8.3512],[9.7451,8.3529],[9.8175,8.3731],[9.9403,8.4809],[10.1054,8.5915],[10.2289,8.7467],[10.4603,8.8028],[10.6185,8.8801],[10.653,8.9446],[10.639,9.045],[10.646,9.1051],[10.5923,9.257],[10.582,9.4484],[10.5604,9.4967],[10.6141,9.5306],[10.7408,9.5345],[10.8643,9.5917],[10.9303,9.6026],[10.9992,9.5863],[11.0686,9.5864],[11.1749,9.5777],[11.5259,9.592],[11.6184,9.4202],[11.6428,9.3974],[11.7095,9.3815],[11.7673,9.3301],[11.8301,9.1977],[11.8258,9.1278],[11.8606,9.0696],[11.9236,9.0393],[11.9654,8.9882],[11.9715,8.919],[11.871,8.7127],[11.8593,8.5739],[11.7922,8.5194],[11.5338,8.2115],[11.4684,8.1536],[11.4135,8.0896],[11.4043,8.0584],[11.4478,7.9515],[11.5152,7.8522],[11.5479,7.849],[11.6158,7.9293],[11.6477,7.9436],[11.683,7.9276],[11.805,7.8064],[11.8532,7.6916],[11.8657,7.5581],[11.9035,7.4536]]]}},{"type":"Feature","id":"Yobe State","properties":{"id":"Yobe State","iso_code":"NG-YO","name":"Yobe State","name_full":"Yobe State","name_ja":"ヨベ州","center_lonlat":[11.4324,12.3023]},"geometry":{"type":"Polygon","coordinates":[[[12.3867,13.0786],[12.3629,12.8853],[12.3809,12.8219],[12.479,12.7342],[12.4875,12.6728],[12.4624,12.6119],[12.4185,12.5518],[12.3083,12.4496],[12.3289,12.2999],[12.2828,11.9635],[12.3065,11.8637],[12.3011,11.8197],[12.2412,11.7023],[12.2357,11.6632],[12.3363,11.6467],[12.3838,11.5785],[12.3883,11.542],[12.1975,11.2843],[12.1972,11.1157],[12.1667,11.0471],[12.1044,11.0008],[11.8685,10.9191],[11.8118,10.8577],[11.7938,10.6592],[11.7398,10.6049],[11.701,10.5942],[11.593,10.5972],[11.5774,10.6987],[11.5837,10.9623],[11.354,11.2159],[11.2902,11.2648],[11.1528,11.3308],[11.0142,11.2947],[10.9657,11.3021],[10.9393,11.3361],[10.974,11.4906],[10.9681,11.5753],[10.8479,11.867],[10.8177,12.0268],[10.8104,12.1397],[10.7702,12.2101],[10.7484,12.3643],[10.7352,12.4023],[10.6095,12.5024],[10.5882,12.5675],[10.5699,12.7087],[10.5394,12.7729],[10.5116,12.7934],[10.4406,12.8004],[10.4047,12.8171],[10.3059,12.8013],[10.2627,12.8077],[10.2269,12.9328],[10.2011,12.9715],[10.1593,12.9839],[10.1146,12.9727],[9.9025,12.8946],[9.8573,12.8298],[9.7699,12.7925],[9.6477,12.8305],[9.8193,13.0292],[9.8997,13.0843],[9.9124,13.1292],[9.9301,13.146],[10.1198,13.2501],[10.675,13.3751],[10.7713,13.3827],[10.953,13.3619],[11.44,13.3644],[11.7423,13.2894],[11.8528,13.2454],[12.0576,13.1168],[12.1164,13.1028],[12.2014,13.1254],[12.2632,13.1019],[12.2692,13.0859],[12.301,13.0981],[12.3257,13.0788],[12.3867,13.0786]]]}},{"type":"Feature","id":"Zamfara State","properties":{"id":"Zamfara State","iso_code":"NG-ZA","name":"Zamfara State","name_full":"Zamfara State","name_ja":"ザムファラ州","center_lonlat":[6.2586,12.0915]},"geometry":{"type":"Polygon","coordinates":[[[6.7539,13.1749],[6.8379,13.0635],[6.9066,13.0069],[6.9705,12.9918],[7.0629,12.9951],[7.0463,12.8903],[7.0779,12.4785],[7.0993,12.4276],[7.0944,12.3677],[7.1218,12.3149],[7.1575,12.154],[7.113,12.0384],[7.222,11.9545],[7.2332,11.8952],[7.2034,11.8841],[7.1718,11.8923],[7.1537,11.8751],[7.1485,11.8425],[7.0663,11.7792],[7.0457,11.7929],[6.9714,11.7929],[6.9134,11.7663],[6.8754,11.5872],[6.9099,11.5258],[6.9066,11.4573],[6.8818,11.3661],[6.8454,11.3169],[6.7545,11.248],[6.7246,11.1277],[6.6864,11.0763],[6.576,11.0294],[6.4741,11.0095],[6.3638,11.0375],[6.3228,11.0322],[6.2803,10.965],[6.2359,10.9432],[6.2224,10.8912],[6.1619,10.8627],[6.1464,10.9293],[6.0271,11.1112],[6.0182,11.2642],[5.9416,11.384],[5.9021,11.3994],[5.8832,11.4298],[5.9082,11.5049],[5.9133,11.5731],[5.8663,11.6182],[5.7543,11.6434],[5.7222,11.6308],[5.5698,11.6205],[5.4238,11.6698],[5.3853,11.7184],[5.3286,11.7099],[5.2615,11.7199],[5.2363,11.6791],[5.1425,11.6548],[5.0645,11.688],[5.0235,11.6806],[5.0312,12.1494],[5.0681,12.2693],[5.2152,12.2455],[5.5208,12.2579],[5.5708,12.3097],[5.5668,12.3879],[5.5467,12.4617],[5.5527,12.5274],[5.5999,12.5589],[5.6897,12.6826],[5.7402,12.7218],[5.9655,12.7431],[6.0386,12.7689],[6.0683,12.8232],[6.0507,12.9944],[6.0621,13.0223],[6.1252,13.0572],[6.198,13.0662],[6.237,13.0512],[6.2621,13.0577],[6.2793,13.1504],[6.294,13.1628],[6.3811,13.1557],[6.4311,13.1156],[6.5285,13.0922],[6.6259,13.0923],[6.7539,13.1749]]]}}]}
