{"type":"FeatureCollection","features":[{"type":"Feature","id":"Chagang","properties":{"id":"Chagang","iso_code":"KP-04","name":"Chagang","name_full":"Chagang","name_ja":"慈江道","center_lonlat":[126.4818,40.7642]},"geometry":{"type":"Polygon","coordinates":[[[126.9996,41.752],[126.9628,41.694],[126.957,41.6398],[126.9687,41.5959],[126.9596,41.5725],[126.9115,41.5484],[126.8855,41.515],[126.8259,41.5127],[126.812,41.4894],[126.8207,41.4581],[126.846,41.4359],[126.9291,41.4477],[126.9323,41.4319],[126.9158,41.4141],[126.944,41.3687],[126.9558,41.3171],[126.9999,41.2767],[127.001,41.2385],[127.0235,41.2171],[127.0459,41.1577],[127.0645,41.145],[127.1222,41.1161],[127.2183,41.1033],[127.2977,41.1678],[127.3556,41.1756],[127.3861,41.145],[127.3917,41.0713],[127.3871,41.0341],[127.323,40.9679],[127.2988,40.9055],[127.3039,40.8708],[127.3759,40.8229],[127.3724,40.7892],[127.3415,40.7637],[127.2204,40.7181],[127.1992,40.6951],[127.1843,40.6364],[127.1659,40.6137],[127.0906,40.6003],[126.9923,40.548],[126.9798,40.5311],[126.9851,40.4661],[126.924,40.4015],[126.912,40.3347],[126.8873,40.2949],[126.8222,40.2431],[126.8005,40.2006],[126.7454,40.1878],[126.7013,40.1524],[126.5899,40.1037],[126.5705,40.089],[126.5463,40.0358],[126.4976,40.0274],[126.4259,39.9911],[126.3601,40.0175],[126.2096,40.0445],[126.1443,40.0736],[125.9689,40.2196],[125.8964,40.2384],[125.807,40.2236],[125.6572,40.3017],[125.6176,40.332],[125.6286,40.3697],[125.5771,40.4185],[125.6122,40.5139],[125.5909,40.5707],[125.5416,40.5741],[125.494,40.6166],[125.4152,40.6527],[125.4263,40.6712],[125.453,40.6734],[125.4788,40.7188],[125.5465,40.7259],[125.5601,40.7783],[125.5717,40.7849],[125.6099,40.7613],[125.6826,40.7689],[125.6448,40.8106],[125.6832,40.8479],[125.7459,40.8682],[125.7609,40.8857],[125.822,40.8698],[125.8852,40.8975],[125.9362,40.8774],[126.0078,40.8993],[126.01,40.9139],[125.9806,40.9136],[125.992,40.9284],[126.0455,40.9447],[126.0756,40.9971],[126.1041,41.0092],[126.1013,41.0221],[126.1382,41.057],[126.1238,41.0755],[126.2748,41.1526],[126.3095,41.2078],[126.4409,41.3484],[126.4725,41.3665],[126.5013,41.3661],[126.4877,41.3444],[126.5221,41.3519],[126.5013,41.4344],[126.5773,41.5618],[126.567,41.6142],[126.6179,41.6659],[126.6693,41.6671],[126.728,41.7013],[126.6795,41.736],[126.7273,41.7369],[126.7886,41.6959],[126.8089,41.7298],[126.8648,41.7473],[126.8871,41.7849],[126.9298,41.801],[126.9461,41.7662],[126.9996,41.752]]]}},{"type":"Feature","id":"Kangwon","properties":{"id":"Kangwon","iso_code":"KP-07","name":"Kangwon","name_full":"Kangwon","name_ja":"江原道","center_lonlat":[127.4623,38.717]},"geometry":{"type":"Polygon","coordinates":[[[126.9401,38.1742],[126.9218,38.1993],[126.8902,38.2076],[126.8734,38.2263],[126.8822,38.2685],[126.8676,38.2938],[126.8843,38.3348],[126.8397,38.3291],[126.7893,38.3552],[126.7069,38.4788],[126.7004,38.5133],[126.7117,38.5697],[126.6779,38.6176],[126.6943,38.6403],[126.7599,38.6575],[126.8001,38.6857],[126.8669,38.7773],[126.8819,38.8892],[126.9059,38.9039],[126.9716,38.9111],[127.0002,38.9352],[127.0192,38.9774],[126.9862,39.0323],[126.9817,39.0691],[127.0137,39.1336],[127.0634,39.1605],[127.0252,39.2044],[127.0394,39.2191],[127.0317,39.2664],[127.0858,39.2888],[127.1095,39.3834],[127.1387,39.408],[127.4381,39.4052],[127.3784,39.3789],[127.4255,39.3571],[127.4675,39.3638],[127.4734,39.3476],[127.4255,39.3305],[127.3919,39.3419],[127.3983,39.3237],[127.372,39.2404],[127.3934,39.2017],[127.4522,39.166],[127.4719,39.1683],[127.4734,39.1933],[127.4913,39.1949],[127.5117,39.1564],[127.5317,39.1461],[127.6069,39.152],[127.6756,39.1181],[127.7593,39.117],[127.8887,38.9614],[127.9143,38.9642],[127.9263,38.9345],[127.9618,38.9179],[128.0147,38.8581],[128.0912,38.8437],[128.2102,38.7277],[128.2828,38.7551],[128.3596,38.6787],[128.3649,38.6243],[128.2811,38.5844],[128.2811,38.4844],[128.2487,38.4258],[128.1724,38.356],[128.1085,38.3235],[128.0399,38.3043],[127.8669,38.3048],[127.8008,38.2939],[127.7537,38.3254],[127.4719,38.2959],[127.3771,38.3185],[127.1575,38.3072],[127.0267,38.2545],[126.9719,38.2189],[126.9401,38.1742]]]}},{"type":"Feature","id":"North Hamgyong","properties":{"id":"North Hamgyong","iso_code":"KP-09","name":"North Hamgyong","name_full":"North Hamgyong","name_ja":"咸鏡北道","center_lonlat":[129.5047,41.795]},"geometry":{"type":"Polygon","coordinates":[[[130.4522,42.5496],[130.433,42.4527],[130.2618,42.4177],[130.2579,42.3904],[130.2812,42.371],[130.2735,42.3321],[130.219,42.2815],[130.1917,42.2348],[130.2023,42.1736],[130.1993,42.1013],[130.1739,42.0988],[130.1594,42.0728],[130.1201,42.0901],[130.073,42.0785],[130.0339,41.9955],[130.0149,42.0144],[129.9822,41.9827],[130.0027,41.9622],[129.9749,41.9416],[129.9647,41.8987],[129.9544,41.892],[129.9136,41.9112],[129.8967,41.9043],[129.8845,41.8242],[129.8525,41.7649],[129.8428,41.7588],[129.8133,41.7777],[129.7748,41.7594],[129.7414,41.684],[129.6908,41.6497],[129.6694,41.576],[129.6488,41.5494],[129.6607,41.5259],[129.6594,41.4646],[129.7146,41.4196],[129.7361,41.4213],[129.7582,41.3926],[129.8062,41.376],[129.7591,41.2929],[129.7119,41.1226],[129.7283,41.0851],[129.7198,41.0562],[129.7283,40.9787],[129.7649,40.9444],[129.7343,40.8911],[129.7252,40.8478],[129.7166,40.8346],[129.6984,40.8456],[129.5718,40.8397],[129.5539,40.8289],[129.5511,40.8101],[129.5181,40.7955],[129.427,40.7813],[129.3517,40.7453],[129.3032,40.6737],[129.2701,40.708],[129.2335,40.7057],[129.2064,40.6755],[129.1746,40.6037],[129.1726,40.5689],[129.1606,40.5646],[129.0734,40.5789],[129.0622,40.5922],[129.0622,40.638],[128.9882,40.6931],[128.9696,40.762],[128.9245,40.8154],[128.9199,40.8468],[128.9392,40.8749],[128.9169,40.924],[128.9556,40.9882],[128.9478,41.0407],[128.9233,41.0883],[128.9367,41.1152],[128.9054,41.1978],[128.9386,41.254],[128.8513,41.3553],[128.8284,41.4203],[128.8394,41.4527],[128.9147,41.5172],[128.9136,41.545],[128.8735,41.5979],[128.7807,41.6214],[128.7757,41.633],[128.8021,41.6662],[128.7772,41.7214],[128.7832,41.8065],[128.7337,41.8108],[128.7049,41.919],[128.7586,41.9148],[128.8059,41.9651],[128.8685,42.0],[128.8832,42.0304],[128.9401,42.0354],[128.9638,42.0885],[129.0266,42.1019],[129.0635,42.1361],[129.0647,42.1538],[129.0885,42.1432],[129.1198,42.1494],[129.2112,42.22],[129.2093,42.2347],[129.1808,42.2431],[129.228,42.2977],[129.1939,42.3182],[129.2363,42.3239],[129.2423,42.3387],[129.228,42.3592],[129.2361,42.3744],[129.3038,42.3896],[129.3265,42.4268],[129.3379,42.4144],[129.3521,42.4206],[129.3401,42.4455],[129.3862,42.4281],[129.4341,42.4411],[129.5352,42.3696],[129.5542,42.3769],[129.5632,42.4041],[129.5877,42.4114],[129.5917,42.448],[129.7033,42.4424],[129.7289,42.4759],[129.7365,42.5852],[129.7631,42.6062],[129.7416,42.629],[129.7767,42.6472],[129.7723,42.6617],[129.7876,42.6769],[129.7576,42.7036],[129.7613,42.746],[129.8467,42.9282],[129.8517,42.9619],[129.907,42.9761],[129.8798,42.996],[129.9092,43.0084],[129.9341,43.0084],[129.9957,42.9619],[130.0473,42.9619],[130.1215,42.9818],[130.1305,42.9595],[130.0988,42.9215],[130.1404,42.9071],[130.239,42.9022],[130.2565,42.8669],[130.243,42.7434],[130.2627,42.7086],[130.3248,42.6503],[130.393,42.6062],[130.4277,42.5994],[130.4312,42.5615],[130.4522,42.5496]]]}},{"type":"Feature","id":"North Hwanghae","properties":{"id":"North Hwanghae","iso_code":"KP-06","name":"North Hwanghae","name_full":"North Hwanghae","name_ja":"黄海北道","center_lonlat":[126.3683,38.5155]},"geometry":{"type":"Polygon","coordinates":[[[126.9401,38.1742],[126.9198,38.1346],[126.8473,38.082],[126.7619,37.979],[126.6658,37.9376],[126.6675,37.8278],[126.6516,37.7993],[126.5762,37.7775],[126.4366,37.8484],[126.4016,37.889],[126.411,37.9076],[126.3909,37.9382],[126.398,38.039],[126.3748,38.1115],[126.4113,38.1475],[126.4331,38.1194],[126.4394,38.1371],[126.4058,38.19],[126.3081,38.2313],[126.2498,38.2403],[126.201,38.2311],[126.1576,38.2046],[126.1198,38.2053],[126.0901,38.1852],[126.0382,38.1901],[125.962,38.1696],[125.9276,38.1766],[125.9042,38.2399],[125.8633,38.2713],[125.833,38.3165],[125.7439,38.3108],[125.7495,38.3321],[125.704,38.3601],[125.7252,38.3848],[125.6984,38.4207],[125.7003,38.4725],[125.6649,38.531],[125.6472,38.6286],[125.6578,38.631],[125.6301,38.659],[125.6138,38.7217],[125.5806,38.7532],[125.5751,38.7805],[125.7092,38.8388],[125.8014,38.8384],[125.9234,38.7908],[125.943,38.7457],[126.0379,38.7091],[126.0995,38.7094],[126.1509,38.7501],[126.2063,38.7647],[126.2192,38.7834],[126.2112,38.8356],[126.1753,38.8769],[126.1183,38.9134],[126.1193,38.9544],[126.1346,38.974],[126.1551,38.9696],[126.1867,38.9894],[126.2312,38.9847],[126.2702,38.9592],[126.3226,38.9547],[126.3873,38.9305],[126.4853,38.9119],[126.5001,38.9354],[126.485,38.977],[126.5073,39.0009],[126.5841,38.9737],[126.6596,38.9858],[126.5609,39.1199],[126.5606,39.1472],[126.5769,39.1665],[126.6354,39.1357],[126.7299,39.1458],[126.8391,39.1065],[126.9043,39.0662],[126.9817,39.0691],[126.9862,39.0323],[127.0192,38.9774],[127.0002,38.9352],[126.9716,38.9111],[126.9059,38.9039],[126.8819,38.8892],[126.8669,38.7773],[126.8001,38.6857],[126.7599,38.6575],[126.6943,38.6403],[126.6779,38.6176],[126.7117,38.5697],[126.7004,38.5133],[126.7069,38.4788],[126.7893,38.3552],[126.8397,38.3291],[126.8843,38.3348],[126.8676,38.2938],[126.8822,38.2685],[126.8734,38.2263],[126.8902,38.2076],[126.9218,38.1993],[126.9401,38.1742]]]}},{"type":"Feature","id":"North Pyongan","properties":{"id":"North Pyongan","iso_code":"KP-03","name":"North Pyongan","name_full":"North Pyongan","name_ja":"平安北道","center_lonlat":[125.2794,40.0426]},"geometry":{"type":"MultiPolygon","coordinates":[[[[125.4152,40.6527],[125.494,40.6166],[125.5416,40.5741],[125.5909,40.5707],[125.6122,40.5139],[125.5771,40.4185],[125.6286,40.3697],[125.6176,40.332],[125.6572,40.3017],[125.807,40.2236],[125.8964,40.2384],[125.9689,40.2196],[126.1443,40.0736],[126.2096,40.0445],[126.3601,40.0175],[126.34,39.9684],[126.3699,39.9172],[126.3688,39.8992],[126.3528,39.8885],[126.2594,39.8527],[126.1007,39.8204],[126.0154,39.8588],[125.9475,39.7878],[125.9029,39.7551],[125.8621,39.7467],[125.8139,39.6866],[125.7667,39.6609],[125.6879,39.6332],[125.6411,39.636],[125.5622,39.5971],[125.4518,39.5713],[125.4449,39.5844],[125.286,39.5212],[125.2103,39.5731],[125.2252,39.5912],[125.1576,39.5912],[125.1712,39.5639],[125.117,39.5659],[125.0975,39.6027],[125.0477,39.6042],[124.9583,39.662],[124.9378,39.6458],[124.9016,39.6621],[124.8816,39.7042],[124.7707,39.7418],[124.7461,39.7829],[124.7395,39.7621],[124.7547,39.7337],[124.7446,39.6914],[124.7571,39.6879],[124.753,39.6725],[124.7298,39.6653],[124.7439,39.6444],[124.695,39.6375],[124.6491,39.6121],[124.6375,39.5905],[124.6108,39.6287],[124.6451,39.6695],[124.647,39.6976],[124.6238,39.6935],[124.6095,39.7147],[124.5848,39.7236],[124.5891,39.7659],[124.5616,39.7867],[124.5641,39.8143],[124.4177,39.8245],[124.3966,39.8655],[124.3626,39.8717],[124.3215,39.9127],[124.37,39.94],[124.3831,40.0027],[124.4058,40.0278],[124.4658,40.0153],[124.4996,40.0225],[124.4102,40.0362],[124.3914,40.0483],[124.37,40.0983],[124.5487,40.2209],[124.5709,40.2524],[124.6426,40.2943],[124.7125,40.3103],[124.7412,40.3704],[124.8008,40.3941],[124.8955,40.4836],[124.9353,40.4556],[125.0413,40.4611],[125.0463,40.4711],[125.0153,40.5083],[125.0251,40.5344],[125.2561,40.615],[125.2933,40.6486],[125.4133,40.6318],[125.4152,40.6527]]],[[[124.9267,39.6048],[124.9097,39.5936],[124.9336,39.5505],[124.8186,39.4954],[124.857,39.5279],[124.8428,39.5384],[124.8566,39.5442],[124.8545,39.5738],[124.8705,39.5809],[124.8805,39.6125],[124.9267,39.6048]]],[[[124.687,39.5447],[124.5959,39.5379],[124.6309,39.5651],[124.6738,39.5706],[124.6981,39.5629],[124.687,39.5447]]],[[[124.6877,39.5272],[124.7078,39.5304],[124.6978,39.5026],[124.6801,39.5077],[124.6877,39.5272]]],[[[124.2147,39.8072],[124.23,39.8212],[124.2428,39.8046],[124.2232,39.7916],[124.2117,39.7952],[124.2147,39.8072]]],[[[124.596,39.4302],[124.5929,39.4468],[124.6126,39.4571],[124.6191,39.433],[124.596,39.4302]]]]}},{"type":"Feature","id":"Pyongyang","properties":{"id":"Pyongyang","iso_code":"KP-01","name":"Pyongyang","name_full":"Pyongyang","name_ja":"平壌","center_lonlat":[125.9234,38.9958]},"geometry":{"type":"Polygon","coordinates":[[[126.3873,38.9305],[126.3226,38.9547],[126.2702,38.9592],[126.2312,38.9847],[126.1867,38.9894],[126.1551,38.9696],[126.1346,38.974],[126.1193,38.9544],[126.1183,38.9134],[126.1753,38.8769],[126.2112,38.8356],[126.2192,38.7834],[126.2063,38.7647],[126.1509,38.7501],[126.0995,38.7094],[126.0379,38.7091],[125.943,38.7457],[125.9234,38.7908],[125.8014,38.8384],[125.7092,38.8388],[125.5751,38.7805],[125.5677,38.7985],[125.5278,38.8223],[125.5222,38.8461],[125.5316,38.8612],[125.5782,38.8778],[125.6039,38.9385],[125.5801,38.9986],[125.5786,39.0652],[125.6663,39.1246],[125.6343,39.1468],[125.6402,39.1869],[125.6197,39.2354],[125.7171,39.2824],[125.7679,39.255],[125.7883,39.23],[125.8348,39.215],[125.8614,39.1609],[125.8744,39.164],[125.8739,39.2057],[125.8967,39.2293],[125.9366,39.2318],[125.9728,39.2044],[126.0233,39.2141],[126.0454,39.2337],[126.0693,39.2223],[126.0926,39.1845],[126.1381,39.1833],[126.1764,39.1561],[126.2299,39.1573],[126.2561,39.0836],[126.2875,39.0605],[126.3443,39.0451],[126.3822,38.9821],[126.3873,38.9305]]]}},{"type":"Feature","id":"Rason","properties":{"id":"Rason","iso_code":"KP-13","name":"Rason","name_full":"Rason","name_ja":"羅先特別市","center_lonlat":[130.4365,42.3707]},"geometry":{"type":"Polygon","coordinates":[[[130.2023,42.1736],[130.1917,42.2348],[130.219,42.2815],[130.2735,42.3321],[130.2812,42.371],[130.2579,42.3904],[130.2618,42.4177],[130.433,42.4527],[130.4522,42.5496],[130.4679,42.5549],[130.471,42.5698],[130.4551,42.5852],[130.4678,42.6004],[130.5014,42.6108],[130.5165,42.5994],[130.5308,42.5305],[130.5756,42.4457],[130.6458,42.4009],[130.6628,42.3206],[130.7,42.2951],[130.5975,42.2628],[130.595,42.2982],[130.5102,42.3358],[130.4657,42.3348],[130.4694,42.3221],[130.4401,42.3091],[130.4075,42.3246],[130.4059,42.3071],[130.3842,42.2912],[130.3862,42.2707],[130.4059,42.2608],[130.4009,42.2425],[130.368,42.2557],[130.3607,42.2437],[130.3698,42.232],[130.307,42.1832],[130.3156,42.2189],[130.2942,42.237],[130.2023,42.1736]]]}},{"type":"Feature","id":"Ryanggang","properties":{"id":"Ryanggang","iso_code":"KP-10","name":"Ryanggang","name_full":"Ryanggang","name_ja":"両江道","center_lonlat":[128.0427,41.2839]},"geometry":{"type":"Polygon","coordinates":[[[128.8832,42.0304],[128.8685,42.0],[128.8059,41.9651],[128.7586,41.9148],[128.7049,41.919],[128.7337,41.8108],[128.7832,41.8065],[128.7772,41.7214],[128.8021,41.6662],[128.7757,41.633],[128.7807,41.6214],[128.8735,41.5979],[128.9136,41.545],[128.9147,41.5172],[128.8394,41.4527],[128.8284,41.4203],[128.8513,41.3553],[128.9386,41.254],[128.9054,41.1978],[128.9367,41.1152],[128.9233,41.0883],[128.8578,41.1307],[128.7532,41.1672],[128.6302,41.1723],[128.6196,41.1014],[128.5495,41.0716],[128.5077,41.0183],[128.4789,41.0072],[128.375,41.0068],[128.3587,40.9924],[128.3837,40.9077],[128.3535,40.7694],[128.3255,40.7255],[128.3152,40.6753],[128.2016,40.5721],[128.1757,40.5521],[128.147,40.5494],[128.0658,40.5891],[127.9726,40.567],[127.9143,40.4892],[127.8231,40.4337],[127.741,40.4016],[127.7229,40.4142],[127.7225,40.4604],[127.7585,40.5091],[127.7547,40.5577],[127.7716,40.58],[127.6955,40.5962],[127.6667,40.6733],[127.6215,40.7031],[127.5809,40.7578],[127.5646,40.8097],[127.5195,40.8281],[127.5174,40.8406],[127.6178,40.9222],[127.6147,40.9479],[127.5854,40.9898],[127.6548,41.0089],[127.6746,41.1048],[127.6615,41.1292],[127.5579,41.1536],[127.5317,41.1455],[127.4941,41.0671],[127.3917,41.0713],[127.3861,41.145],[127.3556,41.1756],[127.2977,41.1678],[127.2183,41.1033],[127.1222,41.1161],[127.0645,41.145],[127.0459,41.1577],[127.0235,41.2171],[127.001,41.2385],[126.9999,41.2767],[126.9558,41.3171],[126.944,41.3687],[126.9158,41.4141],[126.9323,41.4319],[126.9291,41.4477],[126.846,41.4359],[126.8207,41.4581],[126.812,41.4894],[126.8259,41.5127],[126.8855,41.515],[126.9115,41.5484],[126.9596,41.5725],[126.9687,41.5959],[126.957,41.6398],[126.9628,41.694],[126.9996,41.752],[127.0427,41.7326],[127.0766,41.6808],[127.049,41.6777],[127.059,41.6433],[127.1047,41.6262],[127.0972,41.6124],[127.1797,41.5852],[127.1365,41.5692],[127.1047,41.5374],[127.1346,41.522],[127.1559,41.5305],[127.1797,41.517],[127.2071,41.5459],[127.2445,41.528],[127.2815,41.5311],[127.2898,41.5186],[127.2691,41.505],[127.3051,41.4947],[127.379,41.4988],[127.4273,41.4831],[127.4741,41.4988],[127.5258,41.4843],[127.5429,41.4913],[127.5588,41.4582],[127.6383,41.4299],[127.6627,41.447],[127.8104,41.4436],[127.8489,41.4313],[127.8815,41.4609],[127.9442,41.4709],[127.9742,41.4503],[128.0014,41.4709],[128.0124,41.4601],[128.0152,41.4133],[128.0506,41.4207],[128.0469,41.3988],[128.0642,41.3884],[128.1039,41.3996],[128.1182,41.3934],[128.1039,41.3791],[128.1461,41.3763],[128.1857,41.4045],[128.2876,41.5447],[128.303,41.5834],[128.2509,41.6601],[128.1591,41.7118],[128.091,41.8417],[128.0576,41.8499],[128.0478,41.864],[128.0204,41.9651],[128.0346,41.9937],[128.262,42.0329],[128.3638,42.0265],[128.4076,42.0083],[128.5024,41.9961],[128.5437,42.0081],[128.5644,42.0008],[128.6079,42.0302],[128.7093,42.0302],[128.721,42.0476],[128.8832,42.0304]]]}},{"type":"Feature","id":"South Hamgyong","properties":{"id":"South Hamgyong","iso_code":"KP-08","name":"South Hamgyong","name_full":"South Hamgyong","name_ja":"咸鏡南道","center_lonlat":[127.7928,40.2654]},"geometry":{"type":"Polygon","coordinates":[[[129.1606,40.5646],[129.0776,40.4726],[128.9758,40.4599],[128.8605,40.3718],[128.752,40.3351],[128.6878,40.3312],[128.6697,40.3108],[128.6553,40.3202],[128.6365,40.3132],[128.6189,40.2973],[128.6164,40.2714],[128.6567,40.2571],[128.6678,40.2403],[128.6646,40.2012],[128.6289,40.1803],[128.5886,40.1867],[128.5432,40.1668],[128.5277,40.1434],[128.4798,40.1347],[128.4349,40.104],[128.3648,40.0969],[128.3378,40.067],[128.3278,40.0282],[128.3021,40.0334],[128.2634,40.0771],[128.2278,40.0562],[128.2344,40.0294],[128.1551,40.0163],[128.0068,40.0452],[127.9978,40.0204],[127.9637,40.0041],[127.94,39.9748],[127.9067,39.9839],[127.8746,39.8928],[127.7818,39.8854],[127.794,39.8657],[127.6958,39.8482],[127.6633,39.8068],[127.6237,39.8309],[127.5208,39.747],[127.5013,39.7072],[127.5122,39.6495],[127.5527,39.6368],[127.5746,39.595],[127.5368,39.552],[127.5204,39.5105],[127.563,39.3437],[127.5545,39.306],[127.5218,39.3162],[127.5422,39.3715],[127.4951,39.4334],[127.4829,39.437],[127.4381,39.4052],[127.1387,39.408],[127.1095,39.3834],[127.0858,39.2888],[127.0317,39.2664],[127.0394,39.2191],[127.0252,39.2044],[126.9294,39.2155],[126.9301,39.2599],[126.9089,39.2848],[126.8505,39.2701],[126.8181,39.3123],[126.7373,39.2978],[126.7091,39.3091],[126.6976,39.3254],[126.7008,39.3544],[126.7379,39.4645],[126.6728,39.5293],[126.6837,39.566],[126.7132,39.5997],[126.7041,39.6549],[126.7527,39.7018],[126.7482,39.7164],[126.7223,39.7228],[126.7212,39.7369],[126.7822,39.8399],[126.871,39.8657],[126.9353,39.8657],[126.9697,39.8567],[127.0083,39.8261],[127.0353,39.8438],[127.0891,39.8503],[127.1114,39.8793],[127.0731,39.956],[127.0585,40.0196],[127.0857,40.0352],[127.0852,40.0656],[127.1622,40.1155],[127.1779,40.148],[127.116,40.1872],[127.1021,40.2397],[127.1098,40.2788],[127.0569,40.3207],[127.003,40.3366],[126.912,40.3347],[126.924,40.4015],[126.9851,40.4661],[126.9798,40.5311],[126.9923,40.548],[127.0906,40.6003],[127.1659,40.6137],[127.1843,40.6364],[127.1992,40.6951],[127.2204,40.7181],[127.3415,40.7637],[127.3724,40.7892],[127.3759,40.8229],[127.3039,40.8708],[127.2988,40.9055],[127.323,40.9679],[127.3871,41.0341],[127.3917,41.0713],[127.4941,41.0671],[127.5317,41.1455],[127.5579,41.1536],[127.6615,41.1292],[127.6746,41.1048],[127.6548,41.0089],[127.5854,40.9898],[127.6147,40.9479],[127.6178,40.9222],[127.5174,40.8406],[127.5195,40.8281],[127.5646,40.8097],[127.5809,40.7578],[127.6215,40.7031],[127.6667,40.6733],[127.6955,40.5962],[127.7716,40.58],[127.7547,40.5577],[127.7585,40.5091],[127.7225,40.4604],[127.7229,40.4142],[127.741,40.4016],[127.8231,40.4337],[127.9143,40.4892],[127.9726,40.567],[128.0658,40.5891],[128.147,40.5494],[128.1757,40.5521],[128.2016,40.5721],[128.3152,40.6753],[128.3255,40.7255],[128.3535,40.7694],[128.3837,40.9077],[128.3587,40.9924],[128.375,41.0068],[128.4789,41.0072],[128.5077,41.0183],[128.5495,41.0716],[128.6196,41.1014],[128.6302,41.1723],[128.7532,41.1672],[128.8578,41.1307],[128.9233,41.0883],[128.9478,41.0407],[128.9556,40.9882],[128.9169,40.924],[128.9392,40.8749],[128.9199,40.8468],[128.9245,40.8154],[128.9696,40.762],[128.9882,40.6931],[129.0622,40.638],[129.0622,40.5922],[129.0734,40.5789],[129.1606,40.5646]]]}},{"type":"Feature","id":"South Hwanghae","properties":{"id":"South Hwanghae","iso_code":"KP-05","name":"South Hwanghae","name_full":"South Hwanghae","name_ja":"黄海南道","center_lonlat":[125.5465,38.1912]},"geometry":{"type":"MultiPolygon","coordinates":[[[[126.4016,37.889],[126.358,37.8843],[126.2595,37.8454],[126.1785,37.8405],[126.1477,37.819],[126.1654,37.7683],[126.1582,37.7335],[126.1104,37.7409],[126.0869,37.8004],[126.0628,37.8022],[126.0558,37.8706],[126.0128,37.8543],[126.0007,37.8856],[125.9595,37.9122],[125.9441,37.9019],[125.9725,37.8743],[125.9862,37.8228],[125.9216,37.8449],[125.835,37.9435],[125.8052,37.9516],[125.7993,37.9929],[125.5969,38.0322],[125.5789,38.0251],[125.5782,38.009],[125.5965,37.9923],[125.6407,37.9736],[125.6754,37.9776],[125.6853,37.9721],[125.6783,37.9525],[125.7193,37.9525],[125.6988,37.9252],[125.7398,37.9252],[125.6851,37.8986],[125.6306,37.9252],[125.6412,37.8564],[125.6231,37.8371],[125.6441,37.8228],[125.6092,37.8063],[125.6201,37.7653],[125.584,37.7675],[125.5706,37.7871],[125.5289,37.7725],[125.5276,37.7961],[125.4746,37.7312],[125.3853,37.7164],[125.3475,37.6756],[125.3351,37.6863],[125.3638,37.7609],[125.3904,37.7545],[125.4449,37.7744],[125.3773,37.7819],[125.3899,37.7961],[125.4558,37.8228],[125.5242,37.8178],[125.5276,37.8433],[125.4973,37.8397],[125.4791,37.8576],[125.5101,37.8943],[125.4639,37.9041],[125.4456,37.9204],[125.4244,37.9122],[125.4319,37.8986],[125.3836,37.8918],[125.428,37.8745],[125.4463,37.86],[125.4449,37.8433],[125.3997,37.8655],[125.3494,37.8644],[125.3773,37.8433],[125.3084,37.8091],[125.301,37.8228],[125.2395,37.8228],[125.3084,37.8781],[125.3006,37.8952],[125.2571,37.9146],[125.26,37.9327],[125.2401,37.9296],[125.2085,37.8812],[125.1766,37.8676],[125.1004,37.8751],[125.0132,37.906],[125.0135,37.9395],[124.9795,37.9252],[124.9922,37.9529],[125.062,37.9786],[125.1338,37.96],[125.1754,37.9699],[125.1849,37.9805],[125.1775,37.9879],[125.1553,37.98],[125.1153,38.0024],[125.1067,38.0346],[125.2017,38.0494],[125.2252,38.0214],[125.2463,38.0201],[125.2532,38.0539],[125.2737,38.0624],[125.2649,38.0779],[125.1406,38.0978],[125.0135,38.0624],[124.8853,38.1317],[124.8655,38.1071],[124.7938,38.0978],[124.6672,38.1257],[124.6736,38.1372],[124.7451,38.1479],[124.7651,38.1561],[124.7733,38.176],[124.8218,38.1859],[124.856,38.227],[124.8953,38.2215],[124.9209,38.1894],[124.993,38.227],[124.915,38.2291],[124.8723,38.2576],[124.8797,38.3452],[124.9473,38.4505],[124.9722,38.4621],[124.9727,38.4404],[125.0164,38.498],[125.021,38.5149],[124.9968,38.5359],[124.9839,38.5919],[125.0177,38.5835],[125.0376,38.5913],[125.0582,38.5685],[125.1028,38.5935],[125.128,38.5803],[125.1372,38.6247],[125.1184,38.6452],[125.1234,38.6663],[125.1566,38.6317],[125.1796,38.6347],[125.1798,38.67],[125.2035,38.6526],[125.2673,38.6703],[125.301,38.6568],[125.3691,38.6948],[125.4419,38.6862],[125.4627,38.7073],[125.5071,38.6862],[125.5208,38.6527],[125.5452,38.6794],[125.5859,38.6419],[125.6472,38.6286],[125.6649,38.531],[125.7003,38.4725],[125.6984,38.4207],[125.7252,38.3848],[125.704,38.3601],[125.7495,38.3321],[125.7439,38.3108],[125.833,38.3165],[125.8633,38.2713],[125.9042,38.2399],[125.9276,38.1766],[125.962,38.1696],[126.0382,38.1901],[126.0901,38.1852],[126.1198,38.2053],[126.1576,38.2046],[126.201,38.2311],[126.2498,38.2403],[126.3081,38.2313],[126.4058,38.19],[126.4394,38.1371],[126.4331,38.1194],[126.4113,38.1475],[126.3748,38.1115],[126.398,38.039],[126.3909,37.9382],[126.411,37.9076],[126.4016,37.889]]],[[[124.8835,38.5286],[124.904,38.4944],[124.822,38.5224],[124.7995,38.5085],[124.7903,38.5174],[124.7944,38.5339],[124.8442,38.5552],[124.8835,38.5286]]],[[[125.3288,37.7667],[125.3377,37.7687],[125.261,37.7074],[125.2206,37.7038],[125.2502,37.7317],[125.2746,37.7338],[125.2795,37.7494],[125.3288,37.7667]]],[[[125.1477,37.7856],[125.1414,37.7995],[125.1914,37.8155],[125.1477,37.7856]]],[[[125.0304,37.8362],[125.0408,37.8345],[125.0418,37.8173],[124.9977,37.8084],[125.012,37.8218],[125.0285,37.8188],[125.0304,37.8362]]]]}},{"type":"Feature","id":"South Pyongan","properties":{"id":"South Pyongan","iso_code":"KP-02","name":"South Pyongan","name_full":"South Pyongan","name_ja":"平安南道","center_lonlat":[126.2083,39.4845]},"geometry":{"type":"Polygon","coordinates":[[[125.6301,38.659],[125.589,38.6663],[125.5276,38.7209],[125.4791,38.7277],[125.4478,38.7772],[125.4109,38.7551],[125.4342,38.7368],[125.4193,38.7293],[125.3892,38.7174],[125.3562,38.7346],[125.3411,38.7175],[125.301,38.7346],[125.3084,38.7073],[125.2777,38.7033],[125.2435,38.7283],[125.2669,38.7551],[125.241,38.7931],[125.2252,38.7961],[125.2305,38.7719],[125.2166,38.7397],[125.1881,38.7386],[125.1453,38.7771],[125.1372,38.8035],[125.152,38.8915],[125.1986,38.9861],[125.2708,39.0806],[125.3351,39.0834],[125.2841,39.0896],[125.2874,39.1523],[125.3435,39.1689],[125.3289,39.1933],[125.3436,39.2129],[125.4109,39.2138],[125.3936,39.2458],[125.4449,39.3106],[125.4163,39.3203],[125.4182,39.351],[125.4046,39.3647],[125.4244,39.3571],[125.4592,39.3851],[125.357,39.3987],[125.3836,39.4403],[125.3425,39.4335],[125.346,39.4596],[125.3972,39.5018],[125.4137,39.5387],[125.442,39.5476],[125.4518,39.5713],[125.5622,39.5971],[125.6411,39.636],[125.6879,39.6332],[125.7667,39.6609],[125.8139,39.6866],[125.8621,39.7467],[125.9029,39.7551],[125.9475,39.7878],[126.0154,39.8588],[126.1007,39.8204],[126.2594,39.8527],[126.3528,39.8885],[126.3688,39.8992],[126.3699,39.9172],[126.34,39.9684],[126.3601,40.0175],[126.4259,39.9911],[126.4976,40.0274],[126.5463,40.0358],[126.5705,40.089],[126.5899,40.1037],[126.7013,40.1524],[126.7454,40.1878],[126.8005,40.2006],[126.8222,40.2431],[126.8873,40.2949],[126.912,40.3347],[127.003,40.3366],[127.0569,40.3207],[127.1098,40.2788],[127.1021,40.2397],[127.116,40.1872],[127.1779,40.148],[127.1622,40.1155],[127.0852,40.0656],[127.0857,40.0352],[127.0585,40.0196],[127.0731,39.956],[127.1114,39.8793],[127.0891,39.8503],[127.0353,39.8438],[127.0083,39.8261],[126.9697,39.8567],[126.9353,39.8657],[126.871,39.8657],[126.7822,39.8399],[126.7212,39.7369],[126.7223,39.7228],[126.7482,39.7164],[126.7527,39.7018],[126.7041,39.6549],[126.7132,39.5997],[126.6837,39.566],[126.6728,39.5293],[126.7379,39.4645],[126.7008,39.3544],[126.6976,39.3254],[126.7091,39.3091],[126.7373,39.2978],[126.8181,39.3123],[126.8505,39.2701],[126.9089,39.2848],[126.9301,39.2599],[126.9294,39.2155],[127.0252,39.2044],[127.0634,39.1605],[127.0137,39.1336],[126.9817,39.0691],[126.9043,39.0662],[126.8391,39.1065],[126.7299,39.1458],[126.6354,39.1357],[126.5769,39.1665],[126.5606,39.1472],[126.5609,39.1199],[126.6596,38.9858],[126.5841,38.9737],[126.5073,39.0009],[126.485,38.977],[126.5001,38.9354],[126.4853,38.9119],[126.3873,38.9305],[126.3822,38.9821],[126.3443,39.0451],[126.2875,39.0605],[126.2561,39.0836],[126.2299,39.1573],[126.1764,39.1561],[126.1381,39.1833],[126.0926,39.1845],[126.0693,39.2223],[126.0454,39.2337],[126.0233,39.2141],[125.9728,39.2044],[125.9366,39.2318],[125.8967,39.2293],[125.8739,39.2057],[125.8744,39.164],[125.8614,39.1609],[125.8348,39.215],[125.7883,39.23],[125.7679,39.255],[125.7171,39.2824],[125.6197,39.2354],[125.6402,39.1869],[125.6343,39.1468],[125.6663,39.1246],[125.5786,39.0652],[125.5801,38.9986],[125.6039,38.9385],[125.5782,38.8778],[125.5316,38.8612],[125.5222,38.8461],[125.5278,38.8223],[125.5677,38.7985],[125.5751,38.7805],[125.5806,38.7532],[125.6138,38.7217],[125.6301,38.659]]]}}]}
