{"type":"FeatureCollection","features":[{"type":"Feature","id":"Aerodrom","properties":{"id":"Aerodrom","iso_code":"MK-01","name":"Aerodrom","name_full":"Aerodrom","name_ja":"アエロドロム","center_lonlat":[21.4927,41.9502]},"geometry":{"type":"Polygon","coordinates":[[[21.4345,41.9718],[21.4383,41.9828],[21.4443,41.9828],[21.5543,41.9279],[21.5361,41.9187],[21.4345,41.9718]]]}},{"type":"Feature","id":"Aracinovo","properties":{"id":"Aracinovo","iso_code":"MK-02","name":"Aracinovo","name_full":"Aračinovo","name_ja":"アラチノヴォ","center_lonlat":[21.5813,42.0268]},"geometry":{"type":"Polygon","coordinates":[[[21.54,41.9874],[21.5523,42.0207],[21.5409,42.0702],[21.5747,42.0388],[21.5966,42.0377],[21.6037,42.0594],[21.6324,42.0514],[21.6335,42.04],[21.588,42.0003],[21.54,41.9874]]]}},{"type":"Feature","id":"Berovo","properties":{"id":"Berovo","iso_code":"MK-03","name":"Berovo","name_full":"Berovo","name_ja":"ベロヴォ","center_lonlat":[22.7929,41.6509]},"geometry":{"type":"Polygon","coordinates":[[[22.9854,41.6772],[22.9361,41.6262],[22.9436,41.5232],[22.8581,41.5171],[22.8352,41.5313],[22.7718,41.5365],[22.728,41.5694],[22.6763,41.5741],[22.6905,41.5912],[22.6876,41.6126],[22.6498,41.631],[22.632,41.6167],[22.6292,41.6341],[22.6243,41.656],[22.6445,41.6845],[22.6249,41.6963],[22.6209,41.7271],[22.6632,41.7426],[22.6744,41.8072],[22.7576,41.7885],[22.7863,41.7283],[22.8614,41.7312],[22.878,41.7131],[22.9076,41.7126],[22.9854,41.6772]]]}},{"type":"Feature","id":"Bitola","properties":{"id":"Bitola","iso_code":"MK-04","name":"Bitola","name_full":"Bitola","name_ja":"ビトラ","center_lonlat":[21.2873,41.0285]},"geometry":{"type":"Polygon","coordinates":[[[21.5057,40.9009],[21.4049,40.9086],[21.3293,40.8663],[21.2458,40.8632],[21.2611,40.9069],[21.2452,40.9421],[21.2052,40.9482],[21.1766,40.9798],[21.1348,40.9792],[21.1025,41.0356],[21.0738,41.0467],[21.0776,41.068],[21.1057,41.0923],[21.097,41.1258],[21.1779,41.1485],[21.2899,41.2188],[21.314,41.2103],[21.3229,41.2007],[21.3174,41.1609],[21.3607,41.1314],[21.3641,41.0862],[21.3848,41.0773],[21.43,41.084],[21.4214,41.052],[21.4413,40.9971],[21.4629,40.9929],[21.5039,40.9513],[21.5057,40.9009]]]}},{"type":"Feature","id":"Bogdanci","properties":{"id":"Bogdanci","iso_code":"MK-05","name":"Bogdanci","name_full":"Bogdanci","name_ja":"ボグダンツィ","center_lonlat":[22.5761,41.1865]},"geometry":{"type":"Polygon","coordinates":[[[22.6572,41.177],[22.6293,41.1771],[22.6245,41.1526],[22.5866,41.1241],[22.5175,41.1507],[22.5256,41.1862],[22.5046,41.213],[22.523,41.2228],[22.5302,41.2527],[22.5664,41.2415],[22.5906,41.2184],[22.66,41.2085],[22.6572,41.177]]]}},{"type":"Feature","id":"Bogovinje","properties":{"id":"Bogovinje","iso_code":"MK-06","name":"Bogovinje","name_full":"Bogovinje","name_ja":"ボゴヴィニェ","center_lonlat":[20.876,41.9346]},"geometry":{"type":"Polygon","coordinates":[[[20.7511,41.9102],[20.7514,41.9403],[20.8474,41.9876],[20.9203,41.9783],[20.9579,41.9525],[20.9628,41.9288],[20.9869,41.9207],[20.9483,41.8733],[20.8371,41.9107],[20.775,41.9188],[20.7511,41.9102]]]}},{"type":"Feature","id":"Bosilovo","properties":{"id":"Bosilovo","iso_code":"MK-07","name":"Bosilovo","name_full":"Bosilovo","name_ja":"ボシロヴォ","center_lonlat":[22.7646,41.4759]},"geometry":{"type":"Polygon","coordinates":[[[22.8581,41.5171],[22.8566,41.4923],[22.8014,41.4486],[22.8014,41.4129],[22.7862,41.3973],[22.7502,41.3925],[22.7259,41.4201],[22.686,41.4206],[22.694,41.4439],[22.6743,41.4729],[22.7264,41.5104],[22.728,41.5694],[22.7718,41.5365],[22.8352,41.5313],[22.8581,41.5171]]]}},{"type":"Feature","id":"Brvenica","properties":{"id":"Brvenica","iso_code":"MK-08","name":"Brvenica","name_full":"Brvenica","name_ja":"ブルヴェニツァ","center_lonlat":[21.0399,41.8704]},"geometry":{"type":"Polygon","coordinates":[[[21.02,41.9527],[21.0554,41.9281],[21.0575,41.9047],[21.0848,41.892],[21.0708,41.8566],[21.1276,41.8419],[21.1784,41.8546],[21.1838,41.839],[21.147,41.8292],[21.0791,41.7773],[21.029,41.8211],[21.0277,41.8365],[20.9559,41.8495],[20.9483,41.8733],[20.9869,41.9207],[20.9628,41.9288],[20.9579,41.9525],[20.9752,41.9669],[21.02,41.9527]]]}},{"type":"Feature","id":"Butel","properties":{"id":"Butel","iso_code":"MK-09","name":"Butel","name_full":"Butel","name_ja":"ブテル","center_lonlat":[21.4577,42.0686]},"geometry":{"type":"Polygon","coordinates":[[[21.4231,42.0316],[21.4372,42.0332],[21.4421,42.1037],[21.4656,42.1396],[21.4863,42.1418],[21.511,42.1017],[21.4693,42.0629],[21.4668,42.0085],[21.4459,41.9971],[21.428,42.0029],[21.3992,42.0027],[21.3817,42.0218],[21.3886,42.0287],[21.4216,42.0073],[21.4231,42.0316]]]}},{"type":"Feature","id":"Cair","properties":{"id":"Cair","iso_code":"MK-79","name":"Cair","name_full":"Čair","name_ja":"チャイル","center_lonlat":[21.4362,41.9921]},"geometry":{"type":"Polygon","coordinates":[[[21.4459,41.9971],[21.4443,41.9828],[21.4383,41.9828],[21.4273,41.9867],[21.428,42.0029],[21.4459,41.9971]]]}},{"type":"Feature","id":"Caska","properties":{"id":"Caska","iso_code":"MK-80","name":"Caska","name_full":"Čaška","name_ja":"チャシュカ","center_lonlat":[21.5895,41.5885]},"geometry":{"type":"Polygon","coordinates":[[[21.3743,41.5929],[21.3725,41.6322],[21.3953,41.6635],[21.4032,41.6895],[21.4443,41.7316],[21.4831,41.7446],[21.5709,41.7403],[21.5972,41.7039],[21.6712,41.696],[21.6983,41.6329],[21.7259,41.6439],[21.732,41.6145],[21.7734,41.6019],[21.7718,41.5825],[21.8059,41.5571],[21.788,41.5287],[21.7889,41.5002],[21.8161,41.4879],[21.8098,41.4565],[21.7925,41.4632],[21.772,41.4413],[21.7224,41.474],[21.6737,41.4651],[21.6566,41.4278],[21.6026,41.4435],[21.5858,41.4607],[21.5435,41.4701],[21.5327,41.4932],[21.4777,41.4941],[21.4556,41.5536],[21.4231,41.5821],[21.3743,41.5929]]]}},{"type":"Feature","id":"Centar","properties":{"id":"Centar","iso_code":"MK-77","name":"Centar","name_full":"Centar","name_ja":"ツェンタル","center_lonlat":[21.4253,41.9719]},"geometry":{"type":"Polygon","coordinates":[[[21.4383,41.9828],[21.4345,41.9718],[21.4278,41.9551],[21.4098,41.9684],[21.4273,41.9867],[21.4383,41.9828]]]}},{"type":"Feature","id":"Centar Zupa","properties":{"id":"Centar Zupa","iso_code":"MK-78","name":"Centar Zupa","name_full":"Centar Župa","name_ja":"ツェンタル・ジュパ","center_lonlat":[20.5789,41.4569]},"geometry":{"type":"Polygon","coordinates":[[[20.539,41.4029],[20.5222,41.4257],[20.4909,41.436],[20.4816,41.4683],[20.5679,41.5248],[20.6096,41.5227],[20.6274,41.4913],[20.6493,41.484],[20.6567,41.437],[20.6784,41.4255],[20.6466,41.4026],[20.539,41.4029]]]}},{"type":"Feature","id":"Cesinovo-Oblesevo","properties":{"id":"Cesinovo-Oblesevo","iso_code":"MK-81","name":"Cesinovo-Oblesevo","name_full":"Češinovo-Obleševo","name_ja":"チェシノヴォ＝オブレシェヴォ","center_lonlat":[22.2828,41.8675]},"geometry":{"type":"Polygon","coordinates":[[[22.2563,41.9482],[22.2887,41.9191],[22.3276,41.9199],[22.3251,41.8802],[22.3362,41.8558],[22.3565,41.8467],[22.3592,41.8253],[22.391,41.7922],[22.2825,41.8105],[22.2245,41.8492],[22.1881,41.891],[22.2239,41.9116],[22.2413,41.9461],[22.2563,41.9482]]]}},{"type":"Feature","id":"Cucer-Sandevo","properties":{"id":"Cucer-Sandevo","iso_code":"MK-82","name":"Cucer-Sandevo","name_full":"Čučer-Sandevo","name_ja":"チュチェル・サンデヴォ","center_lonlat":[21.3989,42.1412]},"geometry":{"type":"Polygon","coordinates":[[[21.472,42.2391],[21.482,42.212],[21.5157,42.1811],[21.5129,42.1545],[21.4863,42.1418],[21.4656,42.1396],[21.4421,42.1037],[21.4372,42.0332],[21.4231,42.0316],[21.4046,42.0525],[21.3893,42.0456],[21.3886,42.0287],[21.3817,42.0218],[21.3592,42.0291],[21.342,42.0715],[21.3008,42.0984],[21.295,42.149],[21.3538,42.216],[21.3843,42.2249],[21.4298,42.2158],[21.4199,42.2401],[21.472,42.2391]]]}},{"type":"Feature","id":"Debar","properties":{"id":"Debar","iso_code":"MK-21","name":"Debar","name_full":"Debar","name_ja":"デバル","center_lonlat":[20.4992,41.5154]},"geometry":{"type":"Polygon","coordinates":[[[20.4816,41.4683],[20.445,41.5085],[20.4442,41.5497],[20.5074,41.5623],[20.5347,41.5873],[20.5982,41.5509],[20.6431,41.5457],[20.6891,41.507],[20.7246,41.4955],[20.7289,41.4788],[20.7047,41.4742],[20.6848,41.4249],[20.6784,41.4255],[20.6567,41.437],[20.6493,41.484],[20.6274,41.4913],[20.6096,41.5227],[20.5679,41.5248],[20.4816,41.4683]]]}},{"type":"Feature","id":"Debarca","properties":{"id":"Debarca","iso_code":"MK-22","name":"Debarca","name_full":"Debarca","name_ja":"デバルツァ","center_lonlat":[20.8303,41.3024]},"geometry":{"type":"Polygon","coordinates":[[[20.6641,41.0591],[20.6539,41.0753],[20.7412,41.1709],[20.7309,41.2121],[20.7602,41.2743],[20.7328,41.313],[20.7288,41.3612],[20.6873,41.4226],[20.8886,41.422],[20.9147,41.3558],[20.9555,41.3242],[20.9568,41.3041],[20.9932,41.2841],[21.0315,41.225],[20.9695,41.2275],[20.9073,41.2502],[20.8278,41.2442],[20.7943,41.2074],[20.7957,41.1874],[20.7783,41.182],[20.6641,41.0591]]]}},{"type":"Feature","id":"Delcevo","properties":{"id":"Delcevo","iso_code":"MK-23","name":"Delcevo","name_full":"Delčevo","name_ja":"デルチェヴォ","center_lonlat":[22.7431,41.9347]},"geometry":{"type":"Polygon","coordinates":[[[22.6272,42.0791],[22.7251,42.0425],[22.7809,42.0432],[22.7989,42.0212],[22.8382,42.0195],[22.8821,41.8716],[22.8315,41.8386],[22.812,41.8096],[22.7576,41.7885],[22.6744,41.8072],[22.7132,41.8985],[22.6086,41.9275],[22.6059,41.9825],[22.6062,42.004],[22.6238,42.0097],[22.6272,42.0791]]]}},{"type":"Feature","id":"Demir Hisar","properties":{"id":"Demir Hisar","iso_code":"MK-25","name":"Demir Hisar","name_full":"Demir Hisar","name_ja":"デミル・ヒサル","center_lonlat":[21.1337,41.2628]},"geometry":{"type":"Polygon","coordinates":[[[21.1391,41.3849],[21.1699,41.3715],[21.1699,41.3572],[21.2118,41.3572],[21.2193,41.306],[21.2468,41.3107],[21.2687,41.2965],[21.2933,41.2566],[21.2899,41.2188],[21.1779,41.1485],[21.097,41.1258],[21.0691,41.1985],[21.0394,41.2119],[21.0315,41.225],[20.9932,41.2841],[20.9568,41.3041],[20.9555,41.3242],[21.0077,41.354],[21.0855,41.3544],[21.1391,41.3849]]]}},{"type":"Feature","id":"Demir Kapija","properties":{"id":"Demir Kapija","iso_code":"MK-24","name":"Demir Kapija","name_full":"Demir Kapija","name_ja":"デミル・カピヤ","center_lonlat":[22.2323,41.3787]},"geometry":{"type":"Polygon","coordinates":[[[22.3001,41.4893],[22.3367,41.4676],[22.3242,41.4481],[22.33,41.4247],[22.3245,41.4022],[22.3365,41.378],[22.3474,41.3266],[22.3005,41.3253],[22.282,41.3059],[22.2224,41.2785],[22.1879,41.2785],[22.0848,41.3493],[22.1343,41.351],[22.1426,41.3764],[22.1255,41.4022],[22.1872,41.473],[22.2594,41.4548],[22.3001,41.4893]]]}},{"type":"Feature","id":"Dojran","properties":{"id":"Dojran","iso_code":"MK-26","name":"Dojran","name_full":"Dojran","name_ja":"ドイラン","center_lonlat":[22.675,41.2303]},"geometry":{"type":"Polygon","coordinates":[[[22.742,41.287],[22.7367,41.2044],[22.7157,41.1456],[22.6919,41.1446],[22.6572,41.177],[22.66,41.2085],[22.5906,41.2184],[22.5664,41.2415],[22.6053,41.2708],[22.6472,41.2727],[22.6622,41.2941],[22.742,41.287]]]}},{"type":"Feature","id":"Dolneni","properties":{"id":"Dolneni","iso_code":"MK-27","name":"Dolneni","name_full":"Dolneni","name_ja":"ドルネニ","center_lonlat":[21.4155,41.4562]},"geometry":{"type":"Polygon","coordinates":[[[21.3743,41.5929],[21.4231,41.5821],[21.4556,41.5536],[21.4777,41.4941],[21.5327,41.4932],[21.5435,41.4701],[21.5858,41.4607],[21.6026,41.4435],[21.5833,41.4332],[21.5755,41.4091],[21.5416,41.3919],[21.4543,41.3816],[21.4102,41.3508],[21.3498,41.3565],[21.3346,41.3875],[21.3104,41.3753],[21.2626,41.4096],[21.2671,41.4204],[21.3004,41.4199],[21.3015,41.4307],[21.2597,41.4721],[21.2881,41.4986],[21.3282,41.4902],[21.3302,41.5231],[21.3577,41.5506],[21.3743,41.5929]]]}},{"type":"Feature","id":"Drugovo","properties":{"id":"Drugovo","iso_code":"MK-28","name":"Drugovo","name_full":"Drugovo","name_ja":"ドルゴヴォ","center_lonlat":[20.9067,41.4398]},"geometry":{"type":"Polygon","coordinates":[[[20.8095,41.6147],[20.8969,41.5213],[20.9123,41.4982],[20.9755,41.4693],[20.9658,41.4494],[21.0046,41.412],[21.0567,41.414],[21.0712,41.4287],[21.0889,41.4327],[21.1335,41.405],[21.1391,41.3849],[21.0855,41.3544],[21.0077,41.354],[20.9555,41.3242],[20.9147,41.3558],[20.8886,41.422],[20.6873,41.4226],[20.6848,41.4249],[20.7047,41.4742],[20.7289,41.4788],[20.7689,41.4768],[20.8039,41.507],[20.8176,41.5394],[20.8095,41.6147]]]}},{"type":"Feature","id":"Gazi Baba","properties":{"id":"Gazi Baba","iso_code":"MK-17","name":"Gazi Baba","name_full":"Gazi Baba","name_ja":"ガジババ","center_lonlat":[21.5114,42.0087]},"geometry":{"type":"Polygon","coordinates":[[[21.4459,41.9971],[21.4668,42.0085],[21.4693,42.0629],[21.511,42.1017],[21.5409,42.0702],[21.5523,42.0207],[21.54,41.9874],[21.5306,41.9721],[21.5722,41.9504],[21.5829,41.9197],[21.572,41.9101],[21.5543,41.9279],[21.4443,41.9828],[21.4459,41.9971]]]}},{"type":"Feature","id":"Gevgelija","properties":{"id":"Gevgelija","iso_code":"MK-18","name":"Gevgelija","name_full":"Gevgelija","name_ja":"ゲヴゲリヤ","center_lonlat":[22.386,41.2221]},"geometry":{"type":"Polygon","coordinates":[[[22.5866,41.1241],[22.4515,41.1137],[22.3802,41.1317],[22.3087,41.125],[22.3026,41.1455],[22.2136,41.1607],[22.2148,41.1885],[22.2616,41.194],[22.2502,41.2362],[22.3022,41.2561],[22.282,41.3059],[22.3005,41.3253],[22.3474,41.3266],[22.3365,41.378],[22.4001,41.3615],[22.4467,41.3182],[22.4682,41.3134],[22.4813,41.2363],[22.5046,41.213],[22.5256,41.1862],[22.5175,41.1507],[22.5866,41.1241]]]}},{"type":"Feature","id":"Gjorce Petrov","properties":{"id":"Gjorce Petrov","iso_code":"MK-29","name":"Gjorce Petrov","name_full":"Gjorče Petrov","name_ja":"ジョルチェ・ペトロフ","center_lonlat":[21.3105,42.0497]},"geometry":{"type":"Polygon","coordinates":[[[21.3008,42.0984],[21.342,42.0715],[21.3592,42.0291],[21.3586,41.9848],[21.318,42.0011],[21.2843,42.0556],[21.2505,42.0517],[21.2457,42.0962],[21.2889,42.0897],[21.3008,42.0984]]]}},{"type":"Feature","id":"Gostivar","properties":{"id":"Gostivar","iso_code":"MK-19","name":"Gostivar","name_full":"Gostivar","name_ja":"ゴスティヴァル","center_lonlat":[20.8495,41.7684]},"geometry":{"type":"Polygon","coordinates":[[[20.5501,41.8001],[20.5417,41.8616],[20.5671,41.8732],[20.6024,41.8499],[20.6434,41.8736],[20.6815,41.844],[20.7144,41.8592],[20.7523,41.8412],[20.7924,41.8392],[20.8111,41.8138],[20.8465,41.8044],[20.9348,41.8138],[20.94,41.8385],[20.9559,41.8495],[21.0277,41.8365],[21.029,41.8211],[21.0791,41.7773],[21.0527,41.775],[21.0474,41.7409],[21.03,41.7282],[21.0561,41.6794],[21.0529,41.6476],[20.985,41.6245],[20.9444,41.6547],[20.8974,41.6645],[20.8606,41.7122],[20.8745,41.7282],[20.8244,41.7235],[20.7943,41.773],[20.7201,41.7784],[20.69,41.7536],[20.6693,41.755],[20.5501,41.8001]]]}},{"type":"Feature","id":"Gradsko","properties":{"id":"Gradsko","iso_code":"MK-20","name":"Gradsko","name_full":"Gradsko","name_ja":"グラドスコ","center_lonlat":[21.8905,41.5932]},"geometry":{"type":"Polygon","coordinates":[[[21.9834,41.5525],[21.9586,41.5518],[21.956,41.5375],[21.9238,41.5436],[21.9022,41.5216],[21.8514,41.5323],[21.8519,41.5042],[21.8161,41.4879],[21.7889,41.5002],[21.788,41.5287],[21.8059,41.5571],[21.7718,41.5825],[21.7734,41.6019],[21.7797,41.621],[21.8059,41.6227],[21.8575,41.6844],[21.8614,41.712],[21.8855,41.7155],[21.9,41.652],[21.9368,41.6459],[21.9612,41.664],[22.0108,41.6535],[21.9786,41.5994],[22.0307,41.5965],[22.0155,41.56],[22.0254,41.5465],[22.0024,41.5276],[21.997,41.5503],[21.9834,41.5525]]]}},{"type":"Feature","id":"Ilinden","properties":{"id":"Ilinden","iso_code":"MK-34","name":"Ilinden","name_full":"Ilinden","name_ja":"イリンデン","center_lonlat":[21.6203,41.9791]},"geometry":{"type":"Polygon","coordinates":[[[21.5829,41.9197],[21.5722,41.9504],[21.5306,41.9721],[21.54,41.9874],[21.588,42.0003],[21.6335,42.04],[21.6856,42.0136],[21.6867,41.9838],[21.669,41.9561],[21.6741,41.9343],[21.6226,41.9414],[21.5829,41.9197]]]}},{"type":"Feature","id":"Jegunovce","properties":{"id":"Jegunovce","iso_code":"MK-35","name":"Jegunovce","name_full":"Jegunovce","name_ja":"イェグノヴツェ","center_lonlat":[21.1323,42.0896]},"geometry":{"type":"Polygon","coordinates":[[[21.2293,42.1038],[21.2158,42.0901],[21.1496,42.0779],[21.1658,42.0651],[21.1851,42.0691],[21.1891,42.0513],[21.169,42.0384],[21.179,42.0056],[21.1384,41.9898],[21.0844,41.9828],[21.0725,41.9858],[21.0711,42.0036],[21.0314,42.0074],[21.0294,42.0138],[21.0926,42.0319],[21.1312,42.0846],[21.0409,42.16],[21.113,42.1944],[21.1999,42.1412],[21.2293,42.1038]]]}},{"type":"Feature","id":"Karbinci","properties":{"id":"Karbinci","iso_code":"MK-37","name":"Karbinci","name_full":"Karbinci","name_ja":"カルビンツィ","center_lonlat":[22.2794,41.7795]},"geometry":{"type":"Polygon","coordinates":[[[22.2245,41.8492],[22.2825,41.8105],[22.391,41.7922],[22.4466,41.7893],[22.4462,41.7702],[22.4184,41.7561],[22.401,41.7127],[22.2981,41.7086],[22.1869,41.7768],[22.141,41.7806],[22.1228,41.8362],[22.1472,41.8597],[22.1675,41.8644],[22.1843,41.8442],[22.2245,41.8492]]]}},{"type":"Feature","id":"Karpos","properties":{"id":"Karpos","iso_code":"MK-38","name":"Karpos","name_full":"Karpoš","name_ja":"カルポス","center_lonlat":[21.3887,41.9813]},"geometry":{"type":"Polygon","coordinates":[[[21.3599,41.9484],[21.3586,41.9848],[21.3592,42.0291],[21.3817,42.0218],[21.3992,42.0027],[21.428,42.0029],[21.4273,41.9867],[21.4098,41.9684],[21.4278,41.9551],[21.4285,41.9454],[21.3599,41.9484]]]}},{"type":"Feature","id":"Kavadarci","properties":{"id":"Kavadarci","iso_code":"MK-36","name":"Kavadarci","name_full":"Kavadarci","name_ja":"カヴァダルツィ","center_lonlat":[22.0138,41.2856]},"geometry":{"type":"Polygon","coordinates":[[[22.2136,41.1607],[22.1603,41.1519],[22.1034,41.1215],[22.0482,41.1519],[21.9255,41.1068],[21.9207,41.1326],[21.8878,41.1377],[21.8855,41.1918],[21.8666,41.2123],[21.8834,41.2646],[21.8322,41.2666],[21.8225,41.2871],[21.8292,41.3568],[21.814,41.3868],[21.8166,41.4293],[21.794,41.415],[21.772,41.4413],[21.7925,41.4632],[21.8098,41.4565],[21.8346,41.4319],[21.8976,41.4324],[21.9115,41.4529],[21.9489,41.4411],[21.976,41.4626],[21.9838,41.503],[22.0442,41.496],[22.0539,41.4022],[22.0693,41.3565],[22.0848,41.3493],[22.1879,41.2785],[22.2224,41.2785],[22.282,41.3059],[22.3022,41.2561],[22.2502,41.2362],[22.2616,41.194],[22.2148,41.1885],[22.2136,41.1607]]]}},{"type":"Feature","id":"Kicevo","properties":{"id":"Kicevo","iso_code":"MK-40","name":"Kicevo","name_full":"Kičevo","name_ja":"キチェボ","center_lonlat":[20.9534,41.5118]},"geometry":{"type":"Polygon","coordinates":[[[20.9673,41.5499],[20.9745,41.529],[20.9999,41.529],[21.0053,41.5042],[20.9755,41.4693],[20.9123,41.4982],[20.8969,41.5213],[20.9016,41.5343],[20.9673,41.5499]]]}},{"type":"Feature","id":"Kisela Voda","properties":{"id":"Kisela Voda","iso_code":"MK-39","name":"Kisela Voda","name_full":"Kisela Voda","name_ja":"キセラ・ボーダ","center_lonlat":[21.4801,41.9306]},"geometry":{"type":"Polygon","coordinates":[[[21.4474,41.9255],[21.4434,41.9429],[21.4285,41.9454],[21.4278,41.9551],[21.4345,41.9718],[21.5361,41.9187],[21.5018,41.8904],[21.4895,41.894],[21.478,41.9281],[21.4474,41.9255]]]}},{"type":"Feature","id":"Kocani","properties":{"id":"Kocani","iso_code":"MK-42","name":"Kocani","name_full":"Kočani","name_ja":"クアツェーニ","center_lonlat":[22.3942,41.9739]},"geometry":{"type":"Polygon","coordinates":[[[22.2563,41.9482],[22.3282,42.0009],[22.3368,42.0261],[22.3542,42.0704],[22.3466,42.0945],[22.417,42.0996],[22.4279,42.0841],[22.4426,42.0955],[22.455,42.0855],[22.4559,42.0541],[22.4887,42.0323],[22.5177,41.9452],[22.4965,41.9376],[22.4543,41.9515],[22.4355,41.8695],[22.4071,41.8525],[22.391,41.86],[22.3565,41.8467],[22.3362,41.8558],[22.3251,41.8802],[22.3276,41.9199],[22.2887,41.9191],[22.2563,41.9482]]]}},{"type":"Feature","id":"Konce","properties":{"id":"Konce","iso_code":"MK-41","name":"Konce","name_full":"Konče","name_ja":"コンチェ","center_lonlat":[22.3818,41.5132]},"geometry":{"type":"Polygon","coordinates":[[[22.3001,41.4893],[22.2603,41.5436],[22.3234,41.5988],[22.4191,41.5793],[22.464,41.5389],[22.4512,41.5185],[22.5037,41.5073],[22.5089,41.4666],[22.4458,41.446],[22.3652,41.4401],[22.33,41.4247],[22.3242,41.4481],[22.3367,41.4676],[22.3001,41.4893]]]}},{"type":"Feature","id":"Kratovo","properties":{"id":"Kratovo","iso_code":"MK-43","name":"Kratovo","name_full":"Kratovo","name_ja":"クラトヴォ","center_lonlat":[22.1185,42.0715]},"geometry":{"type":"Polygon","coordinates":[[[22.3368,42.0261],[22.3018,42.0508],[22.2491,42.0513],[22.2384,42.0116],[22.2151,42.0253],[22.1822,42.019],[22.1629,42.0343],[22.0788,42.0168],[22.0635,41.9907],[22.0248,42.0001],[21.9858,41.9996],[21.9522,42.0462],[21.9227,42.0521],[21.946,42.0974],[21.9814,42.1133],[21.9909,42.1619],[22.0237,42.1635],[22.0519,42.1492],[22.057,42.1287],[22.0959,42.1215],[22.1417,42.0893],[22.1903,42.0988],[22.2034,42.1203],[22.2333,42.1114],[22.2826,42.1216],[22.3466,42.0945],[22.3542,42.0704],[22.3368,42.0261]]]}},{"type":"Feature","id":"Kriva Palanka","properties":{"id":"Kriva Palanka","iso_code":"MK-44","name":"Kriva Palanka","name_full":"Kriva Palanka","name_ja":"クリヴァ・パランカ","center_lonlat":[22.3119,42.2152]},"geometry":{"type":"Polygon","coordinates":[[[22.5069,42.1489],[22.417,42.0996],[22.3466,42.0945],[22.2826,42.1216],[22.2333,42.1114],[22.2034,42.1203],[22.1923,42.2669],[22.1423,42.2951],[22.1381,42.3191],[22.2689,42.3703],[22.2769,42.3412],[22.3076,42.3193],[22.345,42.3134],[22.4436,42.2144],[22.4814,42.1933],[22.5069,42.1489]]]}},{"type":"Feature","id":"Krivogastani","properties":{"id":"Krivogastani","iso_code":"MK-45","name":"Krivogastani","name_full":"Krivogaštani","name_ja":"クリヴォガシュタニ","center_lonlat":[21.363,41.3117]},"geometry":{"type":"Polygon","coordinates":[[[21.4102,41.3508],[21.3939,41.3373],[21.4032,41.3192],[21.4278,41.3152],[21.414,41.2705],[21.3646,41.2462],[21.3346,41.263],[21.3218,41.2705],[21.3336,41.3019],[21.3086,41.3383],[21.3104,41.3753],[21.3346,41.3875],[21.3498,41.3565],[21.4102,41.3508]]]}},{"type":"Feature","id":"Krusevo","properties":{"id":"Krusevo","iso_code":"MK-46","name":"Krusevo","name_full":"Kruševo","name_ja":"クルシェヴォ","center_lonlat":[21.2511,41.361]},"geometry":{"type":"Polygon","coordinates":[[[21.2597,41.4721],[21.3015,41.4307],[21.3004,41.4199],[21.2671,41.4204],[21.2626,41.4096],[21.3104,41.3753],[21.3086,41.3383],[21.3336,41.3019],[21.3218,41.2705],[21.3346,41.263],[21.3042,41.2287],[21.314,41.2103],[21.2899,41.2188],[21.2933,41.2566],[21.2687,41.2965],[21.2468,41.3107],[21.2193,41.306],[21.2118,41.3572],[21.1699,41.3572],[21.1699,41.3715],[21.1391,41.3849],[21.1335,41.405],[21.1952,41.4291],[21.2407,41.4426],[21.2466,41.472],[21.2597,41.4721]]]}},{"type":"Feature","id":"Kumanovo","properties":{"id":"Kumanovo","iso_code":"MK-47","name":"Kumanovo","name_full":"Kumanovo","name_ja":"クマノヴォ","center_lonlat":[21.7779,42.0736]},"geometry":{"type":"Polygon","coordinates":[[[21.6769,42.2349],[21.7195,42.261],[21.7821,42.232],[21.7804,42.2189],[21.7576,42.2082],[21.7551,42.1535],[21.7596,42.1293],[21.7852,42.1044],[21.8519,42.1207],[21.9032,42.1065],[21.9277,42.1248],[21.946,42.0974],[21.9227,42.0521],[21.9522,42.0462],[21.9858,41.9996],[21.9744,41.9854],[21.9309,41.9741],[21.9082,41.9968],[21.8673,41.9972],[21.8129,41.9419],[21.7821,41.9621],[21.7362,41.9558],[21.6867,41.9838],[21.6856,42.0136],[21.6335,42.04],[21.6324,42.0514],[21.6037,42.0594],[21.6013,42.0752],[21.6306,42.0916],[21.6392,42.134],[21.6644,42.1315],[21.6644,42.1571],[21.6862,42.1672],[21.6769,42.2349]]]}},{"type":"Feature","id":"Lipkovo","properties":{"id":"Lipkovo","iso_code":"MK-48","name":"Lipkovo","name_full":"Lipkovo","name_ja":"リプコヴォ","center_lonlat":[21.5809,42.1622]},"geometry":{"type":"Polygon","coordinates":[[[21.6769,42.2349],[21.6862,42.1672],[21.6644,42.1571],[21.6644,42.1315],[21.6392,42.134],[21.6306,42.0916],[21.6013,42.0752],[21.6037,42.0594],[21.5966,42.0377],[21.5747,42.0388],[21.5409,42.0702],[21.511,42.1017],[21.4863,42.1418],[21.5129,42.1545],[21.5157,42.1811],[21.482,42.212],[21.472,42.2391],[21.5618,42.2472],[21.6769,42.2349]]]}},{"type":"Feature","id":"Lozovo","properties":{"id":"Lozovo","iso_code":"MK-49","name":"Lozovo","name_full":"Lozovo","name_ja":"ロゾヴォ","center_lonlat":[21.9058,41.7461]},"geometry":{"type":"Polygon","coordinates":[[[21.8489,41.8349],[21.93,41.7979],[22.014,41.7329],[21.9914,41.7088],[21.9606,41.7232],[21.9405,41.7052],[21.9368,41.6924],[21.9612,41.664],[21.9368,41.6459],[21.9,41.652],[21.8855,41.7155],[21.8614,41.712],[21.8449,41.7343],[21.8226,41.74],[21.8379,41.7772],[21.816,41.8008],[21.8489,41.8349]]]}},{"type":"Feature","id":"Makedonska Kamenica","properties":{"id":"Makedonska Kamenica","iso_code":"MK-51","name":"Makedonska Kamenica","name_full":"Makedonska Kamenica","name_ja":"マケドンスカ・カメニツァ","center_lonlat":[22.5362,42.0535]},"geometry":{"type":"Polygon","coordinates":[[[22.5069,42.1489],[22.6272,42.0791],[22.6238,42.0097],[22.6062,42.004],[22.6059,41.9825],[22.5741,41.9862],[22.5503,41.9458],[22.5177,41.9452],[22.4887,42.0323],[22.4559,42.0541],[22.455,42.0855],[22.4426,42.0955],[22.4279,42.0841],[22.417,42.0996],[22.5069,42.1489]]]}},{"type":"Feature","id":"Makedonski Brod","properties":{"id":"Makedonski Brod","iso_code":"MK-52","name":"Makedonski Brod","name_full":"Makedonski Brod","name_ja":"マケドンスキ・ブロド","center_lonlat":[21.211,41.6415]},"geometry":{"type":"Polygon","coordinates":[[[21.1838,41.839],[21.2338,41.8172],[21.3047,41.7388],[21.3464,41.728],[21.374,41.7186],[21.374,41.6845],[21.3953,41.6635],[21.3725,41.6322],[21.3743,41.5929],[21.3577,41.5506],[21.3302,41.5231],[21.3282,41.4902],[21.2881,41.4986],[21.2597,41.4721],[21.2466,41.472],[21.2407,41.4426],[21.1952,41.4291],[21.1545,41.4538],[21.1444,41.4806],[21.0762,41.4667],[21.0781,41.4828],[21.1483,41.5283],[21.1136,41.5524],[21.1015,41.5798],[21.0976,41.6293],[21.0621,41.6346],[21.0529,41.6476],[21.0561,41.6794],[21.03,41.7282],[21.0474,41.7409],[21.0527,41.775],[21.0791,41.7773],[21.147,41.8292],[21.1838,41.839]]]}},{"type":"Feature","id":"Mavrovo and Rostusa","properties":{"id":"Mavrovo and Rostusa","iso_code":"MK-50","name":"Mavrovo and Rostusa","name_full":"Mavrovo and Rostuša","name_ja":"マヴロヴォ・ロストゥシャ","center_lonlat":[20.6827,41.6517]},"geometry":{"type":"Polygon","coordinates":[[[20.5347,41.5873],[20.5083,41.6617],[20.5004,41.7341],[20.5501,41.8001],[20.6693,41.755],[20.69,41.7536],[20.7201,41.7784],[20.7943,41.773],[20.8244,41.7235],[20.8745,41.7282],[20.8606,41.7122],[20.8974,41.6645],[20.8535,41.66],[20.7833,41.6239],[20.8095,41.6147],[20.8176,41.5394],[20.8039,41.507],[20.7689,41.4768],[20.7289,41.4788],[20.7246,41.4955],[20.6891,41.507],[20.6431,41.5457],[20.5982,41.5509],[20.5347,41.5873]]]}},{"type":"Feature","id":"Mogila","properties":{"id":"Mogila","iso_code":"MK-53","name":"Mogila","name_full":"Mogila","name_ja":"モギラ","center_lonlat":[21.43,41.1565]},"geometry":{"type":"Polygon","coordinates":[[[21.3646,41.2462],[21.4403,41.1914],[21.4943,41.1712],[21.5366,41.1776],[21.5993,41.1547],[21.541,41.0929],[21.4569,41.1062],[21.43,41.084],[21.3848,41.0773],[21.3641,41.0862],[21.3607,41.1314],[21.3174,41.1609],[21.3229,41.2007],[21.314,41.2103],[21.3042,41.2287],[21.3346,41.263],[21.3646,41.2462]]]}},{"type":"Feature","id":"Negotino","properties":{"id":"Negotino","iso_code":"MK-54","name":"Negotino","name_full":"Negotino","name_ja":"ネゴティノ","center_lonlat":[22.1172,41.5071]},"geometry":{"type":"Polygon","coordinates":[[[21.9838,41.503],[21.9834,41.5525],[21.997,41.5503],[22.0024,41.5276],[22.0254,41.5465],[22.0155,41.56],[22.0307,41.5965],[21.9786,41.5994],[22.0108,41.6535],[22.061,41.6223],[22.0893,41.6416],[22.1172,41.5907],[22.1685,41.5871],[22.1718,41.5661],[22.216,41.5457],[22.2603,41.5436],[22.3001,41.4893],[22.2594,41.4548],[22.1872,41.473],[22.1255,41.4022],[22.1426,41.3764],[22.1343,41.351],[22.0848,41.3493],[22.0693,41.3565],[22.0539,41.4022],[22.0442,41.496],[21.9838,41.503]]]}},{"type":"Feature","id":"Novaci","properties":{"id":"Novaci","iso_code":"MK-55","name":"Novaci","name_full":"Novaci","name_ja":"ノヴァツィ","center_lonlat":[21.6396,41.0199]},"geometry":{"type":"Polygon","coordinates":[[[21.5057,40.9009],[21.5039,40.9513],[21.4629,40.9929],[21.4413,40.9971],[21.4214,41.052],[21.43,41.084],[21.4569,41.1062],[21.541,41.0929],[21.5993,41.1547],[21.6151,41.1611],[21.6446,41.1351],[21.7658,41.1104],[21.7935,41.0911],[21.8375,41.0953],[21.8963,41.0647],[21.8313,40.9935],[21.7837,40.9642],[21.7655,40.9239],[21.6851,40.928],[21.6569,40.9182],[21.6488,40.8958],[21.6237,40.8944],[21.5816,40.8663],[21.5057,40.9009]]]}},{"type":"Feature","id":"Novo Selo","properties":{"id":"Novo Selo","iso_code":"MK-56","name":"Novo Selo","name_full":"Novo Selo","name_ja":"ノヴォ・セロ","center_lonlat":[22.8763,41.4212]},"geometry":{"type":"Polygon","coordinates":[[[22.7968,41.337],[22.7862,41.3973],[22.8014,41.4129],[22.8014,41.4486],[22.8566,41.4923],[22.8581,41.5171],[22.9436,41.5232],[22.9546,41.4324],[22.9373,41.4108],[22.9409,41.3498],[22.917,41.3358],[22.7968,41.337]]]}},{"type":"Feature","id":"Ohrid","properties":{"id":"Ohrid","iso_code":"MK-58","name":"Ohrid","name_full":"Ohrid","name_ja":"オフリド","center_lonlat":[20.8197,41.0862]},"geometry":{"type":"Polygon","coordinates":[[[20.6641,41.0591],[20.7783,41.182],[20.7957,41.1874],[20.7943,41.2074],[20.8278,41.2442],[20.9073,41.2502],[20.9695,41.2275],[21.0315,41.225],[21.0394,41.2119],[20.9045,41.1219],[20.8905,41.0533],[20.8772,41.0466],[20.8869,40.9974],[20.842,40.9822],[20.8365,40.9239],[20.7661,40.8937],[20.7172,40.9132],[20.6641,41.0591]]]}},{"type":"Feature","id":"Oslomej","properties":{"id":"Oslomej","iso_code":"MK-57","name":"Oslomej","name_full":"Oslomej","name_ja":"オスロメイ","center_lonlat":[21.0334,41.5813]},"geometry":{"type":"Polygon","coordinates":[[[21.0529,41.6476],[21.0621,41.6346],[21.0976,41.6293],[21.1015,41.5798],[21.0534,41.545],[21.0353,41.5123],[21.0053,41.5042],[20.9999,41.529],[20.9745,41.529],[20.9673,41.5499],[20.9858,41.5784],[20.985,41.6245],[21.0529,41.6476]]]}},{"type":"Feature","id":"Pehcevo","properties":{"id":"Pehcevo","iso_code":"MK-60","name":"Pehcevo","name_full":"Pehčevo","name_ja":"ペフチェヴォ","center_lonlat":[22.8864,41.7687]},"geometry":{"type":"Polygon","coordinates":[[[22.8821,41.8716],[22.9014,41.8604],[22.9459,41.7693],[22.9912,41.761],[23.0089,41.7399],[23.0096,41.7164],[22.9854,41.6772],[22.9076,41.7126],[22.878,41.7131],[22.8614,41.7312],[22.7863,41.7283],[22.7576,41.7885],[22.812,41.8096],[22.8315,41.8386],[22.8821,41.8716]]]}},{"type":"Feature","id":"Plasnica","properties":{"id":"Plasnica","iso_code":"MK-61","name":"Plasnica","name_full":"Plasnica","name_ja":"プラスニツァ","center_lonlat":[21.1151,41.4439]},"geometry":{"type":"Polygon","coordinates":[[[21.1952,41.4291],[21.1335,41.405],[21.0889,41.4327],[21.0712,41.4287],[21.0527,41.426],[21.04,41.4655],[21.0762,41.4667],[21.1444,41.4806],[21.1545,41.4538],[21.1952,41.4291]]]}},{"type":"Feature","id":"Prilep","properties":{"id":"Prilep","iso_code":"MK-62","name":"Prilep","name_full":"Prilep","name_ja":"プリレプ","center_lonlat":[21.6618,41.2717]},"geometry":{"type":"Polygon","coordinates":[[[21.9255,41.1068],[21.9012,41.0908],[21.8963,41.0647],[21.8375,41.0953],[21.7935,41.0911],[21.7658,41.1104],[21.6446,41.1351],[21.6151,41.1611],[21.5993,41.1547],[21.5366,41.1776],[21.4943,41.1712],[21.4403,41.1914],[21.3646,41.2462],[21.414,41.2705],[21.4278,41.3152],[21.4032,41.3192],[21.3939,41.3373],[21.4102,41.3508],[21.4543,41.3816],[21.5416,41.3919],[21.5755,41.4091],[21.5833,41.4332],[21.6026,41.4435],[21.6566,41.4278],[21.6737,41.4651],[21.7224,41.474],[21.772,41.4413],[21.794,41.415],[21.8166,41.4293],[21.814,41.3868],[21.8292,41.3568],[21.8225,41.2871],[21.8322,41.2666],[21.8834,41.2646],[21.8666,41.2123],[21.8855,41.1918],[21.8878,41.1377],[21.9207,41.1326],[21.9255,41.1068]]]}},{"type":"Feature","id":"Probistip","properties":{"id":"Probistip","iso_code":"MK-63","name":"Probistip","name_full":"Probištip","name_ja":"プロビシュティプ","center_lonlat":[22.1706,41.9609]},"geometry":{"type":"Polygon","coordinates":[[[22.2563,41.9482],[22.2413,41.9461],[22.2239,41.9116],[22.1881,41.891],[22.2245,41.8492],[22.1843,41.8442],[22.1675,41.8644],[22.1472,41.8597],[22.0986,41.8675],[22.0855,41.8812],[22.0941,41.9034],[22.0141,41.9646],[22.0248,42.0001],[22.0635,41.9907],[22.0788,42.0168],[22.1629,42.0343],[22.1822,42.019],[22.2151,42.0253],[22.2384,42.0116],[22.2491,42.0513],[22.3018,42.0508],[22.3368,42.0261],[22.3282,42.0009],[22.2563,41.9482]]]}},{"type":"Feature","id":"Radovis","properties":{"id":"Radovis","iso_code":"MK-64","name":"Radovis","name_full":"Radoviš","name_ja":"ラドヴィシュ","center_lonlat":[22.4842,41.6467]},"geometry":{"type":"Polygon","coordinates":[[[22.401,41.7127],[22.4184,41.7561],[22.4462,41.7702],[22.4826,41.7523],[22.5187,41.7552],[22.5362,41.7694],[22.5918,41.7319],[22.6209,41.7271],[22.6249,41.6963],[22.6445,41.6845],[22.6243,41.656],[22.6292,41.6341],[22.5966,41.6292],[22.5776,41.6026],[22.6052,41.5574],[22.6,41.527],[22.5861,41.5209],[22.5353,41.5498],[22.4996,41.5294],[22.5037,41.5073],[22.4512,41.5185],[22.464,41.5389],[22.4191,41.5793],[22.3234,41.5988],[22.3069,41.6112],[22.2946,41.6663],[22.3174,41.6801],[22.3692,41.6682],[22.401,41.7127]]]}},{"type":"Feature","id":"Rankovce","properties":{"id":"Rankovce","iso_code":"MK-65","name":"Rankovce","name_full":"Rankovce","name_ja":"ランコヴツェ","center_lonlat":[22.1195,42.2038]},"geometry":{"type":"Polygon","coordinates":[[[22.1381,42.3191],[22.1423,42.2951],[22.1923,42.2669],[22.2034,42.1203],[22.1903,42.0988],[22.1417,42.0893],[22.0959,42.1215],[22.057,42.1287],[22.0519,42.1492],[22.0237,42.1635],[22.0472,42.1687],[22.0215,42.2412],[22.0515,42.2553],[22.0454,42.3024],[22.1381,42.3191]]]}},{"type":"Feature","id":"Resen","properties":{"id":"Resen","iso_code":"MK-66","name":"Resen","name_full":"Resen","name_ja":"レセン","center_lonlat":[21.0296,40.9957]},"geometry":{"type":"Polygon","coordinates":[[[20.8365,40.9239],[20.842,40.9822],[20.8869,40.9974],[20.8772,41.0466],[20.8905,41.0533],[20.9045,41.1219],[21.0394,41.2119],[21.0691,41.1985],[21.097,41.1258],[21.1057,41.0923],[21.0776,41.068],[21.0738,41.0467],[21.1025,41.0356],[21.1348,40.9792],[21.1766,40.9798],[21.2052,40.9482],[21.2452,40.9421],[21.2611,40.9069],[21.2458,40.8632],[21.183,40.8702],[21.1121,40.8539],[20.9653,40.8494],[20.9567,40.8948],[20.9399,40.9071],[20.8365,40.9239]]]}},{"type":"Feature","id":"Rosoman","properties":{"id":"Rosoman","iso_code":"MK-67","name":"Rosoman","name_full":"Rosoman","name_ja":"ロソマン","center_lonlat":[21.904,41.4863]},"geometry":{"type":"Polygon","coordinates":[[[21.8098,41.4565],[21.8161,41.4879],[21.8519,41.5042],[21.8514,41.5323],[21.9022,41.5216],[21.9238,41.5436],[21.956,41.5375],[21.9586,41.5518],[21.9834,41.5525],[21.9838,41.503],[21.976,41.4626],[21.9489,41.4411],[21.9115,41.4529],[21.8976,41.4324],[21.8346,41.4319],[21.8098,41.4565]]]}},{"type":"Feature","id":"Saraj","properties":{"id":"Saraj","iso_code":"MK-68","name":"Saraj","name_full":"Saraj","name_ja":"サラヤ","center_lonlat":[21.2463,41.9848]},"geometry":{"type":"Polygon","coordinates":[[[21.2293,42.1038],[21.2457,42.0962],[21.2505,42.0517],[21.2843,42.0556],[21.318,42.0011],[21.3586,41.9848],[21.3599,41.9484],[21.2171,41.8777],[21.1802,41.9003],[21.1906,41.9662],[21.1384,41.9898],[21.179,42.0056],[21.169,42.0384],[21.1891,42.0513],[21.1851,42.0691],[21.1658,42.0651],[21.1496,42.0779],[21.2158,42.0901],[21.2293,42.1038]]]}},{"type":"Feature","id":"Skopje","properties":{"id":"Skopje","iso_code":"MK-85","name":"Skopje","name_full":"Skopje","name_ja":"スコピエ","center_lonlat":[21.6932,41.8986]},"geometry":{"type":"Polygon","coordinates":[[[21.572,41.9101],[21.5829,41.9197],[21.6226,41.9414],[21.6741,41.9343],[21.669,41.9561],[21.6867,41.9838],[21.7362,41.9558],[21.7821,41.9621],[21.8129,41.9419],[21.8032,41.9116],[21.7369,41.8866],[21.7212,41.8053],[21.6862,41.8188],[21.6665,41.8022],[21.6648,41.8171],[21.6272,41.8199],[21.6372,41.8827],[21.5864,41.8949],[21.5691,41.896],[21.572,41.9101]]]}},{"type":"Feature","id":"Sopiste","properties":{"id":"Sopiste","iso_code":"MK-70","name":"Sopiste","name_full":"Sopište","name_ja":"ソピシュテ","center_lonlat":[21.3227,41.8565]},"geometry":{"type":"Polygon","coordinates":[[[21.2338,41.8172],[21.2408,41.8559],[21.2171,41.8777],[21.3599,41.9484],[21.4285,41.9454],[21.4434,41.9429],[21.4474,41.9255],[21.44,41.8883],[21.3591,41.8941],[21.3366,41.8851],[21.3411,41.8631],[21.3798,41.8554],[21.3591,41.8444],[21.3476,41.8056],[21.3333,41.8004],[21.35,41.7766],[21.3387,41.7514],[21.3464,41.728],[21.3047,41.7388],[21.2338,41.8172]]]}},{"type":"Feature","id":"Staro Nagoricane","properties":{"id":"Staro Nagoricane","iso_code":"MK-71","name":"Staro Nagoricane","name_full":"Staro Nagoričane","name_ja":"スタロ・ナゴリチャネ","center_lonlat":[21.8967,42.2168]},"geometry":{"type":"Polygon","coordinates":[[[22.0454,42.3024],[22.0515,42.2553],[22.0215,42.2412],[22.0472,42.1687],[22.0237,42.1635],[21.9909,42.1619],[21.9814,42.1133],[21.946,42.0974],[21.9277,42.1248],[21.9032,42.1065],[21.8519,42.1207],[21.7852,42.1044],[21.7596,42.1293],[21.7551,42.1535],[21.7576,42.2082],[21.7804,42.2189],[21.7821,42.232],[21.7195,42.261],[21.8172,42.3051],[21.8844,42.3095],[21.929,42.3351],[22.0454,42.3024]]]}},{"type":"Feature","id":"Stip","properties":{"id":"Stip","iso_code":"MK-83","name":"Stip","name_full":"Štip","name_ja":"シュティプ","center_lonlat":[22.1607,41.6842]},"geometry":{"type":"Polygon","coordinates":[[[22.0108,41.6535],[21.9612,41.664],[21.9368,41.6924],[21.9405,41.7052],[21.9606,41.7232],[21.9914,41.7088],[22.014,41.7329],[22.0461,41.7214],[22.0326,41.7712],[22.0957,41.8172],[22.0827,41.8512],[22.0986,41.8675],[22.1472,41.8597],[22.1228,41.8362],[22.141,41.7806],[22.1869,41.7768],[22.2981,41.7086],[22.401,41.7127],[22.3692,41.6682],[22.3174,41.6801],[22.2946,41.6663],[22.3069,41.6112],[22.3234,41.5988],[22.2603,41.5436],[22.216,41.5457],[22.1718,41.5661],[22.1685,41.5871],[22.1172,41.5907],[22.0893,41.6416],[22.061,41.6223],[22.0108,41.6535]]]}},{"type":"Feature","id":"Struga","properties":{"id":"Struga","iso_code":"MK-72","name":"Struga","name_full":"Struga","name_ja":"ストルガ基礎自治体","center_lonlat":[20.6292,41.2602]},"geometry":{"type":"Polygon","coordinates":[[[20.539,41.4029],[20.6466,41.4026],[20.6784,41.4255],[20.6848,41.4249],[20.6873,41.4226],[20.7288,41.3612],[20.7328,41.313],[20.7602,41.2743],[20.7309,41.2121],[20.7412,41.1709],[20.6539,41.0753],[20.577,41.0935],[20.5655,41.1474],[20.5127,41.2101],[20.5949,41.2212],[20.6266,41.2388],[20.5681,41.2535],[20.4954,41.2503],[20.4817,41.3412],[20.496,41.3378],[20.5234,41.3568],[20.539,41.4029]]]}},{"type":"Feature","id":"Strumica","properties":{"id":"Strumica","iso_code":"MK-73","name":"Strumica","name_full":"Strumica","name_ja":"ストルミツァ","center_lonlat":[22.624,41.3952]},"geometry":{"type":"Polygon","coordinates":[[[22.7968,41.337],[22.7623,41.3225],[22.6955,41.3483],[22.6613,41.316],[22.6304,41.3113],[22.6024,41.3131],[22.5843,41.3326],[22.5362,41.3298],[22.5168,41.3692],[22.532,41.3996],[22.4806,41.4134],[22.4458,41.446],[22.5089,41.4666],[22.5426,41.4909],[22.6011,41.4572],[22.6743,41.4729],[22.694,41.4439],[22.686,41.4206],[22.7259,41.4201],[22.7502,41.3925],[22.7862,41.3973],[22.7968,41.337]]]}},{"type":"Feature","id":"Studenicani","properties":{"id":"Studenicani","iso_code":"MK-74","name":"Studenicani","name_full":"Studeničani","name_ja":"ストゥデニチャニ","center_lonlat":[21.4321,41.8177]},"geometry":{"type":"Polygon","coordinates":[[[21.3464,41.728],[21.3387,41.7514],[21.35,41.7766],[21.3333,41.8004],[21.3476,41.8056],[21.3591,41.8444],[21.3798,41.8554],[21.3411,41.8631],[21.3366,41.8851],[21.3591,41.8941],[21.44,41.8883],[21.4474,41.9255],[21.478,41.9281],[21.4895,41.894],[21.5018,41.8904],[21.5361,41.9187],[21.5543,41.9279],[21.572,41.9101],[21.5691,41.896],[21.5864,41.8949],[21.5367,41.87],[21.5086,41.8169],[21.4937,41.8174],[21.4888,41.831],[21.4731,41.8244],[21.4679,41.7924],[21.4876,41.7665],[21.4831,41.7446],[21.4443,41.7316],[21.4032,41.6895],[21.3953,41.6635],[21.374,41.6845],[21.374,41.7186],[21.3464,41.728]]]}},{"type":"Feature","id":"Suto Orizari","properties":{"id":"Suto Orizari","iso_code":"MK-84","name":"Suto Orizari","name_full":"Šuto Orizari","name_ja":"シュトオリザリ","center_lonlat":[21.4064,42.0315]},"geometry":{"type":"Polygon","coordinates":[[[21.4231,42.0316],[21.4216,42.0073],[21.3886,42.0287],[21.3893,42.0456],[21.4046,42.0525],[21.4231,42.0316]]]}},{"type":"Feature","id":"Sveti Nikole","properties":{"id":"Sveti Nikole","iso_code":"MK-69","name":"Sveti Nikole","name_full":"Sveti Nikole","name_ja":"スヴェティ・ニコレ","center_lonlat":[21.9565,41.881]},"geometry":{"type":"Polygon","coordinates":[[[22.014,41.7329],[21.93,41.7979],[21.8489,41.8349],[21.814,41.8676],[21.8032,41.9116],[21.8129,41.9419],[21.8673,41.9972],[21.9082,41.9968],[21.9309,41.9741],[21.9744,41.9854],[21.9858,41.9996],[22.0248,42.0001],[22.0141,41.9646],[22.0941,41.9034],[22.0855,41.8812],[22.0986,41.8675],[22.0827,41.8512],[22.0957,41.8172],[22.0326,41.7712],[22.0461,41.7214],[22.014,41.7329]]]}},{"type":"Feature","id":"Tearce","properties":{"id":"Tearce","iso_code":"MK-75","name":"Tearce","name_full":"Tearce","name_ja":"テアルツェ","center_lonlat":[21.0323,42.0892]},"geometry":{"type":"Polygon","coordinates":[[[21.0409,42.16],[21.1312,42.0846],[21.0926,42.0319],[21.0294,42.0138],[21.0106,42.0197],[21.0066,42.0505],[20.9758,42.0625],[20.9505,42.0999],[20.9042,42.1167],[21.0409,42.16]]]}},{"type":"Feature","id":"Tetovo","properties":{"id":"Tetovo","iso_code":"MK-76","name":"Tetovo","name_full":"Tetovo","name_ja":"テトヴォ","center_lonlat":[20.8841,42.0279]},"geometry":{"type":"Polygon","coordinates":[[[20.9042,42.1167],[20.9505,42.0999],[20.9758,42.0625],[21.0066,42.0505],[21.0106,42.0197],[21.0294,42.0138],[21.0314,42.0074],[21.0147,41.9923],[21.0474,41.9649],[21.02,41.9527],[20.9752,41.9669],[20.9579,41.9525],[20.9203,41.9783],[20.8474,41.9876],[20.7514,41.9403],[20.7431,41.9935],[20.7654,42.0643],[20.8105,42.0929],[20.9042,42.1167]]]}},{"type":"Feature","id":"Valandovo","properties":{"id":"Valandovo","iso_code":"MK-10","name":"Valandovo","name_full":"Valandovo","name_ja":"ヴァランドヴォ","center_lonlat":[22.5121,41.3378]},"geometry":{"type":"Polygon","coordinates":[[[22.7623,41.3225],[22.742,41.287],[22.6622,41.2941],[22.6472,41.2727],[22.6053,41.2708],[22.5664,41.2415],[22.5302,41.2527],[22.523,41.2228],[22.5046,41.213],[22.4813,41.2363],[22.4682,41.3134],[22.4467,41.3182],[22.4001,41.3615],[22.3365,41.378],[22.3245,41.4022],[22.33,41.4247],[22.3652,41.4401],[22.4458,41.446],[22.4806,41.4134],[22.532,41.3996],[22.5168,41.3692],[22.5362,41.3298],[22.5843,41.3326],[22.6024,41.3131],[22.6304,41.3113],[22.6613,41.316],[22.6955,41.3483],[22.7623,41.3225]]]}},{"type":"Feature","id":"Vasilevo","properties":{"id":"Vasilevo","iso_code":"MK-11","name":"Vasilevo","name_full":"Vasilevo","name_ja":"ヴァシレヴォ","center_lonlat":[22.6262,41.5365]},"geometry":{"type":"Polygon","coordinates":[[[22.5089,41.4666],[22.5037,41.5073],[22.4996,41.5294],[22.5353,41.5498],[22.5861,41.5209],[22.6,41.527],[22.6052,41.5574],[22.5776,41.6026],[22.5966,41.6292],[22.6292,41.6341],[22.632,41.6167],[22.6498,41.631],[22.6876,41.6126],[22.6905,41.5912],[22.6763,41.5741],[22.728,41.5694],[22.7264,41.5104],[22.6743,41.4729],[22.6011,41.4572],[22.5426,41.4909],[22.5089,41.4666]]]}},{"type":"Feature","id":"Veles","properties":{"id":"Veles","iso_code":"MK-13","name":"Veles","name_full":"Veles","name_ja":"ヴェレス","center_lonlat":[21.743,41.7472]},"geometry":{"type":"Polygon","coordinates":[[[21.5709,41.7403],[21.6111,41.7499],[21.6313,41.7749],[21.6272,41.8199],[21.6648,41.8171],[21.6665,41.8022],[21.6862,41.8188],[21.7212,41.8053],[21.7369,41.8866],[21.8032,41.9116],[21.814,41.8676],[21.8489,41.8349],[21.816,41.8008],[21.8379,41.7772],[21.8226,41.74],[21.8449,41.7343],[21.8614,41.712],[21.8575,41.6844],[21.8059,41.6227],[21.7797,41.621],[21.7734,41.6019],[21.732,41.6145],[21.7259,41.6439],[21.6983,41.6329],[21.6712,41.696],[21.5972,41.7039],[21.5709,41.7403]]]}},{"type":"Feature","id":"Vevcani","properties":{"id":"Vevcani","iso_code":"MK-12","name":"Vevcani","name_full":"Vevčani","name_ja":"ヴェヴチャニ","center_lonlat":[20.5529,41.2341]},"geometry":{"type":"Polygon","coordinates":[[[20.5127,41.2101],[20.4954,41.2503],[20.5681,41.2535],[20.6266,41.2388],[20.5949,41.2212],[20.5127,41.2101]]]}},{"type":"Feature","id":"Vinica","properties":{"id":"Vinica","iso_code":"MK-14","name":"Vinica","name_full":"Vinica","name_ja":"ヴィニツァ","center_lonlat":[22.5653,41.8489]},"geometry":{"type":"Polygon","coordinates":[[[22.4462,41.7702],[22.4466,41.7893],[22.4481,41.8407],[22.4355,41.8695],[22.4543,41.9515],[22.4965,41.9376],[22.5177,41.9452],[22.5503,41.9458],[22.5741,41.9862],[22.6059,41.9825],[22.6086,41.9275],[22.7132,41.8985],[22.6744,41.8072],[22.6632,41.7426],[22.6209,41.7271],[22.5918,41.7319],[22.5362,41.7694],[22.5187,41.7552],[22.4826,41.7523],[22.4462,41.7702]]]}},{"type":"Feature","id":"Vranestica","properties":{"id":"Vranestica","iso_code":"MK-15","name":"Vranestica","name_full":"Vraneštica","name_ja":"ヴラネシュティツァ","center_lonlat":[21.0505,41.49]},"geometry":{"type":"Polygon","coordinates":[[[21.0762,41.4667],[21.04,41.4655],[21.0527,41.426],[21.0712,41.4287],[21.0567,41.414],[21.0046,41.412],[20.9658,41.4494],[20.9755,41.4693],[21.0053,41.5042],[21.0353,41.5123],[21.0534,41.545],[21.1015,41.5798],[21.1136,41.5524],[21.1483,41.5283],[21.0781,41.4828],[21.0762,41.4667]]]}},{"type":"Feature","id":"Vrapciste","properties":{"id":"Vrapciste","iso_code":"MK-16","name":"Vrapciste","name_full":"Vrapčište","name_ja":"ヴラプチシュテ","center_lonlat":[20.8385,41.8612]},"geometry":{"type":"Polygon","coordinates":[[[20.7144,41.8592],[20.7511,41.9102],[20.775,41.9188],[20.8371,41.9107],[20.9483,41.8733],[20.9559,41.8495],[20.94,41.8385],[20.9348,41.8138],[20.8465,41.8044],[20.8111,41.8138],[20.7924,41.8392],[20.7523,41.8412],[20.7144,41.8592]]]}},{"type":"Feature","id":"Zajas","properties":{"id":"Zajas","iso_code":"MK-31","name":"Zajas","name_full":"Zajas","name_ja":"ザヤス","center_lonlat":[20.9012,41.603]},"geometry":{"type":"Polygon","coordinates":[[[20.985,41.6245],[20.9858,41.5784],[20.9673,41.5499],[20.9016,41.5343],[20.8969,41.5213],[20.8095,41.6147],[20.7833,41.6239],[20.8535,41.66],[20.8974,41.6645],[20.9444,41.6547],[20.985,41.6245]]]}},{"type":"Feature","id":"Zelenikovo","properties":{"id":"Zelenikovo","iso_code":"MK-32","name":"Zelenikovo","name_full":"Zelenikovo","name_ja":"ゼレニコヴォ","center_lonlat":[21.5617,41.8095]},"geometry":{"type":"Polygon","coordinates":[[[21.4831,41.7446],[21.4876,41.7665],[21.4679,41.7924],[21.4731,41.8244],[21.4888,41.831],[21.4937,41.8174],[21.5086,41.8169],[21.5367,41.87],[21.5864,41.8949],[21.6372,41.8827],[21.6272,41.8199],[21.6313,41.7749],[21.6111,41.7499],[21.5709,41.7403],[21.4831,41.7446]]]}},{"type":"Feature","id":"Zelino","properties":{"id":"Zelino","iso_code":"MK-30","name":"Zelino","name_full":"Želino","name_ja":"ジェリノ","center_lonlat":[21.1269,41.9164]},"geometry":{"type":"Polygon","coordinates":[[[21.02,41.9527],[21.0474,41.9649],[21.0147,41.9923],[21.0314,42.0074],[21.0711,42.0036],[21.0725,41.9858],[21.0844,41.9828],[21.1384,41.9898],[21.1906,41.9662],[21.1802,41.9003],[21.2171,41.8777],[21.2408,41.8559],[21.2338,41.8172],[21.1838,41.839],[21.1784,41.8546],[21.1276,41.8419],[21.0708,41.8566],[21.0848,41.892],[21.0575,41.9047],[21.0554,41.9281],[21.02,41.9527]]]}},{"type":"Feature","id":"Zrnovci","properties":{"id":"Zrnovci","iso_code":"MK-33","name":"Zrnovci","name_full":"Zrnovci","name_ja":"ズルノヴツィ","center_lonlat":[22.4079,41.8265]},"geometry":{"type":"Polygon","coordinates":[[[22.3565,41.8467],[22.391,41.86],[22.4071,41.8525],[22.4355,41.8695],[22.4481,41.8407],[22.4466,41.7893],[22.391,41.7922],[22.3592,41.8253],[22.3565,41.8467]]]}}]}
