{"type":"FeatureCollection","features":[{"type":"Feature","id":"Azad Kashmir","properties":{"id":"Azad Kashmir","iso_code":"PK-JK","name":"Azad Kashmir","name_full":"Azad Kashmir","name_ja":"アザド・カシミール","center_lonlat":[73.7013,34.1207]},"geometry":{"type":"Polygon","coordinates":[[[75.2245,34.6386],[75.1763,34.6454],[75.0178,34.6297],[74.6649,34.6883],[74.4121,34.7645],[74.2858,34.7689],[74.2218,34.7478],[74.1209,34.6909],[73.9622,34.6682],[73.9193,34.6425],[73.926,34.565],[73.8631,34.5171],[73.847,34.4943],[73.8404,34.4444],[73.7798,34.3961],[73.7827,34.3468],[73.8042,34.3275],[73.8533,34.3074],[73.9377,34.3042],[73.9906,34.2185],[73.9954,34.1764],[73.8933,34.1147],[73.8844,34.0842],[73.9162,34.0279],[73.9767,34.0046],[74.045,34.0194],[74.1184,34.0025],[74.2284,34.0129],[74.2597,33.9944],[74.2723,33.9621],[74.2395,33.901],[74.1775,33.8575],[74.0346,33.8286],[74.0113,33.8105],[73.9707,33.7471],[73.9608,33.6923],[73.9767,33.6484],[74.1416,33.5494],[74.1578,33.4942],[74.096,33.3285],[74.0554,33.292],[74.0017,33.2702],[73.9885,33.2086],[74.0023,33.1777],[74.0985,33.1048],[74.1539,33.0402],[74.3113,32.9943],[74.3367,32.8701],[74.317,32.8231],[73.983,32.9691],[73.9261,33.026],[73.8059,33.0151],[73.6405,33.1033],[73.6225,33.1245],[73.6454,33.1431],[73.6549,33.1847],[73.6208,33.212],[73.6147,33.2324],[73.5812,33.2292],[73.5798,33.2393],[73.6003,33.2467],[73.5935,33.3043],[73.6032,33.333],[73.5738,33.3874],[73.6042,33.4416],[73.6276,33.4521],[73.6147,33.5197],[73.635,33.5408],[73.6147,33.5931],[73.5731,33.6337],[73.6003,33.7086],[73.5672,33.8034],[73.5798,33.9105],[73.5186,34.0078],[73.4741,34.2692],[73.4002,34.3755],[73.4254,34.4283],[73.4471,34.558],[73.4641,34.5706],[73.534,34.5716],[73.5832,34.5884],[73.6053,34.5849],[73.6234,34.564],[73.6595,34.6336],[73.649,34.6725],[73.7013,34.7557],[73.7584,34.7925],[73.8411,34.8141],[73.8896,34.8127],[73.9544,34.8627],[74.018,34.8808],[74.0615,34.9417],[74.0669,34.9818],[74.1003,35.0096],[74.0676,35.0554],[74.0884,35.085],[74.1247,35.0992],[74.2692,35.0868],[74.4889,35.1201],[74.5489,35.0802],[74.6338,34.9405],[74.7991,34.8519],[74.9274,34.8134],[74.9746,34.813],[75.0672,34.8305],[75.1225,34.8666],[75.1614,34.862],[75.2319,34.7946],[75.2489,34.7623],[75.2517,34.6969],[75.2245,34.6386]]]}},{"type":"Feature","id":"Balochistan","properties":{"id":"Balochistan","iso_code":"PK-BA","name":"Balochistan","name_full":"Balochistan","name_ja":"バローチスターン州","center_lonlat":[65.8679,28.3175]},"geometry":{"type":"Polygon","coordinates":[[[69.3012,31.9413],[69.3489,31.9299],[69.536,31.9409],[69.5872,31.9594],[69.6623,32.0314],[69.7927,32.0611],[69.8217,32.0576],[69.8079,31.9929],[69.8681,31.9447],[69.8401,31.8927],[69.8444,31.8712],[69.8814,31.8498],[69.9276,31.897],[69.9436,31.895],[69.9295,31.798],[69.9342,31.66],[69.9148,31.5154],[69.9297,31.4968],[69.9896,31.4784],[70.0043,31.4542],[70.025,31.3301],[70.0423,31.3229],[70.0454,31.3629],[70.0754,31.4169],[70.0986,31.4071],[70.1438,31.415],[70.2195,31.4857],[70.2325,31.4752],[70.2378,31.4262],[70.2582,31.3857],[70.2305,31.1699],[70.2391,31.0728],[70.2257,30.8745],[70.2377,30.822],[70.2017,30.8099],[70.1195,30.7126],[70.0729,30.6973],[70.0569,30.6425],[70.0707,30.5931],[69.9789,30.4541],[69.9298,30.2895],[69.9555,30.2643],[69.9617,30.2227],[69.9985,30.2528],[70.0287,30.2524],[70.0428,30.2427],[70.0363,30.2111],[69.9723,30.1301],[69.9484,30.0284],[69.8386,29.8119],[69.7856,29.7749],[69.727,29.7086],[69.63,29.6863],[69.6002,29.6465],[69.5998,29.5716],[69.5703,29.4364],[69.6595,29.4041],[69.666,29.323],[69.6933,29.2908],[69.7396,29.3116],[69.7427,29.2803],[69.696,29.1105],[69.6418,29.0698],[69.5923,28.9994],[69.5148,28.9266],[69.5024,28.8636],[69.531,28.8254],[69.4713,28.6932],[69.4219,28.629],[69.3469,28.5953],[69.3324,28.5773],[69.3329,28.5587],[69.3851,28.4866],[68.7757,28.465],[68.6043,28.475],[68.4729,28.4548],[68.438,28.4293],[68.3817,28.3503],[68.2827,28.3105],[67.9993,28.1142],[67.9251,28.0231],[67.6835,27.9258],[67.4413,27.8827],[67.4021,27.8639],[67.342,27.7437],[67.2727,27.6634],[67.1929,27.5316],[67.1428,27.3335],[67.1345,27.2533],[67.1617,26.6047],[67.1809,26.5393],[67.4373,26.1112],[67.4503,26.0483],[67.4341,25.959],[67.4351,25.8309],[67.3737,25.6727],[67.2922,25.5811],[67.2645,25.5302],[67.2213,25.5009],[67.1645,25.4044],[67.1667,25.3486],[67.1376,25.2765],[67.0324,25.1711],[67.0205,25.1085],[66.9909,25.0669],[66.9397,25.0279],[66.8622,25.0094],[66.7044,24.892],[66.6813,24.9105],[66.6813,24.9489],[66.7044,25.1043],[66.738,25.1595],[66.7175,25.2312],[66.5479,25.3656],[66.5537,25.3854],[66.5793,25.3794],[66.5912,25.3996],[66.5871,25.4262],[66.5505,25.4571],[66.531,25.5181],[66.5127,25.5084],[66.5059,25.522],[66.4928,25.5181],[66.437,25.5977],[66.3877,25.5924],[66.3726,25.6039],[66.3755,25.6257],[66.3386,25.6081],[66.2581,25.612],[66.2039,25.5932],[66.1672,25.5661],[66.1374,25.5138],[66.0944,25.4748],[66.2131,25.4914],[66.2588,25.5248],[66.2581,25.5431],[66.3364,25.5534],[66.3885,25.522],[66.4232,25.481],[66.4562,25.496],[66.4922,25.481],[66.4575,25.4538],[66.5116,25.4142],[66.4984,25.3985],[66.3595,25.4652],[66.2518,25.4729],[66.1592,25.4469],[66.069,25.4462],[65.8584,25.4175],[65.6521,25.3445],[65.4678,25.3854],[65.3823,25.3712],[65.3954,25.3923],[65.3362,25.3853],[65.2923,25.365],[65.2598,25.3804],[65.2323,25.3707],[65.188,25.311],[65.1553,25.2961],[64.9207,25.3271],[64.8611,25.3166],[64.8073,25.3285],[64.7444,25.324],[64.696,25.2976],[64.6686,25.2551],[64.6686,25.2067],[64.7092,25.1907],[64.7102,25.1794],[64.655,25.1657],[64.6004,25.1732],[64.6277,25.2285],[64.6106,25.2517],[64.5654,25.2703],[64.5184,25.2756],[64.492,25.2457],[64.4393,25.2346],[64.3607,25.283],[64.2658,25.2987],[64.2446,25.3166],[64.0945,25.3359],[64.1069,25.3854],[64.0835,25.4035],[64.0838,25.4267],[64.1409,25.4289],[64.1553,25.4469],[64.1273,25.4538],[64.0565,25.4417],[64.0454,25.4503],[63.9766,25.4128],[63.9971,25.4196],[64.0117,25.3973],[64.0488,25.4165],[64.0796,25.365],[64.0597,25.3446],[63.9441,25.3349],[63.7378,25.3853],[63.5725,25.365],[63.5376,25.3445],[63.4958,25.2914],[63.4695,25.2893],[63.5187,25.2209],[63.5005,25.1937],[63.4111,25.2225],[63.2914,25.2228],[63.1441,25.2609],[63.0278,25.2204],[62.7705,25.2619],[62.5275,25.2642],[62.4772,25.2591],[62.4676,25.2235],[62.4894,25.2142],[62.4138,25.2065],[62.3431,25.1555],[62.3391,25.1247],[62.3872,25.1016],[62.3811,25.0876],[62.2561,25.0986],[62.3153,25.1302],[62.2975,25.1851],[62.2542,25.212],[62.1452,25.2184],[62.08,25.1972],[62.059,25.1616],[62.0972,25.1071],[61.8811,25.103],[61.8473,25.0379],[61.7905,25.0178],[61.7296,25.0218],[61.7201,25.0374],[61.7358,25.0695],[61.7285,25.0831],[61.76,25.1154],[61.7831,25.188],[61.7495,25.1732],[61.6942,25.2005],[61.5882,25.2021],[61.62,25.2855],[61.6432,25.6133],[61.6735,25.6583],[61.6604,25.7692],[61.6814,25.7955],[61.7393,25.8033],[61.7545,25.82],[61.8099,26.1674],[61.8329,26.2254],[62.0323,26.3029],[62.0942,26.3148],[62.1238,26.374],[62.2434,26.3506],[62.2651,26.361],[62.249,26.4165],[62.2979,26.474],[62.292,26.5012],[62.3559,26.5366],[62.3967,26.5391],[62.4185,26.5623],[62.5953,26.5807],[62.6406,26.6051],[62.7019,26.604],[62.7536,26.6442],[63.098,26.6384],[63.1413,26.6254],[63.1638,26.6451],[63.1743,26.685],[63.1896,26.846],[63.2616,26.8717],[63.2649,26.89],[63.235,26.9411],[63.2314,27.0658],[63.2609,27.1156],[63.3196,27.1173],[63.2713,27.2034],[63.1771,27.2584],[62.8924,27.2135],[62.8293,27.2336],[62.8006,27.2252],[62.7424,27.2668],[62.7681,27.2744],[62.7788,27.2998],[62.7757,27.3269],[62.756,27.3481],[62.8086,27.4534],[62.8147,27.495],[62.7803,27.8297],[62.7357,27.995],[62.7664,28.2115],[62.7615,28.2464],[62.7393,28.2583],[62.5756,28.229],[62.4923,28.3007],[62.4643,28.3498],[62.421,28.3686],[62.3905,28.4061],[62.3628,28.4189],[62.2307,28.4425],[62.1475,28.4753],[62.0491,28.4863],[61.8928,28.5426],[61.653,28.7563],[61.5665,28.871],[61.5109,29.0074],[61.468,29.0417],[61.4877,29.0807],[61.4609,29.0939],[61.4377,29.1396],[61.3979,29.1591],[61.387,29.2066],[61.3328,29.2749],[61.3466,29.3491],[61.3374,29.3744],[61.2792,29.4066],[60.8444,29.8582],[62.3745,29.4249],[62.4775,29.4078],[63.5686,29.4975],[63.972,29.4296],[64.0861,29.3866],[64.1134,29.3963],[64.1726,29.4843],[64.4777,29.5704],[64.8203,29.5679],[65.0364,29.5402],[66.1956,29.8353],[66.2752,29.8852],[66.3405,29.9566],[66.2193,30.0579],[66.3053,30.2448],[66.3218,30.4374],[66.3138,30.4783],[66.2649,30.5578],[66.268,30.6014],[66.3663,30.9229],[66.3923,30.9446],[66.55,30.977],[66.6631,31.0831],[66.697,31.1958],[66.7595,31.2148],[66.8385,31.277],[66.9433,31.3147],[67.0021,31.3159],[67.0239,31.2953],[67.0139,31.2527],[67.0229,31.2394],[67.0785,31.232],[67.1368,31.2411],[67.2138,31.2123],[67.3462,31.2078],[67.5837,31.2652],[67.6928,31.3252],[67.7647,31.3341],[67.7751,31.3528],[67.7704,31.3947],[67.7343,31.4048],[67.6511,31.3953],[67.6115,31.4108],[67.5561,31.5122],[67.569,31.5299],[67.6963,31.5208],[67.7812,31.5642],[67.8427,31.6235],[67.8707,31.6352],[67.9661,31.6382],[68.0466,31.6884],[68.0605,31.7256],[68.0935,31.7516],[68.1386,31.8247],[68.2068,31.8079],[68.255,31.7664],[68.3561,31.7625],[68.498,31.7252],[68.5498,31.7535],[68.4396,31.7666],[68.4187,31.783],[68.4815,31.8157],[68.5275,31.823],[68.6883,31.7686],[68.7054,31.7013],[68.7773,31.6186],[68.8038,31.6026],[68.8435,31.6065],[68.941,31.6437],[68.9773,31.6415],[69.0401,31.6731],[69.1143,31.7378],[69.2238,31.8819],[69.3012,31.9413]]]}},{"type":"Feature","id":"Federally Administered Tribal Areas","properties":{"id":"Federally Administered Tribal Areas","iso_code":"PK-TA","name":"Federally Administered Tribal Areas","name_full":"Federally Administered Tribal Areas","name_ja":"連邦直轄部族地域","center_lonlat":[70.3939,33.1509]},"geometry":{"type":"Polygon","coordinates":[[[71.4452,34.9378],[71.496,34.879],[71.5588,34.8602],[71.5793,34.7951],[71.599,34.7788],[71.6271,34.7727],[71.6971,34.7983],[71.7753,34.786],[71.7987,34.7584],[71.7554,34.7288],[71.7573,34.6602],[71.7355,34.6463],[71.7213,34.6512],[71.6792,34.6211],[71.6645,34.5603],[71.6403,34.5369],[71.6584,34.4653],[71.6798,34.4636],[71.6926,34.4376],[71.6583,34.4198],[71.6553,34.3925],[71.6243,34.3835],[71.6207,34.354],[71.5885,34.367],[71.5599,34.3448],[71.5334,34.3132],[71.5342,34.2642],[71.4929,34.2269],[71.4246,34.1795],[71.342,34.1554],[71.3408,34.1368],[71.3788,34.1127],[71.366,34.0799],[71.3853,34.0406],[71.3771,33.9867],[71.4246,33.9263],[71.4291,33.8683],[71.4989,33.8161],[71.5006,33.7755],[71.5208,33.7325],[71.5981,33.7366],[71.6544,33.7613],[71.6993,33.7912],[71.7363,33.8432],[71.7754,33.7921],[71.8529,33.7795],[71.8529,33.7532],[71.7866,33.6725],[71.8394,33.6297],[71.6738,33.5517],[71.6113,33.5538],[71.5644,33.5787],[71.6433,33.6166],[71.6363,33.6448],[71.4479,33.6506],[71.3453,33.6292],[71.2305,33.6884],[71.201,33.7233],[71.1352,33.7431],[71.1287,33.6955],[71.145,33.6505],[71.0863,33.6246],[71.1053,33.5968],[70.9921,33.5559],[70.8318,33.569],[70.765,33.5908],[70.7397,33.5525],[70.7303,33.4957],[70.637,33.4794],[70.591,33.4403],[70.5078,33.4303],[70.4838,33.4131],[70.4878,33.3891],[70.5446,33.36],[70.5845,33.2834],[70.6939,33.2585],[70.6947,33.23],[70.801,33.2197],[70.859,33.2039],[70.872,33.1886],[70.7915,33.102],[70.7602,33.0943],[70.7288,33.0661],[70.6325,33.0425],[70.5488,33.0516],[70.4985,33.0217],[70.4667,32.9418],[70.3784,32.8352],[70.3753,32.7209],[70.3921,32.7167],[70.5786,32.513],[70.5876,32.4789],[70.5603,32.4705],[70.4678,32.5045],[70.4265,32.4254],[70.3421,32.3416],[70.2836,32.3053],[70.2049,32.3006],[70.1638,32.2479],[70.0966,32.2053],[70.0712,32.1737],[70.0684,32.1526],[70.099,32.1115],[70.1232,32.0409],[70.1728,31.9938],[70.213,31.8757],[70.2175,31.752],[70.4006,31.2471],[70.4039,31.1917],[70.3488,31.1872],[70.2642,31.155],[70.2565,31.1403],[70.2664,31.0888],[70.2514,31.0658],[70.2391,31.0728],[70.2305,31.1699],[70.2582,31.3857],[70.2378,31.4262],[70.2325,31.4752],[70.2195,31.4857],[70.1438,31.415],[70.0986,31.4071],[70.0754,31.4169],[70.0454,31.3629],[70.0423,31.3229],[70.025,31.3301],[70.0043,31.4542],[69.9896,31.4784],[69.9297,31.4968],[69.9148,31.5154],[69.9342,31.66],[69.9295,31.798],[69.9436,31.895],[69.9276,31.897],[69.8814,31.8498],[69.8444,31.8712],[69.8401,31.8927],[69.8681,31.9447],[69.8079,31.9929],[69.8217,32.0576],[69.7927,32.0611],[69.6623,32.0314],[69.5872,31.9594],[69.536,31.9409],[69.3489,31.9299],[69.3012,31.9413],[69.251,32.1307],[69.2681,32.3013],[69.228,32.4213],[69.2329,32.4627],[69.282,32.5328],[69.3612,32.5685],[69.426,32.6551],[69.4147,32.7256],[69.3832,32.7445],[69.3763,32.7719],[69.4773,32.8568],[69.4872,32.8859],[69.4685,32.9943],[69.4877,33.0284],[69.5475,33.075],[69.6678,33.077],[69.733,33.1093],[69.7718,33.1148],[69.8387,33.0867],[69.8809,33.0892],[69.9558,33.1277],[69.9947,33.1273],[70.048,33.1941],[70.1248,33.199],[70.2944,33.3189],[70.3016,33.3518],[70.2857,33.3829],[70.2204,33.456],[70.1776,33.4734],[70.155,33.5066],[70.1741,33.6321],[70.1325,33.6614],[70.1181,33.7165],[70.1082,33.7273],[70.0656,33.721],[69.9575,33.7527],[69.8854,33.8895],[69.8472,33.9269],[69.8411,33.9418],[69.872,33.9715],[69.8726,34.0172],[69.916,34.0389],[70.0028,34.0438],[70.3282,33.9573],[70.522,33.9387],[70.8622,33.9648],[70.8843,34.007],[70.9397,34.0009],[70.9771,34.0274],[71.0467,34.0419],[71.0626,34.0543],[71.0628,34.1053],[71.1081,34.1652],[71.0971,34.2625],[71.1264,34.3322],[71.122,34.3568],[71.0509,34.3898],[70.9915,34.4431],[70.9612,34.4876],[70.957,34.532],[70.9858,34.5562],[71.0658,34.5585],[71.0799,34.6029],[71.0702,34.6612],[71.2031,34.7482],[71.2556,34.8102],[71.2895,34.875],[71.4452,34.9378]]]}},{"type":"Feature","id":"Gilgit-Baltistan","properties":{"id":"Gilgit-Baltistan","iso_code":"PK-GB","name":"Gilgit-Baltistan","name_full":"Gilgit-Baltistan","name_ja":"ギルギット・バルティスタン州","center_lonlat":[74.8895,35.8098]},"geometry":{"type":"Polygon","coordinates":[[[75.2245,34.6386],[75.2517,34.6969],[75.2489,34.7623],[75.2319,34.7946],[75.1614,34.862],[75.1225,34.8666],[75.0672,34.8305],[74.9746,34.813],[74.9274,34.8134],[74.7991,34.8519],[74.6338,34.9405],[74.5489,35.0802],[74.4889,35.1201],[74.2692,35.0868],[74.1247,35.0992],[74.1019,35.1405],[74.0315,35.1468],[73.9923,35.1753],[73.9541,35.1707],[73.9243,35.1989],[73.8643,35.2023],[73.8211,35.2302],[73.7763,35.2351],[73.7387,35.2098],[73.7221,35.2157],[73.7184,35.2641],[73.6874,35.3101],[73.6902,35.3574],[73.7275,35.4176],[73.7842,35.4471],[73.7721,35.522],[73.6295,35.543],[73.5048,35.5339],[73.4426,35.5618],[73.4097,35.5478],[73.3822,35.5884],[73.3067,35.6005],[73.29,35.6231],[73.1256,35.7248],[73.1285,35.7963],[73.1547,35.8249],[73.0884,35.8759],[73.0422,35.8561],[72.9716,35.8781],[72.8722,35.8743],[72.7924,35.8376],[72.6559,35.8541],[72.5156,35.904],[72.5891,36.0161],[72.5291,36.0975],[72.5603,36.1439],[72.5514,36.1736],[72.572,36.2427],[72.6219,36.2766],[72.6924,36.2711],[72.7188,36.3001],[72.7845,36.3288],[72.8302,36.3704],[72.8769,36.3843],[72.8957,36.4615],[72.9849,36.4728],[72.9799,36.5078],[73.055,36.5396],[73.0945,36.6033],[73.0734,36.6985],[73.1306,36.7094],[73.1765,36.7349],[73.2134,36.7129],[73.2963,36.7174],[73.416,36.7521],[73.5199,36.7307],[73.5951,36.7355],[73.6223,36.7102],[73.6786,36.704],[73.7212,36.7271],[73.8858,36.7142],[73.8873,36.7705],[73.7989,36.828],[73.7203,36.8511],[73.7118,36.8941],[73.8341,36.8829],[73.9469,36.8309],[74.0353,36.8156],[74.0943,36.8312],[74.1153,36.8895],[74.1297,36.8984],[74.2357,36.9022],[74.394,36.994],[74.4356,37.0032],[74.4766,36.9993],[74.5214,36.9585],[74.5374,36.9622],[74.5424,37.0217],[74.6625,37.0545],[74.7192,37.0164],[74.7926,37.0152],[74.8245,36.9941],[74.8609,36.9469],[74.8724,36.9071],[74.925,36.9709],[75.1001,36.9941],[75.1951,36.9489],[75.3513,36.9158],[75.3945,36.8643],[75.4105,36.7473],[75.4319,36.7229],[75.4926,36.7207],[75.508,36.7476],[75.5705,36.7667],[75.6498,36.754],[75.7287,36.7232],[75.8748,36.6195],[75.9766,36.4626],[75.9874,36.4212],[75.9688,36.302],[76.0144,36.2304],[75.9701,36.2023],[75.9715,36.155],[75.9014,36.1136],[75.9,36.0635],[75.9223,36.0317],[75.9843,35.9956],[76.0614,35.9916],[76.09,35.9781],[76.1147,35.9418],[76.1381,35.8267],[76.166,35.8062],[76.2604,35.8178],[76.312,35.8096],[76.3489,35.831],[76.4031,35.831],[76.4321,35.8605],[76.5002,35.8715],[76.5372,35.9025],[76.5555,35.8979],[76.5653,35.8655],[76.5511,35.784],[76.5708,35.7513],[76.6767,35.7138],[76.7454,35.655],[76.7774,35.6461],[77.049,35.1104],[77.0231,35.0863],[77.0352,35.0345],[77.0131,34.9864],[76.9211,34.9207],[76.8526,34.9433],[76.782,34.9309],[76.7576,34.9151],[76.7439,34.8193],[76.6526,34.747],[76.5358,34.7262],[76.4765,34.7578],[76.4382,34.7629],[76.262,34.6847],[76.155,34.6617],[76.1218,34.6609],[76.0583,34.6834],[76.0234,34.6772],[75.9734,34.6223],[75.874,34.5714],[75.7958,34.5079],[75.6116,34.4984],[75.3481,34.5572],[75.2675,34.5983],[75.2245,34.6386]]]}},{"type":"Feature","id":"Islamabad Capital Territory","properties":{"id":"Islamabad Capital Territory","iso_code":"PK-IS","name":"Islamabad Capital Territory","name_full":"Islamabad Capital Territory","name_ja":"イスラーマーバード首都圏","center_lonlat":[73.0861,33.6596]},"geometry":{"type":"Polygon","coordinates":[[[72.9275,33.7275],[72.9755,33.7355],[73.0314,33.7711],[73.0885,33.7815],[73.1262,33.8043],[73.2288,33.7613],[73.3205,33.6871],[73.2386,33.5515],[73.1825,33.4963],[73.143,33.4965],[73.1042,33.5155],[73.0966,33.525],[73.1084,33.5646],[73.0663,33.6228],[73.0103,33.6238],[72.8787,33.5714],[72.8339,33.5896],[72.805,33.6351],[72.8103,33.6619],[72.8328,33.686],[72.9275,33.7275]]]}},{"type":"Feature","id":"Khyber Pakhtunkhwa","properties":{"id":"Khyber Pakhtunkhwa","iso_code":"PK-KP","name":"Khyber Pakhtunkhwa","name_full":"Khyber Pakhtunkhwa","name_ja":"カイバル・パクトゥンクワ州","center_lonlat":[72.0781,34.4827]},"geometry":{"type":"Polygon","coordinates":[[[73.7118,36.8941],[73.7203,36.8511],[73.7989,36.828],[73.8873,36.7705],[73.8858,36.7142],[73.7212,36.7271],[73.6786,36.704],[73.6223,36.7102],[73.5951,36.7355],[73.5199,36.7307],[73.416,36.7521],[73.2963,36.7174],[73.2134,36.7129],[73.1765,36.7349],[73.1306,36.7094],[73.0734,36.6985],[73.0945,36.6033],[73.055,36.5396],[72.9799,36.5078],[72.9849,36.4728],[72.8957,36.4615],[72.8769,36.3843],[72.8302,36.3704],[72.7845,36.3288],[72.7188,36.3001],[72.6924,36.2711],[72.6219,36.2766],[72.572,36.2427],[72.5514,36.1736],[72.5603,36.1439],[72.5291,36.0975],[72.5891,36.0161],[72.5156,35.904],[72.6559,35.8541],[72.7924,35.8376],[72.8722,35.8743],[72.9716,35.8781],[73.0422,35.8561],[73.0884,35.8759],[73.1547,35.8249],[73.1285,35.7963],[73.1256,35.7248],[73.29,35.6231],[73.3067,35.6005],[73.3822,35.5884],[73.4097,35.5478],[73.4426,35.5618],[73.5048,35.5339],[73.6295,35.543],[73.7721,35.522],[73.7842,35.4471],[73.7275,35.4176],[73.6902,35.3574],[73.6874,35.3101],[73.7184,35.2641],[73.7221,35.2157],[73.7387,35.2098],[73.7763,35.2351],[73.8211,35.2302],[73.8643,35.2023],[73.9243,35.1989],[73.9541,35.1707],[73.9923,35.1753],[74.0315,35.1468],[74.1019,35.1405],[74.1247,35.0992],[74.0884,35.085],[74.0676,35.0554],[74.1003,35.0096],[74.0669,34.9818],[74.0615,34.9417],[74.018,34.8808],[73.9544,34.8627],[73.8896,34.8127],[73.8411,34.8141],[73.7584,34.7925],[73.7013,34.7557],[73.649,34.6725],[73.6595,34.6336],[73.6234,34.564],[73.6053,34.5849],[73.5832,34.5884],[73.534,34.5716],[73.4641,34.5706],[73.4471,34.558],[73.4254,34.4283],[73.4002,34.3755],[73.4741,34.2692],[73.5186,34.0078],[73.4921,34.0181],[73.4583,34.0042],[73.4172,33.9624],[73.3698,33.9687],[73.3583,33.96],[73.361,33.9351],[73.3168,33.8708],[73.1928,33.8085],[73.1262,33.8043],[73.0885,33.7815],[73.0314,33.7711],[72.9755,33.7355],[72.9275,33.7275],[72.9272,33.7491],[72.8447,33.7571],[72.8429,33.785],[72.8764,33.8177],[72.8249,33.8303],[72.8415,33.8502],[72.8416,33.8773],[72.7937,33.8996],[72.7969,33.9307],[72.7785,33.9482],[72.7401,33.9247],[72.7378,33.9061],[72.6944,33.8654],[72.6599,33.8554],[72.6159,33.8852],[72.6519,33.9325],[72.5656,33.9514],[72.5255,34.0212],[72.4309,34.0115],[72.3486,33.9611],[72.2406,33.9381],[72.2261,33.9014],[72.2415,33.8049],[72.2344,33.7661],[72.0876,33.79],[72.0221,33.7463],[71.9743,33.6501],[71.9533,33.5265],[71.9021,33.4887],[71.8738,33.4436],[71.8782,33.4235],[71.8508,33.4036],[71.797,33.4002],[71.741,33.3757],[71.7233,33.3554],[71.7252,33.3188],[71.6993,33.2727],[71.7514,33.2055],[71.7547,33.1839],[71.7211,33.1293],[71.7004,33.0616],[71.6521,33.0793],[71.6151,33.1132],[71.5978,33.1423],[71.5936,33.1866],[71.5711,33.2097],[71.5384,33.2255],[71.4896,33.2134],[71.4272,33.2473],[71.4189,33.2414],[71.4125,33.1988],[71.4474,33.1327],[71.4376,33.0796],[71.4631,33.0696],[71.4612,33.0409],[71.4355,33.0162],[71.3461,32.9961],[71.2971,33.0135],[71.1881,32.9699],[71.1492,32.9164],[71.1338,32.8111],[71.1063,32.7915],[71.1441,32.7185],[71.1682,32.5983],[71.1939,32.5858],[71.2584,32.5899],[71.2457,32.5245],[71.264,32.4934],[71.3124,32.5369],[71.3332,32.5348],[71.3499,32.5018],[71.3468,32.4324],[71.2837,32.34],[71.2767,32.2927],[71.229,32.1819],[71.1237,32.0942],[71.1125,32.0392],[70.9931,31.898],[70.9672,31.819],[70.8995,31.7097],[70.9035,31.6639],[70.8546,31.5524],[70.8852,31.5115],[70.8663,31.4905],[70.8764,31.4614],[70.8706,31.4247],[70.8249,31.3956],[70.8196,31.3465],[70.7781,31.2942],[70.7227,31.3243],[70.6466,31.3028],[70.5598,31.3248],[70.5094,31.2979],[70.4619,31.296],[70.4273,31.2503],[70.4006,31.2471],[70.2175,31.752],[70.213,31.8757],[70.1728,31.9938],[70.1232,32.0409],[70.099,32.1115],[70.0684,32.1526],[70.0712,32.1737],[70.0966,32.2053],[70.1638,32.2479],[70.2049,32.3006],[70.2836,32.3053],[70.3421,32.3416],[70.4265,32.4254],[70.4678,32.5045],[70.5603,32.4705],[70.5876,32.4789],[70.5786,32.513],[70.3921,32.7167],[70.3753,32.7209],[70.3784,32.8352],[70.4667,32.9418],[70.4985,33.0217],[70.5488,33.0516],[70.6325,33.0425],[70.7288,33.0661],[70.7602,33.0943],[70.7915,33.102],[70.872,33.1886],[70.859,33.2039],[70.801,33.2197],[70.6947,33.23],[70.6939,33.2585],[70.5845,33.2834],[70.5446,33.36],[70.4878,33.3891],[70.4838,33.4131],[70.5078,33.4303],[70.591,33.4403],[70.637,33.4794],[70.7303,33.4957],[70.7397,33.5525],[70.765,33.5908],[70.8318,33.569],[70.9921,33.5559],[71.1053,33.5968],[71.0863,33.6246],[71.145,33.6505],[71.1287,33.6955],[71.1352,33.7431],[71.201,33.7233],[71.2305,33.6884],[71.3453,33.6292],[71.4479,33.6506],[71.6363,33.6448],[71.6433,33.6166],[71.5644,33.5787],[71.6113,33.5538],[71.6738,33.5517],[71.8394,33.6297],[71.7866,33.6725],[71.8529,33.7532],[71.8529,33.7795],[71.7754,33.7921],[71.7363,33.8432],[71.6993,33.7912],[71.6544,33.7613],[71.5981,33.7366],[71.5208,33.7325],[71.5006,33.7755],[71.4989,33.8161],[71.4291,33.8683],[71.4246,33.9263],[71.3771,33.9867],[71.3853,34.0406],[71.366,34.0799],[71.3788,34.1127],[71.3408,34.1368],[71.342,34.1554],[71.4246,34.1795],[71.4929,34.2269],[71.5342,34.2642],[71.5334,34.3132],[71.5599,34.3448],[71.5885,34.367],[71.6207,34.354],[71.6243,34.3835],[71.6553,34.3925],[71.6583,34.4198],[71.6926,34.4376],[71.6798,34.4636],[71.6584,34.4653],[71.6403,34.5369],[71.6645,34.5603],[71.6792,34.6211],[71.7213,34.6512],[71.7355,34.6463],[71.7573,34.6602],[71.7554,34.7288],[71.7987,34.7584],[71.7753,34.786],[71.6971,34.7983],[71.6271,34.7727],[71.599,34.7788],[71.5793,34.7951],[71.5588,34.8602],[71.496,34.879],[71.4452,34.9378],[71.4696,34.9497],[71.5113,35.0087],[71.5089,35.072],[71.6041,35.1382],[71.6379,35.1897],[71.5298,35.3009],[71.5316,35.3279],[71.6111,35.3955],[71.6224,35.4296],[71.5878,35.4709],[71.5935,35.5494],[71.5842,35.5642],[71.5128,35.5963],[71.4833,35.6266],[71.5198,35.6838],[71.5027,35.7191],[71.4756,35.741],[71.4709,35.7799],[71.431,35.8437],[71.3713,35.8851],[71.3416,35.9473],[71.2574,35.9716],[71.1709,36.027],[71.1659,36.0457],[71.2076,36.0876],[71.2231,36.1254],[71.3021,36.1633],[71.3191,36.2006],[71.4028,36.2314],[71.4791,36.3005],[71.5584,36.3279],[71.5422,36.3564],[71.5472,36.3716],[71.5804,36.4023],[71.6104,36.4579],[71.6493,36.4528],[71.7363,36.3959],[71.7826,36.3965],[71.7944,36.4076],[71.7732,36.48],[71.8747,36.4991],[71.977,36.563],[72.0388,36.5805],[72.055,36.5929],[72.0591,36.6271],[72.1716,36.6536],[72.1496,36.6893],[72.1535,36.7021],[72.2136,36.7264],[72.4541,36.758],[72.5167,36.8006],[72.6296,36.8329],[72.8677,36.8304],[72.9459,36.8522],[72.9905,36.8416],[73.0425,36.8643],[73.1918,36.877],[73.2675,36.8665],[73.3318,36.8821],[73.5093,36.8787],[73.7118,36.8941]]]}},{"type":"Feature","id":"Punjab","properties":{"id":"Punjab","iso_code":"PK-PB","name":"Punjab","name_full":"Punjab","name_ja":"パンジャーブ州","center_lonlat":[72.1339,30.8212]},"geometry":{"type":"Polygon","coordinates":[[[70.189,27.8918],[70.0743,27.9397],[69.9772,28.0019],[69.8994,28.1114],[69.8134,28.3283],[69.8065,28.3857],[69.7545,28.4232],[69.7324,28.4662],[69.6097,28.4839],[69.5892,28.5154],[69.5304,28.5282],[69.4914,28.5273],[69.3851,28.4866],[69.3329,28.5587],[69.3324,28.5773],[69.3469,28.5953],[69.4219,28.629],[69.4713,28.6932],[69.531,28.8254],[69.5024,28.8636],[69.5148,28.9266],[69.5923,28.9994],[69.6418,29.0698],[69.696,29.1105],[69.7427,29.2803],[69.7396,29.3116],[69.6933,29.2908],[69.666,29.323],[69.6595,29.4041],[69.5703,29.4364],[69.5998,29.5716],[69.6002,29.6465],[69.63,29.6863],[69.727,29.7086],[69.7856,29.7749],[69.8386,29.8119],[69.9484,30.0284],[69.9723,30.1301],[70.0363,30.2111],[70.0428,30.2427],[70.0287,30.2524],[69.9985,30.2528],[69.9617,30.2227],[69.9555,30.2643],[69.9298,30.2895],[69.9789,30.4541],[70.0707,30.5931],[70.0569,30.6425],[70.0729,30.6973],[70.1195,30.7126],[70.2017,30.8099],[70.2377,30.822],[70.2257,30.8745],[70.2391,31.0728],[70.2514,31.0658],[70.2664,31.0888],[70.2565,31.1403],[70.2642,31.155],[70.3488,31.1872],[70.4039,31.1917],[70.4006,31.2471],[70.4273,31.2503],[70.4619,31.296],[70.5094,31.2979],[70.5598,31.3248],[70.6466,31.3028],[70.7227,31.3243],[70.7781,31.2942],[70.8196,31.3465],[70.8249,31.3956],[70.8706,31.4247],[70.8764,31.4614],[70.8663,31.4905],[70.8852,31.5115],[70.8546,31.5524],[70.9035,31.6639],[70.8995,31.7097],[70.9672,31.819],[70.9931,31.898],[71.1125,32.0392],[71.1237,32.0942],[71.229,32.1819],[71.2767,32.2927],[71.2837,32.34],[71.3468,32.4324],[71.3499,32.5018],[71.3332,32.5348],[71.3124,32.5369],[71.264,32.4934],[71.2457,32.5245],[71.2584,32.5899],[71.1939,32.5858],[71.1682,32.5983],[71.1441,32.7185],[71.1063,32.7915],[71.1338,32.8111],[71.1492,32.9164],[71.1881,32.9699],[71.2971,33.0135],[71.3461,32.9961],[71.4355,33.0162],[71.4612,33.0409],[71.4631,33.0696],[71.4376,33.0796],[71.4474,33.1327],[71.4125,33.1988],[71.4189,33.2414],[71.4272,33.2473],[71.4896,33.2134],[71.5384,33.2255],[71.5711,33.2097],[71.5936,33.1866],[71.5978,33.1423],[71.6151,33.1132],[71.6521,33.0793],[71.7004,33.0616],[71.7211,33.1293],[71.7547,33.1839],[71.7514,33.2055],[71.6993,33.2727],[71.7252,33.3188],[71.7233,33.3554],[71.741,33.3757],[71.797,33.4002],[71.8508,33.4036],[71.8782,33.4235],[71.8738,33.4436],[71.9021,33.4887],[71.9533,33.5265],[71.9743,33.6501],[72.0221,33.7463],[72.0876,33.79],[72.2344,33.7661],[72.2415,33.8049],[72.2261,33.9014],[72.2406,33.9381],[72.3486,33.9611],[72.4309,34.0115],[72.5255,34.0212],[72.5656,33.9514],[72.6519,33.9325],[72.6159,33.8852],[72.6599,33.8554],[72.6944,33.8654],[72.7378,33.9061],[72.7401,33.9247],[72.7785,33.9482],[72.7969,33.9307],[72.7937,33.8996],[72.8416,33.8773],[72.8415,33.8502],[72.8249,33.8303],[72.8764,33.8177],[72.8429,33.785],[72.8447,33.7571],[72.9272,33.7491],[72.9275,33.7275],[72.8328,33.686],[72.8103,33.6619],[72.805,33.6351],[72.8339,33.5896],[72.8787,33.5714],[73.0103,33.6238],[73.0663,33.6228],[73.1084,33.5646],[73.0966,33.525],[73.1042,33.5155],[73.143,33.4965],[73.1825,33.4963],[73.2386,33.5515],[73.3205,33.6871],[73.2288,33.7613],[73.1262,33.8043],[73.1928,33.8085],[73.3168,33.8708],[73.361,33.9351],[73.3583,33.96],[73.3698,33.9687],[73.4172,33.9624],[73.4583,34.0042],[73.4921,34.0181],[73.5186,34.0078],[73.5798,33.9105],[73.5672,33.8034],[73.6003,33.7086],[73.5731,33.6337],[73.6147,33.5931],[73.635,33.5408],[73.6147,33.5197],[73.6276,33.4521],[73.6042,33.4416],[73.5738,33.3874],[73.6032,33.333],[73.5935,33.3043],[73.6003,33.2467],[73.5798,33.2393],[73.5812,33.2292],[73.6147,33.2324],[73.6208,33.212],[73.6549,33.1847],[73.6454,33.1431],[73.6225,33.1245],[73.6405,33.1033],[73.8059,33.0151],[73.9261,33.026],[73.983,32.9691],[74.317,32.8231],[74.3065,32.8099],[74.3462,32.7669],[74.4387,32.786],[74.4845,32.7535],[74.521,32.7453],[74.6141,32.7704],[74.6359,32.8221],[74.6718,32.8406],[74.6891,32.8088],[74.6497,32.7231],[74.656,32.6407],[74.6296,32.5881],[74.6626,32.4984],[74.6893,32.4714],[74.725,32.4608],[74.8381,32.4749],[74.907,32.4452],[75.0237,32.4663],[75.126,32.4117],[75.2302,32.3802],[75.3269,32.3125],[75.359,32.2617],[75.3166,32.2107],[75.2947,32.1489],[75.2499,32.1489],[75.1958,32.1286],[75.1731,32.1097],[75.1741,32.0868],[75.1384,32.0935],[75.1021,32.0781],[75.0408,32.098],[75.0226,32.0947],[75.0302,32.0664],[74.9862,32.0632],[74.9557,32.0322],[74.8891,32.0289],[74.8732,32.0117],[74.8286,32.0254],[74.7837,31.9429],[74.6984,31.9502],[74.67,31.9042],[74.5504,31.827],[74.5351,31.7711],[74.4894,31.7112],[74.5556,31.6122],[74.5845,31.5175],[74.6172,31.4589],[74.5322,31.3032],[74.5064,31.1754],[74.5368,31.1152],[74.617,31.1153],[74.6588,31.0838],[74.5795,31.0427],[74.5641,31.0044],[74.5193,30.9625],[74.4416,30.9462],[74.4013,30.8931],[74.3425,30.9019],[74.3192,30.8934],[74.304,30.874],[74.3114,30.8559],[74.3002,30.8382],[74.2567,30.8153],[74.2667,30.7884],[74.1912,30.717],[74.1637,30.6649],[74.1115,30.6462],[74.0674,30.6105],[74.0575,30.5314],[74.0044,30.5089],[73.9293,30.4191],[73.8999,30.4221],[73.9061,30.3948],[73.8876,30.3965],[73.8517,30.3727],[73.8423,30.353],[73.8916,30.3298],[73.9346,30.261],[73.9489,30.2173],[73.9444,30.1883],[73.7397,30.0485],[73.5578,30.0125],[73.3703,29.9273],[73.2329,29.5366],[73.0509,29.2282],[72.9629,29.1168],[72.9304,29.0477],[72.9015,29.0226],[72.3546,28.7672],[72.2565,28.6456],[72.1978,28.4449],[72.1499,28.3538],[71.9882,28.2281],[71.9083,28.1356],[71.8916,28.0971],[71.88,27.9749],[71.8609,27.9502],[71.5607,27.8685],[71.3978,27.8684],[71.2263,27.8454],[70.9138,27.7178],[70.8316,27.7015],[70.7618,27.7098],[70.7104,27.7412],[70.6407,27.8548],[70.6332,27.9316],[70.5598,27.9984],[70.5068,28.029],[70.4562,28.0398],[70.3419,28.0115],[70.189,27.8918]]]}},{"type":"Feature","id":"Sindh","properties":{"id":"Sindh","iso_code":"PK-SD","name":"Sindh","name_full":"Sindh","name_ja":"シンド州","center_lonlat":[68.7687,26.0282]},"geometry":{"type":"MultiPolygon","coordinates":[[[[70.189,27.8918],[70.0907,27.7935],[70.0169,27.6006],[69.9935,27.5711],[69.9081,27.4973],[69.848,27.4104],[69.5756,27.1884],[69.5344,27.1256],[69.5076,27.0501],[69.4651,26.8078],[69.4728,26.7666],[69.5042,26.7352],[69.6594,26.6777],[69.7723,26.5951],[69.8156,26.5803],[70.0561,26.5891],[70.1296,26.5625],[70.1581,26.5301],[70.1605,26.3713],[70.1425,26.3137],[70.1469,26.2174],[70.0739,26.0831],[70.0646,25.9803],[70.0832,25.9299],[70.115,25.8817],[70.214,25.7863],[70.2345,25.731],[70.2646,25.6973],[70.3601,25.6735],[70.4772,25.6763],[70.5923,25.7088],[70.6323,25.7014],[70.6539,25.6745],[70.6545,25.3966],[70.7105,25.3359],[70.7349,25.2673],[70.8486,25.1633],[70.9152,24.9466],[71.0032,24.8082],[71.0639,24.6826],[70.9771,24.6397],[70.9548,24.5845],[70.9578,24.556],[70.9809,24.5347],[70.9771,24.4649],[71.075,24.4364],[71.0828,24.4115],[71.0731,24.4021],[71.0251,24.3863],[70.9967,24.3566],[70.9177,24.3617],[70.8409,24.3058],[70.8515,24.2649],[70.7555,24.2314],[70.6215,24.2412],[70.5847,24.2579],[70.5602,24.2873],[70.5456,24.3622],[70.5752,24.4],[70.5629,24.4241],[70.5209,24.4249],[70.4164,24.4019],[70.3532,24.3663],[70.2985,24.3634],[70.2426,24.3306],[70.1097,24.3049],[70.0872,24.2826],[70.0521,24.2021],[70.016,24.1741],[69.972,24.1652],[69.7146,24.1686],[69.6706,24.1887],[69.5923,24.2646],[69.5631,24.2768],[69.2808,24.2837],[69.1667,24.2532],[69.0677,24.2884],[68.9626,24.2572],[68.9042,24.3206],[68.8851,24.3136],[68.8388,24.2365],[68.8197,24.2503],[68.8138,24.3084],[68.7992,24.3291],[68.7473,24.3312],[68.7259,24.2892],[68.7245,23.9652],[68.4316,23.9671],[68.3855,23.9604],[68.3536,23.9393],[68.3489,23.9646],[68.3304,23.9666],[68.335,23.941],[68.3141,23.9159],[68.3004,23.9105],[68.2639,23.9359],[68.2527,23.9201],[68.2604,23.8955],[68.2073,23.877],[68.183,23.8421],[68.1575,23.9051],[68.1575,23.8642],[68.1706,23.8399],[68.1433,23.7611],[68.1575,23.6962],[68.1491,23.6945],[68.1022,23.7338],[68.0989,23.7093],[68.0628,23.7231],[68.057,23.751],[68.0744,23.7648],[68.0817,23.8056],[68.1022,23.8157],[68.0594,23.8619],[68.0637,23.9232],[68.0135,23.9393],[68.0539,23.8294],[68.0135,23.7685],[67.9942,23.8112],[67.9509,23.8089],[67.9343,23.833],[67.9099,23.8362],[67.8999,23.8676],[67.8689,23.8505],[67.8552,23.9119],[67.8317,23.8095],[67.7186,23.8437],[67.7437,23.8088],[67.7157,23.7917],[67.6316,23.8035],[67.6566,23.9194],[67.6504,23.9331],[67.638,23.9159],[67.6374,23.8743],[67.6145,23.8501],[67.5894,23.8665],[67.5884,23.8847],[67.5746,23.8718],[67.5466,23.8983],[67.5301,23.8913],[67.5466,23.871],[67.4785,23.8915],[67.5125,23.8983],[67.5405,23.9393],[67.4989,23.9256],[67.5064,23.974],[67.4512,23.9877],[67.4782,24.0324],[67.4922,24.028],[67.5199,24.0451],[67.5331,24.0703],[67.5098,24.0521],[67.4407,24.0703],[67.354,24.0709],[67.3413,24.0864],[67.3371,24.119],[67.2956,24.1992],[67.2923,24.2619],[67.2791,24.2812],[67.2928,24.303],[67.286,24.3296],[67.3059,24.3428],[67.3625,24.3439],[67.283,24.3576],[67.2717,24.3691],[67.2866,24.4395],[67.2588,24.4191],[67.2468,24.468],[67.2109,24.5084],[67.2308,24.5251],[67.1946,24.5473],[67.1836,24.5903],[67.2526,24.5903],[67.209,24.6138],[67.1521,24.6157],[67.157,24.6629],[67.2,24.7106],[67.2529,24.7404],[67.2451,24.7617],[67.2327,24.7707],[67.1673,24.7602],[67.1397,24.8033],[67.0812,24.8033],[67.0825,24.7742],[66.9651,24.8436],[66.9651,24.81],[66.9412,24.8126],[66.8821,24.851],[66.8025,24.8395],[66.7796,24.851],[66.6797,24.8306],[66.6541,24.8392],[66.6567,24.8587],[66.7044,24.892],[66.8622,25.0094],[66.9397,25.0279],[66.9909,25.0669],[67.0205,25.1085],[67.0324,25.1711],[67.1376,25.2765],[67.1667,25.3486],[67.1645,25.4044],[67.2213,25.5009],[67.2645,25.5302],[67.2922,25.5811],[67.3737,25.6727],[67.4351,25.8309],[67.4341,25.959],[67.4503,26.0483],[67.4373,26.1112],[67.1809,26.5393],[67.1617,26.6047],[67.1345,27.2533],[67.1428,27.3335],[67.1929,27.5316],[67.2727,27.6634],[67.342,27.7437],[67.4021,27.8639],[67.4413,27.8827],[67.6835,27.9258],[67.9251,28.0231],[67.9993,28.1142],[68.2827,28.3105],[68.3817,28.3503],[68.438,28.4293],[68.4729,28.4548],[68.6043,28.475],[68.7757,28.465],[69.3851,28.4866],[69.4914,28.5273],[69.5304,28.5282],[69.5892,28.5154],[69.6097,28.4839],[69.7324,28.4662],[69.7545,28.4232],[69.8065,28.3857],[69.8134,28.3283],[69.8994,28.1114],[69.9772,28.0019],[70.0743,27.9397],[70.189,27.8918]]],[[[67.3755,24.0627],[67.3904,24.0493],[67.458,24.0627],[67.4854,24.0485],[67.4652,24.0406],[67.4539,24.0134],[67.4269,24.0075],[67.3934,24.0281],[67.3755,24.0627]]]]}}]}
