{"type":"FeatureCollection","features":[{"type":"Feature","id":"Aimeliik","properties":{"id":"Aimeliik","iso_code":"PW-002","name":"Aimeliik","name_full":"Aimeliik","name_ja":"アイメリーク州","center_lonlat":[134.5235,7.4369]},"geometry":{"type":"Polygon","coordinates":[[[134.5105,7.4042],[134.4993,7.4382],[134.4829,7.4458],[134.4876,7.4699],[134.5424,7.461],[134.5657,7.432],[134.5302,7.3974],[134.5105,7.4042]]]}},{"type":"Feature","id":"Airai","properties":{"id":"Airai","iso_code":"PW-004","name":"Airai","name_full":"Airai","name_ja":"アイライ州","center_lonlat":[134.5583,7.3933]},"geometry":{"type":"Polygon","coordinates":[[[134.5942,7.4211],[134.5962,7.3699],[134.5593,7.3762],[134.5388,7.3557],[134.5238,7.361],[134.5105,7.4042],[134.5302,7.3974],[134.5657,7.432],[134.5942,7.4211]]]}},{"type":"Feature","id":"Angaur","properties":{"id":"Angaur","iso_code":"PW-010","name":"Angaur","name_full":"Angaur","name_ja":"アンガウル州","center_lonlat":[134.1572,6.9118]},"geometry":{"type":"Polygon","coordinates":[[[134.1597,6.8845],[134.1367,6.9191],[134.1397,6.9343],[134.1732,6.9249],[134.1733,6.8937],[134.1597,6.8845]]]}},{"type":"Feature","id":"Hatohobei","properties":{"id":"Hatohobei","iso_code":"PW-050","name":"Hatohobei","name_full":"Hatohobei","name_ja":"ハトホベイ州","center_lonlat":[131.1592,3.0412]},"geometry":{"type":"MultiPolygon","coordinates":[[[[131.1421,3.0473],[131.1836,3.0603],[131.1921,3.0488],[131.1384,3.0189],[131.1311,3.0295],[131.1421,3.0473]]],[[[131.7915,2.9777],[131.813,2.9604],[131.7952,2.949],[131.7754,2.9641],[131.7915,2.9777]]]]}},{"type":"Feature","id":"Kayangel","properties":{"id":"Kayangel","iso_code":"PW-100","name":"Kayangel","name_full":"Kayangel","name_ja":"カヤンゲル州","center_lonlat":[134.7082,8.0756]},"geometry":{"type":"Polygon","coordinates":[[[134.7097,8.0966],[134.7273,8.0829],[134.7012,8.0502],[134.6928,8.0755],[134.7097,8.0966]]]}},{"type":"Feature","id":"Koror","properties":{"id":"Koror","iso_code":"PW-150","name":"Koror","name_full":"Koror","name_ja":"コロール","center_lonlat":[134.4306,7.2558]},"geometry":{"type":"MultiPolygon","coordinates":[[[[134.4639,7.2943],[134.4492,7.29],[134.4583,7.2567],[134.426,7.2533],[134.3929,7.2245],[134.3649,7.2215],[134.3491,7.2378],[134.3508,7.2712],[134.3826,7.2379],[134.4017,7.2465],[134.4439,7.2874],[134.4411,7.3167],[134.4639,7.2943]]],[[[134.4714,7.3625],[134.5119,7.3473],[134.5274,7.3315],[134.5222,7.3113],[134.5119,7.3086],[134.4778,7.3469],[134.4495,7.3284],[134.4496,7.3554],[134.4714,7.3625]]]]}},{"type":"Feature","id":"Melekeok","properties":{"id":"Melekeok","iso_code":"PW-212","name":"Melekeok","name_full":"Melekeok","name_ja":"マルキョク州","center_lonlat":[134.6155,7.5124]},"geometry":{"type":"Polygon","coordinates":[[[134.6257,7.5305],[134.636,7.5095],[134.6282,7.489],[134.6096,7.488],[134.5947,7.5123],[134.6078,7.5422],[134.6257,7.5305]]]}},{"type":"Feature","id":"Ngaraard","properties":{"id":"Ngaraard","iso_code":"PW-214","name":"Ngaraard","name_full":"Ngaraard","name_ja":"ガラルド州","center_lonlat":[134.645,7.6353]},"geometry":{"type":"Polygon","coordinates":[[[134.6602,7.686],[134.6582,7.5911],[134.6236,7.6001],[134.6229,7.6259],[134.641,7.646],[134.6351,7.6841],[134.6602,7.686]]]}},{"type":"Feature","id":"Ngarchelong","properties":{"id":"Ngarchelong","iso_code":"PW-218","name":"Ngarchelong","name_full":"Ngarchelong","name_ja":"アルコロン州","center_lonlat":[134.6411,7.7059]},"geometry":{"type":"Polygon","coordinates":[[[134.6351,7.6841],[134.6253,7.7341],[134.6433,7.7265],[134.6602,7.686],[134.6351,7.6841]]]}},{"type":"Feature","id":"Ngardmau","properties":{"id":"Ngardmau","iso_code":"PW-222","name":"Ngardmau","name_full":"Ngardmau","name_ja":"ガラスマオ州","center_lonlat":[134.5915,7.5986]},"geometry":{"type":"Polygon","coordinates":[[[134.5471,7.5804],[134.5691,7.6137],[134.6229,7.6259],[134.6236,7.6001],[134.6199,7.573],[134.5984,7.5898],[134.5853,7.5758],[134.5471,7.5804]]]}},{"type":"Feature","id":"Ngatpang","properties":{"id":"Ngatpang","iso_code":"PW-224","name":"Ngatpang","name_full":"Ngatpang","name_ja":"ガスパン州","center_lonlat":[134.5442,7.4787]},"geometry":{"type":"Polygon","coordinates":[[[134.4876,7.4699],[134.5116,7.4935],[134.5155,7.4805],[134.5339,7.486],[134.5283,7.5161],[134.5443,7.5235],[134.5807,7.474],[134.5657,7.432],[134.5424,7.461],[134.4876,7.4699]]]}},{"type":"Feature","id":"Ngchesar","properties":{"id":"Ngchesar","iso_code":"PW-226","name":"Ngchesar","name_full":"Ngchesar","name_ja":"エサール州","center_lonlat":[134.5948,7.4627]},"geometry":{"type":"Polygon","coordinates":[[[134.6282,7.489],[134.5942,7.4211],[134.5657,7.432],[134.5807,7.474],[134.5947,7.5123],[134.6096,7.488],[134.6282,7.489]]]}},{"type":"Feature","id":"Ngeremlengui","properties":{"id":"Ngeremlengui","iso_code":"PW-227","name":"Ngeremlengui","name_full":"Ngeremlengui","name_ja":"アルモノグイ州","center_lonlat":[134.572,7.54]},"geometry":{"type":"Polygon","coordinates":[[[134.5283,7.5161],[134.5116,7.5277],[134.5464,7.5612],[134.5471,7.5804],[134.5853,7.5758],[134.5984,7.5898],[134.6199,7.573],[134.6078,7.5422],[134.5947,7.5123],[134.5807,7.474],[134.5443,7.5235],[134.5283,7.5161]]]}},{"type":"Feature","id":"Ngiwal","properties":{"id":"Ngiwal","iso_code":"PW-228","name":"Ngiwal","name_full":"Ngiwal","name_ja":"オギワル州","center_lonlat":[134.631,7.5682]},"geometry":{"type":"Polygon","coordinates":[[[134.6582,7.5911],[134.6257,7.5305],[134.6078,7.5422],[134.6199,7.573],[134.6236,7.6001],[134.6582,7.5911]]]}},{"type":"Feature","id":"Peleliu","properties":{"id":"Peleliu","iso_code":"PW-350","name":"Peleliu","name_full":"Peleliu","name_ja":"ペリリュー州","center_lonlat":[134.26,7.0316]},"geometry":{"type":"Polygon","coordinates":[[[134.2715,7.0745],[134.2844,7.0626],[134.2715,7.0336],[134.28,7.0205],[134.2578,7.0131],[134.2344,6.9843],[134.2357,7.0085],[134.2715,7.0745]]]}},{"type":"Feature","id":"Sonsorol","properties":{"id":"Sonsorol","iso_code":"PW-370","name":"Sonsorol","name_full":"Sonsorol","name_ja":"ソンソロール州","center_lonlat":[132.2203,5.3027]},"geometry":{"type":"Polygon","coordinates":[[[132.2204,5.2922],[132.2139,5.3071],[132.2202,5.3102],[132.2267,5.3043],[132.2204,5.2922]]]}}]}
