{"type":"FeatureCollection","features":[{"type":"Feature","id":"Gaza","properties":{"id":"Gaza","iso_code":"PS-GZZ","name":"Gaza","name_full":"Gaza","name_ja":"ガザ県","center_lonlat":[34.3559,31.3945]},"geometry":{"type":"Polygon","coordinates":[[[34.4812,31.5831],[34.556,31.5398],[34.3673,31.3928],[34.3458,31.3577],[34.3509,31.2893],[34.2484,31.2114],[34.2003,31.3143],[34.3484,31.4376],[34.4812,31.5831]]]}},{"type":"Feature","id":"West Bank","properties":{"id":"West Bank","iso_code":"PS-WBK","name":"West Bank","name_full":"West Bank","name_ja":"ウェストバンク","center_lonlat":[35.2509,31.9468]},"geometry":{"type":"Polygon","coordinates":[[[35.2104,32.5419],[35.2704,32.5105],[35.3631,32.5101],[35.3929,32.4945],[35.4069,32.4148],[35.561,32.3847],[35.5656,32.3679],[35.552,32.3679],[35.5725,32.2519],[35.5594,32.2376],[35.5725,32.2376],[35.5594,32.1551],[35.5352,32.1108],[35.5451,32.0868],[35.5228,32.0578],[35.5459,31.9446],[35.5247,31.9192],[35.5491,31.8392],[35.5383,31.8193],[35.5594,31.7653],[35.5276,31.7351],[35.4801,31.6411],[35.4592,31.4919],[35.3901,31.4871],[35.2233,31.381],[35.1649,31.3623],[34.9009,31.3485],[34.8788,31.3628],[34.8672,31.3964],[34.9268,31.4944],[34.9373,31.582],[34.9553,31.6119],[35.1257,31.7331],[35.149,31.7373],[35.238,31.7093],[35.2628,31.7486],[35.2527,31.7696],[35.2649,31.8263],[35.25,31.8444],[35.2334,31.8426],[35.222,31.8792],[35.2053,31.8773],[35.2158,31.8201],[35.1836,31.8251],[35.1862,31.8087],[35.1125,31.824],[35.0763,31.8542],[35.0129,31.8293],[34.9774,31.8334],[34.9985,31.8538],[35.0343,31.8611],[35.039,31.9086],[35.0054,31.9338],[34.9867,31.9672],[35.0072,32.0208],[34.9842,32.0896],[34.9869,32.124],[34.9582,32.1865],[35.0076,32.2444],[35.0094,32.2676],[34.9899,32.2785],[35.0007,32.3357],[35.0216,32.3446],[35.0447,32.4341],[35.0643,32.4631],[35.1517,32.5079],[35.1908,32.5417],[35.2104,32.5419]]]}}]}
