{"type":"FeatureCollection","features":[{"type":"Feature","id":"Chiriqui","properties":{"id":"Chiriqui","iso_code":"PA-4","name":"Chiriqui","name_full":"Chiriquí","name_ja":"チリキ県","center_lonlat":[-82.3972,8.4865]},"geometry":{"type":"MultiPolygon","coordinates":[[[[-82.7202,8.9202],[-82.6928,8.8943],[-82.5677,8.8997],[-82.5297,8.863],[-82.4459,8.8465],[-82.363,8.8088],[-82.2817,8.777],[-82.1532,8.7626],[-82.1396,8.7037],[-82.1565,8.5898],[-82.1429,8.5573],[-82.1802,8.4579],[-82.1328,8.4492],[-82.0645,8.4615],[-82.0215,8.4019],[-81.9971,8.34],[-81.8565,8.3269],[-81.83,8.3184],[-81.7843,8.264],[-81.7321,8.2622],[-81.7046,8.295],[-81.6896,8.2969],[-81.6805,8.2774],[-81.6336,8.2971],[-81.5921,8.3719],[-81.5478,8.3857],[-81.5225,8.3793],[-81.5131,8.251],[-81.5979,8.1521],[-81.638,8.0112],[-81.6636,7.9973],[-81.691,8.0546],[-81.6979,8.0211],[-81.7104,8.0598],[-81.7257,8.0683],[-81.6774,8.0683],[-81.7462,8.1918],[-81.7606,8.1696],[-81.7462,8.1577],[-81.7804,8.1235],[-81.9518,8.1914],[-81.9312,8.2333],[-81.9784,8.1925],[-82.0132,8.2191],[-82.0603,8.2103],[-82.1156,8.2333],[-82.1424,8.1601],[-82.1565,8.1577],[-82.1435,8.2129],[-82.1879,8.1992],[-82.2192,8.2191],[-82.2049,8.2333],[-82.2188,8.3043],[-82.2118,8.3153],[-82.2049,8.3085],[-82.2086,8.3321],[-82.1844,8.3432],[-82.2255,8.3395],[-82.2425,8.3011],[-82.2771,8.3093],[-82.2801,8.3432],[-82.314,8.3308],[-82.3489,8.3358],[-82.3428,8.3085],[-82.4001,8.288],[-82.4333,8.3043],[-82.4353,8.3161],[-82.4172,8.3228],[-82.4309,8.3563],[-82.447,8.3236],[-82.4656,8.3153],[-82.452,8.2812],[-82.4709,8.2771],[-82.5117,8.2764],[-82.6589,8.3228],[-82.738,8.3174],[-82.839,8.2785],[-82.8772,8.2191],[-82.8799,8.1779],[-82.8492,8.062],[-82.8769,8.0239],[-82.8976,8.0347],[-82.8864,8.1022],[-82.9437,8.2486],[-82.968,8.268],[-82.9955,8.2648],[-83.0532,8.3151],[-83.0521,8.3276],[-82.9535,8.4021],[-82.8704,8.4381],[-82.8483,8.4652],[-82.836,8.5298],[-82.8419,8.5995],[-82.8622,8.6557],[-82.9192,8.7271],[-82.923,8.7562],[-82.8758,8.7939],[-82.8883,8.8169],[-82.8786,8.8298],[-82.7638,8.8799],[-82.7202,8.9202]]],[[[-82.3428,8.26],[-82.3148,8.2402],[-82.3865,8.2129],[-82.4309,8.26],[-82.4019,8.2571],[-82.35,8.2936],[-82.3165,8.2773],[-82.3428,8.26]]],[[[-82.2118,8.1992],[-82.2534,8.2023],[-82.246,8.1713],[-82.308,8.1992],[-82.3157,8.2149],[-82.2738,8.2333],[-82.2118,8.1992]]],[[[-82.362,8.0869],[-82.3431,8.1234],[-82.3207,8.1303],[-82.3182,8.0999],[-82.362,8.0869]]]]}},{"type":"Feature","id":"Cocle","properties":{"id":"Cocle","iso_code":"PA-2","name":"Cocle","name_full":"Coclé","name_ja":"コクレ県","center_lonlat":[-80.4244,8.5427]},"geometry":{"type":"Polygon","coordinates":[[[-80.0408,8.398],[-80.225,8.3011],[-80.3,8.3011],[-80.3342,8.288],[-80.3858,8.3113],[-80.3888,8.2948],[-80.4782,8.2023],[-80.4785,8.0914],[-80.5264,8.1164],[-80.5495,8.1061],[-80.5912,8.1385],[-80.6627,8.1241],[-80.687,8.1326],[-80.7341,8.1635],[-80.7381,8.1807],[-80.7119,8.2271],[-80.6935,8.3093],[-80.7567,8.4502],[-80.8221,8.5377],[-80.7787,8.5533],[-80.7394,8.6152],[-80.7158,8.6138],[-80.695,8.6418],[-80.6949,8.6938],[-80.6517,8.767],[-80.5861,8.7697],[-80.5425,8.791],[-80.5327,8.8212],[-80.5422,8.8806],[-80.5239,8.9249],[-80.3897,8.8783],[-80.3417,8.8766],[-80.2146,8.9858],[-80.1922,9.0475],[-80.1705,8.9763],[-80.1375,8.9492],[-80.1331,8.9222],[-80.1618,8.8723],[-80.1637,8.8307],[-80.1068,8.6264],[-80.092,8.4709],[-80.0408,8.398]]]}},{"type":"Feature","id":"Colon","properties":{"id":"Colon","iso_code":"PA-3","name":"Colon","name_full":"Colón","name_ja":"コロン県","center_lonlat":[-79.9977,9.1852]},"geometry":{"type":"Polygon","coordinates":[[[-79.0745,9.562],[-79.0789,9.451],[-79.1209,9.4315],[-79.1481,9.372],[-79.2393,9.3205],[-79.247,9.3307],[-79.2393,9.3567],[-79.2616,9.3757],[-79.2521,9.3966],[-79.2669,9.4073],[-79.3078,9.4149],[-79.3961,9.3959],[-79.3938,9.4142],[-79.3712,9.4325],[-79.3997,9.4661],[-79.4408,9.479],[-79.5225,9.4543],[-79.57,9.2636],[-79.5688,9.2239],[-79.6352,9.1899],[-79.6698,9.1282],[-79.7047,9.11],[-79.7782,9.1144],[-79.8191,9.1679],[-79.9059,9.1906],[-79.9627,9.0835],[-79.9455,9.0391],[-79.9559,8.997],[-80.0222,8.9662],[-80.0927,8.9837],[-80.1375,8.9492],[-80.1705,8.9763],[-80.1922,9.0475],[-80.2146,8.9858],[-80.3417,8.8766],[-80.3897,8.8783],[-80.5239,8.9249],[-80.5422,8.8806],[-80.5327,8.8212],[-80.5425,8.791],[-80.5861,8.7697],[-80.6517,8.767],[-80.6949,8.6938],[-80.695,8.6418],[-80.7158,8.6138],[-80.7394,8.6152],[-80.7239,8.6461],[-80.742,8.6908],[-80.7335,8.7446],[-80.7615,8.7795],[-80.8407,8.8209],[-80.8626,8.8851],[-80.8224,8.8907],[-80.7268,8.9972],[-80.5793,9.0807],[-80.4083,9.1423],[-80.2926,9.1514],[-80.2349,9.1793],[-80.1297,9.2062],[-80.0008,9.3205],[-79.9789,9.3634],[-79.9474,9.3728],[-79.9438,9.3159],[-79.9192,9.3032],[-79.8947,9.3564],[-79.8749,9.3432],[-79.8817,9.3773],[-79.868,9.3773],[-79.8804,9.3946],[-79.8712,9.4042],[-79.8186,9.391],[-79.793,9.3494],[-79.8027,9.4006],[-79.793,9.4182],[-79.7315,9.453],[-79.6906,9.4958],[-79.6774,9.5456],[-79.6517,9.5597],[-79.6822,9.5645],[-79.6303,9.6085],[-79.551,9.6293],[-79.5329,9.6243],[-79.5225,9.5953],[-79.5329,9.5833],[-79.5192,9.5691],[-79.505,9.5833],[-79.464,9.5691],[-79.4565,9.5964],[-79.4446,9.5838],[-79.336,9.5744],[-79.1938,9.5396],[-79.1563,9.555],[-79.0745,9.562]]]}},{"type":"Feature","id":"Darien","properties":{"id":"Darien","iso_code":"PA-5","name":"Darien","name_full":"Darién","name_ja":"ダリエン県","center_lonlat":[-77.9281,8.1249]},"geometry":{"type":"Polygon","coordinates":[[[-77.2694,8.1677],[-77.2311,8.0987],[-77.2012,7.982],[-77.1633,7.9393],[-77.2361,7.9292],[-77.3004,7.9021],[-77.3799,7.7744],[-77.3397,7.7072],[-77.5093,7.5941],[-77.58,7.5284],[-77.6027,7.5261],[-77.6133,7.5375],[-77.6255,7.5874],[-77.6748,7.6447],[-77.6799,7.671],[-77.7402,7.7189],[-77.7642,7.7057],[-77.7658,7.6265],[-77.7312,7.5303],[-77.7551,7.4861],[-77.7963,7.4713],[-77.8202,7.4765],[-77.8958,7.2351],[-77.9188,7.2416],[-78.0144,7.341],[-78.0144,7.3935],[-78.0359,7.393],[-78.0434,7.4223],[-78.0655,7.4178],[-78.1174,7.4656],[-78.1556,7.5277],[-78.1661,7.5126],[-78.1742,7.5754],[-78.1944,7.5714],[-78.1965,7.5537],[-78.2003,7.6064],[-78.2921,7.6915],[-78.2781,7.7374],[-78.3294,7.8432],[-78.3945,7.9174],[-78.4361,8.0583],[-78.4073,8.1022],[-78.3957,8.0699],[-78.3813,8.0636],[-78.3536,8.0757],[-78.3252,8.0609],[-78.2864,8.0807],[-78.2522,8.1175],[-78.2394,8.1744],[-78.3058,8.2539],[-78.2574,8.26],[-78.2716,8.2812],[-78.2574,8.2948],[-78.2307,8.2744],[-78.1997,8.2744],[-78.1829,8.2979],[-78.1829,8.3358],[-78.1575,8.3655],[-78.1556,8.3941],[-78.1325,8.4053],[-78.1208,8.3563],[-78.051,8.3225],[-78.0249,8.2597],[-78.0026,8.237],[-77.9613,8.238],[-77.9291,8.2129],[-77.9154,8.2191],[-77.9447,8.2305],[-77.9626,8.2539],[-77.886,8.2347],[-77.8451,8.2026],[-77.8293,8.1628],[-77.7973,8.1577],[-77.7781,8.1158],[-77.7464,8.1164],[-77.7372,8.1303],[-77.7651,8.1301],[-77.8019,8.1744],[-77.8192,8.1713],[-77.8807,8.2433],[-77.9843,8.2675],[-78.0232,8.2905],[-78.067,8.4027],[-78.0519,8.4177],[-78.0941,8.4593],[-78.0881,8.5128],[-78.114,8.5276],[-78.1344,8.5617],[-78.1245,8.5176],[-78.1062,8.508],[-78.0941,8.4109],[-78.1314,8.4581],[-78.1569,8.4662],[-78.1794,8.4421],[-78.1889,8.4057],[-78.2406,8.3835],[-78.2528,8.3947],[-78.2454,8.4177],[-78.2164,8.432],[-78.2027,8.4245],[-78.2233,8.5418],[-78.2377,8.5275],[-78.2164,8.5002],[-78.2305,8.4564],[-78.2233,8.4382],[-78.2375,8.432],[-78.2574,8.4519],[-78.2404,8.4853],[-78.2574,8.5002],[-78.2548,8.4819],[-78.2785,8.4456],[-78.2945,8.4433],[-78.3126,8.4866],[-78.3348,8.4462],[-78.3673,8.4245],[-78.3945,8.5207],[-78.3883,8.5344],[-78.402,8.5276],[-78.4082,8.548],[-78.412,8.5235],[-78.3841,8.426],[-78.361,8.3941],[-78.3883,8.3358],[-78.4097,8.353],[-78.4585,8.5604],[-78.4282,8.7026],[-78.4512,8.8197],[-78.379,8.8448],[-78.3382,8.833],[-78.309,8.8067],[-78.2903,8.816],[-78.2713,8.8527],[-78.175,8.872],[-78.1372,8.9143],[-78.0841,8.9344],[-78.0753,9.0198],[-78.0425,9.0732],[-78.0153,9.0732],[-77.9119,8.997],[-77.8337,8.9004],[-77.7124,8.8139],[-77.6925,8.7724],[-77.7472,8.7734],[-77.7901,8.7401],[-77.8218,8.7329],[-77.9086,8.6217],[-77.8985,8.5838],[-77.8722,8.5559],[-77.8758,8.5216],[-77.8401,8.4986],[-77.8402,8.4818],[-77.8104,8.446],[-77.8174,8.4013],[-77.7933,8.3483],[-77.7566,8.2957],[-77.7352,8.2876],[-77.7317,8.2583],[-77.6635,8.2305],[-77.6255,8.1997],[-77.6014,8.1254],[-77.5386,8.0817],[-77.4632,8.0967],[-77.4253,8.1276],[-77.2694,8.1677]],[[-78.0831,7.9177],[-78.0919,7.9726],[-78.1834,8.0936],[-78.2255,8.0693],[-78.2277,8.0502],[-78.2128,8.0425],[-78.202,8.0012],[-78.2257,7.9844],[-78.2574,7.9961],[-78.2958,7.9658],[-78.3293,7.9597],[-78.3345,7.9451],[-78.3212,7.8679],[-78.3039,7.8597],[-78.2451,7.7309],[-78.197,7.6779],[-78.1796,7.6653],[-78.1383,7.6773],[-78.09,7.6521],[-78.0724,7.6015],[-78.0483,7.5899],[-78.0189,7.6177],[-77.9909,7.5903],[-77.9497,7.6188],[-77.953,7.7792],[-77.981,7.804],[-78.0162,7.9314],[-78.035,7.9509],[-78.0831,7.9177]]]}},{"type":"Feature","id":"Embera-Wounaan Comarca","properties":{"id":"Embera-Wounaan Comarca","iso_code":"PA-EM","name":"Embera-Wounaan Comarca","name_full":"Emberá-Wounaan Comarca","name_ja":"エンベラ自治区","center_lonlat":[-77.6123,8.4205]},"geometry":{"type":"MultiPolygon","coordinates":[[[[-77.4694,8.5378],[-77.4887,8.4736],[-77.4223,8.4564],[-77.3913,8.3935],[-77.3744,8.2893],[-77.3632,8.2721],[-77.3243,8.2612],[-77.2694,8.1677],[-77.4253,8.1276],[-77.4632,8.0967],[-77.5386,8.0817],[-77.6014,8.1254],[-77.6255,8.1997],[-77.6635,8.2305],[-77.7317,8.2583],[-77.7352,8.2876],[-77.7566,8.2957],[-77.7933,8.3483],[-77.8174,8.4013],[-77.8104,8.446],[-77.8402,8.4818],[-77.8401,8.4986],[-77.8758,8.5216],[-77.8722,8.5559],[-77.8985,8.5838],[-77.9086,8.6217],[-77.8218,8.7329],[-77.7901,8.7401],[-77.7472,8.7734],[-77.6925,8.7724],[-77.5792,8.6548],[-77.5463,8.5901],[-77.4959,8.5701],[-77.4694,8.5378]]],[[[-78.1834,8.0936],[-78.0919,7.9726],[-78.0831,7.9177],[-78.035,7.9509],[-78.0162,7.9314],[-77.981,7.804],[-77.953,7.7792],[-77.9497,7.6188],[-77.9909,7.5903],[-78.0189,7.6177],[-78.0483,7.5899],[-78.0724,7.6015],[-78.09,7.6521],[-78.1383,7.6773],[-78.1796,7.6653],[-78.197,7.6779],[-78.2451,7.7309],[-78.3039,7.8597],[-78.3272,7.8798],[-78.3293,7.9597],[-78.2958,7.9658],[-78.2574,7.9961],[-78.2257,7.9844],[-78.202,8.0012],[-78.2128,8.0425],[-78.2277,8.0502],[-78.2255,8.0693],[-78.1834,8.0936]]]]}},{"type":"Feature","id":"Guna Yala","properties":{"id":"Guna Yala","iso_code":"PA-KY","name":"Guna Yala","name_full":"Guna Yala","name_ja":"クナ・ヤラ自治区","center_lonlat":[-78.0524,9.1624]},"geometry":{"type":"Polygon","coordinates":[[[-77.4694,8.5378],[-77.4959,8.5701],[-77.5463,8.5901],[-77.5792,8.6548],[-77.6925,8.7724],[-77.7124,8.8139],[-77.8337,8.9004],[-77.9119,8.997],[-78.0153,9.0732],[-78.0425,9.0732],[-78.0724,9.1128],[-78.1588,9.14],[-78.1458,9.1728],[-78.1587,9.203],[-78.1784,9.1901],[-78.257,9.1909],[-78.2956,9.2573],[-78.339,9.2375],[-78.4087,9.2436],[-78.4197,9.2789],[-78.449,9.3122],[-78.4651,9.321],[-78.4864,9.3087],[-78.5129,9.3497],[-78.542,9.3314],[-78.6101,9.3178],[-78.7097,9.3742],[-78.7282,9.3445],[-78.7654,9.3715],[-78.809,9.3567],[-78.8714,9.3594],[-78.9001,9.3412],[-78.9372,9.3445],[-78.9457,9.3247],[-78.9971,9.3172],[-79.0022,9.2805],[-79.0568,9.2764],[-79.1433,9.3101],[-79.2721,9.2795],[-79.279,9.3034],[-79.247,9.3307],[-79.2393,9.3205],[-79.1481,9.372],[-79.1209,9.4315],[-79.0789,9.451],[-79.0745,9.562],[-78.9706,9.5733],[-78.9573,9.5653],[-78.9745,9.5447],[-79.0549,9.532],[-79.0659,9.5137],[-79.0581,9.4579],[-79.0405,9.4522],[-78.9526,9.4547],[-78.9033,9.4229],[-78.8525,9.4238],[-78.7282,9.455],[-78.7017,9.4343],[-78.6039,9.4164],[-78.5613,9.438],[-78.5128,9.416],[-78.4377,9.4044],[-78.416,9.3843],[-78.208,9.2903],[-78.1767,9.2901],[-78.114,9.2538],[-78.0369,9.2364],[-77.9993,9.1908],[-77.9687,9.1806],[-77.8902,9.0772],[-77.8557,9.0543],[-77.8777,9.1189],[-77.8601,9.1104],[-77.7475,8.9726],[-77.7542,8.9457],[-77.7208,8.8923],[-77.7103,8.8813],[-77.6967,8.8874],[-77.6955,8.8733],[-77.6143,8.8087],[-77.6291,8.8445],[-77.5741,8.7928],[-77.5779,8.775],[-77.5593,8.7597],[-77.5536,8.7768],[-77.5437,8.7749],[-77.5351,8.7577],[-77.5447,8.7146],[-77.5321,8.7032],[-77.477,8.6699],[-77.4132,8.6667],[-77.3946,8.6784],[-77.3735,8.6647],[-77.3854,8.6436],[-77.434,8.6283],[-77.4291,8.5926],[-77.4694,8.5378]]]}},{"type":"Feature","id":"Herrera","properties":{"id":"Herrera","iso_code":"PA-6","name":"Herrera","name_full":"Herrera","name_ja":"エレーラ県","center_lonlat":[-80.696,7.8719]},"geometry":{"type":"Polygon","coordinates":[[[-80.4785,8.0914],[-80.4844,8.0825],[-80.4682,8.0749],[-80.4472,8.0273],[-80.3755,7.9972],[-80.4147,7.934],[-80.4914,7.9234],[-80.5462,7.8413],[-80.5788,7.8153],[-80.5543,7.7412],[-80.5568,7.7089],[-80.5799,7.6789],[-80.6139,7.6631],[-80.6646,7.5832],[-80.7197,7.5296],[-80.7457,7.5557],[-80.8021,7.5812],[-80.8792,7.6953],[-80.9048,7.7633],[-80.9428,7.7658],[-80.9434,7.9015],[-80.8499,7.9808],[-80.838,8.0159],[-80.8536,8.0599],[-80.781,8.088],[-80.742,8.1298],[-80.687,8.1326],[-80.6627,8.1241],[-80.5912,8.1385],[-80.5495,8.1061],[-80.5264,8.1164],[-80.4785,8.0914]]]}},{"type":"Feature","id":"Los Santos","properties":{"id":"Los Santos","iso_code":"PA-7","name":"Los Santos","name_full":"Los Santos","name_ja":"ロス・サントス県","center_lonlat":[-80.3856,7.5844]},"geometry":{"type":"Polygon","coordinates":[[[-80.3755,7.9972],[-80.3489,7.9893],[-80.3,7.8833],[-80.1438,7.7528],[-80.0524,7.6371],[-80.0058,7.5523],[-79.9947,7.5034],[-80.0179,7.4568],[-80.1355,7.4246],[-80.2107,7.4178],[-80.2659,7.4383],[-80.3069,7.4246],[-80.2591,7.4246],[-80.3576,7.382],[-80.3476,7.3183],[-80.3871,7.3081],[-80.4372,7.2465],[-80.4745,7.2533],[-80.6041,7.2367],[-80.6133,7.2858],[-80.6681,7.3228],[-80.6735,7.376],[-80.7151,7.4589],[-80.7197,7.5296],[-80.6646,7.5832],[-80.6139,7.6631],[-80.5799,7.6789],[-80.5568,7.7089],[-80.5543,7.7412],[-80.5788,7.8153],[-80.5462,7.8413],[-80.4914,7.9234],[-80.4147,7.934],[-80.3755,7.9972]]]}},{"type":"Feature","id":"Ngobe-Bugle Comarca","properties":{"id":"Ngobe-Bugle Comarca","iso_code":"PA-NB","name":"Ngobe-Bugle Comarca","name_full":"Ngöbe-Buglé Comarca","name_ja":"ノベ・ブグレ自治区","center_lonlat":[-81.7938,8.6746]},"geometry":{"type":"MultiPolygon","coordinates":[[[[-82.0067,8.9466],[-81.9586,8.9316],[-81.9037,8.9711],[-81.8673,8.9493],[-81.8523,8.9583],[-81.7934,8.9316],[-81.7755,8.9403],[-81.7742,8.9975],[-81.8419,9.0353],[-81.8771,9.0873],[-81.9334,9.1292],[-81.9374,9.1383],[-81.8729,9.1295],[-81.8624,9.1418],[-81.9103,9.1681],[-81.8828,9.1795],[-81.8146,9.1166],[-81.8242,9.1055],[-81.8419,9.1104],[-81.8209,9.0706],[-81.762,9.0638],[-81.7212,9.032],[-81.6276,8.8991],[-81.5391,8.8129],[-81.5033,8.801],[-81.3815,8.8001],[-81.358,8.7851],[-81.2131,8.7918],[-81.2227,8.7578],[-81.2105,8.5863],[-81.1561,8.4955],[-81.2033,8.4922],[-81.2656,8.5116],[-81.3285,8.5581],[-81.4105,8.5585],[-81.4886,8.5969],[-81.4993,8.5161],[-81.5257,8.4439],[-81.5225,8.3793],[-81.5478,8.3857],[-81.5921,8.3719],[-81.6336,8.2971],[-81.6805,8.2774],[-81.6896,8.2969],[-81.7046,8.295],[-81.7321,8.2622],[-81.7843,8.264],[-81.83,8.3184],[-81.8565,8.3269],[-81.9971,8.34],[-82.0215,8.4019],[-82.0645,8.4615],[-82.1328,8.4492],[-82.1802,8.4579],[-82.1429,8.5573],[-82.1565,8.5898],[-82.1396,8.7037],[-82.1532,8.7626],[-82.2817,8.777],[-82.363,8.8088],[-82.3309,8.9044],[-82.3346,8.925],[-82.3703,8.9681],[-82.4396,9.0],[-82.3534,9.0619],[-82.3515,9.0862],[-82.3234,9.1275],[-82.3103,9.1144],[-82.3159,9.0994],[-82.2803,9.0806],[-82.3178,9.0394],[-82.3215,9.0094],[-82.2015,8.955],[-82.209,8.8987],[-82.179,8.8444],[-82.1509,8.8912],[-82.0346,8.9081],[-82.0159,8.9194],[-82.0067,8.9466]]],[[[-81.5683,9.1082],[-81.5345,9.0859],[-81.5717,9.0896],[-81.5773,9.1046],[-81.5683,9.1082]]]]}},{"type":"Feature","id":"Panama","properties":{"id":"Panama","iso_code":"PA-8","name":"Panama","name_full":"Panamá","name_ja":"パナマ県","center_lonlat":[-79.115,9.0098]},"geometry":{"type":"MultiPolygon","coordinates":[[[[-78.4097,8.353],[-78.4498,8.391],[-78.4567,8.4519],[-78.4709,8.4245],[-78.4864,8.4478],[-78.484,8.5071],[-78.5317,8.576],[-78.484,8.576],[-78.5058,8.5991],[-78.5044,8.634],[-78.5665,8.6511],[-78.559,8.671],[-78.6037,8.6647],[-78.6189,8.6815],[-78.6279,8.7057],[-78.6084,8.7353],[-78.6142,8.7746],[-78.6197,8.7235],[-78.6348,8.7262],[-78.6515,8.708],[-78.6822,8.7477],[-78.7294,8.7593],[-78.7651,8.8156],[-78.7576,8.8293],[-78.7999,8.8633],[-78.7965,8.8235],[-78.838,8.817],[-78.8739,8.8912],[-79.0053,8.9595],[-79.0576,8.971],[-79.0872,8.9943],[-79.0809,9.0628],[-79.1077,9.0831],[-79.0699,9.0933],[-79.0525,9.124],[-79.0277,9.111],[-78.9774,9.1452],[-79.0289,9.1166],[-79.0525,9.1308],[-79.0878,9.092],[-79.119,9.0832],[-79.09,9.0564],[-79.0872,9.0353],[-79.1161,8.9941],[-79.1623,9.0074],[-79.1735,9.0225],[-79.193,9.0052],[-79.3057,9.021],[-79.4275,9.0134],[-79.482,8.9984],[-79.5192,8.9664],[-79.5222,8.9423],[-79.5329,8.9391],[-79.5118,8.8981],[-79.5664,8.9595],[-79.5592,8.9143],[-79.5785,8.8823],[-79.6012,8.8907],[-79.6468,8.8826],[-79.6612,8.8752],[-79.6558,8.8571],[-79.7036,8.8702],[-79.6968,8.8497],[-79.7302,8.8443],[-79.752,8.8156],[-79.752,8.7368],[-79.7384,8.7228],[-79.7508,8.6896],[-79.793,8.6511],[-79.8263,8.6385],[-79.7796,8.6184],[-79.6973,8.6573],[-79.7006,8.6416],[-79.7744,8.5795],[-79.8641,8.5524],[-79.8749,8.5207],[-79.9267,8.4934],[-79.9702,8.4441],[-80.0408,8.398],[-80.092,8.4709],[-80.1068,8.6264],[-80.1637,8.8307],[-80.1618,8.8723],[-80.1331,8.9222],[-80.1375,8.9492],[-80.0927,8.9837],[-80.0222,8.9662],[-79.9559,8.997],[-79.9455,9.0391],[-79.9627,9.0835],[-79.9059,9.1906],[-79.8191,9.1679],[-79.7782,9.1144],[-79.7047,9.11],[-79.6698,9.1282],[-79.6352,9.1899],[-79.5688,9.2239],[-79.57,9.2636],[-79.5225,9.4543],[-79.4408,9.479],[-79.3997,9.4661],[-79.3712,9.4325],[-79.3938,9.4142],[-79.3961,9.3959],[-79.3078,9.4149],[-79.2669,9.4073],[-79.2521,9.3966],[-79.2616,9.3757],[-79.2393,9.3567],[-79.247,9.3307],[-79.279,9.3034],[-79.2721,9.2795],[-79.1433,9.3101],[-79.0568,9.2764],[-79.0022,9.2805],[-78.9971,9.3172],[-78.9457,9.3247],[-78.9372,9.3445],[-78.9001,9.3412],[-78.8714,9.3594],[-78.809,9.3567],[-78.7654,9.3715],[-78.7282,9.3445],[-78.7097,9.3742],[-78.6101,9.3178],[-78.542,9.3314],[-78.5129,9.3497],[-78.4864,9.3087],[-78.4651,9.321],[-78.449,9.3122],[-78.4197,9.2789],[-78.4087,9.2436],[-78.339,9.2375],[-78.2956,9.2573],[-78.257,9.1909],[-78.1784,9.1901],[-78.1587,9.203],[-78.1458,9.1728],[-78.1588,9.14],[-78.0724,9.1128],[-78.0425,9.0732],[-78.0753,9.0198],[-78.0841,8.9344],[-78.1372,8.9143],[-78.175,8.872],[-78.2713,8.8527],[-78.2903,8.816],[-78.309,8.8067],[-78.3382,8.833],[-78.379,8.8448],[-78.4512,8.8197],[-78.4282,8.7026],[-78.4585,8.5604],[-78.4097,8.353]]],[[[-78.8922,8.458],[-78.8899,8.4741],[-78.8628,8.4537],[-78.8547,8.4133],[-78.8355,8.398],[-78.848,8.3686],[-78.8345,8.3428],[-78.858,8.2958],[-78.8964,8.2974],[-78.9013,8.309],[-78.9205,8.2826],[-78.9111,8.2341],[-78.8976,8.2289],[-78.904,8.2192],[-78.9285,8.2357],[-78.94,8.2826],[-78.9699,8.3051],[-78.9548,8.3465],[-78.9699,8.3699],[-78.9612,8.3903],[-78.9747,8.4444],[-78.9709,8.4584],[-78.9491,8.4528],[-78.9088,8.47],[-78.8922,8.458]]],[[[-79.0941,8.3085],[-79.083,8.2742],[-79.0657,8.2608],[-79.1038,8.253],[-79.0985,8.2299],[-79.1227,8.209],[-79.14,8.2444],[-79.1294,8.2872],[-79.1124,8.3174],[-79.0941,8.3085]]],[[[-79.0844,8.3825],[-79.0928,8.3772],[-79.1301,8.4049],[-79.1182,8.4291],[-79.0948,8.4065],[-79.0824,8.416],[-79.0844,8.3825]]],[[[-79.5704,8.7986],[-79.5538,8.8034],[-79.5434,8.7755],[-79.5692,8.7831],[-79.5704,8.7986]]]]}},{"type":"Feature","id":"Veraguas","properties":{"id":"Veraguas","iso_code":"PA-9","name":"Veraguas","name_full":"Veraguas","name_ja":"ベラグアス県","center_lonlat":[-81.1118,8.1362]},"geometry":{"type":"MultiPolygon","coordinates":[[[[-81.2131,8.7918],[-81.0707,8.8068],[-81.0536,8.8224],[-80.8626,8.8851],[-80.8407,8.8209],[-80.7615,8.7795],[-80.7335,8.7446],[-80.742,8.6908],[-80.7239,8.6461],[-80.7394,8.6152],[-80.7787,8.5533],[-80.8221,8.5377],[-80.7567,8.4502],[-80.6935,8.3093],[-80.7119,8.2271],[-80.7381,8.1807],[-80.7341,8.1635],[-80.687,8.1326],[-80.742,8.1298],[-80.781,8.088],[-80.8536,8.0599],[-80.838,8.0159],[-80.8499,7.9808],[-80.9434,7.9015],[-80.9428,7.7658],[-80.9048,7.7633],[-80.8792,7.6953],[-80.8021,7.5812],[-80.7457,7.5557],[-80.7197,7.5296],[-80.7151,7.4589],[-80.6735,7.376],[-80.6681,7.3228],[-80.6133,7.2858],[-80.6041,7.2367],[-80.7131,7.2165],[-80.8481,7.2191],[-80.8618,7.2057],[-80.8944,7.2434],[-80.9297,7.2565],[-80.8916,7.3602],[-80.8957,7.3766],[-80.9212,7.392],[-80.9151,7.4547],[-80.9669,7.5099],[-80.9547,7.5169],[-80.9463,7.5557],[-80.9791,7.5891],[-80.9717,7.6027],[-81.0413,7.6617],[-81.0278,7.6862],[-81.0058,7.6853],[-81.0433,7.712],[-81.0262,7.7467],[-81.0548,7.75],[-81.0536,7.7604],[-81.0861,7.7791],[-81.0781,7.8013],[-81.0213,7.8227],[-81.02,7.8355],[-81.0489,7.8227],[-81.0536,7.9112],[-81.0904,7.8579],[-81.1082,7.8771],[-81.0877,7.8423],[-81.133,7.8423],[-81.1924,7.8633],[-81.1999,7.8936],[-81.218,7.8975],[-81.2044,7.8833],[-81.2152,7.871],[-81.1771,7.8457],[-81.1833,7.8237],[-81.1647,7.789],[-81.1744,7.763],[-81.218,7.7263],[-81.218,7.7542],[-81.246,7.7542],[-81.218,7.7194],[-81.246,7.7194],[-81.2317,7.6989],[-81.1975,7.712],[-81.1933,7.7008],[-81.1975,7.6301],[-81.2255,7.609],[-81.2912,7.6507],[-81.4241,7.671],[-81.4508,7.7051],[-81.5258,7.7115],[-81.5271,7.7263],[-81.4888,7.7492],[-81.5281,7.7606],[-81.5402,7.7399],[-81.5749,7.7604],[-81.5684,7.776],[-81.588,7.8045],[-81.5675,7.856],[-81.6016,7.856],[-81.6091,7.8703],[-81.5999,7.885],[-81.6227,7.8901],[-81.6129,7.9314],[-81.5954,7.9249],[-81.6159,7.9522],[-81.6091,7.9864],[-81.6289,7.9818],[-81.6226,7.9479],[-81.6333,7.9459],[-81.6636,7.9973],[-81.638,8.0112],[-81.5979,8.1521],[-81.5131,8.251],[-81.5225,8.3793],[-81.5257,8.4439],[-81.4993,8.5161],[-81.4886,8.5969],[-81.4105,8.5585],[-81.3285,8.5581],[-81.2656,8.5116],[-81.2033,8.4922],[-81.1561,8.4955],[-81.2105,8.5863],[-81.2227,8.7578],[-81.2131,8.7918]]],[[[-81.6644,7.3973],[-81.6221,7.3939],[-81.588,7.3352],[-81.6494,7.3215],[-81.6842,7.3414],[-81.7462,7.3489],[-81.8419,7.4308],[-81.8751,7.4904],[-81.8828,7.5168],[-81.8487,7.5202],[-81.8245,7.5854],[-81.7525,7.6164],[-81.7599,7.6443],[-81.7388,7.6443],[-81.7053,7.5407],[-81.6718,7.5264],[-81.6705,7.5102],[-81.7084,7.4935],[-81.719,7.4525],[-81.6844,7.395],[-81.6644,7.3973]]],[[[-81.1492,7.5612],[-81.0877,7.5816],[-81.0331,7.5754],[-81.0528,7.5446],[-81.075,7.5353],[-81.1293,7.5453],[-81.1907,7.4935],[-81.2519,7.4904],[-81.2227,7.5211],[-81.1744,7.5314],[-81.1492,7.5612]]],[[[-81.8077,7.2874],[-81.7667,7.2874],[-81.8009,7.239],[-81.7934,7.226],[-81.8162,7.2713],[-81.8192,7.2887],[-81.8077,7.2874]]]]}},{"type":"Feature","id":"comarca Ngabe-Bugle","properties":{"id":"comarca Ngabe-Bugle","iso_code":"PA-1","name":"comarca Ngabe-Bugle","name_full":"comarca Ngäbe-Buglé","name_ja":"ボカス・デル・トーロ県","center_lonlat":[-82.599,9.2008]},"geometry":{"type":"MultiPolygon","coordinates":[[[[-82.0067,8.9466],[-82.0159,8.9194],[-82.0346,8.9081],[-82.1509,8.8912],[-82.179,8.8444],[-82.209,8.8987],[-82.2015,8.955],[-82.3215,9.0094],[-82.3178,9.0394],[-82.2803,9.0806],[-82.3159,9.0994],[-82.3103,9.1144],[-82.3234,9.1275],[-82.3515,9.0862],[-82.3534,9.0619],[-82.4396,9.0],[-82.3703,8.9681],[-82.3346,8.925],[-82.3309,8.9044],[-82.363,8.8088],[-82.4459,8.8465],[-82.5297,8.863],[-82.5677,8.8997],[-82.6928,8.8943],[-82.7202,8.9202],[-82.7491,8.9741],[-82.8824,9.0453],[-82.9002,9.0721],[-82.9394,9.0596],[-82.9417,9.4563],[-82.9333,9.4703],[-82.8464,9.4925],[-82.8793,9.5599],[-82.8475,9.6007],[-82.7711,9.5799],[-82.7294,9.5449],[-82.7117,9.545],[-82.678,9.4978],[-82.6321,9.4847],[-82.6124,9.4995],[-82.6011,9.5487],[-82.5628,9.5387],[-82.5736,9.5762],[-82.4066,9.4352],[-82.369,9.4149],[-82.3428,9.4325],[-82.3795,9.3438],[-82.3489,9.2947],[-82.3876,9.2861],[-82.3937,9.2621],[-82.3732,9.2545],[-82.3506,9.2073],[-82.3148,9.1855],[-82.2825,9.2021],[-82.2943,9.2203],[-82.2555,9.1826],[-82.246,9.2134],[-82.2311,9.1938],[-82.2192,9.1964],[-82.2125,9.22],[-82.1981,9.2203],[-82.1844,9.1929],[-82.1708,9.1998],[-82.1776,9.1452],[-82.2241,9.1697],[-82.2607,9.164],[-82.2534,9.1104],[-82.2738,9.1166],[-82.2391,9.0793],[-82.246,9.0141],[-82.2602,9.021],[-82.2188,8.9934],[-82.1776,9.0006],[-82.1418,8.989],[-82.1019,8.9316],[-82.0067,8.9466]]],[[[-82.3285,9.4121],[-82.2664,9.4394],[-82.2318,9.3734],[-82.246,9.3568],[-82.246,9.3301],[-82.3285,9.4121]]],[[[-82.123,9.3227],[-82.0746,9.2885],[-82.1142,9.2833],[-82.1388,9.2453],[-82.1544,9.2584],[-82.1593,9.3231],[-82.2118,9.3494],[-82.1566,9.3494],[-82.123,9.3227]]],[[[-82.0472,9.1726],[-82.0518,9.1822],[-82.0105,9.1415],[-82.0271,9.1329],[-82.0501,9.1459],[-82.0472,9.1726]]]]}}]}
