{"type":"FeatureCollection","features":[{"type":"Feature","id":"Central","properties":{"id":"Central","iso_code":"PG-CPM","name":"Central","name_full":"Central","name_ja":"中央州","center_lonlat":[147.6122,-9.194]},"geometry":{"type":"Polygon","coordinates":[[[149.6783,-10.3365],[149.5977,-10.3464],[149.5726,-10.3375],[149.5497,-10.3507],[149.533,-10.3445],[149.5261,-10.352],[149.5398,-10.3649],[149.5088,-10.3649],[149.4912,-10.3377],[149.4606,-10.3523],[149.4435,-10.3445],[149.4549,-10.3308],[149.4219,-10.321],[149.4129,-10.2932],[149.3684,-10.2761],[149.3268,-10.3103],[149.1016,-10.2346],[149.009,-10.2521],[148.9583,-10.2781],[148.8592,-10.2355],[148.7478,-10.2346],[148.731,-10.2005],[148.7378,-10.1868],[148.7241,-10.1868],[148.7674,-10.1583],[148.7448,-10.136],[148.7329,-10.1569],[148.7102,-10.151],[148.6893,-10.1049],[148.6691,-10.1645],[148.6387,-10.1879],[148.5379,-10.1723],[148.5148,-10.1902],[148.402,-10.2005],[148.3371,-10.1755],[148.299,-10.1271],[148.2801,-10.124],[148.2723,-10.1389],[148.2313,-10.1056],[148.176,-10.0981],[148.155,-10.0707],[148.1429,-10.1059],[148.1038,-10.1282],[148.056,-10.1354],[148.0183,-10.1248],[147.9774,-10.1663],[147.9133,-10.0888],[147.854,-10.0981],[147.8815,-10.0691],[147.8675,-10.0434],[147.8526,-10.0501],[147.8447,-10.0785],[147.7854,-10.0545],[147.7617,-10.0597],[147.7168,-10.0981],[147.6994,-10.0149],[147.6565,-9.9916],[147.6213,-9.9889],[147.5728,-9.9452],[147.5597,-9.9145],[147.5095,-9.8649],[147.491,-9.7677],[147.345,-9.5803],[147.3196,-9.5773],[147.3101,-9.5388],[147.2868,-9.5213],[147.2688,-9.4234],[147.1845,-9.3829],[147.0639,-9.4294],[147.0652,-9.4491],[147.0999,-9.4817],[147.0527,-9.4602],[146.9661,-9.2791],[146.9055,-9.282],[146.8949,-9.2682],[146.9192,-9.2521],[146.8963,-9.2109],[146.8949,-9.1812],[146.9085,-9.1589],[146.8882,-9.1316],[146.9421,-9.1075],[146.9768,-9.0761],[146.9754,-9.0335],[146.9566,-9.032],[146.9515,-9.0636],[146.9085,-9.1037],[146.8728,-9.1065],[146.7783,-9.0566],[146.7367,-9.0566],[146.6018,-9.006],[146.5584,-8.9405],[146.5483,-8.892],[146.5619,-8.8512],[146.5791,-8.858],[146.6045,-8.8342],[146.6065,-8.802],[146.5659,-8.8181],[146.5721,-8.802],[146.5532,-8.7658],[146.5208,-8.7652],[146.5071,-8.7053],[146.4353,-8.6106],[146.3898,-8.5844],[146.3936,-7.9908],[146.408,-7.9374],[146.6256,-7.7712],[146.7159,-7.8388],[146.7246,-7.9268],[146.7421,-7.9587],[146.8177,-7.9854],[146.8785,-7.983],[146.9359,-8.0066],[146.9918,-8.0002],[147.3007,-8.2868],[147.5107,-8.4038],[147.5948,-8.5055],[147.6188,-8.5616],[147.6013,-8.6174],[147.5102,-8.7534],[147.5118,-8.8659],[147.6891,-9.0607],[147.7389,-9.1607],[147.7599,-9.1684],[147.8007,-9.1552],[147.8775,-9.273],[147.9476,-9.309],[148.0372,-9.4406],[148.0279,-9.5399],[148.0558,-9.5838],[148.1279,-9.6085],[148.3137,-9.7578],[148.3902,-9.7549],[148.636,-9.9076],[148.6871,-9.8943],[148.7032,-9.9342],[148.7606,-9.9373],[148.8093,-9.9605],[148.8781,-9.9387],[148.9755,-9.9283],[148.9805,-9.8788],[148.9457,-9.8065],[148.9563,-9.7855],[149.0688,-9.7736],[149.2111,-9.8105],[149.2826,-9.8514],[149.3233,-9.9209],[149.4008,-9.9386],[149.4685,-9.9961],[149.6536,-10.0905],[149.6755,-10.1366],[149.6783,-10.3365]]]}},{"type":"Feature","id":"Chimbu","properties":{"id":"Chimbu","iso_code":"PG-CPK","name":"Chimbu","name_full":"Chimbu","name_ja":"シンブ州","center_lonlat":[144.9223,-6.3441]},"geometry":{"type":"Polygon","coordinates":[[[145.038,-5.7877],[145.0946,-5.8041],[145.1664,-5.8745],[145.1536,-5.9289],[145.15,-6.0639],[145.1617,-6.0978],[145.2453,-6.1549],[145.264,-6.257],[145.2599,-6.3006],[145.1637,-6.4099],[145.0485,-6.4149],[144.9972,-6.4451],[144.9862,-6.4771],[145.0006,-6.5237],[145.0742,-6.5554],[145.2014,-6.6738],[145.3168,-6.6937],[145.3423,-6.7303],[145.3024,-6.8752],[145.2565,-6.8475],[145.1826,-6.8421],[145.0629,-6.7971],[144.9763,-6.7809],[144.9275,-6.7375],[144.8265,-6.7549],[144.7601,-6.7295],[144.7146,-6.7386],[144.6676,-6.6855],[144.5963,-6.6731],[144.5778,-6.6216],[144.5441,-6.5893],[144.4572,-6.5718],[144.4456,-6.5223],[144.4515,-6.4837],[144.4642,-6.4644],[144.5362,-6.4384],[144.5399,-6.3678],[144.5909,-6.4013],[144.6051,-6.3944],[144.6257,-6.3322],[144.6969,-6.2523],[144.7406,-6.1326],[144.7059,-6.0717],[144.7118,-6.0242],[144.7226,-5.9991],[144.7957,-5.9612],[144.8065,-5.9421],[144.7987,-5.7849],[144.9685,-5.807],[145.038,-5.7877]]]}},{"type":"Feature","id":"East New Britain","properties":{"id":"East New Britain","iso_code":"PG-EBR","name":"East New Britain","name_full":"East New Britain","name_ja":"東ニューブリテン州","center_lonlat":[151.6706,-5.0935]},"geometry":{"type":"MultiPolygon","coordinates":[[[[151.6477,-4.949],[151.679,-4.9002],[151.6979,-4.8246],[151.6637,-4.7663],[151.667,-4.6463],[151.627,-4.5613],[151.6192,-4.4743],[151.5539,-4.3964],[151.5441,-4.3466],[151.5198,-4.3207],[151.5266,-4.2902],[151.5095,-4.2131],[151.5403,-4.1767],[151.6917,-4.2047],[151.7171,-4.1989],[151.7258,-4.2184],[151.7627,-4.2062],[151.8171,-4.214],[151.863,-4.2387],[151.8821,-4.3051],[151.9647,-4.3312],[151.9985,-4.3188],[152.0303,-4.2766],[152.0361,-4.2569],[151.9995,-4.2109],[152.0086,-4.1917],[152.0643,-4.2109],[152.1008,-4.1984],[152.1367,-4.2047],[152.1621,-4.1485],[152.1851,-4.1425],[152.2334,-4.1904],[152.2458,-4.2351],[152.2293,-4.2462],[152.2056,-4.242],[152.1885,-4.2101],[152.1776,-4.2109],[152.1857,-4.3085],[152.2398,-4.3071],[152.2632,-4.3313],[152.3386,-4.3419],[152.4124,-4.3294],[152.4146,-4.3604],[152.3608,-4.5065],[152.3989,-4.6025],[152.4116,-4.6838],[152.3864,-4.7912],[152.3223,-4.8912],[152.2918,-4.9355],[152.2324,-4.9831],[152.1577,-4.9993],[152.0388,-4.9786],[152.0276,-4.9877],[151.9927,-4.9718],[151.9744,-4.9841],[151.9776,-5.1486],[152.052,-5.2289],[152.0816,-5.2394],[152.1231,-5.2908],[152.1475,-5.3458],[152.1504,-5.3697],[152.0989,-5.4557],[152.0677,-5.4591],[152.0132,-5.4897],[151.9717,-5.5341],[151.8869,-5.5546],[151.8342,-5.593],[151.786,-5.5849],[151.7572,-5.5488],[151.7205,-5.5289],[151.6538,-5.5375],[151.6193,-5.5751],[151.5808,-5.5353],[151.4641,-5.5343],[151.4453,-5.5694],[151.4509,-5.5865],[151.4701,-5.6165],[151.5026,-5.6202],[151.5326,-5.6647],[151.5154,-5.6816],[151.4651,-5.685],[151.4314,-5.7075],[151.4099,-5.7359],[151.3958,-5.7918],[151.3555,-5.8342],[151.2869,-5.8562],[151.1828,-5.9643],[151.1716,-5.9518],[151.0869,-5.9858],[151.061,-6.0294],[150.9723,-6.0208],[150.9006,-6.0369],[150.8804,-6.0539],[150.8215,-6.0139],[150.807,-6.0483],[150.8122,-6.0838],[150.7961,-6.1203],[150.7713,-6.1298],[150.7575,-6.0805],[150.6703,-5.9942],[150.6062,-5.9097],[150.601,-5.8073],[150.6877,-5.7646],[150.8124,-5.7552],[150.8762,-5.7205],[150.9732,-5.7032],[150.9845,-5.6893],[150.9761,-5.6386],[150.9906,-5.6033],[151.0556,-5.6254],[151.0803,-5.6215],[151.1448,-5.5595],[151.2111,-5.517],[151.2415,-5.4803],[151.246,-5.4543],[151.2291,-5.4399],[151.1739,-5.4394],[151.1665,-5.4228],[151.2485,-5.2368],[151.3462,-5.0797],[151.4589,-5.0177],[151.674,-5.0095],[151.6898,-4.9926],[151.6477,-4.949]]],[[[152.4866,-4.1363],[152.5062,-4.172],[152.4927,-4.2109],[152.4524,-4.2013],[152.4494,-4.1773],[152.4313,-4.163],[152.4729,-4.1222],[152.4866,-4.1363]]]]}},{"type":"Feature","id":"East Sepik","properties":{"id":"East Sepik","iso_code":"PG-ESW","name":"East Sepik","name_full":"East Sepik","name_ja":"東セピック州","center_lonlat":[143.164,-4.2975]},"geometry":{"type":"MultiPolygon","coordinates":[[[[143.0851,-3.3531],[143.2112,-3.3617],[143.2522,-3.3823],[143.523,-3.436],[143.5979,-3.5051],[143.6187,-3.5449],[143.6843,-3.5743],[143.7202,-3.5623],[143.7146,-3.5808],[143.7342,-3.6021],[143.818,-3.6217],[143.8552,-3.6801],[143.9471,-3.7223],[143.9959,-3.7931],[144.0215,-3.803],[144.167,-3.8006],[144.1261,-3.8141],[144.1789,-3.8513],[144.2036,-3.8378],[144.2183,-3.8447],[144.2388,-3.8688],[144.2742,-3.8312],[144.2762,-3.8073],[144.3099,-3.7984],[144.5134,-3.8176],[144.5469,-3.8632],[144.5513,-3.9684],[144.5817,-3.9958],[144.5635,-4.4802],[144.4456,-4.6689],[144.0469,-4.9663],[143.9686,-4.9807],[143.1821,-5.044],[143.0639,-5.072],[142.9008,-5.0607],[142.7632,-5.0197],[142.6948,-4.9836],[142.3236,-4.9678],[142.2987,-4.6777],[142.1962,-4.6183],[141.4949,-4.6132],[141.3678,-4.588],[141.3383,-4.499],[141.3424,-4.2877],[141.3643,-4.2589],[141.7156,-4.0216],[141.7395,-4.0159],[141.7622,-4.0128],[141.7638,-4.0337],[141.81,-4.0606],[141.7963,-4.0947],[141.8236,-4.081],[142.4575,-4.0753],[142.5127,-4.0621],[142.5577,-3.9449],[142.6198,-3.9032],[142.6341,-3.8652],[142.6369,-3.8031],[142.6046,-3.7157],[142.6026,-3.5555],[142.6507,-3.4497],[142.7561,-3.41],[142.9972,-3.5139],[143.0552,-3.5215],[143.0783,-3.4888],[143.0851,-3.3531]]],[[[143.5852,-3.3787],[143.5231,-3.361],[143.5072,-3.3476],[143.5159,-3.3204],[143.5428,-3.3168],[143.5939,-3.3487],[143.6003,-3.3676],[143.5852,-3.3787]]],[[[144.0616,-3.2153],[144.0958,-3.1885],[144.1345,-3.2301],[144.1152,-3.2479],[144.0809,-3.2391],[144.0616,-3.2153]]],[[[144.6003,-3.4998],[144.6198,-3.5163],[144.5959,-3.5173],[144.6003,-3.4998]]]]}},{"type":"Feature","id":"Eastern Highlands","properties":{"id":"Eastern Highlands","iso_code":"PG-EHG","name":"Eastern Highlands","name_full":"Eastern Highlands","name_ja":"東部山岳州","center_lonlat":[145.6159,-6.4784]},"geometry":{"type":"Polygon","coordinates":[[[145.8679,-5.9963],[145.9351,-6.0896],[145.9636,-6.076],[145.9682,-6.1067],[146.1134,-6.199],[146.1287,-6.2491],[146.0392,-6.675],[145.992,-6.738],[146.0192,-6.8471],[146.0153,-6.8838],[145.9372,-6.9722],[145.8463,-7.2368],[145.3024,-6.8752],[145.3423,-6.7303],[145.3168,-6.6937],[145.2014,-6.6738],[145.0742,-6.5554],[145.0006,-6.5237],[144.9862,-6.4771],[144.9972,-6.4451],[145.0485,-6.4149],[145.1637,-6.4099],[145.2599,-6.3006],[145.264,-6.257],[145.2453,-6.1549],[145.1617,-6.0978],[145.15,-6.0639],[145.1536,-5.9289],[145.1664,-5.8745],[145.3648,-5.8595],[145.4204,-5.9341],[145.4584,-5.9581],[145.513,-5.9638],[145.5639,-5.9198],[145.6075,-5.9172],[145.6702,-5.9552],[145.8185,-5.9612],[145.8679,-5.9963]]]}},{"type":"Feature","id":"Enga","properties":{"id":"Enga","iso_code":"PG-EPW","name":"Enga","name_full":"Enga","name_ja":"エンガ州","center_lonlat":[143.4944,-5.4187]},"geometry":{"type":"Polygon","coordinates":[[[143.9686,-4.9807],[143.9819,-5.0225],[144.0555,-5.0841],[144.1551,-5.1301],[144.1836,-5.2183],[144.2472,-5.2627],[144.2006,-5.3491],[144.0479,-5.4296],[144.1167,-5.5893],[144.0959,-5.6963],[144.0514,-5.7404],[143.9777,-5.7835],[143.772,-5.8677],[143.8048,-5.9364],[143.6998,-5.9222],[143.5212,-5.9625],[143.4927,-5.9574],[143.351,-5.87],[143.2481,-5.7775],[142.8942,-5.6406],[142.7886,-5.5054],[142.7632,-5.0197],[142.9008,-5.0607],[143.0639,-5.072],[143.1821,-5.044],[143.9686,-4.9807]]]}},{"type":"Feature","id":"Gulf","properties":{"id":"Gulf","iso_code":"PG-GPK","name":"Gulf","name_full":"Gulf","name_ja":"湾岸州","center_lonlat":[144.7975,-7.3802]},"geometry":{"type":"Polygon","coordinates":[[[146.3898,-8.5844],[146.2772,-8.4352],[146.2351,-8.2743],[146.1165,-8.2001],[146.0999,-8.1652],[146.1128,-8.1544],[146.1099,-8.1381],[146.0856,-8.1106],[146.1028,-8.1003],[146.0999,-8.0833],[146.0794,-8.0875],[145.9395,-8.0351],[145.8807,-8.0417],[145.7981,-8.007],[145.7708,-7.97],[145.7913,-7.9597],[145.7777,-7.9425],[145.7913,-7.9119],[145.7725,-7.9274],[145.7225,-7.9325],[145.737,-7.9527],[145.7191,-7.9604],[145.658,-7.9597],[145.6133,-7.9325],[145.4419,-7.9441],[145.408,-7.9317],[145.3216,-7.862],[145.2434,-7.8642],[145.1841,-7.8056],[145.1682,-7.8362],[145.1497,-7.8376],[145.1021,-7.8175],[145.0747,-7.7761],[145.0584,-7.8165],[144.9963,-7.8165],[144.9553,-7.7755],[144.9426,-7.7923],[144.9038,-7.7755],[144.8796,-7.7817],[144.8421,-7.7441],[144.8662,-7.7057],[144.8674,-7.6085],[144.8523,-7.5694],[144.8312,-7.6581],[144.8372,-7.6742],[144.825,-7.6825],[144.771,-7.6811],[144.6536,-7.5613],[144.6611,-7.6342],[144.6516,-7.6491],[144.604,-7.6569],[144.5847,-7.652],[144.5645,-7.6253],[144.5366,-7.5491],[144.5376,-7.5141],[144.5223,-7.4962],[144.5096,-7.624],[144.5376,-7.652],[144.5139,-7.672],[144.4688,-7.624],[144.4592,-7.5877],[144.4072,-7.5141],[144.4414,-7.6861],[144.5078,-7.798],[144.4824,-7.8022],[144.4134,-7.7201],[144.4028,-7.7433],[144.3845,-7.7519],[144.3672,-7.7436],[144.3444,-7.6594],[144.311,-7.6103],[144.3338,-7.6887],[144.324,-7.7004],[144.3075,-7.6926],[144.2695,-7.6308],[144.2285,-7.6581],[144.2544,-7.6673],[144.2609,-7.6837],[144.2422,-7.7263],[144.2653,-7.7419],[144.2762,-7.768],[144.2149,-7.796],[144.1865,-7.7717],[144.1392,-7.7768],[143.9243,-7.6943],[143.8514,-7.6518],[143.8279,-7.6321],[143.7658,-7.506],[143.6961,-7.4881],[143.6463,-7.4384],[143.6388,-7.4521],[143.6812,-7.5016],[143.7456,-7.5237],[143.7595,-7.5832],[143.8408,-7.7201],[143.8562,-7.8083],[143.9407,-7.9303],[143.9568,-7.9723],[143.9429,-7.9916],[143.0023,-7.0382],[142.9987,-6.837],[143.6846,-6.8358],[144.7146,-6.7386],[144.7601,-6.7295],[144.8265,-6.7549],[144.9275,-6.7375],[144.9763,-6.7809],[145.0629,-6.7971],[145.1826,-6.8421],[145.2565,-6.8475],[145.3024,-6.8752],[145.8463,-7.2368],[146.0331,-7.4411],[146.0955,-7.5364],[146.411,-7.6267],[146.6256,-7.7712],[146.408,-7.9374],[146.3936,-7.9908],[146.3898,-8.5844]]]}},{"type":"Feature","id":"Madang","properties":{"id":"Madang","iso_code":"PG-MPM","name":"Madang","name_full":"Madang","name_ja":"マダン州","center_lonlat":[145.2406,-5.1609]},"geometry":{"type":"MultiPolygon","coordinates":[[[[144.5817,-3.9958],[144.7303,-4.0261],[144.8678,-4.0992],[144.8796,-4.1187],[144.8597,-4.1363],[144.865,-4.1616],[144.9392,-4.1892],[144.9912,-4.2324],[144.9997,-4.2804],[145.051,-4.3419],[145.0778,-4.3566],[145.1813,-4.3902],[145.3069,-4.3747],[145.3457,-4.3902],[145.4481,-4.4926],[145.5137,-4.5783],[145.5443,-4.582],[145.5811,-4.6463],[145.6902,-4.7682],[145.7866,-4.8235],[145.8119,-4.861],[145.7903,-4.8998],[145.7845,-4.9451],[145.8119,-5.058],[145.7982,-5.089],[145.791,-5.2209],[145.7488,-5.2897],[145.7503,-5.3458],[145.73,-5.3902],[145.7274,-5.4225],[145.7596,-5.477],[145.7879,-5.4864],[145.8724,-5.4821],[145.8938,-5.5136],[145.9006,-5.4864],[145.9143,-5.4931],[145.9695,-5.4653],[146.0447,-5.5069],[146.0571,-5.4996],[146.1633,-5.5291],[146.1729,-5.5495],[146.257,-5.5619],[146.2849,-5.5826],[146.3413,-5.5754],[146.3938,-5.6041],[146.4609,-5.5993],[146.4949,-5.6402],[146.5308,-5.6506],[146.6566,-5.7491],[146.78,-5.7924],[146.7934,-5.8162],[146.4803,-5.9988],[145.8679,-5.9963],[145.8185,-5.9612],[145.6702,-5.9552],[145.6075,-5.9172],[145.5639,-5.9198],[145.513,-5.9638],[145.4584,-5.9581],[145.4204,-5.9341],[145.3648,-5.8595],[145.1664,-5.8745],[145.0946,-5.8041],[145.038,-5.7877],[144.9634,-5.6831],[144.8922,-5.6255],[144.8481,-5.5514],[144.7478,-5.5039],[144.6616,-5.4136],[144.5762,-5.3784],[144.5045,-5.2998],[144.341,-5.2428],[144.2816,-5.274],[144.2472,-5.2627],[144.1836,-5.2183],[144.1551,-5.1301],[144.0555,-5.0841],[143.9819,-5.0225],[143.9686,-4.9807],[144.0469,-4.9663],[144.4456,-4.6689],[144.5635,-4.4802],[144.5817,-3.9958]]],[[[147.2096,-5.27],[147.2183,-5.3173],[147.2438,-5.3554],[147.229,-5.3708],[147.2233,-5.4242],[147.1961,-5.4242],[147.1619,-5.4448],[147.1272,-5.4433],[147.0991,-5.4238],[147.0212,-5.3493],[147.0051,-5.3194],[147.0181,-5.2439],[147.1126,-5.1918],[147.134,-5.1909],[147.2058,-5.2502],[147.2096,-5.27]]],[[[145.9968,-4.5343],[146.0481,-4.5851],[146.0552,-4.6599],[146.0397,-4.7123],[145.9392,-4.7609],[145.887,-4.718],[145.8757,-4.6868],[145.8807,-4.6496],[145.9065,-4.5905],[145.9559,-4.539],[145.9968,-4.5343]]],[[[145.0789,-4.0471],[145.1061,-4.0666],[145.1001,-4.1163],[145.0759,-4.1282],[145.0383,-4.1228],[145.0271,-4.0582],[145.0789,-4.0471]]],[[[146.2029,-4.8246],[146.2127,-4.7956],[146.2433,-4.7874],[146.2638,-4.8352],[146.2507,-4.8278],[146.2473,-4.8523],[146.2323,-4.8533],[146.2029,-4.8246]]]]}},{"type":"Feature","id":"Manus","properties":{"id":"Manus","iso_code":"PG-MRL","name":"Manus","name_full":"Manus","name_ja":"マヌス州","center_lonlat":[146.9396,-2.075]},"geometry":{"type":"MultiPolygon","coordinates":[[[[147.4328,-1.9838],[147.4446,-2.0048],[147.4312,-2.0608],[147.3332,-2.067],[147.3474,-2.0458],[147.3272,-2.0455],[147.3059,-2.08],[147.2918,-2.0642],[147.2749,-2.1215],[147.2057,-2.1861],[147.1307,-2.1625],[147.0701,-2.1876],[147.0452,-2.1899],[147.052,-2.1762],[146.9549,-2.1948],[146.8403,-2.1762],[146.8228,-2.1625],[146.8025,-2.1694],[146.75,-2.1232],[146.7024,-2.1144],[146.6916,-2.1325],[146.721,-2.1485],[146.7277,-2.1767],[146.6755,-2.1894],[146.648,-2.1694],[146.598,-2.1894],[146.5866,-2.2244],[146.5715,-2.2281],[146.5381,-2.2035],[146.5202,-2.1496],[146.5453,-2.1142],[146.5728,-2.1202],[146.6172,-2.1069],[146.6185,-2.0833],[146.5833,-2.0309],[146.5806,-1.9952],[146.6268,-2.0117],[146.6379,-1.9763],[146.6579,-1.9633],[146.6786,-1.9776],[146.7163,-1.9701],[146.7678,-1.9838],[146.8698,-1.947],[146.9149,-1.9633],[146.9401,-1.9548],[147.11,-1.9633],[147.1476,-2.005],[147.1834,-1.9797],[147.1952,-1.9986],[147.2376,-1.9981],[147.3332,-2.0323],[147.376,-2.029],[147.4158,-2.0458],[147.4196,-2.0099],[147.3809,-1.9615],[147.3958,-1.9571],[147.4328,-1.9838]]],[[[147.8267,-2.2376],[147.8812,-2.2861],[147.8582,-2.3245],[147.8164,-2.3474],[147.7601,-2.3458],[147.7305,-2.3264],[147.7373,-2.3134],[147.7632,-2.3211],[147.7871,-2.3117],[147.8,-2.2912],[147.7925,-2.2656],[147.813,-2.2376],[147.8267,-2.2376]]]]}},{"type":"Feature","id":"Milne Bay","properties":{"id":"Milne Bay","iso_code":"PG-MBA","name":"Milne Bay","name_full":"Milne Bay","name_ja":"ミルン湾州","center_lonlat":[149.9226,-10.1339]},"geometry":{"type":"MultiPolygon","coordinates":[[[[149.4614,-9.5941],[149.541,-9.5932],[149.6199,-9.6209],[149.6629,-9.6036],[149.6873,-9.6108],[149.731,-9.5978],[149.8885,-9.6388],[149.9749,-9.6313],[150.0122,-9.6422],[150.0264,-9.6729],[150.0488,-9.6845],[150.0547,-9.718],[149.8499,-9.781],[149.8067,-9.7753],[149.731,-9.8093],[149.721,-9.8307],[149.752,-9.879],[149.8567,-9.9752],[149.8545,-10.0149],[149.8958,-10.0232],[149.9395,-10.0624],[149.9954,-10.0776],[150.0742,-10.0776],[150.1359,-10.1061],[150.1875,-10.0912],[150.2878,-10.172],[150.3822,-10.2016],[150.4578,-10.197],[150.5243,-10.2165],[150.5593,-10.2018],[150.6017,-10.2067],[150.5812,-10.2346],[150.6272,-10.2779],[150.7835,-10.2556],[150.8286,-10.2272],[150.874,-10.2247],[150.8528,-10.2498],[150.6531,-10.3385],[150.5684,-10.3395],[150.4268,-10.3001],[150.3999,-10.3002],[150.3665,-10.3269],[150.3469,-10.3653],[150.3615,-10.3997],[150.429,-10.4023],[150.6473,-10.477],[150.6707,-10.4959],[150.6929,-10.5567],[150.6719,-10.5768],[150.5506,-10.6209],[150.536,-10.6127],[150.487,-10.6217],[150.4348,-10.6657],[150.4299,-10.6877],[150.3689,-10.6877],[150.3401,-10.6578],[150.2727,-10.6877],[150.2516,-10.6741],[150.2113,-10.7013],[150.1807,-10.6772],[150.1909,-10.6498],[150.1802,-10.6432],[150.1157,-10.6667],[150.0946,-10.6399],[150.0674,-10.6399],[150.0467,-10.6188],[150.0121,-10.612],[150.0306,-10.6],[150.0088,-10.5637],[149.9837,-10.5917],[149.9588,-10.5778],[149.9644,-10.5568],[149.9437,-10.571],[149.896,-10.5436],[149.896,-10.5642],[149.8545,-10.5505],[149.8941,-10.527],[149.896,-10.509],[149.8761,-10.5158],[149.8937,-10.4985],[149.992,-10.5139],[150.0467,-10.4959],[150.0536,-10.468],[150.0816,-10.4611],[150.0264,-10.4544],[149.9548,-10.4264],[149.9233,-10.4885],[149.8721,-10.3961],[149.7484,-10.3383],[149.6783,-10.3365],[149.6755,-10.1366],[149.6536,-10.0905],[149.4685,-9.9961],[149.4008,-9.9386],[149.3233,-9.9209],[149.2826,-9.8514],[149.2111,-9.8105],[149.0688,-9.7736],[148.9563,-9.7855],[148.9615,-9.7267],[148.9932,-9.6927],[149.0409,-9.6867],[149.102,-9.7044],[149.4007,-9.6211],[149.4614,-9.5941]]],[[[150.801,-9.6524],[150.8047,-9.6695],[150.7424,-9.6524],[150.657,-9.6593],[150.5493,-9.6232],[150.4336,-9.6313],[150.4445,-9.6088],[150.5022,-9.572],[150.5137,-9.547],[150.5056,-9.5157],[150.4578,-9.488],[150.4269,-9.4187],[150.4321,-9.3653],[150.4531,-9.3486],[150.5055,-9.3377],[150.5974,-9.377],[150.6738,-9.4387],[150.7449,-9.4184],[150.7595,-9.3992],[150.7983,-9.4257],[150.8345,-9.4612],[150.8345,-9.488],[150.8858,-9.5158],[150.8823,-9.5602],[150.8635,-9.5743],[150.8994,-9.5942],[150.9309,-9.6524],[150.9027,-9.6798],[150.8923,-9.669],[150.8752,-9.6806],[150.8413,-9.714],[150.855,-9.6624],[150.801,-9.6524]]],[[[152.9955,-9.1413],[153.0121,-9.1491],[152.9859,-9.1926],[152.9454,-9.1748],[152.9294,-9.1919],[152.9699,-9.2293],[152.9674,-9.2565],[152.9424,-9.2281],[152.9218,-9.2287],[152.8943,-9.2502],[152.8116,-9.2547],[152.7442,-9.1813],[152.7269,-9.204],[152.7295,-9.2191],[152.7532,-9.2237],[152.7359,-9.2604],[152.7205,-9.2319],[152.6558,-9.2041],[152.6442,-9.1826],[152.6506,-9.168],[152.6955,-9.1863],[152.6953,-9.1624],[152.7144,-9.1545],[152.7045,-9.1446],[152.5981,-9.0686],[152.5731,-9.0781],[152.5063,-9.0388],[152.4716,-9.0451],[152.4645,-9.0369],[152.4998,-9.0156],[152.4517,-8.9653],[152.4259,-8.9823],[152.4214,-9.0837],[152.3886,-8.9912],[152.4523,-8.945],[152.4716,-8.9495],[152.5179,-8.9964],[152.5994,-8.9889],[152.7045,-9.006],[152.7942,-9.0035],[152.8659,-9.0699],[152.8986,-9.0794],[152.9178,-9.0699],[152.9415,-9.0838],[152.9486,-9.1198],[152.9955,-9.1413]]],[[[151.177,-9.9547],[151.2463,-9.9223],[151.2839,-9.9279],[151.3006,-9.9677],[151.2693,-10.0746],[151.2323,-10.1389],[151.2323,-10.2005],[151.1566,-10.1464],[150.958,-10.1049],[150.9523,-10.0341],[150.9925,-9.9938],[150.9443,-9.9547],[150.9465,-9.9809],[150.9072,-9.9973],[150.8823,-9.9609],[150.8823,-9.903],[150.8522,-9.8488],[150.7605,-9.7833],[150.7532,-9.752],[150.7639,-9.7028],[150.8128,-9.7324],[150.8441,-9.7945],[150.917,-9.8305],[150.9822,-9.9029],[151.0481,-9.9352],[151.0617,-9.9547],[151.0383,-9.9485],[151.0354,-9.9846],[151.0897,-10.0279],[151.1429,-10.0366],[151.1502,-10.0153],[151.1388,-9.9949],[151.177,-9.9547]]],[[[153.7616,-11.5859],[153.7788,-11.5934],[153.7728,-11.612],[153.7331,-11.6051],[153.7103,-11.6181],[153.6853,-11.6125],[153.6758,-11.6257],[153.6028,-11.6125],[153.5553,-11.6357],[153.5488,-11.6194],[153.5661,-11.6188],[153.5698,-11.6051],[153.4798,-11.5859],[153.4873,-11.571],[153.4734,-11.5668],[153.473,-11.5505],[153.4356,-11.5784],[153.398,-11.5573],[153.3728,-11.559],[153.37,-11.53],[153.3906,-11.505],[153.3836,-11.4952],[153.3601,-11.5032],[153.3433,-11.489],[153.2881,-11.5231],[153.2832,-11.5026],[153.3225,-11.4843],[153.3223,-11.4685],[153.2813,-11.4611],[153.2505,-11.4239],[153.2285,-11.4265],[153.2293,-11.3888],[153.1917,-11.3617],[153.2056,-11.3171],[153.2578,-11.3534],[153.3049,-11.3533],[153.3122,-11.3698],[153.4111,-11.4083],[153.5479,-11.4846],[153.6956,-11.5213],[153.716,-11.5471],[153.7477,-11.5606],[153.7616,-11.5859]]],[[[150.3689,-9.3718],[150.3806,-9.3869],[150.3352,-9.4713],[150.3615,-9.4743],[150.3606,-9.4903],[150.3377,-9.5197],[150.3123,-9.5195],[150.2596,-9.4954],[150.2516,-9.5016],[150.2463,-9.4588],[150.1716,-9.4356],[150.1082,-9.361],[150.1128,-9.2994],[150.1423,-9.2477],[150.2145,-9.2058],[150.3154,-9.2595],[150.3689,-9.3718]]],[[[151.1126,-8.7686],[151.1384,-8.7953],[151.1429,-8.8307],[151.1021,-8.7686],[151.0436,-8.727],[151.0967,-8.6536],[151.1224,-8.5829],[151.0809,-8.5502],[151.0059,-8.5375],[150.999,-8.5182],[151.0275,-8.4618],[151.061,-8.4296],[151.1292,-8.4191],[151.1089,-8.5147],[151.139,-8.5476],[151.1384,-8.5906],[151.1057,-8.7306],[151.1126,-8.7686]]],[[[154.2817,-11.3482],[154.3023,-11.3859],[154.2681,-11.4207],[154.2599,-11.4057],[154.2195,-11.3962],[154.1489,-11.4163],[154.1384,-11.3922],[154.1322,-11.4184],[154.0962,-11.4291],[154.0549,-11.4218],[154.0383,-11.3967],[154.0075,-11.3859],[154.0354,-11.3649],[154.0212,-11.345],[154.0521,-11.3606],[154.1433,-11.3683],[154.1384,-11.3513],[154.1248,-11.3587],[154.1107,-11.35],[154.09,-11.3108],[154.2163,-11.3108],[154.2817,-11.3482]]],[[[152.8083,-10.6325],[152.8628,-10.6535],[152.8711,-10.6744],[152.7537,-10.7082],[152.5823,-10.6603],[152.5408,-10.6257],[152.5545,-10.6188],[152.6432,-10.6365],[152.6848,-10.6603],[152.7829,-10.6222],[152.8083,-10.6325]]],[[[150.8755,-10.5363],[150.9019,-10.5626],[150.8892,-10.5778],[150.8919,-10.6471],[150.7935,-10.6399],[150.7669,-10.6057],[150.7737,-10.5983],[150.822,-10.6227],[150.8657,-10.6235],[150.7935,-10.5584],[150.7904,-10.54],[150.8088,-10.5363],[150.8215,-10.5505],[150.8755,-10.5363]]],[[[151.0747,-10.6057],[151.047,-10.6274],[151.0449,-10.6368],[151.0679,-10.6399],[151.0464,-10.6697],[151.0151,-10.6625],[150.9983,-10.6354],[150.9369,-10.6325],[150.9245,-10.6803],[150.9124,-10.6378],[150.9341,-10.5999],[151.02,-10.5915],[151.0467,-10.6057],[151.0608,-10.5938],[151.0747,-10.6057]]],[[[153.1851,-11.2774],[153.1992,-11.2631],[153.1162,-11.2153],[153.1045,-11.1855],[153.1917,-11.2078],[153.2539,-11.2426],[153.2339,-11.2709],[153.1851,-11.2774]]],[[[151.0247,-9.6389],[151.0342,-9.6502],[151.0179,-9.6689],[150.9968,-9.6349],[150.9553,-9.6074],[150.9598,-9.5924],[150.9963,-9.5803],[151.0222,-9.5914],[151.0247,-9.6389]]]]}},{"type":"Feature","id":"Morobe","properties":{"id":"Morobe","iso_code":"PG-MPL","name":"Morobe","name_full":"Morobe","name_ja":"モロベ州","center_lonlat":[146.8136,-6.8695]},"geometry":{"type":"MultiPolygon","coordinates":[[[[146.7934,-5.8162],[146.8128,-5.8386],[146.8695,-5.8251],[146.9329,-5.842],[146.9558,-5.8904],[147.0422,-5.9387],[147.0823,-5.926],[147.1165,-5.969],[147.1328,-5.9577],[147.2344,-5.9688],[147.2749,-5.9356],[147.3229,-5.945],[147.3436,-5.9308],[147.4666,-5.9694],[147.6218,-6.1066],[147.6484,-6.154],[147.6747,-6.1742],[147.7262,-6.2722],[147.8267,-6.3354],[147.8267,-6.3776],[147.8504,-6.4119],[147.8675,-6.4763],[147.8499,-6.5268],[147.8607,-6.5794],[147.8403,-6.5961],[147.8469,-6.6152],[147.8607,-6.6098],[147.854,-6.691],[147.7756,-6.7179],[147.6001,-6.7271],[147.5653,-6.7538],[147.5324,-6.7458],[147.5031,-6.755],[147.4362,-6.7333],[147.3506,-6.747],[147.1824,-6.7402],[147.1476,-6.7128],[147.0828,-6.7128],[147.0444,-6.7359],[146.9627,-6.747],[146.9432,-6.8839],[146.9562,-6.9547],[147.0208,-7.0275],[147.0462,-7.0333],[147.0725,-7.0144],[147.0583,-7.0549],[147.0725,-7.0964],[147.0651,-7.1448],[147.1414,-7.2131],[147.1409,-7.2814],[147.1526,-7.3059],[147.1414,-7.3229],[147.1619,-7.3906],[147.1961,-7.4384],[147.1824,-7.4521],[147.1885,-7.4626],[147.2302,-7.4869],[147.2576,-7.4664],[147.2643,-7.4869],[147.3545,-7.5153],[147.3713,-7.5486],[147.4138,-7.5582],[147.443,-7.5825],[147.4348,-7.5916],[147.4873,-7.6163],[147.5129,-7.6876],[147.5813,-7.7037],[147.5934,-7.7648],[147.6149,-7.7966],[147.6069,-7.8165],[147.6553,-7.8097],[147.6348,-7.768],[147.6834,-7.8107],[147.7058,-7.9039],[147.7268,-7.9321],[147.7609,-7.9407],[147.813,-7.9325],[147.8323,-7.9435],[147.8649,-7.9328],[147.9673,-7.9871],[147.9774,-8.0041],[146.9918,-8.0002],[146.9359,-8.0066],[146.8785,-7.983],[146.8177,-7.9854],[146.7421,-7.9587],[146.7246,-7.9268],[146.7159,-7.8388],[146.6256,-7.7712],[146.411,-7.6267],[146.0955,-7.5364],[146.0331,-7.4411],[145.8463,-7.2368],[145.9372,-6.9722],[146.0153,-6.8838],[146.0192,-6.8471],[145.992,-6.738],[146.0392,-6.675],[146.1287,-6.2491],[146.1134,-6.199],[145.9682,-6.1067],[145.9636,-6.076],[145.9351,-6.0896],[145.8679,-5.9963],[146.4803,-5.9988],[146.7934,-5.8162]]],[[[148.0492,-5.6061],[148.0775,-5.6578],[148.0676,-5.7468],[148.0389,-5.822],[148.0246,-5.8146],[148.0246,-5.842],[147.9911,-5.8562],[147.9774,-5.7942],[147.8811,-5.7638],[147.8547,-5.7097],[147.7691,-5.6117],[147.7713,-5.5069],[147.8198,-5.4789],[147.8335,-5.4931],[147.8472,-5.4864],[147.8949,-5.5341],[147.9751,-5.5582],[148.0492,-5.6061]]],[[[148.1004,-5.3766],[148.1465,-5.4196],[148.1481,-5.448],[148.1209,-5.4653],[148.0913,-5.4566],[148.0763,-5.4286],[148.0784,-5.3967],[148.1004,-5.3766]]],[[[147.6069,-5.2872],[147.625,-5.2895],[147.6478,-5.3212],[147.6001,-5.3629],[147.5796,-5.3349],[147.5653,-5.3349],[147.562,-5.3078],[147.6069,-5.2872]]]]}},{"type":"Feature","id":"New Ireland","properties":{"id":"New Ireland","iso_code":"PG-NIK","name":"New Ireland","name_full":"New Ireland","name_ja":"ニューアイルランド州","center_lonlat":[152.5255,-3.8231]},"geometry":{"type":"MultiPolygon","coordinates":[[[[153.1372,-4.2695],[153.1268,-4.3502],[153.1372,-4.3759],[153.054,-4.4523],[153.041,-4.4858],[153.0752,-4.5403],[153.0752,-4.6018],[153.0348,-4.636],[153.0348,-4.6701],[153.0076,-4.698],[152.9802,-4.7595],[152.9461,-4.8005],[152.9241,-4.7939],[152.8977,-4.8483],[152.8738,-4.7888],[152.8151,-4.7459],[152.8181,-4.7214],[152.7326,-4.6496],[152.7263,-4.5783],[152.6898,-4.5478],[152.6712,-4.4518],[152.6914,-4.3971],[152.7039,-4.29],[152.6848,-4.2184],[152.694,-4.1993],[152.6878,-4.1638],[152.5189,-3.8547],[152.4787,-3.8409],[152.4443,-3.7991],[152.3599,-3.6941],[152.3596,-3.653],[152.3106,-3.6109],[152.2886,-3.5698],[152.2398,-3.5535],[152.2254,-3.5256],[152.1711,-3.4902],[151.9841,-3.4589],[151.8091,-3.3611],[151.6125,-3.1662],[151.4739,-3.1176],[151.4304,-3.0533],[151.293,-2.9801],[151.2603,-2.9503],[151.2107,-2.9353],[151.1807,-2.8962],[151.1525,-2.8947],[151.0906,-2.8327],[151.0453,-2.8251],[151.0076,-2.7909],[150.9358,-2.7665],[150.8371,-2.7794],[150.7598,-2.7688],[150.7389,-2.7448],[150.76,-2.711],[150.7949,-2.7291],[150.855,-2.697],[150.8761,-2.7127],[150.8924,-2.6975],[150.8933,-2.6752],[150.868,-2.669],[150.8811,-2.6435],[150.7935,-2.615],[150.8127,-2.5558],[150.9369,-2.6492],[150.9723,-2.6901],[151.0223,-2.6992],[151.0436,-2.7106],[151.0617,-2.7448],[151.1704,-2.7851],[151.2163,-2.8692],[151.3317,-2.8752],[151.3689,-2.9041],[151.3962,-2.8962],[151.4373,-2.9089],[151.5026,-2.9742],[151.5403,-2.9776],[151.6868,-3.067],[151.7322,-3.1271],[151.7539,-3.141],[151.7804,-3.1358],[151.7864,-3.1608],[151.8138,-3.1874],[151.9094,-3.2042],[151.9243,-3.1974],[151.9697,-3.2317],[152.0525,-3.2467],[152.0547,-3.2799],[152.111,-3.3302],[152.1868,-3.4316],[152.3589,-3.5377],[152.3694,-3.5808],[152.3914,-3.5961],[152.4247,-3.6565],[152.4649,-3.6684],[152.4929,-3.6428],[152.5062,-3.6573],[152.557,-3.7443],[152.5525,-3.7877],[152.575,-3.8211],[152.6445,-3.8327],[152.6984,-3.8757],[152.7552,-3.8962],[152.7776,-3.8974],[152.8235,-3.8714],[152.8711,-3.9909],[152.9318,-3.9992],[152.9461,-3.9855],[152.959,-4.0407],[153.0144,-4.0948],[153.0652,-4.1978],[153.1078,-4.2245],[153.1372,-4.2695]]],[[[150.4651,-2.5325],[150.4707,-2.547],[150.4509,-2.5909],[150.4651,-2.6423],[150.4513,-2.6584],[150.3718,-2.6822],[150.3548,-2.6616],[150.3137,-2.6833],[150.2932,-2.669],[150.1868,-2.6795],[150.1057,-2.6159],[150.0894,-2.5666],[150.0471,-2.5163],[149.9797,-2.499],[149.9578,-2.4776],[149.9588,-2.463],[149.9854,-2.4704],[150.0674,-2.4164],[150.2079,-2.3748],[150.2847,-2.4166],[150.4236,-2.4672],[150.4588,-2.5085],[150.4509,-2.5393],[150.4651,-2.5325]]],[[[149.735,-1.4736],[149.793,-1.5803],[149.739,-1.594],[149.6843,-1.5524],[149.6834,-1.5813],[149.667,-1.5759],[149.5469,-1.4822],[149.5398,-1.4255],[149.5807,-1.3464],[149.6187,-1.3538],[149.7248,-1.4289],[149.735,-1.4736]]],[[[152.6506,-3.1147],[152.6717,-3.1384],[152.6438,-3.2245],[152.5442,-3.1309],[152.5272,-3.0977],[152.5316,-3.0753],[152.5747,-3.0401],[152.6506,-3.0465],[152.6506,-3.1147]]],[[[152.0132,-2.8068],[151.9871,-2.8312],[151.9276,-2.8518],[151.9158,-2.8443],[151.913,-2.7054],[151.9782,-2.7209],[152.0098,-2.7448],[152.0093,-2.7926],[151.9927,-2.8],[151.9995,-2.8142],[152.0132,-2.8068]]],[[[150.9922,-2.9577],[151.0262,-2.9706],[150.9922,-2.9843],[150.9758,-2.9659],[150.835,-2.9601],[150.8215,-2.9776],[150.7698,-2.9796],[150.8823,-2.903],[150.9424,-2.9233],[150.9922,-2.9577]]],[[[152.0715,-2.9167],[152.0789,-2.9568],[152.0513,-2.9952],[152.0254,-2.9961],[151.9924,-2.9448],[151.9898,-2.8967],[151.9585,-2.8752],[151.9719,-2.8478],[151.9829,-2.8429],[152.0238,-2.8967],[152.0715,-2.9167]]],[[[153.6648,-4.0407],[153.6706,-4.0903],[153.6569,-4.1222],[153.6296,-4.13],[153.5899,-4.0881],[153.6257,-4.033],[153.6607,-4.0221],[153.6648,-4.0407]]],[[[151.9824,-2.6628],[151.9602,-2.6515],[151.9603,-2.6267],[151.9756,-2.6031],[151.9995,-2.5945],[152.0374,-2.6423],[152.0265,-2.6596],[151.9824,-2.6628]]],[[[150.0042,-1.6726],[150.0234,-1.6747],[150.0005,-1.6858],[149.9483,-1.6731],[149.9273,-1.685],[149.9121,-1.6537],[149.9434,-1.6585],[149.9641,-1.6303],[150.0042,-1.6726]]],[[[153.3016,-3.3686],[153.3428,-3.3787],[153.3433,-3.4163],[153.3309,-3.3989],[153.2676,-3.4033],[153.3016,-3.3686]]],[[[153.1917,-3.471],[153.2334,-3.4443],[153.2601,-3.499],[153.1917,-3.471]]],[[[153.7192,-3.9992],[153.7471,-4.0149],[153.7329,-4.0407],[153.6789,-4.0265],[153.7192,-3.9992]]]]}},{"type":"Feature","id":"Oro","properties":{"id":"Oro","iso_code":"PG-NPP","name":"Oro","name_full":"Oro","name_ja":"オロ州","center_lonlat":[148.2588,-8.9789]},"geometry":{"type":"Polygon","coordinates":[[[147.9774,-8.0041],[147.9985,-8.0554],[148.0564,-8.051],[148.0662,-8.0628],[148.1463,-8.0457],[148.1375,-8.0754],[148.1582,-8.1663],[148.2046,-8.2776],[148.2114,-8.3346],[148.2028,-8.3576],[148.2361,-8.4415],[148.2228,-8.5136],[148.2295,-8.5546],[148.299,-8.6109],[148.3418,-8.6091],[148.4453,-8.6747],[148.4868,-8.7472],[148.4963,-8.883],[148.5247,-8.9028],[148.5187,-8.9296],[148.5418,-8.9943],[148.5856,-9.0641],[148.6211,-9.0838],[148.7583,-9.1037],[148.8504,-9.0822],[148.8954,-9.0395],[148.9575,-9.0361],[148.978,-9.0514],[149.0691,-9.0351],[149.1419,-8.9745],[149.1536,-9.0036],[149.2437,-8.9972],[149.2654,-9.0156],[149.2844,-9.0085],[149.2927,-9.023],[149.318,-9.0226],[149.3245,-9.06],[149.3064,-9.09],[149.3268,-9.0976],[149.2927,-9.1037],[149.3373,-9.1249],[149.3342,-9.1453],[149.3071,-9.1726],[149.2647,-9.1822],[149.2312,-9.2995],[149.1904,-9.3439],[149.1873,-9.3907],[149.2266,-9.4867],[149.3342,-9.5158],[149.4509,-9.5773],[149.4414,-9.5905],[149.4614,-9.5941],[149.4007,-9.6211],[149.102,-9.7044],[149.0409,-9.6867],[148.9932,-9.6927],[148.9615,-9.7267],[148.9563,-9.7855],[148.9457,-9.8065],[148.9805,-9.8788],[148.9755,-9.9283],[148.8781,-9.9387],[148.8093,-9.9605],[148.7606,-9.9373],[148.7032,-9.9342],[148.6871,-9.8943],[148.636,-9.9076],[148.3902,-9.7549],[148.3137,-9.7578],[148.1279,-9.6085],[148.0558,-9.5838],[148.0279,-9.5399],[148.0372,-9.4406],[147.9476,-9.309],[147.8775,-9.273],[147.8007,-9.1552],[147.7599,-9.1684],[147.7389,-9.1607],[147.6891,-9.0607],[147.5118,-8.8659],[147.5102,-8.7534],[147.6013,-8.6174],[147.6188,-8.5616],[147.5948,-8.5055],[147.5107,-8.4038],[147.3007,-8.2868],[146.9918,-8.0002],[147.9774,-8.0041]]]}},{"type":"Feature","id":"Port Moresby","properties":{"id":"Port Moresby","iso_code":"PG-NCD","name":"Port Moresby","name_full":"Port Moresby","name_ja":"ポートモレスビー","center_lonlat":[147.1944,-9.4575]},"geometry":{"type":"Polygon","coordinates":[[[147.2868,-9.5213],[147.2497,-9.5081],[147.2576,-9.5363],[147.2344,-9.5378],[147.1726,-9.5133],[147.1511,-9.4985],[147.134,-9.4401],[147.1099,-9.4282],[147.0794,-9.4333],[147.1066,-9.4538],[147.0999,-9.4817],[147.0652,-9.4491],[147.0639,-9.4294],[147.1845,-9.3829],[147.2688,-9.4234],[147.2868,-9.5213]]]}},{"type":"Feature","id":"Sandaun","properties":{"id":"Sandaun","iso_code":"PG-SAN","name":"Sandaun","name_full":"Sandaun","name_ja":"サンダウン州","center_lonlat":[141.7033,-3.9149]},"geometry":{"type":"MultiPolygon","coordinates":[[[[140.9769,-4.9885],[140.9745,-2.6005],[141.0078,-2.6082],[141.043,-2.5898],[141.0813,-2.5943],[141.2759,-2.6423],[141.2962,-2.6764],[141.3094,-2.6713],[141.3382,-2.7018],[141.8328,-2.9059],[141.8407,-2.9332],[141.8854,-2.9638],[142.0104,-2.9604],[142.0703,-3.0185],[142.0628,-3.0602],[142.1045,-3.067],[142.1375,-3.0556],[142.1819,-3.0802],[142.3947,-3.1445],[142.502,-3.1961],[142.949,-3.3351],[143.0293,-3.3556],[143.0851,-3.3531],[143.0783,-3.4888],[143.0552,-3.5215],[142.9972,-3.5139],[142.7561,-3.41],[142.6507,-3.4497],[142.6026,-3.5555],[142.6046,-3.7157],[142.6369,-3.8031],[142.6341,-3.8652],[142.6198,-3.9032],[142.5577,-3.9449],[142.5127,-4.0621],[142.4575,-4.0753],[141.8236,-4.081],[141.7963,-4.0947],[141.81,-4.0606],[141.7638,-4.0337],[141.7622,-4.0128],[141.7395,-4.0159],[141.7156,-4.0216],[141.3643,-4.2589],[141.3424,-4.2877],[141.3383,-4.499],[141.3678,-4.588],[141.4949,-4.6132],[142.1962,-4.6183],[142.2987,-4.6777],[142.3236,-4.9678],[142.3258,-5.0654],[142.3572,-5.1629],[142.3515,-5.1956],[142.2928,-5.352],[142.2089,-5.4069],[140.9769,-4.9885]]],[[[142.8181,-1.7333],[142.8335,-1.697],[142.8655,-1.7033],[142.8181,-1.7333]]]]}},{"type":"Feature","id":"Southern Highlands","properties":{"id":"Southern Highlands","iso_code":"PG-SHM","name":"Southern Highlands","name_full":"Southern Highlands","name_ja":"南部山岳州","center_lonlat":[143.2882,-6.1698]},"geometry":{"type":"Polygon","coordinates":[[[142.3236,-4.9678],[142.6948,-4.9836],[142.7632,-5.0197],[142.7886,-5.5054],[142.8942,-5.6406],[143.2481,-5.7775],[143.351,-5.87],[143.4927,-5.9574],[143.5212,-5.9625],[143.6998,-5.9222],[143.8048,-5.9364],[143.8894,-5.971],[143.9285,-6.0156],[144.0133,-6.0178],[144.5399,-6.3678],[144.5362,-6.4384],[144.4642,-6.4644],[144.4515,-6.4837],[144.4456,-6.5223],[144.4572,-6.5718],[144.5441,-6.5893],[144.5778,-6.6216],[144.5963,-6.6731],[144.6676,-6.6855],[144.7146,-6.7386],[143.6846,-6.8358],[142.9987,-6.837],[142.8138,-6.837],[142.6802,-6.8093],[142.655,-6.7116],[142.6495,-5.992],[142.6386,-5.9394],[142.5376,-5.8572],[142.2007,-5.5311],[142.1785,-5.4709],[142.2089,-5.4069],[142.2928,-5.352],[142.3515,-5.1956],[142.3572,-5.1629],[142.3258,-5.0654],[142.3236,-4.9678]]]}},{"type":"Feature","id":"West New Britain","properties":{"id":"West New Britain","iso_code":"PG-WBK","name":"West New Britain","name_full":"West New Britain","name_ja":"西ニューブリテン州","center_lonlat":[149.8814,-5.7612]},"geometry":{"type":"MultiPolygon","coordinates":[[[[150.7713,-6.1298],[150.6764,-6.1633],[150.6458,-6.1471],[150.5007,-6.2392],[150.4651,-6.274],[150.4214,-6.2861],[150.3672,-6.2791],[150.3377,-6.2945],[150.324,-6.2809],[150.2468,-6.297],[150.1779,-6.258],[150.1034,-6.3027],[150.0847,-6.2979],[150.0794,-6.2717],[150.054,-6.2577],[150.0264,-6.2877],[150.0371,-6.3077],[150.0121,-6.3212],[150.0111,-6.2912],[149.9888,-6.274],[149.9233,-6.3082],[149.9011,-6.2919],[149.7278,-6.2877],[149.6906,-6.3082],[149.6354,-6.3082],[149.5806,-6.2599],[149.5457,-6.196],[149.464,-6.1026],[149.3206,-6.0549],[149.2363,-6.0937],[149.1892,-6.0948],[149.1629,-6.0822],[149.1605,-6.1154],[149.1419,-6.1442],[149.0529,-6.1617],[149.0531,-6.1442],[149.0806,-6.1393],[149.0733,-6.0909],[149.0332,-6.0685],[149.0604,-6.0243],[149.0531,-6.0065],[149.0452,-6.0261],[149.0121,-6.0276],[148.8941,-5.9856],[148.8682,-5.9929],[148.8539,-5.9798],[148.8818,-5.9518],[148.8753,-5.9426],[148.8539,-5.9382],[148.8372,-5.9177],[148.8045,-5.9151],[148.7793,-5.9313],[148.7644,-5.8627],[148.6756,-5.8488],[148.6211,-5.8079],[148.5702,-5.842],[148.5051,-5.801],[148.3862,-5.7751],[148.3289,-5.6838],[148.3421,-5.5333],[148.3867,-5.4685],[148.4299,-5.4448],[148.5153,-5.4897],[148.5296,-5.5239],[148.5564,-5.54],[148.5859,-5.5343],[148.6519,-5.4809],[148.744,-5.4931],[148.7752,-5.5203],[148.8477,-5.5409],[148.8555,-5.5221],[148.8906,-5.5012],[148.926,-5.4955],[148.978,-5.4653],[149.1878,-5.5559],[149.2244,-5.5993],[149.3753,-5.5751],[149.3905,-5.5873],[149.4304,-5.5615],[149.448,-5.5812],[149.4646,-5.5689],[149.4988,-5.5888],[149.5296,-5.5478],[149.6149,-5.5136],[149.6292,-5.5273],[149.6431,-5.5148],[149.6633,-5.5204],[149.6764,-5.5009],[149.6701,-5.4789],[149.6917,-5.503],[149.6831,-5.5522],[149.7093,-5.5675],[149.778,-5.5441],[149.793,-5.5069],[149.8335,-5.5265],[149.8728,-5.5276],[149.9437,-5.4931],[149.9802,-5.4381],[149.9819,-5.4088],[149.9507,-5.3971],[149.9165,-5.3492],[149.9369,-5.3075],[150.0144,-5.2475],[150.0264,-5.225],[150.0057,-5.1701],[150.0264,-5.1124],[150.0132,-5.0855],[150.0349,-5.0344],[150.069,-5.0121],[150.1126,-5.0077],[150.1789,-5.0312],[150.2024,-5.0621],[150.182,-5.1025],[150.1157,-5.1232],[150.0754,-5.1591],[150.0619,-5.1811],[150.0789,-5.2014],[150.0816,-5.2667],[150.0321,-5.2952],[150.0501,-5.3113],[150.1125,-5.4422],[150.1213,-5.4954],[150.1423,-5.5341],[150.1821,-5.5525],[150.2898,-5.5666],[150.4168,-5.4591],[150.4934,-5.4474],[150.5925,-5.487],[150.634,-5.5567],[150.719,-5.5341],[150.7586,-5.4972],[150.7717,-5.4529],[150.8096,-5.4433],[150.8372,-5.4529],[150.8755,-5.4931],[150.9059,-5.49],[150.9998,-5.425],[151.0222,-5.3903],[151.0334,-5.2589],[151.0829,-5.1638],[151.1641,-5.0959],[151.2391,-5.0065],[151.2528,-5.0065],[151.2528,-4.9929],[151.3579,-4.9465],[151.3689,-4.9035],[151.4924,-4.9426],[151.534,-4.9166],[151.6125,-4.9656],[151.6477,-4.949],[151.6898,-4.9926],[151.674,-5.0095],[151.4589,-5.0177],[151.3462,-5.0797],[151.2485,-5.2368],[151.1665,-5.4228],[151.1739,-5.4394],[151.2291,-5.4399],[151.246,-5.4543],[151.2415,-5.4803],[151.2111,-5.517],[151.1448,-5.5595],[151.0803,-5.6215],[151.0556,-5.6254],[150.9906,-5.6033],[150.9761,-5.6386],[150.9845,-5.6893],[150.9732,-5.7032],[150.8762,-5.7205],[150.8124,-5.7552],[150.6877,-5.7646],[150.601,-5.8073],[150.6062,-5.9097],[150.6703,-5.9942],[150.7575,-6.0805],[150.7713,-6.1298]]],[[[151.1885,-4.8915],[151.2233,-4.9184],[151.2068,-4.9475],[151.1532,-4.9534],[151.1195,-4.9257],[151.1438,-4.8961],[151.1885,-4.8915]]],[[[149.5193,-4.6435],[149.5618,-4.6728],[149.5602,-4.718],[149.5125,-4.6633],[149.4924,-4.6764],[149.5125,-4.6912],[149.4982,-4.7042],[149.4783,-4.7117],[149.4546,-4.6925],[149.4657,-4.6705],[149.5193,-4.6435]]],[[[149.1219,-4.8831],[149.1692,-4.8625],[149.1804,-4.8792],[149.1561,-4.924],[149.1296,-4.9088],[149.1219,-4.8831]]]]}},{"type":"Feature","id":"Western","properties":{"id":"Western","iso_code":"PG-WPD","name":"Western","name_full":"Western","name_ja":"西部州","center_lonlat":[142.032,-7.4137]},"geometry":{"type":"MultiPolygon","coordinates":[[[[140.9769,-4.9885],[142.2089,-5.4069],[142.1785,-5.4709],[142.2007,-5.5311],[142.5376,-5.8572],[142.6386,-5.9394],[142.6495,-5.992],[142.655,-6.7116],[142.6802,-6.8093],[142.8138,-6.837],[142.9987,-6.837],[143.0023,-7.0382],[143.9429,-7.9916],[143.9227,-7.9885],[143.8791,-7.9392],[143.804,-7.9325],[143.8245,-7.9529],[143.8761,-7.9697],[143.9138,-8.0076],[143.8812,-8.0379],[143.7673,-8.0402],[143.6509,-7.9814],[143.5632,-7.998],[143.4889,-7.989],[143.4484,-7.9189],[143.364,-7.8964],[143.3611,-7.9109],[143.3753,-7.9225],[143.4372,-7.9384],[143.4484,-7.9815],[143.4666,-7.9958],[143.5598,-8.0449],[143.5698,-8.0846],[143.6276,-8.1863],[143.6292,-8.2304],[143.5921,-8.242],[143.3379,-8.2477],[143.3001,-8.2688],[143.215,-8.2751],[142.9805,-8.3356],[142.9396,-8.3333],[142.8415,-8.2883],[142.7004,-8.2614],[142.5925,-8.2869],[142.514,-8.332],[142.4287,-8.3242],[142.4046,-8.2927],[142.3814,-8.1935],[142.36,-8.1671],[142.3167,-8.1589],[142.2171,-8.1755],[142.1462,-8.2174],[142.1444,-8.2345],[142.1597,-8.2409],[142.2312,-8.1939],[142.354,-8.1887],[142.3973,-8.3281],[142.4522,-8.3733],[142.4943,-8.3775],[142.5298,-8.3654],[142.6321,-8.3093],[142.7283,-8.3167],[142.7693,-8.3298],[142.8997,-8.4129],[143.1021,-8.4672],[143.2616,-8.5924],[143.3953,-8.7687],[143.4055,-8.9622],[143.3726,-8.9998],[143.3148,-9.0235],[143.1733,-9.0429],[143.1563,-9.0634],[143.0527,-9.0934],[142.9671,-9.1437],[142.9406,-9.1794],[142.8381,-9.2365],[142.731,-9.2778],[142.6526,-9.3303],[142.5773,-9.3238],[142.4651,-9.2405],[142.3191,-9.2037],[142.2107,-9.1589],[142.1693,-9.1794],[141.994,-9.1887],[141.8929,-9.2189],[141.783,-9.1999],[141.6731,-9.2136],[141.6213,-9.2341],[141.5794,-9.213],[141.51,-9.215],[141.4217,-9.1503],[141.3459,-9.1415],[141.3101,-9.1521],[141.2002,-9.2278],[141.1526,-9.2322],[141.115,-9.2184],[140.977,-9.1061],[140.9772,-6.8966],[140.9433,-6.8881],[140.9397,-6.8563],[140.916,-6.8627],[140.9016,-6.8122],[140.8709,-6.7784],[140.8845,-6.7539],[140.8492,-6.7028],[140.8658,-6.6492],[140.8649,-6.6306],[140.8504,-6.6236],[140.8593,-6.6084],[140.905,-6.5895],[140.893,-6.5654],[140.9151,-6.5585],[140.921,-6.5164],[140.9502,-6.4987],[140.9486,-6.4655],[140.9328,-6.466],[140.93,-6.445],[140.9125,-6.4386],[140.9528,-6.4318],[140.9671,-6.3939],[140.9528,-6.3738],[140.9769,-6.3351],[140.9769,-4.9885]]],[[[143.6084,-8.6381],[143.6292,-8.6447],[143.6527,-8.6834],[143.6525,-8.7065],[143.6289,-8.7304],[143.6058,-8.6892],[143.4123,-8.5956],[143.3381,-8.5217],[143.2552,-8.4948],[143.1789,-8.4191],[143.2191,-8.4151],[143.271,-8.4689],[143.4749,-8.5253],[143.492,-8.5525],[143.6084,-8.6381]]],[[[143.3794,-8.426],[143.3167,-8.3722],[143.3513,-8.3572],[143.3732,-8.3713],[143.4844,-8.3635],[143.5737,-8.3737],[143.6106,-8.475],[143.5301,-8.4855],[143.4619,-8.4582],[143.4452,-8.4391],[143.3794,-8.426]]],[[[143.6743,-8.3906],[143.679,-8.4215],[143.6483,-8.4259],[143.5899,-8.3718],[143.5409,-8.35],[143.5506,-8.3362],[143.6379,-8.3406],[143.6743,-8.3906]]],[[[143.6756,-8.0538],[143.6976,-8.0909],[143.6904,-8.1002],[143.5818,-8.0686],[143.5642,-8.03],[143.5778,-8.0182],[143.6126,-8.0201],[143.6756,-8.0538]]],[[[143.6629,-8.1093],[143.6901,-8.1367],[143.6882,-8.1536],[143.6667,-8.1674],[143.6338,-8.1647],[143.5994,-8.1108],[143.6133,-8.0949],[143.6629,-8.1093]]],[[[143.8159,-8.4954],[143.8135,-8.5309],[143.7961,-8.5383],[143.7803,-8.5133],[143.8159,-8.4954]]]]}},{"type":"Feature","id":"Western Highlands","properties":{"id":"Western Highlands","iso_code":"PG-WHM","name":"Western Highlands","name_full":"Western Highlands","name_ja":"西部山岳州","center_lonlat":[144.4198,-5.7942]},"geometry":{"type":"Polygon","coordinates":[[[145.038,-5.7877],[144.9685,-5.807],[144.7987,-5.7849],[144.8065,-5.9421],[144.7957,-5.9612],[144.7226,-5.9991],[144.7118,-6.0242],[144.7059,-6.0717],[144.7406,-6.1326],[144.6969,-6.2523],[144.6257,-6.3322],[144.6051,-6.3944],[144.5909,-6.4013],[144.5399,-6.3678],[144.0133,-6.0178],[143.9285,-6.0156],[143.8894,-5.971],[143.8048,-5.9364],[143.772,-5.8677],[143.9777,-5.7835],[144.0514,-5.7404],[144.0959,-5.6963],[144.1167,-5.5893],[144.0479,-5.4296],[144.2006,-5.3491],[144.2472,-5.2627],[144.2816,-5.274],[144.341,-5.2428],[144.5045,-5.2998],[144.5762,-5.3784],[144.6616,-5.4136],[144.7478,-5.5039],[144.8481,-5.5514],[144.8922,-5.6255],[144.9634,-5.6831],[145.038,-5.7877]]]}},{"type":"Feature","id":"of Bougainville","properties":{"id":"of Bougainville","iso_code":"PG-NSB","name":"of Bougainville","name_full":"of Bougainville","name_ja":"ブーゲンビル州","center_lonlat":[155.3138,-6.2283]},"geometry":{"type":"MultiPolygon","coordinates":[[[[155.9334,-6.6408],[155.9675,-6.7271],[155.9302,-6.7936],[155.9124,-6.809],[155.9245,-6.7382],[155.9158,-6.7271],[155.8782,-6.8015],[155.8535,-6.7735],[155.8164,-6.7822],[155.7178,-6.8728],[155.697,-6.8766],[155.5236,-6.8391],[155.4468,-6.8015],[155.3301,-6.7197],[155.1731,-6.5279],[155.2072,-6.5348],[155.2349,-6.4544],[155.2346,-6.3634],[155.2149,-6.3171],[155.1817,-6.2917],[155.082,-6.2621],[154.9909,-6.2088],[154.9596,-6.1306],[154.9324,-6.0973],[154.885,-6.0759],[154.7559,-5.9478],[154.7411,-5.887],[154.7488,-5.8347],[154.7002,-5.7669],[154.74,-5.6109],[154.7274,-5.5689],[154.7342,-5.5615],[154.7605,-5.5816],[154.7704,-5.5588],[154.742,-5.4942],[154.6984,-5.4519],[154.7002,-5.4311],[154.7332,-5.4267],[154.7744,-5.4494],[154.8298,-5.5136],[154.8656,-5.5201],[154.8919,-5.5546],[154.9255,-5.5341],[155.0183,-5.5413],[155.0324,-5.5676],[155.065,-5.5478],[155.062,-5.5857],[155.0899,-5.5956],[155.1468,-5.707],[155.1904,-5.7563],[155.1868,-5.801],[155.2134,-5.8699],[155.279,-5.8836],[155.3353,-5.9462],[155.3704,-5.9573],[155.4038,-6.006],[155.4183,-6.069],[155.4522,-6.1371],[155.5028,-6.1892],[155.5213,-6.1892],[155.5393,-6.1716],[155.5689,-6.2111],[155.5908,-6.22],[155.6156,-6.217],[155.6385,-6.1784],[155.6416,-6.217],[155.676,-6.2639],[155.7139,-6.2792],[155.7586,-6.3437],[155.8133,-6.3648],[155.9168,-6.5175],[155.926,-6.5551],[155.9192,-6.5961],[155.9334,-6.6408]]],[[[154.7274,-5.2114],[154.6887,-5.4273],[154.666,-5.4386],[154.6722,-5.4174],[154.657,-5.4225],[154.6318,-5.4591],[154.5622,-5.2397],[154.5832,-5.1945],[154.5776,-5.1196],[154.5632,-5.1152],[154.5357,-5.1375],[154.5648,-5.0663],[154.6244,-5.0134],[154.6571,-5.0197],[154.679,-5.0466],[154.6934,-5.109],[154.687,-5.1549],[154.7274,-5.2114]]],[[[154.642,-3.2623],[154.7166,-3.3934],[154.7379,-3.4419],[154.7318,-3.4608],[154.6831,-3.3497],[154.6135,-3.241],[154.5532,-3.2063],[154.6278,-3.2269],[154.642,-3.2623]]],[[[154.1921,-4.4646],[154.2204,-4.4765],[154.2541,-4.5265],[154.2537,-4.5548],[154.2323,-4.5807],[154.2053,-4.572],[154.1853,-4.5461],[154.1853,-4.52],[154.2058,-4.561],[154.2238,-4.5671],[154.242,-4.5279],[154.2033,-4.4836],[154.1785,-4.4789],[154.1921,-4.4646]]],[[[154.1514,-4.4381],[154.1345,-4.3772],[154.1447,-4.3691],[154.1514,-4.4381]]]]}}]}
