{"type":"FeatureCollection","features":[{"type":"Feature","id":"Alto Paraguay","properties":{"id":"Alto Paraguay","iso_code":"PY-16","name":"Alto Paraguay","name_full":"Alto Paraguay","name_ja":"アルト・パラグアイ県","center_lonlat":[-59.4001,-20.5967]},"geometry":{"type":"Polygon","coordinates":[[[-57.9731,-22.081],[-57.9812,-22.0903],[-57.9669,-22.1484],[-57.9773,-22.2106],[-57.9657,-22.2568],[-57.8874,-22.2898],[-57.8775,-22.3231],[-57.8267,-22.3886],[-57.8516,-22.4119],[-57.849,-22.423],[-58.1941,-22.2809],[-58.2164,-22.2621],[-58.2235,-22.2145],[-58.2632,-22.198],[-58.9984,-22.1568],[-59.1688,-22.161],[-59.3423,-22.083],[-59.4204,-22.0465],[-59.7816,-22.0335],[-59.9382,-22.0405],[-59.9582,-21.8981],[-59.8518,-21.4696],[-59.8115,-21.4246],[-59.7051,-21.3631],[-59.6955,-21.3349],[-59.7369,-21.0687],[-59.8263,-20.9339],[-59.8324,-20.851],[-59.8743,-20.7864],[-59.8555,-20.6982],[-59.951,-20.6516],[-61.8187,-20.1319],[-61.9247,-20.0651],[-61.7612,-19.6578],[-61.7372,-19.6396],[-61.5108,-19.6069],[-60.0064,-19.2981],[-59.0696,-19.2915],[-58.1644,-19.8329],[-58.1622,-19.9123],[-58.1418,-20.0009],[-58.1583,-20.1811],[-58.137,-20.1856],[-58.1185,-20.2144],[-58.1553,-20.2264],[-58.1627,-20.2432],[-58.137,-20.2744],[-58.1098,-20.2607],[-58.0951,-20.2722],[-58.0977,-20.3346],[-58.083,-20.3762],[-58.0456,-20.4093],[-57.9894,-20.4331],[-58.01,-20.5001],[-57.991,-20.6206],[-57.9731,-20.6512],[-57.9806,-20.6927],[-57.9564,-20.7099],[-57.9472,-20.6751],[-57.9181,-20.6698],[-57.8577,-20.7399],[-57.8988,-20.7566],[-57.9404,-20.7936],[-57.8877,-20.8059],[-57.8596,-20.8316],[-57.8571,-20.8497],[-57.9087,-20.8816],[-57.9148,-20.9056],[-57.847,-20.956],[-57.836,-20.9385],[-57.8176,-20.9536],[-57.8254,-20.9986],[-57.8525,-21.0378],[-57.8299,-21.127],[-57.834,-21.1738],[-57.8479,-21.2162],[-57.9043,-21.2749],[-57.8823,-21.3164],[-57.8556,-21.3307],[-57.9299,-21.4531],[-57.9491,-21.5083],[-57.9398,-21.5482],[-57.9121,-21.564],[-57.939,-21.6237],[-57.9348,-21.6407],[-57.8956,-21.6884],[-57.939,-21.7553],[-57.9357,-21.8121],[-57.9559,-21.8511],[-57.9254,-21.905],[-57.9868,-22.0353],[-57.9862,-22.0745],[-57.9731,-22.081]]]}},{"type":"Feature","id":"Alto Parana","properties":{"id":"Alto Parana","iso_code":"PY-10","name":"Alto Parana","name_full":"Alto Paraná","name_ja":"アルト・パラナ県","center_lonlat":[-54.9517,-25.3789]},"geometry":{"type":"Polygon","coordinates":[[[-54.665,-26.2389],[-54.7355,-26.2323],[-54.746,-26.1941],[-54.7888,-26.1735],[-54.8233,-26.1703],[-54.8799,-26.1904],[-54.8916,-26.1785],[-54.8916,-26.1435],[-54.9461,-26.2003],[-55.0057,-26.2122],[-55.0273,-26.237],[-55.1346,-26.1972],[-55.2368,-26.1982],[-55.2575,-26.1803],[-55.2915,-26.0833],[-55.2309,-26.0482],[-55.233,-26.0231],[-55.274,-26.0139],[-55.3053,-25.9907],[-55.4365,-26.0091],[-55.5096,-25.9736],[-55.5132,-25.8849],[-55.5262,-25.8503],[-55.4999,-25.7926],[-55.4654,-25.7563],[-55.4389,-25.6622],[-55.3982,-25.6163],[-55.4303,-25.5505],[-55.4892,-25.5556],[-55.2268,-25.2313],[-55.1243,-25.2828],[-55.1132,-25.2821],[-55.1201,-25.2421],[-55.0901,-25.2738],[-55.0511,-25.2847],[-55.0242,-25.3399],[-54.9494,-25.3377],[-54.9661,-25.2584],[-55.0145,-25.2283],[-55.0111,-25.1879],[-55.099,-25.1294],[-55.1887,-25.0485],[-55.2891,-25.0253],[-55.3297,-24.9597],[-55.3332,-24.8504],[-55.3147,-24.8201],[-55.3285,-24.7686],[-55.301,-24.7292],[-55.3002,-24.6762],[-55.2843,-24.6409],[-55.2916,-24.5837],[-55.2275,-24.5022],[-55.1168,-24.4675],[-55.0953,-24.4727],[-55.0984,-24.5207],[-55.079,-24.5458],[-55.0515,-24.5535],[-54.9923,-24.5396],[-54.9157,-24.562],[-54.8848,-24.5826],[-54.8788,-24.6264],[-54.8039,-24.6366],[-54.7906,-24.6687],[-54.746,-24.6349],[-54.6684,-24.6388],[-54.6265,-24.6892],[-54.4697,-24.7227],[-54.3584,-24.7314],[-54.4073,-24.8212],[-54.4623,-25.0372],[-54.4633,-25.0728],[-54.4266,-25.1495],[-54.4815,-25.2132],[-54.5036,-25.2787],[-54.5757,-25.3603],[-54.6098,-25.4328],[-54.6085,-25.4876],[-54.5915,-25.5247],[-54.6022,-25.5924],[-54.5834,-25.6448],[-54.6337,-25.6521],[-54.6431,-25.6879],[-54.6172,-25.7735],[-54.5879,-25.8108],[-54.6152,-25.8829],[-54.6064,-25.9466],[-54.6152,-25.9617],[-54.648,-25.9656],[-54.6623,-25.9799],[-54.6425,-26.0628],[-54.6638,-26.1492],[-54.6383,-26.197],[-54.665,-26.2389]]]}},{"type":"Feature","id":"Amambay","properties":{"id":"Amambay","iso_code":"PY-13","name":"Amambay","name_full":"Amambay","name_ja":"アマンバイ県","center_lonlat":[-56.059,-22.8735]},"geometry":{"type":"Polygon","coordinates":[[[-55.5338,-23.5304],[-55.5978,-23.6557],[-55.7206,-23.7011],[-55.8668,-23.7932],[-55.9066,-23.8374],[-56.0199,-23.8651],[-56.0591,-23.8485],[-56.0061,-23.8184],[-55.9772,-23.7583],[-55.9828,-23.6763],[-55.9351,-23.6113],[-55.9336,-23.5339],[-56.03,-23.5438],[-56.0419,-23.5866],[-56.0916,-23.614],[-56.132,-23.5653],[-56.1478,-23.5198],[-56.0441,-23.4286],[-56.0479,-23.407],[-56.0774,-23.3769],[-56.0764,-23.331],[-56.1784,-23.3074],[-56.2905,-23.3467],[-56.301,-23.3397],[-56.2791,-23.2785],[-56.244,-23.2424],[-56.1926,-23.2144],[-56.1942,-23.1715],[-56.1747,-23.1489],[-56.1746,-23.1221],[-56.1337,-23.1161],[-56.1274,-23.0587],[-56.2716,-22.7071],[-56.3112,-22.6901],[-56.3723,-22.7224],[-56.4056,-22.7638],[-56.4838,-22.7827],[-56.5408,-22.8764],[-56.5893,-22.8883],[-56.6298,-22.8643],[-56.6519,-22.8778],[-56.6938,-22.8786],[-56.6522,-22.8176],[-56.6742,-22.7394],[-56.7048,-22.7082],[-56.7035,-22.6791],[-56.7196,-22.6531],[-56.7222,-22.5331],[-56.7065,-22.5159],[-56.7024,-22.4682],[-56.582,-22.362],[-56.8429,-22.289],[-56.8119,-22.2496],[-56.7435,-22.2504],[-56.7154,-22.2154],[-56.6488,-22.2635],[-56.6547,-22.2373],[-56.585,-22.1905],[-56.5216,-22.0999],[-56.4218,-22.0745],[-56.3973,-22.0862],[-56.3473,-22.1804],[-56.2143,-22.2754],[-56.0247,-22.2874],[-55.9986,-22.2772],[-55.9553,-22.3013],[-55.8744,-22.3173],[-55.861,-22.2895],[-55.8108,-22.3531],[-55.7602,-22.392],[-55.7413,-22.5372],[-55.7239,-22.5696],[-55.6237,-22.6387],[-55.6183,-22.7257],[-55.659,-22.8183],[-55.6566,-22.8557],[-55.6343,-22.9328],[-55.6378,-23.0007],[-55.6007,-23.0445],[-55.5994,-23.1171],[-55.5609,-23.1459],[-55.5352,-23.2291],[-55.5622,-23.3079],[-55.5139,-23.3794],[-55.5155,-23.4102],[-55.5425,-23.4658],[-55.5338,-23.5304]]]}},{"type":"Feature","id":"Asuncion","properties":{"id":"Asuncion","iso_code":"PY-ASU","name":"Asuncion","name_full":"Asunción","name_ja":"アスンシオン","center_lonlat":[-57.6014,-25.3155]},"geometry":{"type":"Polygon","coordinates":[[[-57.5975,-25.4034],[-57.6408,-25.3726],[-57.672,-25.2898],[-57.6392,-25.2562],[-57.5835,-25.2344],[-57.5441,-25.2813],[-57.5392,-25.3186],[-57.5491,-25.3585],[-57.5975,-25.4034]]]}},{"type":"Feature","id":"Boqueron","properties":{"id":"Boqueron","iso_code":"PY-19","name":"Boqueron","name_full":"Boquerón","name_ja":"ボケローン県","center_lonlat":[-61.0715,-21.8965]},"geometry":{"type":"Polygon","coordinates":[[[-61.9247,-20.0651],[-61.8187,-20.1319],[-59.951,-20.6516],[-59.8555,-20.6982],[-59.8743,-20.7864],[-59.8324,-20.851],[-59.8263,-20.9339],[-59.7369,-21.0687],[-59.6955,-21.3349],[-59.7051,-21.3631],[-59.8115,-21.4246],[-59.8518,-21.4696],[-59.9582,-21.8981],[-59.9382,-22.0405],[-59.7816,-22.0335],[-59.4204,-22.0465],[-59.3423,-22.083],[-59.3076,-22.2014],[-59.4086,-22.2599],[-59.4641,-22.2302],[-59.4918,-22.2381],[-59.6079,-22.3075],[-59.6251,-22.3457],[-59.6081,-22.3913],[-59.6165,-22.412],[-59.7311,-22.4309],[-59.741,-22.529],[-59.9344,-22.7958],[-59.961,-22.9136],[-59.9544,-23.0738],[-59.987,-23.1626],[-59.9734,-23.2052],[-60.0451,-23.3717],[-60.0636,-23.4999],[-60.1952,-23.5631],[-60.554,-23.586],[-60.6482,-23.6236],[-60.7505,-23.6464],[-60.7919,-23.7383],[-60.7878,-23.8734],[-60.8376,-23.8718],[-60.9367,-23.8138],[-60.9748,-23.8241],[-61.0063,-23.8055],[-61.05,-23.7347],[-61.1188,-23.6664],[-61.1099,-23.607],[-61.1802,-23.5572],[-61.2144,-23.5572],[-61.2726,-23.5236],[-61.297,-23.4814],[-61.5011,-23.4078],[-61.5263,-23.3747],[-61.5161,-23.345],[-61.5546,-23.3384],[-61.6196,-23.2829],[-61.6803,-23.2793],[-61.7443,-23.2348],[-61.7523,-23.1871],[-61.7693,-23.1656],[-61.845,-23.0972],[-61.9564,-23.0344],[-61.9921,-22.9981],[-62.0089,-22.9697],[-62.0061,-22.9368],[-62.0358,-22.8849],[-62.1883,-22.7083],[-62.1759,-22.6849],[-62.195,-22.6736],[-62.193,-22.6282],[-62.2528,-22.6036],[-62.2332,-22.5563],[-62.2634,-22.5144],[-62.2814,-22.5121],[-62.2872,-22.4839],[-62.3683,-22.4644],[-62.4381,-22.4197],[-62.4706,-22.3818],[-62.5234,-22.3649],[-62.5647,-22.322],[-62.6327,-22.296],[-62.6196,-22.255],[-62.6504,-22.2345],[-62.2757,-21.0666],[-62.2773,-20.5798],[-62.2688,-20.5531],[-61.9247,-20.0651]]]}},{"type":"Feature","id":"Caaguazu","properties":{"id":"Caaguazu","iso_code":"PY-5","name":"Caaguazu","name_full":"Caaguazú","name_ja":"カアグアスー県","center_lonlat":[-55.8762,-25.1965]},"geometry":{"type":"Polygon","coordinates":[[[-55.7508,-24.7827],[-55.6822,-24.6985],[-55.5228,-24.5557],[-55.2275,-24.5022],[-55.2916,-24.5837],[-55.2843,-24.6409],[-55.3002,-24.6762],[-55.301,-24.7292],[-55.3285,-24.7686],[-55.3147,-24.8201],[-55.3332,-24.8504],[-55.3297,-24.9597],[-55.2891,-25.0253],[-55.1887,-25.0485],[-55.099,-25.1294],[-55.0111,-25.1879],[-55.0145,-25.2283],[-54.9661,-25.2584],[-54.9494,-25.3377],[-55.0242,-25.3399],[-55.0511,-25.2847],[-55.0901,-25.2738],[-55.1201,-25.2421],[-55.1132,-25.2821],[-55.1243,-25.2828],[-55.2268,-25.2313],[-55.4892,-25.5556],[-55.5096,-25.6033],[-55.5388,-25.6344],[-55.5992,-25.6576],[-55.6246,-25.6503],[-55.6504,-25.635],[-55.7712,-25.6747],[-55.8282,-25.6768],[-55.9204,-25.61],[-56.0461,-25.6098],[-56.0932,-25.5885],[-56.3591,-25.5778],[-56.4991,-25.6203],[-56.56,-25.6688],[-56.6468,-25.7104],[-56.6933,-25.6993],[-56.7463,-25.6535],[-56.8147,-25.513],[-56.5638,-25.3493],[-56.4945,-25.0217],[-56.4217,-24.9534],[-56.3807,-24.9315],[-56.3527,-24.8903],[-56.2988,-24.8585],[-56.2363,-24.7833],[-56.2102,-24.8069],[-56.2108,-24.8557],[-56.1416,-24.8881],[-56.0457,-24.9715],[-55.9846,-24.8735],[-55.9494,-24.8419],[-55.7508,-24.7827]]]}},{"type":"Feature","id":"Caazapa","properties":{"id":"Caazapa","iso_code":"PY-6","name":"Caazapa","name_full":"Caazapá","name_ja":"カアサパー県","center_lonlat":[-56.0323,-26.2327]},"geometry":{"type":"Polygon","coordinates":[[[-55.4892,-25.5556],[-55.4303,-25.5505],[-55.3982,-25.6163],[-55.4389,-25.6622],[-55.4654,-25.7563],[-55.4999,-25.7926],[-55.5262,-25.8503],[-55.5132,-25.8849],[-55.5096,-25.9736],[-55.4365,-26.0091],[-55.3053,-25.9907],[-55.274,-26.0139],[-55.233,-26.0231],[-55.2309,-26.0482],[-55.2915,-26.0833],[-55.3178,-26.0818],[-55.332,-26.1826],[-55.4657,-26.2874],[-55.5517,-26.3197],[-55.6388,-26.323],[-55.7399,-26.3569],[-55.7657,-26.3962],[-55.8471,-26.4646],[-55.999,-26.5082],[-56.1024,-26.6651],[-56.2099,-26.6934],[-56.4117,-26.7756],[-56.4444,-26.7726],[-56.4969,-26.7373],[-56.5723,-26.7224],[-56.566,-26.6873],[-56.5766,-26.6704],[-56.6397,-26.6626],[-56.6969,-26.6308],[-56.7545,-26.5571],[-56.7834,-26.5408],[-56.7734,-26.5183],[-56.7196,-26.4737],[-56.6862,-26.4074],[-56.6863,-26.373],[-56.6571,-26.3468],[-56.6408,-26.2643],[-56.5989,-26.2168],[-56.5865,-26.1759],[-56.5149,-26.1738],[-56.4826,-26.0878],[-56.3925,-26.0687],[-56.3589,-26.0102],[-56.3295,-26.0152],[-56.2538,-25.9919],[-56.1552,-26.044],[-56.0989,-26.0185],[-56.0714,-25.9994],[-56.0335,-25.894],[-55.757,-25.7774],[-55.7193,-25.7316],[-55.6694,-25.7301],[-55.6246,-25.6503],[-55.5992,-25.6576],[-55.5388,-25.6344],[-55.5096,-25.6033],[-55.4892,-25.5556]]]}},{"type":"Feature","id":"Canindeyu","properties":{"id":"Canindeyu","iso_code":"PY-14","name":"Canindeyu","name_full":"Canindeyú","name_ja":"カニンデジュ県","center_lonlat":[-55.2091,-24.2327]},"geometry":{"type":"Polygon","coordinates":[[[-55.5338,-23.5304],[-55.5305,-23.6035],[-55.467,-23.6732],[-55.4453,-23.7354],[-55.4302,-23.9286],[-55.398,-23.9768],[-55.3672,-23.9896],[-55.2009,-24.0195],[-55.1654,-24.0168],[-55.1056,-23.9885],[-54.9436,-23.9692],[-54.8919,-23.9206],[-54.8274,-23.887],[-54.6968,-23.8452],[-54.6392,-23.8044],[-54.4432,-23.8999],[-54.3676,-23.9847],[-54.2453,-24.0506],[-54.301,-24.0899],[-54.3346,-24.1489],[-54.3141,-24.2342],[-54.261,-24.3295],[-54.2717,-24.3894],[-54.3345,-24.4967],[-54.3213,-24.6284],[-54.3584,-24.7314],[-54.4697,-24.7227],[-54.6265,-24.6892],[-54.6684,-24.6388],[-54.746,-24.6349],[-54.7906,-24.6687],[-54.8039,-24.6366],[-54.8788,-24.6264],[-54.8848,-24.5826],[-54.9157,-24.562],[-54.9923,-24.5396],[-55.0515,-24.5535],[-55.079,-24.5458],[-55.0984,-24.5207],[-55.0953,-24.4727],[-55.1168,-24.4675],[-55.2275,-24.5022],[-55.5228,-24.5557],[-55.6822,-24.6985],[-55.7508,-24.7827],[-55.8142,-24.7457],[-55.8368,-24.6977],[-55.9136,-24.635],[-55.9601,-24.5315],[-56.0385,-24.4137],[-56.1034,-24.3745],[-56.1296,-24.2843],[-56.1566,-24.2616],[-56.1458,-24.1404],[-55.9924,-24.0227],[-56.0591,-23.8485],[-56.0199,-23.8651],[-55.9066,-23.8374],[-55.8668,-23.7932],[-55.7206,-23.7011],[-55.5978,-23.6557],[-55.5338,-23.5304]]]}},{"type":"Feature","id":"Central","properties":{"id":"Central","iso_code":"PY-11","name":"Central","name_full":"Central","name_ja":"セントラル県","center_lonlat":[-57.4824,-25.5554]},"geometry":{"type":"Polygon","coordinates":[[[-57.5975,-25.4034],[-57.5491,-25.3585],[-57.5392,-25.3186],[-57.5441,-25.2813],[-57.5835,-25.2344],[-57.5415,-25.1756],[-57.5238,-25.1092],[-57.455,-25.1125],[-57.4323,-25.1431],[-57.3792,-25.1781],[-57.3182,-25.2559],[-57.2466,-25.3902],[-57.2262,-25.3973],[-57.1934,-25.3837],[-57.1618,-25.4253],[-57.2316,-25.4721],[-57.3226,-25.6026],[-57.4026,-25.6835],[-57.4298,-25.7676],[-57.405,-25.8584],[-57.407,-25.8978],[-57.4338,-25.944],[-57.5036,-26.0111],[-57.5596,-25.9131],[-57.6402,-25.8658],[-57.6972,-25.8126],[-57.7741,-25.8074],[-57.7816,-25.8512],[-57.8197,-25.8498],[-57.8019,-25.8314],[-57.8206,-25.7783],[-57.7404,-25.7221],[-57.7746,-25.7017],[-57.7537,-25.6727],[-57.679,-25.647],[-57.6681,-25.6123],[-57.6231,-25.6154],[-57.6116,-25.5859],[-57.5753,-25.5644],[-57.5581,-25.4435],[-57.5975,-25.4034]]]}},{"type":"Feature","id":"Concepcion","properties":{"id":"Concepcion","iso_code":"PY-1","name":"Concepcion","name_full":"Concepción","name_ja":"コンセプシオン県","center_lonlat":[-57.1045,-22.8368]},"geometry":{"type":"Polygon","coordinates":[[[-57.9731,-22.081],[-57.94,-22.1184],[-57.9063,-22.1289],[-57.8714,-22.1212],[-57.8439,-22.1437],[-57.7754,-22.124],[-57.7737,-22.1077],[-57.6637,-22.1006],[-57.6141,-22.177],[-57.5423,-22.1715],[-57.5112,-22.1888],[-57.464,-22.1804],[-57.385,-22.2133],[-57.3399,-22.217],[-57.3318,-22.2024],[-57.2717,-22.2138],[-57.2138,-22.1882],[-57.1995,-22.2129],[-57.1542,-22.208],[-57.0851,-22.2381],[-56.9646,-22.2349],[-56.9605,-22.2548],[-56.9148,-22.2629],[-56.9037,-22.2369],[-56.8795,-22.29],[-56.8429,-22.289],[-56.582,-22.362],[-56.7024,-22.4682],[-56.7065,-22.5159],[-56.7222,-22.5331],[-56.7196,-22.6531],[-56.7035,-22.6791],[-56.7048,-22.7082],[-56.6742,-22.7394],[-56.6522,-22.8176],[-56.6938,-22.8786],[-56.6519,-22.8778],[-56.6298,-22.8643],[-56.5893,-22.8883],[-56.5408,-22.8764],[-56.4838,-22.7827],[-56.4056,-22.7638],[-56.3723,-22.7224],[-56.3112,-22.6901],[-56.2716,-22.7071],[-56.1274,-23.0587],[-56.1337,-23.1161],[-56.1746,-23.1221],[-56.1747,-23.1489],[-56.1942,-23.1715],[-56.1926,-23.2144],[-56.244,-23.2424],[-56.2791,-23.2785],[-56.301,-23.3397],[-56.3336,-23.3521],[-56.4049,-23.4114],[-56.5812,-23.4517],[-56.8627,-23.419],[-56.8995,-23.4357],[-57.0241,-23.4442],[-57.09,-23.4691],[-57.2186,-23.4802],[-57.274,-23.5003],[-57.3571,-23.5041],[-57.4462,-23.4745],[-57.4536,-23.4093],[-57.5037,-23.3435],[-57.4802,-23.3005],[-57.484,-23.273],[-57.5444,-23.2132],[-57.6246,-23.1653],[-57.6399,-23.0988],[-57.7141,-23.0852],[-57.7299,-23.0548],[-57.7894,-23.0214],[-57.7677,-22.9816],[-57.7729,-22.9607],[-57.821,-22.9059],[-57.7894,-22.878],[-57.7924,-22.8568],[-57.8195,-22.8131],[-57.8608,-22.8063],[-57.8775,-22.7619],[-57.9185,-22.747],[-57.9402,-22.7163],[-57.9292,-22.6865],[-57.8958,-22.6649],[-57.7847,-22.6653],[-57.7751,-22.6555],[-57.8306,-22.5592],[-57.849,-22.423],[-57.8516,-22.4119],[-57.8267,-22.3886],[-57.8775,-22.3231],[-57.8874,-22.2898],[-57.9657,-22.2568],[-57.9773,-22.2106],[-57.9669,-22.1484],[-57.9812,-22.0903],[-57.9731,-22.081]]]}},{"type":"Feature","id":"Cordillera","properties":{"id":"Cordillera","iso_code":"PY-3","name":"Cordillera","name_full":"Cordillera","name_ja":"コルディリェラ県","center_lonlat":[-56.9228,-25.2261]},"geometry":{"type":"Polygon","coordinates":[[[-56.4945,-25.0217],[-56.5638,-25.3493],[-56.8147,-25.513],[-56.7463,-25.6535],[-56.806,-25.637],[-56.8545,-25.6621],[-56.9075,-25.6544],[-56.8773,-25.6081],[-56.9026,-25.5394],[-57.0002,-25.5405],[-57.0882,-25.5261],[-57.1126,-25.5085],[-57.1618,-25.4253],[-57.1934,-25.3837],[-57.2262,-25.3973],[-57.2466,-25.3902],[-57.3182,-25.2559],[-57.3792,-25.1781],[-57.4323,-25.1431],[-57.455,-25.1125],[-57.4223,-25.1125],[-57.3438,-25.0647],[-57.2854,-24.9825],[-57.2134,-24.989],[-57.1298,-25.0279],[-57.0587,-25.0376],[-57.0222,-25.0181],[-57.0204,-24.9837],[-56.9984,-24.9678],[-56.7047,-24.9153],[-56.5957,-24.9513],[-56.5416,-25.0],[-56.4945,-25.0217]]]}},{"type":"Feature","id":"Guaira","properties":{"id":"Guaira","iso_code":"PY-4","name":"Guaira","name_full":"Guairá","name_ja":"グアイラー県","center_lonlat":[-56.2627,-25.816]},"geometry":{"type":"Polygon","coordinates":[[[-55.6246,-25.6503],[-55.6694,-25.7301],[-55.7193,-25.7316],[-55.757,-25.7774],[-56.0335,-25.894],[-56.0714,-25.9994],[-56.0989,-26.0185],[-56.1552,-26.044],[-56.2538,-25.9919],[-56.3295,-26.0152],[-56.3589,-26.0102],[-56.3925,-26.0687],[-56.4826,-26.0878],[-56.5149,-26.1738],[-56.5865,-26.1759],[-56.6532,-26.0647],[-56.6695,-25.997],[-56.6631,-25.9785],[-56.599,-25.9505],[-56.6086,-25.9078],[-56.6654,-25.8071],[-56.6706,-25.7426],[-56.6468,-25.7104],[-56.56,-25.6688],[-56.4991,-25.6203],[-56.3591,-25.5778],[-56.0932,-25.5885],[-56.0461,-25.6098],[-55.9204,-25.61],[-55.8282,-25.6768],[-55.7712,-25.6747],[-55.6504,-25.635],[-55.6246,-25.6503]]]}},{"type":"Feature","id":"Itapua","properties":{"id":"Itapua","iso_code":"PY-7","name":"Itapua","name_full":"Itapúa","name_ja":"イタプア県","center_lonlat":[-55.7087,-26.8153]},"geometry":{"type":"Polygon","coordinates":[[[-54.665,-26.2389],[-54.6637,-26.3084],[-54.6977,-26.4282],[-54.7898,-26.5285],[-54.7813,-26.5982],[-54.807,-26.6612],[-54.8794,-26.6544],[-54.9199,-26.6741],[-54.9511,-26.7575],[-54.9753,-26.7878],[-55.0609,-26.8052],[-55.1258,-26.8636],[-55.1327,-26.8806],[-55.1189,-26.92],[-55.1384,-26.9537],[-55.2012,-26.9555],[-55.2806,-26.9343],[-55.414,-26.9799],[-55.4428,-27.0155],[-55.4619,-27.098],[-55.5338,-27.0994],[-55.5553,-27.1538],[-55.5983,-27.1675],[-55.5687,-27.246],[-55.5913,-27.3284],[-55.6817,-27.3794],[-55.7547,-27.4437],[-55.8542,-27.4012],[-55.8928,-27.3349],[-55.9848,-27.3323],[-56.1246,-27.2989],[-56.2054,-27.3622],[-56.2798,-27.3896],[-56.2853,-27.461],[-56.3675,-27.5806],[-56.3997,-27.5868],[-56.4314,-27.5754],[-56.5464,-27.4551],[-56.638,-27.4529],[-56.6432,-27.3826],[-56.6316,-27.3532],[-56.6885,-27.294],[-56.6873,-27.2561],[-56.655,-27.1892],[-56.6107,-27.1512],[-56.5433,-27.1378],[-56.5341,-27.121],[-56.5723,-26.7224],[-56.4969,-26.7373],[-56.4444,-26.7726],[-56.4117,-26.7756],[-56.2099,-26.6934],[-56.1024,-26.6651],[-55.999,-26.5082],[-55.8471,-26.4646],[-55.7657,-26.3962],[-55.7399,-26.3569],[-55.6388,-26.323],[-55.5517,-26.3197],[-55.4657,-26.2874],[-55.332,-26.1826],[-55.3178,-26.0818],[-55.2915,-26.0833],[-55.2575,-26.1803],[-55.2368,-26.1982],[-55.1346,-26.1972],[-55.0273,-26.237],[-55.0057,-26.2122],[-54.9461,-26.2003],[-54.8916,-26.1435],[-54.8916,-26.1785],[-54.8799,-26.1904],[-54.8233,-26.1703],[-54.7888,-26.1735],[-54.746,-26.1941],[-54.7355,-26.2323],[-54.665,-26.2389]]]}},{"type":"Feature","id":"Misiones","properties":{"id":"Misiones","iso_code":"PY-8","name":"Misiones","name_full":"Misiones","name_ja":"ミシオネス県","center_lonlat":[-57.0385,-26.9363]},"geometry":{"type":"Polygon","coordinates":[[[-57.3101,-27.4292],[-57.1959,-27.0957],[-57.2036,-27.08],[-57.2322,-27.0727],[-57.4217,-27.0443],[-57.6197,-26.818],[-57.7055,-26.4125],[-57.6365,-26.4594],[-57.6147,-26.5005],[-57.5622,-26.5442],[-57.4761,-26.565],[-57.3671,-26.621],[-57.2524,-26.6057],[-57.1878,-26.5816],[-57.1724,-26.5226],[-57.1173,-26.4815],[-57.0791,-26.4234],[-57.0393,-26.404],[-57.0036,-26.4069],[-56.8711,-26.4832],[-56.8193,-26.4898],[-56.7834,-26.5408],[-56.7545,-26.5571],[-56.6969,-26.6308],[-56.6397,-26.6626],[-56.5766,-26.6704],[-56.566,-26.6873],[-56.5723,-26.7224],[-56.5341,-27.121],[-56.5433,-27.1378],[-56.6107,-27.1512],[-56.655,-27.1892],[-56.6873,-27.2561],[-56.6885,-27.294],[-56.6316,-27.3532],[-56.6432,-27.3826],[-56.638,-27.4529],[-56.6831,-27.4647],[-56.7342,-27.5004],[-56.7712,-27.5067],[-56.8693,-27.4315],[-56.9044,-27.4187],[-56.941,-27.4221],[-57.109,-27.4906],[-57.1912,-27.4842],[-57.2271,-27.4587],[-57.3101,-27.4292]]]}},{"type":"Feature","id":"Neembucu","properties":{"id":"Neembucu","iso_code":"PY-12","name":"Neembucu","name_full":"Ñeembucú","name_ja":"ニェエンブクー県","center_lonlat":[-57.8846,-26.7623]},"geometry":{"type":"Polygon","coordinates":[[[-57.8197,-25.8498],[-57.7816,-25.8512],[-57.7741,-25.8074],[-57.6972,-25.8126],[-57.6402,-25.8658],[-57.5596,-25.9131],[-57.5036,-26.0111],[-57.477,-26.1672],[-57.6142,-26.2941],[-57.6645,-26.3773],[-57.7055,-26.4125],[-57.6197,-26.818],[-57.4217,-27.0443],[-57.2322,-27.0727],[-57.2036,-27.08],[-57.1959,-27.0957],[-57.3101,-27.4292],[-57.3604,-27.4034],[-57.5134,-27.4141],[-57.7094,-27.3298],[-58.022,-27.2598],[-58.1288,-27.2697],[-58.2382,-27.257],[-58.5108,-27.2784],[-58.6042,-27.3163],[-58.6016,-27.2457],[-58.6584,-27.1851],[-58.6388,-27.1359],[-58.5655,-27.116],[-58.5622,-27.0721],[-58.5454,-27.041],[-58.5076,-27.0551],[-58.5014,-27.0237],[-58.4666,-26.9759],[-58.4816,-26.9638],[-58.4755,-26.938],[-58.3939,-26.9097],[-58.3747,-26.8876],[-58.3158,-26.8741],[-58.3524,-26.8305],[-58.34,-26.8086],[-58.2886,-26.8115],[-58.2748,-26.7984],[-58.2879,-26.7686],[-58.2479,-26.7582],[-58.2355,-26.6498],[-58.1786,-26.6507],[-58.1923,-26.6128],[-58.1649,-26.5923],[-58.2173,-26.5276],[-58.2027,-26.4716],[-58.1854,-26.4517],[-58.2131,-26.4186],[-58.1676,-26.335],[-58.17,-26.2703],[-58.106,-26.2395],[-58.1066,-26.2261],[-58.1489,-26.1993],[-58.1513,-26.1815],[-58.124,-26.2019],[-58.0865,-26.1272],[-57.9882,-26.0885],[-57.8727,-26.0103],[-57.8596,-25.9809],[-57.9058,-25.9686],[-57.8514,-25.9084],[-57.8782,-25.8832],[-57.8197,-25.8498]]]}},{"type":"Feature","id":"Paraguari","properties":{"id":"Paraguari","iso_code":"PY-9","name":"Paraguari","name_full":"Paraguarí","name_ja":"パラグアリー県","center_lonlat":[-57.1017,-26.0739]},"geometry":{"type":"Polygon","coordinates":[[[-56.7463,-25.6535],[-56.6933,-25.6993],[-56.6468,-25.7104],[-56.6706,-25.7426],[-56.6654,-25.8071],[-56.6086,-25.9078],[-56.599,-25.9505],[-56.6631,-25.9785],[-56.6695,-25.997],[-56.6532,-26.0647],[-56.5865,-26.1759],[-56.5989,-26.2168],[-56.6408,-26.2643],[-56.6571,-26.3468],[-56.6863,-26.373],[-56.6862,-26.4074],[-56.7196,-26.4737],[-56.7734,-26.5183],[-56.7834,-26.5408],[-56.8193,-26.4898],[-56.8711,-26.4832],[-57.0036,-26.4069],[-57.0393,-26.404],[-57.0791,-26.4234],[-57.1173,-26.4815],[-57.1724,-26.5226],[-57.1878,-26.5816],[-57.2524,-26.6057],[-57.3671,-26.621],[-57.4761,-26.565],[-57.5622,-26.5442],[-57.6147,-26.5005],[-57.6365,-26.4594],[-57.7055,-26.4125],[-57.6645,-26.3773],[-57.6142,-26.2941],[-57.477,-26.1672],[-57.5036,-26.0111],[-57.4338,-25.944],[-57.407,-25.8978],[-57.405,-25.8584],[-57.4298,-25.7676],[-57.4026,-25.6835],[-57.3226,-25.6026],[-57.2316,-25.4721],[-57.1618,-25.4253],[-57.1126,-25.5085],[-57.0882,-25.5261],[-57.0002,-25.5405],[-56.9026,-25.5394],[-56.8773,-25.6081],[-56.9075,-25.6544],[-56.8545,-25.6621],[-56.806,-25.637],[-56.7463,-25.6535]]]}},{"type":"Feature","id":"Presidente Hayes","properties":{"id":"Presidente Hayes","iso_code":"PY-15","name":"Presidente Hayes","name_full":"Presidente Hayes","name_ja":"プレシデンテ・アジェス県","center_lonlat":[-58.6672,-23.6292]},"geometry":{"type":"Polygon","coordinates":[[[-60.7878,-23.8734],[-60.7919,-23.7383],[-60.7505,-23.6464],[-60.6482,-23.6236],[-60.554,-23.586],[-60.1952,-23.5631],[-60.0636,-23.4999],[-60.0451,-23.3717],[-59.9734,-23.2052],[-59.987,-23.1626],[-59.9544,-23.0738],[-59.961,-22.9136],[-59.9344,-22.7958],[-59.741,-22.529],[-59.7311,-22.4309],[-59.6165,-22.412],[-59.6081,-22.3913],[-59.6251,-22.3457],[-59.6079,-22.3075],[-59.4918,-22.2381],[-59.4641,-22.2302],[-59.4086,-22.2599],[-59.3076,-22.2014],[-59.3423,-22.083],[-59.1688,-22.161],[-58.9984,-22.1568],[-58.2632,-22.198],[-58.2235,-22.2145],[-58.2164,-22.2621],[-58.1941,-22.2809],[-57.849,-22.423],[-57.8306,-22.5592],[-57.7751,-22.6555],[-57.7847,-22.6653],[-57.8958,-22.6649],[-57.9292,-22.6865],[-57.9402,-22.7163],[-57.9185,-22.747],[-57.8775,-22.7619],[-57.8608,-22.8063],[-57.8195,-22.8131],[-57.7924,-22.8568],[-57.7894,-22.878],[-57.821,-22.9059],[-57.7729,-22.9607],[-57.7677,-22.9816],[-57.7894,-23.0214],[-57.7299,-23.0548],[-57.7141,-23.0852],[-57.6399,-23.0988],[-57.6246,-23.1653],[-57.5444,-23.2132],[-57.484,-23.273],[-57.4802,-23.3005],[-57.5037,-23.3435],[-57.4536,-23.4093],[-57.4462,-23.4745],[-57.4596,-23.5277],[-57.4257,-23.6179],[-57.398,-23.6456],[-57.3259,-23.6828],[-57.2758,-23.7315],[-57.2812,-23.7513],[-57.3028,-23.7653],[-57.2811,-23.7932],[-57.2913,-23.8619],[-57.3438,-23.9232],[-57.3028,-23.9338],[-57.2845,-23.954],[-57.268,-24.03],[-57.2484,-24.0236],[-57.2318,-24.0334],[-57.2239,-24.0507],[-57.2336,-24.0947],[-57.1786,-24.0983],[-57.163,-24.1174],[-57.2197,-24.1979],[-57.2198,-24.2208],[-57.1749,-24.285],[-57.1305,-24.5001],[-57.1449,-24.603],[-57.0907,-24.6775],[-57.1223,-24.752],[-57.1786,-24.7624],[-57.1971,-24.8268],[-57.2487,-24.8915],[-57.2401,-24.9064],[-57.216,-24.9014],[-57.2187,-24.9466],[-57.1948,-24.9781],[-57.2134,-24.989],[-57.2854,-24.9825],[-57.3438,-25.0647],[-57.4223,-25.1125],[-57.455,-25.1125],[-57.5238,-25.1092],[-57.5415,-25.1756],[-57.5835,-25.2344],[-57.6392,-25.2562],[-57.672,-25.2898],[-57.7218,-25.2461],[-57.766,-25.1679],[-57.8124,-25.1437],[-57.8707,-25.0853],[-57.9838,-25.0742],[-58.0005,-25.0444],[-58.0421,-25.0444],[-58.124,-25.0129],[-58.2241,-24.9412],[-58.2425,-24.9417],[-58.312,-24.9936],[-58.336,-24.9919],[-58.4508,-24.8617],[-58.6942,-24.812],[-58.7375,-24.7828],[-58.8092,-24.7768],[-59.0009,-24.6442],[-59.2951,-24.5129],[-59.341,-24.4876],[-59.3778,-24.4335],[-59.4503,-24.3824],[-59.4659,-24.3536],[-59.54,-24.3088],[-59.6105,-24.2896],[-59.6736,-24.2254],[-60.0337,-24.007],[-60.0724,-24.0048],[-60.1432,-24.0252],[-60.3374,-24.0164],[-60.3784,-23.9885],[-60.4849,-23.9773],[-60.536,-23.9476],[-60.5775,-23.9442],[-60.5946,-23.9065],[-60.6322,-23.8923],[-60.6897,-23.8936],[-60.7293,-23.8721],[-60.7878,-23.8734]]]}},{"type":"Feature","id":"San Pedro","properties":{"id":"San Pedro","iso_code":"PY-2","name":"San Pedro","name_full":"San Pedro","name_ja":"サン・ペドロ県","center_lonlat":[-56.6199,-24.1676]},"geometry":{"type":"Polygon","coordinates":[[[-55.7508,-24.7827],[-55.9494,-24.8419],[-55.9846,-24.8735],[-56.0457,-24.9715],[-56.1416,-24.8881],[-56.2108,-24.8557],[-56.2102,-24.8069],[-56.2363,-24.7833],[-56.2988,-24.8585],[-56.3527,-24.8903],[-56.3807,-24.9315],[-56.4217,-24.9534],[-56.4945,-25.0217],[-56.5416,-25.0],[-56.5957,-24.9513],[-56.7047,-24.9153],[-56.9984,-24.9678],[-57.0204,-24.9837],[-57.0222,-25.0181],[-57.0587,-25.0376],[-57.1298,-25.0279],[-57.2134,-24.989],[-57.1948,-24.9781],[-57.2187,-24.9466],[-57.216,-24.9014],[-57.2401,-24.9064],[-57.2487,-24.8915],[-57.1971,-24.8268],[-57.1786,-24.7624],[-57.1223,-24.752],[-57.0907,-24.6775],[-57.1449,-24.603],[-57.1305,-24.5001],[-57.1749,-24.285],[-57.2198,-24.2208],[-57.2197,-24.1979],[-57.163,-24.1174],[-57.1786,-24.0983],[-57.2336,-24.0947],[-57.2239,-24.0507],[-57.2318,-24.0334],[-57.2484,-24.0236],[-57.268,-24.03],[-57.2845,-23.954],[-57.3028,-23.9338],[-57.3438,-23.9232],[-57.2913,-23.8619],[-57.2811,-23.7932],[-57.3028,-23.7653],[-57.2812,-23.7513],[-57.2758,-23.7315],[-57.3259,-23.6828],[-57.398,-23.6456],[-57.4257,-23.6179],[-57.4596,-23.5277],[-57.4462,-23.4745],[-57.3571,-23.5041],[-57.274,-23.5003],[-57.2186,-23.4802],[-57.09,-23.4691],[-57.0241,-23.4442],[-56.8995,-23.4357],[-56.8627,-23.419],[-56.5812,-23.4517],[-56.4049,-23.4114],[-56.3336,-23.3521],[-56.301,-23.3397],[-56.2905,-23.3467],[-56.1784,-23.3074],[-56.0764,-23.331],[-56.0774,-23.3769],[-56.0479,-23.407],[-56.0441,-23.4286],[-56.1478,-23.5198],[-56.132,-23.5653],[-56.0916,-23.614],[-56.0419,-23.5866],[-56.03,-23.5438],[-55.9336,-23.5339],[-55.9351,-23.6113],[-55.9828,-23.6763],[-55.9772,-23.7583],[-56.0061,-23.8184],[-56.0591,-23.8485],[-55.9924,-24.0227],[-56.1458,-24.1404],[-56.1566,-24.2616],[-56.1296,-24.2843],[-56.1034,-24.3745],[-56.0385,-24.4137],[-55.9601,-24.5315],[-55.9136,-24.635],[-55.8368,-24.6977],[-55.8142,-24.7457],[-55.7508,-24.7827]]]}}]}
