{"type":"FeatureCollection","features":[{"type":"Feature","id":"Amazonas","properties":{"id":"Amazonas","iso_code":"PE-AMA","name":"Amazonas","name_full":"Amazonas","name_ja":"アマソナス県","center_lonlat":[-78.0552,-5.0626]},"geometry":{"type":"Polygon","coordinates":[[[-77.8104,-2.9671],[-77.7683,-3.1732],[-77.7587,-3.2868],[-77.709,-3.3734],[-77.6696,-3.4801],[-77.6354,-3.646],[-77.6341,-3.7639],[-77.5643,-3.8858],[-77.534,-4.0211],[-77.5584,-4.1003],[-77.5785,-4.4387],[-77.6649,-4.6114],[-77.7409,-4.7031],[-77.7646,-4.7631],[-77.7768,-4.8498],[-77.7107,-5.2281],[-77.64,-5.3846],[-77.678,-5.4164],[-77.716,-5.4879],[-77.6992,-5.6157],[-77.7247,-5.6804],[-77.715,-5.7234],[-77.594,-5.9608],[-77.5537,-6.009],[-77.3577,-6.0697],[-77.2547,-6.1211],[-77.1963,-6.2114],[-77.1637,-6.3398],[-77.2965,-6.4678],[-77.3436,-6.5742],[-77.3795,-6.5995],[-77.4472,-6.6172],[-77.566,-6.6183],[-77.6712,-6.5746],[-77.6902,-6.5715],[-77.7166,-6.5875],[-77.732,-6.6144],[-77.7496,-6.8027],[-77.7814,-6.9212],[-77.7753,-6.9592],[-77.7424,-6.994],[-77.7988,-7.0013],[-77.8911,-6.9868],[-77.9916,-7.0132],[-78.0213,-6.938],[-78.0108,-6.8766],[-78.0313,-6.8493],[-78.0108,-6.8257],[-78.016,-6.7604],[-78.0794,-6.6495],[-78.1313,-6.5244],[-78.1586,-6.4998],[-78.1753,-6.4589],[-78.2374,-6.4315],[-78.3492,-6.3505],[-78.4497,-6.1504],[-78.5432,-6.0825],[-78.6194,-6.0595],[-78.6369,-6.0198],[-78.7116,-5.9407],[-78.7731,-5.8328],[-78.768,-5.7703],[-78.7266,-5.7263],[-78.7468,-5.6886],[-78.722,-5.672],[-78.6073,-5.5021],[-78.6067,-5.3706],[-78.6249,-5.2344],[-78.65,-5.1473],[-78.6185,-5.0292],[-78.587,-4.9983],[-78.5771,-4.965],[-78.5886,-4.8819],[-78.6258,-4.823],[-78.6567,-4.6925],[-78.7089,-4.5851],[-78.6727,-4.551],[-78.6698,-4.4934],[-78.6399,-4.4513],[-78.6372,-4.4351],[-78.6732,-4.4015],[-78.6824,-4.3269],[-78.6557,-4.2906],[-78.5766,-4.1001],[-78.5621,-3.9798],[-78.4976,-3.9496],[-78.4807,-3.8495],[-78.4136,-3.7718],[-78.4259,-3.6894],[-78.4007,-3.6798],[-78.4024,-3.5944],[-78.3629,-3.4887],[-78.3617,-3.4085],[-78.334,-3.3845],[-78.2697,-3.3995],[-78.2497,-3.4245],[-78.2263,-3.507],[-78.1637,-3.4773],[-78.1566,-3.4293],[-78.1965,-3.3856],[-78.1964,-3.3637],[-78.1482,-3.3224],[-78.1049,-3.2454],[-78.0425,-3.1899],[-77.9415,-3.0545],[-77.8678,-2.9903],[-77.8104,-2.9671]]]}},{"type":"Feature","id":"Ancash","properties":{"id":"Ancash","iso_code":"PE-ANC","name":"Ancash","name_full":"Áncash","name_ja":"アンカシュ県","center_lonlat":[-77.6867,-9.3853]},"geometry":{"type":"Polygon","coordinates":[[[-77.8906,-10.6025],[-77.9226,-10.5308],[-77.9685,-10.4939],[-77.9772,-10.456],[-78.011,-10.4128],[-78.0064,-10.3825],[-78.0558,-10.3475],[-78.0582,-10.3019],[-78.0855,-10.2774],[-78.1049,-10.2011],[-78.1823,-10.1108],[-78.168,-10.0934],[-78.1779,-10.0425],[-78.2151,-9.9629],[-78.2363,-9.9469],[-78.2299,-9.9007],[-78.2433,-9.8589],[-78.2294,-9.7938],[-78.3011,-9.7219],[-78.3699,-9.6154],[-78.3681,-9.5569],[-78.387,-9.5467],[-78.4059,-9.4777],[-78.3851,-9.4514],[-78.4271,-9.4197],[-78.4287,-9.3758],[-78.4148,-9.3621],[-78.4486,-9.3282],[-78.484,-9.3303],[-78.5267,-9.2696],[-78.4973,-9.2533],[-78.4897,-9.2335],[-78.4974,-9.1895],[-78.5357,-9.1726],[-78.5586,-9.1837],[-78.5531,-9.2442],[-78.6112,-9.1765],[-78.6096,-9.1559],[-78.5706,-9.1683],[-78.5595,-9.1282],[-78.592,-9.0774],[-78.6237,-9.0792],[-78.6417,-9.0564],[-78.6285,-9.0133],[-78.6614,-8.9958],[-78.649,-8.9637],[-78.6173,-8.9439],[-78.5966,-8.8251],[-78.5746,-8.7835],[-78.5372,-8.7553],[-78.3951,-8.7076],[-78.3415,-8.6704],[-78.2544,-8.6584],[-78.223,-8.5977],[-78.2361,-8.5418],[-78.1615,-8.4288],[-78.1198,-8.3125],[-77.9571,-8.1712],[-77.8977,-8.0642],[-77.7933,-8.0736],[-77.647,-8.0107],[-77.648,-8.0481],[-77.6204,-8.0832],[-77.6203,-8.1296],[-77.5337,-8.2179],[-77.4837,-8.2493],[-77.3495,-8.4353],[-77.322,-8.4974],[-77.3225,-8.5341],[-77.297,-8.623],[-77.296,-8.672],[-77.2137,-8.7575],[-77.2144,-8.809],[-77.1915,-8.8466],[-77.1361,-8.8989],[-77.074,-8.9209],[-76.9861,-9.0223],[-76.9137,-9.0473],[-76.883,-9.091],[-76.7805,-9.1357],[-76.7382,-9.1721],[-76.7475,-9.2152],[-76.8589,-9.3263],[-76.9601,-9.5574],[-76.9607,-9.609],[-76.9744,-9.6418],[-77.0729,-9.7698],[-77.0002,-9.9475],[-76.9883,-10.0592],[-76.9056,-10.1166],[-76.9288,-10.1838],[-76.9316,-10.2868],[-77.1501,-10.3848],[-77.1655,-10.4657],[-77.1974,-10.5182],[-77.2726,-10.5844],[-77.3745,-10.6417],[-77.4097,-10.705],[-77.4936,-10.7454],[-77.5878,-10.7443],[-77.6063,-10.6543],[-77.5948,-10.6033],[-77.602,-10.5814],[-77.6683,-10.5365],[-77.7286,-10.5341],[-77.754,-10.5206],[-77.7512,-10.5013],[-77.6969,-10.4598],[-77.6772,-10.4248],[-77.6722,-10.4069],[-77.7005,-10.3657],[-77.781,-10.3671],[-77.8144,-10.5493],[-77.8906,-10.6025]]]}},{"type":"Feature","id":"Apurimac","properties":{"id":"Apurimac","iso_code":"PE-APU","name":"Apurimac","name_full":"Apurímac","name_ja":"アプリマク県","center_lonlat":[-72.9814,-14.0311]},"geometry":{"type":"Polygon","coordinates":[[[-72.4861,-14.674],[-72.5893,-14.6987],[-72.7779,-14.6615],[-72.823,-14.695],[-72.848,-14.7316],[-73.0313,-14.6274],[-73.0545,-14.6607],[-73.1057,-14.6654],[-73.1471,-14.6911],[-73.2277,-14.7109],[-73.2855,-14.7174],[-73.3571,-14.6997],[-73.4247,-14.7985],[-73.5194,-14.8203],[-73.5728,-14.7001],[-73.5297,-14.6897],[-73.4986,-14.5956],[-73.5,-14.5725],[-73.5402,-14.5014],[-73.5273,-14.3535],[-73.5349,-14.2433],[-73.6031,-14.1301],[-73.632,-14.0013],[-73.7448,-13.7918],[-73.7497,-13.7687],[-73.6958,-13.7524],[-73.6905,-13.7333],[-73.7394,-13.6635],[-73.791,-13.641],[-73.8133,-13.5998],[-73.8501,-13.3779],[-73.8147,-13.3034],[-73.8289,-13.2646],[-73.8077,-13.2166],[-73.78,-13.2075],[-73.7227,-13.2667],[-73.464,-13.4407],[-73.2509,-13.477],[-73.221,-13.4218],[-73.1697,-13.441],[-73.149,-13.4286],[-73.0966,-13.4581],[-73.0493,-13.4249],[-73.0155,-13.4286],[-72.964,-13.3976],[-72.9043,-13.3947],[-72.8821,-13.4286],[-72.8033,-13.4348],[-72.605,-13.5619],[-72.4302,-13.5977],[-72.3939,-13.661],[-72.3371,-13.6955],[-72.2719,-13.6955],[-72.1508,-13.806],[-72.0826,-13.9372],[-72.0824,-14.111],[-72.112,-14.2171],[-72.2322,-14.342],[-72.2786,-14.4169],[-72.3654,-14.4402],[-72.4141,-14.4895],[-72.488,-14.5277],[-72.5033,-14.5675],[-72.482,-14.6139],[-72.4861,-14.674]]]}},{"type":"Feature","id":"Arequipa","properties":{"id":"Arequipa","iso_code":"PE-ARE","name":"Arequipa","name_full":"Arequipa","name_ja":"アレキパ県","center_lonlat":[-72.4587,-15.8531]},"geometry":{"type":"Polygon","coordinates":[[[-71.4885,-17.318],[-71.5145,-17.2846],[-71.5931,-17.2656],[-71.6415,-17.2316],[-71.8457,-17.1746],[-71.9486,-17.0735],[-72.0031,-17.0426],[-72.1182,-17.0193],[-72.1244,-16.9777],[-72.1973,-16.9164],[-72.2934,-16.8806],[-72.3065,-16.8242],[-72.3622,-16.7613],[-72.414,-16.7413],[-72.4401,-16.7145],[-72.5878,-16.6594],[-72.6924,-16.6607],[-72.7813,-16.6293],[-72.8883,-16.5546],[-73.0602,-16.4949],[-73.0938,-16.4601],[-73.1752,-16.4133],[-73.2801,-16.3884],[-73.2962,-16.3956],[-73.326,-16.3307],[-73.4203,-16.2931],[-73.5989,-16.2398],[-73.6762,-16.2279],[-73.7007,-16.2446],[-73.7003,-16.2207],[-73.735,-16.1901],[-73.8426,-16.1467],[-74.0041,-16.0371],[-74.0328,-16.0123],[-74.0279,-15.9888],[-74.0466,-15.9601],[-74.1617,-15.9011],[-74.2206,-15.8913],[-74.2657,-15.8477],[-74.29,-15.8396],[-74.3279,-15.8481],[-74.398,-15.8269],[-74.4464,-15.7922],[-74.4631,-15.7267],[-74.8476,-15.5663],[-74.8686,-15.5381],[-75.0064,-15.4612],[-75.0487,-15.4607],[-75.0757,-15.4377],[-74.9621,-15.2381],[-74.7266,-15.0879],[-74.702,-15.1337],[-74.4685,-15.1955],[-74.4699,-15.2388],[-74.4132,-15.352],[-74.3439,-15.3862],[-74.3367,-15.426],[-74.289,-15.4762],[-74.2179,-15.4933],[-74.1138,-15.4483],[-74.082,-15.522],[-74.087,-15.5959],[-74.0566,-15.6066],[-73.9698,-15.5593],[-73.9109,-15.4601],[-73.8905,-15.4469],[-73.6179,-15.4269],[-73.4572,-15.3649],[-73.3987,-15.3872],[-73.2828,-15.3949],[-73.2922,-15.3242],[-73.2811,-15.2863],[-73.1631,-15.2937],[-73.1046,-15.1988],[-73.0337,-15.1295],[-73.0056,-14.9742],[-73.0351,-14.9095],[-73.0209,-14.8525],[-72.9698,-14.8123],[-72.8877,-14.8144],[-72.8438,-14.8025],[-72.8357,-14.7871],[-72.848,-14.7316],[-72.823,-14.695],[-72.7779,-14.6615],[-72.5893,-14.6987],[-72.4861,-14.674],[-72.4902,-14.7282],[-72.4223,-14.8146],[-72.3982,-14.8282],[-72.335,-14.8434],[-72.1599,-14.7974],[-72.13,-14.8123],[-72.1031,-14.8689],[-72.0792,-14.8832],[-72.0427,-14.8425],[-72.0237,-14.7826],[-72.0423,-14.6871],[-72.0305,-14.6713],[-72.0031,-14.6718],[-71.9691,-14.7003],[-71.8778,-14.8423],[-71.8059,-14.8734],[-71.8173,-14.8992],[-71.857,-14.9285],[-71.8472,-15.0006],[-71.8627,-15.0432],[-71.85,-15.0553],[-71.667,-15.1136],[-71.6051,-15.0807],[-71.5134,-15.0726],[-71.5044,-15.0173],[-71.4605,-15.0429],[-71.409,-15.0475],[-71.3114,-15.1175],[-71.2453,-15.0738],[-71.2157,-15.0737],[-71.1743,-15.1197],[-71.1776,-15.2178],[-71.0838,-15.2737],[-71.0294,-15.3341],[-71.0325,-15.4314],[-71.0097,-15.4913],[-71.014,-15.557],[-70.9054,-15.68],[-70.9032,-15.7058],[-70.9373,-15.7863],[-70.8834,-15.8782],[-70.8423,-15.9077],[-70.85,-15.9882],[-70.8754,-16.2635],[-70.9594,-16.358],[-70.9594,-16.4626],[-71.0085,-16.4859],[-71.0554,-16.4574],[-71.1328,-16.4675],[-71.2053,-16.4986],[-71.3069,-16.6249],[-71.3065,-16.7352],[-71.3779,-16.7707],[-71.4477,-16.8444],[-71.4473,-16.8881],[-71.4085,-16.9795],[-71.3317,-17.0453],[-71.3728,-17.168],[-71.4233,-17.2588],[-71.4885,-17.318]]]}},{"type":"Feature","id":"Ayacucho","properties":{"id":"Ayacucho","iso_code":"PE-AYA","name":"Ayacucho","name_full":"Ayacucho","name_ja":"アヤクーチョ県","center_lonlat":[-74.0864,-14.1035]},"geometry":{"type":"Polygon","coordinates":[[[-73.9615,-12.2772],[-73.896,-12.3697],[-73.8588,-12.4479],[-73.8585,-12.5045],[-73.8301,-12.5156],[-73.8169,-12.5577],[-73.7626,-12.6281],[-73.7479,-12.6397],[-73.7417,-12.6192],[-73.7255,-12.6287],[-73.6685,-12.6915],[-73.5869,-12.9351],[-73.5554,-12.9656],[-73.5692,-12.9857],[-73.5494,-13.0637],[-73.5636,-13.0922],[-73.5125,-13.1184],[-73.4711,-13.1747],[-73.4106,-13.2094],[-73.3104,-13.3495],[-73.221,-13.4218],[-73.2509,-13.477],[-73.464,-13.4407],[-73.7227,-13.2667],[-73.78,-13.2075],[-73.8077,-13.2166],[-73.8289,-13.2646],[-73.8147,-13.3034],[-73.8501,-13.3779],[-73.8133,-13.5998],[-73.791,-13.641],[-73.7394,-13.6635],[-73.6905,-13.7333],[-73.6958,-13.7524],[-73.7497,-13.7687],[-73.7448,-13.7918],[-73.632,-14.0013],[-73.6031,-14.1301],[-73.5349,-14.2433],[-73.5273,-14.3535],[-73.5402,-14.5014],[-73.5,-14.5725],[-73.4986,-14.5956],[-73.5297,-14.6897],[-73.5728,-14.7001],[-73.5194,-14.8203],[-73.4247,-14.7985],[-73.3571,-14.6997],[-73.2855,-14.7174],[-73.2277,-14.7109],[-73.1471,-14.6911],[-73.1057,-14.6654],[-73.0545,-14.6607],[-73.0313,-14.6274],[-72.848,-14.7316],[-72.8357,-14.7871],[-72.8438,-14.8025],[-72.8877,-14.8144],[-72.9698,-14.8123],[-73.0209,-14.8525],[-73.0351,-14.9095],[-73.0056,-14.9742],[-73.0337,-15.1295],[-73.1046,-15.1988],[-73.1631,-15.2937],[-73.2811,-15.2863],[-73.2922,-15.3242],[-73.2828,-15.3949],[-73.3987,-15.3872],[-73.4572,-15.3649],[-73.6179,-15.4269],[-73.8905,-15.4469],[-73.9109,-15.4601],[-73.9698,-15.5593],[-74.0566,-15.6066],[-74.087,-15.5959],[-74.082,-15.522],[-74.1138,-15.4483],[-74.2179,-15.4933],[-74.289,-15.4762],[-74.3367,-15.426],[-74.3439,-15.3862],[-74.4132,-15.352],[-74.4699,-15.2388],[-74.4685,-15.1955],[-74.702,-15.1337],[-74.7266,-15.0879],[-74.693,-15.0012],[-74.6934,-14.9158],[-74.7519,-14.8205],[-74.772,-14.73],[-74.8383,-14.6771],[-74.8453,-14.6136],[-74.9003,-14.5555],[-74.9309,-14.5548],[-74.9789,-14.6046],[-75.0495,-14.615],[-75.0688,-14.5398],[-75.048,-14.4998],[-75.0498,-14.4775],[-75.1319,-14.3982],[-75.0615,-14.2592],[-75.0852,-14.202],[-75.0669,-14.1429],[-75.0565,-14.123],[-74.9915,-14.0896],[-74.8244,-14.0567],[-74.7546,-14.0578],[-74.735,-14.0198],[-74.7243,-13.9017],[-74.7318,-13.85],[-74.7916,-13.703],[-74.7994,-13.5787],[-74.8668,-13.4917],[-74.9279,-13.445],[-74.8997,-13.3509],[-74.7805,-13.3133],[-74.7455,-13.3642],[-74.6437,-13.3891],[-74.603,-13.3453],[-74.6548,-13.326],[-74.6852,-13.2892],[-74.6809,-13.2804],[-74.6201,-13.2431],[-74.5773,-13.1891],[-74.5309,-13.2006],[-74.4417,-13.1876],[-74.411,-13.1708],[-74.4004,-13.1454],[-74.4193,-13.0624],[-74.3933,-13.0193],[-74.3562,-13.0153],[-74.2957,-13.0523],[-74.2813,-13.0425],[-74.3145,-12.9321],[-74.3392,-12.908],[-74.3374,-12.8363],[-74.3073,-12.8277],[-74.2978,-12.7851],[-74.3309,-12.6916],[-74.3343,-12.613],[-74.4332,-12.463],[-74.4601,-12.4507],[-74.5003,-12.4602],[-74.554,-12.392],[-74.4972,-12.241],[-74.3875,-12.1471],[-74.3462,-12.2168],[-74.2939,-12.2378],[-74.2177,-12.3011],[-74.1575,-12.3136],[-74.0704,-12.261],[-74.0181,-12.2809],[-73.9615,-12.2772]]]}},{"type":"Feature","id":"Cajamarca","properties":{"id":"Cajamarca","iso_code":"PE-CAJ","name":"Cajamarca","name_full":"Cajamarca","name_ja":"カハマルカ県","center_lonlat":[-78.7626,-6.4497]},"geometry":{"type":"Polygon","coordinates":[[[-78.7089,-4.5851],[-78.6567,-4.6925],[-78.6258,-4.823],[-78.5886,-4.8819],[-78.5771,-4.965],[-78.587,-4.9983],[-78.6185,-5.0292],[-78.65,-5.1473],[-78.6249,-5.2344],[-78.6067,-5.3706],[-78.6073,-5.5021],[-78.722,-5.672],[-78.7468,-5.6886],[-78.7266,-5.7263],[-78.768,-5.7703],[-78.7731,-5.8328],[-78.7116,-5.9407],[-78.6369,-6.0198],[-78.6194,-6.0595],[-78.5432,-6.0825],[-78.4497,-6.1504],[-78.3492,-6.3505],[-78.2374,-6.4315],[-78.1753,-6.4589],[-78.1586,-6.4998],[-78.1313,-6.5244],[-78.0794,-6.6495],[-78.016,-6.7604],[-78.0108,-6.8257],[-78.0313,-6.8493],[-78.0108,-6.8766],[-78.0213,-6.938],[-77.9916,-7.0132],[-77.9535,-7.0751],[-77.9357,-7.1584],[-77.8705,-7.2337],[-77.874,-7.2752],[-77.8492,-7.2954],[-77.8395,-7.3775],[-77.7706,-7.433],[-77.7544,-7.4685],[-77.8515,-7.4696],[-77.9183,-7.5089],[-77.9153,-7.5996],[-77.942,-7.6699],[-78.004,-7.6735],[-78.0728,-7.6982],[-78.1277,-7.6673],[-78.2257,-7.7503],[-78.2936,-7.7679],[-78.3037,-7.7064],[-78.3546,-7.6853],[-78.3857,-7.6523],[-78.4916,-7.6406],[-78.5862,-7.5742],[-78.6182,-7.5678],[-78.7033,-7.5852],[-78.784,-7.5544],[-78.8533,-7.5882],[-78.9039,-7.5895],[-78.947,-7.6135],[-78.9968,-7.7029],[-79.0115,-7.7],[-79.068,-7.6511],[-79.0589,-7.568],[-79.1204,-7.4641],[-79.1975,-7.4027],[-79.3517,-7.3581],[-79.3831,-7.3337],[-79.3797,-7.2988],[-79.3384,-7.2138],[-79.3601,-7.1621],[-79.3477,-7.0105],[-79.3203,-6.993],[-79.3159,-6.887],[-79.2433,-6.8435],[-79.2102,-6.7964],[-79.1716,-6.7737],[-79.1628,-6.7302],[-79.1829,-6.7037],[-79.2608,-6.678],[-79.3077,-6.6794],[-79.335,-6.6548],[-79.3868,-6.5417],[-79.4319,-6.5352],[-79.4463,-6.52],[-79.4516,-6.474],[-79.4404,-6.4277],[-79.4631,-6.3733],[-79.4143,-6.3104],[-79.294,-6.2788],[-79.2599,-6.241],[-79.2501,-6.2011],[-79.2931,-6.1727],[-79.2969,-6.1488],[-79.2291,-6.0766],[-79.217,-6.0369],[-79.3091,-5.9823],[-79.3641,-6.0146],[-79.3794,-5.9881],[-79.4375,-6.0012],[-79.4511,-5.989],[-79.3553,-5.9068],[-79.3649,-5.8669],[-79.3965,-5.8307],[-79.419,-5.7444],[-79.398,-5.6059],[-79.4093,-5.5448],[-79.3918,-5.4993],[-79.325,-5.5009],[-79.321,-5.4802],[-79.3295,-5.3424],[-79.3616,-5.3119],[-79.366,-5.2434],[-79.3884,-5.1719],[-79.3262,-5.0974],[-79.3094,-5.0585],[-79.2759,-5.0434],[-79.2664,-5.004],[-79.2337,-4.9656],[-79.1042,-4.9801],[-79.0639,-5.0114],[-79.0093,-4.9601],[-78.9803,-4.874],[-78.9108,-4.8635],[-78.9002,-4.8437],[-78.9286,-4.7475],[-78.8986,-4.6942],[-78.8531,-4.6523],[-78.7089,-4.5851]]]}},{"type":"Feature","id":"Callao","properties":{"id":"Callao","iso_code":"PE-CAL","name":"Callao","name_full":"Callao","name_ja":"カヤオ特別区","center_lonlat":[-77.1375,-12.0458]},"geometry":{"type":"MultiPolygon","coordinates":[[[[-77.1144,-12.0813],[-77.1749,-12.0719],[-77.1407,-11.999],[-77.1123,-12.0186],[-77.1144,-12.0813]]],[[[-77.2327,-12.0654],[-77.1815,-12.1159],[-77.2367,-12.0933],[-77.2537,-12.0635],[-77.2327,-12.0654]]]]}},{"type":"Feature","id":"Cusco Departament","properties":{"id":"Cusco Departament","iso_code":"PE-CUS","name":"Cusco Departament","name_full":"Cusco Departament","name_ja":"クスコ県","center_lonlat":[-72.1794,-13.1703]},"geometry":{"type":"Polygon","coordinates":[[[-73.9615,-12.2772],[-73.8243,-12.2709],[-73.6742,-12.2267],[-73.6384,-12.1936],[-73.6083,-12.1136],[-73.605,-12.019],[-73.5047,-11.8682],[-73.4868,-11.7569],[-73.4947,-11.7291],[-73.5439,-11.6922],[-73.6327,-11.6607],[-73.6759,-11.6587],[-73.6846,-11.6426],[-73.5457,-11.5326],[-73.4876,-11.4488],[-73.4352,-11.3241],[-73.4061,-11.3304],[-73.3351,-11.3116],[-73.2633,-11.3125],[-73.0948,-11.2847],[-73.0536,-11.2665],[-72.9913,-11.1996],[-72.9351,-11.3089],[-72.9092,-11.3285],[-72.8225,-11.3704],[-72.7677,-11.369],[-72.7198,-11.3507],[-72.688,-11.3894],[-72.5775,-11.4293],[-72.5327,-11.4189],[-72.4092,-11.3317],[-72.2953,-11.2934],[-72.2571,-11.3132],[-72.2199,-11.3044],[-72.1805,-11.3132],[-72.2019,-11.4266],[-72.3319,-11.6669],[-72.3495,-11.7212],[-72.3838,-11.8874],[-72.3664,-11.9863],[-72.3389,-12.0226],[-72.1723,-12.1173],[-72.1061,-12.2877],[-72.0658,-12.3102],[-71.9982,-12.3235],[-71.9757,-12.3442],[-71.9121,-12.4783],[-71.8907,-12.5575],[-71.913,-12.6675],[-71.8548,-12.7765],[-71.7981,-12.8101],[-71.6111,-12.8685],[-71.4856,-12.8692],[-71.3271,-12.9413],[-71.1749,-12.9823],[-71.0185,-13.0742],[-70.6784,-13.1252],[-70.5535,-13.1177],[-70.5211,-13.0996],[-70.5214,-13.0877],[-70.5771,-13.0419],[-70.5824,-13.0292],[-70.5672,-13.0099],[-70.3558,-13.0246],[-70.3847,-13.1724],[-70.3699,-13.2543],[-70.4027,-13.3382],[-70.5409,-13.4876],[-70.6817,-13.788],[-70.8175,-13.8263],[-70.8499,-14.0118],[-70.82,-14.0497],[-70.809,-14.0947],[-70.8317,-14.2274],[-70.8894,-14.4102],[-70.9091,-14.4321],[-70.9611,-14.4301],[-70.9789,-14.4434],[-71.0035,-14.5181],[-70.9901,-14.5738],[-71.0536,-14.6344],[-71.1189,-14.6491],[-71.1262,-14.6637],[-71.0769,-14.7447],[-70.9999,-14.768],[-70.9899,-14.7919],[-71.0014,-14.8378],[-70.9845,-14.9356],[-71.0153,-14.9892],[-71.0163,-15.0191],[-70.9997,-15.0491],[-71.0104,-15.1138],[-70.9764,-15.2097],[-70.9786,-15.2885],[-70.9875,-15.3133],[-71.0294,-15.3341],[-71.0838,-15.2737],[-71.1776,-15.2178],[-71.1743,-15.1197],[-71.2157,-15.0737],[-71.2453,-15.0738],[-71.3114,-15.1175],[-71.409,-15.0475],[-71.4605,-15.0429],[-71.5044,-15.0173],[-71.5134,-15.0726],[-71.6051,-15.0807],[-71.667,-15.1136],[-71.85,-15.0553],[-71.8627,-15.0432],[-71.8472,-15.0006],[-71.857,-14.9285],[-71.8173,-14.8992],[-71.8059,-14.8734],[-71.8778,-14.8423],[-71.9691,-14.7003],[-72.0031,-14.6718],[-72.0305,-14.6713],[-72.0423,-14.6871],[-72.0237,-14.7826],[-72.0427,-14.8425],[-72.0792,-14.8832],[-72.1031,-14.8689],[-72.13,-14.8123],[-72.1599,-14.7974],[-72.335,-14.8434],[-72.3982,-14.8282],[-72.4223,-14.8146],[-72.4902,-14.7282],[-72.4861,-14.674],[-72.482,-14.6139],[-72.5033,-14.5675],[-72.488,-14.5277],[-72.4141,-14.4895],[-72.3654,-14.4402],[-72.2786,-14.4169],[-72.2322,-14.342],[-72.112,-14.2171],[-72.0824,-14.111],[-72.0826,-13.9372],[-72.1508,-13.806],[-72.2719,-13.6955],[-72.3371,-13.6955],[-72.3939,-13.661],[-72.4302,-13.5977],[-72.605,-13.5619],[-72.8033,-13.4348],[-72.8821,-13.4286],[-72.9043,-13.3947],[-72.964,-13.3976],[-73.0155,-13.4286],[-73.0493,-13.4249],[-73.0966,-13.4581],[-73.149,-13.4286],[-73.1697,-13.441],[-73.221,-13.4218],[-73.3104,-13.3495],[-73.4106,-13.2094],[-73.4711,-13.1747],[-73.5125,-13.1184],[-73.5636,-13.0922],[-73.5494,-13.0637],[-73.5692,-12.9857],[-73.5554,-12.9656],[-73.5869,-12.9351],[-73.6685,-12.6915],[-73.7255,-12.6287],[-73.7417,-12.6192],[-73.7479,-12.6397],[-73.7626,-12.6281],[-73.8169,-12.5577],[-73.8301,-12.5156],[-73.8585,-12.5045],[-73.8588,-12.4479],[-73.896,-12.3697],[-73.9615,-12.2772]]]}},{"type":"Feature","id":"Huancavelica","properties":{"id":"Huancavelica","iso_code":"PE-HUV","name":"Huancavelica","name_full":"Huancavelica","name_ja":"ワンカベリカ県","center_lonlat":[-75.0112,-13.0374]},"geometry":{"type":"Polygon","coordinates":[[[-74.3875,-12.1471],[-74.4972,-12.241],[-74.554,-12.392],[-74.5003,-12.4602],[-74.4601,-12.4507],[-74.4332,-12.463],[-74.3343,-12.613],[-74.3309,-12.6916],[-74.2978,-12.7851],[-74.3073,-12.8277],[-74.3374,-12.8363],[-74.3392,-12.908],[-74.3145,-12.9321],[-74.2813,-13.0425],[-74.2957,-13.0523],[-74.3562,-13.0153],[-74.3933,-13.0193],[-74.4193,-13.0624],[-74.4004,-13.1454],[-74.411,-13.1708],[-74.4417,-13.1876],[-74.5309,-13.2006],[-74.5773,-13.1891],[-74.6201,-13.2431],[-74.6809,-13.2804],[-74.6852,-13.2892],[-74.6548,-13.326],[-74.603,-13.3453],[-74.6437,-13.3891],[-74.7455,-13.3642],[-74.7805,-13.3133],[-74.8997,-13.3509],[-74.9279,-13.445],[-74.8668,-13.4917],[-74.7994,-13.5787],[-74.7916,-13.703],[-74.7318,-13.85],[-74.7243,-13.9017],[-74.735,-14.0198],[-74.7546,-14.0578],[-74.8244,-14.0567],[-74.9915,-14.0896],[-75.0565,-14.123],[-75.0669,-14.1429],[-75.1251,-14.0904],[-75.2091,-14.0758],[-75.3264,-13.9742],[-75.4204,-13.9499],[-75.5421,-13.8779],[-75.554,-13.8508],[-75.5403,-13.8154],[-75.5627,-13.7619],[-75.5142,-13.6732],[-75.5479,-13.5842],[-75.5123,-13.5373],[-75.4831,-13.4661],[-75.4892,-13.4549],[-75.6518,-13.4085],[-75.7617,-13.4108],[-75.7896,-13.4045],[-75.8009,-13.3888],[-75.7538,-13.2584],[-75.7045,-13.2166],[-75.7121,-13.0952],[-75.6408,-13.0421],[-75.6241,-13.0006],[-75.6347,-12.982],[-75.6023,-12.8669],[-75.5164,-12.7959],[-75.4675,-12.7157],[-75.4672,-12.6866],[-75.4529,-12.6372],[-75.4154,-12.6164],[-75.3938,-12.5657],[-75.3074,-12.4777],[-75.2507,-12.4563],[-75.211,-12.4023],[-75.1873,-12.3888],[-75.1241,-12.3749],[-75.1451,-12.3542],[-75.1648,-12.2933],[-75.1102,-12.2711],[-75.0619,-12.1889],[-75.0662,-12.1321],[-75.1125,-12.0806],[-75.1215,-12.0522],[-75.0612,-11.9779],[-75.0109,-12.0265],[-74.9561,-12.0461],[-74.8636,-12.029],[-74.7843,-12.0402],[-74.7276,-12.023],[-74.6957,-11.9831],[-74.6126,-11.995],[-74.5497,-12.0385],[-74.5038,-12.0451],[-74.3875,-12.1471]]]}},{"type":"Feature","id":"Huanuco","properties":{"id":"Huanuco","iso_code":"PE-HUC","name":"Huanuco","name_full":"Huanuco","name_ja":"ワヌコ県","center_lonlat":[-76.0262,-9.4255]},"geometry":{"type":"Polygon","coordinates":[[[-74.5383,-9.6499],[-74.7631,-9.7542],[-74.9833,-9.7919],[-75.1181,-9.7735],[-75.3529,-9.8753],[-75.4948,-9.8979],[-75.6897,-9.9007],[-75.7476,-9.9212],[-75.8104,-9.978],[-75.83,-10.0753],[-75.792,-10.2773],[-75.7696,-10.3297],[-75.8064,-10.3644],[-75.9458,-10.426],[-76.0347,-10.3777],[-76.237,-10.3625],[-76.2857,-10.3026],[-76.35,-10.2681],[-76.5127,-10.261],[-76.5805,-10.2796],[-76.657,-10.3795],[-76.75,-10.4438],[-76.8127,-10.4171],[-76.8395,-10.3529],[-76.9111,-10.3411],[-76.9316,-10.2868],[-76.9288,-10.1838],[-76.9056,-10.1166],[-76.9883,-10.0592],[-77.0002,-9.9475],[-77.0729,-9.7698],[-76.9744,-9.6418],[-76.9607,-9.609],[-76.9601,-9.5574],[-76.8589,-9.3263],[-76.7475,-9.2152],[-76.7382,-9.1721],[-76.7805,-9.1357],[-76.883,-9.091],[-76.9137,-9.0473],[-76.9861,-9.0223],[-77.074,-8.9209],[-77.1361,-8.8989],[-77.1915,-8.8466],[-77.2144,-8.809],[-77.2137,-8.7575],[-77.296,-8.672],[-77.297,-8.623],[-77.3225,-8.5341],[-77.1669,-8.5325],[-77.0361,-8.4991],[-76.9946,-8.6023],[-76.9112,-8.6115],[-76.885,-8.6041],[-76.8563,-8.5557],[-76.7716,-8.538],[-76.4575,-8.6004],[-76.3898,-8.5921],[-76.3644,-8.5503],[-76.3569,-8.4098],[-76.3423,-8.3888],[-76.3129,-8.3797],[-76.2866,-8.4175],[-76.2785,-8.4705],[-76.2045,-8.5747],[-76.1737,-8.697],[-76.1459,-8.7291],[-76.1079,-8.7351],[-76.0795,-8.7147],[-76.0118,-8.6074],[-75.9527,-8.5682],[-75.9741,-8.6452],[-75.9695,-8.6845],[-75.9037,-8.7974],[-75.8826,-8.9973],[-75.8327,-9.0316],[-75.7989,-9.092],[-75.7829,-9.2329],[-75.721,-9.2903],[-75.6622,-9.3958],[-75.6157,-9.4066],[-75.5567,-9.3838],[-75.4361,-9.2845],[-75.2959,-9.2305],[-75.237,-9.1546],[-75.1661,-9.0137],[-75.0734,-8.8793],[-74.9664,-8.7721],[-74.9052,-8.7424],[-74.8023,-8.6587],[-74.731,-8.6306],[-74.6786,-8.619],[-74.5867,-8.6261],[-74.5474,-8.643],[-74.523,-8.6743],[-74.5097,-8.737],[-74.5183,-8.7582],[-74.6136,-8.8232],[-74.6288,-8.9663],[-74.6791,-9.069],[-74.6701,-9.1734],[-74.7199,-9.3553],[-74.7016,-9.415],[-74.5383,-9.6499]]]}},{"type":"Feature","id":"Ica","properties":{"id":"Ica","iso_code":"PE-ICA","name":"Ica","name_full":"Ica","name_ja":"イカ県","center_lonlat":[-75.5801,-14.2396]},"geometry":{"type":"MultiPolygon","coordinates":[[[[-75.0757,-15.4377],[-75.1061,-15.4086],[-75.1608,-15.3933],[-75.167,-15.3776],[-75.1894,-15.3695],[-75.1895,-15.3584],[-75.1554,-15.3464],[-75.1516,-15.333],[-75.1669,-15.3113],[-75.2632,-15.2504],[-75.2328,-15.2458],[-75.2341,-15.2145],[-75.2896,-15.1611],[-75.3765,-15.134],[-75.4481,-15.008],[-75.5028,-14.9636],[-75.5066,-14.9182],[-75.8394,-14.7263],[-75.8668,-14.6895],[-75.9307,-14.6493],[-75.9328,-14.58],[-75.9734,-14.5287],[-75.9648,-14.4925],[-75.9806,-14.4611],[-76.0372,-14.4293],[-76.0819,-14.3777],[-76.1332,-14.3596],[-76.1436,-14.3279],[-76.1161,-14.3249],[-76.1067,-14.3059],[-76.1492,-14.2239],[-76.1811,-14.2106],[-76.2154,-14.1612],[-76.2499,-14.1478],[-76.2712,-14.2009],[-76.2904,-14.1674],[-76.2821,-14.1409],[-76.2917,-14.081],[-76.2679,-14.0497],[-76.2846,-13.9916],[-76.2728,-13.9874],[-76.2704,-13.9625],[-76.2953,-13.9345],[-76.2927,-13.9005],[-76.3085,-13.8918],[-76.3249,-13.921],[-76.3544,-13.9194],[-76.394,-13.908],[-76.3935,-13.8819],[-76.3667,-13.822],[-76.3714,-13.8092],[-76.3258,-13.7912],[-76.2959,-13.7934],[-76.303,-13.8327],[-76.2618,-13.8614],[-76.254,-13.8509],[-76.1813,-13.5395],[-76.196,-13.4282],[-76.2211,-13.3576],[-76.2492,-13.3204],[-76.2022,-13.287],[-76.1404,-13.1853],[-75.9977,-13.071],[-75.9517,-12.9998],[-75.8649,-13.0312],[-75.797,-13.0289],[-75.7024,-13.0159],[-75.6347,-12.982],[-75.6241,-13.0006],[-75.6408,-13.0421],[-75.7121,-13.0952],[-75.7045,-13.2166],[-75.7538,-13.2584],[-75.8009,-13.3888],[-75.7896,-13.4045],[-75.7617,-13.4108],[-75.6518,-13.4085],[-75.4892,-13.4549],[-75.4831,-13.4661],[-75.5123,-13.5373],[-75.5479,-13.5842],[-75.5142,-13.6732],[-75.5627,-13.7619],[-75.5403,-13.8154],[-75.554,-13.8508],[-75.5421,-13.8779],[-75.4204,-13.9499],[-75.3264,-13.9742],[-75.2091,-14.0758],[-75.1251,-14.0904],[-75.0669,-14.1429],[-75.0852,-14.202],[-75.0615,-14.2592],[-75.1319,-14.3982],[-75.0498,-14.4775],[-75.048,-14.4998],[-75.0688,-14.5398],[-75.0495,-14.615],[-74.9789,-14.6046],[-74.9309,-14.5548],[-74.9003,-14.5555],[-74.8453,-14.6136],[-74.8383,-14.6771],[-74.772,-14.73],[-74.7519,-14.8205],[-74.6934,-14.9158],[-74.693,-15.0012],[-74.7266,-15.0879],[-74.9621,-15.2381],[-75.0757,-15.4377]]],[[[-76.4437,-13.8305],[-76.4414,-13.8539],[-76.4702,-13.8539],[-76.4568,-13.8229],[-76.4437,-13.8305]]],[[[-76.1952,-14.2633],[-76.1796,-14.2952],[-76.2203,-14.2747],[-76.2125,-14.2595],[-76.1952,-14.2633]]]]}},{"type":"Feature","id":"Junin","properties":{"id":"Junin","iso_code":"PE-JUN","name":"Junin","name_full":"Junín","name_ja":"フニン県","center_lonlat":[-74.9072,-11.5199]},"geometry":{"type":"Polygon","coordinates":[[[-73.4352,-11.3241],[-73.4876,-11.4488],[-73.5457,-11.5326],[-73.6846,-11.6426],[-73.6759,-11.6587],[-73.6327,-11.6607],[-73.5439,-11.6922],[-73.4947,-11.7291],[-73.4868,-11.7569],[-73.5047,-11.8682],[-73.605,-12.019],[-73.6083,-12.1136],[-73.6384,-12.1936],[-73.6742,-12.2267],[-73.8243,-12.2709],[-73.9615,-12.2772],[-74.0181,-12.2809],[-74.0704,-12.261],[-74.1575,-12.3136],[-74.2177,-12.3011],[-74.2939,-12.2378],[-74.3462,-12.2168],[-74.3875,-12.1471],[-74.5038,-12.0451],[-74.5497,-12.0385],[-74.6126,-11.995],[-74.6957,-11.9831],[-74.7276,-12.023],[-74.7843,-12.0402],[-74.8636,-12.029],[-74.9561,-12.0461],[-75.0109,-12.0265],[-75.0612,-11.9779],[-75.1215,-12.0522],[-75.1125,-12.0806],[-75.0662,-12.1321],[-75.0619,-12.1889],[-75.1102,-12.2711],[-75.1648,-12.2933],[-75.1451,-12.3542],[-75.1241,-12.3749],[-75.1873,-12.3888],[-75.211,-12.4023],[-75.2507,-12.4563],[-75.3074,-12.4777],[-75.3938,-12.5657],[-75.4154,-12.6164],[-75.4529,-12.6372],[-75.4672,-12.6866],[-75.5738,-12.6088],[-75.5376,-12.4169],[-75.6462,-12.1985],[-75.6301,-12.1433],[-75.6408,-12.1176],[-75.6888,-12.0787],[-75.8898,-11.9883],[-75.9368,-11.9903],[-76.0025,-12.0159],[-76.0363,-11.9912],[-76.0737,-11.9033],[-76.1346,-11.8578],[-76.1551,-11.8042],[-76.2058,-11.7516],[-76.2278,-11.5855],[-76.2601,-11.5712],[-76.2965,-11.5839],[-76.3534,-11.5398],[-76.3777,-11.5037],[-76.4138,-11.3813],[-76.4758,-11.3121],[-76.4933,-11.1669],[-76.4883,-11.0977],[-76.4072,-11.1027],[-76.2785,-11.0825],[-76.2741,-10.9047],[-76.176,-10.9204],[-76.1246,-10.9044],[-76.0454,-10.8487],[-75.9932,-10.8898],[-75.7539,-10.8852],[-75.4457,-10.7934],[-75.3122,-10.786],[-75.1235,-10.7322],[-75.0435,-10.6825],[-74.9617,-10.7048],[-74.7805,-10.8242],[-74.6848,-10.8512],[-74.5085,-10.8482],[-74.4745,-10.9914],[-74.4474,-11.0323],[-74.3849,-11.0503],[-74.2952,-11.0132],[-74.1977,-11.0112],[-74.0327,-10.9717],[-73.9278,-10.9705],[-73.8864,-10.9401],[-73.7593,-10.7572],[-73.6434,-10.7899],[-73.5656,-10.8657],[-73.4961,-10.998],[-73.5134,-11.1953],[-73.4777,-11.2841],[-73.4352,-11.3241]]]}},{"type":"Feature","id":"La Libertad","properties":{"id":"La Libertad","iso_code":"PE-LAL","name":"La Libertad","name_full":"La Libertad","name_ja":"ラ・リベルタ県","center_lonlat":[-78.3316,-7.942]},"geometry":{"type":"Polygon","coordinates":[[[-78.649,-8.9637],[-78.682,-8.8825],[-78.7643,-8.7751],[-78.7407,-8.7115],[-78.7593,-8.6083],[-78.8197,-8.5283],[-78.9403,-8.4355],[-78.9348,-8.423],[-78.9066,-8.4179],[-78.9021,-8.3768],[-78.9637,-8.2867],[-78.99,-8.232],[-78.9857,-8.2174],[-79.1242,-8.0897],[-79.1247,-8.0651],[-79.2997,-7.9387],[-79.3841,-7.8338],[-79.3957,-7.7924],[-79.4659,-7.7159],[-79.4368,-7.6936],[-79.4353,-7.6744],[-79.5825,-7.4636],[-79.5887,-7.4113],[-79.5738,-7.3865],[-79.5958,-7.3125],[-79.6128,-7.2664],[-79.697,-7.178],[-79.6921,-7.1614],[-79.4925,-6.9643],[-79.3751,-6.9878],[-79.3477,-7.0105],[-79.3601,-7.1621],[-79.3384,-7.2138],[-79.3797,-7.2988],[-79.3831,-7.3337],[-79.3517,-7.3581],[-79.1975,-7.4027],[-79.1204,-7.4641],[-79.0589,-7.568],[-79.068,-7.6511],[-79.0115,-7.7],[-78.9968,-7.7029],[-78.947,-7.6135],[-78.9039,-7.5895],[-78.8533,-7.5882],[-78.784,-7.5544],[-78.7033,-7.5852],[-78.6182,-7.5678],[-78.5862,-7.5742],[-78.4916,-7.6406],[-78.3857,-7.6523],[-78.3546,-7.6853],[-78.3037,-7.7064],[-78.2936,-7.7679],[-78.2257,-7.7503],[-78.1277,-7.6673],[-78.0728,-7.6982],[-78.004,-7.6735],[-77.942,-7.6699],[-77.9153,-7.5996],[-77.9183,-7.5089],[-77.8515,-7.4696],[-77.7544,-7.4685],[-77.7706,-7.433],[-77.8395,-7.3775],[-77.8492,-7.2954],[-77.874,-7.2752],[-77.8705,-7.2337],[-77.9357,-7.1584],[-77.9535,-7.0751],[-77.9916,-7.0132],[-77.8911,-6.9868],[-77.7988,-7.0013],[-77.7424,-6.994],[-77.7066,-7.0477],[-77.6824,-7.1225],[-77.6008,-7.1951],[-77.6028,-7.2283],[-77.6288,-7.2822],[-77.6214,-7.3384],[-77.5933,-7.4015],[-77.4502,-7.5724],[-77.4764,-7.721],[-77.4578,-7.8041],[-77.3891,-7.9284],[-77.404,-8.0033],[-77.3469,-8.0766],[-77.3204,-8.0834],[-77.232,-8.0702],[-77.047,-8.1294],[-76.9754,-8.17],[-76.9059,-8.2624],[-76.8795,-8.5116],[-76.8563,-8.5557],[-76.885,-8.6041],[-76.9112,-8.6115],[-76.9946,-8.6023],[-77.0361,-8.4991],[-77.1669,-8.5325],[-77.3225,-8.5341],[-77.322,-8.4974],[-77.3495,-8.4353],[-77.4837,-8.2493],[-77.5337,-8.2179],[-77.6203,-8.1296],[-77.6204,-8.0832],[-77.648,-8.0481],[-77.647,-8.0107],[-77.7933,-8.0736],[-77.8977,-8.0642],[-77.9571,-8.1712],[-78.1198,-8.3125],[-78.1615,-8.4288],[-78.2361,-8.5418],[-78.223,-8.5977],[-78.2544,-8.6584],[-78.3415,-8.6704],[-78.3951,-8.7076],[-78.5372,-8.7553],[-78.5746,-8.7835],[-78.5966,-8.8251],[-78.6173,-8.9439],[-78.649,-8.9637]]]}},{"type":"Feature","id":"Lambayeque","properties":{"id":"Lambayeque","iso_code":"PE-LAM","name":"Lambayeque","name_full":"Lambayeque","name_ja":"ランバイエケ県","center_lonlat":[-79.8307,-6.3754]},"geometry":{"type":"Polygon","coordinates":[[[-79.6921,-7.1614],[-79.6891,-7.1309],[-79.7082,-7.1068],[-79.9315,-6.8835],[-79.9647,-6.7874],[-80.0045,-6.7409],[-80.1694,-6.6187],[-80.6307,-6.3777],[-80.5744,-6.3183],[-80.4893,-6.1912],[-80.4498,-6.0996],[-80.329,-5.9588],[-79.9942,-5.8537],[-79.9501,-5.822],[-79.9398,-5.7762],[-79.9432,-5.6722],[-79.96,-5.5744],[-79.9493,-5.5474],[-79.8146,-5.6521],[-79.75,-5.7454],[-79.771,-5.8104],[-79.7654,-5.8412],[-79.6879,-5.865],[-79.6274,-5.9401],[-79.5292,-5.9328],[-79.4696,-5.9575],[-79.4511,-5.989],[-79.4375,-6.0012],[-79.3794,-5.9881],[-79.3641,-6.0146],[-79.3091,-5.9823],[-79.217,-6.0369],[-79.2291,-6.0766],[-79.2969,-6.1488],[-79.2931,-6.1727],[-79.2501,-6.2011],[-79.2599,-6.241],[-79.294,-6.2788],[-79.4143,-6.3104],[-79.4631,-6.3733],[-79.4404,-6.4277],[-79.4516,-6.474],[-79.4463,-6.52],[-79.4319,-6.5352],[-79.3868,-6.5417],[-79.335,-6.6548],[-79.3077,-6.6794],[-79.2608,-6.678],[-79.1829,-6.7037],[-79.1628,-6.7302],[-79.1716,-6.7737],[-79.2102,-6.7964],[-79.2433,-6.8435],[-79.3159,-6.887],[-79.3203,-6.993],[-79.3477,-7.0105],[-79.3751,-6.9878],[-79.4925,-6.9643],[-79.6921,-7.1614]]]}},{"type":"Feature","id":"Lima","properties":{"id":"Lima","iso_code":"PE-LIM","name":"Lima","name_full":"Lima","name_ja":"リマ郡","center_lonlat":[-76.602,-11.7723]},"geometry":{"type":"Polygon","coordinates":[[[-76.2492,-13.3204],[-76.4833,-13.0363],[-76.5165,-12.9462],[-76.5162,-12.8699],[-76.63,-12.7507],[-76.6818,-12.6554],[-76.6815,-12.6193],[-76.7362,-12.5524],[-76.7991,-12.5093],[-76.7637,-12.4851],[-76.7505,-12.4131],[-76.6823,-12.3779],[-76.6889,-12.3422],[-76.6446,-12.242],[-76.7332,-12.1006],[-76.7125,-12.0777],[-76.6792,-12.0834],[-76.752,-12.026],[-76.7501,-11.9859],[-76.7066,-11.9628],[-76.701,-11.932],[-76.7455,-11.8746],[-76.7738,-11.8599],[-76.8566,-11.9357],[-76.9322,-11.9571],[-76.9356,-11.907],[-76.9236,-11.87],[-76.9531,-11.8599],[-76.9541,-11.8301],[-76.9266,-11.7842],[-76.8877,-11.7761],[-76.8566,-11.7333],[-76.9318,-11.7133],[-76.9597,-11.734],[-76.9772,-11.73],[-76.9977,-11.7074],[-77.006,-11.6716],[-77.053,-11.6543],[-77.0397,-11.5895],[-77.0809,-11.555],[-77.1006,-11.5594],[-77.1105,-11.5927],[-77.1384,-11.6225],[-77.1391,-11.6505],[-77.1976,-11.6808],[-77.2255,-11.6272],[-77.2814,-11.5821],[-77.2779,-11.5573],[-77.3205,-11.4937],[-77.6473,-11.2923],[-77.648,-11.2223],[-77.5978,-11.2068],[-77.5947,-11.1651],[-77.6613,-11.0145],[-77.6468,-10.9965],[-77.6631,-10.9473],[-77.7116,-10.868],[-77.7092,-10.8522],[-77.7532,-10.8158],[-77.7478,-10.7921],[-77.7637,-10.7615],[-77.8485,-10.6738],[-77.8906,-10.6025],[-77.8144,-10.5493],[-77.781,-10.3671],[-77.7005,-10.3657],[-77.6722,-10.4069],[-77.6772,-10.4248],[-77.6969,-10.4598],[-77.7512,-10.5013],[-77.754,-10.5206],[-77.7286,-10.5341],[-77.6683,-10.5365],[-77.602,-10.5814],[-77.5948,-10.6033],[-77.6063,-10.6543],[-77.5878,-10.7443],[-77.4936,-10.7454],[-77.4097,-10.705],[-77.3745,-10.6417],[-77.2726,-10.5844],[-77.1974,-10.5182],[-77.1655,-10.4657],[-77.1501,-10.3848],[-76.9316,-10.2868],[-76.9111,-10.3411],[-76.8395,-10.3529],[-76.8127,-10.4171],[-76.75,-10.4438],[-76.6547,-10.6636],[-76.638,-10.7419],[-76.5726,-10.8295],[-76.5656,-10.9943],[-76.4976,-11.0454],[-76.4883,-11.0977],[-76.4933,-11.1669],[-76.4758,-11.3121],[-76.4138,-11.3813],[-76.3777,-11.5037],[-76.3534,-11.5398],[-76.2965,-11.5839],[-76.2601,-11.5712],[-76.2278,-11.5855],[-76.2058,-11.7516],[-76.1551,-11.8042],[-76.1346,-11.8578],[-76.0737,-11.9033],[-76.0363,-11.9912],[-76.0025,-12.0159],[-75.9368,-11.9903],[-75.8898,-11.9883],[-75.6888,-12.0787],[-75.6408,-12.1176],[-75.6301,-12.1433],[-75.6462,-12.1985],[-75.5376,-12.4169],[-75.5738,-12.6088],[-75.4672,-12.6866],[-75.4675,-12.7157],[-75.5164,-12.7959],[-75.6023,-12.8669],[-75.6347,-12.982],[-75.7024,-13.0159],[-75.797,-13.0289],[-75.8649,-13.0312],[-75.9517,-12.9998],[-75.9977,-13.071],[-76.1404,-13.1853],[-76.2022,-13.287],[-76.2492,-13.3204]]]}},{"type":"Feature","id":"Lima (PE-LIM)","properties":{"id":"Lima (PE-LIM)","iso_code":"PE-LIM","name":"Lima (PE-LIM)","name_full":"Lima","name_ja":"リマ郡","center_lonlat":[-76.9278,-12.016]},"geometry":{"type":"Polygon","coordinates":[[[-76.7991,-12.5093],[-76.8118,-12.4827],[-76.7824,-12.4192],[-76.7909,-12.381],[-76.8254,-12.3525],[-76.8536,-12.3026],[-77.0172,-12.2258],[-77.0445,-12.1948],[-77.0383,-12.1537],[-77.0539,-12.1142],[-77.1144,-12.0813],[-77.1123,-12.0186],[-77.1407,-11.999],[-77.1459,-11.9321],[-77.1964,-11.7768],[-77.1671,-11.7565],[-77.1976,-11.6808],[-77.1391,-11.6505],[-77.1384,-11.6225],[-77.1105,-11.5927],[-77.1006,-11.5594],[-77.0809,-11.555],[-77.0397,-11.5895],[-77.053,-11.6543],[-77.006,-11.6716],[-76.9977,-11.7074],[-76.9772,-11.73],[-76.9597,-11.734],[-76.9318,-11.7133],[-76.8566,-11.7333],[-76.8877,-11.7761],[-76.9266,-11.7842],[-76.9541,-11.8301],[-76.9531,-11.8599],[-76.9236,-11.87],[-76.9356,-11.907],[-76.9322,-11.9571],[-76.8566,-11.9357],[-76.7738,-11.8599],[-76.7455,-11.8746],[-76.701,-11.932],[-76.7066,-11.9628],[-76.7501,-11.9859],[-76.752,-12.026],[-76.6792,-12.0834],[-76.7125,-12.0777],[-76.7332,-12.1006],[-76.6446,-12.242],[-76.6889,-12.3422],[-76.6823,-12.3779],[-76.7505,-12.4131],[-76.7637,-12.4851],[-76.7991,-12.5093]]]}},{"type":"Feature","id":"Loreto","properties":{"id":"Loreto","iso_code":"PE-LOR","name":"Loreto","name_full":"Loreto","name_ja":"ロレート県","center_lonlat":[-74.4255,-4.0953]},"geometry":{"type":"Polygon","coordinates":[[[-73.9845,-7.5294],[-74.0674,-7.4778],[-74.2306,-7.4171],[-74.3767,-7.3996],[-74.5191,-7.3263],[-74.5879,-7.3278],[-74.6077,-7.3815],[-74.5624,-7.5732],[-74.5649,-7.6717],[-74.549,-7.7623],[-74.5553,-7.8675],[-74.5843,-7.909],[-74.6913,-7.9639],[-74.9185,-8.0021],[-75.0004,-8.0294],[-75.1362,-8.1056],[-75.3096,-8.1168],[-75.3487,-8.1047],[-75.3921,-8.1932],[-75.4641,-8.2086],[-75.5064,-8.2536],[-75.499,-8.3302],[-75.4233,-8.4296],[-75.4163,-8.472],[-75.4294,-8.4808],[-75.4727,-8.4732],[-75.5738,-8.3946],[-75.625,-8.3844],[-75.8732,-8.5984],[-75.9741,-8.6452],[-75.9527,-8.5682],[-75.9011,-8.3486],[-75.7894,-8.2053],[-75.7776,-8.1487],[-75.8151,-8.0136],[-76.0797,-7.4364],[-76.0985,-7.3284],[-76.0845,-7.1089],[-76.1102,-6.9933],[-76.043,-6.8327],[-76.0112,-6.7849],[-75.9351,-6.7529],[-75.8449,-6.7675],[-75.7944,-6.7953],[-75.6712,-6.9348],[-75.6431,-6.943],[-75.604,-6.925],[-75.5176,-6.784],[-75.4943,-6.6912],[-75.4663,-6.3566],[-75.4786,-6.3051],[-75.5066,-6.2588],[-75.5752,-6.1901],[-75.6682,-6.1473],[-75.8455,-6.1079],[-76.0628,-6.1204],[-76.121,-6.1061],[-76.1591,-6.0821],[-76.285,-5.9407],[-76.3157,-5.9213],[-76.3835,-5.9257],[-76.5574,-6.0417],[-76.6061,-6.049],[-76.6546,-6.0382],[-76.7341,-5.9765],[-76.8059,-5.7991],[-76.8851,-5.7272],[-76.9682,-5.6899],[-77.2045,-5.6734],[-77.2958,-5.6093],[-77.3669,-5.5369],[-77.5485,-5.4582],[-77.64,-5.3846],[-77.7107,-5.2281],[-77.7768,-4.8498],[-77.7646,-4.7631],[-77.7409,-4.7031],[-77.6649,-4.6114],[-77.5785,-4.4387],[-77.5584,-4.1003],[-77.534,-4.0211],[-77.5643,-3.8858],[-77.6341,-3.7639],[-77.6354,-3.646],[-77.6696,-3.4801],[-77.709,-3.3734],[-77.7587,-3.2868],[-77.7683,-3.1732],[-77.8104,-2.9671],[-76.6846,-2.5736],[-76.0912,-2.1289],[-75.573,-1.5373],[-75.4064,-0.9151],[-75.3487,-0.975],[-75.2273,-0.9698],[-75.2521,-0.9334],[-75.297,-0.747],[-75.294,-0.6679],[-75.2556,-0.6243],[-75.2607,-0.5435],[-75.3474,-0.4709],[-75.3757,-0.467],[-75.4056,-0.4424],[-75.4527,-0.3606],[-75.4848,-0.2477],[-75.579,-0.1827],[-75.6196,-0.1809],[-75.6384,-0.1509],[-75.6376,-0.1115],[-75.5257,-0.1232],[-75.4553,-0.1612],[-75.4295,-0.1637],[-75.4026,-0.1458],[-75.3441,-0.1491],[-75.2525,-0.0896],[-75.2317,-0.0426],[-75.2067,-0.0291],[-75.1207,-0.0541],[-75.0507,-0.1343],[-75.0154,-0.1405],[-74.9335,-0.2094],[-74.8727,-0.2219],[-74.8247,-0.1705],[-74.7895,-0.209],[-74.7553,-0.2783],[-74.7907,-0.3126],[-74.7181,-0.3273],[-74.6866,-0.3534],[-74.6423,-0.3398],[-74.5624,-0.4394],[-74.4756,-0.4965],[-74.4419,-0.5355],[-74.418,-0.5427],[-74.3649,-0.6762],[-74.3851,-0.722],[-74.3443,-0.7741],[-74.3028,-0.7854],[-74.3106,-0.8014],[-74.2891,-0.8363],[-74.2951,-0.8473],[-74.3376,-0.8468],[-74.3444,-0.8586],[-74.3034,-0.8978],[-74.2668,-0.9723],[-74.1196,-1.021],[-74.0924,-1.0201],[-74.0769,-0.9909],[-74.0372,-1.0797],[-74.0168,-1.0916],[-73.9828,-1.0662],[-73.9733,-1.0816],[-73.9813,-1.1075],[-73.9199,-1.1138],[-73.8808,-1.191],[-73.8572,-1.2105],[-73.8025,-1.2236],[-73.7547,-1.1833],[-73.7324,-1.2165],[-73.6366,-1.2552],[-73.6182,-1.3061],[-73.5971,-1.3061],[-73.589,-1.3503],[-73.5629,-1.3722],[-73.5834,-1.4017],[-73.5742,-1.4169],[-73.5371,-1.4343],[-73.4972,-1.478],[-73.4845,-1.5725],[-73.5174,-1.602],[-73.531,-1.6737],[-73.4463,-1.7381],[-73.4401,-1.7587],[-73.3871,-1.7609],[-73.3505,-1.7906],[-73.3166,-1.7654],[-73.2677,-1.7722],[-73.2573,-1.7424],[-73.193,-1.7887],[-73.1936,-1.8368],[-73.1589,-1.8952],[-73.1687,-1.9593],[-73.1111,-2.0734],[-73.1499,-2.1436],[-73.1953,-2.1872],[-73.1978,-2.2136],[-73.1663,-2.2555],[-73.1589,-2.293],[-73.0989,-2.3149],[-73.0838,-2.3451],[-73.0564,-2.2999],[-72.9876,-2.3377],[-72.9354,-2.4253],[-72.87,-2.4118],[-72.8047,-2.3778],[-72.7617,-2.4023],[-72.7337,-2.3676],[-72.7124,-2.4221],[-72.6832,-2.4048],[-72.6443,-2.3341],[-72.563,-2.3831],[-72.4416,-2.4052],[-72.4143,-2.4371],[-72.378,-2.4508],[-72.2838,-2.4332],[-72.2819,-2.4057],[-72.251,-2.3963],[-72.1764,-2.4103],[-72.0894,-2.331],[-72.0615,-2.32],[-71.9487,-2.3241],[-71.8362,-2.1798],[-71.7461,-2.1323],[-71.7314,-2.1899],[-71.6785,-2.1695],[-71.596,-2.2111],[-71.5384,-2.223],[-71.5223,-2.2504],[-71.521,-2.2921],[-71.4981,-2.3151],[-71.4806,-2.2658],[-71.4565,-2.2551],[-71.4116,-2.3266],[-71.4321,-2.3552],[-71.4208,-2.376],[-71.3155,-2.3341],[-71.3076,-2.3478],[-71.2533,-2.3266],[-71.2091,-2.3392],[-71.1619,-2.3102],[-71.1428,-2.2629],[-71.12,-2.2521],[-71.0791,-2.2476],[-71.0297,-2.264],[-71.0206,-2.2589],[-71.032,-2.2108],[-71.0214,-2.1967],[-70.9253,-2.2203],[-70.9046,-2.2111],[-70.7879,-2.3074],[-70.7066,-2.3283],[-70.699,-2.3701],[-70.6637,-2.3982],[-70.6476,-2.4508],[-70.5986,-2.4466],[-70.5961,-2.4165],[-70.5786,-2.4055],[-70.5377,-2.4359],[-70.4845,-2.4525],[-70.4453,-2.4985],[-70.3575,-2.4869],[-70.3449,-2.4966],[-70.3496,-2.5183],[-70.3763,-2.5326],[-70.3646,-2.5576],[-70.2959,-2.5354],[-70.2739,-2.5463],[-70.2361,-2.6251],[-70.2175,-2.6321],[-70.1839,-2.6195],[-70.1505,-2.6692],[-70.1058,-2.6252],[-70.095,-2.6326],[-70.0758,-2.6914],[-70.0506,-2.7151],[-70.7341,-3.782],[-70.6906,-3.7868],[-70.5443,-3.8652],[-70.4909,-3.8785],[-70.4385,-3.8677],[-70.3777,-3.8188],[-70.3111,-3.8293],[-70.217,-3.925],[-70.1884,-4.029],[-70.1617,-4.0556],[-70.0605,-4.1072],[-69.9928,-4.1809],[-69.9626,-4.2643],[-69.9894,-4.3146],[-70.0229,-4.3389],[-70.051,-4.3373],[-70.0811,-4.3088],[-70.0966,-4.2657],[-70.1389,-4.2605],[-70.1573,-4.2702],[-70.2056,-4.3429],[-70.2313,-4.3037],[-70.2576,-4.2992],[-70.3167,-4.247],[-70.3111,-4.1709],[-70.3306,-4.1432],[-70.3431,-4.1394],[-70.3614,-4.1682],[-70.4299,-4.1342],[-70.516,-4.1823],[-70.5341,-4.1468],[-70.5497,-4.1407],[-70.5656,-4.1488],[-70.5853,-4.1945],[-70.6325,-4.1668],[-70.6311,-4.119],[-70.6468,-4.1157],[-70.6629,-4.1222],[-70.6941,-4.1723],[-70.7743,-4.155],[-70.8322,-4.1794],[-70.8483,-4.2044],[-70.8428,-4.2381],[-70.8737,-4.2507],[-70.8964,-4.2998],[-70.9687,-4.3853],[-71.0055,-4.3476],[-71.0293,-4.3858],[-71.0816,-4.3641],[-71.1285,-4.4018],[-71.1525,-4.3917],[-71.1697,-4.3628],[-71.2141,-4.4108],[-71.2417,-4.38],[-71.2648,-4.3755],[-71.3046,-4.3949],[-71.3152,-4.44],[-71.3308,-4.4351],[-71.3633,-4.4592],[-71.387,-4.4349],[-71.4774,-4.4406],[-71.5061,-4.4486],[-71.5246,-4.4852],[-71.5716,-4.4807],[-71.6171,-4.5003],[-71.6134,-4.4793],[-71.6652,-4.5076],[-71.6993,-4.4816],[-71.7402,-4.4956],[-71.7848,-4.4805],[-71.8007,-4.5024],[-71.9072,-4.5184],[-71.9803,-4.5823],[-72.0355,-4.6119],[-72.0711,-4.6051],[-72.108,-4.6643],[-72.2511,-4.7588],[-72.3319,-4.7633],[-72.3447,-4.7826],[-72.3861,-4.794],[-72.4147,-4.8763],[-72.4765,-4.9025],[-72.4951,-4.947],[-72.5464,-4.9582],[-72.6143,-5.0097],[-72.6448,-5.0606],[-72.7476,-5.0551],[-72.7729,-5.0811],[-72.854,-5.0925],[-72.8589,-5.1161],[-72.9179,-5.1321],[-72.9003,-5.1946],[-72.8967,-5.2716],[-72.924,-5.3136],[-72.9735,-5.4661],[-72.9605,-5.5592],[-72.9769,-5.6517],[-73.0014,-5.7088],[-73.14,-5.8785],[-73.2348,-6.0776],[-73.2353,-6.1237],[-73.1777,-6.2024],[-73.1557,-6.3227],[-73.127,-6.3913],[-73.1478,-6.4762],[-73.199,-6.5456],[-73.2336,-6.564],[-73.3707,-6.5839],[-73.5132,-6.6978],[-73.672,-6.8007],[-73.7068,-6.8496],[-73.7594,-6.8874],[-73.7677,-6.9593],[-73.8123,-7.1029],[-73.7345,-7.2251],[-73.7131,-7.3047],[-73.7413,-7.3344],[-73.8259,-7.3374],[-73.902,-7.3734],[-73.9829,-7.3564],[-73.9443,-7.4487],[-73.9587,-7.502],[-73.9845,-7.5294]]]}},{"type":"Feature","id":"Madre de Dios","properties":{"id":"Madre de Dios","iso_code":"PE-MDD","name":"Madre de Dios","name_full":"Madre de Dios","name_ja":"マードレ・デ・ディオス県","center_lonlat":[-70.5621,-11.9616]},"geometry":{"type":"Polygon","coordinates":[[[-68.9739,-13.0318],[-69.6214,-13.3467],[-70.3213,-13.0145],[-70.3558,-13.0246],[-70.5672,-13.0099],[-70.5824,-13.0292],[-70.5771,-13.0419],[-70.5214,-13.0877],[-70.5211,-13.0996],[-70.5535,-13.1177],[-70.6784,-13.1252],[-71.0185,-13.0742],[-71.1749,-12.9823],[-71.3271,-12.9413],[-71.4856,-12.8692],[-71.6111,-12.8685],[-71.7981,-12.8101],[-71.8548,-12.7765],[-71.913,-12.6675],[-71.8907,-12.5575],[-71.9121,-12.4783],[-71.9757,-12.3442],[-71.9982,-12.3235],[-72.0658,-12.3102],[-72.1061,-12.2877],[-72.1723,-12.1173],[-72.3389,-12.0226],[-72.3664,-11.9863],[-72.3838,-11.8874],[-72.3495,-11.7212],[-72.3319,-11.6669],[-72.2019,-11.4266],[-72.1805,-11.3132],[-72.1709,-11.2396],[-72.0832,-11.0689],[-72.0905,-11.0393],[-72.1451,-10.9721],[-72.1354,-10.9402],[-72.0595,-10.9409],[-71.9679,-10.9896],[-71.8055,-10.9796],[-71.3513,-10.7491],[-71.2651,-10.7238],[-71.2064,-10.6915],[-70.9942,-10.5334],[-70.8984,-10.4206],[-70.8546,-10.3409],[-70.8369,-10.1685],[-70.8182,-10.1016],[-70.7715,-10.0524],[-70.6387,-9.9559],[-70.6413,-11.0108],[-70.5556,-10.9428],[-70.5341,-10.9381],[-70.4373,-11.0367],[-70.3913,-11.0591],[-70.2894,-11.0648],[-70.1987,-11.0412],[-69.9561,-10.9193],[-69.8083,-10.9272],[-69.7202,-10.9649],[-69.5776,-10.9523],[-68.6843,-12.5025],[-68.7261,-12.566],[-68.7934,-12.6202],[-68.7853,-12.6459],[-68.743,-12.6658],[-68.7661,-12.7105],[-68.8766,-12.755],[-68.9046,-12.804],[-68.9266,-12.801],[-68.9494,-12.8439],[-68.981,-12.8679],[-68.9862,-12.9334],[-68.9739,-13.0318]]]}},{"type":"Feature","id":"Moquegua","properties":{"id":"Moquegua","iso_code":"PE-MOQ","name":"Moquegua","name_full":"Moquegua","name_ja":"モケグア県","center_lonlat":[-70.8464,-16.853]},"geometry":{"type":"Polygon","coordinates":[[[-71.1758,-17.7933],[-71.2192,-17.7516],[-71.3258,-17.6952],[-71.3844,-17.6978],[-71.3596,-17.6331],[-71.4003,-17.4003],[-71.4885,-17.318],[-71.4233,-17.2588],[-71.3728,-17.168],[-71.3317,-17.0453],[-71.4085,-16.9795],[-71.4473,-16.8881],[-71.4477,-16.8444],[-71.3779,-16.7707],[-71.3065,-16.7352],[-71.3069,-16.6249],[-71.2053,-16.4986],[-71.1328,-16.4675],[-71.0554,-16.4574],[-71.0085,-16.4859],[-70.9594,-16.4626],[-70.9594,-16.358],[-70.8754,-16.2635],[-70.85,-15.9882],[-70.8064,-15.9938],[-70.7386,-16.0399],[-70.6868,-16.0571],[-70.5676,-16.011],[-70.5039,-16.0479],[-70.4307,-16.0499],[-70.4058,-16.0674],[-70.3941,-16.1789],[-70.3426,-16.2132],[-70.3298,-16.2391],[-70.3518,-16.3266],[-70.3049,-16.4642],[-70.2387,-16.5111],[-70.1999,-16.5693],[-70.1322,-16.6344],[-70.0444,-16.6562],[-70.0208,-16.6904],[-70.0938,-16.7641],[-70.1685,-16.7894],[-70.1799,-16.8076],[-70.178,-16.8701],[-70.1999,-16.9226],[-70.2402,-16.9392],[-70.2801,-16.9201],[-70.332,-16.8304],[-70.3937,-16.8172],[-70.433,-16.8356],[-70.4626,-16.8703],[-70.4902,-16.9525],[-70.4768,-17.0602],[-70.5163,-17.1154],[-70.5969,-17.2035],[-70.7082,-17.2583],[-70.7897,-17.3743],[-70.8265,-17.4798],[-70.8919,-17.5469],[-70.9242,-17.6164],[-71.0893,-17.6932],[-71.136,-17.73],[-71.1758,-17.7933]]]}},{"type":"Feature","id":"Pasco","properties":{"id":"Pasco","iso_code":"PE-PAS","name":"Pasco","name_full":"Pasco","name_ja":"パスコ県","center_lonlat":[-75.3797,-10.4016]},"geometry":{"type":"Polygon","coordinates":[[[-74.5383,-9.6499],[-74.4795,-9.7427],[-74.4405,-9.8472],[-74.4378,-9.9543],[-74.3616,-10.1135],[-74.3726,-10.2998],[-74.2986,-10.4967],[-74.1934,-10.5471],[-74.1671,-10.5805],[-74.1739,-10.6034],[-74.275,-10.6483],[-74.4127,-10.7804],[-74.5085,-10.8482],[-74.6848,-10.8512],[-74.7805,-10.8242],[-74.9617,-10.7048],[-75.0435,-10.6825],[-75.1235,-10.7322],[-75.3122,-10.786],[-75.4457,-10.7934],[-75.7539,-10.8852],[-75.9932,-10.8898],[-76.0454,-10.8487],[-76.1246,-10.9044],[-76.176,-10.9204],[-76.2741,-10.9047],[-76.2785,-11.0825],[-76.4072,-11.1027],[-76.4883,-11.0977],[-76.4976,-11.0454],[-76.5656,-10.9943],[-76.5726,-10.8295],[-76.638,-10.7419],[-76.6547,-10.6636],[-76.75,-10.4438],[-76.657,-10.3795],[-76.5805,-10.2796],[-76.5127,-10.261],[-76.35,-10.2681],[-76.2857,-10.3026],[-76.237,-10.3625],[-76.0347,-10.3777],[-75.9458,-10.426],[-75.8064,-10.3644],[-75.7696,-10.3297],[-75.792,-10.2773],[-75.83,-10.0753],[-75.8104,-9.978],[-75.7476,-9.9212],[-75.6897,-9.9007],[-75.4948,-9.8979],[-75.3529,-9.8753],[-75.1181,-9.7735],[-74.9833,-9.7919],[-74.7631,-9.7542],[-74.5383,-9.6499]]]}},{"type":"Feature","id":"Piura","properties":{"id":"Piura","iso_code":"PE-PIU","name":"Piura","name_full":"Piura","name_ja":"ピウラ県","center_lonlat":[-80.349,-5.1391]},"geometry":{"type":"MultiPolygon","coordinates":[[[[-80.5123,-4.065],[-80.5141,-4.0834],[-80.4872,-4.1313],[-80.4908,-4.169],[-80.4696,-4.2132],[-80.3453,-4.1985],[-80.4885,-4.396],[-80.4923,-4.413],[-80.47,-4.4461],[-80.4085,-4.4775],[-80.3829,-4.4763],[-80.2554,-4.3868],[-80.205,-4.2982],[-80.1402,-4.2831],[-80.0797,-4.309],[-79.982,-4.3886],[-79.9041,-4.3986],[-79.8329,-4.479],[-79.7957,-4.4847],[-79.658,-4.4387],[-79.5798,-4.5023],[-79.5016,-4.541],[-79.5279,-4.6181],[-79.4987,-4.6606],[-79.4506,-4.8102],[-79.3953,-4.8476],[-79.3781,-4.8848],[-79.341,-4.9042],[-79.3032,-4.9612],[-79.2337,-4.9656],[-79.2664,-5.004],[-79.2759,-5.0434],[-79.3094,-5.0585],[-79.3262,-5.0974],[-79.3884,-5.1719],[-79.366,-5.2434],[-79.3616,-5.3119],[-79.3295,-5.3424],[-79.321,-5.4802],[-79.325,-5.5009],[-79.3918,-5.4993],[-79.4093,-5.5448],[-79.398,-5.6059],[-79.419,-5.7444],[-79.3965,-5.8307],[-79.3649,-5.8669],[-79.3553,-5.9068],[-79.4511,-5.989],[-79.4696,-5.9575],[-79.5292,-5.9328],[-79.6274,-5.9401],[-79.6879,-5.865],[-79.7654,-5.8412],[-79.771,-5.8104],[-79.75,-5.7454],[-79.8146,-5.6521],[-79.9493,-5.5474],[-79.96,-5.5744],[-79.9432,-5.6722],[-79.9398,-5.7762],[-79.9501,-5.822],[-79.9942,-5.8537],[-80.329,-5.9588],[-80.4498,-6.0996],[-80.4893,-6.1912],[-80.5744,-6.3183],[-80.6307,-6.3777],[-80.7905,-6.2997],[-80.8531,-6.2395],[-81.1015,-6.0721],[-81.1308,-6.0346],[-81.1514,-5.9759],[-81.1502,-5.8831],[-81.1189,-5.8399],[-81.0963,-5.8386],[-81.0752,-5.7868],[-81.0575,-5.788],[-81.0383,-5.8181],[-80.9716,-5.846],[-80.9399,-5.8508],[-80.9034,-5.8146],[-80.864,-5.7439],[-80.8562,-5.6505],[-80.9318,-5.4638],[-81.0722,-5.3189],[-81.1076,-5.3175],[-81.1316,-5.3004],[-81.1985,-5.2081],[-81.166,-5.1643],[-81.1778,-5.1429],[-81.1626,-5.1263],[-81.1714,-5.0873],[-81.1628,-5.0726],[-81.1291,-5.0647],[-81.1126,-5.0816],[-81.0828,-5.0792],[-81.0634,-5.022],[-81.085,-4.9745],[-81.1494,-4.917],[-81.2234,-4.8065],[-81.3376,-4.6783],[-81.3053,-4.6436],[-81.3165,-4.6013],[-81.3075,-4.5343],[-81.3289,-4.4767],[-81.2795,-4.3964],[-81.289,-4.2978],[-81.2528,-4.2387],[-81.1656,-4.1794],[-81.1103,-4.1076],[-81.0625,-4.0857],[-80.9765,-4.1566],[-80.928,-4.1693],[-80.8191,-4.1653],[-80.6773,-4.2117],[-80.5123,-4.065]]],[[[-80.843,-6.3816],[-80.8554,-6.4055],[-80.8418,-6.4289],[-80.8396,-6.4752],[-80.8638,-6.4758],[-80.8754,-6.4331],[-80.8531,-6.375],[-80.843,-6.3816]]]]}},{"type":"Feature","id":"Puno","properties":{"id":"Puno","iso_code":"PE-PUN","name":"Puno","name_full":"Puno","name_ja":"プーノ県","center_lonlat":[-69.9426,-14.9943]},"geometry":{"type":"Polygon","coordinates":[[[-68.9739,-13.0318],[-68.9797,-13.1646],[-68.9628,-13.2836],[-68.9707,-13.5014],[-68.9857,-13.5502],[-69.0232,-13.5969],[-69.0238,-13.635],[-69.044,-13.648],[-69.0876,-13.6439],[-69.1016,-13.6666],[-69.016,-13.7531],[-69.0231,-13.806],[-68.993,-13.8698],[-68.983,-13.9722],[-68.9058,-14.0393],[-68.8644,-14.1912],[-68.8837,-14.2115],[-68.9849,-14.2283],[-69.0101,-14.2459],[-69.0162,-14.3211],[-68.9903,-14.379],[-69.1643,-14.503],[-69.1704,-14.5776],[-69.2347,-14.5743],[-69.2475,-14.5937],[-69.2538,-14.7218],[-69.2676,-14.7507],[-69.339,-14.7748],[-69.3705,-14.8015],[-69.3678,-14.9005],[-69.3907,-14.9644],[-69.3843,-14.9818],[-69.3461,-15.0165],[-69.2886,-15.102],[-69.2127,-15.1613],[-69.1481,-15.2333],[-69.1661,-15.2639],[-69.2091,-15.2636],[-69.2226,-15.3022],[-69.2559,-15.3133],[-69.2912,-15.3508],[-69.2859,-15.4054],[-69.3304,-15.4242],[-69.3434,-15.4422],[-69.3564,-15.5014],[-69.43,-15.6263],[-69.2196,-16.1528],[-69.1849,-16.195],[-69.1208,-16.2312],[-69.0952,-16.2312],[-69.0536,-16.2084],[-69.0101,-16.2191],[-68.982,-16.21],[-68.9188,-16.2667],[-68.8436,-16.302],[-68.8335,-16.329],[-68.8558,-16.3632],[-69.0017,-16.4228],[-69.0279,-16.4541],[-69.0401,-16.5814],[-69.0083,-16.6342],[-69.0371,-16.6702],[-69.1121,-16.7115],[-69.1824,-16.7287],[-69.2245,-16.8182],[-69.3259,-16.9222],[-69.3643,-16.9912],[-69.4136,-17.0223],[-69.406,-17.063],[-69.4274,-17.0869],[-69.5101,-17.1121],[-69.5951,-17.1797],[-69.6228,-17.1856],[-69.6644,-17.2886],[-69.7336,-17.2969],[-69.7746,-17.2419],[-69.8365,-17.2479],[-70.0165,-17.1383],[-70.178,-16.8701],[-70.1799,-16.8076],[-70.1685,-16.7894],[-70.0938,-16.7641],[-70.0208,-16.6904],[-70.0444,-16.6562],[-70.1322,-16.6344],[-70.1999,-16.5693],[-70.2387,-16.5111],[-70.3049,-16.4642],[-70.3518,-16.3266],[-70.3298,-16.2391],[-70.3426,-16.2132],[-70.3941,-16.1789],[-70.4058,-16.0674],[-70.4307,-16.0499],[-70.5039,-16.0479],[-70.5676,-16.011],[-70.6868,-16.0571],[-70.7386,-16.0399],[-70.8064,-15.9938],[-70.85,-15.9882],[-70.8423,-15.9077],[-70.8834,-15.8782],[-70.9373,-15.7863],[-70.9032,-15.7058],[-70.9054,-15.68],[-71.014,-15.557],[-71.0097,-15.4913],[-71.0325,-15.4314],[-71.0294,-15.3341],[-70.9875,-15.3133],[-70.9786,-15.2885],[-70.9764,-15.2097],[-71.0104,-15.1138],[-70.9997,-15.0491],[-71.0163,-15.0191],[-71.0153,-14.9892],[-70.9845,-14.9356],[-71.0014,-14.8378],[-70.9899,-14.7919],[-70.9999,-14.768],[-71.0769,-14.7447],[-71.1262,-14.6637],[-71.1189,-14.6491],[-71.0536,-14.6344],[-70.9901,-14.5738],[-71.0035,-14.5181],[-70.9789,-14.4434],[-70.9611,-14.4301],[-70.9091,-14.4321],[-70.8894,-14.4102],[-70.8317,-14.2274],[-70.809,-14.0947],[-70.82,-14.0497],[-70.8499,-14.0118],[-70.8175,-13.8263],[-70.6817,-13.788],[-70.5409,-13.4876],[-70.4027,-13.3382],[-70.3699,-13.2543],[-70.3847,-13.1724],[-70.3558,-13.0246],[-70.3213,-13.0145],[-69.6214,-13.3467],[-68.9739,-13.0318]]]}},{"type":"Feature","id":"San Martin","properties":{"id":"San Martin","iso_code":"PE-SAM","name":"San Martin","name_full":"San Martín","name_ja":"サン・マルティン県","center_lonlat":[-76.6796,-7.0708]},"geometry":{"type":"Polygon","coordinates":[[[-77.64,-5.3846],[-77.5485,-5.4582],[-77.3669,-5.5369],[-77.2958,-5.6093],[-77.2045,-5.6734],[-76.9682,-5.6899],[-76.8851,-5.7272],[-76.8059,-5.7991],[-76.7341,-5.9765],[-76.6546,-6.0382],[-76.6061,-6.049],[-76.5574,-6.0417],[-76.3835,-5.9257],[-76.3157,-5.9213],[-76.285,-5.9407],[-76.1591,-6.0821],[-76.121,-6.1061],[-76.0628,-6.1204],[-75.8455,-6.1079],[-75.6682,-6.1473],[-75.5752,-6.1901],[-75.5066,-6.2588],[-75.4786,-6.3051],[-75.4663,-6.3566],[-75.4943,-6.6912],[-75.5176,-6.784],[-75.604,-6.925],[-75.6431,-6.943],[-75.6712,-6.9348],[-75.7944,-6.7953],[-75.8449,-6.7675],[-75.9351,-6.7529],[-76.0112,-6.7849],[-76.043,-6.8327],[-76.1102,-6.9933],[-76.0845,-7.1089],[-76.0985,-7.3284],[-76.0797,-7.4364],[-75.8151,-8.0136],[-75.7776,-8.1487],[-75.7894,-8.2053],[-75.9011,-8.3486],[-75.9527,-8.5682],[-76.0118,-8.6074],[-76.0795,-8.7147],[-76.1079,-8.7351],[-76.1459,-8.7291],[-76.1737,-8.697],[-76.2045,-8.5747],[-76.2785,-8.4705],[-76.2866,-8.4175],[-76.3129,-8.3797],[-76.3423,-8.3888],[-76.3569,-8.4098],[-76.3644,-8.5503],[-76.3898,-8.5921],[-76.4575,-8.6004],[-76.7716,-8.538],[-76.8563,-8.5557],[-76.8795,-8.5116],[-76.9059,-8.2624],[-76.9754,-8.17],[-77.047,-8.1294],[-77.232,-8.0702],[-77.3204,-8.0834],[-77.3469,-8.0766],[-77.404,-8.0033],[-77.3891,-7.9284],[-77.4578,-7.8041],[-77.4764,-7.721],[-77.4502,-7.5724],[-77.5933,-7.4015],[-77.6214,-7.3384],[-77.6288,-7.2822],[-77.6028,-7.2283],[-77.6008,-7.1951],[-77.6824,-7.1225],[-77.7066,-7.0477],[-77.7424,-6.994],[-77.7753,-6.9592],[-77.7814,-6.9212],[-77.7496,-6.8027],[-77.732,-6.6144],[-77.7166,-6.5875],[-77.6902,-6.5715],[-77.6712,-6.5746],[-77.566,-6.6183],[-77.4472,-6.6172],[-77.3795,-6.5995],[-77.3436,-6.5742],[-77.2965,-6.4678],[-77.1637,-6.3398],[-77.1963,-6.2114],[-77.2547,-6.1211],[-77.3577,-6.0697],[-77.5537,-6.009],[-77.594,-5.9608],[-77.715,-5.7234],[-77.7247,-5.6804],[-77.6992,-5.6157],[-77.716,-5.4879],[-77.678,-5.4164],[-77.64,-5.3846]]]}},{"type":"Feature","id":"Tacna","properties":{"id":"Tacna","iso_code":"PE-TAC","name":"Tacna","name_full":"Tacna","name_ja":"タクナ県","center_lonlat":[-70.3043,-17.6467]},"geometry":{"type":"Polygon","coordinates":[[[-71.1758,-17.7933],[-71.136,-17.73],[-71.0893,-17.6932],[-70.9242,-17.6164],[-70.8919,-17.5469],[-70.8265,-17.4798],[-70.7897,-17.3743],[-70.7082,-17.2583],[-70.5969,-17.2035],[-70.5163,-17.1154],[-70.4768,-17.0602],[-70.4902,-16.9525],[-70.4626,-16.8703],[-70.433,-16.8356],[-70.3937,-16.8172],[-70.332,-16.8304],[-70.2801,-16.9201],[-70.2402,-16.9392],[-70.1999,-16.9226],[-70.178,-16.8701],[-70.0165,-17.1383],[-69.8365,-17.2479],[-69.7746,-17.2419],[-69.7336,-17.2969],[-69.6644,-17.2886],[-69.5973,-17.3005],[-69.5226,-17.3691],[-69.5114,-17.3987],[-69.5101,-17.5066],[-69.6839,-17.656],[-69.8181,-17.6591],[-69.8498,-17.6916],[-69.8576,-17.7342],[-69.829,-17.8038],[-69.8128,-17.8883],[-69.7824,-17.9439],[-69.7831,-17.9816],[-69.8653,-18.1446],[-69.9703,-18.2506],[-70.1342,-18.3189],[-70.2109,-18.3312],[-70.3694,-18.3247],[-70.3947,-18.3377],[-70.5313,-18.2433],[-70.6833,-18.1617],[-70.7477,-18.0944],[-70.8262,-18.0367],[-70.8789,-18.0167],[-70.9146,-17.9465],[-71.0072,-17.8902],[-71.0866,-17.8691],[-71.1758,-17.7933]]]}},{"type":"Feature","id":"Tumbes","properties":{"id":"Tumbes","iso_code":"PE-TUM","name":"Tumbes","name_full":"Tumbes","name_ja":"トゥンベス県","center_lonlat":[-80.5722,-3.8458]},"geometry":{"type":"Polygon","coordinates":[[[-80.5123,-4.065],[-80.6773,-4.2117],[-80.8191,-4.1653],[-80.928,-4.1693],[-80.9765,-4.1566],[-81.0625,-4.0857],[-80.9929,-3.9721],[-80.8678,-3.8727],[-80.8524,-3.8083],[-80.8076,-3.7394],[-80.6131,-3.6157],[-80.5362,-3.5053],[-80.4937,-3.4892],[-80.4242,-3.4915],[-80.3845,-3.4787],[-80.3682,-3.4655],[-80.3407,-3.3935],[-80.2657,-3.4264],[-80.2716,-3.4855],[-80.2403,-3.514],[-80.25,-3.5777],[-80.225,-3.5919],[-80.2164,-3.6316],[-80.2263,-3.7493],[-80.1927,-3.8216],[-80.1888,-3.8577],[-80.1653,-3.89],[-80.2591,-3.9437],[-80.3046,-4.0052],[-80.3255,-4.0154],[-80.4071,-3.9824],[-80.4661,-3.9881],[-80.492,-4.0149],[-80.5123,-4.065]]]}},{"type":"Feature","id":"Ucayali","properties":{"id":"Ucayali","iso_code":"PE-UCA","name":"Ucayali","name_full":"Ucayali","name_ja":"ウカヤリ県","center_lonlat":[-73.4492,-9.6277]},"geometry":{"type":"Polygon","coordinates":[[[-73.9845,-7.5294],[-74.0185,-7.5435],[-74.0097,-7.5611],[-73.9694,-7.5847],[-73.8388,-7.7206],[-73.7122,-7.7882],[-73.7026,-7.8278],[-73.7137,-7.8663],[-73.7461,-7.8864],[-73.7946,-7.8741],[-73.7849,-7.9404],[-73.7485,-7.977],[-73.668,-8.0138],[-73.6011,-8.1361],[-73.6033,-8.2116],[-73.5617,-8.2727],[-73.5408,-8.3591],[-73.4473,-8.4161],[-73.4102,-8.4555],[-73.3564,-8.4798],[-73.3506,-8.5983],[-73.2899,-8.6705],[-73.211,-8.6939],[-73.1746,-8.7207],[-73.0686,-8.8937],[-73.0167,-8.9304],[-72.9761,-8.9854],[-72.9594,-9.0856],[-72.972,-9.1344],[-73.0279,-9.1831],[-73.0344,-9.2226],[-73.0902,-9.2442],[-73.215,-9.409],[-72.8133,-9.4109],[-72.6723,-9.4467],[-72.6365,-9.4429],[-72.5356,-9.4816],[-72.4095,-9.4863],[-72.3445,-9.5329],[-72.3127,-9.5325],[-72.3041,-9.6009],[-72.2617,-9.6674],[-72.277,-9.7243],[-72.2652,-9.7622],[-72.1947,-9.8058],[-72.1629,-9.8772],[-72.1957,-10.0056],[-71.3914,-10.0068],[-71.3396,-9.9798],[-71.2997,-9.9934],[-71.1965,-9.9399],[-71.1443,-9.8631],[-70.9972,-9.8035],[-70.969,-9.7549],[-70.9203,-9.7201],[-70.8755,-9.6605],[-70.6808,-9.5277],[-70.6064,-9.4488],[-70.525,-9.4309],[-70.5433,-9.4935],[-70.5619,-9.5017],[-70.5551,-9.516],[-70.5762,-9.5291],[-70.5645,-9.5654],[-70.6244,-9.5658],[-70.6008,-9.6353],[-70.5419,-9.7082],[-70.5691,-9.7791],[-70.5952,-9.779],[-70.629,-9.8116],[-70.6387,-9.9559],[-70.7715,-10.0524],[-70.8182,-10.1016],[-70.8369,-10.1685],[-70.8546,-10.3409],[-70.8984,-10.4206],[-70.9942,-10.5334],[-71.2064,-10.6915],[-71.2651,-10.7238],[-71.3513,-10.7491],[-71.8055,-10.9796],[-71.9679,-10.9896],[-72.0595,-10.9409],[-72.1354,-10.9402],[-72.1451,-10.9721],[-72.0905,-11.0393],[-72.0832,-11.0689],[-72.1709,-11.2396],[-72.1805,-11.3132],[-72.2199,-11.3044],[-72.2571,-11.3132],[-72.2953,-11.2934],[-72.4092,-11.3317],[-72.5327,-11.4189],[-72.5775,-11.4293],[-72.688,-11.3894],[-72.7198,-11.3507],[-72.7677,-11.369],[-72.8225,-11.3704],[-72.9092,-11.3285],[-72.9351,-11.3089],[-72.9913,-11.1996],[-73.0536,-11.2665],[-73.0948,-11.2847],[-73.2633,-11.3125],[-73.3351,-11.3116],[-73.4061,-11.3304],[-73.4352,-11.3241],[-73.4777,-11.2841],[-73.5134,-11.1953],[-73.4961,-10.998],[-73.5656,-10.8657],[-73.6434,-10.7899],[-73.7593,-10.7572],[-73.8864,-10.9401],[-73.9278,-10.9705],[-74.0327,-10.9717],[-74.1977,-11.0112],[-74.2952,-11.0132],[-74.3849,-11.0503],[-74.4474,-11.0323],[-74.4745,-10.9914],[-74.5085,-10.8482],[-74.4127,-10.7804],[-74.275,-10.6483],[-74.1739,-10.6034],[-74.1671,-10.5805],[-74.1934,-10.5471],[-74.2986,-10.4967],[-74.3726,-10.2998],[-74.3616,-10.1135],[-74.4378,-9.9543],[-74.4405,-9.8472],[-74.4795,-9.7427],[-74.5383,-9.6499],[-74.7016,-9.415],[-74.7199,-9.3553],[-74.6701,-9.1734],[-74.6791,-9.069],[-74.6288,-8.9663],[-74.6136,-8.8232],[-74.5183,-8.7582],[-74.5097,-8.737],[-74.523,-8.6743],[-74.5474,-8.643],[-74.5867,-8.6261],[-74.6786,-8.619],[-74.731,-8.6306],[-74.8023,-8.6587],[-74.9052,-8.7424],[-74.9664,-8.7721],[-75.0734,-8.8793],[-75.1661,-9.0137],[-75.237,-9.1546],[-75.2959,-9.2305],[-75.4361,-9.2845],[-75.5567,-9.3838],[-75.6157,-9.4066],[-75.6622,-9.3958],[-75.721,-9.2903],[-75.7829,-9.2329],[-75.7989,-9.092],[-75.8327,-9.0316],[-75.8826,-8.9973],[-75.9037,-8.7974],[-75.9695,-8.6845],[-75.9741,-8.6452],[-75.8732,-8.5984],[-75.625,-8.3844],[-75.5738,-8.3946],[-75.4727,-8.4732],[-75.4294,-8.4808],[-75.4163,-8.472],[-75.4233,-8.4296],[-75.499,-8.3302],[-75.5064,-8.2536],[-75.4641,-8.2086],[-75.3921,-8.1932],[-75.3487,-8.1047],[-75.3096,-8.1168],[-75.1362,-8.1056],[-75.0004,-8.0294],[-74.9185,-8.0021],[-74.6913,-7.9639],[-74.5843,-7.909],[-74.5553,-7.8675],[-74.549,-7.7623],[-74.5649,-7.6717],[-74.5624,-7.5732],[-74.6077,-7.3815],[-74.5879,-7.3278],[-74.5191,-7.3263],[-74.3767,-7.3996],[-74.2306,-7.4171],[-74.0674,-7.4778],[-73.9845,-7.5294]]]}}]}
