{"type":"FeatureCollection","features":[{"type":"Feature","id":"Greater Poland Voivodeship","properties":{"id":"Greater Poland Voivodeship","iso_code":"PL-WP","name":"Greater Poland Voivodeship","name_full":"Greater Poland Voivodeship","name_ja":"ヴィエルコポルスカ県","center_lonlat":[17.2485,52.2831]},"geometry":{"type":"Polygon","coordinates":[[[19.0402,52.2784],[19.0419,52.2462],[19.0786,52.2088],[19.0166,52.1723],[18.9169,52.1461],[18.8973,52.0555],[18.8466,52.0187],[18.7135,52.0097],[18.6926,51.9448],[18.7227,51.8774],[18.7187,51.8459],[18.6706,51.7934],[18.5145,51.7955],[18.4572,51.7787],[18.4314,51.7568],[18.3591,51.6269],[18.3657,51.4526],[18.3378,51.405],[18.2903,51.3837],[18.2358,51.4005],[18.1859,51.3911],[18.1441,51.3348],[18.071,51.3247],[18.0548,51.3025],[18.0576,51.2701],[18.0763,51.2424],[18.1336,51.2103],[18.1501,51.1361],[18.0358,51.0932],[17.9174,51.0658],[17.8537,51.068],[17.8012,51.0948],[17.7822,51.1407],[17.7146,51.1502],[17.6902,51.3026],[17.7184,51.3447],[17.6443,51.3694],[17.583,51.3617],[17.5239,51.3703],[17.5007,51.407],[17.4952,51.4503],[17.5328,51.4816],[17.5566,51.535],[17.4573,51.5751],[17.3468,51.594],[17.2293,51.5943],[17.1874,51.5889],[17.1496,51.5354],[16.943,51.5127],[16.8277,51.5383],[16.7731,51.5759],[16.6761,51.6095],[16.6328,51.6571],[16.6295,51.6897],[16.6118,51.7149],[16.4585,51.7596],[16.3711,51.7492],[16.3399,51.8237],[16.2747,51.8682],[16.2015,51.8375],[16.1132,51.8649],[16.0984,51.8917],[16.1105,51.9654],[16.0394,51.9676],[16.0039,51.9896],[15.963,52.0468],[15.9079,52.0649],[15.857,52.1037],[15.8498,52.169],[15.9012,52.287],[15.899,52.3485],[15.8366,52.4242],[15.8849,52.4333],[15.885,52.4633],[15.8649,52.5348],[15.8296,52.5938],[15.8311,52.6933],[15.9672,52.7274],[15.9768,52.7431],[15.9553,52.7923],[15.9246,52.8096],[16.0219,52.8853],[16.0186,52.9491],[16.0385,53.0067],[16.155,52.9736],[16.2788,52.9932],[16.3753,53.0482],[16.4562,53.1247],[16.7036,53.2058],[16.7579,53.2537],[16.7516,53.2824],[16.7204,53.3064],[16.6078,53.3296],[16.5451,53.366],[16.5285,53.4415],[16.5511,53.4606],[16.7653,53.4612],[16.7908,53.525],[16.8365,53.5852],[16.8722,53.5946],[16.9477,53.5882],[17.0372,53.5093],[17.0957,53.4881],[17.2993,53.4831],[17.3528,53.4656],[17.3972,53.4338],[17.2975,53.3403],[17.3089,53.3104],[17.3939,53.2706],[17.4421,53.2055],[17.3507,53.1591],[17.3594,53.1168],[17.3904,53.081],[17.3762,53.0187],[17.3313,52.9562],[17.4126,52.9385],[17.4885,52.9042],[17.5375,52.8389],[17.5161,52.7681],[17.5042,52.7545],[17.4533,52.7438],[17.4466,52.718],[17.4826,52.697],[17.5182,52.654],[17.5589,52.6493],[17.6165,52.6672],[17.6477,52.6512],[17.6686,52.6151],[17.8132,52.5957],[17.8886,52.5708],[17.9909,52.5136],[18.0973,52.4925],[18.1586,52.4518],[18.2599,52.4354],[18.2941,52.4449],[18.3523,52.4866],[18.3859,52.4773],[18.4248,52.4256],[18.449,52.4209],[18.4921,52.4423],[18.5461,52.4336],[18.7415,52.329],[18.7689,52.2911],[18.9451,52.323],[19.0402,52.2784]]]}},{"type":"Feature","id":"Kuyavian-Pomeranian Voivodeship","properties":{"id":"Kuyavian-Pomeranian Voivodeship","iso_code":"PL-KP","name":"Kuyavian-Pomeranian Voivodeship","name_full":"Kuyavian-Pomeranian Voivodeship","name_ja":"クヤヴィ＝ポモージェ県","center_lonlat":[18.5013,53.0222]},"geometry":{"type":"Polygon","coordinates":[[[19.7479,53.0931],[19.6487,53.0553],[19.6635,52.9872],[19.6458,52.9309],[19.5889,52.9451],[19.5073,52.8945],[19.4584,52.8983],[19.4739,52.8573],[19.4688,52.8204],[19.4404,52.7868],[19.497,52.7048],[19.4979,52.6717],[19.455,52.6647],[19.3611,52.5124],[19.3559,52.474],[19.3764,52.4612],[19.3804,52.4426],[19.3066,52.3681],[19.2959,52.3342],[19.2573,52.3325],[19.2357,52.3099],[19.1978,52.3029],[19.0744,52.3014],[19.0402,52.2784],[18.9451,52.323],[18.7689,52.2911],[18.7415,52.329],[18.5461,52.4336],[18.4921,52.4423],[18.449,52.4209],[18.4248,52.4256],[18.3859,52.4773],[18.3523,52.4866],[18.2941,52.4449],[18.2599,52.4354],[18.1586,52.4518],[18.0973,52.4925],[17.9909,52.5136],[17.8886,52.5708],[17.8132,52.5957],[17.6686,52.6151],[17.6477,52.6512],[17.6165,52.6672],[17.5589,52.6493],[17.5182,52.654],[17.4826,52.697],[17.4466,52.718],[17.4533,52.7438],[17.5042,52.7545],[17.5161,52.7681],[17.5375,52.8389],[17.4885,52.9042],[17.4126,52.9385],[17.3313,52.9562],[17.3762,53.0187],[17.3904,53.081],[17.3594,53.1168],[17.3507,53.1591],[17.4421,53.2055],[17.3939,53.2706],[17.3089,53.3104],[17.2975,53.3403],[17.3972,53.4338],[17.4252,53.444],[17.4554,53.5069],[17.5076,53.5616],[17.6832,53.5424],[17.7455,53.5573],[17.7556,53.6058],[17.8564,53.6388],[17.9241,53.6956],[18.0511,53.681],[18.2557,53.6942],[18.3179,53.6532],[18.4978,53.6354],[18.583,53.6053],[18.6779,53.6321],[18.7594,53.6252],[18.8746,53.5623],[18.9601,53.5375],[19.0741,53.5416],[19.1283,53.5559],[19.2855,53.3645],[19.4045,53.3429],[19.5115,53.3043],[19.6256,53.2864],[19.6813,53.263],[19.7329,53.1846],[19.7479,53.0931]]]}},{"type":"Feature","id":"Lesser Poland Voivodeship","properties":{"id":"Lesser Poland Voivodeship","iso_code":"PL-MA","name":"Lesser Poland Voivodeship","name_full":"Lesser Poland Voivodeship","name_ja":"マウォポルスカ県","center_lonlat":[20.3079,49.8404]},"geometry":{"type":"Polygon","coordinates":[[[19.4489,49.6004],[19.4074,49.6403],[19.4364,49.7099],[19.3688,49.7176],[19.2989,49.7483],[19.2635,49.8031],[19.2125,49.816],[19.1826,49.8506],[19.1805,49.884],[19.1124,49.9202],[19.1237,49.9537],[19.1679,50.0039],[19.405,50.175],[19.3053,50.2505],[19.3368,50.2662],[19.4036,50.26],[19.5017,50.3611],[19.5827,50.3408],[19.6967,50.3885],[19.8392,50.3943],[19.9656,50.4449],[19.9563,50.4845],[20.0507,50.4844],[20.1237,50.4483],[20.2076,50.4314],[20.2846,50.3986],[20.3644,50.2716],[20.4287,50.205],[20.5021,50.1767],[20.6335,50.1744],[20.6797,50.2179],[20.726,50.2365],[20.7335,50.2573],[20.7711,50.2744],[20.7839,50.2978],[20.8222,50.2744],[20.9597,50.3138],[21.0491,50.318],[21.1202,50.3486],[21.1813,50.3358],[21.2502,50.3973],[21.2663,50.392],[21.277,50.4096],[21.2953,50.4108],[21.284,50.3267],[21.2162,50.2382],[21.2101,50.1821],[21.237,50.0312],[21.228,49.9482],[21.2662,49.9066],[21.3322,49.8921],[21.3455,49.8635],[21.2463,49.8139],[21.229,49.7891],[21.3662,49.7417],[21.4263,49.6997],[21.4609,49.6299],[21.4588,49.5597],[21.4772,49.4868],[21.5144,49.4172],[21.4279,49.4098],[21.2605,49.4494],[21.1941,49.4006],[21.1726,49.3983],[21.1249,49.4237],[21.0688,49.4192],[21.0333,49.3997],[21.0685,49.3814],[21.0807,49.3663],[21.0725,49.3572],[21.0172,49.3524],[20.964,49.3081],[20.919,49.2903],[20.8493,49.3205],[20.7783,49.3312],[20.6895,49.4005],[20.6053,49.4],[20.544,49.3708],[20.4375,49.4025],[20.4219,49.4002],[20.4221,49.383],[20.3177,49.3916],[20.2844,49.3386],[20.2072,49.3342],[20.1604,49.3056],[20.1359,49.3089],[20.086,49.243],[20.07,49.1831],[20.0505,49.1732],[19.9379,49.2251],[19.9059,49.2228],[19.832,49.1859],[19.7859,49.1882],[19.7478,49.2059],[19.8086,49.2709],[19.7797,49.2934],[19.7895,49.3092],[19.7693,49.3931],[19.7063,49.3875],[19.627,49.4019],[19.6348,49.4413],[19.5568,49.4539],[19.5052,49.5634],[19.4489,49.6004]]]}},{"type":"Feature","id":"Lower Silesian Voivodeship","properties":{"id":"Lower Silesian Voivodeship","iso_code":"PL-DS","name":"Lower Silesian Voivodeship","name_full":"Lower Silesian Voivodeship","name_ja":"ドルヌィ・シロンスク県","center_lonlat":[16.3732,51.0748]},"geometry":{"type":"Polygon","coordinates":[[[14.9506,51.3965],[15.1294,51.4556],[15.1583,51.456],[15.2171,51.4241],[15.2462,51.4226],[15.3301,51.5019],[15.4033,51.5178],[15.5439,51.4695],[15.6147,51.4804],[15.7254,51.5716],[15.8238,51.6912],[15.9105,51.7272],[15.9448,51.7699],[16.0965,51.7523],[16.1232,51.7345],[16.1265,51.6999],[16.182,51.6558],[16.2612,51.6668],[16.3221,51.6999],[16.3711,51.7492],[16.4585,51.7596],[16.6118,51.7149],[16.6295,51.6897],[16.6328,51.6571],[16.6761,51.6095],[16.7731,51.5759],[16.8277,51.5383],[16.943,51.5127],[17.1496,51.5354],[17.1874,51.5889],[17.2293,51.5943],[17.3468,51.594],[17.4573,51.5751],[17.5566,51.535],[17.5328,51.4816],[17.4952,51.4503],[17.5007,51.407],[17.5239,51.3703],[17.583,51.3617],[17.6443,51.3694],[17.7184,51.3447],[17.6902,51.3026],[17.7146,51.1502],[17.5797,51.1268],[17.5538,51.1091],[17.4956,51.0248],[17.4625,50.944],[17.3833,50.8917],[17.3475,50.8392],[17.2642,50.7611],[17.1334,50.5787],[17.0728,50.5724],[17.0204,50.5468],[16.944,50.4203],[16.893,50.4329],[16.8658,50.4224],[16.8659,50.4084],[16.8979,50.3782],[16.9265,50.3193],[16.9878,50.2849],[17.0128,50.2317],[17.0084,50.21],[16.9603,50.232],[16.9553,50.2135],[16.919,50.2171],[16.881,50.1916],[16.8177,50.1868],[16.7012,50.0949],[16.6606,50.093],[16.5667,50.1422],[16.535,50.2077],[16.4378,50.298],[16.3532,50.3335],[16.3437,50.37],[16.2625,50.3644],[16.232,50.4026],[16.1996,50.4063],[16.1902,50.4242],[16.198,50.44],[16.218,50.4371],[16.2112,50.4513],[16.2877,50.4928],[16.3526,50.4928],[16.3912,50.5218],[16.3945,50.5593],[16.4259,50.5676],[16.4168,50.5866],[16.3316,50.644],[16.232,50.6609],[16.1755,50.6241],[16.0865,50.6468],[16.0245,50.6086],[15.982,50.6036],[15.9986,50.6356],[15.9715,50.6786],[15.9415,50.6884],[15.8482,50.6752],[15.7922,50.7427],[15.6843,50.7314],[15.6419,50.7558],[15.4418,50.8002],[15.4001,50.798],[15.3703,50.7726],[15.3561,50.7755],[15.341,50.8317],[15.2878,50.8549],[15.2561,50.8999],[15.2698,50.9527],[15.2271,50.9774],[15.1702,50.978],[15.1444,51.0116],[15.1079,50.981],[15.004,51.0207],[14.961,50.9927],[14.9966,50.9592],[14.9978,50.9302],[14.9811,50.9091],[14.9821,50.8591],[14.8104,50.8584],[14.8105,50.8771],[14.8602,50.9168],[14.9553,51.064],[14.9914,51.189],[15.0221,51.2368],[15.0195,51.2717],[14.9638,51.3284],[14.9506,51.3965]]]}},{"type":"Feature","id":"Lublin Voivodeship","properties":{"id":"Lublin Voivodeship","iso_code":"PL-LU","name":"Lublin Voivodeship","name_full":"Lublin Voivodeship","name_ja":"ルブリン県","center_lonlat":[22.9002,51.2433]},"geometry":{"type":"Polygon","coordinates":[[[23.1761,52.2851],[23.1945,52.2715],[23.1897,52.2405],[23.3958,52.1996],[23.3914,52.1825],[23.4367,52.1757],[23.4505,52.1859],[23.4709,52.1716],[23.4877,52.1816],[23.4847,52.1586],[23.5125,52.1244],[23.5794,52.1215],[23.6375,52.0845],[23.6764,51.9941],[23.6287,51.9463],[23.6218,51.8774],[23.5946,51.8433],[23.6287,51.8098],[23.6175,51.7865],[23.5603,51.7545],[23.5466,51.7136],[23.5592,51.6952],[23.5461,51.6896],[23.5603,51.672],[23.5324,51.659],[23.5438,51.6438],[23.5434,51.5927],[23.574,51.5553],[23.5603,51.5553],[23.6023,51.5308],[23.6148,51.4972],[23.6628,51.4802],[23.6487,51.454],[23.6976,51.4044],[23.6789,51.3941],[23.6839,51.3703],[23.634,51.3393],[23.6352,51.3047],[23.6873,51.2924],[23.7427,51.2163],[23.8636,51.1483],[23.8747,51.1361],[23.8545,51.1215],[23.9042,51.0627],[23.9117,51.0068],[23.9551,50.9836],[23.9793,50.9375],[24.1432,50.8564],[24.1309,50.8391],[24.1005,50.835],[23.9929,50.8362],[23.9576,50.808],[23.9743,50.7762],[24.0259,50.767],[24.0128,50.7433],[24.0269,50.728],[24.081,50.713],[24.0749,50.6902],[24.1084,50.6299],[24.0853,50.6044],[24.1065,50.5386],[24.075,50.5143],[24.0107,50.4928],[24.0078,50.4485],[23.9813,50.4048],[23.9287,50.3908],[23.713,50.3824],[23.6822,50.3682],[23.6587,50.327],[23.558,50.3647],[23.5255,50.3957],[23.4626,50.4215],[23.3889,50.4267],[23.3055,50.4158],[23.1584,50.3227],[23.0828,50.3125],[22.8581,50.3171],[22.7212,50.342],[22.7114,50.3567],[22.7611,50.3679],[22.7343,50.3797],[22.5949,50.3621],[22.5598,50.3725],[22.5266,50.4229],[22.5681,50.4646],[22.6579,50.479],[22.6121,50.5681],[22.4547,50.622],[22.2215,50.6596],[22.203,50.6801],[22.2624,50.7599],[22.1951,50.7917],[22.1174,50.7998],[22.0513,50.7704],[21.9764,50.7728],[21.8443,50.8298],[21.7983,50.9354],[21.8131,50.9929],[21.7915,51.0279],[21.8151,51.0357],[21.8154,51.0551],[21.7716,51.1515],[21.8035,51.2484],[21.836,51.2705],[21.8524,51.3504],[21.8124,51.3803],[21.8145,51.4047],[21.8622,51.4375],[21.8632,51.4784],[21.8324,51.4804],[21.8476,51.4984],[21.8262,51.5282],[21.8212,51.5626],[21.7026,51.5686],[21.66,51.5875],[21.6459,51.6112],[21.6563,51.6367],[21.6925,51.6427],[21.8011,51.6266],[21.8969,51.6568],[21.9036,51.6796],[21.8532,51.7277],[21.8917,51.7614],[21.9468,51.7821],[21.8875,51.8524],[21.8413,51.9584],[21.9123,51.991],[21.9884,52.0045],[22.3208,52.0149],[22.4514,52.066],[22.5997,52.0623],[22.6553,52.0902],[22.6665,52.1178],[22.7012,52.1361],[22.8593,52.0932],[22.8983,52.1021],[23.087,52.2923],[23.1761,52.2851]]]}},{"type":"Feature","id":"Lubusz Voivodeship","properties":{"id":"Lubusz Voivodeship","iso_code":"PL-LB","name":"Lubusz Voivodeship","name_full":"Lubusz Voivodeship","name_ja":"ルブシュ県","center_lonlat":[15.3423,52.2023]},"geometry":{"type":"Polygon","coordinates":[[[14.9506,51.3965],[14.9554,51.4354],[14.9266,51.4613],[14.71,51.5302],[14.7127,51.5674],[14.7439,51.6066],[14.7325,51.6583],[14.6484,51.7172],[14.6342,51.769],[14.5858,51.8039],[14.5828,51.8251],[14.5959,51.8424],[14.6871,51.9119],[14.6991,51.9925],[14.7614,52.0767],[14.6864,52.121],[14.707,52.1795],[14.6926,52.1996],[14.7121,52.2154],[14.7124,52.2359],[14.6969,52.2535],[14.5842,52.2912],[14.5901,52.3094],[14.5454,52.3822],[14.5398,52.4219],[14.5916,52.4498],[14.6323,52.4967],[14.6091,52.5178],[14.6448,52.5769],[14.608,52.5965],[14.6543,52.6699],[14.7899,52.6911],[14.8683,52.7581],[14.9319,52.8426],[15.0298,52.8753],[15.1958,52.842],[15.2487,52.8465],[15.3481,52.9333],[15.301,52.9523],[15.527,52.9893],[15.7331,52.9889],[15.9258,53.1053],[16.0304,53.1032],[16.0567,53.0543],[16.0385,53.0067],[16.0186,52.9491],[16.0219,52.8853],[15.9246,52.8096],[15.9553,52.7923],[15.9768,52.7431],[15.9672,52.7274],[15.8311,52.6933],[15.8296,52.5938],[15.8649,52.5348],[15.885,52.4633],[15.8849,52.4333],[15.8366,52.4242],[15.899,52.3485],[15.9012,52.287],[15.8498,52.169],[15.857,52.1037],[15.9079,52.0649],[15.963,52.0468],[16.0039,51.9896],[16.0394,51.9676],[16.1105,51.9654],[16.0984,51.8917],[16.1132,51.8649],[16.2015,51.8375],[16.2747,51.8682],[16.3399,51.8237],[16.3711,51.7492],[16.3221,51.6999],[16.2612,51.6668],[16.182,51.6558],[16.1265,51.6999],[16.1232,51.7345],[16.0965,51.7523],[15.9448,51.7699],[15.9105,51.7272],[15.8238,51.6912],[15.7254,51.5716],[15.6147,51.4804],[15.5439,51.4695],[15.4033,51.5178],[15.3301,51.5019],[15.2462,51.4226],[15.2171,51.4241],[15.1583,51.456],[15.1294,51.4556],[14.9506,51.3965]]]}},{"type":"Feature","id":"Masovian Voivodeship","properties":{"id":"Masovian Voivodeship","iso_code":"PL-MZ","name":"Masovian Voivodeship","name_full":"Masovian Voivodeship","name_ja":"マゾフシェ県","center_lonlat":[21.0804,52.3119]},"geometry":{"type":"Polygon","coordinates":[[[21.523,53.4435],[21.5753,53.337],[21.6004,53.2221],[21.656,53.138],[21.6928,53.0953],[21.8009,53.073],[21.8468,53.0516],[21.8305,53.0336],[21.8347,53.0082],[21.8602,52.9806],[21.9228,52.9528],[21.9776,52.862],[22.0489,52.8396],[22.1248,52.8464],[22.1747,52.879],[22.2231,52.8569],[22.2073,52.8017],[22.2636,52.7671],[22.3779,52.7941],[22.4118,52.6597],[22.4119,52.6006],[22.5176,52.5294],[22.515,52.4818],[22.5422,52.4673],[22.5388,52.4294],[22.5627,52.4041],[22.6363,52.3836],[22.952,52.3665],[22.9751,52.3528],[22.9845,52.3301],[23.0058,52.337],[23.0521,52.3096],[23.039,52.2892],[23.087,52.2923],[22.8983,52.1021],[22.8593,52.0932],[22.7012,52.1361],[22.6665,52.1178],[22.6553,52.0902],[22.5997,52.0623],[22.4514,52.066],[22.3208,52.0149],[21.9884,52.0045],[21.9123,51.991],[21.8413,51.9584],[21.8875,51.8524],[21.9468,51.7821],[21.8917,51.7614],[21.8532,51.7277],[21.9036,51.6796],[21.8969,51.6568],[21.8011,51.6266],[21.6925,51.6427],[21.6563,51.6367],[21.6459,51.6112],[21.66,51.5875],[21.7026,51.5686],[21.8212,51.5626],[21.8262,51.5282],[21.8476,51.4984],[21.8324,51.4804],[21.8632,51.4784],[21.8622,51.4375],[21.8145,51.4047],[21.8124,51.3803],[21.8524,51.3504],[21.836,51.2705],[21.8035,51.2484],[21.7716,51.1515],[21.8154,51.0551],[21.4956,51.0132],[21.2531,51.05],[21.1847,51.078],[21.174,51.1099],[21.1441,51.1311],[21.1357,51.1647],[21.1055,51.1712],[21.0117,51.1149],[20.8728,51.101],[20.7517,51.1168],[20.6816,51.1669],[20.5169,51.2304],[20.4873,51.2775],[20.4321,51.2899],[20.4287,51.3194],[20.4414,51.3466],[20.5054,51.3841],[20.5222,51.4116],[20.5223,51.4437],[20.4725,51.4639],[20.4514,51.5428],[20.4216,51.5872],[20.4476,51.6435],[20.5255,51.6435],[20.5854,51.6234],[20.6581,51.6171],[20.6736,51.6574],[20.6583,51.6828],[20.6045,51.7177],[20.5952,51.7462],[20.6193,51.7796],[20.6129,51.796],[20.554,51.8448],[20.4816,51.8795],[20.4151,51.8985],[20.2731,51.8982],[20.2669,51.9332],[20.2162,51.9743],[20.2079,51.9955],[20.2413,52.0076],[20.2517,52.0577],[20.1988,52.0845],[20.1002,52.104],[20.0799,52.1318],[20.0638,52.1925],[19.9695,52.2207],[19.9182,52.2677],[19.881,52.2656],[19.8492,52.2456],[19.6414,52.2192],[19.5489,52.2651],[19.3923,52.2935],[19.2959,52.3342],[19.3066,52.3681],[19.3804,52.4426],[19.3764,52.4612],[19.3559,52.474],[19.3611,52.5124],[19.455,52.6647],[19.4979,52.6717],[19.497,52.7048],[19.4404,52.7868],[19.4688,52.8204],[19.4739,52.8573],[19.4584,52.8983],[19.5073,52.8945],[19.5889,52.9451],[19.6458,52.9309],[19.6635,52.9872],[19.6487,53.0553],[19.7479,53.0931],[19.8112,53.1129],[19.8371,53.1437],[19.8768,53.1511],[19.9248,53.1273],[20.2406,53.098],[20.3158,53.1063],[20.3719,53.1337],[20.3889,53.1675],[20.4198,53.182],[20.4948,53.1861],[20.6346,53.2346],[20.704,53.2759],[20.8391,53.2834],[20.9123,53.3086],[21.0079,53.3084],[21.0979,53.3256],[21.1737,53.3796],[21.308,53.3788],[21.402,53.4379],[21.523,53.4435]]]}},{"type":"Feature","id":"Opole Voivodeship","properties":{"id":"Opole Voivodeship","iso_code":"PL-OP","name":"Opole Voivodeship","name_full":"Opole Voivodeship","name_ja":"オポーレ県","center_lonlat":[17.8754,50.617]},"geometry":{"type":"Polygon","coordinates":[[[16.944,50.4203],[17.0204,50.5468],[17.0728,50.5724],[17.1334,50.5787],[17.2642,50.7611],[17.3475,50.8392],[17.3833,50.8917],[17.4625,50.944],[17.4956,51.0248],[17.5538,51.1091],[17.5797,51.1268],[17.7146,51.1502],[17.7822,51.1407],[17.8012,51.0948],[17.8537,51.068],[17.9174,51.0658],[18.0358,51.0932],[18.1501,51.1361],[18.202,51.0959],[18.4257,51.0596],[18.4964,51.0608],[18.5305,51.0826],[18.5806,51.0334],[18.6556,50.9952],[18.6012,50.8934],[18.6208,50.8522],[18.6136,50.8167],[18.5354,50.7848],[18.5087,50.7491],[18.467,50.6456],[18.4864,50.6076],[18.5774,50.5469],[18.5887,50.511],[18.4141,50.5074],[18.4009,50.4848],[18.4101,50.4492],[18.3666,50.4399],[18.3575,50.4195],[18.3744,50.2912],[18.3628,50.2109],[18.2061,50.1526],[18.08,50.1357],[18.0205,50.0609],[18.0191,50.0441],[18.0024,50.0468],[18.0069,50.0241],[18.0287,50.0241],[18.0324,50.0028],[17.9416,49.9928],[17.8757,49.9687],[17.8394,49.9736],[17.7633,50.0252],[17.7195,50.0809],[17.732,50.0949],[17.6328,50.1063],[17.5842,50.1459],[17.5894,50.1632],[17.6753,50.1747],[17.7382,50.2024],[17.7476,50.2175],[17.7192,50.2528],[17.7345,50.2895],[17.708,50.311],[17.6845,50.3124],[17.6295,50.2621],[17.4694,50.2656],[17.4296,50.2398],[17.388,50.2726],[17.3659,50.2716],[17.355,50.2533],[17.3417,50.2597],[17.3341,50.2957],[17.3191,50.3082],[17.3375,50.313],[17.2109,50.3364],[17.1876,50.3785],[17.1317,50.3768],[17.0847,50.398],[16.944,50.4203]]]}},{"type":"Feature","id":"Podkarpackie Voivodeship","properties":{"id":"Podkarpackie Voivodeship","iso_code":"PL-PK","name":"Podkarpackie Voivodeship","name_full":"Podkarpackie Voivodeship","name_ja":"ポトカルパチェ県","center_lonlat":[22.2076,49.9701]},"geometry":{"type":"Polygon","coordinates":[[[21.5144,49.4172],[21.4772,49.4868],[21.4588,49.5597],[21.4609,49.6299],[21.4263,49.6997],[21.3662,49.7417],[21.229,49.7891],[21.2463,49.8139],[21.3455,49.8635],[21.3322,49.8921],[21.2662,49.9066],[21.228,49.9482],[21.237,50.0312],[21.2101,50.1821],[21.2162,50.2382],[21.284,50.3267],[21.2953,50.4108],[21.3601,50.4457],[21.4298,50.4535],[21.4489,50.4662],[21.4352,50.4867],[21.6133,50.5345],[21.6566,50.5736],[21.6688,50.6085],[21.745,50.6747],[21.8215,50.7061],[21.8486,50.7792],[21.8443,50.8298],[21.9764,50.7728],[22.0513,50.7704],[22.1174,50.7998],[22.1951,50.7917],[22.2624,50.7599],[22.203,50.6801],[22.2215,50.6596],[22.4547,50.622],[22.6121,50.5681],[22.6579,50.479],[22.5681,50.4646],[22.5266,50.4229],[22.5598,50.3725],[22.5949,50.3621],[22.7343,50.3797],[22.7611,50.3679],[22.7114,50.3567],[22.7212,50.342],[22.8581,50.3171],[23.0828,50.3125],[23.1584,50.3227],[23.3055,50.4158],[23.3889,50.4267],[23.4626,50.4215],[23.5255,50.3957],[23.558,50.3647],[23.6587,50.327],[23.5653,50.2578],[23.4364,50.1935],[23.1015,49.9571],[22.9512,49.8266],[22.9331,49.7911],[22.8882,49.7697],[22.8266,49.6974],[22.7662,49.6742],[22.6409,49.5288],[22.6796,49.4189],[22.7198,49.383],[22.7378,49.2754],[22.6817,49.1612],[22.7057,49.1688],[22.8534,49.0848],[22.8432,49.0431],[22.867,49.01],[22.8553,48.994],[22.7553,49.0447],[22.6429,49.0432],[22.5607,49.0855],[22.5396,49.0722],[22.3901,49.093],[22.3394,49.1265],[22.2159,49.14],[22.198,49.172],[22.0408,49.1975],[22.0124,49.2111],[21.9932,49.2782],[21.9645,49.3086],[21.8196,49.3772],[21.7576,49.3489],[21.6917,49.4022],[21.6588,49.4025],[21.6199,49.4233],[21.5144,49.4172]]]}},{"type":"Feature","id":"Podlaskie Voivodeship","properties":{"id":"Podlaskie Voivodeship","iso_code":"PL-PD","name":"Podlaskie Voivodeship","name_full":"Podlaskie Voivodeship","name_ja":"ポドラシェ県","center_lonlat":[22.8833,53.2797]},"geometry":{"type":"Polygon","coordinates":[[[23.1761,52.2851],[23.087,52.2923],[23.039,52.2892],[23.0521,52.3096],[23.0058,52.337],[22.9845,52.3301],[22.9751,52.3528],[22.952,52.3665],[22.6363,52.3836],[22.5627,52.4041],[22.5388,52.4294],[22.5422,52.4673],[22.515,52.4818],[22.5176,52.5294],[22.4119,52.6006],[22.4118,52.6597],[22.3779,52.7941],[22.2636,52.7671],[22.2073,52.8017],[22.2231,52.8569],[22.1747,52.879],[22.1248,52.8464],[22.0489,52.8396],[21.9776,52.862],[21.9228,52.9528],[21.8602,52.9806],[21.8347,53.0082],[21.8305,53.0336],[21.8468,53.0516],[21.8009,53.073],[21.6928,53.0953],[21.656,53.138],[21.6004,53.2221],[21.5753,53.337],[21.523,53.4435],[21.5957,53.4626],[21.7388,53.4576],[21.8626,53.4927],[21.9373,53.4993],[22.1099,53.5699],[22.207,53.6352],[22.4856,53.7379],[22.543,53.7739],[22.6185,53.8782],[22.6221,53.9248],[22.4652,54.0417],[22.4491,54.0992],[22.3481,54.1786],[22.4422,54.257],[22.6653,54.2753],[22.7317,54.3017],[22.7887,54.3366],[22.8113,54.3926],[22.8376,54.4009],[22.9627,54.3817],[22.9897,54.3534],[23.0416,54.341],[23.0321,54.3096],[23.0501,54.2948],[23.1171,54.3035],[23.2354,54.2542],[23.316,54.2363],[23.3915,54.1801],[23.449,54.1549],[23.4962,54.0446],[23.4965,54.022],[23.4586,53.9816],[23.4904,53.9506],[23.4869,53.91],[23.5207,53.8373],[23.5299,53.7842],[23.5648,53.7424],[23.5671,53.681],[23.5909,53.6113],[23.6758,53.4557],[23.743,53.3655],[23.8006,53.2425],[23.8481,53.1838],[23.8937,53.152],[23.8593,53.068],[23.9113,53.0051],[23.918,52.9508],[23.9011,52.9233],[23.9225,52.7426],[23.9088,52.6999],[23.869,52.67],[23.7362,52.6149],[23.569,52.5859],[23.3923,52.5096],[23.2121,52.3475],[23.1656,52.2894],[23.1761,52.2851]]]}},{"type":"Feature","id":"Pomeranian Voivodeship","properties":{"id":"Pomeranian Voivodeship","iso_code":"PL-PM","name":"Pomeranian Voivodeship","name_full":"Pomeranian Voivodeship","name_ja":"ポモージェ県","center_lonlat":[18.0371,54.1346]},"geometry":{"type":"Polygon","coordinates":[[[19.7583,54.4343],[19.7432,54.4336],[19.7494,54.4138],[19.7118,54.3858],[19.46,54.3109],[19.3652,54.2282],[19.3863,54.2766],[19.2739,54.2816],[19.2497,54.2654],[19.2428,54.2313],[19.2958,54.1465],[19.2688,54.112],[19.2093,54.0721],[19.2301,54.0095],[19.2636,53.9769],[19.3632,53.9561],[19.3892,53.9352],[19.3698,53.8958],[19.5544,53.8822],[19.5504,53.8493],[19.5201,53.8251],[19.4904,53.7693],[19.4339,53.7546],[19.3532,53.7578],[19.2759,53.7193],[19.1283,53.5559],[19.0741,53.5416],[18.9601,53.5375],[18.8746,53.5623],[18.7594,53.6252],[18.6779,53.6321],[18.583,53.6053],[18.4978,53.6354],[18.3179,53.6532],[18.2557,53.6942],[18.0511,53.681],[17.9241,53.6956],[17.8564,53.6388],[17.7556,53.6058],[17.7455,53.5573],[17.6832,53.5424],[17.5076,53.5616],[17.4554,53.5069],[17.4252,53.444],[17.3972,53.4338],[17.3528,53.4656],[17.2993,53.4831],[17.0957,53.4881],[17.0372,53.5093],[16.9477,53.5882],[16.9303,53.6967],[17.0018,53.7533],[16.9734,53.7915],[16.9533,53.7971],[16.9522,53.8168],[17.0024,53.8308],[17.0577,53.8264],[16.9498,53.9299],[16.8831,53.965],[16.875,54.0751],[16.8113,54.1888],[16.9507,54.209],[16.9666,54.2234],[16.9628,54.2483],[16.933,54.2782],[16.9773,54.3388],[16.9701,54.3866],[16.7852,54.5767],[16.94,54.606],[17.0358,54.6671],[17.3374,54.749],[17.7157,54.7904],[17.8854,54.8241],[18.3169,54.8383],[18.7517,54.6901],[18.8241,54.6322],[18.8353,54.6031],[18.8176,54.5981],[18.7078,54.7012],[18.6546,54.7101],[18.4563,54.7877],[18.4292,54.7817],[18.4151,54.7531],[18.4131,54.7319],[18.4478,54.7182],[18.4745,54.6876],[18.4759,54.6401],[18.5064,54.6341],[18.523,54.6466],[18.5171,54.63],[18.5706,54.5504],[18.5741,54.4504],[18.5881,54.4337],[18.6943,54.4045],[18.7173,54.382],[18.8859,54.3502],[18.9544,54.3586],[19.0021,54.3449],[19.3772,54.3776],[19.531,54.4149],[19.6095,54.4567],[19.6803,54.4367],[19.7583,54.4343]]]}},{"type":"Feature","id":"Silesian Voivodeship","properties":{"id":"Silesian Voivodeship","iso_code":"PL-SL","name":"Silesian Voivodeship","name_full":"Silesian Voivodeship","name_ja":"シロンスク県","center_lonlat":[18.9957,50.3092]},"geometry":{"type":"Polygon","coordinates":[[[19.4489,49.6004],[19.3395,49.5288],[19.2341,49.5072],[19.2044,49.4605],[19.209,49.445],[19.1894,49.4422],[19.1725,49.4023],[19.1166,49.3909],[19.0676,49.4061],[19.0071,49.3881],[18.9623,49.3892],[18.9524,49.4759],[18.9611,49.4928],[18.8332,49.5103],[18.8345,49.5476],[18.7884,49.6686],[18.7277,49.6689],[18.6177,49.7139],[18.5668,49.8048],[18.5663,49.8316],[18.5938,49.8522],[18.5673,49.8615],[18.5592,49.9072],[18.4818,49.8966],[18.3688,49.932],[18.3285,49.9288],[18.2925,49.9078],[18.2559,49.946],[18.162,49.9812],[18.0982,49.989],[18.0851,49.9988],[18.0916,50.0172],[18.0191,50.0441],[18.0205,50.0609],[18.08,50.1357],[18.2061,50.1526],[18.3628,50.2109],[18.3744,50.2912],[18.3575,50.4195],[18.3666,50.4399],[18.4101,50.4492],[18.4009,50.4848],[18.4141,50.5074],[18.5887,50.511],[18.5774,50.5469],[18.4864,50.6076],[18.467,50.6456],[18.5087,50.7491],[18.5354,50.7848],[18.6136,50.8167],[18.6208,50.8522],[18.6012,50.8934],[18.6556,50.9952],[18.7058,51.0107],[18.847,51.0137],[18.9114,51.0371],[19.108,50.9685],[19.2526,50.9603],[19.287,50.9792],[19.3543,50.9714],[19.4146,50.9364],[19.5079,50.8423],[19.6418,50.8393],[19.7506,50.8043],[19.8486,50.7894],[19.8526,50.7659],[19.7793,50.7509],[19.7417,50.7057],[19.7692,50.6849],[19.879,50.6545],[19.9544,50.5781],[19.9143,50.5743],[19.8453,50.5373],[19.8253,50.5096],[19.9563,50.4845],[19.9656,50.4449],[19.8392,50.3943],[19.6967,50.3885],[19.5827,50.3408],[19.5017,50.3611],[19.4036,50.26],[19.3368,50.2662],[19.3053,50.2505],[19.405,50.175],[19.1679,50.0039],[19.1237,49.9537],[19.1124,49.9202],[19.1805,49.884],[19.1826,49.8506],[19.2125,49.816],[19.2635,49.8031],[19.2989,49.7483],[19.3688,49.7176],[19.4364,49.7099],[19.4074,49.6403],[19.4489,49.6004]]]}},{"type":"Feature","id":"Swietokrzyskie Voivodeship","properties":{"id":"Swietokrzyskie Voivodeship","iso_code":"PL-SK","name":"Swietokrzyskie Voivodeship","name_full":"Świętokrzyskie Voivodeship","name_ja":"シフィェンティクシシュ県","center_lonlat":[20.7667,50.7418]},"geometry":{"type":"Polygon","coordinates":[[[20.4321,51.2899],[20.4873,51.2775],[20.5169,51.2304],[20.6816,51.1669],[20.7517,51.1168],[20.8728,51.101],[21.0117,51.1149],[21.1055,51.1712],[21.1357,51.1647],[21.1441,51.1311],[21.174,51.1099],[21.1847,51.078],[21.2531,51.05],[21.4956,51.0132],[21.8154,51.0551],[21.8151,51.0357],[21.7915,51.0279],[21.8131,50.9929],[21.7983,50.9354],[21.8443,50.8298],[21.8486,50.7792],[21.8215,50.7061],[21.745,50.6747],[21.6688,50.6085],[21.6566,50.5736],[21.6133,50.5345],[21.4352,50.4867],[21.4489,50.4662],[21.4298,50.4535],[21.3601,50.4457],[21.2953,50.4108],[21.277,50.4096],[21.2663,50.392],[21.2502,50.3973],[21.1813,50.3358],[21.1202,50.3486],[21.0491,50.318],[20.9597,50.3138],[20.8222,50.2744],[20.7839,50.2978],[20.7711,50.2744],[20.7335,50.2573],[20.726,50.2365],[20.6797,50.2179],[20.6335,50.1744],[20.5021,50.1767],[20.4287,50.205],[20.3644,50.2716],[20.2846,50.3986],[20.2076,50.4314],[20.1237,50.4483],[20.0507,50.4844],[19.9563,50.4845],[19.8253,50.5096],[19.8453,50.5373],[19.9143,50.5743],[19.9544,50.5781],[19.879,50.6545],[19.7692,50.6849],[19.7417,50.7057],[19.7793,50.7509],[19.8526,50.7659],[19.8486,50.7894],[19.7506,50.8043],[19.7738,50.829],[19.8374,50.8607],[19.8544,50.8907],[19.8511,50.9542],[19.8639,50.9864],[19.8994,50.9905],[20.0315,50.9294],[20.0541,50.9463],[20.0621,50.979],[20.0523,51.0125],[19.9758,51.0717],[20.0006,51.1321],[20.0251,51.1523],[20.199,51.1556],[20.2685,51.1971],[20.3666,51.2196],[20.4034,51.2766],[20.4321,51.2899]]]}},{"type":"Feature","id":"Warmian-Masurian Voivodeship","properties":{"id":"Warmian-Masurian Voivodeship","iso_code":"PL-WN","name":"Warmian-Masurian Voivodeship","name_full":"Warmian-Masurian Voivodeship","name_ja":"ヴァルミア＝マズールィ県","center_lonlat":[20.7698,53.8498]},"geometry":{"type":"Polygon","coordinates":[[[22.8113,54.3926],[22.7887,54.3366],[22.7317,54.3017],[22.6653,54.2753],[22.4422,54.257],[22.3481,54.1786],[22.4491,54.0992],[22.4652,54.0417],[22.6221,53.9248],[22.6185,53.8782],[22.543,53.7739],[22.4856,53.7379],[22.207,53.6352],[22.1099,53.5699],[21.9373,53.4993],[21.8626,53.4927],[21.7388,53.4576],[21.5957,53.4626],[21.523,53.4435],[21.402,53.4379],[21.308,53.3788],[21.1737,53.3796],[21.0979,53.3256],[21.0079,53.3084],[20.9123,53.3086],[20.8391,53.2834],[20.704,53.2759],[20.6346,53.2346],[20.4948,53.1861],[20.4198,53.182],[20.3889,53.1675],[20.3719,53.1337],[20.3158,53.1063],[20.2406,53.098],[19.9248,53.1273],[19.8768,53.1511],[19.8371,53.1437],[19.8112,53.1129],[19.7479,53.0931],[19.7329,53.1846],[19.6813,53.263],[19.6256,53.2864],[19.5115,53.3043],[19.4045,53.3429],[19.2855,53.3645],[19.1283,53.5559],[19.2759,53.7193],[19.3532,53.7578],[19.4339,53.7546],[19.4904,53.7693],[19.5201,53.8251],[19.5504,53.8493],[19.5544,53.8822],[19.3698,53.8958],[19.3892,53.9352],[19.3632,53.9561],[19.2636,53.9769],[19.2301,54.0095],[19.2093,54.0721],[19.2688,54.112],[19.2958,54.1465],[19.2428,54.2313],[19.2497,54.2654],[19.2739,54.2816],[19.3863,54.2766],[19.3652,54.2282],[19.46,54.3109],[19.7118,54.3858],[19.7494,54.4138],[19.7432,54.4336],[19.7583,54.4343],[22.6984,54.3429],[22.7672,54.3563],[22.8113,54.3926]]]}},{"type":"Feature","id":"West Pomeranian Voivodeship","properties":{"id":"West Pomeranian Voivodeship","iso_code":"PL-ZP","name":"West Pomeranian Voivodeship","name_full":"West Pomeranian Voivodeship","name_ja":"西ポモージェ県","center_lonlat":[15.6145,53.5878]},"geometry":{"type":"Polygon","coordinates":[[[14.608,52.5965],[14.5499,52.6362],[14.4901,52.6506],[14.4319,52.6861],[14.3822,52.7382],[14.216,52.818],[14.1528,52.8283],[14.1239,52.8507],[14.1505,52.8646],[14.165,52.8957],[14.1445,52.9599],[14.3433,53.0486],[14.3895,53.1317],[14.3807,53.1899],[14.4416,53.2518],[14.4033,53.2788],[14.3599,53.4441],[14.2969,53.5291],[14.297,53.5978],[14.261,53.6562],[14.2639,53.7],[14.3049,53.7126],[14.2886,53.728],[14.3016,53.7348],[14.2886,53.7416],[14.2942,53.7491],[14.3304,53.7342],[14.3421,53.7149],[14.4146,53.6824],[14.531,53.6578],[14.5906,53.5984],[14.6016,53.6267],[14.6238,53.6392],[14.6238,53.6528],[14.5759,53.6597],[14.5449,53.704],[14.5759,53.7695],[14.6238,53.7695],[14.6167,53.7947],[14.6306,53.8515],[14.5871,53.8126],[14.5691,53.8242],[14.5896,53.8378],[14.5759,53.8548],[14.4412,53.8696],[14.4255,53.8798],[14.4319,53.9062],[14.422,53.8961],[14.3851,53.8973],[14.363,53.8794],[14.4177,53.8651],[14.4053,53.8442],[14.3283,53.831],[14.3413,53.8189],[14.3189,53.8182],[14.2747,53.8308],[14.2266,53.872],[14.2008,53.8782],[14.1753,53.9065],[14.1931,53.9115],[14.2101,53.9385],[14.2681,53.9218],[14.4067,53.9218],[14.5173,53.9652],[14.7819,54.0346],[15.0101,54.0698],[15.2883,54.1389],[15.6658,54.1984],[15.8597,54.25],[16.1315,54.2835],[16.0693,54.263],[16.0911,54.254],[16.1792,54.263],[16.1724,54.2766],[16.2201,54.2766],[16.2152,54.2996],[16.1377,54.2903],[16.2136,54.3161],[16.2754,54.3586],[16.2318,54.3226],[16.3239,54.3499],[16.3368,54.3586],[16.3249,54.3731],[16.2816,54.3586],[16.4398,54.4883],[16.4344,54.4724],[16.4445,54.4699],[16.4734,54.4821],[16.4739,54.4997],[16.4461,54.4883],[16.5013,54.5324],[16.5696,54.5572],[16.7852,54.5767],[16.9701,54.3866],[16.9773,54.3388],[16.933,54.2782],[16.9628,54.2483],[16.9666,54.2234],[16.9507,54.209],[16.8113,54.1888],[16.875,54.0751],[16.8831,53.965],[16.9498,53.9299],[17.0577,53.8264],[17.0024,53.8308],[16.9522,53.8168],[16.9533,53.7971],[16.9734,53.7915],[17.0018,53.7533],[16.9303,53.6967],[16.9477,53.5882],[16.8722,53.5946],[16.8365,53.5852],[16.7908,53.525],[16.7653,53.4612],[16.5511,53.4606],[16.5285,53.4415],[16.5451,53.366],[16.6078,53.3296],[16.7204,53.3064],[16.7516,53.2824],[16.7579,53.2537],[16.7036,53.2058],[16.4562,53.1247],[16.3753,53.0482],[16.2788,52.9932],[16.155,52.9736],[16.0385,53.0067],[16.0567,53.0543],[16.0304,53.1032],[15.9258,53.1053],[15.7331,52.9889],[15.527,52.9893],[15.301,52.9523],[15.3481,52.9333],[15.2487,52.8465],[15.1958,52.842],[15.0298,52.8753],[14.9319,52.8426],[14.8683,52.7581],[14.7899,52.6911],[14.6543,52.6699],[14.608,52.5965]]]}},{"type":"Feature","id":"Łodz Voivodeship","properties":{"id":"Łodz Voivodeship","iso_code":"PL-LD","name":"Łodz Voivodeship","name_full":"Łódź Voivodeship","name_ja":"ウッチ県","center_lonlat":[19.4092,51.5592]},"geometry":{"type":"Polygon","coordinates":[[[19.2959,52.3342],[19.3923,52.2935],[19.5489,52.2651],[19.6414,52.2192],[19.8492,52.2456],[19.881,52.2656],[19.9182,52.2677],[19.9695,52.2207],[20.0638,52.1925],[20.0799,52.1318],[20.1002,52.104],[20.1988,52.0845],[20.2517,52.0577],[20.2413,52.0076],[20.2079,51.9955],[20.2162,51.9743],[20.2669,51.9332],[20.2731,51.8982],[20.4151,51.8985],[20.4816,51.8795],[20.554,51.8448],[20.6129,51.796],[20.6193,51.7796],[20.5952,51.7462],[20.6045,51.7177],[20.6583,51.6828],[20.6736,51.6574],[20.6581,51.6171],[20.5854,51.6234],[20.5255,51.6435],[20.4476,51.6435],[20.4216,51.5872],[20.4514,51.5428],[20.4725,51.4639],[20.5223,51.4437],[20.5222,51.4116],[20.5054,51.3841],[20.4414,51.3466],[20.4287,51.3194],[20.4321,51.2899],[20.4034,51.2766],[20.3666,51.2196],[20.2685,51.1971],[20.199,51.1556],[20.0251,51.1523],[20.0006,51.1321],[19.9758,51.0717],[20.0523,51.0125],[20.0621,50.979],[20.0541,50.9463],[20.0315,50.9294],[19.8994,50.9905],[19.8639,50.9864],[19.8511,50.9542],[19.8544,50.8907],[19.8374,50.8607],[19.7738,50.829],[19.7506,50.8043],[19.6418,50.8393],[19.5079,50.8423],[19.4146,50.9364],[19.3543,50.9714],[19.287,50.9792],[19.2526,50.9603],[19.108,50.9685],[18.9114,51.0371],[18.847,51.0137],[18.7058,51.0107],[18.6556,50.9952],[18.5806,51.0334],[18.5305,51.0826],[18.4964,51.0608],[18.4257,51.0596],[18.202,51.0959],[18.1501,51.1361],[18.1336,51.2103],[18.0763,51.2424],[18.0576,51.2701],[18.0548,51.3025],[18.071,51.3247],[18.1441,51.3348],[18.1859,51.3911],[18.2358,51.4005],[18.2903,51.3837],[18.3378,51.405],[18.3657,51.4526],[18.3591,51.6269],[18.4314,51.7568],[18.4572,51.7787],[18.5145,51.7955],[18.6706,51.7934],[18.7187,51.8459],[18.7227,51.8774],[18.6926,51.9448],[18.7135,52.0097],[18.8466,52.0187],[18.8973,52.0555],[18.9169,52.1461],[19.0166,52.1723],[19.0786,52.2088],[19.0419,52.2462],[19.0402,52.2784],[19.0744,52.3014],[19.1978,52.3029],[19.2357,52.3099],[19.2573,52.3325],[19.2959,52.3342]]]}}]}
