{"type":"FeatureCollection","features":[{"type":"Feature","id":"Aveiro","properties":{"id":"Aveiro","iso_code":"PT-01","name":"Aveiro","name_full":"Aveiro","name_ja":"アヴェイロ県","center_lonlat":[-8.4645,40.7246]},"geometry":{"type":"Polygon","coordinates":[[[-8.7879,40.523],[-8.7504,40.6439],[-8.7446,40.619],[-8.7103,40.6535],[-8.69,40.6469],[-8.6962,40.6737],[-8.6621,40.6699],[-8.6416,40.6942],[-8.6663,40.7132],[-8.6636,40.7241],[-8.6039,40.7358],[-8.5727,40.7556],[-8.6399,40.7401],[-8.6684,40.7475],[-8.6837,40.7831],[-8.6456,40.8237],[-8.6553,40.8449],[-8.6632,40.8149],[-8.6757,40.8244],[-8.6898,40.8041],[-8.7143,40.7091],[-8.7508,40.6531],[-8.6552,41.0167],[-8.5855,41.0151],[-8.5261,41.0322],[-8.4843,41.0173],[-8.4481,41.0555],[-8.3896,41.0119],[-8.3923,41.0397],[-8.3462,41.044],[-8.2902,41.0834],[-8.2296,41.0538],[-8.2244,41.0094],[-8.1493,40.982],[-8.1239,40.9838],[-8.0981,41.0106],[-8.0872,40.9999],[-8.1289,40.936],[-8.1098,40.8721],[-8.1154,40.8535],[-8.1578,40.8622],[-8.2496,40.8554],[-8.2396,40.8189],[-8.2689,40.7742],[-8.325,40.7272],[-8.2962,40.679],[-8.2883,40.6376],[-8.2486,40.619],[-8.302,40.5939],[-8.2839,40.5471],[-8.2532,40.5145],[-8.3313,40.4844],[-8.3216,40.445],[-8.3542,40.4029],[-8.3502,40.372],[-8.3705,40.3442],[-8.3992,40.3437],[-8.4572,40.2857],[-8.5155,40.2904],[-8.5208,40.3224],[-8.4865,40.3764],[-8.5049,40.4201],[-8.5656,40.4044],[-8.5767,40.4393],[-8.5705,40.4638],[-8.6089,40.484],[-8.6421,40.4317],[-8.6754,40.4347],[-8.7879,40.523]]]}},{"type":"Feature","id":"Azores","properties":{"id":"Azores","iso_code":"PT-20","name":"Azores","name_full":"Azores","name_ja":"アゾレス諸島","center_lonlat":[-25.4862,37.7997]},"geometry":{"type":"MultiPolygon","coordinates":[[[[-25.1978,37.8644],[-25.1592,37.852],[-25.1352,37.8223],[-25.1323,37.7862],[-25.1568,37.7545],[-25.1947,37.7407],[-25.5057,37.7067],[-25.6155,37.7409],[-25.7043,37.744],[-25.8251,37.8154],[-25.8595,37.8539],[-25.8415,37.906],[-25.7646,37.9116],[-25.7042,37.8826],[-25.6888,37.8459],[-25.5538,37.8297],[-25.4989,37.8508],[-25.4585,37.8297],[-25.3398,37.8618],[-25.1978,37.8644]]],[[[-28.1095,38.4466],[-28.0638,38.4428],[-28.0406,38.4091],[-28.0542,38.3985],[-28.1852,38.406],[-28.2419,38.3776],[-28.2968,38.4113],[-28.4595,38.4057],[-28.5489,38.4844],[-28.5489,38.5286],[-28.4853,38.5578],[-28.3745,38.5505],[-28.2063,38.4709],[-28.1095,38.4466]]],[[[-27.0201,38.6937],[-27.0544,38.6794],[-27.0544,38.6452],[-27.0891,38.631],[-27.1817,38.6394],[-27.2045,38.6527],[-27.2284,38.6411],[-27.3276,38.6663],[-27.3527,38.6844],[-27.3917,38.7589],[-27.3688,38.7827],[-27.2982,38.8035],[-27.1443,38.7961],[-27.0426,38.7445],[-27.0409,38.7144],[-27.0201,38.6937]]],[[[-27.891,38.6042],[-27.7789,38.5671],[-27.7606,38.549],[-27.8358,38.5428],[-27.9769,38.5931],[-28.0345,38.5901],[-28.0744,38.6176],[-28.1779,38.6451],[-28.2156,38.6821],[-28.2472,38.6862],[-28.2493,38.6982],[-28.3121,38.7353],[-28.3155,38.7551],[-28.0343,38.6663],[-27.891,38.6042]]],[[[-31.2079,39.5086],[-31.1863,39.4966],[-31.1595,39.5018],[-31.1407,39.4827],[-31.1316,39.423],[-31.1772,39.3556],[-31.1937,39.3647],[-31.2548,39.3581],[-31.2847,39.3979],[-31.2809,39.4431],[-31.2558,39.5075],[-31.2005,39.5222],[-31.2079,39.5086]]],[[[-28.6097,38.5974],[-28.5961,38.5527],[-28.644,38.5353],[-28.6234,38.5224],[-28.727,38.5149],[-28.8424,38.5994],[-28.7663,38.6068],[-28.7196,38.6452],[-28.6097,38.5974]]],[[[-25.0668,37.0215],[-25.0169,36.9704],[-25.0122,36.9492],[-25.0271,36.9343],[-25.119,36.9526],[-25.1691,36.946],[-25.2017,36.9904],[-25.1703,37.0155],[-25.0668,37.0215]]],[[[-27.9835,39.0151],[-28.0616,39.0363],[-28.0715,39.0676],[-28.0548,39.0977],[-28.0071,39.1046],[-27.9422,39.053],[-27.9359,39.036],[-27.9472,39.0242],[-27.9835,39.0151]]],[[[-31.1173,39.7283],[-31.0827,39.7227],[-31.0802,39.6933],[-31.1,39.664],[-31.1316,39.6588],[-31.1527,39.7011],[-31.1411,39.7209],[-31.1173,39.7283]]]]}},{"type":"Feature","id":"Beja","properties":{"id":"Beja","iso_code":"PT-02","name":"Beja","name_full":"Beja","name_ja":"ベージャ県","center_lonlat":[-7.9486,37.8305]},"geometry":{"type":"Polygon","coordinates":[[[-7.5146,37.5283],[-7.5684,37.5244],[-7.6197,37.4945],[-7.7073,37.5004],[-7.7856,37.4741],[-7.9086,37.4093],[-7.9824,37.4014],[-8.0012,37.3806],[-7.9907,37.3639],[-8.0707,37.3267],[-8.1708,37.337],[-8.2561,37.3851],[-8.2807,37.4283],[-8.3057,37.4339],[-8.414,37.4139],[-8.4314,37.3871],[-8.466,37.3754],[-8.574,37.4058],[-8.6209,37.398],[-8.6367,37.3836],[-8.7193,37.4003],[-8.8076,37.4494],[-8.7955,37.5354],[-8.8265,37.6006],[-8.7993,37.6976],[-8.7576,37.7067],[-8.7522,37.7308],[-8.8087,37.7229],[-8.817,37.7403],[-8.8014,37.8268],[-8.7811,37.8101],[-8.7341,37.8135],[-8.6835,37.7575],[-8.6642,37.7705],[-8.6126,37.7544],[-8.59,37.7659],[-8.549,37.8395],[-8.5217,37.853],[-8.4325,37.8666],[-8.3286,37.8467],[-8.2995,37.9087],[-8.2934,37.9815],[-8.3095,38.0128],[-8.3598,38.029],[-8.3941,38.0551],[-8.4013,38.076],[-8.3858,38.1107],[-8.3593,38.1117],[-8.3478,38.1432],[-8.3281,38.1513],[-8.3026,38.1413],[-8.2773,38.1806],[-8.2417,38.1794],[-8.2227,38.2016],[-8.1351,38.2232],[-8.1301,38.2507],[-8.1621,38.3176],[-8.1583,38.3265],[-8.0619,38.3276],[-8.011,38.3054],[-7.9691,38.3136],[-7.9312,38.3025],[-7.9086,38.2812],[-7.7473,38.2393],[-7.6837,38.2109],[-7.5171,38.1963],[-7.4142,38.2679],[-7.4005,38.2998],[-7.2881,38.3319],[-7.2525,38.277],[-7.2001,38.2461],[-7.173,38.1903],[-7.1521,38.1765],[-7.1171,38.1836],[-7.0883,38.1734],[-7.0264,38.1996],[-6.9642,38.2061],[-6.9475,38.1966],[-7.024,38.0226],[-7.1233,38.04],[-7.1597,37.9968],[-7.2233,37.9938],[-7.2727,37.977],[-7.2686,37.9492],[-7.3069,37.8508],[-7.3344,37.8119],[-7.444,37.7302],[-7.4716,37.6369],[-7.5143,37.6014],[-7.5297,37.5672],[-7.5146,37.5283]]]}},{"type":"Feature","id":"Braga","properties":{"id":"Braga","iso_code":"PT-03","name":"Braga","name_full":"Braga","name_ja":"ブラガ県","center_lonlat":[-8.3107,41.5554]},"geometry":{"type":"Polygon","coordinates":[[[-8.1793,41.8126],[-8.0935,41.8067],[-8.0504,41.816],[-8.0847,41.7277],[-8.118,41.6923],[-8.0285,41.702],[-7.9882,41.6779],[-7.9985,41.6112],[-7.8963,41.5897],[-7.8459,41.6138],[-7.8135,41.5826],[-7.8557,41.5256],[-7.9328,41.4757],[-7.9387,41.4396],[-7.9694,41.4],[-7.9755,41.3701],[-7.9892,41.3474],[-8.0361,41.325],[-8.1118,41.3497],[-8.1474,41.3698],[-8.1698,41.4008],[-8.2193,41.4146],[-8.2542,41.3864],[-8.3157,41.3669],[-8.4677,41.3759],[-8.5346,41.3512],[-8.6042,41.3494],[-8.6225,41.3808],[-8.5964,41.3981],[-8.6099,41.4111],[-8.667,41.4441],[-8.7751,41.4676],[-8.8198,41.6178],[-8.6613,41.6375],[-8.6368,41.6509],[-8.5521,41.6289],[-8.5031,41.7338],[-8.4177,41.7603],[-8.3152,41.7659],[-8.1793,41.8126]]]}},{"type":"Feature","id":"Braganca","properties":{"id":"Braganca","iso_code":"PT-04","name":"Braganca","name_full":"Bragança","name_ja":"ブラガンサ県","center_lonlat":[-6.8654,41.5173]},"geometry":{"type":"Polygon","coordinates":[[[-6.9274,41.0481],[-6.9871,41.0527],[-7.0753,41.0867],[-7.099,41.124],[-7.0927,41.1491],[-7.1263,41.1643],[-7.1126,41.1922],[-7.1701,41.1576],[-7.3007,41.1593],[-7.3597,41.1661],[-7.4022,41.2075],[-7.4323,41.216],[-7.4204,41.2398],[-7.393,41.2464],[-7.3905,41.2795],[-7.3716,41.297],[-7.3693,41.3177],[-7.3174,41.3402],[-7.3565,41.3724],[-7.3623,41.4419],[-7.312,41.4672],[-7.2746,41.5169],[-7.2362,41.5303],[-7.2552,41.5647],[-7.2525,41.6043],[-7.2202,41.6878],[-7.1727,41.7474],[-7.204,41.8163],[-7.2093,41.8892],[-7.1957,41.9174],[-7.1999,41.9637],[-7.1454,41.9875],[-7.0513,41.942],[-6.9924,41.9664],[-6.9451,41.9434],[-6.855,41.9429],[-6.8312,41.954],[-6.8249,41.9838],[-6.7944,41.9797],[-6.7579,41.9376],[-6.728,41.9309],[-6.6228,41.941],[-6.6095,41.9623],[-6.5851,41.9547],[-6.5676,41.9261],[-6.5758,41.8829],[-6.5242,41.8674],[-6.5774,41.7397],[-6.5415,41.6589],[-6.503,41.6531],[-6.4608,41.6766],[-6.3659,41.6636],[-6.2722,41.6282],[-6.2059,41.5703],[-6.2795,41.497],[-6.2829,41.4656],[-6.3211,41.411],[-6.3792,41.3973],[-6.3792,41.3775],[-6.3996,41.3775],[-6.431,41.339],[-6.4959,41.2949],[-6.5635,41.2707],[-6.6466,41.2676],[-6.7069,41.1943],[-6.7552,41.1588],[-6.7648,41.1089],[-6.818,41.0541],[-6.9274,41.0481]]]}},{"type":"Feature","id":"Castelo Branco","properties":{"id":"Castelo Branco","iso_code":"PT-05","name":"Castelo Branco","name_full":"Castelo Branco","name_ja":"カステロ・ブランコ県","center_lonlat":[-7.5097,39.9548]},"geometry":{"type":"Polygon","coordinates":[[[-6.9421,40.255],[-7.0158,40.2255],[-7.0431,40.1814],[-7.0158,40.1191],[-6.9557,40.1029],[-6.8797,40.0092],[-6.9252,39.9179],[-6.9277,39.8619],[-7.0003,39.8025],[-6.993,39.7742],[-7.0211,39.694],[-7.1829,39.6751],[-7.2358,39.6865],[-7.3414,39.6718],[-7.5559,39.6772],[-7.586,39.6748],[-7.6389,39.6422],[-7.6955,39.6527],[-7.8047,39.5571],[-7.8668,39.6359],[-7.9503,39.6662],[-7.965,39.7377],[-8.0419,39.7439],[-8.0709,39.6623],[-8.0615,39.6242],[-8.1395,39.6162],[-8.2202,39.6465],[-8.2333,39.695],[-8.2287,39.7566],[-8.2732,39.7794],[-8.2791,39.7948],[-8.2844,39.8108],[-8.2649,39.8405],[-8.2055,39.8543],[-8.1458,39.8915],[-8.1263,39.9212],[-8.0715,39.9567],[-8.0322,39.9609],[-8.0257,39.9754],[-7.9695,39.9817],[-7.9444,40.0031],[-7.9077,40.0095],[-7.907,40.0367],[-7.8714,40.0562],[-7.8358,40.0562],[-7.8072,40.0407],[-7.801,40.0833],[-7.7687,40.0775],[-7.7401,40.0945],[-7.7419,40.1283],[-7.8069,40.185],[-7.7821,40.232],[-7.6432,40.2867],[-7.6019,40.3268],[-7.5433,40.3246],[-7.5039,40.3766],[-7.4535,40.4134],[-7.3909,40.3828],[-7.3477,40.3906],[-7.3261,40.4098],[-7.2712,40.4098],[-7.2798,40.3505],[-7.3212,40.2912],[-7.3097,40.2796],[-7.2466,40.2673],[-7.1538,40.28],[-7.1103,40.3193],[-7.0754,40.2863],[-6.9975,40.2856],[-6.9421,40.255]]]}},{"type":"Feature","id":"Coimbra","properties":{"id":"Coimbra","iso_code":"PT-06","name":"Coimbra","name_full":"Coimbra","name_ja":"コインブラ県","center_lonlat":[-8.3345,40.2038]},"geometry":{"type":"Polygon","coordinates":[[[-8.9025,40.0474],[-8.8533,40.1392],[-8.8251,40.1201],[-8.785,40.1187],[-8.8162,40.1466],[-8.8965,40.1647],[-8.9084,40.2007],[-8.8654,40.2755],[-8.7879,40.523],[-8.6754,40.4347],[-8.6421,40.4317],[-8.6089,40.484],[-8.5705,40.4638],[-8.5767,40.4393],[-8.5656,40.4044],[-8.5049,40.4201],[-8.4865,40.3764],[-8.5208,40.3224],[-8.5155,40.2904],[-8.4572,40.2857],[-8.3992,40.3437],[-8.3705,40.3442],[-8.3502,40.372],[-8.2354,40.3206],[-8.2167,40.3397],[-8.1162,40.3389],[-7.9247,40.4301],[-7.9008,40.4587],[-7.8246,40.4978],[-7.801,40.457],[-7.8376,40.4238],[-7.799,40.4021],[-7.7917,40.3569],[-7.7673,40.3341],[-7.8014,40.307],[-7.8246,40.2615],[-7.7821,40.232],[-7.8069,40.185],[-7.7419,40.1283],[-7.7401,40.0945],[-7.7687,40.0775],[-7.801,40.0833],[-7.8072,40.0407],[-7.8358,40.0562],[-7.8714,40.0562],[-7.907,40.0367],[-7.9077,40.0095],[-7.9444,40.0031],[-7.9695,39.9817],[-8.0257,39.9754],[-8.0322,39.9609],[-8.0715,39.9567],[-8.1263,39.9212],[-8.1284,39.944],[-8.108,39.9653],[-8.1494,40.017],[-8.1455,40.0624],[-8.1746,40.0863],[-8.2052,40.0551],[-8.2351,40.064],[-8.2777,40.0345],[-8.2931,40.016],[-8.271,39.9848],[-8.2791,39.9716],[-8.314,39.9751],[-8.3491,39.9445],[-8.3899,39.9325],[-8.4048,39.9343],[-8.3853,39.9566],[-8.4199,40.015],[-8.4509,40.0121],[-8.5355,39.956],[-8.5538,40.0201],[-8.5673,40.028],[-8.629,39.9963],[-8.698,40.0323],[-8.7689,40.0373],[-8.8154,40.0211],[-8.9025,40.0474]]]}},{"type":"Feature","id":"Evora","properties":{"id":"Evora","iso_code":"PT-07","name":"Evora","name_full":"Évora","name_ja":"エヴォラ県","center_lonlat":[-7.8529,38.6076]},"geometry":{"type":"Polygon","coordinates":[[[-7.2259,38.7661],[-7.2704,38.7375],[-7.2841,38.7132],[-7.2925,38.6461],[-7.2704,38.6177],[-7.3177,38.5563],[-7.3456,38.4941],[-7.3352,38.4694],[-7.3592,38.4464],[-7.3171,38.4246],[-7.1672,38.2721],[-7.1171,38.1836],[-7.1521,38.1765],[-7.173,38.1903],[-7.2001,38.2461],[-7.2525,38.277],[-7.2881,38.3319],[-7.4005,38.2998],[-7.4142,38.2679],[-7.5171,38.1963],[-7.6837,38.2109],[-7.7473,38.2393],[-7.9086,38.2812],[-7.9312,38.3025],[-7.9691,38.3136],[-8.011,38.3054],[-8.0619,38.3276],[-8.1583,38.3265],[-8.1621,38.3176],[-8.3084,38.377],[-8.2886,38.4248],[-8.32,38.4479],[-8.3309,38.5001],[-8.3685,38.5357],[-8.4619,38.5191],[-8.5086,38.5426],[-8.5166,38.5194],[-8.6381,38.5504],[-8.6516,38.6062],[-8.5078,38.7128],[-8.4986,38.7579],[-8.5466,38.767],[-8.4987,38.7988],[-8.3884,38.833],[-8.3746,38.8527],[-8.3109,38.8497],[-8.2992,38.8615],[-8.25,38.8301],[-8.2081,38.822],[-8.1516,38.7745],[-8.1342,38.7874],[-8.1306,38.8101],[-8.1756,38.8418],[-8.1751,38.8743],[-8.2429,38.897],[-8.2601,38.914],[-8.235,38.9768],[-8.1969,39.0009],[-8.1533,39.0238],[-8.118,39.0267],[-8.1028,39.0221],[-8.1093,38.9972],[-8.0981,38.9779],[-8.0853,39.0006],[-8.0493,39.004],[-8.0212,38.9821],[-8.0185,38.9476],[-7.9907,38.9429],[-7.9233,38.9702],[-7.8668,38.9153],[-7.8169,38.8989],[-7.7549,38.9082],[-7.7294,38.9315],[-7.6328,38.9211],[-7.6023,38.9489],[-7.5425,38.9662],[-7.5491,38.9926],[-7.5271,39.0002],[-7.466,38.9656],[-7.4542,38.9218],[-7.4324,38.9063],[-7.3933,38.8149],[-7.3469,38.8001],[-7.2902,38.835],[-7.2425,38.8434],[-7.2151,38.8258],[-7.2327,38.7824],[-7.2259,38.7661]]]}},{"type":"Feature","id":"Faro","properties":{"id":"Faro","iso_code":"PT-08","name":"Faro","name_full":"Faro","name_ja":"ファーロ県","center_lonlat":[-8.1416,37.2447]},"geometry":{"type":"MultiPolygon","coordinates":[[[[-7.5146,37.5283],[-7.4689,37.4756],[-7.4623,37.4179],[-7.445,37.3868],[-7.4294,37.2367],[-7.4002,37.1723],[-7.4076,37.1649],[-7.4687,37.1803],[-7.5118,37.1718],[-7.8196,36.9987],[-7.9495,37.0141],[-7.9581,37.0026],[-7.9912,37.0141],[-7.9768,36.9868],[-8.0353,37.0375],[-8.1792,37.0881],[-8.2932,37.0777],[-8.3654,37.098],[-8.4388,37.0827],[-8.5801,37.124],[-8.6416,37.1177],[-8.6863,37.083],[-8.7477,37.083],[-8.8592,37.0408],[-8.8789,37.0472],[-8.946,37.0079],[-8.9829,37.0266],[-8.9979,37.0215],[-8.9856,37.0634],[-8.9136,37.1699],[-8.9227,37.1997],[-8.8814,37.2325],[-8.8671,37.2767],[-8.8828,37.3099],[-8.8387,37.3603],[-8.8076,37.4494],[-8.7193,37.4003],[-8.6367,37.3836],[-8.6209,37.398],[-8.574,37.4058],[-8.466,37.3754],[-8.4314,37.3871],[-8.414,37.4139],[-8.3057,37.4339],[-8.2807,37.4283],[-8.2561,37.3851],[-8.1708,37.337],[-8.0707,37.3267],[-7.9907,37.3639],[-8.0012,37.3806],[-7.9824,37.4014],[-7.9086,37.4093],[-7.7856,37.4741],[-7.7073,37.5004],[-7.6197,37.4945],[-7.5684,37.5244],[-7.5146,37.5283]]],[[[-7.9557,36.9805],[-7.904,36.9748],[-7.8601,37.0004],[-7.8533,36.9868],[-7.9039,36.9659],[-7.9557,36.9805]]]]}},{"type":"Feature","id":"Guarda","properties":{"id":"Guarda","iso_code":"PT-09","name":"Guarda","name_full":"Guarda","name_ja":"グアルダ県","center_lonlat":[-7.2337,40.6483]},"geometry":{"type":"Polygon","coordinates":[[[-6.9421,40.255],[-6.9975,40.2856],[-7.0754,40.2863],[-7.1103,40.3193],[-7.1538,40.28],[-7.2466,40.2673],[-7.3097,40.2796],[-7.3212,40.2912],[-7.2798,40.3505],[-7.2712,40.4098],[-7.3261,40.4098],[-7.3477,40.3906],[-7.3909,40.3828],[-7.4535,40.4134],[-7.5039,40.3766],[-7.5433,40.3246],[-7.6019,40.3268],[-7.6432,40.2867],[-7.7821,40.232],[-7.8246,40.2615],[-7.8014,40.307],[-7.7673,40.3341],[-7.7917,40.3569],[-7.799,40.4021],[-7.8376,40.4238],[-7.801,40.457],[-7.8246,40.4978],[-7.6867,40.5515],[-7.5777,40.5723],[-7.5817,40.5928],[-7.5399,40.6854],[-7.5895,40.7288],[-7.5757,40.7523],[-7.6174,40.7881],[-7.6155,40.802],[-7.5817,40.8568],[-7.5579,40.8716],[-7.523,40.8672],[-7.4616,40.82],[-7.4354,40.8304],[-7.4125,40.8706],[-7.4234,40.9173],[-7.373,40.9156],[-7.3326,40.9551],[-7.3341,40.9734],[-7.3735,41.0096],[-7.3335,41.0198],[-7.335,41.0653],[-7.3007,41.1593],[-7.1701,41.1576],[-7.1126,41.1922],[-7.1263,41.1643],[-7.0927,41.1491],[-7.099,41.124],[-7.0753,41.0867],[-6.9871,41.0527],[-6.9274,41.0481],[-6.9404,41.0034],[-6.8852,40.9489],[-6.8553,40.8872],[-6.8162,40.8568],[-6.8367,40.8402],[-6.8391,40.7575],[-6.8143,40.6472],[-6.8505,40.5822],[-6.8125,40.5146],[-6.8571,40.4421],[-6.8513,40.4095],[-6.7944,40.3564],[-6.8702,40.2955],[-6.8781,40.2652],[-6.9421,40.255]]]}},{"type":"Feature","id":"Leiria","properties":{"id":"Leiria","iso_code":"PT-10","name":"Leiria","name_full":"Leiria","name_ja":"レイリア県","center_lonlat":[-8.7779,39.7189]},"geometry":{"type":"Polygon","coordinates":[[[-9.3476,39.2925],[-9.3658,39.336],[-9.4093,39.3752],[-9.3529,39.3679],[-9.2608,39.4184],[-9.2176,39.4062],[-9.2059,39.4155],[-9.2299,39.4407],[-9.1829,39.4926],[-9.1357,39.5162],[-9.0904,39.5793],[-9.0717,39.6804],[-8.9025,40.0474],[-8.8154,40.0211],[-8.7689,40.0373],[-8.698,40.0323],[-8.629,39.9963],[-8.5673,40.028],[-8.5538,40.0201],[-8.5355,39.956],[-8.4509,40.0121],[-8.4199,40.015],[-8.3853,39.9566],[-8.4048,39.9343],[-8.3899,39.9325],[-8.3491,39.9445],[-8.314,39.9751],[-8.2791,39.9716],[-8.271,39.9848],[-8.2931,40.016],[-8.2777,40.0345],[-8.2351,40.064],[-8.2052,40.0551],[-8.1746,40.0863],[-8.1455,40.0624],[-8.1494,40.017],[-8.108,39.9653],[-8.1284,39.944],[-8.1263,39.9212],[-8.1458,39.8915],[-8.2055,39.8543],[-8.2649,39.8405],[-8.2844,39.8108],[-8.2791,39.7948],[-8.3283,39.8002],[-8.3243,39.7687],[-8.4429,39.7423],[-8.4708,39.8373],[-8.5895,39.787],[-8.6658,39.7733],[-8.6767,39.7581],[-8.674,39.7209],[-8.6444,39.6789],[-8.6946,39.6418],[-8.6722,39.5651],[-8.7043,39.5315],[-8.7423,39.5281],[-8.7331,39.4984],[-8.7511,39.4796],[-8.8651,39.4794],[-8.9081,39.4598],[-8.9397,39.4083],[-8.9769,39.3903],[-8.9987,39.3614],[-8.9941,39.299],[-9.0739,39.3092],[-9.1694,39.2212],[-9.2312,39.3164],[-9.2997,39.2932],[-9.3476,39.2925]]]}},{"type":"Feature","id":"Lisbon","properties":{"id":"Lisbon","iso_code":"PT-11","name":"Lisbon","name_full":"Lisbon","name_ja":"リスボン県","center_lonlat":[-9.1901,39.0082]},"geometry":{"type":"MultiPolygon","coordinates":[[[[-8.7918,39.0824],[-8.8364,39.0567],[-8.9359,39.0407],[-9.1003,38.8302],[-9.0982,38.7379],[-9.1125,38.7142],[-9.2202,38.6939],[-9.2852,38.6988],[-9.3218,38.6703],[-9.4048,38.7041],[-9.4917,38.7076],[-9.4847,38.7447],[-9.4975,38.8098],[-9.4555,38.8505],[-9.4227,38.9314],[-9.4366,39.0295],[-9.4225,39.0786],[-9.3509,39.1973],[-9.3476,39.2925],[-9.2997,39.2932],[-9.2312,39.3164],[-9.1694,39.2212],[-9.0739,39.3092],[-8.9941,39.299],[-8.9841,39.2604],[-8.9149,39.2448],[-8.8746,39.2542],[-8.8166,39.2009],[-8.8881,39.1857],[-8.9027,39.1715],[-8.7918,39.0824]]],[[[-8.9426,38.7756],[-8.9703,38.8354],[-8.9631,38.8507],[-8.9863,38.8494],[-9.0115,38.9134],[-8.9432,39.0152],[-8.7904,39.0706],[-8.8173,39.0397],[-8.8544,39.0314],[-8.8405,39.0161],[-8.9558,38.8409],[-8.9231,38.7778],[-8.9426,38.7756]]],[[[-9.0411,38.8676],[-9.0414,38.8492],[-9.0797,38.8201],[-9.0411,38.8676]]]]}},{"type":"Feature","id":"Madeira","properties":{"id":"Madeira","iso_code":"PT-30","name":"Madeira","name_full":"Madeira","name_ja":"マデイラ諸島","center_lonlat":[-16.9886,32.7508]},"geometry":{"type":"MultiPolygon","coordinates":[[[[-16.7887,32.6867],[-16.8064,32.6568],[-16.8478,32.644],[-16.9768,32.6472],[-17.1807,32.726],[-17.2412,32.7791],[-17.2521,32.8145],[-17.1849,32.8742],[-17.068,32.8142],[-16.9197,32.8412],[-16.7975,32.7746],[-16.6727,32.7586],[-16.7379,32.7381],[-16.7887,32.6867]]],[[[-16.34,33.0572],[-16.3643,33.0344],[-16.3983,33.0398],[-16.3413,33.1059],[-16.2891,33.1087],[-16.2898,33.0794],[-16.2754,33.0602],[-16.34,33.0572]]],[[[-16.487,32.4917],[-16.5423,32.5805],[-16.5067,32.5442],[-16.487,32.4917]]],[[[-15.8644,30.1525],[-15.8598,30.1333],[-15.8747,30.1379],[-15.8644,30.1525]]]]}},{"type":"Feature","id":"Portalegre","properties":{"id":"Portalegre","iso_code":"PT-12","name":"Portalegre","name_full":"Portalegre","name_ja":"ポルタレグレ県","center_lonlat":[-7.6316,39.1937]},"geometry":{"type":"Polygon","coordinates":[[[-7.2259,38.7661],[-7.2327,38.7824],[-7.2151,38.8258],[-7.2425,38.8434],[-7.2902,38.835],[-7.3469,38.8001],[-7.3933,38.8149],[-7.4324,38.9063],[-7.4542,38.9218],[-7.466,38.9656],[-7.5271,39.0002],[-7.5491,38.9926],[-7.5425,38.9662],[-7.6023,38.9489],[-7.6328,38.9211],[-7.7294,38.9315],[-7.7549,38.9082],[-7.8169,38.8989],[-7.8668,38.9153],[-7.9233,38.9702],[-7.9907,38.9429],[-8.0185,38.9476],[-8.0212,38.9821],[-8.0493,39.004],[-8.0853,39.0006],[-8.0981,38.9779],[-8.1093,38.9972],[-8.1028,39.0221],[-8.118,39.0267],[-8.1533,39.0238],[-8.1969,39.0009],[-8.2547,39.0214],[-8.291,39.0796],[-8.3341,39.1007],[-8.3336,39.117],[-8.2912,39.1638],[-8.1527,39.2523],[-8.1291,39.2831],[-8.0783,39.2902],[-8.024,39.3598],[-7.9689,39.3902],[-7.9505,39.4211],[-8.0102,39.4687],[-7.968,39.5369],[-7.9366,39.5533],[-7.8618,39.5202],[-7.8047,39.5571],[-7.6955,39.6527],[-7.6389,39.6422],[-7.586,39.6748],[-7.5559,39.6772],[-7.5158,39.5938],[-7.4681,39.5502],[-7.4176,39.5242],[-7.3842,39.484],[-7.3135,39.4574],[-7.3319,39.3847],[-7.3267,39.3413],[-7.2508,39.2706],[-7.2658,39.2314],[-7.2441,39.1956],[-7.1681,39.1706],[-7.1558,39.1515],[-7.1675,39.1135],[-7.1273,39.0975],[-7.0913,39.1124],[-7.0388,39.1091],[-6.9857,39.0668],[-6.9863,39.0301],[-6.9733,39.014],[-7.0221,38.9429],[-7.066,38.9046],[-7.0522,38.885],[-7.0561,38.8551],[-7.1049,38.8272],[-7.151,38.8193],[-7.2259,38.7661]]]}},{"type":"Feature","id":"Porto","properties":{"id":"Porto","iso_code":"PT-13","name":"Porto","name_full":"Porto","name_ja":"ポルト県","center_lonlat":[-8.3606,41.2303]},"geometry":{"type":"Polygon","coordinates":[[[-8.6552,41.0167],[-8.6661,41.1328],[-8.6483,41.1528],[-8.6858,41.1595],[-8.7372,41.2497],[-8.7445,41.3281],[-8.7838,41.3939],[-8.7751,41.4676],[-8.667,41.4441],[-8.6099,41.4111],[-8.5964,41.3981],[-8.6225,41.3808],[-8.6042,41.3494],[-8.5346,41.3512],[-8.4677,41.3759],[-8.3157,41.3669],[-8.2542,41.3864],[-8.2193,41.4146],[-8.1698,41.4008],[-8.1474,41.3698],[-8.1118,41.3497],[-8.0361,41.325],[-7.9892,41.3474],[-7.9755,41.3701],[-7.9512,41.3283],[-7.9094,41.3068],[-7.9094,41.2789],[-7.8755,41.2468],[-7.896,41.1591],[-8.0621,41.1059],[-8.1902,41.1091],[-8.2902,41.0834],[-8.3462,41.044],[-8.3923,41.0397],[-8.3896,41.0119],[-8.4481,41.0555],[-8.4843,41.0173],[-8.5261,41.0322],[-8.5855,41.0151],[-8.6552,41.0167]]]}},{"type":"Feature","id":"Santarem","properties":{"id":"Santarem","iso_code":"PT-14","name":"Santarem","name_full":"Santarém","name_ja":"サンタレン県","center_lonlat":[-8.4781,39.2938]},"geometry":{"type":"Polygon","coordinates":[[[-8.7904,39.0706],[-8.7651,39.0977],[-8.7918,39.0824],[-8.9027,39.1715],[-8.8881,39.1857],[-8.8166,39.2009],[-8.8746,39.2542],[-8.9149,39.2448],[-8.9841,39.2604],[-8.9941,39.299],[-8.9987,39.3614],[-8.9769,39.3903],[-8.9397,39.4083],[-8.9081,39.4598],[-8.8651,39.4794],[-8.7511,39.4796],[-8.7331,39.4984],[-8.7423,39.5281],[-8.7043,39.5315],[-8.6722,39.5651],[-8.6946,39.6418],[-8.6444,39.6789],[-8.674,39.7209],[-8.6767,39.7581],[-8.6658,39.7733],[-8.5895,39.787],[-8.4708,39.8373],[-8.4429,39.7423],[-8.3243,39.7687],[-8.3283,39.8002],[-8.2791,39.7948],[-8.2732,39.7794],[-8.2287,39.7566],[-8.2333,39.695],[-8.2202,39.6465],[-8.1395,39.6162],[-8.0615,39.6242],[-8.0709,39.6623],[-8.0419,39.7439],[-7.965,39.7377],[-7.9503,39.6662],[-7.8668,39.6359],[-7.8047,39.5571],[-7.8618,39.5202],[-7.9366,39.5533],[-7.968,39.5369],[-8.0102,39.4687],[-7.9505,39.4211],[-7.9689,39.3902],[-8.024,39.3598],[-8.0783,39.2902],[-8.1291,39.2831],[-8.1527,39.2523],[-8.2912,39.1638],[-8.3336,39.117],[-8.3341,39.1007],[-8.291,39.0796],[-8.2547,39.0214],[-8.1969,39.0009],[-8.235,38.9768],[-8.2601,38.914],[-8.2429,38.897],[-8.1751,38.8743],[-8.1756,38.8418],[-8.1306,38.8101],[-8.1342,38.7874],[-8.1516,38.7745],[-8.2081,38.822],[-8.25,38.8301],[-8.2992,38.8615],[-8.3109,38.8497],[-8.3746,38.8527],[-8.3884,38.833],[-8.4987,38.7988],[-8.5466,38.767],[-8.6045,38.7836],[-8.6027,38.8281],[-8.6437,38.8153],[-8.6965,38.8364],[-8.762,38.7381],[-8.7856,38.7342],[-8.8422,38.7562],[-8.9013,38.7406],[-8.9194,38.7501],[-8.9231,38.7778],[-8.9558,38.8409],[-8.8405,39.0161],[-8.8544,39.0314],[-8.8173,39.0397],[-8.7904,39.0706]]]}},{"type":"Feature","id":"Setubal","properties":{"id":"Setubal","iso_code":"PT-15","name":"Setubal","name_full":"Setúbal","name_ja":"セトゥーバル県","center_lonlat":[-8.6506,38.3115]},"geometry":{"type":"Polygon","coordinates":[[[-8.8014,37.8268],[-8.799,37.8781],[-8.8207,37.9273],[-8.8948,37.9525],[-8.8675,37.9736],[-8.8157,38.0621],[-8.7744,38.1869],[-8.7951,38.3592],[-8.8783,38.4492],[-8.9426,38.4814],[-8.9273,38.4938],[-8.9045,38.4864],[-8.8002,38.4391],[-8.7986,38.4261],[-8.6569,38.406],[-8.6068,38.4187],[-8.6628,38.4245],[-8.7362,38.4519],[-8.7525,38.488],[-8.7372,38.5224],[-8.7612,38.5381],[-8.7576,38.5633],[-8.7733,38.5653],[-8.793,38.5336],[-8.8129,38.5286],[-8.7803,38.5054],[-8.7884,38.4814],[-8.9058,38.5124],[-8.9549,38.5051],[-8.9998,38.4643],[-8.9919,38.4595],[-9.0486,38.4407],[-9.1457,38.4314],[-9.2004,38.4125],[-9.234,38.4242],[-9.19,38.4725],[-9.1838,38.5515],[-9.2527,38.6655],[-9.145,38.6811],[-9.1077,38.6589],[-9.1139,38.6794],[-9.0524,38.6937],[-8.9426,38.7756],[-8.9231,38.7778],[-8.9194,38.7501],[-8.9013,38.7406],[-8.8422,38.7562],[-8.7856,38.7342],[-8.762,38.7381],[-8.6965,38.8364],[-8.6437,38.8153],[-8.6027,38.8281],[-8.6045,38.7836],[-8.5466,38.767],[-8.4986,38.7579],[-8.5078,38.7128],[-8.6516,38.6062],[-8.6381,38.5504],[-8.5166,38.5194],[-8.5086,38.5426],[-8.4619,38.5191],[-8.3685,38.5357],[-8.3309,38.5001],[-8.32,38.4479],[-8.2886,38.4248],[-8.3084,38.377],[-8.1621,38.3176],[-8.1301,38.2507],[-8.1351,38.2232],[-8.2227,38.2016],[-8.2417,38.1794],[-8.2773,38.1806],[-8.3026,38.1413],[-8.3281,38.1513],[-8.3478,38.1432],[-8.3593,38.1117],[-8.3858,38.1107],[-8.4013,38.076],[-8.3941,38.0551],[-8.3598,38.029],[-8.3095,38.0128],[-8.2934,37.9815],[-8.2995,37.9087],[-8.3286,37.8467],[-8.4325,37.8666],[-8.5217,37.853],[-8.549,37.8395],[-8.59,37.7659],[-8.6126,37.7544],[-8.6642,37.7705],[-8.6835,37.7575],[-8.7341,37.8135],[-8.7811,37.8101],[-8.8014,37.8268]]]}},{"type":"Feature","id":"Viana do Castelo","properties":{"id":"Viana do Castelo","iso_code":"PT-16","name":"Viana do Castelo","name_full":"Viana do Castelo","name_ja":"ヴィアナ・ド・カステロ県","center_lonlat":[-8.5107,41.8812]},"geometry":{"type":"Polygon","coordinates":[[[-8.1793,41.8126],[-8.3152,41.7659],[-8.4177,41.7603],[-8.5031,41.7338],[-8.5521,41.6289],[-8.6368,41.6509],[-8.6613,41.6375],[-8.8198,41.6178],[-8.8271,41.6828],[-8.7433,41.697],[-8.6962,41.722],[-8.8069,41.697],[-8.8611,41.7044],[-8.8803,41.7369],[-8.8747,41.8496],[-8.7628,41.932],[-8.7508,41.969],[-8.6708,41.9998],[-8.6269,42.051],[-8.5728,42.0544],[-8.5012,42.0831],[-8.3467,42.1017],[-8.2224,42.1536],[-8.2043,42.1288],[-8.204,42.0696],[-8.1913,42.0621],[-8.1376,42.0729],[-8.0951,42.0409],[-8.108,42.0109],[-8.1821,41.9654],[-8.2302,41.9047],[-8.2204,41.8682],[-8.177,41.8499],[-8.1793,41.8126]]]}},{"type":"Feature","id":"Vila Real","properties":{"id":"Vila Real","iso_code":"PT-17","name":"Vila Real","name_full":"Vila Real","name_ja":"ヴィラ・レアル県","center_lonlat":[-7.6286,41.559]},"geometry":{"type":"Polygon","coordinates":[[[-8.0504,41.816],[-7.9936,41.8637],[-7.9448,41.867],[-7.9258,41.9082],[-7.9061,41.9139],[-7.8966,41.8579],[-7.722,41.8993],[-7.6612,41.8749],[-7.6074,41.8732],[-7.6228,41.8417],[-7.6061,41.8255],[-7.5467,41.832],[-7.5158,41.865],[-7.4694,41.8525],[-7.4427,41.806],[-7.3919,41.842],[-7.2515,41.8637],[-7.2093,41.8892],[-7.204,41.8163],[-7.1727,41.7474],[-7.2202,41.6878],[-7.2525,41.6043],[-7.2552,41.5647],[-7.2362,41.5303],[-7.2746,41.5169],[-7.312,41.4672],[-7.3623,41.4419],[-7.3565,41.3724],[-7.3174,41.3402],[-7.3693,41.3177],[-7.3716,41.297],[-7.3905,41.2795],[-7.393,41.2464],[-7.4204,41.2398],[-7.4323,41.216],[-7.5502,41.1828],[-7.6586,41.1801],[-7.7189,41.1548],[-7.774,41.1571],[-7.8234,41.1864],[-7.896,41.1591],[-7.8755,41.2468],[-7.9094,41.2789],[-7.9094,41.3068],[-7.9512,41.3283],[-7.9755,41.3701],[-7.9694,41.4],[-7.9387,41.4396],[-7.9328,41.4757],[-7.8557,41.5256],[-7.8135,41.5826],[-7.8459,41.6138],[-7.8963,41.5897],[-7.9985,41.6112],[-7.9882,41.6779],[-8.0285,41.702],[-8.118,41.6923],[-8.0847,41.7277],[-8.0504,41.816]]]}},{"type":"Feature","id":"Viseu","properties":{"id":"Viseu","iso_code":"PT-18","name":"Viseu","name_full":"Viseu","name_ja":"ヴィゼウ県","center_lonlat":[-7.8697,40.8074]},"geometry":{"type":"Polygon","coordinates":[[[-7.4323,41.216],[-7.4022,41.2075],[-7.3597,41.1661],[-7.3007,41.1593],[-7.335,41.0653],[-7.3335,41.0198],[-7.3735,41.0096],[-7.3341,40.9734],[-7.3326,40.9551],[-7.373,40.9156],[-7.4234,40.9173],[-7.4125,40.8706],[-7.4354,40.8304],[-7.4616,40.82],[-7.523,40.8672],[-7.5579,40.8716],[-7.5817,40.8568],[-7.6155,40.802],[-7.6174,40.7881],[-7.5757,40.7523],[-7.5895,40.7288],[-7.5399,40.6854],[-7.5817,40.5928],[-7.5777,40.5723],[-7.6867,40.5515],[-7.8246,40.4978],[-7.9008,40.4587],[-7.9247,40.4301],[-8.1162,40.3389],[-8.2167,40.3397],[-8.2354,40.3206],[-8.3502,40.372],[-8.3542,40.4029],[-8.3216,40.445],[-8.3313,40.4844],[-8.2532,40.5145],[-8.2839,40.5471],[-8.302,40.5939],[-8.2486,40.619],[-8.2883,40.6376],[-8.2962,40.679],[-8.325,40.7272],[-8.2689,40.7742],[-8.2396,40.8189],[-8.2496,40.8554],[-8.1578,40.8622],[-8.1154,40.8535],[-8.1098,40.8721],[-8.1289,40.936],[-8.0872,40.9999],[-8.0981,41.0106],[-8.1239,40.9838],[-8.1493,40.982],[-8.2244,41.0094],[-8.2296,41.0538],[-8.2902,41.0834],[-8.1902,41.1091],[-8.0621,41.1059],[-7.896,41.1591],[-7.8234,41.1864],[-7.774,41.1571],[-7.7189,41.1548],[-7.6586,41.1801],[-7.5502,41.1828],[-7.4323,41.216]]]}}]}
