{"type":"FeatureCollection","features":[{"type":"Feature","id":"Puerto Rico","properties":{"id":"Puerto Rico","iso_code":"US-PR","name":"Puerto Rico","name_full":"Puerto Rico","name_ja":"プエルトリコ","center_lonlat":[-66.4808,18.2265]},"geometry":{"type":"MultiPolygon","coordinates":[[[[-65.6288,18.2792],[-65.6258,18.2598],[-65.6037,18.2629],[-65.5918,18.2309],[-65.6035,18.2153],[-65.6334,18.2292],[-65.6272,18.2059],[-65.6368,18.1981],[-65.6655,18.2084],[-65.7375,18.1827],[-65.7903,18.114],[-65.807,18.0703],[-65.8405,18.0563],[-65.8303,18.0269],[-65.8872,17.9877],[-65.9391,17.9705],[-66.005,17.9775],[-66.0841,17.9639],[-66.2042,17.9229],[-66.2104,17.9366],[-66.197,17.9444],[-66.2104,17.9571],[-66.2414,17.9373],[-66.2926,17.9457],[-66.3281,17.9723],[-66.4165,17.9496],[-66.4691,17.9927],[-66.6225,17.9639],[-66.6294,17.9752],[-66.7659,17.9844],[-66.774,18.0022],[-66.8001,17.9918],[-66.7864,17.9844],[-66.8177,17.959],[-66.9242,17.9496],[-66.9304,17.9291],[-66.9491,17.9312],[-66.9857,17.9639],[-67.067,17.9726],[-67.112,17.9496],[-67.1805,17.9661],[-67.1912,17.958],[-67.1842,17.9351],[-67.2148,17.9663],[-67.2143,17.9941],[-67.1632,18.0225],[-67.2029,18.0357],[-67.2021,18.0544],[-67.1857,18.0704],[-67.1939,18.0973],[-67.1737,18.1762],[-67.1519,18.2034],[-67.1965,18.2913],[-67.2369,18.2999],[-67.2708,18.3618],[-67.1595,18.4209],[-67.17,18.486],[-67.1517,18.5089],[-67.1017,18.5228],[-67.0485,18.5211],[-66.9073,18.4853],[-66.8035,18.4983],[-66.7368,18.4831],[-66.6409,18.4964],[-66.4674,18.4753],[-66.3824,18.4914],[-66.3039,18.4688],[-66.2581,18.4815],[-66.2052,18.4654],[-66.1809,18.4715],[-66.1616,18.4533],[-66.1441,18.4687],[-66.1085,18.4206],[-66.0602,18.4368],[-66.095,18.4477],[-66.1216,18.4735],[-66.0121,18.444],[-65.9889,18.4631],[-65.9204,18.4459],[-65.8928,18.4536],[-65.8126,18.4104],[-65.7883,18.4232],[-65.7963,18.405],[-65.772,18.4146],[-65.755,18.391],[-65.7381,18.3824],[-65.7248,18.3913],[-65.698,18.3711],[-65.6632,18.3664],[-65.6214,18.3891],[-65.6288,18.2792]]],[[[-65.3477,18.1147],[-65.3566,18.1229],[-65.4842,18.0873],[-65.5651,18.0939],[-65.5804,18.1221],[-65.5402,18.1238],[-65.4785,18.1571],[-65.3985,18.1693],[-65.2986,18.1537],[-65.2757,18.1372],[-65.3098,18.1352],[-65.3477,18.1147]]],[[[-67.8559,18.1147],[-67.8441,18.0976],[-67.8732,18.0535],[-67.892,18.0535],[-67.9378,18.0942],[-67.9197,18.1145],[-67.8559,18.1147]]],[[[-65.2788,18.2792],[-65.3341,18.3406],[-65.2567,18.3239],[-65.2446,18.3065],[-65.2583,18.3065],[-65.2515,18.2997],[-65.2856,18.314],[-65.2788,18.2792]]]]}}]}
