{"type":"FeatureCollection","features":[{"type":"Feature","id":"Al Daayen","properties":{"id":"Al Daayen","iso_code":"QA-ZA","name":"Al Daayen","name_full":"Al Daayen","name_ja":"アッ＝ザアーイン","center_lonlat":[51.455,25.5055]},"geometry":{"type":"Polygon","coordinates":[[[51.5359,25.6224],[51.4914,25.6182],[51.4914,25.5493],[51.4719,25.5214],[51.5169,25.4402],[51.5157,25.3828],[51.4451,25.3597],[51.4084,25.426],[51.4006,25.5509],[51.4058,25.6108],[51.4527,25.6577],[51.5359,25.6224]]]}},{"type":"Feature","id":"Al Khor","properties":{"id":"Al Khor","iso_code":"QA-KH","name":"Al Khor","name_full":"Al Khor","name_ja":"アル＝ハウル","center_lonlat":[51.3375,25.7711]},"geometry":{"type":"Polygon","coordinates":[[[51.4165,25.9521],[51.512,25.9461],[51.5594,25.9138],[51.5775,25.8808],[51.5945,25.7582],[51.5835,25.7418],[51.5633,25.7629],[51.5446,25.7374],[51.555,25.7206],[51.574,25.7349],[51.5901,25.7119],[51.5768,25.6887],[51.5568,25.6816],[51.5529,25.7076],[51.5051,25.6872],[51.5529,25.653],[51.5359,25.6224],[51.4527,25.6577],[51.4058,25.6108],[51.4006,25.5509],[51.302,25.5512],[51.2874,25.5658],[51.2474,25.6189],[51.2136,25.7324],[51.1047,25.7324],[51.1047,25.7752],[50.9496,25.7753],[50.973,25.7975],[50.9724,25.8251],[51.1039,25.8242],[51.1039,25.9283],[51.2445,25.9283],[51.2444,25.8994],[51.2973,25.8994],[51.2974,25.8675],[51.3457,25.8674],[51.3459,25.8291],[51.4168,25.8297],[51.4165,25.9521]]]}},{"type":"Feature","id":"Al Rayyan","properties":{"id":"Al Rayyan","iso_code":"QA-RA","name":"Al Rayyan","name_full":"Al Rayyan","name_ja":"ライヤーン","center_lonlat":[51.0698,25.1889]},"geometry":{"type":"Polygon","coordinates":[[[50.9496,25.7753],[51.1047,25.7752],[51.1047,25.7324],[51.2136,25.7324],[51.2474,25.6189],[51.2874,25.5658],[51.3043,25.3844],[51.3827,25.3789],[51.4451,25.3597],[51.5433,25.2182],[51.4936,25.18],[51.4527,25.2152],[51.4293,25.197],[51.4616,25.1571],[51.4382,25.1378],[51.4035,25.0608],[51.3318,25.0899],[51.333,25.0096],[51.221,25.0096],[51.221,24.6442],[51.2153,24.6258],[51.1475,24.5763],[51.0955,24.5602],[50.9789,24.5677],[50.9286,24.5872],[50.881,24.6364],[50.8079,24.7466],[50.8528,24.77],[50.8596,24.7956],[50.8511,24.8908],[50.7966,25.0036],[50.8086,25.0692],[50.7757,25.0919],[50.7578,25.1862],[50.7658,25.3236],[50.751,25.4196],[50.7638,25.4824],[50.751,25.4947],[50.778,25.527],[50.7971,25.5299],[50.8205,25.4718],[50.8472,25.4674],[50.8279,25.5251],[50.8329,25.5785],[50.8185,25.5958],[50.785,25.6046],[50.8369,25.6288],[50.8506,25.653],[50.8762,25.6318],[50.8677,25.567],[50.8887,25.5295],[50.9007,25.5349],[50.9092,25.5977],[50.9206,25.6083],[50.9357,25.5983],[50.9559,25.6047],[50.9776,25.6461],[50.9243,25.6323],[50.9032,25.6401],[50.8875,25.6809],[50.8949,25.7281],[50.9092,25.7451],[50.9017,25.7895],[50.9155,25.7864],[50.9329,25.8106],[50.9496,25.7753]]]}},{"type":"Feature","id":"Al Wakrah","properties":{"id":"Al Wakrah","iso_code":"QA-WA","name":"Al Wakrah","name_full":"Al Wakrah","name_ja":"アル＝ワクラ市","center_lonlat":[51.4079,24.9152]},"geometry":{"type":"Polygon","coordinates":[[[51.6111,25.2375],[51.611,25.0224],[51.5869,24.9534],[51.5288,24.8744],[51.5003,24.8554],[51.4436,24.6798],[51.3815,24.6351],[51.3406,24.5699],[51.3289,24.5848],[51.3469,24.6351],[51.3391,24.6462],[51.286,24.645],[51.2781,24.663],[51.221,24.6442],[51.221,25.0096],[51.333,25.0096],[51.3318,25.0899],[51.4035,25.0608],[51.4382,25.1378],[51.4616,25.1571],[51.4936,25.18],[51.5433,25.2182],[51.5739,25.2432],[51.6111,25.2375]]]}},{"type":"Feature","id":"Doha","properties":{"id":"Doha","iso_code":"QA-DA","name":"Doha","name_full":"Doha","name_ja":"ドーハ","center_lonlat":[51.5035,25.2975]},"geometry":{"type":"MultiPolygon","coordinates":[[[[51.5157,25.3828],[51.5188,25.2971],[51.59,25.2838],[51.6111,25.2375],[51.5739,25.2432],[51.5433,25.2182],[51.4451,25.3597],[51.5157,25.3828]]],[[[51.4936,25.18],[51.4616,25.1571],[51.4293,25.197],[51.4527,25.2152],[51.4936,25.18]]]]}},{"type":"Feature","id":"Madinat ash Shamal","properties":{"id":"Madinat ash Shamal","iso_code":"QA-MS","name":"Madinat ash Shamal","name_full":"Madinat ash Shamal","name_ja":"アッ＝シャマール","center_lonlat":[51.1984,25.978]},"geometry":{"type":"Polygon","coordinates":[[[50.9724,25.8251],[50.9494,25.838],[50.9773,25.9164],[50.9842,25.9813],[51.0047,25.967],[51.0474,26.053],[51.1419,26.0878],[51.1761,26.1396],[51.1943,26.1335],[51.2512,26.1601],[51.3307,26.1212],[51.3469,26.1049],[51.3472,26.039],[51.3766,26.0229],[51.3884,25.967],[51.4165,25.9521],[51.4168,25.8297],[51.3459,25.8291],[51.3457,25.8674],[51.2974,25.8675],[51.2973,25.8994],[51.2444,25.8994],[51.2445,25.9283],[51.1039,25.9283],[51.1039,25.8242],[50.9724,25.8251]]]}},{"type":"Feature","id":"Umm Salal","properties":{"id":"Umm Salal","iso_code":"QA-US","name":"Umm Salal","name_full":"Umm Salal","name_ja":"ウンム・サラール","center_lonlat":[51.3548,25.4627]},"geometry":{"type":"Polygon","coordinates":[[[51.2874,25.5658],[51.302,25.5512],[51.4006,25.5509],[51.4084,25.426],[51.4451,25.3597],[51.3827,25.3789],[51.3043,25.3844],[51.2874,25.5658]]]}}]}
