{"type":"FeatureCollection","features":[{"type":"Feature","id":"Alba","properties":{"id":"Alba","iso_code":"RO-AB","name":"Alba","name_full":"Alba","name_ja":"アルバ県","center_lonlat":[23.4834,46.1655]},"geometry":{"type":"Polygon","coordinates":[[[22.7553,46.3338],[22.7067,46.3687],[22.6881,46.422],[22.6869,46.483],[22.7025,46.5321],[22.7398,46.5654],[22.8028,46.5569],[22.833,46.5382],[22.9967,46.531],[23.0551,46.4872],[23.0773,46.4553],[23.1539,46.4944],[23.248,46.4842],[23.3032,46.5139],[23.4205,46.5243],[23.5401,46.4768],[23.6239,46.4725],[23.6301,46.4591],[23.6107,46.4242],[23.655,46.4009],[23.6759,46.4037],[23.674,46.4288],[23.6911,46.4356],[23.8756,46.4522],[23.9711,46.4366],[23.9954,46.4497],[24.0268,46.4483],[24.0575,46.4272],[24.0268,46.3884],[24.0265,46.369],[24.1433,46.3129],[24.1613,46.2662],[24.1918,46.2442],[24.1918,46.1596],[24.0404,46.0558],[24.0137,46.0046],[23.9526,46.0285],[23.8721,46.0183],[23.8528,46.0028],[23.8645,45.9461],[23.8357,45.9252],[23.7689,45.9147],[23.7229,45.9287],[23.7006,45.9202],[23.7115,45.881],[23.7651,45.8632],[23.7093,45.7939],[23.6477,45.779],[23.6124,45.7113],[23.632,45.6179],[23.6135,45.5548],[23.6534,45.4806],[23.6261,45.4519],[23.5842,45.4473],[23.5738,45.5041],[23.4109,45.6026],[23.3964,45.6301],[23.4044,45.6606],[23.3747,45.695],[23.3718,45.737],[23.3161,45.8768],[23.2644,45.9293],[23.2256,45.9997],[23.171,46.016],[23.0745,46.1046],[23.0664,46.1245],[23.0915,46.1251],[23.095,46.1389],[23.0665,46.1843],[23.0427,46.2021],[22.9668,46.2194],[22.9142,46.3152],[22.813,46.3107],[22.7553,46.3338]]]}},{"type":"Feature","id":"Arad","properties":{"id":"Arad","iso_code":"RO-AR","name":"Arad","name_full":"Arad","name_ja":"アラド県","center_lonlat":[21.7528,46.2632]},"geometry":{"type":"Polygon","coordinates":[[[21.4235,46.6582],[21.492,46.6452],[21.8258,46.6581],[21.9786,46.6132],[22.0938,46.6069],[22.153,46.576],[22.2094,46.4949],[22.3929,46.4269],[22.4203,46.3902],[22.7067,46.3687],[22.7553,46.3338],[22.6897,46.3002],[22.6193,46.2182],[22.5765,46.2085],[22.4842,46.2173],[22.4471,46.1973],[22.4336,46.1761],[22.4345,46.1293],[22.4072,46.0713],[22.4196,46.0253],[22.4015,45.9917],[22.3549,45.9499],[22.3178,45.9184],[22.2202,45.8931],[22.1313,45.9052],[22.0687,45.9491],[21.9315,45.9822],[21.9118,45.9777],[21.8886,45.9355],[21.8272,45.9464],[21.816,45.9049],[21.7695,45.9393],[21.7226,45.9493],[21.6703,45.9017],[21.6342,45.9289],[21.6357,45.9559],[21.5842,45.992],[21.5255,45.9975],[21.5072,46.0328],[21.4585,46.0391],[21.431,46.034],[21.4239,46.0083],[21.3618,45.9707],[21.3136,45.9876],[21.2507,45.9689],[21.2071,45.9935],[21.1888,46.0205],[21.1548,46.0096],[21.1464,45.9814],[21.1246,45.9731],[21.0969,45.9801],[21.0695,46.0199],[20.9315,46.0314],[20.8605,46.0957],[20.7044,46.1685],[20.7103,46.1881],[20.7447,46.1923],[20.7393,46.2375],[20.7987,46.2676],[20.9992,46.2516],[21.0335,46.2313],[21.0992,46.2764],[21.1445,46.2837],[21.1788,46.3845],[21.2807,46.4164],[21.2451,46.4769],[21.2476,46.4975],[21.2913,46.5467],[21.301,46.6039],[21.3162,46.6166],[21.396,46.6264],[21.4235,46.6582]]]}},{"type":"Feature","id":"Arges","properties":{"id":"Arges","iso_code":"RO-AG","name":"Arges","name_full":"Argeș","name_ja":"アルジェシュ県","center_lonlat":[24.9003,45.0385]},"geometry":{"type":"Polygon","coordinates":[[[25.3092,45.3885],[25.3338,45.3377],[25.2944,45.2683],[25.2709,45.192],[25.2355,45.1684],[25.1888,45.1912],[25.1631,45.1299],[25.1741,45.0903],[25.2352,45.016],[25.1944,44.9491],[25.2159,44.8594],[25.205,44.767],[25.1823,44.7274],[25.2186,44.6901],[25.1922,44.6754],[25.1907,44.6548],[25.2543,44.5899],[25.3171,44.5658],[25.2925,44.5223],[25.2998,44.4652],[25.2785,44.4373],[25.1901,44.4535],[25.1447,44.4473],[25.088,44.4186],[25.022,44.4165],[24.9812,44.3911],[24.8513,44.3899],[24.7815,44.4031],[24.7654,44.4165],[24.7438,44.509],[24.751,44.5459],[24.7415,44.591],[24.7249,44.6511],[24.6898,44.7052],[24.7295,44.7283],[24.726,44.7374],[24.6687,44.7398],[24.6332,44.7571],[24.5697,44.848],[24.5636,44.8914],[24.4651,44.8198],[24.4378,44.85],[24.512,44.9141],[24.4881,44.9603],[24.5374,45.1361],[24.5295,45.1745],[24.4951,45.2155],[24.5005,45.2735],[24.49,45.3087],[24.5166,45.3494],[24.4937,45.4354],[24.5395,45.5298],[24.5272,45.5618],[24.7091,45.5988],[24.7874,45.6003],[24.8388,45.5631],[24.8804,45.5768],[24.9839,45.58],[25.0951,45.5696],[25.2062,45.5162],[25.2759,45.4165],[25.3092,45.3885]]]}},{"type":"Feature","id":"Bacau","properties":{"id":"Bacau","iso_code":"RO-BC","name":"Bacau","name_full":"Bacău","name_ja":"バカウ県","center_lonlat":[26.7901,46.4065]},"geometry":{"type":"Polygon","coordinates":[[[26.4848,46.0212],[26.4614,46.0354],[26.4406,46.0748],[26.3961,46.1034],[26.4128,46.1213],[26.41,46.1363],[26.3418,46.1776],[26.2516,46.1503],[26.2989,46.3111],[26.262,46.3283],[26.1678,46.3062],[26.1595,46.3125],[26.1674,46.3617],[26.1469,46.3847],[26.0249,46.4127],[26.0243,46.4549],[26.0699,46.4872],[26.012,46.5936],[26.0088,46.668],[26.0594,46.6754],[26.1434,46.6602],[26.2538,46.7044],[26.2986,46.6654],[26.2997,46.635],[26.4077,46.6351],[26.4544,46.6661],[26.5818,46.667],[26.6239,46.696],[26.6855,46.7138],[26.7144,46.7401],[26.8029,46.7149],[26.8349,46.7196],[26.8518,46.734],[26.8559,46.7647],[26.8888,46.7871],[26.8947,46.8138],[26.9257,46.8027],[26.9376,46.764],[26.9712,46.7437],[27.066,46.7514],[27.1861,46.7292],[27.2255,46.7428],[27.3238,46.6725],[27.3358,46.6547],[27.3377,46.5849],[27.479,46.3975],[27.513,46.2891],[27.5199,46.1626],[27.4545,46.1727],[27.4132,46.1518],[27.3068,46.1738],[27.2082,46.1535],[27.1124,46.0809],[27.0186,46.0931],[26.9725,46.0607],[26.9187,46.0734],[26.6704,46.0768],[26.6361,46.0573],[26.6306,46.0195],[26.6004,46.0092],[26.4848,46.0212]]]}},{"type":"Feature","id":"Bihor","properties":{"id":"Bihor","iso_code":"RO-BH","name":"Bihor","name_full":"Bihor","name_ja":"ビホル県","center_lonlat":[22.2007,46.9299]},"geometry":{"type":"Polygon","coordinates":[[[21.4235,46.6582],[21.5018,46.7035],[21.5052,46.7232],[21.4705,46.743],[21.5029,46.8053],[21.5366,46.835],[21.5834,46.8479],[21.5899,46.9089],[21.6485,46.943],[21.6714,46.9934],[21.6328,47.0227],[21.7638,47.1052],[21.7799,47.1407],[21.8199,47.1727],[21.8236,47.2149],[21.8622,47.2974],[21.919,47.3497],[21.9815,47.3661],[22.0016,47.3938],[21.9889,47.4929],[22.0079,47.5174],[22.0996,47.5709],[22.1485,47.5793],[22.1676,47.5949],[22.2134,47.5391],[22.2812,47.4963],[22.3515,47.4057],[22.4285,47.3997],[22.4828,47.4103],[22.5548,47.3758],[22.5807,47.3214],[22.5427,47.24],[22.4943,47.1942],[22.4949,47.1806],[22.5905,47.0586],[22.6639,47.0255],[22.7194,46.9794],[22.6883,46.9203],[22.7602,46.8948],[22.7613,46.8659],[22.7392,46.8284],[22.6822,46.8067],[22.6662,46.7844],[22.7338,46.7243],[22.7643,46.657],[22.8034,46.6274],[22.8028,46.5569],[22.7398,46.5654],[22.7025,46.5321],[22.6869,46.483],[22.6881,46.422],[22.7067,46.3687],[22.4203,46.3902],[22.3929,46.4269],[22.2094,46.4949],[22.153,46.576],[22.0938,46.6069],[21.9786,46.6132],[21.8258,46.6581],[21.492,46.6452],[21.4235,46.6582]]]}},{"type":"Feature","id":"Bistrita-Nasaud","properties":{"id":"Bistrita-Nasaud","iso_code":"RO-BN","name":"Bistrita-Nasaud","name_full":"Bistrița-Năsăud","name_ja":"ビストリツァ＝ナサウド県","center_lonlat":[24.5296,47.2142]},"geometry":{"type":"Polygon","coordinates":[[[24.1968,46.7845],[24.2248,46.8279],[24.2387,46.8993],[24.215,46.9269],[24.1608,46.955],[24.1611,46.9878],[24.1357,47.0031],[24.1408,47.0679],[24.0578,47.1155],[23.9731,47.1374],[23.9507,47.1677],[23.9363,47.2457],[23.9982,47.296],[24.0075,47.3246],[24.1071,47.4109],[24.1259,47.4567],[24.2451,47.4817],[24.2823,47.5299],[24.3657,47.5591],[24.5709,47.5322],[24.7592,47.5365],[24.8708,47.5828],[24.9562,47.5823],[25.0461,47.5297],[25.0894,47.483],[25.0838,47.4578],[25.0394,47.4352],[25.0494,47.3999],[25.0026,47.3866],[25.0568,47.3153],[25.0276,47.2473],[25.0748,47.2343],[25.0632,47.1728],[25.0686,47.103],[24.899,47.0669],[24.816,47.0218],[24.7643,46.9567],[24.7357,46.894],[24.7061,46.892],[24.6367,46.9148],[24.582,46.8945],[24.4838,46.7673],[24.3456,46.7454],[24.1968,46.7845]]]}},{"type":"Feature","id":"Botosani","properties":{"id":"Botosani","iso_code":"RO-BT","name":"Botosani","name_full":"Botoșani","name_ja":"ボトシャニ県","center_lonlat":[26.7554,47.8526]},"geometry":{"type":"Polygon","coordinates":[[[27.4313,47.5726],[27.3761,47.5551],[27.3071,47.5575],[27.232,47.4911],[27.0925,47.5183],[27.0712,47.4984],[27.092,47.4543],[27.0558,47.4363],[27.0214,47.4387],[26.9569,47.4767],[26.7893,47.4771],[26.7339,47.4934],[26.6585,47.4267],[26.6172,47.4307],[26.5676,47.4681],[26.5621,47.5284],[26.5267,47.614],[26.2833,47.8263],[26.1267,47.9063],[26.1025,47.9783],[26.1731,47.9931],[26.2048,48.0374],[26.2553,48.0723],[26.287,48.1247],[26.3035,48.212],[26.5874,48.2494],[26.6657,48.2742],[26.7224,48.2598],[26.7331,48.2707],[26.7637,48.2527],[26.8049,48.2583],[26.8977,48.209],[26.908,48.1845],[26.9381,48.2048],[26.9631,48.1754],[26.9976,48.1666],[26.9666,48.1434],[27.048,48.1222],[27.0343,48.1018],[27.0417,48.0773],[27.1093,48.0335],[27.089,48.0198],[27.0958,48.0056],[27.1215,48.0132],[27.1437,47.9868],[27.1688,47.9831],[27.151,47.9578],[27.1783,47.9379],[27.1607,47.9217],[27.2124,47.8895],[27.2124,47.8479],[27.2534,47.8281],[27.2192,47.8138],[27.2875,47.7523],[27.2951,47.7182],[27.272,47.715],[27.2811,47.693],[27.3692,47.6083],[27.4313,47.5726]]]}},{"type":"Feature","id":"Braila","properties":{"id":"Braila","iso_code":"RO-BR","name":"Braila","name_full":"Brăila","name_ja":"ブライラ県","center_lonlat":[27.6675,45.0964]},"geometry":{"type":"Polygon","coordinates":[[[27.4235,45.3865],[27.4832,45.4573],[27.5801,45.4933],[27.6373,45.4755],[27.7026,45.477],[27.7652,45.4331],[27.8202,45.4124],[28.0302,45.3954],[28.0209,45.3445],[27.9867,45.2923],[28.0413,45.2584],[28.1224,45.2498],[28.1308,45.2377],[28.0977,45.1842],[28.1526,45.1612],[28.1779,45.1347],[28.1627,45.1083],[28.1314,45.089],[28.1444,45.0428],[28.1308,45.0186],[28.1414,44.9598],[28.1241,44.9449],[28.1266,44.8958],[28.0801,44.8408],[28.0548,44.777],[28.0141,44.7579],[27.9651,44.7752],[27.9109,44.7753],[27.8334,44.8142],[27.6859,44.787],[27.4126,44.7927],[27.3591,44.8069],[27.299,44.7941],[27.2006,44.8194],[27.2034,44.873],[27.1748,44.9092],[27.1909,44.9276],[27.2464,44.9475],[27.2681,45.0485],[27.2096,45.0616],[27.2051,45.1068],[27.1642,45.1323],[27.1524,45.1843],[27.1256,45.1858],[27.1065,45.1553],[27.0849,45.1553],[27.0641,45.2014],[27.0872,45.2182],[27.1672,45.238],[27.3048,45.2344],[27.3097,45.2861],[27.3872,45.3084],[27.4235,45.3865]]]}},{"type":"Feature","id":"Brasov","properties":{"id":"Brasov","iso_code":"RO-BV","name":"Brasov","name_full":"Brașov","name_ja":"ブラショフ県","center_lonlat":[25.3073,45.7587]},"geometry":{"type":"Polygon","coordinates":[[[25.4298,45.4523],[25.4027,45.4392],[25.3703,45.3994],[25.3092,45.3885],[25.2759,45.4165],[25.2062,45.5162],[25.0951,45.5696],[24.9839,45.58],[24.8804,45.5768],[24.8388,45.5631],[24.7874,45.6003],[24.7091,45.5988],[24.6917,45.6964],[24.6493,45.7768],[24.7544,45.8202],[24.7569,45.8374],[24.737,45.8484],[24.7364,45.8745],[24.7154,45.9072],[24.7986,45.9475],[24.8413,45.9469],[24.8392,45.9835],[24.9819,46.0636],[24.9758,46.0845],[24.9857,46.1034],[25.0315,46.1299],[25.1881,46.1434],[25.3133,46.1674],[25.4272,46.1272],[25.4545,46.1059],[25.4481,46.092],[25.4598,46.0727],[25.5059,46.0427],[25.5339,46.0496],[25.5673,46.039],[25.5526,45.9349],[25.5579,45.8543],[25.669,45.785],[25.671,45.7516],[25.7686,45.7653],[25.8018,45.7424],[25.8947,45.7178],[25.9495,45.6844],[25.9804,45.6451],[26.0482,45.6141],[26.1005,45.5644],[26.046,45.4823],[25.924,45.5125],[25.9028,45.5006],[25.8822,45.4533],[25.8455,45.4383],[25.7904,45.4733],[25.7502,45.4659],[25.651,45.4853],[25.4298,45.4523]]]}},{"type":"Feature","id":"Bucharest","properties":{"id":"Bucharest","iso_code":"RO-B","name":"Bucharest","name_full":"Bucharest","name_ja":"ブカレスト","center_lonlat":[26.0909,44.4612]},"geometry":{"type":"Polygon","coordinates":[[[26.1045,44.5926],[26.1134,44.5253],[26.1912,44.5119],[26.1673,44.461],[26.2107,44.4341],[26.1957,44.4027],[26.1478,44.4131],[26.1404,44.3982],[26.1718,44.3428],[26.1449,44.3264],[26.097,44.3713],[26.0416,44.3802],[25.9758,44.4311],[25.9758,44.4625],[26.0416,44.467],[26.0416,44.4984],[25.9893,44.5149],[26.0372,44.5747],[26.1045,44.5926]]]}},{"type":"Feature","id":"Buzau","properties":{"id":"Buzau","iso_code":"RO-BZ","name":"Buzau","name_full":"Buzău","name_ja":"ブザウ県","center_lonlat":[26.7422,45.2571]},"geometry":{"type":"Polygon","coordinates":[[[26.3804,45.8029],[26.4246,45.7732],[26.5322,45.6504],[26.569,45.6248],[26.6694,45.6212],[26.7548,45.5633],[26.8433,45.525],[26.8945,45.5187],[26.9071,45.5452],[26.9758,45.5333],[26.9992,45.5152],[27.0062,45.4818],[27.0502,45.4543],[27.1378,45.4678],[27.1471,45.4304],[27.2171,45.4491],[27.2761,45.4348],[27.3076,45.3965],[27.4235,45.3865],[27.3872,45.3084],[27.3097,45.2861],[27.3048,45.2344],[27.1672,45.238],[27.0872,45.2182],[27.0641,45.2014],[27.0849,45.1553],[27.1065,45.1553],[27.1256,45.1858],[27.1524,45.1843],[27.1642,45.1323],[27.2051,45.1068],[27.2096,45.0616],[27.2681,45.0485],[27.2464,44.9475],[27.1909,44.9276],[27.1748,44.9092],[27.2034,44.873],[27.2006,44.8194],[27.1744,44.8011],[27.1989,44.7765],[27.1315,44.7595],[27.1204,44.763],[27.1146,44.7998],[27.0524,44.8235],[26.986,44.8027],[26.9192,44.8262],[26.6779,44.8325],[26.6039,44.8651],[26.543,44.9261],[26.5779,44.9774],[26.5425,45.0094],[26.4895,45.0247],[26.4692,45.1176],[26.4159,45.1615],[26.4161,45.1984],[26.3789,45.1839],[26.3453,45.2102],[26.2621,45.2182],[26.2477,45.2523],[26.2087,45.2833],[26.2136,45.3186],[26.174,45.3865],[26.046,45.4823],[26.1005,45.5644],[26.201,45.5773],[26.2346,45.6256],[26.2847,45.6028],[26.3194,45.6089],[26.395,45.7498],[26.3804,45.8029]]]}},{"type":"Feature","id":"Calarasi","properties":{"id":"Calarasi","iso_code":"RO-CL","name":"Calarasi","name_full":"Călărași","name_ja":"カララシ県","center_lonlat":[27.0649,44.3246]},"geometry":{"type":"Polygon","coordinates":[[[26.4158,44.0638],[26.4175,44.0881],[26.4599,44.1439],[26.4515,44.2068],[26.415,44.2442],[26.3263,44.2822],[26.28,44.3215],[26.3424,44.4014],[26.4565,44.4602],[26.4597,44.4736],[26.4116,44.4958],[26.4164,44.5145],[26.4341,44.5233],[26.5297,44.5551],[26.5899,44.5304],[26.6335,44.5274],[26.707,44.5632],[26.7837,44.5263],[26.8394,44.5288],[26.8995,44.5111],[26.9767,44.5177],[27.0973,44.488],[27.4658,44.5065],[27.6896,44.4688],[27.7802,44.4178],[28.0228,44.3547],[27.9935,44.3044],[27.934,44.266],[27.7888,44.2399],[27.7329,44.2099],[27.569,44.1955],[27.4449,44.1341],[27.2924,44.1516],[27.2527,44.1215],[27.1002,44.1445],[27.0275,44.177],[27.0015,44.1651],[26.8841,44.1565],[26.7537,44.1081],[26.4158,44.0638]]]}},{"type":"Feature","id":"Caras-Severin","properties":{"id":"Caras-Severin","iso_code":"RO-CS","name":"Caras-Severin","name_full":"Caraș-Severin","name_ja":"カラシュ＝セヴェリン県","center_lonlat":[22.0463,45.1493]},"geometry":{"type":"Polygon","coordinates":[[[21.4844,45.1527],[21.5272,45.1852],[21.5271,45.2428],[21.5541,45.2801],[21.5418,45.3233],[21.474,45.3738],[21.4855,45.4495],[21.5688,45.4965],[21.5918,45.5487],[21.6691,45.564],[21.7864,45.5237],[21.9023,45.5601],[21.9267,45.5515],[21.9644,45.5076],[22.0081,45.5045],[22.0597,45.5284],[22.0359,45.5364],[22.0368,45.5684],[22.1158,45.5759],[22.1767,45.6067],[22.217,45.5881],[22.264,45.586],[22.2982,45.6298],[22.335,45.6481],[22.4454,45.6629],[22.4834,45.6115],[22.5374,45.5973],[22.5424,45.57],[22.5761,45.5671],[22.6784,45.4925],[22.698,45.413],[22.6753,45.3739],[22.7069,45.3223],[22.6722,45.2669],[22.6691,45.2405],[22.601,45.1977],[22.5625,45.1469],[22.5745,45.1343],[22.6346,45.1275],[22.6465,45.1136],[22.6411,45.0924],[22.5666,45.0239],[22.5337,44.9342],[22.4918,44.8846],[22.4317,44.7582],[22.3956,44.751],[22.3629,44.7763],[22.3112,44.7779],[22.2535,44.812],[22.228,44.8112],[22.1617,44.6905],[22.169,44.609],[22.1389,44.5966],[22.0342,44.5962],[21.9943,44.6586],[21.8554,44.6985],[21.7568,44.6773],[21.6563,44.6877],[21.6197,44.7139],[21.5956,44.766],[21.578,44.7777],[21.4122,44.7848],[21.3428,44.8319],[21.3685,44.8649],[21.4815,44.8726],[21.5363,44.8893],[21.5391,44.9085],[21.5163,44.9339],[21.4084,44.9583],[21.3852,44.9695],[21.3839,44.9867],[21.3514,44.9982],[21.3634,45.0165],[21.4219,45.0314],[21.4424,45.0929],[21.4941,45.1193],[21.4844,45.1527]]]}},{"type":"Feature","id":"Cluj","properties":{"id":"Cluj","iso_code":"RO-CJ","name":"Cluj","name_full":"Cluj","name_ja":"クルジュ県","center_lonlat":[23.5393,46.7964]},"geometry":{"type":"Polygon","coordinates":[[[24.0075,47.3246],[23.9982,47.296],[23.9363,47.2457],[23.9507,47.1677],[23.9731,47.1374],[24.0578,47.1155],[24.1408,47.0679],[24.1357,47.0031],[24.1611,46.9878],[24.1608,46.955],[24.215,46.9269],[24.2387,46.8993],[24.2248,46.8279],[24.1968,46.7845],[24.1573,46.7759],[24.1093,46.7165],[24.1047,46.6966],[24.1264,46.6718],[24.1208,46.6438],[24.0621,46.629],[24.0359,46.6035],[24.0232,46.5712],[24.0328,46.5345],[23.9917,46.51],[23.9675,46.4765],[23.9954,46.4497],[23.9711,46.4366],[23.8756,46.4522],[23.6911,46.4356],[23.674,46.4288],[23.6759,46.4037],[23.655,46.4009],[23.6107,46.4242],[23.6301,46.4591],[23.6239,46.4725],[23.5401,46.4768],[23.4205,46.5243],[23.3032,46.5139],[23.248,46.4842],[23.1539,46.4944],[23.0773,46.4553],[23.0551,46.4872],[22.9967,46.531],[22.833,46.5382],[22.8028,46.5569],[22.8034,46.6274],[22.7643,46.657],[22.7338,46.7243],[22.6662,46.7844],[22.6822,46.8067],[22.7392,46.8284],[22.7613,46.8659],[22.7602,46.8948],[22.6883,46.9203],[22.7194,46.9794],[22.8793,46.9685],[22.9345,46.9019],[22.9938,46.8938],[23.0185,46.8757],[23.1964,46.8742],[23.2234,46.9282],[23.2423,46.9365],[23.2691,46.9051],[23.3094,46.9087],[23.3472,46.8918],[23.365,46.9194],[23.3413,46.9435],[23.3421,46.9591],[23.3839,46.9592],[23.4097,46.9843],[23.4818,46.9949],[23.4841,47.0122],[23.4545,47.0658],[23.4868,47.0777],[23.5096,47.1269],[23.5909,47.1524],[23.6219,47.149],[23.6619,47.1898],[23.6967,47.2027],[23.8041,47.2185],[23.8288,47.2941],[23.8129,47.3165],[23.8415,47.3332],[24.0075,47.3246]]]}},{"type":"Feature","id":"Constanta","properties":{"id":"Constanta","iso_code":"RO-CT","name":"Constanta","name_full":"Constanța","name_ja":"コンスタンツァ県","center_lonlat":[28.2381,44.2476]},"geometry":{"type":"Polygon","coordinates":[[[27.2527,44.1215],[27.2924,44.1516],[27.4449,44.1341],[27.569,44.1955],[27.7329,44.2099],[27.7888,44.2399],[27.934,44.266],[27.9935,44.3044],[28.0228,44.3547],[28.0482,44.3982],[28.1103,44.4426],[28.109,44.4578],[28.0861,44.5047],[28.0072,44.532],[28.0215,44.5525],[28.0308,44.6371],[27.978,44.6793],[27.9164,44.6945],[27.8845,44.726],[27.8837,44.7579],[27.9109,44.7753],[27.9651,44.7752],[28.0141,44.7579],[28.0548,44.777],[28.1452,44.7825],[28.1956,44.7681],[28.282,44.7105],[28.3253,44.7177],[28.3469,44.7609],[28.4045,44.7609],[28.4549,44.7177],[28.5269,44.6961],[28.6709,44.7105],[28.7854,44.6797],[28.7925,44.6447],[28.8456,44.6516],[28.912,44.6964],[28.8977,44.7168],[28.9675,44.701],[28.9876,44.6753],[28.9621,44.6394],[28.9387,44.6343],[28.9754,44.6868],[28.9524,44.6964],[28.9578,44.6788],[28.9182,44.6827],[28.8542,44.6343],[28.7742,44.6008],[28.7947,44.6343],[28.7578,44.6268],[28.7644,44.5959],[28.7879,44.5865],[28.7327,44.5679],[28.7327,44.5523],[28.7469,44.566],[28.7742,44.5523],[28.7456,44.4862],[28.7585,44.4653],[28.7783,44.5074],[28.8556,44.5677],[28.9063,44.5877],[28.925,44.6206],[28.844,44.4937],[28.7967,44.4679],[28.7066,44.381],[28.6931,44.3461],[28.6644,44.3484],[28.6351,44.3164],[28.631,44.2644],[28.6717,44.1687],[28.6458,44.172],[28.6309,44.1545],[28.6717,43.9974],[28.6094,43.8745],[28.5784,43.7413],[28.4346,43.7352],[28.2213,43.762],[27.981,43.8493],[27.9358,43.9644],[27.9121,43.9933],[27.8565,43.9886],[27.7217,43.9487],[27.6563,44.0239],[27.6334,44.0298],[27.5745,44.0163],[27.3838,44.0151],[27.3417,44.0531],[27.2853,44.0725],[27.2643,44.0898],[27.269,44.1124],[27.2527,44.1215]]]}},{"type":"Feature","id":"Covasna","properties":{"id":"Covasna","iso_code":"RO-CV","name":"Covasna","name_full":"Covasna","name_ja":"コヴァスナ県","center_lonlat":[25.9883,45.9314]},"geometry":{"type":"Polygon","coordinates":[[[26.4848,46.0212],[26.4048,45.9175],[26.3804,45.8029],[26.395,45.7498],[26.3194,45.6089],[26.2847,45.6028],[26.2346,45.6256],[26.201,45.5773],[26.1005,45.5644],[26.0482,45.6141],[25.9804,45.6451],[25.9495,45.6844],[25.8947,45.7178],[25.8018,45.7424],[25.7686,45.7653],[25.671,45.7516],[25.669,45.785],[25.5579,45.8543],[25.5526,45.9349],[25.5673,46.039],[25.5339,46.0496],[25.5059,46.0427],[25.4598,46.0727],[25.4481,46.092],[25.4545,46.1059],[25.4975,46.1654],[25.6049,46.2511],[25.691,46.2929],[25.744,46.2628],[25.7959,46.1756],[25.8985,46.1158],[25.9917,46.1109],[26.2516,46.1503],[26.3418,46.1776],[26.41,46.1363],[26.4128,46.1213],[26.3961,46.1034],[26.4406,46.0748],[26.4614,46.0354],[26.4848,46.0212]]]}},{"type":"Feature","id":"Dambovita","properties":{"id":"Dambovita","iso_code":"RO-DB","name":"Dambovita","name_full":"Dâmbovița","name_ja":"ドゥンボヴィツァ県","center_lonlat":[25.511,44.8678]},"geometry":{"type":"Polygon","coordinates":[[[26.0289,44.7381],[25.95,44.6659],[25.954,44.6541],[25.988,44.6454],[25.9872,44.6288],[25.9071,44.5659],[25.5991,44.5529],[25.5513,44.5397],[25.5136,44.5059],[25.3958,44.528],[25.3982,44.502],[25.348,44.4494],[25.3111,44.4316],[25.2785,44.4373],[25.2998,44.4652],[25.2925,44.5223],[25.3171,44.5658],[25.2543,44.5899],[25.1907,44.6548],[25.1922,44.6754],[25.2186,44.6901],[25.1823,44.7274],[25.205,44.767],[25.2159,44.8594],[25.1944,44.9491],[25.2352,45.016],[25.1741,45.0903],[25.1631,45.1299],[25.1888,45.1912],[25.2355,45.1684],[25.2709,45.192],[25.2944,45.2683],[25.3338,45.3377],[25.3092,45.3885],[25.3703,45.3994],[25.4027,45.4392],[25.4298,45.4523],[25.4593,45.3329],[25.5183,45.2867],[25.5257,45.2238],[25.677,45.0588],[25.7024,44.9675],[25.7313,44.9466],[25.7821,44.949],[25.8001,44.9382],[25.8185,44.9083],[25.8137,44.8653],[25.8252,44.8374],[25.9158,44.8156],[25.985,44.7556],[26.0289,44.7381]]]}},{"type":"Feature","id":"Dolj","properties":{"id":"Dolj","iso_code":"RO-DJ","name":"Dolj","name_full":"Dolj","name_ja":"ドルジュ県","center_lonlat":[23.6397,44.1595]},"geometry":{"type":"Polygon","coordinates":[[[23.0083,44.1004],[23.0906,44.1623],[23.1395,44.1708],[23.1316,44.2359],[23.1734,44.3434],[23.235,44.3742],[23.2739,44.3743],[23.2673,44.3906],[23.2093,44.4028],[23.2189,44.4516],[23.2618,44.4668],[23.31,44.5057],[23.2908,44.5188],[23.4754,44.5392],[23.4894,44.5503],[23.5813,44.5968],[23.7322,44.6239],[23.7355,44.7292],[23.7755,44.7225],[23.7884,44.6818],[23.8722,44.6417],[23.9017,44.5834],[23.9582,44.5297],[23.9068,44.4802],[23.9101,44.4579],[23.9586,44.4343],[24.0039,44.3927],[24.0383,44.3836],[24.1594,44.264],[24.2324,44.2336],[24.2567,44.2102],[24.2485,44.1597],[24.2767,44.1022],[24.2207,44.1011],[24.2049,44.0458],[24.2206,44.0299],[24.2867,44.0168],[24.2921,43.9886],[24.2544,43.9603],[24.2735,43.927],[24.2595,43.8926],[24.2043,43.8391],[24.1496,43.7547],[23.7999,43.8185],[23.7429,43.8427],[23.5927,43.8374],[23.4847,43.8806],[23.3252,43.8866],[23.2345,43.8773],[23.1318,43.8479],[22.8888,43.8395],[22.851,43.8744],[22.8747,43.972],[22.9058,44.004],[23.023,44.0316],[23.0401,44.0623],[23.031,44.0931],[23.0083,44.1004]]]}},{"type":"Feature","id":"Galati","properties":{"id":"Galati","iso_code":"RO-GL","name":"Galati","name_full":"Galați","name_ja":"ガラツィ県","center_lonlat":[27.7649,45.7852]},"geometry":{"type":"Polygon","coordinates":[[[28.1078,46.0961],[28.0902,46.0734],[28.0969,46.0597],[28.0827,46.0147],[28.125,45.9184],[28.1174,45.8952],[28.1311,45.8714],[28.1105,45.8543],[28.1133,45.8254],[28.155,45.7618],[28.168,45.6325],[28.1077,45.6244],[28.0621,45.5936],[28.1409,45.5602],[28.1654,45.5283],[28.1659,45.4946],[28.2151,45.4504],[28.1871,45.4144],[28.1158,45.428],[28.0511,45.415],[28.0302,45.3954],[27.8202,45.4124],[27.7652,45.4331],[27.7026,45.477],[27.6373,45.4755],[27.5801,45.4933],[27.5436,45.5253],[27.5062,45.6245],[27.3848,45.7184],[27.2503,45.9693],[27.261,46.0123],[27.3302,46.0653],[27.4286,46.082],[27.4761,46.1137],[27.5332,46.1165],[27.5678,46.0839],[27.6204,45.9963],[27.6364,46.0048],[27.6444,46.053],[27.6137,46.1154],[27.6314,46.1275],[27.8029,46.1129],[27.8266,46.1028],[27.8357,46.0818],[27.9039,46.1251],[28.0556,46.0897],[28.1078,46.0961]]]}},{"type":"Feature","id":"Giurgiu","properties":{"id":"Giurgiu","iso_code":"RO-GR","name":"Giurgiu","name_full":"Giurgiu","name_ja":"ジュルジュ県","center_lonlat":[25.9185,44.1789]},"geometry":{"type":"Polygon","coordinates":[[[25.7329,43.7188],[25.7158,43.8213],[25.6742,43.8835],[25.6404,44.0452],[25.6728,44.1441],[25.7194,44.1598],[25.7146,44.2709],[25.6526,44.3177],[25.5377,44.3366],[25.4936,44.4066],[25.5366,44.4787],[25.5345,44.4938],[25.5136,44.5059],[25.5513,44.5397],[25.5991,44.5529],[25.9071,44.5659],[25.932,44.5273],[25.8888,44.4007],[25.9051,44.3693],[26.1473,44.26],[26.2013,44.2663],[26.28,44.3215],[26.3263,44.2822],[26.415,44.2442],[26.4515,44.2068],[26.4599,44.1439],[26.4175,44.0881],[26.4158,44.0638],[26.3105,44.0526],[26.1162,43.9989],[26.0543,43.9343],[25.934,43.8703],[25.8693,43.8009],[25.8063,43.7637],[25.7811,43.732],[25.7329,43.7188]]]}},{"type":"Feature","id":"Gorj","properties":{"id":"Gorj","iso_code":"RO-GJ","name":"Gorj","name_full":"Gorj","name_ja":"ゴルジュ県","center_lonlat":[23.3283,45.0073]},"geometry":{"type":"Polygon","coordinates":[[[23.5858,45.3526],[23.7101,45.3335],[23.7982,45.3376],[23.8357,45.3066],[23.821,45.2484],[23.8421,45.1768],[23.8219,45.1289],[23.8247,45.0815],[23.7788,44.9482],[23.7937,44.8333],[23.7755,44.7225],[23.7355,44.7292],[23.7322,44.6239],[23.5813,44.5968],[23.4894,44.5503],[23.463,44.5852],[23.3423,44.6564],[23.1035,44.7177],[22.9374,44.8416],[22.9129,44.9212],[22.9178,44.973],[22.8353,45.0284],[22.7412,45.0331],[22.6803,45.0794],[22.6411,45.0924],[22.6465,45.1136],[22.6346,45.1275],[22.5745,45.1343],[22.5625,45.1469],[22.601,45.1977],[22.6691,45.2405],[22.8924,45.2965],[23.0118,45.2591],[23.0908,45.2794],[23.1736,45.2688],[23.3575,45.3215],[23.4394,45.303],[23.5858,45.3526]]]}},{"type":"Feature","id":"Harghita","properties":{"id":"Harghita","iso_code":"RO-HR","name":"Harghita","name_full":"Harghita","name_ja":"ハルギタ県","center_lonlat":[25.5735,46.5341]},"geometry":{"type":"Polygon","coordinates":[[[25.4545,46.1059],[25.4272,46.1272],[25.3133,46.1674],[25.1881,46.1434],[25.0565,46.2303],[24.9738,46.2379],[24.8705,46.3252],[24.9615,46.3644],[24.9676,46.3817],[24.9325,46.4087],[25.0129,46.4397],[25.0348,46.5059],[25.0937,46.5482],[25.166,46.5741],[25.2807,46.6674],[25.2894,46.7585],[25.2548,46.8383],[25.2708,46.906],[25.268,46.9667],[25.2574,46.9943],[25.2114,47.0383],[25.2047,47.0764],[25.2826,47.0704],[25.3118,47.123],[25.3898,47.1397],[25.5679,47.0488],[25.6713,47.0579],[25.7371,47.039],[25.7918,46.9661],[25.8658,46.9128],[25.8668,46.8837],[25.832,46.8853],[25.817,46.8698],[25.8282,46.6936],[25.8409,46.6702],[25.9112,46.6293],[25.907,46.6748],[25.9175,46.6797],[26.0088,46.668],[26.012,46.5936],[26.0699,46.4872],[26.0243,46.4549],[26.0249,46.4127],[26.1469,46.3847],[26.1674,46.3617],[26.1595,46.3125],[26.1678,46.3062],[26.262,46.3283],[26.2989,46.3111],[26.2516,46.1503],[25.9917,46.1109],[25.8985,46.1158],[25.7959,46.1756],[25.744,46.2628],[25.691,46.2929],[25.6049,46.2511],[25.4975,46.1654],[25.4545,46.1059]]]}},{"type":"Feature","id":"Hunedoara","properties":{"id":"Hunedoara","iso_code":"RO-HD","name":"Hunedoara","name_full":"Hunedoara","name_ja":"フネドアラ県","center_lonlat":[22.9342,45.7464]},"geometry":{"type":"Polygon","coordinates":[[[23.5858,45.3526],[23.4394,45.303],[23.3575,45.3215],[23.1736,45.2688],[23.0908,45.2794],[23.0118,45.2591],[22.8924,45.2965],[22.6691,45.2405],[22.6722,45.2669],[22.7069,45.3223],[22.6753,45.3739],[22.698,45.413],[22.6784,45.4925],[22.5761,45.5671],[22.5424,45.57],[22.5374,45.5973],[22.4834,45.6115],[22.4454,45.6629],[22.4811,45.7191],[22.5436,45.7687],[22.5298,45.7799],[22.4941,45.7774],[22.4577,45.8307],[22.4125,45.8627],[22.3891,45.9247],[22.3549,45.9499],[22.4015,45.9917],[22.4196,46.0253],[22.4072,46.0713],[22.4345,46.1293],[22.4336,46.1761],[22.4471,46.1973],[22.4842,46.2173],[22.5765,46.2085],[22.6193,46.2182],[22.6897,46.3002],[22.7553,46.3338],[22.813,46.3107],[22.9142,46.3152],[22.9668,46.2194],[23.0427,46.2021],[23.0665,46.1843],[23.095,46.1389],[23.0915,46.1251],[23.0664,46.1245],[23.0745,46.1046],[23.171,46.016],[23.2256,45.9997],[23.2644,45.9293],[23.3161,45.8768],[23.3718,45.737],[23.3747,45.695],[23.4044,45.6606],[23.3964,45.6301],[23.4109,45.6026],[23.5738,45.5041],[23.5842,45.4473],[23.5999,45.3819],[23.5858,45.3526]]]}},{"type":"Feature","id":"Ialomita","properties":{"id":"Ialomita","iso_code":"RO-IL","name":"Ialomita","name_full":"Ialomița","name_ja":"ヤロミツァ県","center_lonlat":[27.2398,44.6404]},"geometry":{"type":"Polygon","coordinates":[[[26.4341,44.5233],[26.379,44.548],[26.3675,44.5647],[26.3838,44.5973],[26.4318,44.6233],[26.4397,44.6439],[26.3596,44.6845],[26.3382,44.7485],[26.2696,44.7598],[26.3396,44.795],[26.4108,44.7831],[26.4527,44.8083],[26.5348,44.8102],[26.6039,44.8651],[26.6779,44.8325],[26.9192,44.8262],[26.986,44.8027],[27.0524,44.8235],[27.1146,44.7998],[27.1204,44.763],[27.1315,44.7595],[27.1989,44.7765],[27.1744,44.8011],[27.2006,44.8194],[27.299,44.7941],[27.3591,44.8069],[27.4126,44.7927],[27.6859,44.787],[27.8334,44.8142],[27.9109,44.7753],[27.8837,44.7579],[27.8845,44.726],[27.9164,44.6945],[27.978,44.6793],[28.0308,44.6371],[28.0215,44.5525],[28.0072,44.532],[28.0861,44.5047],[28.109,44.4578],[28.1103,44.4426],[28.0482,44.3982],[28.0228,44.3547],[27.7802,44.4178],[27.6896,44.4688],[27.4658,44.5065],[27.0973,44.488],[26.9767,44.5177],[26.8995,44.5111],[26.8394,44.5288],[26.7837,44.5263],[26.707,44.5632],[26.6335,44.5274],[26.5899,44.5304],[26.5297,44.5551],[26.4341,44.5233]]]}},{"type":"Feature","id":"Iasi","properties":{"id":"Iasi","iso_code":"RO-IS","name":"Iasi","name_full":"Iași","name_ja":"ヤシ県","center_lonlat":[27.2865,47.1818]},"geometry":{"type":"Polygon","coordinates":[[[27.4313,47.5726],[27.4731,47.4918],[27.5759,47.4604],[27.583,47.4507],[27.5625,47.4165],[27.5803,47.406],[27.5724,47.3752],[27.5999,47.3607],[27.6369,47.3067],[27.7333,47.2756],[27.7883,47.2043],[27.8077,47.1625],[27.7947,47.1558],[27.8066,47.1446],[27.8499,47.1285],[27.8438,47.1144],[27.9384,47.0611],[27.9387,47.0466],[28.0083,47.0263],[28.028,47.033],[28.1023,46.9351],[28.0969,46.9026],[28.1136,46.8948],[28.1226,46.8423],[28.0313,46.8194],[27.9805,46.8337],[27.9557,46.8171],[27.833,46.8413],[27.8213,46.8539],[27.8387,46.9015],[27.8264,46.9171],[27.8009,46.9116],[27.7864,46.8778],[27.7096,46.9373],[27.6255,46.9739],[27.616,46.9601],[27.6212,46.9095],[27.6671,46.9036],[27.6485,46.8805],[27.5593,46.8884],[27.5302,46.8603],[27.4758,46.8508],[27.4143,46.8631],[27.2048,46.8596],[27.1429,46.9446],[27.1632,46.9636],[27.2395,46.9917],[27.1853,47.0344],[27.1604,47.0705],[27.1093,47.0739],[27.0388,47.0314],[26.9595,47.0378],[26.9277,47.0055],[26.8724,47.0113],[26.7491,47.0665],[26.6484,47.0764],[26.6026,47.1564],[26.4823,47.2536],[26.5779,47.2787],[26.5114,47.3244],[26.5046,47.3501],[26.6473,47.3477],[26.6756,47.4037],[26.6585,47.4267],[26.7339,47.4934],[26.7893,47.4771],[26.9569,47.4767],[27.0214,47.4387],[27.0558,47.4363],[27.092,47.4543],[27.0712,47.4984],[27.0925,47.5183],[27.232,47.4911],[27.3071,47.5575],[27.3761,47.5551],[27.4313,47.5726]]]}},{"type":"Feature","id":"Ilfov","properties":{"id":"Ilfov","iso_code":"RO-IF","name":"Ilfov","name_full":"Ilfov","name_ja":"イルフォヴ県","center_lonlat":[26.162,44.524]},"geometry":{"type":"Polygon","coordinates":[[[25.9071,44.5659],[25.9872,44.6288],[25.988,44.6454],[25.954,44.6541],[25.95,44.6659],[26.0289,44.7381],[26.0423,44.7533],[26.1638,44.768],[26.2696,44.7598],[26.3382,44.7485],[26.3596,44.6845],[26.4397,44.6439],[26.4318,44.6233],[26.3838,44.5973],[26.3675,44.5647],[26.379,44.548],[26.4341,44.5233],[26.4164,44.5145],[26.4116,44.4958],[26.4597,44.4736],[26.4565,44.4602],[26.3424,44.4014],[26.28,44.3215],[26.2013,44.2663],[26.1473,44.26],[25.9051,44.3693],[25.8888,44.4007],[25.932,44.5273],[25.9071,44.5659]],[[26.1957,44.4027],[26.2107,44.4341],[26.1673,44.461],[26.1912,44.5119],[26.1134,44.5253],[26.1045,44.5926],[26.0372,44.5747],[25.9893,44.5149],[26.0416,44.4984],[26.0416,44.467],[25.9758,44.4625],[25.9758,44.4311],[26.0416,44.3802],[26.097,44.3713],[26.1449,44.3264],[26.1718,44.3428],[26.1404,44.3982],[26.1478,44.4131],[26.1957,44.4027]]]}},{"type":"Feature","id":"Maramures","properties":{"id":"Maramures","iso_code":"RO-MM","name":"Maramures","name_full":"Maramureș","name_ja":"マラムレシュ県","center_lonlat":[23.9901,47.6565]},"geometry":{"type":"Polygon","coordinates":[[[24.9424,47.7156],[24.9548,47.6885],[25.0323,47.6123],[25.0158,47.5965],[24.9562,47.5823],[24.8708,47.5828],[24.7592,47.5365],[24.5709,47.5322],[24.3657,47.5591],[24.2823,47.5299],[24.2451,47.4817],[24.1259,47.4567],[24.1071,47.4109],[24.0075,47.3246],[23.8415,47.3332],[23.8129,47.3165],[23.7496,47.3067],[23.6871,47.3356],[23.657,47.3646],[23.4571,47.3652],[23.2718,47.4132],[23.1406,47.417],[23.0905,47.4043],[22.9984,47.4163],[22.966,47.4379],[23.0309,47.4795],[23.0578,47.5261],[23.1168,47.5765],[23.1353,47.5807],[23.2172,47.5353],[23.2497,47.5308],[23.3237,47.5853],[23.3595,47.6426],[23.3533,47.6757],[23.2473,47.7068],[23.2441,47.7362],[23.2718,47.7492],[23.3429,47.7489],[23.4545,47.7351],[23.6292,47.827],[23.6203,47.8505],[23.5597,47.8814],[23.502,47.9342],[23.4855,47.9742],[23.5145,47.999],[23.5632,48.0058],[23.7105,47.9851],[23.7801,47.9875],[23.8484,47.9497],[23.8552,47.9342],[24.0088,47.9612],[24.2093,47.8976],[24.3472,47.9209],[24.4092,47.9521],[24.5616,47.9405],[24.6493,47.8952],[24.6615,47.8539],[24.6791,47.8401],[24.8082,47.7957],[24.8778,47.7187],[24.9424,47.7156]]]}},{"type":"Feature","id":"Mehedinti","properties":{"id":"Mehedinti","iso_code":"RO-MH","name":"Mehedinti","name_full":"Mehedinți","name_ja":"メヘディンチ県","center_lonlat":[22.8238,44.5832]},"geometry":{"type":"Polygon","coordinates":[[[23.0083,44.1004],[22.9064,44.1229],[22.6907,44.2289],[22.6815,44.3053],[22.5828,44.3284],[22.5494,44.349],[22.5051,44.4041],[22.5054,44.435],[22.477,44.464],[22.4841,44.4998],[22.5484,44.5117],[22.5805,44.5655],[22.6212,44.5692],[22.7001,44.5418],[22.7593,44.5647],[22.7652,44.5828],[22.7001,44.6306],[22.5875,44.6494],[22.4837,44.724],[22.4261,44.7337],[22.3807,44.7005],[22.3049,44.6774],[22.1721,44.5053],[22.1043,44.5096],[22.0763,44.5507],[22.0452,44.5692],[22.0342,44.5962],[22.1389,44.5966],[22.169,44.609],[22.1617,44.6905],[22.228,44.8112],[22.2535,44.812],[22.3112,44.7779],[22.3629,44.7763],[22.3956,44.751],[22.4317,44.7582],[22.4918,44.8846],[22.5337,44.9342],[22.5666,45.0239],[22.6411,45.0924],[22.6803,45.0794],[22.7412,45.0331],[22.8353,45.0284],[22.9178,44.973],[22.9129,44.9212],[22.9374,44.8416],[23.1035,44.7177],[23.3423,44.6564],[23.463,44.5852],[23.4894,44.5503],[23.4754,44.5392],[23.2908,44.5188],[23.31,44.5057],[23.2618,44.4668],[23.2189,44.4516],[23.2093,44.4028],[23.2673,44.3906],[23.2739,44.3743],[23.235,44.3742],[23.1734,44.3434],[23.1316,44.2359],[23.1395,44.1708],[23.0906,44.1623],[23.0083,44.1004]]]}},{"type":"Feature","id":"Mures","properties":{"id":"Mures","iso_code":"RO-MS","name":"Mures","name_full":"Mureș","name_ja":"ムレシュ県","center_lonlat":[24.6969,46.5847]},"geometry":{"type":"Polygon","coordinates":[[[23.9954,46.4497],[23.9675,46.4765],[23.9917,46.51],[24.0328,46.5345],[24.0232,46.5712],[24.0359,46.6035],[24.0621,46.629],[24.1208,46.6438],[24.1264,46.6718],[24.1047,46.6966],[24.1093,46.7165],[24.1573,46.7759],[24.1968,46.7845],[24.3456,46.7454],[24.4838,46.7673],[24.582,46.8945],[24.6367,46.9148],[24.7061,46.892],[24.7357,46.894],[24.7643,46.9567],[24.816,47.0218],[24.899,47.0669],[25.0686,47.103],[25.2047,47.0764],[25.2114,47.0383],[25.2574,46.9943],[25.268,46.9667],[25.2708,46.906],[25.2548,46.8383],[25.2894,46.7585],[25.2807,46.6674],[25.166,46.5741],[25.0937,46.5482],[25.0348,46.5059],[25.0129,46.4397],[24.9325,46.4087],[24.9676,46.3817],[24.9615,46.3644],[24.8705,46.3252],[24.9738,46.2379],[25.0565,46.2303],[25.1881,46.1434],[25.0315,46.1299],[24.9857,46.1034],[24.9758,46.0845],[24.9819,46.0636],[24.8723,46.1027],[24.7686,46.0834],[24.7074,46.085],[24.6899,46.1002],[24.6737,46.1482],[24.6622,46.2324],[24.6738,46.2658],[24.5726,46.2638],[24.5334,46.242],[24.3762,46.2322],[24.3026,46.2497],[24.1918,46.2442],[24.1613,46.2662],[24.1433,46.3129],[24.0265,46.369],[24.0268,46.3884],[24.0575,46.4272],[24.0268,46.4483],[23.9954,46.4497]]]}},{"type":"Feature","id":"Neamt","properties":{"id":"Neamt","iso_code":"RO-NT","name":"Neamt","name_full":"Neamț","name_ja":"ネアムツ県","center_lonlat":[26.3886,46.9452]},"geometry":{"type":"Polygon","coordinates":[[[25.6713,47.0579],[25.6962,47.123],[25.8196,47.2069],[25.8194,47.2246],[25.7743,47.2616],[25.7835,47.2776],[25.8913,47.2318],[25.9821,47.2575],[26.0588,47.2449],[26.2229,47.2537],[26.3757,47.297],[26.4327,47.2888],[26.4823,47.2536],[26.6026,47.1564],[26.6484,47.0764],[26.7491,47.0665],[26.8724,47.0113],[26.9277,47.0055],[26.9595,47.0378],[27.0388,47.0314],[27.1093,47.0739],[27.1604,47.0705],[27.1853,47.0344],[27.2395,46.9917],[27.1632,46.9636],[27.1429,46.9446],[27.2048,46.8596],[27.2364,46.7701],[27.2255,46.7428],[27.1861,46.7292],[27.066,46.7514],[26.9712,46.7437],[26.9376,46.764],[26.9257,46.8027],[26.8947,46.8138],[26.8888,46.7871],[26.8559,46.7647],[26.8518,46.734],[26.8349,46.7196],[26.8029,46.7149],[26.7144,46.7401],[26.6855,46.7138],[26.6239,46.696],[26.5818,46.667],[26.4544,46.6661],[26.4077,46.6351],[26.2997,46.635],[26.2986,46.6654],[26.2538,46.7044],[26.1434,46.6602],[26.0594,46.6754],[26.0088,46.668],[25.9175,46.6797],[25.907,46.6748],[25.9112,46.6293],[25.8409,46.6702],[25.8282,46.6936],[25.817,46.8698],[25.832,46.8853],[25.8668,46.8837],[25.8658,46.9128],[25.7918,46.9661],[25.7371,47.039],[25.6713,47.0579]]]}},{"type":"Feature","id":"Olt","properties":{"id":"Olt","iso_code":"RO-OT","name":"Olt","name_full":"Olt","name_ja":"オルト県","center_lonlat":[24.4586,44.306]},"geometry":{"type":"Polygon","coordinates":[[[24.1496,43.7547],[24.2043,43.8391],[24.2595,43.8926],[24.2735,43.927],[24.2544,43.9603],[24.2921,43.9886],[24.2867,44.0168],[24.2206,44.0299],[24.2049,44.0458],[24.2207,44.1011],[24.2767,44.1022],[24.2485,44.1597],[24.2567,44.2102],[24.2324,44.2336],[24.1594,44.264],[24.0383,44.3836],[24.0039,44.3927],[23.9586,44.4343],[23.9101,44.4579],[23.9068,44.4802],[23.9582,44.5297],[24.0199,44.5509],[24.0835,44.517],[24.1497,44.5664],[24.2069,44.5624],[24.246,44.5764],[24.278,44.6199],[24.2933,44.6179],[24.309,44.5773],[24.3332,44.5832],[24.323,44.6244],[24.2998,44.6555],[24.2864,44.7459],[24.33,44.7903],[24.3534,44.8603],[24.397,44.9095],[24.427,44.9121],[24.4398,44.8966],[24.4378,44.85],[24.4651,44.8198],[24.5636,44.8914],[24.5697,44.848],[24.6332,44.7571],[24.6687,44.7398],[24.726,44.7374],[24.7295,44.7283],[24.6898,44.7052],[24.7249,44.6511],[24.7415,44.591],[24.751,44.5459],[24.7438,44.509],[24.7654,44.4165],[24.7815,44.4031],[24.8513,44.3899],[24.8375,44.3568],[24.8484,44.2493],[24.8341,44.1933],[24.8413,44.1158],[24.7236,44.0592],[24.6577,44.0448],[24.6307,44.0098],[24.6627,43.9336],[24.7469,43.8147],[24.6618,43.7557],[24.4663,43.8024],[24.3582,43.76],[24.1496,43.7547]]]}},{"type":"Feature","id":"Prahova","properties":{"id":"Prahova","iso_code":"RO-PH","name":"Prahova","name_full":"Prahova","name_ja":"プラホヴァ県","center_lonlat":[26.0114,45.1219]},"geometry":{"type":"Polygon","coordinates":[[[26.0289,44.7381],[25.985,44.7556],[25.9158,44.8156],[25.8252,44.8374],[25.8137,44.8653],[25.8185,44.9083],[25.8001,44.9382],[25.7821,44.949],[25.7313,44.9466],[25.7024,44.9675],[25.677,45.0588],[25.5257,45.2238],[25.5183,45.2867],[25.4593,45.3329],[25.4298,45.4523],[25.651,45.4853],[25.7502,45.4659],[25.7904,45.4733],[25.8455,45.4383],[25.8822,45.4533],[25.9028,45.5006],[25.924,45.5125],[26.046,45.4823],[26.174,45.3865],[26.2136,45.3186],[26.2087,45.2833],[26.2477,45.2523],[26.2621,45.2182],[26.3453,45.2102],[26.3789,45.1839],[26.4161,45.1984],[26.4159,45.1615],[26.4692,45.1176],[26.4895,45.0247],[26.5425,45.0094],[26.5779,44.9774],[26.543,44.9261],[26.6039,44.8651],[26.5348,44.8102],[26.4527,44.8083],[26.4108,44.7831],[26.3396,44.795],[26.2696,44.7598],[26.1638,44.768],[26.0423,44.7533],[26.0289,44.7381]]]}},{"type":"Feature","id":"Salaj","properties":{"id":"Salaj","iso_code":"RO-SJ","name":"Salaj","name_full":"Sălaj","name_ja":"サラージュ県","center_lonlat":[23.1129,47.17]},"geometry":{"type":"Polygon","coordinates":[[[23.8129,47.3165],[23.8288,47.2941],[23.8041,47.2185],[23.6967,47.2027],[23.6619,47.1898],[23.6219,47.149],[23.5909,47.1524],[23.5096,47.1269],[23.4868,47.0777],[23.4545,47.0658],[23.4841,47.0122],[23.4818,46.9949],[23.4097,46.9843],[23.3839,46.9592],[23.3421,46.9591],[23.3413,46.9435],[23.365,46.9194],[23.3472,46.8918],[23.3094,46.9087],[23.2691,46.9051],[23.2423,46.9365],[23.2234,46.9282],[23.1964,46.8742],[23.0185,46.8757],[22.9938,46.8938],[22.9345,46.9019],[22.8793,46.9685],[22.7194,46.9794],[22.6639,47.0255],[22.5905,47.0586],[22.4949,47.1806],[22.4943,47.1942],[22.5427,47.24],[22.5807,47.3214],[22.7547,47.3879],[22.8018,47.3928],[22.9119,47.372],[23.0454,47.3143],[23.1103,47.3618],[23.0905,47.4043],[23.1406,47.417],[23.2718,47.4132],[23.4571,47.3652],[23.657,47.3646],[23.6871,47.3356],[23.7496,47.3067],[23.8129,47.3165]]]}},{"type":"Feature","id":"Satu Mare","properties":{"id":"Satu Mare","iso_code":"RO-SM","name":"Satu Mare","name_full":"Satu Mare","name_ja":"サトゥ・マーレ県","center_lonlat":[22.891,47.6874]},"geometry":{"type":"Polygon","coordinates":[[[23.4855,47.9742],[23.502,47.9342],[23.5597,47.8814],[23.6203,47.8505],[23.6292,47.827],[23.4545,47.7351],[23.3429,47.7489],[23.2718,47.7492],[23.2441,47.7362],[23.2473,47.7068],[23.3533,47.6757],[23.3595,47.6426],[23.3237,47.5853],[23.2497,47.5308],[23.2172,47.5353],[23.1353,47.5807],[23.1168,47.5765],[23.0578,47.5261],[23.0309,47.4795],[22.966,47.4379],[22.9984,47.4163],[23.0905,47.4043],[23.1103,47.3618],[23.0454,47.3143],[22.9119,47.372],[22.8018,47.3928],[22.7547,47.3879],[22.5807,47.3214],[22.5548,47.3758],[22.4828,47.4103],[22.4285,47.3997],[22.3515,47.4057],[22.2812,47.4963],[22.2134,47.5391],[22.1676,47.5949],[22.2079,47.6737],[22.2731,47.7238],[22.3959,47.7357],[22.4237,47.7826],[22.4544,47.7874],[22.563,47.7572],[22.6377,47.7716],[22.7039,47.8172],[22.7518,47.8277],[22.7636,47.8748],[22.8197,47.8923],[22.8776,47.9467],[22.9158,47.9592],[22.9241,48.0048],[23.0203,47.9847],[23.0631,48.0075],[23.099,48.0712],[23.1391,48.0981],[23.2314,48.0797],[23.3601,47.9931],[23.4855,47.9742]]]}},{"type":"Feature","id":"Sibiu","properties":{"id":"Sibiu","iso_code":"RO-SB","name":"Sibiu","name_full":"Sibiu","name_ja":"シビウ県","center_lonlat":[24.2494,45.8464]},"geometry":{"type":"Polygon","coordinates":[[[24.7091,45.5988],[24.5272,45.5618],[24.3218,45.563],[24.1689,45.537],[24.0683,45.4964],[23.9606,45.5122],[23.794,45.508],[23.6587,45.4539],[23.6261,45.4519],[23.6534,45.4806],[23.6135,45.5548],[23.632,45.6179],[23.6124,45.7113],[23.6477,45.779],[23.7093,45.7939],[23.7651,45.8632],[23.7115,45.881],[23.7006,45.9202],[23.7229,45.9287],[23.7689,45.9147],[23.8357,45.9252],[23.8645,45.9461],[23.8528,46.0028],[23.8721,46.0183],[23.9526,46.0285],[24.0137,46.0046],[24.0404,46.0558],[24.1918,46.1596],[24.1918,46.2442],[24.3026,46.2497],[24.3762,46.2322],[24.5334,46.242],[24.5726,46.2638],[24.6738,46.2658],[24.6622,46.2324],[24.6737,46.1482],[24.6899,46.1002],[24.7074,46.085],[24.7686,46.0834],[24.8723,46.1027],[24.9819,46.0636],[24.8392,45.9835],[24.8413,45.9469],[24.7986,45.9475],[24.7154,45.9072],[24.7364,45.8745],[24.737,45.8484],[24.7569,45.8374],[24.7544,45.8202],[24.6493,45.7768],[24.6917,45.6964],[24.7091,45.5988]]]}},{"type":"Feature","id":"Suceava","properties":{"id":"Suceava","iso_code":"RO-SV","name":"Suceava","name_full":"Suceava","name_ja":"スチャヴァ県","center_lonlat":[25.7349,47.5273]},"geometry":{"type":"Polygon","coordinates":[[[26.1025,47.9783],[26.1267,47.9063],[26.2833,47.8263],[26.5267,47.614],[26.5621,47.5284],[26.5676,47.4681],[26.6172,47.4307],[26.6585,47.4267],[26.6756,47.4037],[26.6473,47.3477],[26.5046,47.3501],[26.5114,47.3244],[26.5779,47.2787],[26.4823,47.2536],[26.4327,47.2888],[26.3757,47.297],[26.2229,47.2537],[26.0588,47.2449],[25.9821,47.2575],[25.8913,47.2318],[25.7835,47.2776],[25.7743,47.2616],[25.8194,47.2246],[25.8196,47.2069],[25.6962,47.123],[25.6713,47.0579],[25.5679,47.0488],[25.3898,47.1397],[25.3118,47.123],[25.2826,47.0704],[25.2047,47.0764],[25.0686,47.103],[25.0632,47.1728],[25.0748,47.2343],[25.0276,47.2473],[25.0568,47.3153],[25.0026,47.3866],[25.0494,47.3999],[25.0394,47.4352],[25.0838,47.4578],[25.0894,47.483],[25.0461,47.5297],[24.9562,47.5823],[25.0158,47.5965],[25.0323,47.6123],[24.9548,47.6885],[24.9424,47.7156],[25.0803,47.7431],[25.1219,47.7703],[25.219,47.8785],[25.2617,47.8986],[25.7525,47.9346],[25.9181,47.9682],[26.1025,47.9783]]]}},{"type":"Feature","id":"Teleorman","properties":{"id":"Teleorman","iso_code":"RO-TR","name":"Teleorman","name_full":"Teleorman","name_ja":"テレオルマン県","center_lonlat":[25.2288,44.0503]},"geometry":{"type":"Polygon","coordinates":[[[25.7329,43.7188],[25.6714,43.7174],[25.5566,43.6704],[25.4825,43.6697],[25.4031,43.6501],[25.3596,43.6543],[25.2523,43.7046],[25.0816,43.7189],[24.9637,43.7496],[24.7526,43.7388],[24.6618,43.7557],[24.7469,43.8147],[24.6627,43.9336],[24.6307,44.0098],[24.6577,44.0448],[24.7236,44.0592],[24.8413,44.1158],[24.8341,44.1933],[24.8484,44.2493],[24.8375,44.3568],[24.8513,44.3899],[24.9812,44.3911],[25.022,44.4165],[25.088,44.4186],[25.1447,44.4473],[25.1901,44.4535],[25.2785,44.4373],[25.3111,44.4316],[25.348,44.4494],[25.3982,44.502],[25.3958,44.528],[25.5136,44.5059],[25.5345,44.4938],[25.5366,44.4787],[25.4936,44.4066],[25.5377,44.3366],[25.6526,44.3177],[25.7146,44.2709],[25.7194,44.1598],[25.6728,44.1441],[25.6404,44.0452],[25.6742,43.8835],[25.7158,43.8213],[25.7329,43.7188]]]}},{"type":"Feature","id":"Timis","properties":{"id":"Timis","iso_code":"RO-TM","name":"Timis","name_full":"Timiș","name_ja":"ティミシュ県","center_lonlat":[21.3556,45.7299]},"geometry":{"type":"Polygon","coordinates":[[[20.7044,46.1685],[20.8605,46.0957],[20.9315,46.0314],[21.0695,46.0199],[21.0969,45.9801],[21.1246,45.9731],[21.1464,45.9814],[21.1548,46.0096],[21.1888,46.0205],[21.2071,45.9935],[21.2507,45.9689],[21.3136,45.9876],[21.3618,45.9707],[21.4239,46.0083],[21.431,46.034],[21.4585,46.0391],[21.5072,46.0328],[21.5255,45.9975],[21.5842,45.992],[21.6357,45.9559],[21.6342,45.9289],[21.6703,45.9017],[21.7226,45.9493],[21.7695,45.9393],[21.816,45.9049],[21.8272,45.9464],[21.8886,45.9355],[21.9118,45.9777],[21.9315,45.9822],[22.0687,45.9491],[22.1313,45.9052],[22.2202,45.8931],[22.3178,45.9184],[22.3549,45.9499],[22.3891,45.9247],[22.4125,45.8627],[22.4577,45.8307],[22.4941,45.7774],[22.5298,45.7799],[22.5436,45.7687],[22.4811,45.7191],[22.4454,45.6629],[22.335,45.6481],[22.2982,45.6298],[22.264,45.586],[22.217,45.5881],[22.1767,45.6067],[22.1158,45.5759],[22.0368,45.5684],[22.0359,45.5364],[22.0597,45.5284],[22.0081,45.5045],[21.9644,45.5076],[21.9267,45.5515],[21.9023,45.5601],[21.7864,45.5237],[21.6691,45.564],[21.5918,45.5487],[21.5688,45.4965],[21.4855,45.4495],[21.474,45.3738],[21.5418,45.3233],[21.5541,45.2801],[21.5271,45.2428],[21.5272,45.1852],[21.4844,45.1527],[21.4055,45.1997],[21.2393,45.2294],[21.1394,45.3037],[21.0916,45.2881],[20.9815,45.3328],[20.816,45.4629],[20.7671,45.4793],[20.7607,45.4933],[20.7976,45.5165],[20.8002,45.5305],[20.7544,45.6056],[20.7773,45.6575],[20.7857,45.7526],[20.7652,45.7668],[20.7268,45.7362],[20.6881,45.7431],[20.6459,45.7887],[20.6367,45.827],[20.5721,45.8877],[20.4817,45.9127],[20.3539,45.9767],[20.3057,46.0536],[20.2428,46.1081],[20.2832,46.1438],[20.4442,46.1469],[20.4685,46.1741],[20.549,46.1561],[20.6001,46.1296],[20.6835,46.1447],[20.7044,46.1685]]]}},{"type":"Feature","id":"Tulcea","properties":{"id":"Tulcea","iso_code":"RO-TL","name":"Tulcea","name_full":"Tulcea","name_ja":"トゥルチャ県","center_lonlat":[28.8601,45.0687]},"geometry":{"type":"Polygon","coordinates":[[[28.7854,44.6797],[28.6709,44.7105],[28.5269,44.6961],[28.4549,44.7177],[28.4045,44.7609],[28.3469,44.7609],[28.3253,44.7177],[28.282,44.7105],[28.1956,44.7681],[28.1452,44.7825],[28.0548,44.777],[28.0801,44.8408],[28.1266,44.8958],[28.1241,44.9449],[28.1414,44.9598],[28.1308,45.0186],[28.1444,45.0428],[28.1314,45.089],[28.1627,45.1083],[28.1779,45.1347],[28.1526,45.1612],[28.0977,45.1842],[28.1308,45.2377],[28.1224,45.2498],[28.0413,45.2584],[27.9867,45.2923],[28.0209,45.3445],[28.0302,45.3954],[28.0511,45.415],[28.1158,45.428],[28.1871,45.4144],[28.2151,45.4504],[28.2669,45.4405],[28.2864,45.4217],[28.2812,45.4018],[28.3108,45.3478],[28.3533,45.3124],[28.577,45.2481],[28.7101,45.227],[28.7787,45.2311],[28.8027,45.2442],[28.7673,45.2578],[28.7597,45.2742],[28.7902,45.2921],[28.7897,45.3214],[28.8318,45.3223],[28.9299,45.2791],[28.9528,45.2851],[28.9737,45.3237],[29.1743,45.389],[29.2282,45.4237],[29.2818,45.4223],[29.3221,45.4438],[29.5697,45.395],[29.6503,45.3461],[29.6671,45.3119],[29.6665,45.2306],[29.659,45.2159],[29.6239,45.2103],[29.667,45.1642],[29.6996,45.1618],[29.6644,45.1169],[29.6563,45.029],[29.6239,44.9291],[29.6304,44.9077],[29.6052,44.88],[29.6178,44.8615],[29.6112,44.8493],[29.5618,44.8203],[29.542,44.8278],[29.1561,44.7844],[29.0558,44.7352],[29.0007,44.6889],[28.9749,44.7449],[29.0982,44.7754],[29.1387,44.804],[29.1447,44.8266],[29.0964,44.8751],[29.1038,44.8403],[29.0603,44.8323],[29.0486,44.8472],[29.0418,44.9257],[29.0521,44.9446],[29.0988,44.957],[29.1106,44.97],[29.1017,44.9803],[29.0452,45.0048],[28.9728,45.011],[28.9602,44.9877],[28.9168,44.9797],[28.8801,44.9548],[28.8635,44.9223],[28.8766,44.9049],[28.8635,44.8915],[28.8735,44.875],[28.9524,44.8266],[28.925,44.8131],[28.9387,44.8062],[28.9255,44.7837],[28.9461,44.7652],[28.8794,44.7566],[28.8084,44.7269],[28.7871,44.6933],[28.8084,44.6964],[28.8042,44.6842],[28.7854,44.6797]]]}},{"type":"Feature","id":"Valcea","properties":{"id":"Valcea","iso_code":"RO-VL","name":"Valcea","name_full":"Vâlcea","name_ja":"ヴルチャ県","center_lonlat":[24.1204,45.0966]},"geometry":{"type":"Polygon","coordinates":[[[23.5858,45.3526],[23.5999,45.3819],[23.5842,45.4473],[23.6261,45.4519],[23.6587,45.4539],[23.794,45.508],[23.9606,45.5122],[24.0683,45.4964],[24.1689,45.537],[24.3218,45.563],[24.5272,45.5618],[24.5395,45.5298],[24.4937,45.4354],[24.5166,45.3494],[24.49,45.3087],[24.5005,45.2735],[24.4951,45.2155],[24.5295,45.1745],[24.5374,45.1361],[24.4881,44.9603],[24.512,44.9141],[24.4378,44.85],[24.4398,44.8966],[24.427,44.9121],[24.397,44.9095],[24.3534,44.8603],[24.33,44.7903],[24.2864,44.7459],[24.2998,44.6555],[24.323,44.6244],[24.3332,44.5832],[24.309,44.5773],[24.2933,44.6179],[24.278,44.6199],[24.246,44.5764],[24.2069,44.5624],[24.1497,44.5664],[24.0835,44.517],[24.0199,44.5509],[23.9582,44.5297],[23.9017,44.5834],[23.8722,44.6417],[23.7884,44.6818],[23.7755,44.7225],[23.7937,44.8333],[23.7788,44.9482],[23.8247,45.0815],[23.8219,45.1289],[23.8421,45.1768],[23.821,45.2484],[23.8357,45.3066],[23.7982,45.3376],[23.7101,45.3335],[23.5858,45.3526]]]}},{"type":"Feature","id":"Vaslui","properties":{"id":"Vaslui","iso_code":"RO-VS","name":"Vaslui","name_full":"Vaslui","name_ja":"ヴァスルイ県","center_lonlat":[27.7806,46.5184]},"geometry":{"type":"Polygon","coordinates":[[[28.1226,46.8423],[28.2443,46.6354],[28.2471,46.6072],[28.2254,46.5696],[28.2341,46.5531],[28.2211,46.5412],[28.219,46.5037],[28.2458,46.4755],[28.2472,46.4362],[28.2261,46.4154],[28.2333,46.4018],[28.2129,46.3887],[28.2071,46.3582],[28.1904,46.3511],[28.1929,46.3112],[28.1778,46.287],[28.1352,46.2693],[28.1321,46.2399],[28.109,46.2341],[28.1447,46.1832],[28.1078,46.0961],[28.0556,46.0897],[27.9039,46.1251],[27.8357,46.0818],[27.8266,46.1028],[27.8029,46.1129],[27.6314,46.1275],[27.6137,46.1154],[27.6444,46.053],[27.6364,46.0048],[27.6204,45.9963],[27.5678,46.0839],[27.5332,46.1165],[27.5199,46.1626],[27.513,46.2891],[27.479,46.3975],[27.3377,46.5849],[27.3358,46.6547],[27.3238,46.6725],[27.2255,46.7428],[27.2364,46.7701],[27.2048,46.8596],[27.4143,46.8631],[27.4758,46.8508],[27.5302,46.8603],[27.5593,46.8884],[27.6485,46.8805],[27.6671,46.9036],[27.6212,46.9095],[27.616,46.9601],[27.6255,46.9739],[27.7096,46.9373],[27.7864,46.8778],[27.8009,46.9116],[27.8264,46.9171],[27.8387,46.9015],[27.8213,46.8539],[27.833,46.8413],[27.9557,46.8171],[27.9805,46.8337],[28.0313,46.8194],[28.1226,46.8423]]]}},{"type":"Feature","id":"Vrancea","properties":{"id":"Vrancea","iso_code":"RO-VN","name":"Vrancea","name_full":"Vrancea","name_ja":"ヴランチャ県","center_lonlat":[26.9931,45.7843]},"geometry":{"type":"Polygon","coordinates":[[[26.3804,45.8029],[26.4048,45.9175],[26.4848,46.0212],[26.6004,46.0092],[26.6306,46.0195],[26.6361,46.0573],[26.6704,46.0768],[26.9187,46.0734],[26.9725,46.0607],[27.0186,46.0931],[27.1124,46.0809],[27.2082,46.1535],[27.3068,46.1738],[27.4132,46.1518],[27.4545,46.1727],[27.5199,46.1626],[27.5332,46.1165],[27.4761,46.1137],[27.4286,46.082],[27.3302,46.0653],[27.261,46.0123],[27.2503,45.9693],[27.3848,45.7184],[27.5062,45.6245],[27.5436,45.5253],[27.5801,45.4933],[27.4832,45.4573],[27.4235,45.3865],[27.3076,45.3965],[27.2761,45.4348],[27.2171,45.4491],[27.1471,45.4304],[27.1378,45.4678],[27.0502,45.4543],[27.0062,45.4818],[26.9992,45.5152],[26.9758,45.5333],[26.9071,45.5452],[26.8945,45.5187],[26.8433,45.525],[26.7548,45.5633],[26.6694,45.6212],[26.569,45.6248],[26.5322,45.6504],[26.4246,45.7732],[26.3804,45.8029]]]}}]}
