{"type":"FeatureCollection","features":[{"type":"Feature","id":"Eastern","properties":{"id":"Eastern","iso_code":"RW-02","name":"Eastern","name_full":"Eastern","name_ja":"東部州","center_lonlat":[30.459,-1.8353]},"geometry":{"type":"Polygon","coordinates":[[[29.9568,-2.327],[29.9804,-2.2429],[29.9843,-2.1607],[30.0165,-2.1115],[30.0178,-2.0721],[30.0506,-2.0532],[30.0675,-2.0645],[30.1214,-2.0543],[30.1654,-2.0284],[30.2091,-2.0747],[30.2237,-2.047],[30.234,-1.9633],[30.2721,-1.936],[30.2471,-1.8432],[30.2724,-1.8235],[30.2504,-1.7223],[30.2576,-1.6997],[30.177,-1.5916],[30.1651,-1.5489],[30.1788,-1.5203],[30.1425,-1.5243],[30.1177,-1.4552],[30.066,-1.3869],[30.1363,-1.3552],[30.1656,-1.2775],[30.2122,-1.2595],[30.2567,-1.2172],[30.2875,-1.1554],[30.3174,-1.137],[30.3375,-1.0662],[30.4718,-1.0668],[30.453,-1.0973],[30.4709,-1.1181],[30.4673,-1.1553],[30.4947,-1.1553],[30.5112,-1.1704],[30.5546,-1.2735],[30.5553,-1.3184],[30.6324,-1.3676],[30.7375,-1.4067],[30.7389,-1.4895],[30.7723,-1.5325],[30.7916,-1.591],[30.8072,-1.6033],[30.831,-1.5942],[30.8375,-1.6411],[30.8242,-1.7307],[30.8379,-1.7587],[30.8264,-1.7862],[30.8379,-1.8368],[30.8166,-1.8842],[30.8242,-1.9021],[30.797,-1.9293],[30.8269,-1.9341],[30.8168,-2.0187],[30.8535,-2.0237],[30.8878,-2.0825],[30.8447,-2.2378],[30.8447,-2.3266],[30.8214,-2.3547],[30.7588,-2.3811],[30.6877,-2.35],[30.6633,-2.3607],[30.6379,-2.397],[30.5739,-2.3893],[30.5217,-2.3994],[30.4341,-2.3392],[30.4185,-2.3118],[30.3786,-2.3031],[30.298,-2.3537],[30.2627,-2.3584],[30.2075,-2.3392],[30.1562,-2.419],[30.1168,-2.4315],[30.073,-2.4088],[30.0133,-2.3483],[29.9761,-2.3437],[29.9568,-2.327]]]}},{"type":"Feature","id":"Kigali","properties":{"id":"Kigali","iso_code":"RW-01","name":"Kigali","name_full":"Kigali","name_ja":"キガリ","center_lonlat":[30.121,-1.9341]},"geometry":{"type":"Polygon","coordinates":[[[30.0178,-2.0721],[29.9845,-2.0484],[30.0099,-2.0166],[29.9811,-1.9094],[29.9781,-1.8783],[29.9983,-1.8424],[30.0336,-1.8561],[30.0631,-1.8285],[30.1174,-1.8165],[30.1348,-1.7794],[30.2471,-1.8432],[30.2721,-1.936],[30.234,-1.9633],[30.2237,-2.047],[30.2091,-2.0747],[30.1654,-2.0284],[30.1214,-2.0543],[30.0675,-2.0645],[30.0506,-2.0532],[30.0178,-2.0721]]]}},{"type":"Feature","id":"Northern","properties":{"id":"Northern","iso_code":"RW-03","name":"Northern","name_full":"Northern","name_ja":"北部州","center_lonlat":[29.8813,-1.6077]},"geometry":{"type":"Polygon","coordinates":[[[30.066,-1.3869],[30.1177,-1.4552],[30.1425,-1.5243],[30.1788,-1.5203],[30.1651,-1.5489],[30.177,-1.5916],[30.2576,-1.6997],[30.2504,-1.7223],[30.2724,-1.8235],[30.2471,-1.8432],[30.1348,-1.7794],[30.1174,-1.8165],[30.0631,-1.8285],[30.0336,-1.8561],[29.9983,-1.8424],[29.9781,-1.8783],[29.9811,-1.9094],[29.9145,-1.8609],[29.8185,-1.8514],[29.7416,-1.7484],[29.6577,-1.7331],[29.6345,-1.7099],[29.6306,-1.5879],[29.5907,-1.5876],[29.4914,-1.5561],[29.4451,-1.4973],[29.4987,-1.4311],[29.5386,-1.4023],[29.6577,-1.3839],[29.7348,-1.3482],[29.7749,-1.3663],[29.8161,-1.3226],[29.8361,-1.3295],[29.8642,-1.3703],[29.8807,-1.4536],[29.9174,-1.4752],[30.0387,-1.425],[30.066,-1.3869]]]}},{"type":"Feature","id":"Southern","properties":{"id":"Southern","iso_code":"RW-05","name":"Southern","name_full":"Southern","name_ja":"南部州","center_lonlat":[29.6775,-2.36]},"geometry":{"type":"Polygon","coordinates":[[[29.9568,-2.327],[29.9288,-2.3225],[29.9296,-2.4598],[29.9079,-2.5354],[29.8979,-2.6711],[29.8629,-2.7317],[29.8236,-2.7635],[29.7447,-2.76],[29.7199,-2.8055],[29.6193,-2.7877],[29.5041,-2.8269],[29.4254,-2.8034],[29.3397,-2.8264],[29.3181,-2.7626],[29.3375,-2.7238],[29.3095,-2.6901],[29.3425,-2.6739],[29.36,-2.6126],[29.3202,-2.5082],[29.2678,-2.4786],[29.2714,-2.4587],[29.3258,-2.4144],[29.3199,-2.3937],[29.3391,-2.3552],[29.3257,-2.3248],[29.3385,-2.2992],[29.4111,-2.2728],[29.4665,-2.2694],[29.5529,-2.1979],[29.6058,-2.1823],[29.5998,-2.1384],[29.6363,-2.0451],[29.6227,-1.974],[29.6595,-1.971],[29.671,-1.9522],[29.6625,-1.9218],[29.6703,-1.7986],[29.6577,-1.7331],[29.7416,-1.7484],[29.8185,-1.8514],[29.9145,-1.8609],[29.9811,-1.9094],[30.0099,-2.0166],[29.9845,-2.0484],[30.0178,-2.0721],[30.0165,-2.1115],[29.9843,-2.1607],[29.9804,-2.2429],[29.9568,-2.327]]]}},{"type":"Feature","id":"Western","properties":{"id":"Western","iso_code":"RW-04","name":"Western","name_full":"Western","name_ja":"西部州","center_lonlat":[29.3021,-2.094]},"geometry":{"type":"Polygon","coordinates":[[[29.3095,-2.6901],[29.3066,-2.6601],[29.2761,-2.6406],[29.1134,-2.5946],[29.0553,-2.5984],[29.0326,-2.6207],[29.0154,-2.7207],[28.9796,-2.6935],[28.9364,-2.6851],[28.8913,-2.6527],[28.8981,-2.5763],[28.8572,-2.5183],[28.8782,-2.4897],[28.8588,-2.4182],[28.8804,-2.3799],[28.9597,-2.3398],[28.9937,-2.2777],[29.0754,-2.2639],[29.1348,-2.1977],[29.1563,-2.1087],[29.1255,-1.8791],[29.1493,-1.7993],[29.2454,-1.641],[29.2937,-1.601],[29.3428,-1.5165],[29.4451,-1.4973],[29.4914,-1.5561],[29.5907,-1.5876],[29.6306,-1.5879],[29.6345,-1.7099],[29.6577,-1.7331],[29.6703,-1.7986],[29.6625,-1.9218],[29.671,-1.9522],[29.6595,-1.971],[29.6227,-1.974],[29.6363,-2.0451],[29.5998,-2.1384],[29.6058,-2.1823],[29.5529,-2.1979],[29.4665,-2.2694],[29.4111,-2.2728],[29.3385,-2.2992],[29.3257,-2.3248],[29.3391,-2.3552],[29.3199,-2.3937],[29.3258,-2.4144],[29.2714,-2.4587],[29.2678,-2.4786],[29.3202,-2.5082],[29.36,-2.6126],[29.3425,-2.6739],[29.3095,-2.6901]]]}}]}
