{"type":"FeatureCollection","features":[{"type":"Feature","id":"Christ Church Nichola Town","properties":{"id":"Christ Church Nichola Town","iso_code":"KN-01","name":"Christ Church Nichola Town","name_full":"Christ Church Nichola Town","name_ja":"キリスト・チャーチ・ニコラ・タウン教区","center_lonlat":[-62.76,17.3558]},"geometry":{"type":"Polygon","coordinates":[[[-62.7694,17.387],[-62.7305,17.3646],[-62.7453,17.331],[-62.7544,17.331],[-62.7791,17.3356],[-62.7875,17.3498],[-62.7694,17.387]]]}},{"type":"Feature","id":"Saint Anne Sandy Point","properties":{"id":"Saint Anne Sandy Point","iso_code":"KN-02","name":"Saint Anne Sandy Point","name_full":"Saint Anne Sandy Point","name_ja":"セントアン・サンディポイント","center_lonlat":[-62.8363,17.3587]},"geometry":{"type":"Polygon","coordinates":[[[-62.8316,17.3301],[-62.8611,17.3623],[-62.8566,17.3804],[-62.8076,17.3667],[-62.8316,17.3301]]]}},{"type":"Feature","id":"Saint George Basseterre","properties":{"id":"Saint George Basseterre","iso_code":"KN-03","name":"Saint George Basseterre","name_full":"Saint George Basseterre","name_ja":"セントジョージ・バセテール","center_lonlat":[-62.6742,17.2679]},"geometry":{"type":"Polygon","coordinates":[[[-62.6812,17.2994],[-62.6669,17.2735],[-62.6368,17.2582],[-62.6247,17.2253],[-62.647,17.2172],[-62.6597,17.2255],[-62.6705,17.2632],[-62.7238,17.2917],[-62.7343,17.3187],[-62.6812,17.2994]]]}},{"type":"Feature","id":"Saint George Gingerland","properties":{"id":"Saint George Gingerland","iso_code":"KN-04","name":"Saint George Gingerland","name_full":"Saint George Gingerland","name_ja":"セント・ジョージ・ジンジャーランド教区","center_lonlat":[-62.5575,17.1251]},"geometry":{"type":"Polygon","coordinates":[[[-62.537,17.1384],[-62.5436,17.1089],[-62.5657,17.1005],[-62.5786,17.1455],[-62.537,17.1384]]]}},{"type":"Feature","id":"Saint James Windward","properties":{"id":"Saint James Windward","iso_code":"KN-05","name":"Saint James Windward","name_full":"Saint James Windward","name_ja":"セントジェームズ・ウィンドワード","center_lonlat":[-62.5719,17.1723]},"geometry":{"type":"Polygon","coordinates":[[[-62.6125,17.1891],[-62.5992,17.2029],[-62.5604,17.1967],[-62.5465,17.1838],[-62.537,17.1384],[-62.5786,17.1455],[-62.6125,17.1891]]]}},{"type":"Feature","id":"Saint John Capisterre","properties":{"id":"Saint John Capisterre","iso_code":"KN-06","name":"Saint John Capisterre","name_full":"Saint John Capisterre","name_ja":"セント・ジョン・キャピスタ教区","center_lonlat":[-62.7957,17.3809]},"geometry":{"type":"Polygon","coordinates":[[[-62.8223,17.4101],[-62.7694,17.387],[-62.7875,17.3498],[-62.8076,17.3667],[-62.8223,17.4101]]]}},{"type":"Feature","id":"Saint John Figtree","properties":{"id":"Saint John Figtree","iso_code":"KN-07","name":"Saint John Figtree","name_full":"Saint John Figtree","name_ja":"セント・ジョン・フィグツリー教区","center_lonlat":[-62.5924,17.1202]},"geometry":{"type":"Polygon","coordinates":[[[-62.5657,17.1005],[-62.6122,17.1042],[-62.6216,17.1283],[-62.5786,17.1455],[-62.5657,17.1005]]]}},{"type":"Feature","id":"Saint Mary Cayon","properties":{"id":"Saint Mary Cayon","iso_code":"KN-08","name":"Saint Mary Cayon","name_full":"Saint Mary Cayon","name_ja":"セント・メアリー・カヨン教区","center_lonlat":[-62.7267,17.3449]},"geometry":{"type":"Polygon","coordinates":[[[-62.7305,17.3646],[-62.7036,17.3416],[-62.7382,17.3304],[-62.7453,17.331],[-62.7305,17.3646]]]}},{"type":"Feature","id":"Saint Paul Capisterre","properties":{"id":"Saint Paul Capisterre","iso_code":"KN-09","name":"Saint Paul Capisterre","name_full":"Saint Paul Capisterre","name_ja":"セント・ポール・キャピスタ教区","center_lonlat":[-62.8312,17.3875]},"geometry":{"type":"Polygon","coordinates":[[[-62.8566,17.3804],[-62.8492,17.3981],[-62.8223,17.4101],[-62.8076,17.3667],[-62.8566,17.3804]]]}},{"type":"Feature","id":"Saint Paul Charlestown","properties":{"id":"Saint Paul Charlestown","iso_code":"KN-10","name":"Saint Paul Charlestown","name_full":"Saint Paul Charlestown","name_ja":"セント・ポール・チャールスタウン教区","center_lonlat":[-62.6089,17.1382]},"geometry":{"type":"Polygon","coordinates":[[[-62.6216,17.1283],[-62.6264,17.1407],[-62.5786,17.1455],[-62.6216,17.1283]]]}},{"type":"Feature","id":"Saint Peter Basseterre","properties":{"id":"Saint Peter Basseterre","iso_code":"KN-11","name":"Saint Peter Basseterre","name_full":"Saint Peter Basseterre","name_ja":"セントピーター・バセテール","center_lonlat":[-62.7101,17.322]},"geometry":{"type":"Polygon","coordinates":[[[-62.7036,17.3416],[-62.6812,17.2994],[-62.7343,17.3187],[-62.7382,17.3304],[-62.7036,17.3416]]]}},{"type":"Feature","id":"Saint Thomas Lowland","properties":{"id":"Saint Thomas Lowland","iso_code":"KN-12","name":"Saint Thomas Lowland","name_full":"Saint Thomas Lowland","name_ja":"セント・トーマス・ロウランド教区","center_lonlat":[-62.6058,17.1584]},"geometry":{"type":"Polygon","coordinates":[[[-62.6264,17.1407],[-62.6125,17.1891],[-62.5786,17.1455],[-62.6264,17.1407]]]}},{"type":"Feature","id":"Saint Thomas Middle Island","properties":{"id":"Saint Thomas Middle Island","iso_code":"KN-13","name":"Saint Thomas Middle Island","name_full":"Saint Thomas Middle Island","name_ja":"セント・トーマス・ミドル・アイランド教区","center_lonlat":[-62.7937,17.3306]},"geometry":{"type":"Polygon","coordinates":[[[-62.7716,17.298],[-62.8316,17.3301],[-62.8076,17.3667],[-62.7875,17.3498],[-62.7791,17.3356],[-62.7544,17.331],[-62.7716,17.298]]]}},{"type":"Feature","id":"Trinity Palmetto Point","properties":{"id":"Trinity Palmetto Point","iso_code":"KN-14","name":"Trinity Palmetto Point","name_full":"Trinity Palmetto Point","name_ja":"トリニティ・パルメット・ポイント教区","center_lonlat":[-62.7471,17.3098]},"geometry":{"type":"Polygon","coordinates":[[[-62.7238,17.2917],[-62.7716,17.298],[-62.7544,17.331],[-62.7453,17.331],[-62.7382,17.3304],[-62.7343,17.3187],[-62.7238,17.2917]]]}}]}
