{"type":"FeatureCollection","features":[{"type":"Feature","id":"Charlotte","properties":{"id":"Charlotte","iso_code":"VC-01","name":"Charlotte","name_full":"Charlotte","name_ja":"シャーロット教区","center_lonlat":[-61.1552,13.2784]},"geometry":{"type":"Polygon","coordinates":[[[-61.1713,13.38],[-61.144,13.3741],[-61.1239,13.3083],[-61.1355,13.1978],[-61.1928,13.2167],[-61.1989,13.2393],[-61.1877,13.2629],[-61.1746,13.2603],[-61.1726,13.3226],[-61.1608,13.3422],[-61.1713,13.38]]]}},{"type":"Feature","id":"Grenadines","properties":{"id":"Grenadines","iso_code":"VC-06","name":"Grenadines","name_full":"Grenadines","name_ja":"グレナディーンズ郡","center_lonlat":[-61.2291,13.0119]},"geometry":{"type":"MultiPolygon","coordinates":[[[[-61.194,13.0369],[-61.2424,12.9748],[-61.2772,12.9885],[-61.2396,12.9958],[-61.2493,13.0163],[-61.2015,13.0512],[-61.194,13.0369]]],[[[-61.3194,12.7338],[-61.3144,12.7209],[-61.3284,12.6994],[-61.3531,12.6965],[-61.3194,12.7338]]],[[[-61.4414,12.6079],[-61.4266,12.5919],[-61.4559,12.5861],[-61.4556,12.6071],[-61.4414,12.6079]]],[[[-61.1918,12.8682],[-61.175,12.8818],[-61.1876,12.8564],[-61.1918,12.8682]]]]}},{"type":"Feature","id":"Saint Andrew","properties":{"id":"Saint Andrew","iso_code":"VC-02","name":"Saint Andrew","name_full":"Saint Andrew","name_ja":"セント・アンドリューズ","center_lonlat":[-61.2289,13.202]},"geometry":{"type":"Polygon","coordinates":[[[-61.2379,13.1634],[-61.2714,13.1865],[-61.2198,13.2341],[-61.1989,13.2393],[-61.1928,13.2167],[-61.2379,13.1634]]]}},{"type":"Feature","id":"Saint David","properties":{"id":"Saint David","iso_code":"VC-03","name":"Saint David","name_full":"Saint David","name_ja":"セント・デイヴィッド郡","center_lonlat":[-61.2072,13.3113]},"geometry":{"type":"Polygon","coordinates":[[[-61.2684,13.2659],[-61.2704,13.2901],[-61.2434,13.2944],[-61.212,13.3689],[-61.1713,13.38],[-61.1608,13.3422],[-61.1726,13.3226],[-61.1746,13.2603],[-61.1877,13.2629],[-61.2008,13.276],[-61.2279,13.2553],[-61.2684,13.2659]]]}},{"type":"Feature","id":"Saint George","properties":{"id":"Saint George","iso_code":"VC-04","name":"Saint George","name_full":"Saint George","name_ja":"セントジョージ","center_lonlat":[-61.1873,13.1769]},"geometry":{"type":"Polygon","coordinates":[[[-61.1355,13.1978],[-61.1852,13.1325],[-61.2379,13.1634],[-61.1928,13.2167],[-61.1355,13.1978]]]}},{"type":"Feature","id":"Saint Patrick","properties":{"id":"Saint Patrick","iso_code":"VC-05","name":"Saint Patrick","name_full":"Saint Patrick","name_ja":"セント・パトリック教区","center_lonlat":[-61.2415,13.2373]},"geometry":{"type":"Polygon","coordinates":[[[-61.2714,13.1865],[-61.2794,13.2159],[-61.2684,13.2659],[-61.2279,13.2553],[-61.2008,13.276],[-61.1877,13.2629],[-61.1989,13.2393],[-61.2198,13.2341],[-61.2714,13.1865]]]}}]}
