{"type":"FeatureCollection","features":[{"type":"Feature","id":"Anse la Raye Quarter","properties":{"id":"Anse la Raye Quarter","iso_code":"LC-01","name":"Anse la Raye Quarter","name_full":"Anse la Raye Quarter","name_ja":"アンス・ラ・レイ地区","center_lonlat":[-61.0148,13.9267]},"geometry":{"type":"Polygon","coordinates":[[[-61.0669,13.909],[-61.0266,13.9874],[-60.9844,13.9655],[-60.9806,13.8928],[-60.9907,13.8665],[-61.0107,13.8715],[-61.0408,13.9053],[-61.0669,13.909]]]}},{"type":"Feature","id":"Castries Quarter","properties":{"id":"Castries Quarter","iso_code":"LC-02","name":"Castries Quarter","name_full":"Castries Quarter","name_ja":"カストリーズ地区","center_lonlat":[-60.9724,13.9764]},"geometry":{"type":"Polygon","coordinates":[[[-61.0266,13.9874],[-60.98,14.0435],[-60.9356,14.018],[-60.9405,13.9793],[-60.9606,13.9003],[-60.9606,13.879],[-60.9806,13.8928],[-60.9844,13.9655],[-61.0266,13.9874]]]}},{"type":"Feature","id":"Choiseul Quarter","properties":{"id":"Choiseul Quarter","iso_code":"LC-03","name":"Choiseul Quarter","name_full":"Choiseul Quarter","name_ja":"ショゼール地区","center_lonlat":[-61.0236,13.7933]},"geometry":{"type":"Polygon","coordinates":[[[-61.0189,13.7562],[-61.0482,13.7673],[-61.0681,13.7922],[-60.9816,13.8358],[-60.9809,13.8308],[-61.0189,13.7562]]]}},{"type":"Feature","id":"Dauphin Quarter","properties":{"id":"Dauphin Quarter","iso_code":"LC-04","name":"Dauphin Quarter","name_full":"Dauphin Quarter","name_ja":"ドーファン","center_lonlat":[-60.9122,14.017]},"geometry":{"type":"Polygon","coordinates":[[[-60.901,14.0734],[-60.883,13.9806],[-60.9405,13.9793],[-60.9356,14.018],[-60.928,14.0532],[-60.901,14.0734]]]}},{"type":"Feature","id":"Dennery Quarter","properties":{"id":"Dennery Quarter","iso_code":"LC-05","name":"Dennery Quarter","name_full":"Dennery Quarter","name_ja":"デナリー地区","center_lonlat":[-60.9192,13.941]},"geometry":{"type":"Polygon","coordinates":[[[-60.883,13.9806],[-60.8902,13.9085],[-60.9606,13.9003],[-60.9405,13.9793],[-60.883,13.9806]]]}},{"type":"Feature","id":"Gros Islet Quarter","properties":{"id":"Gros Islet Quarter","iso_code":"LC-06","name":"Gros Islet Quarter","name_full":"Gros Islet Quarter","name_ja":"グロス・イスレット地区","center_lonlat":[-60.9402,14.065]},"geometry":{"type":"Polygon","coordinates":[[[-60.98,14.0435],[-60.9335,14.1119],[-60.9141,14.1057],[-60.9186,14.0884],[-60.901,14.0734],[-60.928,14.0532],[-60.9356,14.018],[-60.98,14.0435]]]}},{"type":"Feature","id":"Laborie Quarter","properties":{"id":"Laborie Quarter","iso_code":"LC-07","name":"Laborie Quarter","name_full":"Laborie Quarter","name_ja":"ラボリー地区","center_lonlat":[-60.986,13.7736]},"geometry":{"type":"Polygon","coordinates":[[[-60.9671,13.7306],[-61.0189,13.7562],[-60.9809,13.8308],[-60.9639,13.7758],[-60.9671,13.7306]]]}},{"type":"Feature","id":"Micoud Quarter","properties":{"id":"Micoud Quarter","iso_code":"LC-08","name":"Micoud Quarter","name_full":"Micoud Quarter","name_ja":"ミクッド地区","center_lonlat":[-60.9279,13.8158]},"geometry":{"type":"Polygon","coordinates":[[[-60.8922,13.8332],[-60.9073,13.7773],[-60.918,13.774],[-60.9752,13.8392],[-60.9643,13.8452],[-60.8922,13.8332]]]}},{"type":"Feature","id":"Praslin Quarter","properties":{"id":"Praslin Quarter","iso_code":"LC-09","name":"Praslin Quarter","name_full":"Praslin Quarter","name_ja":"プラスレン地区","center_lonlat":[-60.9247,13.8715]},"geometry":{"type":"Polygon","coordinates":[[[-60.8902,13.9085],[-60.8922,13.8332],[-60.9643,13.8452],[-60.9606,13.879],[-60.9606,13.9003],[-60.8902,13.9085]]]}},{"type":"Feature","id":"Soufriere Quarter","properties":{"id":"Soufriere Quarter","iso_code":"LC-10","name":"Soufriere Quarter","name_full":"Soufrière Quarter","name_ja":"スフレ","center_lonlat":[-61.0302,13.8532]},"geometry":{"type":"Polygon","coordinates":[[[-61.0681,13.7922],[-61.0781,13.8063],[-61.0701,13.8321],[-61.0785,13.8798],[-61.0669,13.909],[-61.0408,13.9053],[-61.0107,13.8715],[-60.9907,13.8665],[-60.9806,13.8928],[-60.9606,13.879],[-60.9643,13.8452],[-60.9752,13.8392],[-60.9816,13.8358],[-61.0681,13.7922]]]}},{"type":"Feature","id":"Vieux Fort Quarter","properties":{"id":"Vieux Fort Quarter","iso_code":"LC-11","name":"Vieux Fort Quarter","name_full":"Vieux Fort Quarter","name_ja":"ビュー・フォート","center_lonlat":[-60.9512,13.7745]},"geometry":{"type":"Polygon","coordinates":[[[-60.918,13.774],[-60.947,13.7163],[-60.9671,13.7306],[-60.9639,13.7758],[-60.9809,13.8308],[-60.9816,13.8358],[-60.9752,13.8392],[-60.918,13.774]]]}}]}
