{"type":"FeatureCollection","features":[{"type":"Feature","id":"A'ana","properties":{"id":"A'ana","iso_code":"WS-AA","name":"A'ana","name_full":"A'ana","name_ja":"アアーナ","center_lonlat":[-171.9221,-13.9008]},"geometry":{"type":"MultiPolygon","coordinates":[[[[-171.9926,-13.8282],[-171.8579,-13.8063],[-171.8479,-13.9437],[-171.8715,-13.9416],[-171.8757,-14.0047],[-171.9266,-14.0012],[-171.9724,-13.9462],[-171.9888,-13.9494],[-172.0063,-13.925],[-172.0406,-13.9152],[-171.9722,-13.873],[-171.9926,-13.8282]]],[[[-172.0556,-13.8619],[-172.028,-13.8407],[-172.018,-13.8638],[-172.0556,-13.8619]]]]}},{"type":"Feature","id":"Aiga-i-le-Tai","properties":{"id":"Aiga-i-le-Tai","iso_code":"WS-AL","name":"Aiga-i-le-Tai","name_full":"Aiga-i-le-Tai","name_ja":"アイガイレタイ","center_lonlat":[-172.0184,-13.8733]},"geometry":{"type":"Polygon","coordinates":[[[-172.028,-13.8407],[-171.9926,-13.8282],[-171.9722,-13.873],[-172.0406,-13.9152],[-172.061,-13.9062],[-172.0556,-13.8619],[-172.018,-13.8638],[-172.028,-13.8407]]]}},{"type":"Feature","id":"Atua","properties":{"id":"Atua","iso_code":"WS-AT","name":"Atua","name_full":"Atua","name_ja":"アトゥア","center_lonlat":[-171.5743,-13.9831]},"geometry":{"type":"Polygon","coordinates":[[[-171.5676,-13.8967],[-171.5591,-13.9254],[-171.5854,-13.9279],[-171.5923,-13.9691],[-171.558,-13.9828],[-171.5191,-13.976],[-171.4847,-13.992],[-171.4693,-13.9694],[-171.4377,-14.0061],[-171.4482,-14.0375],[-171.4407,-14.0519],[-171.5792,-14.0495],[-171.6195,-14.0375],[-171.6524,-14.0452],[-171.6656,-13.9302],[-171.6502,-13.8713],[-171.5852,-13.8839],[-171.5992,-13.9073],[-171.5676,-13.8967]]]}},{"type":"Feature","id":"Fa'asaleleaga","properties":{"id":"Fa'asaleleaga","iso_code":"WS-FA","name":"Fa'asaleleaga","name_full":"Fa'asaleleaga","name_ja":"ファアセールリーガ","center_lonlat":[-172.2433,-13.6576]},"geometry":{"type":"Polygon","coordinates":[[[-172.2228,-13.5584],[-172.2228,-13.5783],[-172.201,-13.5925],[-172.1756,-13.6803],[-172.2115,-13.7446],[-172.213,-13.801],[-172.2537,-13.7562],[-172.311,-13.6395],[-172.2972,-13.5617],[-172.2228,-13.5584]]]}},{"type":"Feature","id":"Gaga'emauga","properties":{"id":"Gaga'emauga","iso_code":"WS-GE","name":"Gaga'emauga","name_full":"Gaga'emauga","name_ja":"ガガイーモーガ","center_lonlat":[-172.3347,-13.555]},"geometry":{"type":"MultiPolygon","coordinates":[[[[-172.3662,-13.4628],[-172.3008,-13.4765],[-172.2228,-13.5584],[-172.2972,-13.5617],[-172.311,-13.6395],[-172.3474,-13.6386],[-172.391,-13.6375],[-172.4142,-13.6369],[-172.3662,-13.4628]]],[[[-171.8541,-14.0019],[-171.8757,-14.0047],[-171.8715,-13.9416],[-171.8479,-13.9437],[-171.8541,-14.0019]]],[[[-171.8149,-13.8116],[-171.7923,-13.8165],[-171.7914,-13.8707],[-171.812,-13.8661],[-171.8149,-13.8116]]]]}},{"type":"Feature","id":"Gaga'ifomauga","properties":{"id":"Gaga'ifomauga","iso_code":"WS-GI","name":"Gaga'ifomauga","name_full":"Gaga'ifomauga","name_ja":"ガガイフォモーガ","center_lonlat":[-172.5025,-13.5565]},"geometry":{"type":"Polygon","coordinates":[[[-172.639,-13.5221],[-172.5306,-13.484],[-172.4519,-13.484],[-172.3662,-13.4628],[-172.4142,-13.6369],[-172.5787,-13.6326],[-172.6318,-13.5999],[-172.639,-13.5221]]]}},{"type":"Feature","id":"Palauli","properties":{"id":"Palauli","iso_code":"WS-PA","name":"Palauli","name_full":"Palauli","name_ja":"パラウリ","center_lonlat":[-172.4812,-13.7149]},"geometry":{"type":"MultiPolygon","coordinates":[[[[-172.3545,-13.784],[-172.5232,-13.8054],[-172.5751,-13.7628],[-172.609,-13.693],[-172.5787,-13.6326],[-172.4142,-13.6369],[-172.391,-13.6375],[-172.3545,-13.784]]],[[[-172.213,-13.801],[-172.2532,-13.8029],[-172.2976,-13.7698],[-172.3184,-13.7713],[-172.3474,-13.6386],[-172.311,-13.6395],[-172.2537,-13.7562],[-172.213,-13.801]]]]}},{"type":"Feature","id":"Satupa'itea","properties":{"id":"Satupa'itea","iso_code":"WS-SA","name":"Satupa'itea","name_full":"Satupa'itea","name_ja":"サチューパイテア","center_lonlat":[-172.6342,-13.6349]},"geometry":{"type":"MultiPolygon","coordinates":[[[[-172.609,-13.693],[-172.633,-13.6819],[-172.6675,-13.6339],[-172.7035,-13.6166],[-172.6566,-13.5846],[-172.6318,-13.5999],[-172.5787,-13.6326],[-172.609,-13.693]]],[[[-172.3184,-13.7713],[-172.3545,-13.784],[-172.391,-13.6375],[-172.3474,-13.6386],[-172.3184,-13.7713]]]]}},{"type":"Feature","id":"Tuamasaga","properties":{"id":"Tuamasaga","iso_code":"WS-TU","name":"Tuamasaga","name_full":"Tuamasaga","name_ja":"ツアマサガ","center_lonlat":[-171.7558,-13.934]},"geometry":{"type":"Polygon","coordinates":[[[-171.7923,-13.8165],[-171.6502,-13.8713],[-171.6656,-13.9302],[-171.6524,-14.0452],[-171.684,-14.0375],[-171.7533,-14.0515],[-171.7745,-14.0263],[-171.8541,-14.0019],[-171.8479,-13.9437],[-171.8579,-13.8063],[-171.8149,-13.8116],[-171.812,-13.8661],[-171.7914,-13.8707],[-171.7923,-13.8165]]]}},{"type":"Feature","id":"Va'a-o-Fonoti","properties":{"id":"Va'a-o-Fonoti","iso_code":"WS-VF","name":"Va'a-o-Fonoti","name_full":"Va'a-o-Fonoti","name_ja":"バア＝オ＝フォノッティ","center_lonlat":[-171.5383,-13.9616]},"geometry":{"type":"MultiPolygon","coordinates":[[[[-171.5591,-13.9254],[-171.5643,-13.9494],[-171.5195,-13.9448],[-171.4693,-13.9694],[-171.4847,-13.992],[-171.5191,-13.976],[-171.558,-13.9828],[-171.5923,-13.9691],[-171.5854,-13.9279],[-171.5591,-13.9254]]],[[[-171.5852,-13.8839],[-171.5676,-13.8967],[-171.5992,-13.9073],[-171.5852,-13.8839]]]]}},{"type":"Feature","id":"Vaisigano","properties":{"id":"Vaisigano","iso_code":"WS-VS","name":"Vaisigano","name_full":"Vaisigano","name_ja":"ベサイガーノ","center_lonlat":[-172.7007,-13.5554]},"geometry":{"type":"Polygon","coordinates":[[[-172.7035,-13.6166],[-172.7256,-13.582],[-172.7612,-13.565],[-172.7826,-13.5203],[-172.7324,-13.5105],[-172.6951,-13.5242],[-172.639,-13.5221],[-172.6318,-13.5999],[-172.6566,-13.5846],[-172.7035,-13.6166]]]}}]}
