{"type":"FeatureCollection","features":[{"type":"Feature","id":"Acquaviva","properties":{"id":"Acquaviva","iso_code":"SM-01","name":"Acquaviva","name_full":"Acquaviva","name_ja":"アックアヴィーヴァ","center_lonlat":[12.4097,43.9448]},"geometry":{"type":"Polygon","coordinates":[[[12.3856,43.9245],[12.4166,43.9637],[12.4265,43.9512],[12.4181,43.9406],[12.3856,43.9245]]]}},{"type":"Feature","id":"Borgo Maggiore","properties":{"id":"Borgo Maggiore","iso_code":"SM-06","name":"Borgo Maggiore","name_full":"Borgo Maggiore","name_ja":"ボルゴ・マッジョーレ","center_lonlat":[12.438,43.9424]},"geometry":{"type":"Polygon","coordinates":[[[12.4166,43.9637],[12.4272,43.9694],[12.4443,43.9679],[12.4481,43.9547],[12.4448,43.9404],[12.4572,43.9334],[12.4645,43.9245],[12.4411,43.9145],[12.4181,43.9406],[12.4265,43.9512],[12.4166,43.9637]]]}},{"type":"Feature","id":"Chiesanuova","properties":{"id":"Chiesanuova","iso_code":"SM-02","name":"Chiesanuova","name_full":"Chiesanuova","name_ja":"キエザヌオーヴァ","center_lonlat":[12.4154,43.9049]},"geometry":{"type":"Polygon","coordinates":[[[12.4413,43.8933],[12.3996,43.9032],[12.39,43.9179],[12.4351,43.904],[12.4413,43.8933]]]}},{"type":"Feature","id":"Domagnano","properties":{"id":"Domagnano","iso_code":"SM-03","name":"Domagnano","name_full":"Domagnano","name_ja":"ドマニャーノ","center_lonlat":[12.4682,43.9495]},"geometry":{"type":"Polygon","coordinates":[[[12.4907,43.965],[12.4915,43.9491],[12.4572,43.9334],[12.4448,43.9404],[12.4481,43.9547],[12.4907,43.965]]]}},{"type":"Feature","id":"Faetano","properties":{"id":"Faetano","iso_code":"SM-04","name":"Faetano","name_full":"Faetano","name_ja":"ファエターノ","center_lonlat":[12.4742,43.9338]},"geometry":{"type":"Polygon","coordinates":[[[12.4915,43.9491],[12.478,43.9232],[12.468,43.9226],[12.4645,43.9245],[12.4572,43.9334],[12.4915,43.9491]]]}},{"type":"Feature","id":"Fiorentino","properties":{"id":"Fiorentino","iso_code":"SM-05","name":"Fiorentino","name_full":"Fiorentino","name_ja":"フィオレンティーノ","center_lonlat":[12.4525,43.9083]},"geometry":{"type":"Polygon","coordinates":[[[12.4644,43.9001],[12.4413,43.8933],[12.4351,43.904],[12.4411,43.9145],[12.4645,43.9245],[12.468,43.9226],[12.4644,43.9001]]]}},{"type":"Feature","id":"Montegiardino","properties":{"id":"Montegiardino","iso_code":"SM-08","name":"Montegiardino","name_full":"Montegiardino","name_ja":"モンテジャルディーノ","center_lonlat":[12.4701,43.9153]},"geometry":{"type":"Polygon","coordinates":[[[12.478,43.9232],[12.4644,43.9001],[12.468,43.9226],[12.478,43.9232]]]}},{"type":"Feature","id":"San Marino","properties":{"id":"San Marino","iso_code":"SM-07","name":"San Marino","name_full":"San Marino","name_ja":"サンマリノ市","center_lonlat":[12.4154,43.9215]},"geometry":{"type":"Polygon","coordinates":[[[12.39,43.9179],[12.3856,43.9245],[12.4181,43.9406],[12.4411,43.9145],[12.4351,43.904],[12.39,43.9179]]]}},{"type":"Feature","id":"Serravalle","properties":{"id":"Serravalle","iso_code":"SM-09","name":"Serravalle","name_full":"Serravalle","name_ja":"セラヴァッレ","center_lonlat":[12.4645,43.9688]},"geometry":{"type":"Polygon","coordinates":[[[12.4907,43.965],[12.4481,43.9547],[12.4443,43.9679],[12.4272,43.9694],[12.4822,43.9826],[12.4907,43.965]]]}}]}
