{"type":"FeatureCollection","features":[{"type":"Feature","id":"'Asir","properties":{"id":"'Asir","iso_code":"SA-14","name":"'Asir","name_full":"'Asir","name_ja":"アスィール州","center_lonlat":[42.9954,19.2693]},"geometry":{"type":"Polygon","coordinates":[[[43.6384,17.4385],[43.5771,17.483],[43.4871,17.5175],[43.4129,17.52],[43.342,17.4825],[43.2419,17.623],[43.1261,17.6801],[43.0652,17.7832],[42.9626,17.8672],[42.9401,17.9173],[42.9381,17.9775],[42.9252,17.9927],[42.8779,17.9984],[42.7724,17.9256],[42.7363,17.8668],[42.6823,17.6825],[42.6679,17.6676],[42.6291,17.6608],[42.5821,17.6849],[42.4887,17.7766],[42.4203,17.8855],[42.3678,17.9051],[42.1881,17.9129],[42.1455,17.9483],[42.1008,18.0314],[42.0513,18.0522],[41.9433,18.0501],[41.9267,18.0647],[41.9159,18.1151],[41.9383,18.2579],[41.933,18.2964],[41.9226,18.3121],[41.8835,18.3224],[41.7707,18.314],[41.8063,18.4408],[41.8097,18.4952],[41.7232,18.7424],[41.6869,18.7692],[41.6236,18.7839],[41.451,18.7907],[41.4029,18.8375],[41.3837,18.9204],[41.3905,19.1534],[41.4022,19.1816],[41.4748,19.151],[41.6106,19.2277],[41.7946,19.2243],[41.8317,19.2448],[41.8553,19.2817],[41.8893,19.3834],[41.8829,19.4325],[41.8405,19.5001],[41.8323,19.5465],[41.8654,19.7407],[41.8469,19.782],[41.8047,19.8133],[41.7435,19.8142],[41.6987,19.7971],[41.7998,20.0037],[41.8199,20.1246],[41.8435,20.1783],[41.9835,20.2757],[42.0273,20.3251],[42.0306,20.373],[41.9934,20.4151],[41.9844,20.4714],[42.032,20.6249],[42.1528,20.3987],[42.2092,20.3514],[42.2597,20.3468],[42.3812,20.4081],[42.6345,20.6241],[42.8327,20.7253],[42.9239,20.7992],[43.0653,20.8208],[43.2216,20.865],[43.3696,20.8399],[43.5614,20.9377],[43.6675,20.9762],[43.8137,20.8535],[44.0559,20.5607],[44.0639,20.5208],[44.0552,20.477],[43.9687,20.3343],[43.9297,20.1631],[43.9368,20.1069],[44.01,20.0186],[44.1064,19.867],[44.5168,19.5126],[44.517,19.3869],[44.5052,19.3318],[44.3905,19.2553],[44.3591,19.1926],[44.3993,18.997],[44.3956,18.9248],[44.3669,18.8531],[44.2887,18.7886],[44.0825,18.7139],[43.9998,18.5761],[43.8558,18.4535],[43.6941,18.2906],[43.648,18.2221],[43.6382,18.1691],[43.6764,17.9979],[43.6407,17.7087],[43.6662,17.5703],[43.6384,17.4385]]]}},{"type":"Feature","id":"Al Madinah","properties":{"id":"Al Madinah","iso_code":"SA-03","name":"Al Madinah","name_full":"Al Madinah","name_ja":"マディーナ州","center_lonlat":[39.5161,24.8894]},"geometry":{"type":"Polygon","coordinates":[[[38.6438,23.4195],[38.6289,23.5079],[38.6047,23.5354],[38.6002,23.5682],[38.5779,23.5566],[38.5599,23.5625],[38.5609,23.5457],[38.5955,23.5215],[38.562,23.5244],[38.5401,23.5432],[38.5392,23.5919],[38.4948,23.6446],[38.4526,23.784],[38.437,23.8021],[38.3996,23.8141],[38.3653,23.8704],[38.3191,23.8864],[38.2589,23.9448],[38.1854,23.9759],[38.0791,24.0704],[38.0457,24.0674],[37.9353,24.139],[37.9584,24.1621],[37.9831,24.1657],[37.9733,24.1747],[37.9395,24.1614],[37.9322,24.1742],[37.9479,24.207],[37.9126,24.1915],[37.9181,24.1496],[37.8656,24.1499],[37.7676,24.2214],[37.7587,24.2416],[37.6761,24.2912],[37.626,24.2814],[37.6284,24.248],[37.5858,24.2467],[37.5457,24.2744],[37.5227,24.2677],[37.4294,24.3673],[37.418,24.401],[37.4279,24.4211],[37.455,24.4069],[37.4632,24.4225],[37.3828,24.5396],[37.404,24.6232],[37.4313,24.657],[37.4716,24.6709],[37.6143,24.6812],[37.6624,24.7044],[37.7568,24.7892],[37.9195,24.7865],[37.9867,24.8395],[38.0005,24.8726],[37.9881,25.2017],[38.0213,25.4489],[37.9873,25.4856],[37.8776,25.5017],[37.7874,25.747],[37.6078,25.9032],[37.5623,26.0089],[37.3677,26.1123],[37.3243,26.1081],[37.2723,26.0778],[37.1669,26.3355],[37.1914,26.4172],[37.2605,26.5238],[37.2641,26.5684],[37.2361,26.6102],[37.076,26.6608],[37.0154,26.7125],[36.9813,26.7997],[37.0026,27.0333],[36.9851,27.1199],[36.9534,27.164],[36.9177,27.1808],[36.8218,27.1708],[36.7833,27.1824],[36.7855,27.2162],[36.8028,27.2314],[36.9391,27.2664],[37.2184,27.3808],[37.2766,27.376],[37.4352,27.3004],[37.4993,27.2928],[37.7496,27.3944],[37.8088,27.3549],[37.865,27.2053],[37.9405,27.0953],[37.992,27.0644],[38.158,27.0503],[38.1957,27.0326],[38.215,26.9557],[38.3096,26.8884],[38.3231,26.7941],[38.3746,26.7958],[38.4907,26.8747],[38.5257,26.8845],[38.7048,26.8335],[38.73,26.8436],[38.7287,26.9163],[38.7594,26.9261],[38.8333,26.8291],[38.9953,26.7718],[39.1159,26.6888],[39.1539,26.6773],[39.3039,26.6719],[39.7196,26.7296],[39.7649,26.7145],[39.8162,26.6568],[39.8341,26.6141],[39.8404,26.5473],[39.7788,26.4088],[39.7801,26.3847],[39.7907,26.3635],[39.8309,26.3403],[39.9254,26.3464],[39.9473,26.3302],[39.9597,26.2884],[39.9034,25.9223],[39.9565,25.6879],[39.9475,25.4221],[39.9642,25.3706],[39.9937,25.3374],[40.0447,25.315],[40.0903,25.3128],[40.3621,25.3956],[40.6147,25.4136],[40.6861,25.4582],[40.7821,25.5591],[40.8713,25.5915],[41.0443,25.5981],[41.4098,25.5365],[41.6101,25.486],[41.6449,25.4543],[41.6564,25.4064],[41.6374,25.1472],[41.65,25.1021],[41.7144,25.0467],[41.8734,24.999],[41.9076,24.9323],[41.9793,24.7031],[42.0963,24.6115],[42.0845,24.5328],[42.0013,24.4052],[42.017,24.3264],[41.9956,24.2126],[41.9864,23.9493],[41.8555,23.9673],[41.7924,23.964],[41.7499,23.9413],[41.7316,23.9027],[41.764,23.7956],[41.7645,23.7304],[41.7176,23.6419],[41.6688,23.6024],[41.4909,23.5307],[41.3614,23.4633],[41.2861,23.4027],[41.2755,23.3783],[41.2993,23.3401],[41.4465,23.2544],[41.4527,23.2323],[41.4234,23.1854],[41.2841,23.1335],[41.2267,23.0941],[41.0872,22.9648],[40.8023,22.7572],[40.6649,22.5863],[40.6168,22.5749],[40.4636,22.6189],[40.4089,22.6163],[40.2658,22.5125],[40.2148,22.4933],[40.1049,22.4998],[40.0804,22.5127],[40.0643,22.5488],[40.0829,22.6526],[40.0674,22.7155],[40.0146,22.7638],[39.8984,22.8051],[39.885,22.8211],[39.8871,22.8615],[39.9421,22.9812],[39.9543,23.0472],[39.9426,23.1148],[39.9127,23.1464],[39.8697,23.1535],[39.7763,23.1428],[39.4867,23.0681],[39.4529,23.0941],[39.4447,23.1545],[39.4154,23.1808],[39.2395,23.1611],[39.1826,23.1809],[38.9883,23.3623],[38.9264,23.4419],[38.9002,23.4492],[38.6438,23.4195]]]}},{"type":"Feature","id":"Al-Baha","properties":{"id":"Al-Baha","iso_code":"SA-11","name":"Al-Baha","name_full":"Al-Baha","name_ja":"バーハ州","center_lonlat":[41.4163,20.1051]},"geometry":{"type":"Polygon","coordinates":[[[42.032,20.6249],[41.9844,20.4714],[41.9934,20.4151],[42.0306,20.373],[42.0273,20.3251],[41.9835,20.2757],[41.8435,20.1783],[41.8199,20.1246],[41.7998,20.0037],[41.6987,19.7971],[41.6365,19.7798],[41.5226,19.7767],[41.4951,19.7609],[41.4565,19.7037],[41.3486,19.3985],[41.2884,19.3678],[41.2158,19.37],[41.1705,19.3969],[41.0838,19.4976],[40.98,19.5601],[40.9645,19.5999],[40.9691,19.7021],[40.9481,19.7876],[40.9508,19.9543],[40.9162,20.0003],[40.8215,20.0307],[40.8056,20.0467],[40.802,20.0841],[40.9145,20.1937],[41.0914,20.2348],[41.1389,20.265],[41.2498,20.4694],[41.2548,20.5359],[41.2291,20.6776],[41.2497,20.721],[41.2852,20.752],[41.3554,20.7589],[41.4071,20.7288],[41.4659,20.6065],[41.5071,20.573],[41.6337,20.606],[41.7733,20.6112],[41.9316,20.6809],[41.9759,20.6707],[42.032,20.6249]]]}},{"type":"Feature","id":"Al-Jowf","properties":{"id":"Al-Jowf","iso_code":"SA-12","name":"Al-Jowf","name_full":"Al-Jowf","name_ja":"ジャウフ州","center_lonlat":[38.7411,29.679]},"geometry":{"type":"Polygon","coordinates":[[[37.9865,31.7534],[37.8661,31.3719],[37.8731,31.244],[37.8998,31.1971],[38.0163,31.1179],[38.1296,30.9487],[38.1906,30.9027],[38.3057,30.883],[39.0589,30.9609],[39.1919,30.9581],[39.8678,30.8682],[39.9248,30.8494],[40.0475,30.7652],[40.1754,30.7363],[40.7222,30.7247],[40.88,30.7328],[40.9511,30.711],[41.1772,30.5604],[41.4643,30.5299],[41.5314,30.5006],[41.589,30.4382],[41.6813,30.2815],[41.8976,30.122],[41.9048,30.1025],[41.8827,30.0618],[41.7547,29.9642],[40.9196,29.511],[40.7871,29.4174],[40.7534,29.376],[40.7418,29.3336],[40.7106,28.979],[40.6845,28.9392],[40.5436,28.8163],[40.4589,28.8272],[40.0804,28.6904],[39.7095,28.504],[39.5347,28.4613],[39.1563,28.3027],[39.1094,28.2739],[39.0001,28.1679],[38.9471,28.2018],[38.9038,28.2079],[38.8406,28.1959],[38.7104,28.1405],[38.6619,28.1395],[38.6248,28.168],[38.5965,28.2279],[38.534,28.2286],[38.4561,28.2582],[38.3639,28.2294],[38.1282,28.2461],[37.9102,28.314],[37.8261,28.3826],[37.7834,28.4577],[37.7626,28.6461],[37.7724,28.8071],[37.7565,28.8494],[37.7164,28.8674],[37.5454,28.7543],[37.4656,28.602],[37.4259,28.5741],[37.2259,28.5774],[36.9911,28.6373],[36.8545,28.6446],[36.6143,28.5987],[36.4887,28.561],[36.41,28.5831],[36.1201,28.9051],[36.0512,28.9419],[35.8552,28.9843],[35.5788,28.9639],[35.3737,28.9293],[35.2199,28.8612],[34.9965,28.8908],[34.8428,28.8846],[34.8254,28.9004],[34.8563,28.9638],[34.8638,29.0063],[34.8526,29.0451],[34.8735,29.0853],[34.9094,29.2307],[34.9421,29.2505],[34.9326,29.2893],[34.9364,29.3039],[34.9556,29.3051],[34.9494,29.3517],[36.0438,29.1909],[36.4771,29.4946],[36.7287,29.8535],[37.4702,29.9946],[37.4917,30.0112],[37.6476,30.3309],[37.9814,30.4988],[37.48,31.0073],[36.9595,31.491],[37.9865,31.7534]]]}},{"type":"Feature","id":"Al-Qassim","properties":{"id":"Al-Qassim","iso_code":"SA-05","name":"Al-Qassim","name_full":"Al-Qassim","name_ja":"カスィーム州","center_lonlat":[43.2209,25.9461]},"geometry":{"type":"Polygon","coordinates":[[[44.6276,27.2224],[44.6923,27.1968],[44.7983,27.119],[44.8374,27.0556],[44.8413,26.9863],[44.8011,26.9401],[44.7045,26.9019],[44.6349,26.8495],[44.5075,26.7025],[44.4325,26.6828],[44.3917,26.6483],[44.397,26.5359],[44.3762,26.385],[44.3917,26.3445],[44.5111,26.2268],[44.676,26.0009],[44.6835,25.9654],[44.668,25.8904],[44.7162,25.7924],[44.7361,25.6972],[44.7354,25.6334],[44.7121,25.5785],[44.3432,25.5612],[44.0839,25.5865],[44.0193,25.5673],[43.9472,25.4998],[43.8905,25.4042],[43.72,25.2806],[43.3459,25.1915],[43.2976,25.1659],[43.2031,25.0789],[43.1063,24.9619],[43.0876,24.9102],[43.1278,24.8286],[43.134,24.7784],[43.0978,24.7162],[43.0503,24.6869],[43.0099,24.6822],[42.8844,24.7048],[42.6926,24.6842],[42.5118,24.7018],[42.3965,24.7327],[42.2688,24.7859],[42.2223,24.7727],[42.1816,24.7411],[42.0963,24.6115],[41.9793,24.7031],[41.9076,24.9323],[41.8734,24.999],[41.7144,25.0467],[41.65,25.1021],[41.6374,25.1472],[41.6564,25.4064],[41.6449,25.4543],[41.6101,25.486],[41.4098,25.5365],[41.4486,25.5686],[41.5834,25.5956],[41.7811,25.689],[41.9091,25.7061],[41.9498,25.7259],[41.9524,25.7577],[41.8928,25.8706],[41.8961,25.9158],[41.9344,25.9629],[41.9585,25.9728],[42.0994,25.9382],[42.1416,25.9427],[42.1566,25.9914],[42.1378,26.1219],[42.1582,26.1848],[42.1951,26.2423],[42.352,26.271],[42.4178,26.3893],[42.5351,26.5105],[42.7984,26.7018],[42.9183,26.7712],[43.1814,26.8807],[43.2942,27.0458],[43.4175,27.1313],[43.7969,27.3046],[43.8694,27.3263],[43.915,27.3249],[43.9607,27.3062],[44.0688,27.2098],[44.1965,27.118],[44.2651,27.0873],[44.4783,27.0735],[44.6276,27.2224]]]}},{"type":"Feature","id":"Eastern","properties":{"id":"Eastern","iso_code":"SA-04","name":"Eastern","name_full":"Eastern","name_ja":"東部州","center_lonlat":[50.1444,22.9214]},"geometry":{"type":"MultiPolygon","coordinates":[[[[47.4286,17.0931],[47.7451,19.5313],[48.2991,23.655],[48.3046,23.8782],[48.2896,23.9999],[48.2653,24.071],[48.2232,24.1587],[48.1412,24.2701],[47.8885,24.5021],[47.5346,24.7346],[47.4963,24.7891],[47.465,26.1746],[47.43,26.2617],[47.403,26.2826],[47.0621,26.4088],[47.0171,26.4652],[46.8302,26.6231],[46.7829,26.6306],[46.6338,26.6066],[46.5879,26.6106],[46.5406,26.6271],[46.2304,26.8185],[46.1425,26.8402],[45.9773,26.8446],[45.9126,26.8617],[45.7738,26.9694],[45.6924,27.0534],[45.5285,27.0857],[45.2453,27.2319],[45.1982,27.2788],[45.1583,27.3917],[45.1277,27.4362],[44.99,27.5326],[44.9511,27.5795],[44.9387,27.6195],[44.9488,27.6834],[44.9744,27.7398],[45.2127,28.0165],[45.5648,28.6023],[45.6247,28.6815],[45.801,28.8382],[45.9409,28.9063],[46.4144,29.0629],[46.4273,29.0761],[46.5324,29.0957],[47.4341,28.9946],[47.4945,28.904],[47.5499,28.7706],[47.5584,28.6915],[47.5817,28.6315],[47.6598,28.56],[47.6681,28.5335],[48.4328,28.5405],[48.4946,28.5001],[48.5078,28.4157],[48.499,28.3934],[48.4761,28.4008],[48.4688,28.3871],[48.5049,28.3896],[48.5239,28.4145],[48.5355,28.4076],[48.5178,28.3542],[48.5222,28.3188],[48.6184,28.2173],[48.6008,28.1478],[48.6548,28.0616],[48.6521,28.0461],[48.792,28.007],[48.7845,27.9892],[48.7468,27.9816],[48.7437,27.9613],[48.8147,27.9067],[48.8827,27.8267],[48.8745,27.7699],[48.8392,27.7286],[48.8576,27.8035],[48.8529,27.8179],[48.805,27.7565],[48.8255,27.8111],[48.8125,27.8286],[48.7788,27.7196],[48.7914,27.7149],[48.8113,27.7428],[48.8153,27.6876],[48.8392,27.7081],[48.8455,27.6671],[48.8581,27.6628],[48.8801,27.6876],[48.8771,27.6445],[48.8596,27.6404],[48.8733,27.6125],[48.849,27.6234],[48.8318,27.6125],[48.8708,27.6056],[48.9006,27.633],[48.9075,27.6187],[48.8911,27.5881],[48.8967,27.572],[48.9143,27.5715],[48.9153,27.6086],[48.9685,27.6203],[49.0542,27.5683],[49.064,27.5563],[49.0447,27.5442],[49.0589,27.5382],[49.0776,27.5465],[49.072,27.5578],[49.1063,27.5469],[49.1443,27.5442],[49.1785,27.5578],[49.2398,27.5451],[49.3053,27.4821],[49.3128,27.4486],[49.2927,27.4529],[49.2849,27.4753],[49.2639,27.4529],[49.2088,27.4581],[49.1819,27.4411],[49.1751,27.4583],[49.1577,27.4585],[49.1198,27.4411],[49.207,27.3952],[49.2402,27.4272],[49.2638,27.4139],[49.2297,27.3797],[49.2234,27.3313],[49.2788,27.3588],[49.3128,27.345],[49.3049,27.3255],[49.3226,27.2057],[49.3395,27.2078],[49.3452,27.1828],[49.3669,27.1942],[49.3709,27.2187],[49.4009,27.2078],[49.4071,27.2153],[49.4124,27.204],[49.3975,27.1626],[49.3669,27.1606],[49.3748,27.1491],[49.4071,27.1327],[49.4351,27.1668],[49.4319,27.1428],[49.5244,27.1327],[49.4891,27.1747],[49.5164,27.1884],[49.5449,27.1737],[49.5721,27.1942],[49.5586,27.1396],[49.5701,27.1041],[49.6125,27.072],[49.6995,26.9582],[49.8718,26.8625],[49.9421,26.8583],[49.973,26.8424],[50.0691,26.7286],[50.1585,26.6649],[50.1619,26.6392],[50.0925,26.6891],[50.0237,26.6995],[50.0064,26.7476],[49.9885,26.7244],[49.9832,26.6837],[50.0064,26.6486],[50.0037,26.5707],[50.0306,26.4946],[50.0583,26.4639],[50.1623,26.4271],[50.1916,26.4036],[50.2166,26.3239],[50.2122,26.1913],[50.1824,26.1601],[50.1741,26.1807],[50.1546,26.1662],[50.1584,26.1025],[50.1414,26.036],[50.1258,26.0465],[50.1133,26.1033],[50.0736,26.1315],[50.0657,26.1737],[50.0324,26.2011],[49.9758,26.1396],[50.0104,26.0769],[49.99,26.0605],[49.99,26.0018],[50.021,26.0045],[50.0241,26.036],[50.0646,26.0134],[50.0669,25.9963],[50.1013,25.9895],[50.1277,25.9404],[50.1078,25.9147],[50.1183,25.8679],[50.1619,25.7827],[50.2472,25.6794],[50.2575,25.6319],[50.2267,25.6872],[50.1447,25.7333],[50.1487,25.6999],[50.1824,25.6728],[50.1961,25.6872],[50.2341,25.6152],[50.348,25.4821],[50.3743,25.4612],[50.362,25.503],[50.3814,25.5129],[50.4102,25.4641],[50.4715,25.4372],[50.4909,25.3923],[50.4834,25.3854],[50.5204,25.3148],[50.5176,25.2449],[50.5491,25.1748],[50.5454,25.1186],[50.5622,25.0548],[50.5728,25.0429],[50.5804,25.0622],[50.6063,25.0427],[50.6616,24.98],[50.6814,24.9139],[50.7264,24.8817],[50.7373,24.7822],[50.7606,24.7364],[50.7861,24.7272],[50.8079,24.7466],[50.881,24.6364],[50.9286,24.5872],[50.9789,24.5677],[51.0955,24.5602],[51.1475,24.5763],[51.2153,24.6258],[51.2176,24.6177],[51.2688,24.6245],[51.2952,24.6026],[51.3064,24.6108],[51.2903,24.5785],[51.3024,24.5172],[51.3337,24.5321],[51.3879,24.5971],[51.3953,24.6313],[51.4439,24.6197],[51.4553,24.5942],[51.4983,24.5836],[51.4437,24.5548],[51.3953,24.4879],[51.3362,24.4479],[51.3064,24.406],[51.2997,24.3463],[51.2786,24.3405],[51.2788,24.3078],[51.345,24.2978],[51.4129,24.3235],[51.479,24.3109],[51.5261,24.2683],[51.5693,24.2562],[51.5732,24.1278],[51.5935,24.0783],[52.5585,22.9386],[55.1053,22.6209],[55.1204,22.6234],[55.1868,22.7036],[55.637,22.0019],[54.9784,19.9954],[51.9786,18.9956],[49.1288,18.6121],[49.0358,18.5797],[48.1619,18.1489],[47.589,17.4633],[47.458,17.1309],[47.4286,17.0931]]],[[[49.5654,27.3518],[49.6888,27.3177],[49.6073,27.3225],[49.5654,27.2978],[49.5381,27.3115],[49.554,27.3283],[49.5313,27.3462],[49.4876,27.3341],[49.4562,27.2904],[49.4536,27.3164],[49.5012,27.3605],[49.5313,27.3655],[49.5654,27.3518]]]]}},{"type":"Feature","id":"Ha'il","properties":{"id":"Ha'il","iso_code":"SA-06","name":"Ha'il","name_full":"Ha'il","name_ja":"ハーイル州","center_lonlat":[41.6083,27.3473]},"geometry":{"type":"Polygon","coordinates":[[[41.4098,25.5365],[41.0443,25.5981],[40.8713,25.5915],[40.7821,25.5591],[40.6861,25.4582],[40.6147,25.4136],[40.3621,25.3956],[40.0903,25.3128],[40.0447,25.315],[39.9937,25.3374],[39.9642,25.3706],[39.9475,25.4221],[39.9565,25.6879],[39.9034,25.9223],[39.9597,26.2884],[39.9473,26.3302],[39.9254,26.3464],[39.8309,26.3403],[39.7907,26.3635],[39.7801,26.3847],[39.7788,26.4088],[39.8404,26.5473],[39.8341,26.6141],[39.8162,26.6568],[39.8672,26.7201],[39.9551,26.9363],[40.0,26.9904],[40.1419,27.1052],[40.1665,27.1456],[40.1656,27.1873],[40.1212,27.2282],[40.0,27.2857],[39.9307,27.3415],[39.8113,27.7528],[39.7875,27.7955],[39.7285,27.8475],[39.4344,28.0427],[39.058,28.1294],[39.0175,28.1467],[39.0001,28.1679],[39.1094,28.2739],[39.1563,28.3027],[39.5347,28.4613],[39.7095,28.504],[40.0804,28.6904],[40.4589,28.8272],[40.5436,28.8163],[40.658,28.7739],[40.7396,28.7601],[41.3424,28.876],[41.4166,28.8704],[41.6939,28.7958],[41.8671,28.8264],[42.001,28.8309],[42.3885,28.7443],[42.4336,28.7151],[42.5551,28.5868],[42.6682,28.5299],[42.7672,28.533],[42.9042,28.5932],[42.9682,28.5987],[42.9981,28.5797],[43.0076,28.4834],[43.0301,28.4321],[43.0529,28.4087],[43.1151,28.3826],[43.2753,28.3862],[43.409,28.3297],[43.474,28.3156],[43.5366,28.3359],[43.6531,28.4024],[43.7155,28.4154],[43.7824,28.3708],[43.9512,28.1008],[44.0353,27.9035],[44.0938,27.8403],[44.1824,27.7991],[44.525,27.7455],[44.5934,27.7095],[44.759,27.5765],[44.7989,27.5204],[44.7254,27.4908],[44.6405,27.3946],[44.6107,27.3123],[44.6276,27.2224],[44.4783,27.0735],[44.2651,27.0873],[44.1965,27.118],[44.0688,27.2098],[43.9607,27.3062],[43.915,27.3249],[43.8694,27.3263],[43.7969,27.3046],[43.4175,27.1313],[43.2942,27.0458],[43.1814,26.8807],[42.9183,26.7712],[42.7984,26.7018],[42.5351,26.5105],[42.4178,26.3893],[42.352,26.271],[42.1951,26.2423],[42.1582,26.1848],[42.1378,26.1219],[42.1566,25.9914],[42.1416,25.9427],[42.0994,25.9382],[41.9585,25.9728],[41.9344,25.9629],[41.8961,25.9158],[41.8928,25.8706],[41.9524,25.7577],[41.9498,25.7259],[41.9091,25.7061],[41.7811,25.689],[41.5834,25.5956],[41.4486,25.5686],[41.4098,25.5365]]]}},{"type":"Feature","id":"Jazan","properties":{"id":"Jazan","iso_code":"SA-09","name":"Jazan","name_full":"Jazan","name_ja":"ジーザーン州","center_lonlat":[42.6209,17.4066]},"geometry":{"type":"MultiPolygon","coordinates":[[[[41.5971,18.1211],[41.6259,18.1804],[41.7221,18.2417],[41.7707,18.314],[41.8835,18.3224],[41.9226,18.3121],[41.933,18.2964],[41.9383,18.2579],[41.9159,18.1151],[41.9267,18.0647],[41.9433,18.0501],[42.0513,18.0522],[42.1008,18.0314],[42.1455,17.9483],[42.1881,17.9129],[42.3678,17.9051],[42.4203,17.8855],[42.4887,17.7766],[42.5821,17.6849],[42.6291,17.6608],[42.6679,17.6676],[42.6823,17.6825],[42.7363,17.8668],[42.7724,17.9256],[42.8779,17.9984],[42.9252,17.9927],[42.9381,17.9775],[42.9401,17.9173],[42.9626,17.8672],[43.0652,17.7832],[43.1261,17.6801],[43.2419,17.623],[43.342,17.4825],[43.2159,17.3872],[43.165,17.3259],[43.2222,17.3078],[43.2522,17.272],[43.2486,17.2519],[43.1562,17.2097],[43.1453,17.1466],[43.1184,17.0862],[43.1359,17.0096],[43.1126,16.91],[43.1458,16.8345],[43.2115,16.7969],[43.2086,16.7734],[43.1685,16.7372],[43.1861,16.6833],[43.18,16.6646],[43.0849,16.6726],[43.0746,16.6188],[43.0363,16.5363],[42.9709,16.4958],[42.9068,16.4794],[42.8982,16.4189],[42.7895,16.371],[42.7813,16.4202],[42.7949,16.4528],[42.7287,16.5472],[42.7373,16.6711],[42.7192,16.6754],[42.7259,16.6828],[42.7039,16.7091],[42.7124,16.7306],[42.6358,16.8152],[42.5969,16.8368],[42.5759,16.8323],[42.5418,16.878],[42.5557,16.9221],[42.5442,17.0043],[42.5127,17.037],[42.4597,17.0385],[42.4475,17.049],[42.4108,17.1557],[42.3567,17.1824],[42.384,17.121],[42.3638,17.1087],[42.3739,17.0433],[42.363,17.0248],[42.3107,17.351],[42.3079,17.4443],[42.2736,17.4599],[42.2606,17.4851],[42.1528,17.5738],[42.1409,17.5712],[42.0935,17.6521],[42.0532,17.6532],[42.0005,17.7175],[41.9793,17.7106],[41.8695,17.8205],[41.8478,17.812],[41.8104,17.8369],[41.7876,17.8336],[41.7783,17.8598],[41.6773,17.9606],[41.6737,18.0093],[41.6536,18.0153],[41.6511,18.039],[41.5935,18.0959],[41.5971,18.1211]]],[[[42.1864,16.7055],[42.1766,16.6516],[42.1882,16.6053],[42.1786,16.5835],[42.1558,16.585],[42.128,16.6174],[42.0732,16.6358],[42.1176,16.6599],[42.1111,16.6805],[42.0858,16.6935],[42.0106,16.6826],[41.9755,16.6636],[41.9555,16.6701],[41.8434,16.7467],[41.8249,16.7982],[41.7782,16.8127],[41.7796,16.841],[41.7556,16.8784],[41.7571,16.8964],[41.8281,16.8586],[41.8601,16.8211],[41.8633,16.7851],[41.9051,16.7476],[41.9414,16.7512],[41.9533,16.7331],[42.011,16.7391],[42.0229,16.7159],[42.035,16.7158],[42.0646,16.7284],[42.0365,16.7337],[42.0217,16.7558],[42.0479,16.8121],[42.0622,16.8142],[42.1041,16.7923],[42.1165,16.7442],[42.1412,16.7406],[42.1477,16.7213],[42.1864,16.7055]]],[[[41.9189,16.7912],[41.835,16.8917],[41.8879,16.9078],[41.911,16.936],[41.9231,16.935],[41.9285,16.9549],[41.9209,16.9789],[41.8462,16.9975],[41.8608,17.0136],[41.9212,16.992],[41.9382,16.9729],[41.9438,16.8835],[41.976,16.8755],[41.9852,16.8536],[41.9441,16.853],[41.9323,16.8384],[41.9382,16.8214],[41.9954,16.797],[42.0018,16.761],[41.9189,16.7912]]]]}},{"type":"Feature","id":"Makkah","properties":{"id":"Makkah","iso_code":"SA-02","name":"Makkah","name_full":"Makkah","name_ja":"マッカ州","center_lonlat":[41.2036,21.6265]},"geometry":{"type":"Polygon","coordinates":[[[41.5971,18.1211],[41.5564,18.1743],[41.561,18.1898],[41.5213,18.1967],[41.5337,18.2104],[41.5186,18.228],[41.4933,18.2239],[41.5064,18.2722],[41.4722,18.2792],[41.433,18.4743],[41.3698,18.5358],[41.3557,18.569],[41.3283,18.5876],[41.3078,18.5734],[41.2754,18.592],[41.2102,18.6979],[41.249,18.8342],[41.2122,18.862],[41.1712,18.8716],[41.1365,18.9365],[41.1765,19.0674],[41.1494,19.0937],[41.0686,19.1254],[41.0402,19.1835],[41.0482,19.2177],[41.0361,19.2646],[41.0178,19.274],[40.9983,19.3149],[40.9559,19.3433],[40.9377,19.4194],[40.9592,19.456],[40.9447,19.5057],[40.8355,19.5466],[40.7604,19.6087],[40.7944,19.6013],[40.798,19.6923],[40.7449,19.777],[40.7254,19.7893],[40.6541,19.7943],[40.645,19.7847],[40.6566,19.7595],[40.5645,19.8859],[40.527,19.9103],[40.5405,19.9439],[40.5345,19.9618],[40.4456,20.0097],[40.3936,20.0643],[40.3135,20.0907],[40.2321,20.1636],[40.2388,20.178],[40.1648,20.2004],[40.0838,20.2792],[40.0452,20.2861],[39.992,20.2667],[39.9031,20.3083],[39.9407,20.2592],[39.7601,20.3508],[39.7446,20.3812],[39.6465,20.4616],[39.5674,20.5677],[39.5947,20.5888],[39.5435,20.6192],[39.5264,20.6707],[39.4929,20.7062],[39.4899,20.7229],[39.506,20.7464],[39.4575,20.7595],[39.4779,20.739],[39.4583,20.7449],[39.4232,20.7717],[39.4233,20.8141],[39.4575,20.7943],[39.4487,20.8273],[39.4113,20.8469],[39.4097,20.8284],[39.3597,20.8626],[39.3391,20.8874],[39.3408,20.9103],[39.3596,20.8967],[39.3528,20.9199],[39.3278,20.9318],[39.2971,20.924],[39.2624,20.9831],[39.259,21.0239],[39.2378,21.0629],[39.1743,21.1089],[39.1565,21.1675],[39.1702,21.1915],[39.0807,21.315],[39.1599,21.3798],[39.1711,21.4041],[39.1647,21.4649],[39.1497,21.4801],[39.1589,21.5078],[39.1428,21.5409],[39.1198,21.5169],[39.0923,21.5766],[39.0774,21.6916],[39.0794,21.7064],[39.1035,21.7186],[39.1091,21.7478],[39.1012,21.76],[39.0884,21.7305],[39.0667,21.7252],[39.033,21.801],[38.9786,21.8621],[38.9496,21.9219],[38.9313,22.0061],[38.9327,22.0252],[38.9591,22.0344],[38.9862,22.0022],[39.0057,22.002],[39.0125,22.0543],[39.033,22.0722],[39.0444,22.1308],[39.0466,22.1511],[39.0261,22.1169],[39.0193,22.1316],[39.0404,22.2358],[39.0733,22.2711],[39.0835,22.3135],[39.1428,22.4032],[39.1276,22.4212],[39.1149,22.4186],[39.0948,22.3702],[39.0703,22.3658],[39.0815,22.5468],[38.9857,22.7243],[39.013,22.7668],[38.9455,22.8312],[38.9368,22.8264],[38.9647,22.7947],[38.9783,22.7537],[38.9709,22.7469],[38.9026,22.8432],[38.8512,22.9433],[38.8804,22.9285],[38.9129,22.862],[38.951,22.852],[38.9647,22.8704],[38.8939,22.9652],[38.8343,22.9865],[38.8142,22.9827],[38.7996,22.9987],[38.7791,23.0412],[38.8044,23.0792],[38.7983,23.1496],[38.7867,23.1546],[38.7776,23.1393],[38.7114,23.2357],[38.6438,23.4195],[38.9002,23.4492],[38.9264,23.4419],[38.9883,23.3623],[39.1826,23.1809],[39.2395,23.1611],[39.4154,23.1808],[39.4447,23.1545],[39.4529,23.0941],[39.4867,23.0681],[39.7763,23.1428],[39.8697,23.1535],[39.9127,23.1464],[39.9426,23.1148],[39.9543,23.0472],[39.9421,22.9812],[39.8871,22.8615],[39.885,22.8211],[39.8984,22.8051],[40.0146,22.7638],[40.0674,22.7155],[40.0829,22.6526],[40.0643,22.5488],[40.0804,22.5127],[40.1049,22.4998],[40.2148,22.4933],[40.2658,22.5125],[40.4089,22.6163],[40.4636,22.6189],[40.6168,22.5749],[40.6649,22.5863],[40.8023,22.7572],[41.0872,22.9648],[41.2267,23.0941],[41.2841,23.1335],[41.4234,23.1854],[41.4527,23.2323],[41.4465,23.2544],[41.2993,23.3401],[41.2755,23.3783],[41.2861,23.4027],[41.3614,23.4633],[41.4909,23.5307],[41.6688,23.6024],[41.7176,23.6419],[41.7645,23.7304],[41.764,23.7956],[41.7316,23.9027],[41.7499,23.9413],[41.7924,23.964],[41.8555,23.9673],[41.9864,23.9493],[41.9762,23.8546],[41.9866,23.7717],[42.0675,23.7131],[42.107,23.6626],[42.1948,23.427],[42.2243,23.2844],[42.3531,23.0007],[42.3773,22.9716],[42.44,22.9351],[42.4977,22.923],[42.6527,22.9257],[42.8707,22.909],[42.9399,22.8923],[43.0062,22.8381],[42.9868,22.6301],[43.0153,22.5674],[43.0365,22.5491],[43.1252,22.5202],[43.3109,22.5541],[43.4514,22.5269],[43.4852,22.5018],[43.4584,22.3096],[43.5077,21.956],[43.4885,21.8934],[43.4258,21.7993],[43.4362,21.6116],[43.3889,21.3821],[43.4064,21.3412],[43.6675,20.9762],[43.5614,20.9377],[43.3696,20.8399],[43.2216,20.865],[43.0653,20.8208],[42.9239,20.7992],[42.8327,20.7253],[42.6345,20.6241],[42.3812,20.4081],[42.2597,20.3468],[42.2092,20.3514],[42.1528,20.3987],[42.032,20.6249],[41.9759,20.6707],[41.9316,20.6809],[41.7733,20.6112],[41.6337,20.606],[41.5071,20.573],[41.4659,20.6065],[41.4071,20.7288],[41.3554,20.7589],[41.2852,20.752],[41.2497,20.721],[41.2291,20.6776],[41.2548,20.5359],[41.2498,20.4694],[41.1389,20.265],[41.0914,20.2348],[40.9145,20.1937],[40.802,20.0841],[40.8056,20.0467],[40.8215,20.0307],[40.9162,20.0003],[40.9508,19.9543],[40.9481,19.7876],[40.9691,19.7021],[40.9645,19.5999],[40.98,19.5601],[41.0838,19.4976],[41.1705,19.3969],[41.2158,19.37],[41.2884,19.3678],[41.3486,19.3985],[41.4565,19.7037],[41.4951,19.7609],[41.5226,19.7767],[41.6365,19.7798],[41.6987,19.7971],[41.7435,19.8142],[41.8047,19.8133],[41.8469,19.782],[41.8654,19.7407],[41.8323,19.5465],[41.8405,19.5001],[41.8829,19.4325],[41.8893,19.3834],[41.8553,19.2817],[41.8317,19.2448],[41.7946,19.2243],[41.6106,19.2277],[41.4748,19.151],[41.4022,19.1816],[41.3905,19.1534],[41.3837,18.9204],[41.4029,18.8375],[41.451,18.7907],[41.6236,18.7839],[41.6869,18.7692],[41.7232,18.7424],[41.8097,18.4952],[41.8063,18.4408],[41.7707,18.314],[41.7221,18.2417],[41.6259,18.1804],[41.5971,18.1211]]]}},{"type":"Feature","id":"Najran","properties":{"id":"Najran","iso_code":"SA-10","name":"Najran","name_full":"Najran","name_ja":"ナジュラーン州","center_lonlat":[45.8311,18.2883]},"geometry":{"type":"Polygon","coordinates":[[[47.4286,17.0931],[47.1613,16.9474],[46.983,16.9491],[46.7472,17.2548],[46.7101,17.2754],[46.3226,17.2241],[45.4304,17.312],[45.2221,17.4174],[45.1654,17.4284],[44.6465,17.4318],[44.562,17.4045],[44.4041,17.4187],[44.2115,17.3906],[44.149,17.4048],[44.0853,17.3434],[44.0039,17.3678],[43.9387,17.3052],[43.9151,17.3018],[43.894,17.3122],[43.8867,17.3537],[43.7306,17.3524],[43.6384,17.4385],[43.6662,17.5703],[43.6407,17.7087],[43.6764,17.9979],[43.6382,18.1691],[43.648,18.2221],[43.6941,18.2906],[43.8558,18.4535],[43.9998,18.5761],[44.0825,18.7139],[44.2887,18.7886],[44.3669,18.8531],[44.3956,18.9248],[44.3993,18.997],[44.3591,19.1926],[44.3905,19.2553],[44.5052,19.3318],[44.517,19.3869],[44.5168,19.5126],[44.795,19.3477],[44.9199,19.2954],[45.0143,19.2737],[45.2726,19.2569],[47.615,19.4961],[47.7451,19.5313],[47.4286,17.0931]]]}},{"type":"Feature","id":"Northern Borders","properties":{"id":"Northern Borders","iso_code":"SA-08","name":"Northern Borders","name_full":"Northern Borders","name_ja":"北部国境州","center_lonlat":[42.0777,29.9362]},"geometry":{"type":"Polygon","coordinates":[[[46.4273,29.0761],[46.4144,29.0629],[45.9409,28.9063],[45.801,28.8382],[45.6247,28.6815],[45.5648,28.6023],[45.2127,28.0165],[44.9744,27.7398],[44.9488,27.6834],[44.9387,27.6195],[44.9511,27.5795],[44.99,27.5326],[44.9485,27.4799],[44.9016,27.4582],[44.8576,27.4691],[44.7989,27.5204],[44.759,27.5765],[44.5934,27.7095],[44.525,27.7455],[44.1824,27.7991],[44.0938,27.8403],[44.0353,27.9035],[43.9512,28.1008],[43.7824,28.3708],[43.7155,28.4154],[43.6531,28.4024],[43.5366,28.3359],[43.474,28.3156],[43.409,28.3297],[43.2753,28.3862],[43.1151,28.3826],[43.0529,28.4087],[43.0301,28.4321],[43.0076,28.4834],[42.9981,28.5797],[42.9682,28.5987],[42.9042,28.5932],[42.7672,28.533],[42.6682,28.5299],[42.5551,28.5868],[42.4336,28.7151],[42.3885,28.7443],[42.001,28.8309],[41.8671,28.8264],[41.6939,28.7958],[41.4166,28.8704],[41.3424,28.876],[40.7396,28.7601],[40.658,28.7739],[40.5436,28.8163],[40.6845,28.9392],[40.7106,28.979],[40.7418,29.3336],[40.7534,29.376],[40.7871,29.4174],[40.9196,29.511],[41.7547,29.9642],[41.8827,30.0618],[41.9048,30.1025],[41.8976,30.122],[41.6813,30.2815],[41.589,30.4382],[41.5314,30.5006],[41.4643,30.5299],[41.1772,30.5604],[40.9511,30.711],[40.88,30.7328],[40.7222,30.7247],[40.1754,30.7363],[40.0475,30.7652],[39.9248,30.8494],[39.8678,30.8682],[39.1919,30.9581],[39.0589,30.9609],[38.3057,30.883],[38.1906,30.9027],[38.1296,30.9487],[38.0163,31.1179],[37.8998,31.1971],[37.8731,31.244],[37.8661,31.3719],[37.9865,31.7534],[38.9634,31.9943],[38.9981,32.0069],[39.1168,32.1029],[39.1577,32.1213],[40.3703,31.9385],[40.4798,31.8928],[42.0754,31.0799],[42.8588,30.4946],[44.6918,29.2018],[46.3575,29.0631],[46.4273,29.0761]]]}},{"type":"Feature","id":"Riyadh","properties":{"id":"Riyadh","iso_code":"SA-01","name":"Riyadh","name_full":"Riyadh","name_ja":"リヤード州","center_lonlat":[45.5492,23.0748]},"geometry":{"type":"Polygon","coordinates":[[[44.6276,27.2224],[44.6107,27.3123],[44.6405,27.3946],[44.7254,27.4908],[44.7989,27.5204],[44.8576,27.4691],[44.9016,27.4582],[44.9485,27.4799],[44.99,27.5326],[45.1277,27.4362],[45.1583,27.3917],[45.1982,27.2788],[45.2453,27.2319],[45.5285,27.0857],[45.6924,27.0534],[45.7738,26.9694],[45.9126,26.8617],[45.9773,26.8446],[46.1425,26.8402],[46.2304,26.8185],[46.5406,26.6271],[46.5879,26.6106],[46.6338,26.6066],[46.7829,26.6306],[46.8302,26.6231],[47.0171,26.4652],[47.0621,26.4088],[47.403,26.2826],[47.43,26.2617],[47.465,26.1746],[47.4963,24.7891],[47.5346,24.7346],[47.8885,24.5021],[48.1412,24.2701],[48.2232,24.1587],[48.2653,24.071],[48.2896,23.9999],[48.3046,23.8782],[48.2991,23.655],[47.7451,19.5313],[47.615,19.4961],[45.2726,19.2569],[45.0143,19.2737],[44.9199,19.2954],[44.795,19.3477],[44.5168,19.5126],[44.1064,19.867],[44.01,20.0186],[43.9368,20.1069],[43.9297,20.1631],[43.9687,20.3343],[44.0552,20.477],[44.0639,20.5208],[44.0559,20.5607],[43.8137,20.8535],[43.6675,20.9762],[43.4064,21.3412],[43.3889,21.3821],[43.4362,21.6116],[43.4258,21.7993],[43.4885,21.8934],[43.5077,21.956],[43.4584,22.3096],[43.4852,22.5018],[43.4514,22.5269],[43.3109,22.5541],[43.1252,22.5202],[43.0365,22.5491],[43.0153,22.5674],[42.9868,22.6301],[43.0062,22.8381],[42.9399,22.8923],[42.8707,22.909],[42.6527,22.9257],[42.4977,22.923],[42.44,22.9351],[42.3773,22.9716],[42.3531,23.0007],[42.2243,23.2844],[42.1948,23.427],[42.107,23.6626],[42.0675,23.7131],[41.9866,23.7717],[41.9762,23.8546],[41.9864,23.9493],[41.9956,24.2126],[42.017,24.3264],[42.0013,24.4052],[42.0845,24.5328],[42.0963,24.6115],[42.1816,24.7411],[42.2223,24.7727],[42.2688,24.7859],[42.3965,24.7327],[42.5118,24.7018],[42.6926,24.6842],[42.8844,24.7048],[43.0099,24.6822],[43.0503,24.6869],[43.0978,24.7162],[43.134,24.7784],[43.1278,24.8286],[43.0876,24.9102],[43.1063,24.9619],[43.2031,25.0789],[43.2976,25.1659],[43.3459,25.1915],[43.72,25.2806],[43.8905,25.4042],[43.9472,25.4998],[44.0193,25.5673],[44.0839,25.5865],[44.3432,25.5612],[44.7121,25.5785],[44.7354,25.6334],[44.7361,25.6972],[44.7162,25.7924],[44.668,25.8904],[44.6835,25.9654],[44.676,26.0009],[44.5111,26.2268],[44.3917,26.3445],[44.3762,26.385],[44.397,26.5359],[44.3917,26.6483],[44.4325,26.6828],[44.5075,26.7025],[44.6349,26.8495],[44.7045,26.9019],[44.8011,26.9401],[44.8413,26.9863],[44.8374,27.0556],[44.7983,27.119],[44.6923,27.1968],[44.6276,27.2224]]]}},{"type":"Feature","id":"Tabuk","properties":{"id":"Tabuk","iso_code":"SA-07","name":"Tabuk","name_full":"Tabuk","name_ja":"タブーク州","center_lonlat":[37.2955,27.3891]},"geometry":{"type":"MultiPolygon","coordinates":[[[[37.3828,24.5396],[37.2285,24.7377],[37.2271,24.7995],[37.1963,24.7896],[37.1787,24.7994],[37.1486,24.851],[37.2189,24.8466],[37.2566,24.8712],[37.2581,24.9218],[37.28,24.9641],[37.2515,25.0526],[37.2578,25.1115],[37.2422,25.1753],[37.1053,25.3222],[37.0864,25.3854],[37.0598,25.4196],[37.0774,25.4311],[37.0182,25.4947],[36.9363,25.6461],[36.8816,25.6728],[36.8174,25.758],[36.7957,25.7595],[36.804,25.7268],[36.7922,25.7206],[36.7249,25.7539],[36.7023,25.78],[36.6939,25.8229],[36.6756,25.8305],[36.6621,25.8791],[36.7058,25.9438],[36.6961,26.0223],[36.6406,26.0602],[36.5366,26.0824],[36.5127,26.111],[36.4492,26.2469],[36.3828,26.3345],[36.3089,26.4982],[36.2298,26.6256],[36.0977,26.754],[36.032,26.9068],[36.0139,26.9023],[36.0003,26.9135],[35.8317,27.0927],[35.7998,27.1501],[35.8128,27.1911],[35.784,27.2355],[35.7,27.3248],[35.6404,27.3635],[35.5596,27.4556],[35.5105,27.5442],[35.5003,27.6193],[35.4408,27.6903],[35.3944,27.777],[35.3513,27.8014],[35.3228,27.8763],[35.2456,27.9623],[35.1636,28.0093],[35.2163,28.0377],[35.2269,28.0331],[35.2163,28.0544],[35.1618,28.0582],[35.0519,28.1196],[35.0197,28.1135],[35.0308,28.0991],[34.9979,28.1142],[34.9277,28.0786],[34.8602,28.0854],[34.8464,28.0712],[34.8426,28.0998],[34.8662,28.1128],[34.8368,28.1163],[34.8049,28.0712],[34.7918,28.0786],[34.8191,28.0991],[34.8191,28.1128],[34.7937,28.1111],[34.7844,28.0929],[34.7708,28.0929],[34.7708,28.1059],[34.757,28.0991],[34.7274,28.1121],[34.7092,28.1401],[34.695,28.1265],[34.682,28.1352],[34.6746,28.1128],[34.6471,28.0991],[34.6683,28.0712],[34.6471,28.0712],[34.635,28.0333],[34.613,28.0302],[34.6205,28.0377],[34.6062,28.096],[34.5744,28.0941],[34.5728,28.1128],[34.6267,28.1605],[34.6271,28.1767],[34.6577,28.1706],[34.6496,28.2009],[34.6683,28.209],[34.6746,28.2705],[34.6887,28.2636],[34.6887,28.2773],[34.6746,28.2772],[34.715,28.3275],[34.7411,28.4106],[34.8038,28.5271],[34.7785,28.6645],[34.8361,28.8165],[34.8428,28.8846],[34.9965,28.8908],[35.2199,28.8612],[35.3737,28.9293],[35.5788,28.9639],[35.8552,28.9843],[36.0512,28.9419],[36.1201,28.9051],[36.41,28.5831],[36.4887,28.561],[36.6143,28.5987],[36.8545,28.6446],[36.9911,28.6373],[37.2259,28.5774],[37.4259,28.5741],[37.4656,28.602],[37.5454,28.7543],[37.7164,28.8674],[37.7565,28.8494],[37.7724,28.8071],[37.7626,28.6461],[37.7834,28.4577],[37.8261,28.3826],[37.9102,28.314],[38.1282,28.2461],[38.3639,28.2294],[38.4561,28.2582],[38.534,28.2286],[38.5965,28.2279],[38.6248,28.168],[38.6619,28.1395],[38.7104,28.1405],[38.8406,28.1959],[38.9038,28.2079],[38.9471,28.2018],[39.0001,28.1679],[39.0175,28.1467],[39.058,28.1294],[39.4344,28.0427],[39.7285,27.8475],[39.7875,27.7955],[39.8113,27.7528],[39.9307,27.3415],[40.0,27.2857],[40.1212,27.2282],[40.1656,27.1873],[40.1665,27.1456],[40.1419,27.1052],[40.0,26.9904],[39.9551,26.9363],[39.8672,26.7201],[39.8162,26.6568],[39.7649,26.7145],[39.7196,26.7296],[39.3039,26.6719],[39.1539,26.6773],[39.1159,26.6888],[38.9953,26.7718],[38.8333,26.8291],[38.7594,26.9261],[38.7287,26.9163],[38.73,26.8436],[38.7048,26.8335],[38.5257,26.8845],[38.4907,26.8747],[38.3746,26.7958],[38.3231,26.7941],[38.3096,26.8884],[38.215,26.9557],[38.1957,27.0326],[38.158,27.0503],[37.992,27.0644],[37.9405,27.0953],[37.865,27.2053],[37.8088,27.3549],[37.7496,27.3944],[37.4993,27.2928],[37.4352,27.3004],[37.2766,27.376],[37.2184,27.3808],[36.9391,27.2664],[36.8028,27.2314],[36.7855,27.2162],[36.7833,27.1824],[36.8218,27.1708],[36.9177,27.1808],[36.9534,27.164],[36.9851,27.1199],[37.0026,27.0333],[36.9813,26.7997],[37.0154,26.7125],[37.076,26.6608],[37.2361,26.6102],[37.2641,26.5684],[37.2605,26.5238],[37.1914,26.4172],[37.1669,26.3355],[37.2723,26.0778],[37.3243,26.1081],[37.3677,26.1123],[37.5623,26.0089],[37.6078,25.9032],[37.7874,25.747],[37.8776,25.5017],[37.9873,25.4856],[38.0213,25.4489],[37.9881,25.2017],[38.0005,24.8726],[37.9867,24.8395],[37.9195,24.7865],[37.7568,24.7892],[37.6624,24.7044],[37.6143,24.6812],[37.4716,24.6709],[37.4313,24.657],[37.404,24.6232],[37.3828,24.5396]]],[[[36.9421,25.4184],[36.9614,25.4145],[36.8997,25.361],[36.7987,25.4474],[36.7765,25.4964],[36.8237,25.4599],[36.9157,25.4267],[36.9203,25.4196],[36.8994,25.4188],[36.9043,25.3941],[36.9421,25.4184]]],[[[36.6831,25.5723],[36.6677,25.5497],[36.5677,25.5985],[36.5461,25.6032],[36.5394,25.5892],[36.4977,25.624],[36.4915,25.6451],[36.5436,25.7029],[36.5226,25.6622],[36.531,25.6446],[36.6094,25.5915],[36.6311,25.5924],[36.6379,25.5746],[36.6559,25.5718],[36.6594,25.5821],[36.6831,25.5723]]],[[[36.5443,25.7313],[36.5425,25.8019],[36.5584,25.8364],[36.5908,25.8605],[36.5554,25.7963],[36.5978,25.7584],[36.5884,25.7143],[36.6111,25.7095],[36.583,25.6987],[36.5443,25.7313]]],[[[36.7902,25.4979],[36.7192,25.5556],[36.6812,25.5441],[36.6814,25.5535],[36.6913,25.5672],[36.7256,25.5652],[36.8745,25.4633],[36.8792,25.4433],[36.7902,25.4979]]],[[[37.0269,25.4196],[37.0423,25.4074],[37.0281,25.4093],[37.0313,25.3987],[37.0036,25.4115],[37.0003,25.4292],[36.9783,25.4269],[36.9666,25.449],[36.9465,25.4419],[36.9518,25.4675],[36.9614,25.4778],[36.9993,25.4694],[37.009,25.4499],[37.0217,25.4528],[37.0269,25.4196]]],[[[36.9007,25.5493],[36.8982,25.5954],[36.9144,25.6066],[36.9277,25.5931],[36.9258,25.5766],[36.9139,25.5788],[36.9232,25.5194],[36.9007,25.5493]]],[[[36.8494,25.533],[36.827,25.5472],[36.8413,25.57],[36.8665,25.5575],[36.8494,25.533]]]]}}]}
