{"type":"FeatureCollection","features":[{"type":"Feature","id":"Dakar","properties":{"id":"Dakar","iso_code":"SN-DK","name":"Dakar","name_full":"Dakar","name_ja":"ダカール州","center_lonlat":[-17.2813,14.7645]},"geometry":{"type":"Polygon","coordinates":[[[-17.1484,14.6132],[-17.2069,14.6789],[-17.3306,14.7363],[-17.4174,14.7377],[-17.4398,14.7221],[-17.4193,14.709],[-17.4398,14.6885],[-17.4268,14.6749],[-17.4398,14.6538],[-17.536,14.7574],[-17.371,14.8003],[-17.3221,14.839],[-17.182,14.8971],[-17.1295,14.7503],[-17.1484,14.6132]]]}},{"type":"Feature","id":"Diourbel","properties":{"id":"Diourbel","iso_code":"SN-DB","name":"Diourbel","name_full":"Diourbel","name_ja":"ジュルベル州","center_lonlat":[-16.0981,14.7764]},"geometry":{"type":"Polygon","coordinates":[[[-15.3796,14.6983],[-15.4011,14.6068],[-15.4313,14.5743],[-15.4452,14.6091],[-15.4684,14.6277],[-15.6333,14.6927],[-15.6565,14.7159],[-15.7238,14.7066],[-15.7735,14.7417],[-15.8034,14.7152],[-15.816,14.6095],[-15.8743,14.5546],[-15.9329,14.5352],[-16.0307,14.5262],[-16.1543,14.5494],[-16.2305,14.5881],[-16.3334,14.5805],[-16.3767,14.6028],[-16.5064,14.6033],[-16.5313,14.5806],[-16.6205,14.6244],[-16.5875,14.6856],[-16.6185,14.7238],[-16.6133,14.7602],[-16.6428,14.7858],[-16.6454,14.8557],[-16.6783,14.8775],[-16.6593,14.9346],[-16.3995,15.0116],[-16.3625,14.994],[-16.3146,14.9997],[-16.2536,14.961],[-16.2419,14.9309],[-16.2263,14.9235],[-16.1927,14.9263],[-16.1324,14.969],[-16.0771,15.0019],[-15.8168,15.0006],[-15.8103,14.963],[-15.7765,14.9265],[-15.7301,14.9017],[-15.7177,14.8616],[-15.6999,14.8479],[-15.6212,14.8574],[-15.5472,14.835],[-15.4594,14.8379],[-15.4416,14.7472],[-15.3796,14.6983]]]}},{"type":"Feature","id":"Fatick","properties":{"id":"Fatick","iso_code":"SN-FK","name":"Fatick","name_full":"Fatick","name_ja":"ファティック州","center_lonlat":[-16.2453,14.4011]},"geometry":{"type":"MultiPolygon","coordinates":[[[[-16.3802,14.1684],[-16.4547,14.1802],[-16.453,14.2019],[-16.4687,14.1938],[-16.4715,14.1643],[-16.4604,14.1541],[-16.5132,14.151],[-16.5565,14.0715],[-16.6003,14.0542],[-16.6317,14.0101],[-16.6542,14.0028],[-16.7211,14.0163],[-16.6968,14.0647],[-16.6523,14.0995],[-16.6786,14.0761],[-16.7279,14.0647],[-16.7171,14.0424],[-16.7689,13.9617],[-16.7689,13.8388],[-16.781,14.0307],[-16.8113,14.1249],[-16.7704,14.1469],[-16.7783,14.1738],[-16.7455,14.2075],[-16.7593,14.2281],[-16.695,14.4267],[-16.6479,14.4332],[-16.5938,14.471],[-16.5458,14.5299],[-16.5313,14.5806],[-16.5064,14.6033],[-16.3767,14.6028],[-16.3334,14.5805],[-16.2305,14.5881],[-16.1543,14.5494],[-16.0307,14.5262],[-15.9329,14.5352],[-15.8743,14.5546],[-15.816,14.6095],[-15.8034,14.7152],[-15.7735,14.7417],[-15.7238,14.7066],[-15.6565,14.7159],[-15.6333,14.6927],[-15.4684,14.6277],[-15.4452,14.6091],[-15.4313,14.5743],[-15.5938,14.5441],[-15.6611,14.4907],[-15.7099,14.4768],[-15.799,14.3849],[-15.8306,14.3653],[-15.9537,14.37],[-16.014,14.3351],[-16.1131,14.3595],[-16.2571,14.3396],[-16.3057,14.2938],[-16.3802,14.1684]]],[[[-16.0854,13.5852],[-16.5614,13.5869],[-16.5758,13.6403],[-16.5082,13.688],[-16.5293,13.701],[-16.5089,13.7402],[-16.5293,13.7426],[-16.5421,13.6937],[-16.5565,13.6948],[-16.5637,13.6738],[-16.5989,13.6542],[-16.6356,13.678],[-16.6298,13.7605],[-16.5764,13.8388],[-16.5491,13.8245],[-16.5565,13.8456],[-16.5218,13.8518],[-16.5129,13.8133],[-16.487,13.8046],[-16.5006,13.8727],[-16.5157,13.8798],[-16.487,14.0026],[-16.5494,13.8693],[-16.5702,13.873],[-16.5802,13.8595],[-16.6379,13.8456],[-16.7001,13.769],[-16.7153,13.8063],[-16.7372,13.8196],[-16.7478,13.9344],[-16.7372,13.9677],[-16.6897,13.9905],[-16.6463,13.983],[-16.6379,13.9617],[-16.599,13.9968],[-16.5764,13.989],[-16.5768,14.011],[-16.5423,14.0373],[-16.5683,14.0303],[-16.5907,14.0436],[-16.4415,14.1566],[-16.4047,14.1454],[-16.3723,14.1627],[-16.3024,14.16],[-16.2354,14.1045],[-16.2316,14.059],[-16.2481,14.0206],[-16.209,13.974],[-16.1972,13.8979],[-16.2379,13.8419],[-16.2407,13.805],[-16.1663,13.7379],[-16.1539,13.6776],[-16.0942,13.6118],[-16.0854,13.5852]]]]}},{"type":"Feature","id":"Kaffrine","properties":{"id":"Kaffrine","iso_code":"SN-KA","name":"Kaffrine","name_full":"Kaffrine","name_ja":"カフリン州","center_lonlat":[-15.1987,14.2002]},"geometry":{"type":"Polygon","coordinates":[[[-14.8603,13.7656],[-14.9158,13.7924],[-15.0168,13.7969],[-15.0977,13.82],[-15.2673,13.7418],[-15.3045,13.7819],[-15.3478,13.7886],[-15.3941,13.7715],[-15.4449,13.7947],[-15.5138,13.7983],[-15.5827,13.8273],[-15.6227,13.7656],[-15.6408,13.7584],[-15.6662,13.7693],[-15.7097,13.8273],[-15.7025,13.9035],[-15.7823,13.9652],[-15.8113,14.0305],[-15.8549,14.0378],[-15.8549,14.1539],[-15.8004,14.2881],[-15.799,14.3849],[-15.7099,14.4768],[-15.6611,14.4907],[-15.5938,14.5441],[-15.4313,14.5743],[-15.4011,14.6068],[-15.3796,14.6983],[-15.2495,14.6329],[-15.0968,14.6032],[-15.0394,14.6053],[-14.898,14.6771],[-14.8627,14.6377],[-14.8176,14.6097],[-14.6391,14.5567],[-14.633,14.5109],[-14.6337,14.3226],[-14.593,14.2216],[-14.5774,14.0816],[-14.5864,14.0236],[-14.6185,13.9987],[-14.6287,13.9391],[-14.7157,13.8633],[-14.8126,13.84],[-14.8603,13.7656]]]}},{"type":"Feature","id":"Kaolack","properties":{"id":"Kaolack","iso_code":"SN-KL","name":"Kaolack","name_full":"Kaolack","name_ja":"カオラック州","center_lonlat":[-15.9482,13.941]},"geometry":{"type":"Polygon","coordinates":[[[-16.0854,13.5852],[-16.0942,13.6118],[-16.1539,13.6776],[-16.1663,13.7379],[-16.2407,13.805],[-16.2379,13.8419],[-16.1972,13.8979],[-16.209,13.974],[-16.2481,14.0206],[-16.2316,14.059],[-16.2354,14.1045],[-16.3024,14.16],[-16.3723,14.1627],[-16.3647,14.1678],[-16.3802,14.1684],[-16.3057,14.2938],[-16.2571,14.3396],[-16.1131,14.3595],[-16.014,14.3351],[-15.9537,14.37],[-15.8306,14.3653],[-15.799,14.3849],[-15.8004,14.2881],[-15.8549,14.1539],[-15.8549,14.0378],[-15.8113,14.0305],[-15.7823,13.9652],[-15.7025,13.9035],[-15.7097,13.8273],[-15.6662,13.7693],[-15.6408,13.7584],[-15.6227,13.7656],[-15.5827,13.8273],[-15.5138,13.7983],[-15.4449,13.7947],[-15.3941,13.7715],[-15.4675,13.7083],[-15.4968,13.6483],[-15.5025,13.5883],[-15.5182,13.5831],[-16.0854,13.5852]]]}},{"type":"Feature","id":"Kedougou","properties":{"id":"Kedougou","iso_code":"SN-KE","name":"Kedougou","name_full":"Kédougou","name_ja":"ケドゥグ州","center_lonlat":[-12.3555,12.8489]},"geometry":{"type":"Polygon","coordinates":[[[-11.9,13.3822],[-11.8546,13.3506],[-11.84,13.3169],[-11.8226,13.3067],[-11.7751,13.3433],[-11.7666,13.3832],[-11.7412,13.4078],[-11.704,13.3804],[-11.6498,13.3841],[-11.644,13.3556],[-11.6131,13.3608],[-11.6058,13.3197],[-11.5543,13.2569],[-11.5723,13.2171],[-11.5385,13.163],[-11.5331,13.1118],[-11.4503,13.0751],[-11.459,13.0547],[-11.423,13.0094],[-11.4387,12.9589],[-11.4115,12.9607],[-11.4018,12.9895],[-11.3934,12.9808],[-11.3844,12.9331],[-11.4029,12.9164],[-11.4272,12.9186],[-11.4151,12.8967],[-11.4325,12.8355],[-11.4085,12.8045],[-11.4146,12.7597],[-11.4022,12.7317],[-11.4374,12.7122],[-11.4619,12.6731],[-11.4368,12.6375],[-11.4374,12.5708],[-11.4678,12.5435],[-11.4298,12.5083],[-11.417,12.5293],[-11.4005,12.4795],[-11.3904,12.4975],[-11.3778,12.4802],[-11.3884,12.4039],[-11.5154,12.4316],[-11.6431,12.4176],[-11.7578,12.3833],[-11.8602,12.3911],[-11.9239,12.4188],[-11.9976,12.3864],[-12.104,12.4074],[-12.192,12.3488],[-12.3609,12.3056],[-12.4055,12.3565],[-12.4668,12.3845],[-12.5051,12.3903],[-12.5937,12.3616],[-12.648,12.4258],[-12.7733,12.4351],[-12.7835,12.4531],[-12.8386,12.4664],[-12.8492,12.495],[-12.9131,12.5363],[-12.9495,12.5359],[-12.981,12.467],[-13.052,12.4723],[-13.0827,12.5157],[-13.0593,12.6035],[-13.0765,12.6359],[-13.1453,12.6439],[-13.1547,12.6328],[-13.2019,12.6334],[-13.2215,12.6484],[-13.2547,12.6418],[-13.2841,12.6533],[-13.3386,12.6392],[-13.3598,12.6497],[-13.3646,12.6847],[-13.4429,12.6844],[-13.4808,12.7089],[-13.4727,12.7707],[-13.4891,12.812],[-13.4773,12.8348],[-13.4854,12.8515],[-13.4651,12.8608],[-13.473,12.8918],[-13.5038,12.9232],[-13.5117,12.9964],[-13.5328,13.0104],[-13.5293,13.0291],[-13.5703,13.0663],[-13.572,13.09],[-13.607,13.1304],[-13.6126,13.2261],[-13.6228,13.2401],[-13.6001,13.2598],[-13.5995,13.3133],[-13.5823,13.3249],[-13.5856,13.3082],[-13.568,13.2976],[-13.5126,13.3299],[-13.4999,13.3258],[-13.5065,13.3044],[-13.4938,13.3093],[-13.4761,13.3385],[-13.3967,13.3311],[-13.3646,13.341],[-13.3557,13.3249],[-13.3768,13.2764],[-13.3662,13.2488],[-13.3284,13.2286],[-13.3275,13.1645],[-13.3148,13.1536],[-13.3557,13.1331],[-13.3348,13.1241],[-13.3284,13.0437],[-13.3092,13.0218],[-13.2895,13.0169],[-13.2026,13.04],[-13.1116,13.0136],[-13.094,13.0371],[-13.0324,13.0576],[-12.9766,13.0576],[-12.8534,12.9842],[-12.8446,13.0106],[-12.8035,13.0253],[-12.7917,13.0517],[-12.7418,13.0459],[-12.733,13.0811],[-12.6949,13.1134],[-12.7008,13.1603],[-12.6861,13.1721],[-12.645,13.175],[-12.6156,13.1926],[-12.5863,13.175],[-12.5305,13.1809],[-12.5129,13.1926],[-12.4865,13.2484],[-12.466,13.2513],[-12.4454,13.2777],[-12.3955,13.2777],[-12.3691,13.2513],[-12.3574,13.2542],[-12.3368,13.3071],[-12.2664,13.3071],[-12.2517,13.3247],[-12.2576,13.3482],[-12.2928,13.401],[-12.2781,13.4157],[-12.2781,13.4391],[-12.2547,13.4479],[-12.1402,13.3775],[-12.0786,13.3599],[-12.0668,13.3159],[-12.0463,13.3159],[-11.9934,13.3628],[-11.9,13.3822]]]}},{"type":"Feature","id":"Kolda","properties":{"id":"Kolda","iso_code":"SN-KD","name":"Kolda","name_full":"Kolda","name_ja":"コルダ州","center_lonlat":[-14.425,13.0296]},"geometry":{"type":"Polygon","coordinates":[[[-13.3598,12.6497],[-13.4048,12.6618],[-13.7283,12.6734],[-15.1462,12.6792],[-15.1543,12.7406],[-15.1308,12.8023],[-15.1308,12.8844],[-15.169,12.9373],[-15.169,12.9989],[-15.2365,13.0429],[-15.2424,13.0987],[-15.2776,13.175],[-15.3245,13.1838],[-15.3597,13.2073],[-15.3656,13.2425],[-15.3424,13.3626],[-15.2483,13.399],[-15.2278,13.4252],[-15.218,13.5147],[-15.1605,13.581],[-15.1377,13.59],[-15.0151,13.4957],[-14.9497,13.4631],[-14.8626,13.4471],[-14.7903,13.4173],[-14.7316,13.359],[-14.6981,13.3452],[-14.5922,13.3531],[-14.5296,13.3073],[-14.4703,13.2983],[-14.4314,13.2614],[-14.3688,13.2357],[-14.2017,13.2296],[-14.1168,13.2822],[-13.9006,13.3146],[-13.851,13.3358],[-13.8226,13.3782],[-13.8187,13.4294],[-13.8427,13.4766],[-13.8825,13.5038],[-13.8436,13.5155],[-13.8296,13.5356],[-13.8029,13.5356],[-13.8076,13.4743],[-13.7297,13.4662],[-13.7569,13.4282],[-13.7701,13.3746],[-13.6955,13.3721],[-13.7046,13.341],[-13.688,13.3249],[-13.6903,13.2941],[-13.6578,13.2735],[-13.6485,13.2464],[-13.6228,13.2401],[-13.6126,13.2261],[-13.607,13.1304],[-13.572,13.09],[-13.5703,13.0663],[-13.5293,13.0291],[-13.5328,13.0104],[-13.5117,12.9964],[-13.5038,12.9232],[-13.473,12.8918],[-13.4651,12.8608],[-13.4854,12.8515],[-13.4773,12.8348],[-13.4891,12.812],[-13.4727,12.7707],[-13.4808,12.7089],[-13.4429,12.6844],[-13.3646,12.6847],[-13.3598,12.6497]]]}},{"type":"Feature","id":"Louga","properties":{"id":"Louga","iso_code":"SN-LG","name":"Louga","name_full":"Louga","name_ja":"ルーガ州","center_lonlat":[-15.5314,15.4146]},"geometry":{"type":"Polygon","coordinates":[[[-16.7353,15.4773],[-16.6697,15.5618],[-16.5389,15.7744],[-16.5409,15.8057],[-16.3777,15.8091],[-16.2575,15.8445],[-16.2265,15.9045],[-16.1681,15.9381],[-16.1508,15.9693],[-15.9219,16.1034],[-15.8911,16.1468],[-15.8411,16.1818],[-15.5912,15.9212],[-15.434,15.9317],[-15.4267,15.9985],[-14.8545,15.9974],[-14.7572,15.95],[-14.7047,15.9535],[-14.5922,15.8773],[-14.5414,15.8047],[-14.6612,15.7068],[-14.741,15.6778],[-14.7482,15.4963],[-14.7845,15.4419],[-14.6176,15.3585],[-14.5342,15.3693],[-14.585,15.1226],[-14.542,15.102],[-14.7337,15.0646],[-14.8027,15.0392],[-14.7301,14.8469],[-14.7664,14.7743],[-14.8099,14.7453],[-14.8244,14.6655],[-14.8627,14.6377],[-14.898,14.6771],[-15.0394,14.6053],[-15.0968,14.6032],[-15.2495,14.6329],[-15.3796,14.6983],[-15.4416,14.7472],[-15.4594,14.8379],[-15.5472,14.835],[-15.6212,14.8574],[-15.6999,14.8479],[-15.7177,14.8616],[-15.7301,14.9017],[-15.7765,14.9265],[-15.8103,14.963],[-15.8168,15.0006],[-16.0771,15.0019],[-16.1324,14.969],[-16.199,15.0102],[-16.2119,15.0531],[-16.2615,15.1288],[-16.268,15.2092],[-16.2863,15.2424],[-16.318,15.2357],[-16.3319,15.3072],[-16.3437,15.3178],[-16.4514,15.3206],[-16.51,15.2472],[-16.5277,15.2031],[-16.5948,15.1306],[-16.6143,15.1312],[-16.6213,15.1914],[-16.7227,15.2817],[-16.7204,15.3429],[-16.6904,15.427],[-16.7003,15.4512],[-16.7353,15.4773]]]}},{"type":"Feature","id":"Matam","properties":{"id":"Matam","iso_code":"SN-MT","name":"Matam","name_full":"Matam","name_ja":"マタム州","center_lonlat":[-13.7427,15.1538]},"geometry":{"type":"Polygon","coordinates":[[[-13.7196,16.1356],[-13.669,16.1057],[-13.4849,16.155],[-13.5017,16.0951],[-13.44,16.1019],[-13.3886,16.0521],[-13.3698,15.9855],[-13.3159,15.9305],[-13.316,15.8818],[-13.28,15.8229],[-13.2861,15.7696],[-13.2283,15.7113],[-13.2487,15.6567],[-13.2378,15.6234],[-13.1782,15.6282],[-13.1097,15.5964],[-13.0918,15.5751],[-13.095,15.5147],[-13.0838,15.4927],[-13.0389,15.4869],[-12.9958,15.5142],[-12.9643,15.5092],[-12.9331,15.4383],[-12.919,15.3654],[-12.8473,15.3133],[-12.828,15.2839],[-12.8334,15.27],[-12.8842,15.2708],[-12.8944,15.2634],[-12.8884,15.2509],[-12.8568,15.222],[-12.7872,15.2142],[-12.7798,15.1464],[-12.6896,15.0925],[-12.5824,14.9495],[-12.5708,14.9028],[-12.6489,14.7063],[-12.7308,14.5847],[-12.7555,14.5655],[-12.9488,14.5462],[-13.2189,14.5946],[-13.5112,14.3985],[-13.8341,14.4018],[-14.2695,14.5625],[-14.3566,14.6437],[-14.4129,14.6232],[-14.5087,14.5403],[-14.633,14.5109],[-14.6391,14.5567],[-14.8176,14.6097],[-14.8627,14.6377],[-14.8244,14.6655],[-14.8099,14.7453],[-14.7664,14.7743],[-14.7301,14.8469],[-14.8027,15.0392],[-14.7337,15.0646],[-14.542,15.102],[-14.585,15.1226],[-14.5342,15.3693],[-14.6176,15.3585],[-14.7845,15.4419],[-14.7482,15.4963],[-14.741,15.6778],[-14.6612,15.7068],[-14.5414,15.8047],[-14.4979,15.7467],[-14.2983,15.6378],[-13.9899,15.8773],[-13.8775,15.9753],[-13.8629,16.0116],[-13.7614,16.0515],[-13.7196,16.1356]]]}},{"type":"Feature","id":"Saint-Louis","properties":{"id":"Saint-Louis","iso_code":"SN-SL","name":"Saint-Louis","name_full":"Saint-Louis","name_ja":"サンルイ州","center_lonlat":[-15.0771,16.2207]},"geometry":{"type":"Polygon","coordinates":[[[-13.7196,16.1356],[-13.7614,16.0515],[-13.8629,16.0116],[-13.8775,15.9753],[-13.9899,15.8773],[-14.2983,15.6378],[-14.4979,15.7467],[-14.5414,15.8047],[-14.5922,15.8773],[-14.7047,15.9535],[-14.7572,15.95],[-14.8545,15.9974],[-15.4267,15.9985],[-15.434,15.9317],[-15.5912,15.9212],[-15.8411,16.1818],[-15.8911,16.1468],[-15.9219,16.1034],[-16.1508,15.9693],[-16.1681,15.9381],[-16.2265,15.9045],[-16.2575,15.8445],[-16.3777,15.8091],[-16.5409,15.8057],[-16.5197,15.8464],[-16.5075,16.0104],[-16.4704,16.1064],[-16.4588,16.1942],[-16.3854,16.2349],[-16.3349,16.4558],[-16.3135,16.4933],[-16.2738,16.5232],[-16.1954,16.5227],[-16.1323,16.5548],[-16.0538,16.4954],[-15.9856,16.5059],[-15.9581,16.4984],[-15.8969,16.5184],[-15.813,16.5138],[-15.6722,16.4814],[-15.6097,16.5213],[-15.5248,16.5222],[-15.464,16.5815],[-15.4145,16.548],[-15.328,16.572],[-15.2325,16.5664],[-15.1251,16.5827],[-15.0932,16.6002],[-15.1183,16.6426],[-15.1076,16.6654],[-15.0789,16.665],[-15.0369,16.6326],[-15.0069,16.6758],[-14.9743,16.6914],[-14.9309,16.6434],[-14.9125,16.6406],[-14.7112,16.6358],[-14.656,16.6459],[-14.6081,16.6288],[-14.5551,16.6406],[-14.4931,16.6325],[-14.4066,16.6608],[-14.3433,16.6367],[-14.3313,16.6241],[-14.3353,16.5865],[-14.278,16.5813],[-14.2681,16.5479],[-14.2142,16.535],[-14.073,16.4007],[-13.9779,16.338],[-13.9641,16.2301],[-13.8838,16.1937],[-13.8448,16.126],[-13.8113,16.1221],[-13.7294,16.1895],[-13.7106,16.1889],[-13.7196,16.1356]]]}},{"type":"Feature","id":"Sedhiou","properties":{"id":"Sedhiou","iso_code":"SN-SE","name":"Sedhiou","name_full":"Sédhiou","name_ja":"セディウ州","center_lonlat":[-15.5907,12.9066]},"geometry":{"type":"Polygon","coordinates":[[[-15.1462,12.6792],[-15.2497,12.6636],[-15.4246,12.555],[-15.677,12.4393],[-15.884,12.4422],[-15.9474,12.5404],[-15.9639,12.6022],[-15.9396,12.5806],[-15.8639,12.5776],[-15.84,12.5571],[-15.8055,12.5645],[-15.7688,12.5926],[-15.6995,12.5837],[-15.6796,12.5502],[-15.6569,12.5376],[-15.5877,12.558],[-15.5098,12.6358],[-15.5071,12.6496],[-15.5299,12.6658],[-15.5213,12.6738],[-15.5434,12.758],[-15.5349,12.783],[-15.4664,12.7965],[-15.4462,12.8246],[-15.4068,12.7997],[-15.394,12.8102],[-15.3916,12.8382],[-15.4071,12.8223],[-15.453,12.8314],[-15.4928,12.8071],[-15.5495,12.7943],[-15.5554,12.7216],[-15.5425,12.6494],[-15.641,12.5595],[-15.6721,12.5707],[-15.6664,12.6007],[-15.7677,12.6254],[-15.8335,12.5913],[-15.8605,12.6117],[-15.9133,12.6012],[-15.9533,12.6254],[-15.9527,12.6437],[-15.9812,12.6527],[-16.0221,12.729],[-16.0091,12.8225],[-15.9865,12.857],[-15.9868,12.9269],[-15.9016,13.0791],[-15.9289,13.1109],[-15.8974,13.1574],[-15.8266,13.1617],[-15.8227,13.3194],[-15.8071,13.3398],[-15.6925,13.3603],[-15.5961,13.3558],[-15.5195,13.3866],[-15.3424,13.3626],[-15.3656,13.2425],[-15.3597,13.2073],[-15.3245,13.1838],[-15.2776,13.175],[-15.2424,13.0987],[-15.2365,13.0429],[-15.169,12.9989],[-15.169,12.9373],[-15.1308,12.8844],[-15.1308,12.8023],[-15.1543,12.7406],[-15.1462,12.6792]]]}},{"type":"Feature","id":"Tambacounda","properties":{"id":"Tambacounda","iso_code":"SN-TC","name":"Tambacounda","name_full":"Tambacounda","name_ja":"タンバクンダ州","center_lonlat":[-13.2269,13.9307]},"geometry":{"type":"Polygon","coordinates":[[[-11.9,13.3822],[-11.9934,13.3628],[-12.0463,13.3159],[-12.0668,13.3159],[-12.0786,13.3599],[-12.1402,13.3775],[-12.2547,13.4479],[-12.2781,13.4391],[-12.2781,13.4157],[-12.2928,13.401],[-12.2576,13.3482],[-12.2517,13.3247],[-12.2664,13.3071],[-12.3368,13.3071],[-12.3574,13.2542],[-12.3691,13.2513],[-12.3955,13.2777],[-12.4454,13.2777],[-12.466,13.2513],[-12.4865,13.2484],[-12.5129,13.1926],[-12.5305,13.1809],[-12.5863,13.175],[-12.6156,13.1926],[-12.645,13.175],[-12.6861,13.1721],[-12.7008,13.1603],[-12.6949,13.1134],[-12.733,13.0811],[-12.7418,13.0459],[-12.7917,13.0517],[-12.8035,13.0253],[-12.8446,13.0106],[-12.8534,12.9842],[-12.9766,13.0576],[-13.0324,13.0576],[-13.094,13.0371],[-13.1116,13.0136],[-13.2026,13.04],[-13.2895,13.0169],[-13.3092,13.0218],[-13.3284,13.0437],[-13.3348,13.1241],[-13.3557,13.1331],[-13.3148,13.1536],[-13.3275,13.1645],[-13.3284,13.2286],[-13.3662,13.2488],[-13.3768,13.2764],[-13.3557,13.3249],[-13.3646,13.341],[-13.3967,13.3311],[-13.4761,13.3385],[-13.4938,13.3093],[-13.5065,13.3044],[-13.4999,13.3258],[-13.5126,13.3299],[-13.568,13.2976],[-13.5856,13.3082],[-13.5823,13.3249],[-13.5995,13.3133],[-13.6001,13.2598],[-13.6228,13.2401],[-13.6485,13.2464],[-13.6578,13.2735],[-13.6903,13.2941],[-13.688,13.3249],[-13.7046,13.341],[-13.6955,13.3721],[-13.7701,13.3746],[-13.7569,13.4282],[-13.7297,13.4662],[-13.8076,13.4743],[-13.8029,13.5356],[-13.8296,13.5356],[-13.8436,13.5155],[-13.8825,13.5038],[-13.9181,13.555],[-13.9885,13.5791],[-14.1968,13.5188],[-14.3299,13.4564],[-14.3656,13.4548],[-14.4703,13.5224],[-14.5232,13.6257],[-14.5855,13.6605],[-14.6672,13.6529],[-14.7409,13.6154],[-14.796,13.6447],[-14.8313,13.7356],[-14.8603,13.7656],[-14.8126,13.84],[-14.7157,13.8633],[-14.6287,13.9391],[-14.6185,13.9987],[-14.5864,14.0236],[-14.5774,14.0816],[-14.593,14.2216],[-14.6337,14.3226],[-14.633,14.5109],[-14.5087,14.5403],[-14.4129,14.6232],[-14.3566,14.6437],[-14.2695,14.5625],[-13.8341,14.4018],[-13.5112,14.3985],[-13.2189,14.5946],[-12.9488,14.5462],[-12.7555,14.5655],[-12.7308,14.5847],[-12.6489,14.7063],[-12.5708,14.9028],[-12.5824,14.9495],[-12.6896,15.0925],[-12.6229,15.1023],[-12.6021,15.0788],[-12.4849,15.0173],[-12.4476,14.9074],[-12.3825,14.846],[-12.2641,14.7749],[-12.2228,14.7033],[-12.1803,14.6928],[-12.1922,14.6669],[-12.165,14.6419],[-12.1659,14.6252],[-12.2364,14.5195],[-12.2217,14.3912],[-12.1156,14.3551],[-12.113,14.3296],[-12.1278,14.3243],[-12.11,14.2981],[-12.0345,14.2503],[-11.9954,14.144],[-12.0253,13.9852],[-11.9568,13.8903],[-11.9788,13.7848],[-12.0123,13.7512],[-12.0976,13.7044],[-12.0152,13.5644],[-11.9182,13.4747],[-11.8904,13.4651],[-11.8835,13.4535],[-11.9,13.3822]]]}},{"type":"Feature","id":"Thies","properties":{"id":"Thies","iso_code":"SN-TH","name":"Thies","name_full":"Thiès","name_ja":"ティエス州","center_lonlat":[-16.7628,14.836]},"geometry":{"type":"Polygon","coordinates":[[[-17.182,14.8971],[-17.1387,14.9277],[-16.8782,15.2331],[-16.7353,15.4773],[-16.7003,15.4512],[-16.6904,15.427],[-16.7204,15.3429],[-16.7227,15.2817],[-16.6213,15.1914],[-16.6143,15.1312],[-16.5948,15.1306],[-16.5277,15.2031],[-16.51,15.2472],[-16.4514,15.3206],[-16.3437,15.3178],[-16.3319,15.3072],[-16.318,15.2357],[-16.2863,15.2424],[-16.268,15.2092],[-16.2615,15.1288],[-16.2119,15.0531],[-16.199,15.0102],[-16.1324,14.969],[-16.1927,14.9263],[-16.2263,14.9235],[-16.2419,14.9309],[-16.2536,14.961],[-16.3146,14.9997],[-16.3625,14.994],[-16.3995,15.0116],[-16.6593,14.9346],[-16.6783,14.8775],[-16.6454,14.8557],[-16.6428,14.7858],[-16.6133,14.7602],[-16.6185,14.7238],[-16.5875,14.6856],[-16.6205,14.6244],[-16.5313,14.5806],[-16.5458,14.5299],[-16.5938,14.471],[-16.6479,14.4332],[-16.695,14.4267],[-16.7593,14.2281],[-16.7455,14.2075],[-16.7783,14.1738],[-16.7704,14.1469],[-16.8113,14.1249],[-16.8297,14.1541],[-16.8787,14.1745],[-16.8989,14.26],[-16.9455,14.3014],[-16.9396,14.3559],[-16.9565,14.3901],[-16.9879,14.421],[-17.0705,14.4654],[-17.1484,14.6132],[-17.1295,14.7503],[-17.182,14.8971]]]}},{"type":"Feature","id":"Ziguinchor","properties":{"id":"Ziguinchor","iso_code":"SN-ZG","name":"Ziguinchor","name_full":"Ziguinchor","name_ja":"ジガンショール州","center_lonlat":[-16.3701,12.8964]},"geometry":{"type":"MultiPolygon","coordinates":[[[[-15.8974,13.1574],[-15.9289,13.1109],[-15.9016,13.0791],[-15.9868,12.9269],[-15.9865,12.857],[-16.0091,12.8225],[-16.0221,12.729],[-16.0452,12.6905],[-16.0489,12.6564],[-16.0768,12.639],[-16.155,12.6117],[-16.2276,12.6191],[-16.2686,12.6055],[-16.3238,12.6096],[-16.371,12.5645],[-16.4452,12.5961],[-16.4896,12.6318],[-16.4928,12.6489],[-16.4672,12.6738],[-16.4923,12.6817],[-16.5013,12.7079],[-16.5082,12.6254],[-16.5657,12.6739],[-16.5702,12.6936],[-16.5988,12.664],[-16.6347,12.6694],[-16.6379,12.6936],[-16.5907,12.762],[-16.5969,12.7973],[-16.6037,12.7625],[-16.651,12.7053],[-16.6472,12.6322],[-16.7546,12.5722],[-16.7731,12.583],[-16.7809,12.6088],[-16.7771,12.678],[-16.7612,12.7132],[-16.7355,12.7329],[-16.7006,12.7216],[-16.699,12.7364],[-16.734,12.7514],[-16.7836,12.7126],[-16.7962,12.7153],[-16.7962,12.7488],[-16.7701,12.7934],[-16.7751,12.8109],[-16.8003,12.7988],[-16.8005,12.826],[-16.7552,12.9035],[-16.7521,13.088],[-16.7084,13.1567],[-16.6735,13.1643],[-15.8974,13.1574]]],[[[-15.9639,12.6022],[-15.9474,12.5404],[-15.884,12.4422],[-15.9733,12.4372],[-16.0905,12.4643],[-16.1819,12.4434],[-16.2224,12.4551],[-16.4123,12.3617],[-16.5333,12.3478],[-16.6689,12.3567],[-16.7284,12.3325],[-16.7441,12.3789],[-16.803,12.4438],[-16.8008,12.4945],[-16.7814,12.5229],[-16.7317,12.5521],[-16.6788,12.5502],[-16.5797,12.6328],[-16.5333,12.5653],[-16.5224,12.5931],[-16.5048,12.598],[-16.371,12.5502],[-16.3096,12.598],[-16.2467,12.588],[-16.2122,12.6064],[-16.1929,12.5776],[-16.0298,12.633],[-16.0079,12.6321],[-15.9639,12.6022]]]]}}]}
