{"type":"FeatureCollection","features":[{"type":"Feature","id":"Belgrade","properties":{"id":"Belgrade","iso_code":"RS-00","name":"Belgrade","name_full":"Belgrade","name_ja":"ベオグラード","center_lonlat":[20.4078,44.6273]},"geometry":{"type":"Polygon","coordinates":[[[19.9734,44.6412],[20.0941,44.7082],[20.1104,44.7565],[20.084,44.7687],[20.0818,44.7831],[20.1229,44.7988],[20.1568,44.8882],[20.3247,44.9292],[20.2907,44.9775],[20.3569,45.0345],[20.339,45.0803],[20.3952,45.0652],[20.404,45.0224],[20.4672,44.9745],[20.4959,44.9664],[20.5214,44.9284],[20.5866,44.9009],[20.6023,44.8843],[20.595,44.858],[20.6364,44.8494],[20.6333,44.7652],[20.742,44.6792],[20.7948,44.6647],[20.771,44.6187],[20.8064,44.5632],[20.7371,44.533],[20.7621,44.4975],[20.819,44.4658],[20.8391,44.4354],[20.8173,44.4155],[20.76,44.4183],[20.7315,44.3841],[20.7554,44.3524],[20.7874,44.3492],[20.7658,44.3272],[20.772,44.2978],[20.6905,44.3347],[20.6498,44.3218],[20.623,44.3398],[20.6113,44.373],[20.5385,44.3558],[20.5379,44.3857],[20.4422,44.4189],[20.3967,44.3893],[20.4333,44.3561],[20.4015,44.3269],[20.3891,44.2943],[20.3561,44.2894],[20.318,44.2523],[20.2616,44.2448],[20.1871,44.3179],[20.2027,44.3404],[20.1915,44.3608],[20.2268,44.4129],[20.2214,44.4684],[20.1968,44.4936],[20.1873,44.5396],[20.1766,44.5423],[20.1516,44.5058],[20.1278,44.4952],[20.0951,44.526],[20.0447,44.5072],[19.99,44.5223],[19.9674,44.5435],[19.9711,44.5648],[19.9612,44.5937],[19.9734,44.6412]]]}},{"type":"Feature","id":"Bor","properties":{"id":"Bor","iso_code":"RS-14","name":"Bor","name_full":"Bor","name_ja":"ボル郡","center_lonlat":[22.2482,44.3154]},"geometry":{"type":"Polygon","coordinates":[[[22.4659,44.0176],[22.4486,44.0552],[22.4833,44.0849],[22.4692,44.1085],[22.4257,44.1175],[22.3918,44.1408],[22.3382,44.13],[22.2755,44.1384],[22.2327,44.1686],[22.1914,44.1155],[22.2154,44.0988],[22.2162,44.0716],[22.24,44.0419],[22.2387,44.0162],[22.2116,44.0035],[22.1672,43.942],[22.1619,43.9094],[22.1325,43.8977],[22.1217,43.8756],[22.0612,43.9015],[22.0328,43.952],[21.9979,43.9365],[21.9422,43.9532],[21.8936,43.9886],[21.7724,43.9918],[21.7883,44.0347],[21.8085,44.0436],[21.8178,44.0656],[21.9588,44.1071],[21.9443,44.1411],[21.9578,44.1554],[21.957,44.2231],[21.9401,44.2262],[21.916,44.2093],[21.8972,44.2211],[21.8916,44.2819],[21.8511,44.3031],[21.8157,44.2981],[21.7956,44.3585],[21.8231,44.3962],[21.854,44.3958],[21.882,44.4245],[21.9182,44.4282],[21.9298,44.5144],[22.0362,44.5895],[22.1043,44.5096],[22.1721,44.5053],[22.3049,44.6774],[22.3807,44.7005],[22.4261,44.7337],[22.4837,44.724],[22.5875,44.6494],[22.7001,44.6306],[22.7652,44.5828],[22.7417,44.5519],[22.7001,44.5418],[22.6212,44.5692],[22.5805,44.5655],[22.5484,44.5117],[22.4841,44.4998],[22.477,44.464],[22.5054,44.435],[22.5051,44.4041],[22.5227,44.3751],[22.5828,44.3284],[22.6815,44.3053],[22.6916,44.2284],[22.6488,44.214],[22.6062,44.1746],[22.5971,44.1191],[22.6047,44.0794],[22.593,44.0639],[22.5342,44.0572],[22.5037,44.0199],[22.4659,44.0176]]]}},{"type":"Feature","id":"Branicevo","properties":{"id":"Branicevo","iso_code":"RS-11","name":"Branicevo","name_full":"Braničevo","name_ja":"ブラニチェヴォ郡","center_lonlat":[21.5333,44.4616]},"geometry":{"type":"Polygon","coordinates":[[[21.3598,44.8267],[21.4122,44.7848],[21.578,44.7777],[21.5956,44.766],[21.6197,44.7139],[21.6563,44.6877],[21.7568,44.6773],[21.8554,44.6985],[21.9943,44.6586],[22.0362,44.5895],[21.9298,44.5144],[21.9182,44.4282],[21.882,44.4245],[21.854,44.3958],[21.8231,44.3962],[21.7956,44.3585],[21.8157,44.2981],[21.8511,44.3031],[21.8916,44.2819],[21.8972,44.2211],[21.916,44.2093],[21.9401,44.2262],[21.957,44.2231],[21.9578,44.1554],[21.9443,44.1411],[21.9588,44.1071],[21.8178,44.0656],[21.7683,44.0715],[21.7363,44.0897],[21.6936,44.0826],[21.6441,44.1124],[21.5583,44.1192],[21.4878,44.1817],[21.434,44.1947],[21.3612,44.1809],[21.354,44.1877],[21.3674,44.2142],[21.3445,44.222],[21.3306,44.2521],[21.2927,44.2757],[21.2634,44.2384],[21.2275,44.2466],[21.1896,44.2785],[21.134,44.2866],[21.1199,44.2923],[21.1199,44.3127],[21.1452,44.3173],[21.1267,44.3326],[21.1316,44.3452],[21.1113,44.3765],[21.1312,44.4258],[21.1745,44.4356],[21.1472,44.4561],[21.1547,44.4766],[21.1745,44.4766],[21.1547,44.4841],[21.1609,44.5045],[21.1471,44.5007],[21.1199,44.525],[21.1404,44.5637],[21.1177,44.5988],[21.0852,44.6007],[21.0878,44.6198],[21.0663,44.644],[21.079,44.6554],[21.051,44.6752],[21.0584,44.6963],[21.0403,44.7026],[21.0368,44.722],[21.1638,44.7478],[21.1888,44.7782],[21.2695,44.8137],[21.3598,44.8267]]]}},{"type":"Feature","id":"Central Banat","properties":{"id":"Central Banat","iso_code":"RS-02","name":"Central Banat","name_full":"Central Banat","name_ja":"中央バナト郡","center_lonlat":[20.4974,45.4568]},"geometry":{"type":"Polygon","coordinates":[[[20.6435,45.7951],[20.7001,45.7354],[20.7268,45.7362],[20.7652,45.7668],[20.7857,45.7526],[20.7773,45.6575],[20.7544,45.6056],[20.8002,45.5305],[20.7976,45.5165],[20.7607,45.4933],[20.7671,45.4793],[20.816,45.4629],[20.9662,45.3416],[21.0167,45.3215],[21.0069,45.3057],[20.9146,45.301],[20.8193,45.2594],[20.843,45.2392],[20.7391,45.1857],[20.7207,45.1533],[20.6472,45.2001],[20.5784,45.2189],[20.5603,45.2154],[20.5399,45.188],[20.4839,45.2027],[20.4432,45.1508],[20.4553,45.132],[20.4319,45.1182],[20.4335,45.1013],[20.3952,45.0652],[20.339,45.0803],[20.2778,45.141],[20.2888,45.1837],[20.3165,45.1957],[20.3186,45.2092],[20.3014,45.2585],[20.2361,45.3064],[20.264,45.3406],[20.2019,45.3952],[20.2298,45.443],[20.103,45.5376],[20.1217,45.5983],[20.0629,45.6034],[20.1019,45.6531],[20.092,45.7174],[20.1142,45.7243],[20.1622,45.7425],[20.1453,45.7801],[20.1648,45.7918],[20.3464,45.7903],[20.3853,45.7184],[20.4241,45.7007],[20.4068,45.6769],[20.3629,45.6624],[20.3447,45.6622],[20.3485,45.6804],[20.3363,45.675],[20.331,45.6622],[20.3553,45.6422],[20.3301,45.6319],[20.3236,45.6137],[20.3624,45.5984],[20.4319,45.6145],[20.5165,45.6104],[20.5291,45.6131],[20.4982,45.6538],[20.5063,45.6763],[20.5554,45.706],[20.6185,45.703],[20.623,45.7429],[20.6445,45.7653],[20.6307,45.7871],[20.6435,45.7951]]]}},{"type":"Feature","id":"Jablanica","properties":{"id":"Jablanica","iso_code":"RS-23","name":"Jablanica","name_full":"Jablanica","name_ja":"ヤブラニツァ郡","center_lonlat":[21.8905,42.9089]},"geometry":{"type":"Polygon","coordinates":[[[22.5448,42.8717],[22.506,42.8701],[22.4304,42.8171],[22.387,42.8053],[22.2835,42.7458],[22.232,42.7548],[22.1776,42.7848],[22.1696,42.801],[22.1127,42.7915],[22.1174,42.8084],[22.1045,42.8204],[22.0311,42.8032],[21.9934,42.818],[21.9671,42.789],[21.8178,42.7693],[21.8146,42.7513],[21.7853,42.7327],[21.7851,42.7045],[21.7443,42.6794],[21.6874,42.6868],[21.6294,42.6722],[21.5652,42.7202],[21.3887,42.739],[21.3792,42.747],[21.4084,42.8417],[21.4324,42.858],[21.4485,42.9117],[21.4741,42.9325],[21.452,42.9755],[21.5426,43.0233],[21.6007,43.0271],[21.6381,43.0539],[21.6834,43.0548],[21.7235,43.0829],[21.7749,43.0956],[21.8139,43.1225],[21.8055,43.1378],[21.8563,43.1401],[21.9045,43.1634],[21.9368,43.1331],[21.9899,43.1523],[22.028,43.1438],[22.1552,43.0587],[22.2127,43.0568],[22.234,43.074],[22.2578,43.0551],[22.2024,43.0222],[22.2044,43.0132],[22.39,42.956],[22.3984,42.939],[22.3592,42.9295],[22.4337,42.8848],[22.5448,42.8717]]]}},{"type":"Feature","id":"Kolubara","properties":{"id":"Kolubara","iso_code":"RS-09","name":"Kolubara","name_full":"Kolubara","name_ja":"コルバラ郡","center_lonlat":[19.9197,44.2906]},"geometry":{"type":"Polygon","coordinates":[[[19.6182,44.1437],[19.5806,44.1705],[19.5591,44.2083],[19.4257,44.2541],[19.4598,44.3076],[19.492,44.3223],[19.4803,44.3454],[19.4487,44.3584],[19.4938,44.3896],[19.5035,44.4204],[19.4853,44.4341],[19.561,44.4457],[19.6018,44.4223],[19.6803,44.4381],[19.7601,44.4137],[19.776,44.3889],[19.8348,44.3887],[19.8498,44.4056],[19.8272,44.4296],[19.8622,44.4369],[19.856,44.4716],[19.8702,44.4848],[19.8499,44.524],[19.8549,44.5352],[19.8977,44.5591],[19.9269,44.5506],[19.9711,44.5648],[19.9674,44.5435],[19.99,44.5223],[20.0447,44.5072],[20.0951,44.526],[20.1278,44.4952],[20.1516,44.5058],[20.1766,44.5423],[20.1873,44.5396],[20.1968,44.4936],[20.2214,44.4684],[20.2268,44.4129],[20.1915,44.3608],[20.2027,44.3404],[20.1871,44.3179],[20.2616,44.2448],[20.318,44.2523],[20.3561,44.2894],[20.3891,44.2943],[20.4146,44.2854],[20.4231,44.2418],[20.3992,44.2061],[20.3791,44.2],[20.3722,44.1759],[20.3396,44.1682],[20.3351,44.152],[20.2868,44.1214],[20.1743,44.1113],[20.1252,44.0954],[20.1246,44.0737],[20.062,44.0853],[20.0095,44.1042],[19.9778,44.0756],[19.954,44.0784],[19.9117,44.0974],[19.9095,44.1203],[19.8938,44.1277],[19.8627,44.1296],[19.8289,44.105],[19.7867,44.1213],[19.7739,44.1124],[19.7993,44.0955],[19.8112,44.0629],[19.785,44.0529],[19.7397,44.1056],[19.6182,44.1437]]]}},{"type":"Feature","id":"Macva","properties":{"id":"Macva","iso_code":"RS-08","name":"Macva","name_full":"Mačva","name_ja":"マチュヴァ郡","center_lonlat":[19.5135,44.5646]},"geometry":{"type":"Polygon","coordinates":[[[19.357,44.8959],[19.3249,44.9223],[19.3864,44.9154],[19.4082,44.9419],[19.439,44.9297],[19.4669,44.8996],[19.4992,44.9169],[19.5521,44.9005],[19.6447,44.9127],[19.6735,44.9345],[19.7569,44.9154],[19.7006,44.8076],[19.7203,44.7645],[19.7966,44.7516],[19.914,44.6954],[20.0101,44.6889],[19.9207,44.6479],[19.9404,44.6318],[19.9734,44.6412],[19.9612,44.5937],[19.9711,44.5648],[19.9269,44.5506],[19.8977,44.5591],[19.8549,44.5352],[19.8499,44.524],[19.8702,44.4848],[19.856,44.4716],[19.8622,44.4369],[19.8272,44.4296],[19.8498,44.4056],[19.8348,44.3887],[19.776,44.3889],[19.7601,44.4137],[19.6803,44.4381],[19.6018,44.4223],[19.561,44.4457],[19.4853,44.4341],[19.5035,44.4204],[19.4938,44.3896],[19.4487,44.3584],[19.4803,44.3454],[19.492,44.3223],[19.4598,44.3076],[19.4257,44.2541],[19.5591,44.2083],[19.5806,44.1705],[19.6182,44.1437],[19.605,44.1199],[19.548,44.1147],[19.5162,44.0912],[19.4764,44.127],[19.4657,44.1528],[19.4426,44.1432],[19.3624,44.1912],[19.3243,44.264],[19.157,44.2936],[19.1089,44.3636],[19.1158,44.4036],[19.1414,44.4308],[19.1299,44.5183],[19.1731,44.5314],[19.1883,44.576],[19.2776,44.6849],[19.318,44.7155],[19.3637,44.8546],[19.3766,44.863],[19.357,44.8959]]]}},{"type":"Feature","id":"Moravica","properties":{"id":"Moravica","iso_code":"RS-17","name":"Moravica","name_full":"Moravica","name_ja":"モラヴィツァ郡","center_lonlat":[20.2848,43.7547]},"geometry":{"type":"Polygon","coordinates":[[[20.6208,43.8592],[20.5591,43.8198],[20.5638,43.8008],[20.5233,43.7699],[20.5259,43.7452],[20.4435,43.7224],[20.4367,43.7094],[20.4609,43.6958],[20.4601,43.6468],[20.4302,43.654],[20.3584,43.6314],[20.3734,43.6084],[20.3673,43.5781],[20.3489,43.5541],[20.3059,43.5348],[20.4019,43.454],[20.3947,43.4217],[20.4057,43.4002],[20.3964,43.3861],[20.4214,43.3501],[20.4127,43.3335],[20.337,43.2855],[20.3262,43.26],[20.2674,43.2985],[20.2419,43.3179],[20.1236,43.2963],[20.1004,43.309],[20.0905,43.3191],[20.0972,43.3348],[20.0118,43.4424],[20.0018,43.4816],[19.9148,43.5116],[19.8937,43.5348],[19.9113,43.5499],[19.9088,43.5758],[19.9496,43.5542],[19.9736,43.5585],[20.0384,43.6041],[20.0825,43.6071],[20.0831,43.645],[20.1559,43.6319],[20.1749,43.6561],[20.1536,43.6769],[20.1689,43.7015],[20.1654,43.7193],[20.1241,43.74],[20.1191,43.7747],[20.1301,43.7916],[20.0877,43.8421],[20.1096,43.8721],[20.1556,43.877],[20.0891,43.9117],[20.103,43.9375],[20.0558,43.9812],[20.0747,44.0077],[20.0553,44.0267],[20.0711,44.0674],[20.062,44.0853],[20.1246,44.0737],[20.1252,44.0954],[20.1743,44.1113],[20.2868,44.1214],[20.3351,44.152],[20.3396,44.1682],[20.3722,44.1759],[20.3791,44.2],[20.3992,44.2061],[20.4231,44.2418],[20.4404,44.1896],[20.4619,44.1761],[20.4619,44.1558],[20.5134,44.1367],[20.5416,44.0775],[20.5981,44.0541],[20.6369,44.0202],[20.6186,44.0048],[20.595,44.0113],[20.565,43.9668],[20.5262,43.9469],[20.5477,43.9156],[20.5833,43.9004],[20.6208,43.8592]]]}},{"type":"Feature","id":"Nisava","properties":{"id":"Nisava","iso_code":"RS-20","name":"Nisava","name_full":"Nišava","name_ja":"ニシャヴァ郡","center_lonlat":[21.8619,43.4021]},"geometry":{"type":"Polygon","coordinates":[[[21.4694,43.3678],[21.5656,43.4156],[21.5426,43.4622],[21.5672,43.5119],[21.514,43.5771],[21.481,43.5863],[21.5035,43.6275],[21.4824,43.6337],[21.4866,43.6536],[21.47,43.6685],[21.4718,43.6846],[21.5089,43.6985],[21.4659,43.7494],[21.5492,43.7901],[21.646,43.8029],[21.7039,43.7563],[21.6736,43.7384],[21.7005,43.7167],[21.683,43.7014],[21.6886,43.6678],[21.7548,43.5864],[21.8631,43.5705],[21.9127,43.5136],[21.9859,43.5216],[21.9506,43.5505],[21.953,43.5697],[21.9737,43.572],[22.0249,43.5339],[22.0223,43.5198],[22.0474,43.4905],[22.0885,43.4902],[22.1661,43.4609],[22.212,43.4685],[22.2709,43.4383],[22.3035,43.4585],[22.3485,43.4334],[22.3373,43.3824],[22.3215,43.3236],[22.2584,43.3191],[22.2013,43.3394],[22.1374,43.3369],[22.1466,43.2914],[22.167,43.2682],[22.131,43.243],[22.1136,43.2029],[22.23,43.1497],[22.2689,43.1487],[22.2956,43.1099],[22.2408,43.0879],[22.234,43.074],[22.2127,43.0568],[22.1552,43.0587],[22.028,43.1438],[21.9899,43.1523],[21.9368,43.1331],[21.9045,43.1634],[21.8563,43.1401],[21.8055,43.1378],[21.7922,43.146],[21.8039,43.1589],[21.7611,43.2009],[21.7795,43.2184],[21.7659,43.2466],[21.708,43.2557],[21.6934,43.2085],[21.6261,43.2329],[21.6106,43.2481],[21.626,43.2676],[21.6016,43.2773],[21.5781,43.3117],[21.5939,43.3492],[21.4901,43.3474],[21.4694,43.3678]]]}},{"type":"Feature","id":"North Backa","properties":{"id":"North Backa","iso_code":"RS-01","name":"North Backa","name_full":"North Bačka","name_ja":"北バチュカ郡","center_lonlat":[19.6111,45.9266]},"geometry":{"type":"Polygon","coordinates":[[[19.8736,46.153],[19.8777,46.1373],[19.8515,46.1174],[19.8565,46.0687],[19.8029,46.0039],[19.8073,45.9213],[19.7649,45.9024],[19.807,45.8516],[19.8109,45.8292],[19.8346,45.8279],[19.8606,45.7722],[19.7498,45.7415],[19.7556,45.6936],[19.7316,45.633],[19.6842,45.6189],[19.5865,45.66],[19.6121,45.6764],[19.5571,45.7138],[19.5776,45.7405],[19.5289,45.7649],[19.4886,45.7453],[19.4422,45.7677],[19.4299,45.8044],[19.3525,45.8632],[19.331,45.9391],[19.3465,45.9596],[19.3408,45.9894],[19.2983,46.0221],[19.3789,46.0337],[19.4047,46.0602],[19.4993,46.1086],[19.4875,46.1342],[19.502,46.1456],[19.5499,46.1642],[19.6693,46.1731],[19.7904,46.1291],[19.8736,46.153]]]}},{"type":"Feature","id":"North Banat","properties":{"id":"North Banat","iso_code":"RS-03","name":"North Banat","name_full":"North Banat","name_ja":"北バナト郡","center_lonlat":[20.1787,45.9023]},"geometry":{"type":"Polygon","coordinates":[[[20.6435,45.7951],[20.6307,45.7871],[20.6445,45.7653],[20.623,45.7429],[20.6185,45.703],[20.5554,45.706],[20.5063,45.6763],[20.4982,45.6538],[20.5291,45.6131],[20.5165,45.6104],[20.4319,45.6145],[20.3624,45.5984],[20.3236,45.6137],[20.3301,45.6319],[20.3553,45.6422],[20.331,45.6622],[20.3363,45.675],[20.3485,45.6804],[20.3447,45.6622],[20.3629,45.6624],[20.4068,45.6769],[20.4241,45.7007],[20.3853,45.7184],[20.3464,45.7903],[20.1648,45.7918],[20.1453,45.7801],[20.1622,45.7425],[20.1142,45.7243],[20.0709,45.7518],[19.8606,45.7722],[19.8346,45.8279],[19.8109,45.8292],[19.807,45.8516],[19.7649,45.9024],[19.8073,45.9213],[19.8029,46.0039],[19.8565,46.0687],[19.8515,46.1174],[19.8777,46.1373],[19.8736,46.153],[19.9291,46.1635],[19.9931,46.1594],[20.035,46.143],[20.0984,46.155],[20.138,46.1365],[20.1885,46.1404],[20.3057,46.0536],[20.3539,45.9767],[20.4817,45.9127],[20.5721,45.8877],[20.6367,45.827],[20.6435,45.7951]]]}},{"type":"Feature","id":"Pcinja","properties":{"id":"Pcinja","iso_code":"RS-24","name":"Pcinja","name_full":"Pčinja","name_ja":"プチニャ郡","center_lonlat":[22.0555,42.5267]},"geometry":{"type":"Polygon","coordinates":[[[21.7443,42.6794],[21.7851,42.7045],[21.7853,42.7327],[21.8146,42.7513],[21.8178,42.7693],[21.9671,42.789],[21.9934,42.818],[22.0311,42.8032],[22.1045,42.8204],[22.1174,42.8084],[22.1127,42.7915],[22.1696,42.801],[22.1776,42.7848],[22.232,42.7548],[22.2835,42.7458],[22.387,42.8053],[22.4304,42.8171],[22.4531,42.7636],[22.4829,42.7338],[22.4421,42.6817],[22.4492,42.668],[22.4253,42.5729],[22.5121,42.5192],[22.5365,42.4784],[22.5088,42.4049],[22.4698,42.3917],[22.4385,42.3401],[22.4058,42.3216],[22.3076,42.3193],[22.2769,42.3412],[22.2689,42.3703],[22.0955,42.3058],[22.0276,42.304],[21.929,42.3351],[21.8844,42.3095],[21.8172,42.3051],[21.6769,42.2349],[21.5641,42.2463],[21.5149,42.3178],[21.516,42.3419],[21.6174,42.3866],[21.619,42.4492],[21.7177,42.5512],[21.7277,42.5741],[21.7183,42.591],[21.7347,42.6242],[21.7728,42.6475],[21.7644,42.6696],[21.7443,42.6794]]]}},{"type":"Feature","id":"Pirot","properties":{"id":"Pirot","iso_code":"RS-22","name":"Pirot","name_full":"Pirot","name_ja":"ピロト郡","center_lonlat":[22.5526,43.1418]},"geometry":{"type":"Polygon","coordinates":[[[22.6589,43.4013],[22.733,43.3815],[22.8045,43.329],[22.827,43.2814],[22.8838,43.2306],[22.9814,43.199],[22.9846,43.1746],[22.9556,43.1083],[22.9017,43.0697],[22.8842,43.0367],[22.8289,42.9934],[22.7764,42.9797],[22.727,42.8869],[22.6662,42.8719],[22.5909,42.8869],[22.5448,42.8717],[22.4337,42.8848],[22.3592,42.9295],[22.3984,42.939],[22.39,42.956],[22.2044,43.0132],[22.2024,43.0222],[22.2578,43.0551],[22.234,43.074],[22.2408,43.0879],[22.2956,43.1099],[22.2689,43.1487],[22.23,43.1497],[22.1136,43.2029],[22.131,43.243],[22.167,43.2682],[22.1466,43.2914],[22.1374,43.3369],[22.2013,43.3394],[22.2584,43.3191],[22.3215,43.3236],[22.3373,43.3824],[22.445,43.3447],[22.4689,43.3474],[22.4899,43.3669],[22.5246,43.3354],[22.5752,43.3252],[22.5812,43.3452],[22.6589,43.4013]]]}},{"type":"Feature","id":"Podunavlje","properties":{"id":"Podunavlje","iso_code":"RS-10","name":"Podunavlje","name_full":"Podunavlje","name_ja":"ポドゥナヴリェ郡","center_lonlat":[20.9617,44.4519]},"geometry":{"type":"Polygon","coordinates":[[[20.7948,44.6647],[20.8832,44.6727],[20.9896,44.7168],[21.0368,44.722],[21.0403,44.7026],[21.0584,44.6963],[21.051,44.6752],[21.079,44.6554],[21.0663,44.644],[21.0878,44.6198],[21.0852,44.6007],[21.1177,44.5988],[21.1404,44.5637],[21.1199,44.525],[21.1471,44.5007],[21.1609,44.5045],[21.1547,44.4841],[21.1745,44.4766],[21.1547,44.4766],[21.1472,44.4561],[21.1745,44.4356],[21.1312,44.4258],[21.1113,44.3765],[21.1316,44.3452],[21.1267,44.3326],[21.1452,44.3173],[21.1199,44.3127],[21.1199,44.2923],[21.134,44.2866],[21.1683,44.2581],[21.1472,44.2439],[21.1547,44.2097],[21.1336,44.2097],[21.1547,44.1954],[21.1392,44.1833],[20.9963,44.22],[20.976,44.2341],[20.9739,44.259],[20.904,44.2419],[20.8163,44.2576],[20.822,44.2889],[20.772,44.2978],[20.7658,44.3272],[20.7874,44.3492],[20.7554,44.3524],[20.7315,44.3841],[20.76,44.4183],[20.8173,44.4155],[20.8391,44.4354],[20.819,44.4658],[20.7621,44.4975],[20.7371,44.533],[20.8064,44.5632],[20.771,44.6187],[20.7948,44.6647]]]}},{"type":"Feature","id":"Pomoravski","properties":{"id":"Pomoravski","iso_code":"RS-13","name":"Pomoravski","name_full":"Pomoravski","name_ja":"ポモラヴォスキー","center_lonlat":[21.3522,43.9644]},"geometry":{"type":"Polygon","coordinates":[[[20.957,43.7282],[20.9247,43.7552],[20.9084,43.8074],[20.938,43.8054],[20.9507,43.8234],[21.0147,43.8547],[21.0,43.8939],[21.0437,43.9056],[21.0413,43.9308],[21.0623,43.9428],[21.041,43.9756],[21.0906,43.9937],[21.103,44.0211],[21.0869,44.041],[21.0542,44.0474],[21.1357,44.0891],[21.1391,44.1029],[21.123,44.1208],[21.1433,44.1534],[21.1392,44.1833],[21.1547,44.1954],[21.1336,44.2097],[21.1547,44.2097],[21.1472,44.2439],[21.1683,44.2581],[21.134,44.2866],[21.1896,44.2785],[21.2275,44.2466],[21.2634,44.2384],[21.2927,44.2757],[21.3306,44.2521],[21.3445,44.222],[21.3674,44.2142],[21.354,44.1877],[21.3612,44.1809],[21.434,44.1947],[21.4878,44.1817],[21.5583,44.1192],[21.6441,44.1124],[21.6936,44.0826],[21.7363,44.0897],[21.7683,44.0715],[21.8178,44.0656],[21.8085,44.0436],[21.7883,44.0347],[21.7724,43.9918],[21.7762,43.9728],[21.7253,43.9264],[21.7288,43.9079],[21.6728,43.8855],[21.6698,43.8668],[21.6895,43.8477],[21.646,43.8029],[21.5492,43.7901],[21.4659,43.7494],[21.384,43.7237],[21.3669,43.7647],[21.3744,43.7709],[21.2693,43.764],[21.2604,43.7729],[21.2777,43.8293],[21.2606,43.8409],[21.2419,43.8207],[21.2486,43.7953],[21.2389,43.7692],[21.1778,43.738],[21.1396,43.747],[21.1481,43.687],[21.0927,43.7129],[20.957,43.7282]]]}},{"type":"Feature","id":"Rasina","properties":{"id":"Rasina","iso_code":"RS-19","name":"Rasina","name_full":"Rasina","name_ja":"ラシナ郡","center_lonlat":[21.1549,43.4982]},"geometry":{"type":"Polygon","coordinates":[[[20.8097,43.2596],[20.8052,43.2974],[20.8381,43.3319],[20.8291,43.383],[20.7911,43.3821],[20.7615,43.404],[20.7824,43.4578],[20.7603,43.5092],[20.806,43.505],[20.8309,43.5156],[20.8777,43.4929],[20.9452,43.506],[20.9201,43.5324],[20.9065,43.5723],[20.9514,43.613],[20.9139,43.6396],[20.8781,43.6445],[20.9173,43.6753],[20.9164,43.7269],[20.957,43.7282],[21.0927,43.7129],[21.1481,43.687],[21.1396,43.747],[21.1778,43.738],[21.2389,43.7692],[21.2486,43.7953],[21.2419,43.8207],[21.2606,43.8409],[21.2777,43.8293],[21.2604,43.7729],[21.2693,43.764],[21.3744,43.7709],[21.3669,43.7647],[21.384,43.7237],[21.4659,43.7494],[21.5089,43.6985],[21.4718,43.6846],[21.47,43.6685],[21.4866,43.6536],[21.4824,43.6337],[21.5035,43.6275],[21.481,43.5863],[21.514,43.5771],[21.5672,43.5119],[21.5426,43.4622],[21.5656,43.4156],[21.4694,43.3678],[21.4159,43.3846],[21.3762,43.3776],[21.3397,43.3867],[21.2128,43.3539],[21.1496,43.2674],[21.1063,43.2423],[21.0725,43.2359],[21.0361,43.255],[20.968,43.2511],[20.9483,43.2191],[20.9555,43.1764],[20.9125,43.1388],[20.8386,43.1705],[20.84,43.2121],[20.8647,43.2173],[20.8097,43.2596]]]}},{"type":"Feature","id":"Raska","properties":{"id":"Raska","iso_code":"RS-18","name":"Raska","name_full":"Raška","name_ja":"ラシュカ郡","center_lonlat":[20.5421,43.3653]},"geometry":{"type":"Polygon","coordinates":[[[20.8097,43.2596],[20.7695,43.2608],[20.667,43.2097],[20.604,43.198],[20.6001,43.1738],[20.6206,43.1333],[20.6321,43.1173],[20.6692,43.1098],[20.6649,43.0854],[20.5964,43.0071],[20.5624,43.0095],[20.5305,42.9752],[20.4764,42.9664],[20.4595,42.95],[20.451,42.922],[20.4889,42.8992],[20.4988,42.8779],[20.4763,42.8555],[20.3454,42.8274],[20.3536,42.891],[20.3371,42.907],[20.1946,42.9668],[20.1169,42.9767],[20.0544,43.0222],[20.0905,43.0805],[20.1419,43.0974],[20.1399,43.1168],[20.1676,43.1404],[20.2821,43.1569],[20.2012,43.2185],[20.2329,43.2393],[20.2674,43.2985],[20.3262,43.26],[20.337,43.2855],[20.4127,43.3335],[20.4214,43.3501],[20.3964,43.3861],[20.4057,43.4002],[20.3947,43.4217],[20.4019,43.454],[20.3059,43.5348],[20.3489,43.5541],[20.3673,43.5781],[20.3734,43.6084],[20.3584,43.6314],[20.4302,43.654],[20.4601,43.6468],[20.4609,43.6958],[20.4367,43.7094],[20.4435,43.7224],[20.5259,43.7452],[20.5233,43.7699],[20.5638,43.8008],[20.5591,43.8198],[20.6208,43.8592],[20.6593,43.8323],[20.6901,43.7884],[20.7177,43.7758],[20.769,43.7882],[20.7592,43.8199],[20.7915,43.8314],[20.8369,43.8284],[20.8607,43.84],[20.9084,43.8074],[20.9247,43.7552],[20.957,43.7282],[20.9164,43.7269],[20.9173,43.6753],[20.8781,43.6445],[20.9139,43.6396],[20.9514,43.613],[20.9065,43.5723],[20.9201,43.5324],[20.9452,43.506],[20.8777,43.4929],[20.8309,43.5156],[20.806,43.505],[20.7603,43.5092],[20.7824,43.4578],[20.7615,43.404],[20.7911,43.3821],[20.8291,43.383],[20.8381,43.3319],[20.8052,43.2974],[20.8097,43.2596]]]}},{"type":"Feature","id":"South Backa","properties":{"id":"South Backa","iso_code":"RS-06","name":"South Backa","name_full":"South Bačka","name_ja":"南バチュカ郡","center_lonlat":[19.7352,45.4035]},"geometry":{"type":"Polygon","coordinates":[[[19.0179,45.4978],[19.0322,45.4822],[19.0565,45.4885],[19.0966,45.4751],[19.1129,45.4582],[19.1596,45.4609],[19.1928,45.4343],[19.2545,45.4433],[19.2681,45.4593],[19.2974,45.4393],[19.3643,45.4384],[19.3558,45.4917],[19.3994,45.5079],[19.3945,45.5357],[19.4401,45.5493],[19.4778,45.5341],[19.5035,45.5435],[19.5247,45.5781],[19.5609,45.5845],[19.5568,45.6227],[19.5865,45.66],[19.6842,45.6189],[19.7316,45.633],[19.7556,45.6936],[19.7498,45.7415],[19.8606,45.7722],[20.0709,45.7518],[20.1142,45.7243],[20.092,45.7174],[20.1019,45.6531],[20.0629,45.6034],[20.1217,45.5983],[20.103,45.5376],[20.2298,45.443],[20.2019,45.3952],[20.264,45.3406],[20.2361,45.3064],[20.3014,45.2585],[20.3186,45.2092],[20.3165,45.1957],[20.2888,45.1837],[20.2778,45.141],[20.185,45.185],[20.0648,45.1755],[19.9856,45.1898],[19.9722,45.1725],[19.978,45.1582],[19.9126,45.1426],[19.7953,45.1454],[19.7731,45.1671],[19.6988,45.1417],[19.6001,45.1384],[19.4624,45.1741],[19.4272,45.1461],[19.3939,45.1716],[19.4078,45.2031],[19.3973,45.2233],[19.2898,45.2363],[19.1585,45.2762],[19.1041,45.2987],[19.083,45.3392],[19.0302,45.3451],[18.9775,45.3712],[18.9755,45.3911],[19.0226,45.4024],[19.0313,45.4162],[18.9971,45.4555],[18.9964,45.4738],[19.0179,45.4978]]]}},{"type":"Feature","id":"South Banat","properties":{"id":"South Banat","iso_code":"RS-04","name":"South Banat","name_full":"South Banat","name_ja":"南バナト郡","center_lonlat":[20.961,45.0016]},"geometry":{"type":"Polygon","coordinates":[[[21.0167,45.3215],[21.1033,45.2861],[21.1394,45.3037],[21.2393,45.2294],[21.4055,45.1997],[21.4933,45.1451],[21.4941,45.1193],[21.4424,45.0929],[21.4219,45.0314],[21.3634,45.0165],[21.3514,44.9982],[21.3839,44.9867],[21.3852,44.9695],[21.4084,44.9583],[21.5163,44.9339],[21.5391,44.9085],[21.5363,44.8893],[21.4815,44.8726],[21.3685,44.8649],[21.3428,44.8319],[21.3598,44.8267],[21.2695,44.8137],[21.1888,44.7782],[21.1638,44.7478],[21.0368,44.722],[20.9896,44.7168],[20.8832,44.6727],[20.7948,44.6647],[20.742,44.6792],[20.6333,44.7652],[20.6364,44.8494],[20.595,44.858],[20.6023,44.8843],[20.5866,44.9009],[20.5214,44.9284],[20.4959,44.9664],[20.4672,44.9745],[20.404,45.0224],[20.3952,45.0652],[20.4335,45.1013],[20.4319,45.1182],[20.4553,45.132],[20.4432,45.1508],[20.4839,45.2027],[20.5399,45.188],[20.5603,45.2154],[20.5784,45.2189],[20.6472,45.2001],[20.7207,45.1533],[20.7391,45.1857],[20.843,45.2392],[20.8193,45.2594],[20.9146,45.301],[21.0069,45.3057],[21.0167,45.3215]]]}},{"type":"Feature","id":"Srem","properties":{"id":"Srem","iso_code":"RS-07","name":"Srem","name_full":"Srem","name_ja":"スレム郡","center_lonlat":[19.7468,44.9885]},"geometry":{"type":"Polygon","coordinates":[[[19.3939,45.1716],[19.4272,45.1461],[19.4624,45.1741],[19.6001,45.1384],[19.6988,45.1417],[19.7731,45.1671],[19.7953,45.1454],[19.9126,45.1426],[19.978,45.1582],[19.9722,45.1725],[19.9856,45.1898],[20.0648,45.1755],[20.185,45.185],[20.2778,45.141],[20.339,45.0803],[20.3569,45.0345],[20.2907,44.9775],[20.3247,44.9292],[20.1568,44.8882],[20.1229,44.7988],[20.0818,44.7831],[20.084,44.7687],[20.1104,44.7565],[20.0941,44.7082],[19.9734,44.6412],[19.9404,44.6318],[19.9207,44.6479],[20.0101,44.6889],[19.914,44.6954],[19.7966,44.7516],[19.7203,44.7645],[19.7006,44.8076],[19.7569,44.9154],[19.6735,44.9345],[19.6447,44.9127],[19.5521,44.9005],[19.4992,44.9169],[19.4669,44.8996],[19.439,44.9297],[19.4082,44.9419],[19.3864,44.9154],[19.3249,44.9223],[19.357,44.8959],[19.3102,44.9124],[19.2019,44.9084],[19.1869,44.9275],[19.0846,44.879],[19.0158,44.8656],[18.9914,44.9149],[19.0184,44.9257],[19.0667,44.9057],[19.1317,44.9532],[19.1186,44.9755],[19.0872,44.9771],[19.0954,45.0209],[19.0823,45.0849],[19.0449,45.1372],[19.0601,45.1469],[19.1377,45.146],[19.1417,45.1622],[19.1219,45.1958],[19.1558,45.195],[19.2045,45.1629],[19.2678,45.1658],[19.2867,45.1795],[19.3043,45.1665],[19.3939,45.1716]]]}},{"type":"Feature","id":"Sumadija","properties":{"id":"Sumadija","iso_code":"RS-12","name":"Sumadija","name_full":"Šumadija","name_ja":"シュマディヤ郡","center_lonlat":[20.7658,44.0925]},"geometry":{"type":"Polygon","coordinates":[[[20.6208,43.8592],[20.5833,43.9004],[20.5477,43.9156],[20.5262,43.9469],[20.565,43.9668],[20.595,44.0113],[20.6186,44.0048],[20.6369,44.0202],[20.5981,44.0541],[20.5416,44.0775],[20.5134,44.1367],[20.4619,44.1558],[20.4619,44.1761],[20.4404,44.1896],[20.4231,44.2418],[20.4146,44.2854],[20.3891,44.2943],[20.4015,44.3269],[20.4333,44.3561],[20.3967,44.3893],[20.4422,44.4189],[20.5379,44.3857],[20.5385,44.3558],[20.6113,44.373],[20.623,44.3398],[20.6498,44.3218],[20.6905,44.3347],[20.772,44.2978],[20.822,44.2889],[20.8163,44.2576],[20.904,44.2419],[20.9739,44.259],[20.976,44.2341],[20.9963,44.22],[21.1392,44.1833],[21.1433,44.1534],[21.123,44.1208],[21.1391,44.1029],[21.1357,44.0891],[21.0542,44.0474],[21.0869,44.041],[21.103,44.0211],[21.0906,43.9937],[21.041,43.9756],[21.0623,43.9428],[21.0413,43.9308],[21.0437,43.9056],[21.0,43.8939],[21.0147,43.8547],[20.9507,43.8234],[20.938,43.8054],[20.9084,43.8074],[20.8607,43.84],[20.8369,43.8284],[20.7915,43.8314],[20.7592,43.8199],[20.769,43.7882],[20.7177,43.7758],[20.6901,43.7884],[20.6593,43.8323],[20.6208,43.8592]]]}},{"type":"Feature","id":"Toplica","properties":{"id":"Toplica","iso_code":"RS-21","name":"Toplica","name_full":"Toplica","name_ja":"トプリツァ郡","center_lonlat":[21.3685,43.1462]},"geometry":{"type":"Polygon","coordinates":[[[20.9125,43.1388],[20.9555,43.1764],[20.9483,43.2191],[20.968,43.2511],[21.0361,43.255],[21.0725,43.2359],[21.1063,43.2423],[21.1496,43.2674],[21.2128,43.3539],[21.3397,43.3867],[21.3762,43.3776],[21.4159,43.3846],[21.4694,43.3678],[21.4901,43.3474],[21.5939,43.3492],[21.5781,43.3117],[21.6016,43.2773],[21.626,43.2676],[21.6106,43.2481],[21.6261,43.2329],[21.6934,43.2085],[21.708,43.2557],[21.7659,43.2466],[21.7795,43.2184],[21.7611,43.2009],[21.8039,43.1589],[21.7922,43.146],[21.8055,43.1378],[21.8139,43.1225],[21.7749,43.0956],[21.7235,43.0829],[21.6834,43.0548],[21.6381,43.0539],[21.6007,43.0271],[21.5426,43.0233],[21.452,42.9755],[21.4741,42.9325],[21.4485,42.9117],[21.4324,42.858],[21.4084,42.8417],[21.3989,42.8546],[21.2605,42.8866],[21.2324,42.9109],[21.2253,42.9736],[21.2098,42.9959],[21.1654,42.9851],[21.1479,42.9926],[21.1085,43.0816],[21.0052,43.0991],[20.9125,43.1388]]]}},{"type":"Feature","id":"West Backa","properties":{"id":"West Backa","iso_code":"RS-05","name":"West Backa","name_full":"West Bačka","name_ja":"西バチュカ郡","center_lonlat":[19.2029,45.72]},"geometry":{"type":"Polygon","coordinates":[[[19.2983,46.0221],[19.3408,45.9894],[19.3465,45.9596],[19.331,45.9391],[19.3525,45.8632],[19.4299,45.8044],[19.4422,45.7677],[19.4886,45.7453],[19.5289,45.7649],[19.5776,45.7405],[19.5571,45.7138],[19.6121,45.6764],[19.5865,45.66],[19.5568,45.6227],[19.5609,45.5845],[19.5247,45.5781],[19.5035,45.5435],[19.4778,45.5341],[19.4401,45.5493],[19.3945,45.5357],[19.3994,45.5079],[19.3558,45.4917],[19.3643,45.4384],[19.2974,45.4393],[19.2681,45.4593],[19.2545,45.4433],[19.1928,45.4343],[19.1596,45.4609],[19.1129,45.4582],[19.0966,45.4751],[19.0565,45.4885],[19.0322,45.4822],[19.0179,45.4978],[19.0772,45.4916],[19.1063,45.5116],[19.0181,45.5674],[18.9417,45.5389],[18.9036,45.5731],[18.9124,45.6192],[18.9685,45.6687],[18.9627,45.6831],[18.9173,45.7066],[18.9002,45.7649],[18.845,45.8157],[18.8553,45.8574],[18.907,45.868],[18.8729,45.8952],[18.907,45.9157],[18.9013,45.9312],[18.9875,45.9238],[18.9818,45.9508],[19.0486,45.9634],[19.0497,45.9931],[19.0654,46.012],[19.0885,46.0188],[19.148,45.9841],[19.2357,45.9777],[19.2635,45.9814],[19.2983,46.0221]]]}},{"type":"Feature","id":"Zajecar","properties":{"id":"Zajecar","iso_code":"RS-15","name":"Zajecar","name_full":"Zaječar","name_ja":"ザイェチャル郡","center_lonlat":[22.1383,43.7289]},"geometry":{"type":"Polygon","coordinates":[[[22.4659,44.0176],[22.4118,44.0069],[22.3996,43.9933],[22.3945,43.9363],[22.3495,43.8079],[22.3885,43.7583],[22.3861,43.7255],[22.4049,43.6872],[22.4663,43.6491],[22.482,43.5995],[22.4785,43.5592],[22.5189,43.4742],[22.5963,43.4292],[22.6378,43.4264],[22.6589,43.4013],[22.5812,43.3452],[22.5752,43.3252],[22.5246,43.3354],[22.4899,43.3669],[22.4689,43.3474],[22.445,43.3447],[22.3373,43.3824],[22.3485,43.4334],[22.3035,43.4585],[22.2709,43.4383],[22.212,43.4685],[22.1661,43.4609],[22.0885,43.4902],[22.0474,43.4905],[22.0223,43.5198],[22.0249,43.5339],[21.9737,43.572],[21.953,43.5697],[21.9506,43.5505],[21.9859,43.5216],[21.9127,43.5136],[21.8631,43.5705],[21.7548,43.5864],[21.6886,43.6678],[21.683,43.7014],[21.7005,43.7167],[21.6736,43.7384],[21.7039,43.7563],[21.646,43.8029],[21.6895,43.8477],[21.6698,43.8668],[21.6728,43.8855],[21.7288,43.9079],[21.7253,43.9264],[21.7762,43.9728],[21.7724,43.9918],[21.8936,43.9886],[21.9422,43.9532],[21.9979,43.9365],[22.0328,43.952],[22.0612,43.9015],[22.1217,43.8756],[22.1325,43.8977],[22.1619,43.9094],[22.1672,43.942],[22.2116,44.0035],[22.2387,44.0162],[22.24,44.0419],[22.2162,44.0716],[22.2154,44.0988],[22.1914,44.1155],[22.2327,44.1686],[22.2755,44.1384],[22.3382,44.13],[22.3918,44.1408],[22.4257,44.1175],[22.4692,44.1085],[22.4833,44.0849],[22.4486,44.0552],[22.4659,44.0176]]]}},{"type":"Feature","id":"Zlatibor","properties":{"id":"Zlatibor","iso_code":"RS-16","name":"Zlatibor","name_full":"Zlatibor","name_ja":"ズラティボル郡","center_lonlat":[19.7555,43.5979]},"geometry":{"type":"Polygon","coordinates":[[[19.5162,44.0912],[19.548,44.1147],[19.605,44.1199],[19.6182,44.1437],[19.7397,44.1056],[19.785,44.0529],[19.8112,44.0629],[19.7993,44.0955],[19.7739,44.1124],[19.7867,44.1213],[19.8289,44.105],[19.8627,44.1296],[19.8938,44.1277],[19.9095,44.1203],[19.9117,44.0974],[19.954,44.0784],[19.9778,44.0756],[20.0095,44.1042],[20.062,44.0853],[20.0711,44.0674],[20.0553,44.0267],[20.0747,44.0077],[20.0558,43.9812],[20.103,43.9375],[20.0891,43.9117],[20.1556,43.877],[20.1096,43.8721],[20.0877,43.8421],[20.1301,43.7916],[20.1191,43.7747],[20.1241,43.74],[20.1654,43.7193],[20.1689,43.7015],[20.1536,43.6769],[20.1749,43.6561],[20.1559,43.6319],[20.0831,43.645],[20.0825,43.6071],[20.0384,43.6041],[19.9736,43.5585],[19.9496,43.5542],[19.9088,43.5758],[19.9113,43.5499],[19.8937,43.5348],[19.9148,43.5116],[20.0018,43.4816],[20.0118,43.4424],[20.0972,43.3348],[20.0905,43.3191],[20.1004,43.309],[20.1236,43.2963],[20.2419,43.3179],[20.2674,43.2985],[20.2329,43.2393],[20.2012,43.2185],[20.2821,43.1569],[20.1676,43.1404],[20.1399,43.1168],[20.1419,43.0974],[20.0905,43.0805],[20.0544,43.0222],[19.9597,43.0786],[19.9291,43.1139],[19.8722,43.0904],[19.8051,43.09],[19.7612,43.1087],[19.7136,43.1656],[19.663,43.1585],[19.5981,43.1762],[19.5124,43.2406],[19.4731,43.2933],[19.3723,43.3842],[19.2184,43.4382],[19.1759,43.4809],[19.1752,43.5096],[19.1953,43.5328],[19.2175,43.5328],[19.2527,43.5886],[19.3009,43.5883],[19.3466,43.6088],[19.3804,43.5856],[19.4107,43.5408],[19.4318,43.5711],[19.4896,43.5644],[19.4775,43.617],[19.5074,43.6472],[19.5057,43.6736],[19.4617,43.7621],[19.3595,43.8422],[19.2754,43.9333],[19.2293,43.9577],[19.2407,43.9657],[19.2435,44.002],[19.2728,44.0124],[19.3006,44.0095],[19.3646,43.9733],[19.5041,43.9757],[19.5522,43.9834],[19.6104,44.0193],[19.6189,44.0357],[19.6114,44.0545],[19.5989,44.0626],[19.5802,44.0515],[19.5162,44.0912]]]}}]}
