{"type":"FeatureCollection","features":[{"type":"Feature","id":"Anse Boileau","properties":{"id":"Anse Boileau","iso_code":"SC-02","name":"Anse Boileau","name_full":"Anse Boileau","name_ja":"アンセ・ボイレヤー","center_lonlat":[55.4949,-4.7104]},"geometry":{"type":"Polygon","coordinates":[[[55.4916,-4.7364],[55.478,-4.7064],[55.4952,-4.6778],[55.5002,-4.6796],[55.5079,-4.7198],[55.505,-4.7391],[55.4916,-4.7364]]]}},{"type":"Feature","id":"Anse Etoile","properties":{"id":"Anse Etoile","iso_code":"SC-03","name":"Anse Etoile","name_full":"Anse Etoile","name_ja":"アンセ・エチオエ","center_lonlat":[55.452,-4.5897]},"geometry":{"type":"Polygon","coordinates":[[[55.4639,-4.5714],[55.4599,-4.5985],[55.4407,-4.6045],[55.4407,-4.587],[55.4639,-4.5714]]]}},{"type":"Feature","id":"Anse Royale","properties":{"id":"Anse Royale","iso_code":"SC-05","name":"Anse Royale","name_full":"Anse Royale","name_ja":"アンセ・ロイヤル","center_lonlat":[55.5144,-4.7467]},"geometry":{"type":"Polygon","coordinates":[[[55.5281,-4.7368],[55.5169,-4.7504],[55.5257,-4.7701],[55.5097,-4.7713],[55.505,-4.7391],[55.5079,-4.7198],[55.5281,-4.7368]]]}},{"type":"Feature","id":"Anse-aux-Pins","properties":{"id":"Anse-aux-Pins","iso_code":"SC-01","name":"Anse-aux-Pins","name_full":"Anse-aux-Pins","name_ja":"アンセ=エクス=プリス","center_lonlat":[55.5178,-4.6823]},"geometry":{"type":"Polygon","coordinates":[[[55.5286,-4.6802],[55.5263,-4.6891],[55.504,-4.6809],[55.5063,-4.6774],[55.5286,-4.6802]]]}},{"type":"Feature","id":"Au Cap","properties":{"id":"Au Cap","iso_code":"SC-04","name":"Au Cap","name_full":"Au Cap","name_ja":"アウ・カップ","center_lonlat":[55.516,-4.7055]},"geometry":{"type":"Polygon","coordinates":[[[55.5263,-4.6891],[55.5281,-4.7368],[55.5079,-4.7198],[55.5002,-4.6796],[55.504,-4.6809],[55.5263,-4.6891]]]}},{"type":"Feature","id":"Baie Lazare","properties":{"id":"Baie Lazare","iso_code":"SC-06","name":"Baie Lazare","name_full":"Baie Lazare","name_ja":"バイエ・ロザーレ","center_lonlat":[55.4894,-4.7539]},"geometry":{"type":"Polygon","coordinates":[[[55.4932,-4.7766],[55.4869,-4.7621],[55.4635,-4.7598],[55.4682,-4.7415],[55.4916,-4.7364],[55.505,-4.7391],[55.5097,-4.7713],[55.4932,-4.7766]]]}},{"type":"Feature","id":"Baie Sainte Anne","properties":{"id":"Baie Sainte Anne","iso_code":"SC-07","name":"Baie Sainte Anne","name_full":"Baie Sainte Anne","name_ja":"バイエ・セント・アンセ","center_lonlat":[55.7377,-4.3184]},"geometry":{"type":"MultiPolygon","coordinates":[[[[55.6828,-4.2944],[55.7044,-4.2902],[55.7545,-4.3211],[55.7772,-4.3185],[55.787,-4.3306],[55.7709,-4.3313],[55.768,-4.3503],[55.6828,-4.2944]]],[[[55.7121,-4.2804],[55.743,-4.2783],[55.7329,-4.2925],[55.7121,-4.2804]]]]}},{"type":"Feature","id":"Beau Vallon","properties":{"id":"Beau Vallon","iso_code":"SC-08","name":"Beau Vallon","name_full":"Beau Vallon","name_ja":"ベウ・バロン","center_lonlat":[55.4305,-4.6056]},"geometry":{"type":"Polygon","coordinates":[[[55.4144,-4.6128],[55.4327,-4.5869],[55.4407,-4.587],[55.4407,-4.6045],[55.4385,-4.6151],[55.4315,-4.6238],[55.4144,-4.6128]]]}},{"type":"Feature","id":"Bel Air","properties":{"id":"Bel Air","iso_code":"SC-09","name":"Bel Air","name_full":"Bel Air","name_ja":"ベル・エアー","center_lonlat":[55.4525,-4.6356]},"geometry":{"type":"Polygon","coordinates":[[[55.4588,-4.6181],[55.4645,-4.6471],[55.4592,-4.6576],[55.435,-4.6304],[55.4473,-4.6208],[55.4588,-4.6181]]]}},{"type":"Feature","id":"Bel Ombre","properties":{"id":"Bel Ombre","iso_code":"SC-10","name":"Bel Ombre","name_full":"Bel Ombre","name_ja":"ベル・オンブレ","center_lonlat":[55.4077,-4.6267]},"geometry":{"type":"Polygon","coordinates":[[[55.3805,-4.6272],[55.4144,-4.6128],[55.4315,-4.6238],[55.4087,-4.6414],[55.3805,-4.6272]]]}},{"type":"Feature","id":"Cascade","properties":{"id":"Cascade","iso_code":"SC-11","name":"Cascade","name_full":"Cascade","name_ja":"カスカドゥ","center_lonlat":[55.4983,-4.6668]},"geometry":{"type":"Polygon","coordinates":[[[55.492,-4.6514],[55.5136,-4.6662],[55.5063,-4.6774],[55.504,-4.6809],[55.5002,-4.6796],[55.4952,-4.6778],[55.4827,-4.6623],[55.4895,-4.6585],[55.492,-4.6514]]]}},{"type":"Feature","id":"Coralline Seychelles","properties":{"id":"Coralline Seychelles","iso_code":"SC-X02~","name":"Coralline Seychelles","name_full":"Coralline Seychelles","name_ja":"アウター・アイランズ","center_lonlat":[46.3837,-9.4083]},"geometry":{"type":"MultiPolygon","coordinates":[[[[46.4955,-9.3576],[46.5252,-9.3813],[46.4546,-9.4264],[46.3807,-9.4246],[46.2998,-9.4493],[46.2344,-9.4523],[46.2074,-9.3855],[46.2305,-9.4137],[46.3205,-9.4238],[46.4346,-9.3781],[46.4688,-9.3855],[46.4478,-9.3377],[46.4955,-9.3576]]],[[[46.2839,-9.3513],[46.2761,-9.3393],[46.3152,-9.3264],[46.4271,-9.3377],[46.4107,-9.3533],[46.3794,-9.357],[46.3311,-9.3439],[46.2839,-9.3513]]],[[[56.2471,-7.1926],[56.2588,-7.1402],[56.2874,-7.11],[56.2471,-7.1926]]],[[[46.5098,-9.72],[46.5007,-9.7465],[46.4797,-9.7511],[46.487,-9.7302],[46.5098,-9.72]]]]}},{"type":"Feature","id":"Glacis","properties":{"id":"Glacis","iso_code":"SC-12","name":"Glacis","name_full":"Glacis","name_ja":"グラシ","center_lonlat":[55.4438,-4.5748]},"geometry":{"type":"Polygon","coordinates":[[[55.4327,-4.5869],[55.4337,-4.5625],[55.4639,-4.5714],[55.4407,-4.587],[55.4327,-4.5869]]]}},{"type":"Feature","id":"Grand'Anse Praslin","properties":{"id":"Grand'Anse Praslin","iso_code":"SC-13","name":"Grand'Anse Praslin","name_full":"Grand'Anse Praslin","name_ja":"グランド・アンセ・プラスリン","center_lonlat":[55.4723,-4.6795]},"geometry":{"type":"Polygon","coordinates":[[[55.478,-4.7064],[55.449,-4.6779],[55.4592,-4.6576],[55.4775,-4.6651],[55.4827,-4.6623],[55.4952,-4.6778],[55.478,-4.7064]]]}},{"type":"Feature","id":"Grand'Anse Praslin (SC-14)","properties":{"id":"Grand'Anse Praslin (SC-14)","iso_code":"SC-14","name":"Grand'Anse Praslin (SC-14)","name_full":"Grand'Anse Praslin","name_ja":"グランド・アンセ・プラスリン","center_lonlat":[55.722,-4.3291]},"geometry":{"type":"Polygon","coordinates":[[[55.768,-4.3503],[55.7468,-4.3581],[55.7176,-4.3301],[55.692,-4.3263],[55.6828,-4.2944],[55.768,-4.3503]]]}},{"type":"Feature","id":"La Digue","properties":{"id":"La Digue","iso_code":"SC-15","name":"La Digue","name_full":"La Digue","name_ja":"ラ・ディーグ島","center_lonlat":[55.2452,-4.4768]},"geometry":{"type":"MultiPolygon","coordinates":[[[[55.2603,-4.5001],[55.242,-4.504],[55.228,-4.4875],[55.2254,-4.4449],[55.2599,-4.463],[55.2692,-4.4802],[55.2603,-4.5001]]],[[[55.8318,-4.3375],[55.8571,-4.365],[55.8415,-4.3828],[55.8255,-4.372],[55.8318,-4.3375]]]]}},{"type":"Feature","id":"La Riviere Anglaise","properties":{"id":"La Riviere Anglaise","iso_code":"SC-16","name":"La Riviere Anglaise","name_full":"La Rivière Anglaise","name_ja":"ラ・リヴィエール・アングレーズ","center_lonlat":[55.4516,-4.6097]},"geometry":{"type":"Polygon","coordinates":[[[55.4599,-4.5985],[55.4588,-4.6181],[55.4473,-4.6208],[55.4407,-4.6045],[55.4599,-4.5985]]]}},{"type":"Feature","id":"Les Mamelles","properties":{"id":"Les Mamelles","iso_code":"SC-24","name":"Les Mamelles","name_full":"Les Mamelles","name_ja":"レス・マーメルズ","center_lonlat":[55.4807,-4.657]},"geometry":{"type":"Polygon","coordinates":[[[55.4775,-4.6651],[55.475,-4.6475],[55.4895,-4.6585],[55.4827,-4.6623],[55.4775,-4.6651]]]}},{"type":"Feature","id":"Mont Buxton","properties":{"id":"Mont Buxton","iso_code":"SC-17","name":"Mont Buxton","name_full":"Mont Buxton","name_ja":"モント・ブクソン","center_lonlat":[55.4422,-4.6135]},"geometry":{"type":"Polygon","coordinates":[[[55.4385,-4.6151],[55.4407,-4.6045],[55.4473,-4.6208],[55.4385,-4.6151]]]}},{"type":"Feature","id":"Mont Fleuri","properties":{"id":"Mont Fleuri","iso_code":"SC-18","name":"Mont Fleuri","name_full":"Mont Fleuri","name_ja":"モント・フレーリー","center_lonlat":[55.503,-4.6054]},"geometry":{"type":"Polygon","coordinates":[[[55.4979,-4.6008],[55.5144,-4.6006],[55.4968,-4.6147],[55.4979,-4.6008]]]}},{"type":"Feature","id":"Plaisance","properties":{"id":"Plaisance","iso_code":"SC-19","name":"Plaisance","name_full":"Plaisance","name_ja":"プライセンス","center_lonlat":[55.4698,-4.6535]},"geometry":{"type":"Polygon","coordinates":[[[55.4757,-4.6399],[55.475,-4.6475],[55.4775,-4.6651],[55.4592,-4.6576],[55.4645,-4.6471],[55.4757,-4.6399]]]}},{"type":"Feature","id":"Pointe La Rue","properties":{"id":"Pointe La Rue","iso_code":"SC-20","name":"Pointe La Rue","name_full":"Pointe La Rue","name_ja":"ポイント・ラ・ルエ","center_lonlat":[55.5162,-4.6746]},"geometry":{"type":"Polygon","coordinates":[[[55.5136,-4.6662],[55.5286,-4.6802],[55.5063,-4.6774],[55.5136,-4.6662]]]}},{"type":"Feature","id":"Port Glaud","properties":{"id":"Port Glaud","iso_code":"SC-21","name":"Port Glaud","name_full":"Port Glaud","name_ja":"ポート・グランド","center_lonlat":[55.4189,-4.6496]},"geometry":{"type":"Polygon","coordinates":[[[55.449,-4.6779],[55.3656,-4.6427],[55.3805,-4.6272],[55.4087,-4.6414],[55.4315,-4.6238],[55.435,-4.6304],[55.4592,-4.6576],[55.449,-4.6779]]]}},{"type":"Feature","id":"Roche Caiman","properties":{"id":"Roche Caiman","iso_code":"SC-25","name":"Roche Caiman","name_full":"Roche Caiman","name_ja":"ロッチェ・チャイマン","center_lonlat":[55.4832,-4.6493]},"geometry":{"type":"Polygon","coordinates":[[[55.4757,-4.6399],[55.492,-4.6514],[55.4895,-4.6585],[55.475,-4.6475],[55.4757,-4.6399]]]}},{"type":"Feature","id":"Saint Louis","properties":{"id":"Saint Louis","iso_code":"SC-22","name":"Saint Louis","name_full":"Saint Louis","name_ja":"セント・ローイス","center_lonlat":[55.4385,-4.6224]},"geometry":{"type":"Polygon","coordinates":[[[55.4315,-4.6238],[55.4385,-4.6151],[55.4473,-4.6208],[55.435,-4.6304],[55.4315,-4.6238]]]}},{"type":"Feature","id":"Takamaka","properties":{"id":"Takamaka","iso_code":"SC-23","name":"Takamaka","name_full":"Takamaka","name_ja":"タカマカ","center_lonlat":[55.5164,-4.7858]},"geometry":{"type":"Polygon","coordinates":[[[55.5257,-4.7701],[55.5379,-4.8038],[55.5042,-4.7958],[55.4932,-4.7766],[55.5097,-4.7713],[55.5257,-4.7701]]]}}]}
