{"type":"FeatureCollection","features":[{"type":"Feature","id":"Eastern","properties":{"id":"Eastern","iso_code":"SL-E","name":"Eastern","name_full":"Eastern","name_ja":"東部州","center_lonlat":[-10.9832,8.2383]},"geometry":{"type":"Polygon","coordinates":[[[-10.5922,9.0417],[-10.6119,8.9451],[-10.5997,8.8154],[-10.4819,8.6725],[-10.5033,8.6316],[-10.5654,8.6128],[-10.6319,8.532],[-10.6439,8.4869],[-10.6547,8.4855],[-10.6691,8.3991],[-10.7353,8.2873],[-10.7152,8.2696],[-10.7079,8.3031],[-10.6598,8.3333],[-10.6267,8.3315],[-10.5727,8.3046],[-10.5544,8.3118],[-10.4602,8.3922],[-10.4024,8.481],[-10.3376,8.4986],[-10.2822,8.4846],[-10.2829,8.4329],[-10.3313,8.2723],[-10.3209,8.1831],[-10.3846,8.1421],[-10.4857,8.1389],[-10.5292,8.1243],[-10.5672,8.0632],[-10.6162,8.0225],[-10.6152,7.769],[-10.6926,7.7376],[-10.8746,7.5309],[-10.9779,7.4849],[-11.1442,7.3452],[-11.2777,7.4033],[-11.356,7.4198],[-11.3613,7.553],[-11.3345,7.588],[-11.3571,7.6143],[-11.3878,7.6127],[-11.4579,7.5444],[-11.483,7.5482],[-11.4877,7.5605],[-11.5013,7.6593],[-11.5205,7.6807],[-11.4566,7.7215],[-11.4361,7.6995],[-11.4179,7.7147],[-11.4054,7.7631],[-11.4234,7.8131],[-11.4538,7.793],[-11.4442,7.8718],[-11.342,7.9601],[-11.3312,8.0019],[-11.3358,8.0777],[-11.3686,8.1959],[-11.529,8.3669],[-11.5354,8.4203],[-11.5697,8.466],[-11.5802,8.5081],[-11.5184,8.5464],[-11.4717,8.5392],[-11.4159,8.552],[-11.3649,8.5249],[-11.354,8.5296],[-11.3291,8.5911],[-11.3406,8.6226],[-11.326,8.6749],[-11.3396,8.7812],[-11.2942,8.8187],[-11.2567,8.9108],[-11.1747,8.941],[-11.129,8.9719],[-11.1108,9.0351],[-11.0866,9.0628],[-11.0623,9.0702],[-10.951,9.0546],[-10.8945,9.0004],[-10.8013,8.9444],[-10.6927,8.9526],[-10.6807,8.973],[-10.7088,9.0004],[-10.6485,9.039],[-10.5922,9.0417]]]}},{"type":"Feature","id":"Northern","properties":{"id":"Northern","iso_code":"SL-N","name":"Northern","name_full":"Northern","name_ja":"北部州","center_lonlat":[-11.9878,9.1375]},"geometry":{"type":"Polygon","coordinates":[[[-10.5922,9.0417],[-10.6485,9.039],[-10.7088,9.0004],[-10.6807,8.973],[-10.6927,8.9526],[-10.8013,8.9444],[-10.8945,9.0004],[-10.951,9.0546],[-11.0623,9.0702],[-11.0866,9.0628],[-11.1108,9.0351],[-11.129,8.9719],[-11.1747,8.941],[-11.2567,8.9108],[-11.2942,8.8187],[-11.3396,8.7812],[-11.326,8.6749],[-11.3406,8.6226],[-11.3291,8.5911],[-11.354,8.5296],[-11.3649,8.5249],[-11.4159,8.552],[-11.4717,8.5392],[-11.5184,8.5464],[-11.5802,8.5081],[-11.6027,8.4932],[-11.6742,8.4934],[-11.719,8.4791],[-11.7491,8.3976],[-11.8258,8.3514],[-11.8959,8.3464],[-11.9586,8.3693],[-12.0388,8.3584],[-12.0628,8.3225],[-12.0339,8.2722],[-12.0388,8.2455],[-12.0676,8.2526],[-12.0924,8.2903],[-12.2098,8.3463],[-12.2531,8.3482],[-12.2969,8.3329],[-12.358,8.3373],[-12.422,8.3013],[-12.4528,8.2646],[-12.4753,8.2829],[-12.5585,8.289],[-12.5721,8.3284],[-12.6306,8.3395],[-12.6502,8.3568],[-12.7158,8.3569],[-12.7525,8.344],[-12.7722,8.3658],[-12.8067,8.3739],[-12.8228,8.3702],[-12.9005,8.2745],[-12.9187,8.3375],[-13.0424,8.3754],[-13.0336,8.3835],[-13.0563,8.3912],[-13.0677,8.4109],[-13.0541,8.4177],[-13.111,8.4338],[-13.1256,8.449],[-13.1161,8.473],[-13.0615,8.5002],[-13.0399,8.5268],[-13.0267,8.5207],[-13.0131,8.5617],[-12.9072,8.548],[-12.8697,8.5692],[-12.9281,8.5722],[-12.9311,8.5828],[-12.8759,8.6852],[-12.9364,8.607],[-13.0181,8.6002],[-13.0618,8.5832],[-13.0888,8.6027],[-13.0663,8.6068],[-13.0267,8.6511],[-13.0541,8.6647],[-13.0819,8.6169],[-13.1304,8.6579],[-13.1484,8.6534],[-13.1577,8.671],[-13.1626,8.654],[-13.1229,8.6306],[-13.1366,8.6238],[-13.109,8.6033],[-13.1075,8.581],[-13.1434,8.5418],[-13.1441,8.5174],[-13.1624,8.5176],[-13.2412,8.6722],[-13.2402,8.8258],[-13.2009,8.8598],[-13.185,8.8435],[-12.9857,8.8571],[-13.027,8.8697],[-13.1304,8.8641],[-13.1398,8.8814],[-13.1577,8.8845],[-13.1426,8.9167],[-13.0751,8.9391],[-13.0925,8.9446],[-13.181,8.923],[-13.2257,8.9425],[-13.2328,8.9664],[-13.2402,8.9521],[-13.2549,8.9664],[-13.267,8.9521],[-13.2884,8.9695],[-13.285,9.017],[-13.3011,9.0415],[-13.2075,9.0767],[-13.1159,9.0439],[-13.0289,9.096],[-12.9842,9.1723],[-12.9592,9.1778],[-12.9784,9.2128],[-12.9579,9.2724],[-12.937,9.2871],[-12.9175,9.267],[-12.8358,9.282],[-12.7953,9.3351],[-12.7642,9.3477],[-12.7598,9.3828],[-12.7372,9.3972],[-12.7229,9.3921],[-12.7016,9.4202],[-12.6686,9.5424],[-12.6499,9.5521],[-12.6338,9.5979],[-12.6068,9.6007],[-12.6016,9.6517],[-12.5823,9.6834],[-12.5225,9.7345],[-12.5143,9.8513],[-12.427,9.8976],[-12.2536,9.9284],[-12.1936,9.8861],[-12.1413,9.8749],[-11.9218,9.9222],[-11.9101,9.9925],[-11.2727,9.996],[-11.1996,9.9822],[-11.1603,9.8728],[-11.0449,9.7871],[-11.0101,9.7427],[-10.9685,9.6542],[-10.9401,9.6397],[-10.9291,9.6057],[-10.8863,9.5684],[-10.8777,9.5327],[-10.8526,9.5121],[-10.8549,9.4553],[-10.8115,9.4083],[-10.8318,9.3921],[-10.7655,9.3852],[-10.6751,9.3065],[-10.6852,9.2245],[-10.7247,9.1945],[-10.7426,9.1633],[-10.7535,9.1201],[-10.7463,9.0838],[-10.6293,9.0704],[-10.606,9.0638],[-10.5922,9.0417]]]}},{"type":"Feature","id":"Southern","properties":{"id":"Southern","iso_code":"SL-S","name":"Southern","name_full":"Southern","name_ja":"南部州","center_lonlat":[-12.0049,7.7927]},"geometry":{"type":"MultiPolygon","coordinates":[[[[-11.1442,7.3452],[-11.2179,7.2541],[-11.3172,7.2136],[-11.3732,7.1388],[-11.3551,7.0841],[-11.3897,7.0735],[-11.3977,7.0128],[-11.4347,6.9808],[-11.4367,6.9385],[-11.4762,6.9194],[-11.588,6.9789],[-11.5675,6.9926],[-11.6221,6.9858],[-11.6312,7.0082],[-11.6982,7.067],[-11.8396,7.149],[-12.5066,7.3898],[-12.4762,7.4151],[-12.4396,7.4165],[-12.3695,7.3898],[-12.4172,7.4308],[-12.4465,7.4391],[-12.4643,7.4296],[-12.4892,7.4451],[-12.4708,7.4912],[-12.4283,7.5336],[-12.2951,7.5331],[-12.2322,7.5537],[-12.2384,7.568],[-12.1881,7.5831],[-12.1838,7.6027],[-12.2563,7.6052],[-12.2628,7.5906],[-12.2987,7.576],[-12.4036,7.5475],[-12.4411,7.5537],[-12.4637,7.562],[-12.493,7.6164],[-12.4855,7.6505],[-12.5004,7.6391],[-12.5196,7.6443],[-12.5196,7.6301],[-12.5439,7.6536],[-12.493,7.7399],[-12.4713,7.7263],[-12.465,7.7331],[-12.4718,7.76],[-12.452,7.7741],[-12.4722,7.7877],[-12.5196,7.7263],[-12.6019,7.6838],[-12.7114,7.712],[-12.7781,7.7558],[-12.7875,7.8046],[-12.7598,7.8218],[-12.8287,7.7983],[-12.8759,7.8287],[-12.8986,7.8657],[-12.9246,7.8749],[-12.9591,7.9112],[-12.8867,7.9385],[-12.8213,7.9174],[-12.8884,7.9753],[-12.9118,8.0307],[-12.8759,8.103],[-12.9081,8.1074],[-12.9448,8.1645],[-12.9811,8.1862],[-12.9762,8.2465],[-12.9005,8.2745],[-12.8228,8.3702],[-12.8067,8.3739],[-12.7722,8.3658],[-12.7525,8.344],[-12.7158,8.3569],[-12.6502,8.3568],[-12.6306,8.3395],[-12.5721,8.3284],[-12.5585,8.289],[-12.4753,8.2829],[-12.4528,8.2646],[-12.422,8.3013],[-12.358,8.3373],[-12.2969,8.3329],[-12.2531,8.3482],[-12.2098,8.3463],[-12.0924,8.2903],[-12.0676,8.2526],[-12.0388,8.2455],[-12.0339,8.2722],[-12.0628,8.3225],[-12.0388,8.3584],[-11.9586,8.3693],[-11.8959,8.3464],[-11.8258,8.3514],[-11.7491,8.3976],[-11.719,8.4791],[-11.6742,8.4934],[-11.6027,8.4932],[-11.5802,8.5081],[-11.5697,8.466],[-11.5354,8.4203],[-11.529,8.3669],[-11.3686,8.1959],[-11.3358,8.0777],[-11.3312,8.0019],[-11.342,7.9601],[-11.4442,7.8718],[-11.4538,7.793],[-11.4234,7.8131],[-11.4054,7.7631],[-11.4179,7.7147],[-11.4361,7.6995],[-11.4566,7.7215],[-11.5205,7.6807],[-11.5013,7.6593],[-11.4877,7.5605],[-11.483,7.5482],[-11.4579,7.5444],[-11.3878,7.6127],[-11.3571,7.6143],[-11.3345,7.588],[-11.3613,7.553],[-11.356,7.4198],[-11.2777,7.4033],[-11.1442,7.3452]]],[[[-12.493,7.568],[-12.5044,7.561],[-12.5018,7.5024],[-12.5264,7.4656],[-12.5196,7.4041],[-12.5497,7.3896],[-12.5658,7.3957],[-12.5749,7.4103],[-12.5544,7.4103],[-12.6055,7.4787],[-12.9517,7.5754],[-12.9143,7.5844],[-12.8833,7.6164],[-12.6214,7.6397],[-12.5811,7.6301],[-12.5959,7.6127],[-12.586,7.6076],[-12.5297,7.6038],[-12.493,7.568]]]]}},{"type":"Feature","id":"Western Area","properties":{"id":"Western Area","iso_code":"SL-W","name":"Western Area","name_full":"Western Area","name_ja":"西部地域","center_lonlat":[-13.1093,8.3375]},"geometry":{"type":"Polygon","coordinates":[[[-12.9762,8.2465],[-12.9721,8.2539],[-13.0904,8.2246],[-13.1639,8.1713],[-13.1639,8.2744],[-13.2868,8.4245],[-13.267,8.4627],[-13.2868,8.5002],[-13.2527,8.4975],[-13.2458,8.4866],[-13.193,8.4878],[-13.1444,8.4312],[-13.0604,8.3727],[-13.0424,8.3754],[-12.9187,8.3375],[-12.9005,8.2745],[-12.9762,8.2465]]]}}]}
