{"type":"FeatureCollection","features":[{"type":"Feature","id":"Central Singapore Community Development Council","properties":{"id":"Central Singapore Community Development Council","iso_code":"SG-01","name":"Central Singapore Community Development Council","name_full":"Central Singapore Community Development Council","name_ja":"シンガポール中央地区","center_lonlat":[103.8567,1.3473]},"geometry":{"type":"Polygon","coordinates":[[[103.8981,1.3052],[103.8469,1.2719],[103.8096,1.2938],[103.8064,1.3249],[103.8238,1.3404],[103.8245,1.3657],[103.8426,1.378],[103.8335,1.409],[103.8815,1.4266],[103.9094,1.4126],[103.8989,1.3864],[103.873,1.3631],[103.8981,1.3052]]]}},{"type":"Feature","id":"North East Community Development Council","properties":{"id":"North East Community Development Council","iso_code":"SG-02","name":"North East Community Development Council","name_full":"North East Community Development Council","name_ja":"北東地区","center_lonlat":[103.9292,1.3832]},"geometry":{"type":"Polygon","coordinates":[[[103.9094,1.4126],[103.9658,1.39],[103.9423,1.354],[103.906,1.3683],[103.8989,1.3864],[103.9094,1.4126]]]}},{"type":"Feature","id":"North West","properties":{"id":"North West","iso_code":"SG-03","name":"North West","name_full":"North West","name_ja":"ノース・ウェスト","center_lonlat":[103.8062,1.3972]},"geometry":{"type":"Polygon","coordinates":[[[103.7622,1.431],[103.8049,1.4486],[103.8815,1.4266],[103.8335,1.409],[103.8426,1.378],[103.8245,1.3657],[103.8238,1.3404],[103.8064,1.3249],[103.7824,1.343],[103.7876,1.3624],[103.7585,1.3903],[103.7622,1.431]]]}},{"type":"Feature","id":"South East Community Development Council","properties":{"id":"South East Community Development Council","iso_code":"SG-04","name":"South East Community Development Council","name_full":"South East Community Development Council","name_ja":"南東地区","center_lonlat":[103.9337,1.3477]},"geometry":{"type":"Polygon","coordinates":[[[103.9658,1.39],[103.9995,1.3803],[103.9919,1.3549],[103.9544,1.3181],[103.8981,1.3052],[103.873,1.3631],[103.8989,1.3864],[103.906,1.3683],[103.9423,1.354],[103.9658,1.39]]]}},{"type":"Feature","id":"South West Community Development Council","properties":{"id":"South West Community Development Council","iso_code":"SG-05","name":"South West Community Development Council","name_full":"South West Community Development Council","name_ja":"南西地区","center_lonlat":[103.7312,1.3477]},"geometry":{"type":"Polygon","coordinates":[[[103.8469,1.2719],[103.8016,1.2648],[103.7551,1.2971],[103.6476,1.3084],[103.6447,1.338],[103.6838,1.4099],[103.7083,1.4294],[103.7622,1.431],[103.7585,1.3903],[103.7876,1.3624],[103.7824,1.343],[103.8064,1.3249],[103.8096,1.2938],[103.8469,1.2719]]]}}]}
