{"type":"FeatureCollection","features":[{"type":"Feature","id":"Banska Bystrica","properties":{"id":"Banska Bystrica","iso_code":"SK-BC","name":"Banska Bystrica","name_full":"Banská Bystrica","name_ja":"バンスカー・ビストリツァ県","center_lonlat":[19.5056,48.5143]},"geometry":{"type":"Polygon","coordinates":[[[20.466,48.4638],[20.4206,48.4292],[20.3493,48.3055],[20.2952,48.2604],[20.2724,48.2525],[20.2291,48.2709],[20.1709,48.244],[20.1345,48.2467],[20.1053,48.2028],[19.9969,48.1679],[19.9286,48.1301],[19.8843,48.1296],[19.8217,48.1579],[19.7761,48.1495],[19.7667,48.159],[19.7743,48.1859],[19.7566,48.2003],[19.687,48.1969],[19.6232,48.227],[19.514,48.204],[19.4817,48.1113],[19.4282,48.0859],[19.2932,48.0878],[19.2225,48.0606],[19.019,48.0655],[19.0195,48.0908],[19.0665,48.1345],[19.0606,48.1651],[19.0712,48.1966],[19.0577,48.2068],[18.945,48.1761],[18.9323,48.1608],[18.8809,48.1603],[18.838,48.1758],[18.8135,48.1671],[18.8086,48.1895],[18.831,48.2056],[18.8141,48.2465],[18.8414,48.2697],[18.8548,48.3065],[18.8156,48.3663],[18.7548,48.4141],[18.709,48.3955],[18.6831,48.3611],[18.5757,48.3448],[18.5413,48.3199],[18.5312,48.3311],[18.5665,48.3634],[18.5712,48.3889],[18.5309,48.4545],[18.5439,48.4732],[18.5362,48.4997],[18.4887,48.5023],[18.5132,48.528],[18.4899,48.5492],[18.5012,48.5654],[18.5992,48.5736],[18.6058,48.5952],[18.6546,48.6397],[18.7216,48.6312],[18.7213,48.6461],[18.7714,48.6942],[18.7999,48.6991],[18.833,48.7442],[18.8881,48.7666],[18.8991,48.7529],[19.001,48.7469],[19.0207,48.7863],[18.9996,48.806],[19.0012,48.8454],[19.0392,48.8767],[19.26,48.8905],[19.2743,48.8655],[19.2645,48.8564],[19.3103,48.8598],[19.3936,48.9235],[19.5615,48.9424],[19.6374,48.9362],[19.7466,48.8999],[19.8081,48.9131],[19.9962,48.9066],[20.1401,48.8947],[20.1813,48.9048],[20.2727,48.8728],[20.25,48.8682],[20.1986,48.8158],[20.2013,48.7727],[20.1813,48.7557],[20.1844,48.7335],[20.261,48.6918],[20.2936,48.6161],[20.3472,48.601],[20.3035,48.5095],[20.3315,48.4631],[20.4267,48.4722],[20.466,48.4638]]]}},{"type":"Feature","id":"Bratislava","properties":{"id":"Bratislava","iso_code":"SK-BL","name":"Bratislava","name_full":"Bratislava","name_ja":"ブラチスラヴァ県","center_lonlat":[17.1844,48.3193]},"geometry":{"type":"Polygon","coordinates":[[[16.9491,48.5448],[17.0614,48.5593],[17.064,48.5683],[17.1367,48.5508],[17.2299,48.5735],[17.3349,48.6562],[17.3758,48.6348],[17.3677,48.5999],[17.3047,48.5453],[17.359,48.5094],[17.3256,48.4823],[17.3205,48.4595],[17.3973,48.4412],[17.3948,48.429],[17.4776,48.3599],[17.4584,48.3243],[17.5187,48.2837],[17.4853,48.2506],[17.4918,48.2367],[17.517,48.2297],[17.517,48.2109],[17.5322,48.1989],[17.5173,48.1767],[17.4426,48.1513],[17.405,48.1595],[17.4,48.1776],[17.3838,48.1697],[17.388,48.1409],[17.348,48.125],[17.3077,48.1276],[17.3126,48.1054],[17.3524,48.0925],[17.3052,48.0747],[17.3053,48.0565],[17.2679,48.0329],[17.2623,48.0073],[17.1848,48.0203],[17.1483,48.0054],[17.0697,48.0357],[17.0751,48.0521],[17.0591,48.0604],[17.0802,48.0976],[17.0475,48.131],[16.9819,48.1613],[16.9543,48.2731],[16.9166,48.2908],[16.8984,48.3162],[16.9019,48.3394],[16.8476,48.3596],[16.8649,48.4581],[16.9491,48.5448]]]}},{"type":"Feature","id":"Kosice","properties":{"id":"Kosice","iso_code":"SK-KI","name":"Kosice","name_full":"Košice","name_ja":"コシツェ県","center_lonlat":[21.2549,48.6937]},"geometry":{"type":"Polygon","coordinates":[[[22.3708,48.8582],[22.3634,48.7876],[22.3308,48.7564],[22.3103,48.6817],[22.2432,48.6512],[22.219,48.6209],[22.1387,48.5696],[22.1483,48.5088],[22.1338,48.4768],[22.1328,48.4048],[22.0965,48.3794],[21.9293,48.3729],[21.7894,48.3355],[21.7277,48.3409],[21.6776,48.3723],[21.6216,48.4297],[21.5917,48.493],[21.5218,48.5001],[21.4994,48.5351],[21.4246,48.5613],[21.3218,48.5476],[21.2618,48.5032],[21.2199,48.5187],[21.1093,48.4891],[21.036,48.5146],[20.9458,48.519],[20.7841,48.5691],[20.4817,48.5261],[20.4817,48.4787],[20.466,48.4638],[20.4267,48.4722],[20.3315,48.4631],[20.3035,48.5095],[20.3472,48.601],[20.2936,48.6161],[20.261,48.6918],[20.1844,48.7335],[20.1813,48.7557],[20.2013,48.7727],[20.1986,48.8158],[20.25,48.8682],[20.2727,48.8728],[20.306,48.9081],[20.3413,48.9245],[20.2992,48.9428],[20.3292,48.9673],[20.428,49.0034],[20.4851,48.9704],[20.4767,48.9863],[20.5067,48.9939],[20.5025,49.0049],[20.5178,49.0146],[20.5289,48.9972],[20.6136,48.97],[20.6339,48.9523],[20.6724,48.9575],[20.6888,48.976],[20.7732,48.9707],[20.7682,49.0005],[20.824,48.9872],[20.8357,48.9739],[20.8783,48.977],[20.9472,48.9512],[20.9826,48.9567],[21.0284,48.9047],[21.1378,48.8997],[21.1806,48.876],[21.2586,48.8701],[21.2428,48.8394],[21.2829,48.8132],[21.3111,48.814],[21.3075,48.831],[21.3736,48.8414],[21.382,48.8789],[21.4137,48.8727],[21.4216,48.8881],[21.4508,48.8713],[21.4801,48.8811],[21.5367,48.7938],[21.6879,48.7608],[21.796,48.7958],[21.7856,48.8953],[21.92,48.8738],[22.014,48.8386],[22.1201,48.8424],[22.1192,48.8773],[22.1839,48.9215],[22.2111,48.9217],[22.2317,48.9113],[22.2555,48.861],[22.3708,48.8582]]]}},{"type":"Feature","id":"Nitra","properties":{"id":"Nitra","iso_code":"SK-NI","name":"Nitra","name_full":"Nitra","name_ja":"ニトラ県","center_lonlat":[18.3122,48.1525]},"geometry":{"type":"Polygon","coordinates":[[[19.019,48.0655],[18.8385,48.04],[18.7942,47.9931],[18.7432,47.9711],[18.7548,47.9518],[18.7488,47.8707],[18.8165,47.8326],[18.7677,47.8223],[18.6928,47.778],[18.5526,47.7928],[18.3479,47.7768],[18.2359,47.7539],[18.1126,47.7625],[17.8257,47.75],[17.7192,47.7737],[17.7404,47.8136],[17.7978,47.8309],[17.8096,47.8679],[17.8936,47.9194],[17.8799,47.9651],[17.8798,48.0528],[17.8481,48.0637],[17.8459,48.0805],[17.8069,48.0806],[17.814,48.1121],[17.7642,48.1549],[17.8211,48.16],[17.8113,48.1967],[17.8428,48.1874],[17.8802,48.2064],[17.8818,48.223],[17.8529,48.2511],[17.8702,48.2828],[17.8416,48.3035],[17.8593,48.3519],[17.9683,48.4642],[17.8512,48.5229],[17.9055,48.5957],[17.939,48.5891],[17.9904,48.604],[17.9881,48.6161],[18.0265,48.6394],[18.0033,48.7084],[18.0362,48.7152],[18.0449,48.7021],[18.1243,48.6886],[18.1705,48.6478],[18.2425,48.621],[18.2511,48.606],[18.23,48.5674],[18.2917,48.5366],[18.3126,48.5002],[18.3687,48.4923],[18.4899,48.5492],[18.5132,48.528],[18.4887,48.5023],[18.5362,48.4997],[18.5439,48.4732],[18.5309,48.4545],[18.5712,48.3889],[18.5665,48.3634],[18.5312,48.3311],[18.5413,48.3199],[18.5757,48.3448],[18.6831,48.3611],[18.709,48.3955],[18.7548,48.4141],[18.8156,48.3663],[18.8548,48.3065],[18.8414,48.2697],[18.8141,48.2465],[18.831,48.2056],[18.8086,48.1895],[18.8135,48.1671],[18.838,48.1758],[18.8809,48.1603],[18.9323,48.1608],[18.945,48.1761],[19.0577,48.2068],[19.0712,48.1966],[19.0606,48.1651],[19.0665,48.1345],[19.0195,48.0908],[19.019,48.0655]]]}},{"type":"Feature","id":"Presov","properties":{"id":"Presov","iso_code":"SK-PV","name":"Presov","name_full":"Prešov","name_ja":"プレショウ県","center_lonlat":[21.214,49.1175]},"geometry":{"type":"Polygon","coordinates":[[[22.3708,48.8582],[22.2555,48.861],[22.2317,48.9113],[22.2111,48.9217],[22.1839,48.9215],[22.1192,48.8773],[22.1201,48.8424],[22.014,48.8386],[21.92,48.8738],[21.7856,48.8953],[21.796,48.7958],[21.6879,48.7608],[21.5367,48.7938],[21.4801,48.8811],[21.4508,48.8713],[21.4216,48.8881],[21.4137,48.8727],[21.382,48.8789],[21.3736,48.8414],[21.3075,48.831],[21.3111,48.814],[21.2829,48.8132],[21.2428,48.8394],[21.2586,48.8701],[21.1806,48.876],[21.1378,48.8997],[21.0284,48.9047],[20.9826,48.9567],[20.9472,48.9512],[20.8783,48.977],[20.8357,48.9739],[20.824,48.9872],[20.7682,49.0005],[20.7732,48.9707],[20.6888,48.976],[20.6724,48.9575],[20.6339,48.9523],[20.6136,48.97],[20.5289,48.9972],[20.5178,49.0146],[20.5025,49.0049],[20.5067,48.9939],[20.4767,48.9863],[20.4851,48.9704],[20.428,49.0034],[20.3292,48.9673],[20.2992,48.9428],[20.3413,48.9245],[20.306,48.9081],[20.2727,48.8728],[20.1813,48.9048],[20.1401,48.8947],[19.9962,48.9066],[20.0541,48.9337],[20.0326,48.9408],[20.0196,48.9707],[19.9736,49.0123],[20.0118,49.0214],[20.0264,49.1111],[19.976,49.1074],[19.9343,49.1374],[19.9055,49.1326],[19.8683,49.2008],[19.9059,49.2228],[19.9379,49.2251],[20.0505,49.1732],[20.07,49.1831],[20.086,49.243],[20.1359,49.3089],[20.1604,49.3056],[20.2072,49.3342],[20.2844,49.3386],[20.3177,49.3916],[20.4221,49.383],[20.4219,49.4002],[20.4375,49.4025],[20.544,49.3708],[20.6053,49.4],[20.6895,49.4005],[20.7783,49.3312],[20.8493,49.3205],[20.919,49.2903],[20.964,49.3081],[21.0172,49.3524],[21.0725,49.3572],[21.0807,49.3663],[21.0685,49.3814],[21.0333,49.3997],[21.0688,49.4192],[21.1249,49.4237],[21.1726,49.3983],[21.1941,49.4006],[21.2605,49.4494],[21.4279,49.4098],[21.6012,49.4265],[21.6588,49.4025],[21.6917,49.4022],[21.7576,49.3489],[21.8196,49.3772],[21.9284,49.3308],[21.9932,49.2782],[22.0124,49.2111],[22.0408,49.1975],[22.198,49.172],[22.2159,49.14],[22.3394,49.1265],[22.3901,49.093],[22.5396,49.0722],[22.5205,48.9929],[22.449,48.9714],[22.4118,48.8878],[22.3708,48.8582]]]}},{"type":"Feature","id":"Trencin","properties":{"id":"Trencin","iso_code":"SK-TC","name":"Trencin","name_full":"Trenčín","name_ja":"トレンチーン県","center_lonlat":[18.2215,48.8621]},"geometry":{"type":"Polygon","coordinates":[[[18.3616,49.3302],[18.3842,49.3218],[18.4709,49.2],[18.5662,49.1568],[18.5911,49.1147],[18.5605,49.0925],[18.604,49.0705],[18.6005,49.0297],[18.5707,49.0015],[18.4706,48.9563],[18.4763,48.9482],[18.5282,48.9392],[18.5808,48.9715],[18.5937,48.96],[18.6357,48.9661],[18.7059,48.9538],[18.7259,48.9366],[18.7031,48.9148],[18.7061,48.8538],[18.7822,48.8126],[18.7866,48.7919],[18.833,48.7442],[18.7999,48.6991],[18.7714,48.6942],[18.7213,48.6461],[18.7216,48.6312],[18.6546,48.6397],[18.6058,48.5952],[18.5992,48.5736],[18.5012,48.5654],[18.4899,48.5492],[18.3687,48.4923],[18.3126,48.5002],[18.2917,48.5366],[18.23,48.5674],[18.2511,48.606],[18.2425,48.621],[18.1705,48.6478],[18.1243,48.6886],[18.0449,48.7021],[18.0362,48.7152],[18.0033,48.7084],[18.0265,48.6394],[17.9881,48.6161],[17.8538,48.6379],[17.827,48.6566],[17.7671,48.6495],[17.71,48.6837],[17.6498,48.6665],[17.6268,48.6722],[17.6192,48.6485],[17.5677,48.6469],[17.5336,48.6283],[17.4711,48.7031],[17.4886,48.7369],[17.4721,48.7571],[17.422,48.7886],[17.3945,48.7728],[17.3573,48.7803],[17.4112,48.8302],[17.4533,48.8428],[17.4985,48.8168],[17.5351,48.813],[17.7272,48.8629],[17.7955,48.9206],[17.8603,48.9217],[17.8787,48.9336],[17.9141,49.0105],[18.0461,49.0292],[18.0963,49.0703],[18.1051,49.1698],[18.1606,49.2587],[18.3616,49.3302]]]}},{"type":"Feature","id":"Trnava","properties":{"id":"Trnava","iso_code":"SK-TA","name":"Trnava","name_full":"Trnava","name_ja":"トルナヴァ県","center_lonlat":[17.5407,48.3565]},"geometry":{"type":"Polygon","coordinates":[[[16.9491,48.5448],[16.9475,48.6232],[16.9748,48.6499],[17.0253,48.7463],[17.0987,48.8058],[17.1137,48.8339],[17.2122,48.8661],[17.3744,48.8196],[17.4112,48.8302],[17.3573,48.7803],[17.3945,48.7728],[17.422,48.7886],[17.4721,48.7571],[17.4886,48.7369],[17.4711,48.7031],[17.5336,48.6283],[17.5677,48.6469],[17.6192,48.6485],[17.6268,48.6722],[17.6498,48.6665],[17.71,48.6837],[17.7671,48.6495],[17.827,48.6566],[17.8538,48.6379],[17.9881,48.6161],[17.9904,48.604],[17.939,48.5891],[17.9055,48.5957],[17.8512,48.5229],[17.9683,48.4642],[17.8593,48.3519],[17.8416,48.3035],[17.8702,48.2828],[17.8529,48.2511],[17.8818,48.223],[17.8802,48.2064],[17.8428,48.1874],[17.8113,48.1967],[17.8211,48.16],[17.7642,48.1549],[17.814,48.1121],[17.8069,48.0806],[17.8459,48.0805],[17.8481,48.0637],[17.8798,48.0528],[17.8799,47.9651],[17.8936,47.9194],[17.8096,47.8679],[17.7978,47.8309],[17.7404,47.8136],[17.7192,47.7737],[17.6191,47.8292],[17.5726,47.8295],[17.5266,47.8721],[17.4819,47.8827],[17.3379,47.9987],[17.2623,48.0073],[17.2679,48.0329],[17.3053,48.0565],[17.3052,48.0747],[17.3524,48.0925],[17.3126,48.1054],[17.3077,48.1276],[17.348,48.125],[17.388,48.1409],[17.3838,48.1697],[17.4,48.1776],[17.405,48.1595],[17.4426,48.1513],[17.5173,48.1767],[17.5322,48.1989],[17.517,48.2109],[17.517,48.2297],[17.4918,48.2367],[17.4853,48.2506],[17.5187,48.2837],[17.4584,48.3243],[17.4776,48.3599],[17.3948,48.429],[17.3973,48.4412],[17.3205,48.4595],[17.3256,48.4823],[17.359,48.5094],[17.3047,48.5453],[17.3677,48.5999],[17.3758,48.6348],[17.3349,48.6562],[17.2299,48.5735],[17.1367,48.5508],[17.064,48.5683],[17.0614,48.5593],[16.9491,48.5448]]]}},{"type":"Feature","id":"Zilina","properties":{"id":"Zilina","iso_code":"SK-ZI","name":"Zilina","name_full":"Žilina","name_ja":"ジリナ県","center_lonlat":[19.1749,49.1722]},"geometry":{"type":"Polygon","coordinates":[[[19.8683,49.2008],[19.9055,49.1326],[19.9343,49.1374],[19.976,49.1074],[20.0264,49.1111],[20.0118,49.0214],[19.9736,49.0123],[20.0196,48.9707],[20.0326,48.9408],[20.0541,48.9337],[19.9962,48.9066],[19.8081,48.9131],[19.7466,48.8999],[19.6374,48.9362],[19.5615,48.9424],[19.3936,48.9235],[19.3103,48.8598],[19.2645,48.8564],[19.2743,48.8655],[19.26,48.8905],[19.0392,48.8767],[19.0012,48.8454],[18.9996,48.806],[19.0207,48.7863],[19.001,48.7469],[18.8991,48.7529],[18.8881,48.7666],[18.833,48.7442],[18.7866,48.7919],[18.7822,48.8126],[18.7061,48.8538],[18.7031,48.9148],[18.7259,48.9366],[18.7059,48.9538],[18.6357,48.9661],[18.5937,48.96],[18.5808,48.9715],[18.5282,48.9392],[18.4763,48.9482],[18.4706,48.9563],[18.5707,49.0015],[18.6005,49.0297],[18.604,49.0705],[18.5605,49.0925],[18.5911,49.1147],[18.5662,49.1568],[18.4709,49.2],[18.3842,49.3218],[18.3616,49.3302],[18.3852,49.3423],[18.3876,49.3898],[18.4392,49.3951],[18.5229,49.4461],[18.5356,49.4817],[18.5562,49.4902],[18.6359,49.4967],[18.7325,49.4803],[18.7923,49.5095],[18.9322,49.5043],[18.9611,49.4928],[18.9524,49.4759],[18.9623,49.3892],[19.0071,49.3881],[19.0676,49.4061],[19.1063,49.3914],[19.1417,49.3942],[19.1725,49.4023],[19.1894,49.4422],[19.209,49.445],[19.2044,49.4605],[19.2341,49.5072],[19.3395,49.5288],[19.4434,49.6018],[19.5052,49.5634],[19.5568,49.4539],[19.6348,49.4413],[19.627,49.4019],[19.7063,49.3875],[19.7693,49.3931],[19.7895,49.3092],[19.7797,49.2934],[19.8086,49.2709],[19.7478,49.2059],[19.7859,49.1882],[19.832,49.1859],[19.8683,49.2008]]]}}]}
