{"type":"FeatureCollection","features":[{"type":"Feature","id":"Ajdovscina","properties":{"id":"Ajdovscina","iso_code":"SI-001","name":"Ajdovscina","name_full":"Ajdovščina","name_ja":"アイドフシュチナ","center_lonlat":[13.8981,45.9]},"geometry":{"type":"Polygon","coordinates":[[[14.1209,45.8787],[14.126,45.8688],[14.046,45.8369],[14.0051,45.873],[13.9734,45.8772],[13.8859,45.8287],[13.834,45.8355],[13.7328,45.9059],[13.844,45.9837],[13.8523,46.002],[13.8732,45.9802],[14.0428,45.8902],[14.1209,45.8787]]]}},{"type":"Feature","id":"Apace","properties":{"id":"Apace","iso_code":"SI-195","name":"Apace","name_full":"Apače","name_ja":"アパチェ","center_lonlat":[15.8801,46.6942]},"geometry":{"type":"Polygon","coordinates":[[[15.9676,46.6946],[15.9321,46.6652],[15.8886,46.6628],[15.8043,46.6998],[15.7846,46.7122],[15.8507,46.7245],[15.9676,46.6946]]]}},{"type":"Feature","id":"Beltinci","properties":{"id":"Beltinci","iso_code":"SI-002","name":"Beltinci","name_full":"Beltinci","name_ja":"ベルティンツィ","center_lonlat":[16.2414,46.6108]},"geometry":{"type":"Polygon","coordinates":[[[16.1608,46.6059],[16.2408,46.6536],[16.2979,46.6479],[16.2832,46.6277],[16.2982,46.6179],[16.3005,46.5973],[16.2663,46.5929],[16.266,46.5691],[16.2475,46.5539],[16.2168,46.5841],[16.1608,46.6059]]]}},{"type":"Feature","id":"Benedikt","properties":{"id":"Benedikt","iso_code":"SI-148","name":"Benedikt","name_full":"Benedikt","name_ja":"ベネディクト","center_lonlat":[15.8988,46.6152]},"geometry":{"type":"Polygon","coordinates":[[[15.8628,46.611],[15.8881,46.6459],[15.9311,46.6383],[15.9133,46.6241],[15.9333,46.5964],[15.8982,46.5843],[15.8628,46.611]]]}},{"type":"Feature","id":"Bistrica ob Sotli","properties":{"id":"Bistrica ob Sotli","iso_code":"SI-149","name":"Bistrica ob Sotli","name_full":"Bistrica ob Sotli","name_ja":"ビストリツァ・オプ・ソトリ","center_lonlat":[15.5834,46.1445]},"geometry":{"type":"Polygon","coordinates":[[[15.6266,46.1952],[15.59,46.1387],[15.5899,46.1135],[15.6236,46.0764],[15.6076,46.0659],[15.5846,46.1086],[15.536,46.1304],[15.5455,46.1552],[15.6133,46.2043],[15.6266,46.1952]]]}},{"type":"Feature","id":"Bled","properties":{"id":"Bled","iso_code":"SI-003","name":"Bled","name_full":"Bled","name_ja":"ブレッド","center_lonlat":[14.0229,46.376]},"geometry":{"type":"Polygon","coordinates":[[[13.8479,46.3812],[13.9924,46.4448],[14.0966,46.4046],[14.1279,46.4068],[14.1209,46.3927],[14.1375,46.3722],[14.1508,46.3468],[14.1111,46.3067],[14.1016,46.2989],[14.0867,46.316],[14.0436,46.3152],[13.9832,46.3477],[13.8479,46.3812]]]}},{"type":"Feature","id":"Bloke","properties":{"id":"Bloke","iso_code":"SI-150","name":"Bloke","name_full":"Bloke","name_ja":"ブロケ","center_lonlat":[14.5126,45.7813]},"geometry":{"type":"Polygon","coordinates":[[[14.5051,45.8408],[14.5642,45.7901],[14.5533,45.7813],[14.5761,45.7353],[14.5375,45.7344],[14.5082,45.7311],[14.4784,45.7479],[14.4902,45.7596],[14.4422,45.8005],[14.5051,45.8408]]]}},{"type":"Feature","id":"Bohinj","properties":{"id":"Bohinj","iso_code":"SI-004","name":"Bohinj","name_full":"Bohinj","name_ja":"ボーヒニ","center_lonlat":[13.9195,46.2984]},"geometry":{"type":"Polygon","coordinates":[[[14.1791,46.2842],[14.1665,46.2813],[14.1106,46.2813],[14.0853,46.2439],[14.0291,46.2501],[13.997,46.2393],[13.8657,46.2317],[13.7708,46.262],[13.7367,46.2861],[13.7274,46.3017],[13.7495,46.3353],[13.8417,46.3822],[13.8479,46.3812],[13.9832,46.3477],[14.0436,46.3152],[14.0867,46.316],[14.1016,46.2989],[14.1111,46.3067],[14.1716,46.305],[14.1791,46.2842]]]}},{"type":"Feature","id":"Borovnica","properties":{"id":"Borovnica","iso_code":"SI-005","name":"Borovnica","name_full":"Borovnica","name_ja":"ボロヴニツァ","center_lonlat":[14.3775,45.915]},"geometry":{"type":"Polygon","coordinates":[[[14.3763,45.8715],[14.3344,45.9344],[14.3378,45.9548],[14.3656,45.9655],[14.4148,45.9226],[14.407,45.8916],[14.4175,45.8709],[14.3931,45.8604],[14.3763,45.8715]]]}},{"type":"Feature","id":"Bovec","properties":{"id":"Bovec","iso_code":"SI-006","name":"Bovec","name_full":"Bovec","name_ja":"ボヴェツ","center_lonlat":[13.6248,46.3624]},"geometry":{"type":"Polygon","coordinates":[[[13.6859,46.464],[13.687,46.4317],[13.7674,46.4331],[13.8113,46.413],[13.8417,46.3822],[13.7495,46.3353],[13.7274,46.3017],[13.5501,46.302],[13.5152,46.2772],[13.3956,46.3067],[13.4341,46.3539],[13.53,46.3883],[13.6002,46.4426],[13.6588,46.4451],[13.6859,46.464]]]}},{"type":"Feature","id":"Braslovce","properties":{"id":"Braslovce","iso_code":"SI-151","name":"Braslovce","name_full":"Braslovče","name_ja":"ブラスロフチェ","center_lonlat":[15.0294,46.2825]},"geometry":{"type":"Polygon","coordinates":[[[15.01,46.258],[14.9703,46.2838],[14.9706,46.3029],[15.0084,46.3372],[15.0513,46.3073],[15.095,46.2577],[15.0511,46.2261],[15.0305,46.2533],[15.01,46.258]]]}},{"type":"Feature","id":"Brda","properties":{"id":"Brda","iso_code":"SI-007","name":"Brda","name_full":"Brda","name_ja":"ブルダ","center_lonlat":[13.5366,46.014]},"geometry":{"type":"Polygon","coordinates":[[[13.5226,46.0753],[13.604,46.0129],[13.6262,45.9966],[13.6007,45.9846],[13.5094,45.9674],[13.4618,46.0064],[13.49,46.0256],[13.4823,46.0448],[13.5226,46.0753]]]}},{"type":"Feature","id":"Brezice","properties":{"id":"Brezice","iso_code":"SI-009","name":"Brezice","name_full":"Brežice","name_ja":"ブレージツェ","center_lonlat":[15.6119,45.9115]},"geometry":{"type":"Polygon","coordinates":[[[15.6929,46.0416],[15.6742,45.9932],[15.6756,45.9252],[15.6594,45.8888],[15.6761,45.8417],[15.6261,45.8202],[15.5497,45.8237],[15.5101,45.8822],[15.5669,45.9201],[15.5837,45.994],[15.6678,46.0264],[15.6929,46.0416]]]}},{"type":"Feature","id":"Brezovica","properties":{"id":"Brezovica","iso_code":"SI-008","name":"Brezovica","name_full":"Brezovica","name_ja":"ブレゾヴィツァ","center_lonlat":[14.4243,45.9486]},"geometry":{"type":"Polygon","coordinates":[[[14.4289,46.029],[14.4578,46.0054],[14.436,45.9868],[14.4451,45.9741],[14.4669,45.906],[14.4902,45.8809],[14.4422,45.8635],[14.4175,45.8709],[14.407,45.8916],[14.4148,45.9226],[14.3656,45.9655],[14.3722,45.9939],[14.3974,46.0109],[14.3853,46.0322],[14.4289,46.029]]]}},{"type":"Feature","id":"Cankova","properties":{"id":"Cankova","iso_code":"SI-152","name":"Cankova","name_full":"Cankova","name_ja":"ツァンコヴァ","center_lonlat":[16.044,46.7035]},"geometry":{"type":"Polygon","coordinates":[[[16.0167,46.6707],[16.0146,46.6937],[15.9705,46.743],[15.971,46.7751],[16.0555,46.756],[16.0591,46.7092],[16.1083,46.6904],[16.1044,46.6716],[16.123,46.6439],[16.1103,46.6239],[16.0417,46.6627],[16.0167,46.6707]]]}},{"type":"Feature","id":"Celje","properties":{"id":"Celje","iso_code":"SI-011","name":"Celje","name_full":"Celje","name_ja":"ツェリエ","center_lonlat":[15.2717,46.247]},"geometry":{"type":"Polygon","coordinates":[[[15.2261,46.3174],[15.2401,46.3205],[15.3016,46.2739],[15.3585,46.2605],[15.3394,46.229],[15.3082,46.2183],[15.3014,46.1889],[15.2164,46.1982],[15.2261,46.3174]]]}},{"type":"Feature","id":"Cerklje na Gorenjskem","properties":{"id":"Cerklje na Gorenjskem","iso_code":"SI-012","name":"Cerklje na Gorenjskem","name_full":"Cerklje na Gorenjskem","name_ja":"ツェルクニェ・ナ・ゴレニスケム","center_lonlat":[14.5024,46.2564]},"geometry":{"type":"Polygon","coordinates":[[[14.4672,46.2916],[14.544,46.312],[14.5699,46.2615],[14.5525,46.2432],[14.5007,46.2029],[14.4629,46.2061],[14.4445,46.2232],[14.4422,46.2552],[14.4672,46.2916]]]}},{"type":"Feature","id":"Cerknica","properties":{"id":"Cerknica","iso_code":"SI-013","name":"Cerknica","name_full":"Cerknica","name_ja":"ツェルクニツァ","center_lonlat":[14.3788,45.8039]},"geometry":{"type":"Polygon","coordinates":[[[14.4902,45.8809],[14.5051,45.8408],[14.4422,45.8005],[14.4902,45.7596],[14.4784,45.7479],[14.3862,45.7075],[14.3277,45.7398],[14.3232,45.7541],[14.2875,45.7629],[14.2583,45.7906],[14.2765,45.8461],[14.2992,45.8857],[14.3763,45.8715],[14.3931,45.8604],[14.4175,45.8709],[14.4422,45.8635],[14.4902,45.8809]]]}},{"type":"Feature","id":"Cerkno","properties":{"id":"Cerkno","iso_code":"SI-014","name":"Cerkno","name_full":"Cerkno","name_ja":"ツェルクノ","center_lonlat":[13.9714,46.1264]},"geometry":{"type":"Polygon","coordinates":[[[14.0737,46.1581],[14.0278,46.1016],[14.0301,46.0732],[14.0091,46.0646],[13.9601,46.0873],[13.9235,46.0613],[13.8949,46.0677],[13.9078,46.0764],[13.8861,46.1345],[13.8935,46.1542],[13.9893,46.1946],[13.9936,46.1781],[14.0737,46.1581]]]}},{"type":"Feature","id":"Cerkvenjak","properties":{"id":"Cerkvenjak","iso_code":"SI-153","name":"Cerkvenjak","name_full":"Cerkvenjak","name_ja":"ツェルクヴェニャク","center_lonlat":[15.9527,46.5597]},"geometry":{"type":"Polygon","coordinates":[[[15.9285,46.5419],[15.9196,46.5653],[15.9559,46.5882],[15.9783,46.586],[15.9685,46.5662],[15.9867,46.5467],[15.9592,46.5334],[15.9285,46.5419]]]}},{"type":"Feature","id":"Crensovci","properties":{"id":"Crensovci","iso_code":"SI-015","name":"Crensovci","name_full":"Črenšovci","name_ja":"チュレンショフツィ","center_lonlat":[16.2995,46.5619]},"geometry":{"type":"Polygon","coordinates":[[[16.3403,46.5438],[16.3107,46.531],[16.2475,46.5539],[16.266,46.5691],[16.3005,46.5973],[16.3285,46.5838],[16.3345,46.5565],[16.3286,46.5487],[16.3403,46.5438]]]}},{"type":"Feature","id":"Crna na Koroskem","properties":{"id":"Crna na Koroskem","iso_code":"SI-016","name":"Crna na Koroskem","name_full":"Črna na Koroškem","name_ja":"チュルナ・ナ・コロシュケム","center_lonlat":[14.8295,46.4668]},"geometry":{"type":"Polygon","coordinates":[[[14.7967,46.5194],[14.8734,46.4973],[14.8995,46.5044],[14.924,46.5048],[14.9656,46.4895],[14.9563,46.4599],[14.9559,46.4472],[14.8917,46.4235],[14.8041,46.4251],[14.7757,46.4319],[14.7546,46.4215],[14.7221,46.448],[14.6725,46.4598],[14.7097,46.4925],[14.7609,46.4963],[14.7967,46.5194]]]}},{"type":"Feature","id":"Crnomelj","properties":{"id":"Crnomelj","iso_code":"SI-017","name":"Crnomelj","name_full":"Črnomelj","name_ja":"チュルノメリ","center_lonlat":[15.1971,45.5154]},"geometry":{"type":"Polygon","coordinates":[[[15.2822,45.5715],[15.311,45.5059],[15.3614,45.482],[15.3252,45.4528],[15.1842,45.4256],[15.1393,45.43],[15.0661,45.4739],[15.0867,45.4992],[15.1213,45.5116],[15.0698,45.5229],[15.0818,45.5424],[15.1006,45.5461],[15.0736,45.6019],[15.1332,45.5963],[15.174,45.6174],[15.225,45.6083],[15.2822,45.5715]]]}},{"type":"Feature","id":"Destrnik","properties":{"id":"Destrnik","iso_code":"SI-018","name":"Destrnik","name_full":"Destrnik","name_ja":"デストルニク","center_lonlat":[15.8899,46.485]},"geometry":{"type":"Polygon","coordinates":[[[15.8234,46.4949],[15.8545,46.5063],[15.9286,46.5041],[15.9472,46.4872],[15.9443,46.4805],[15.8929,46.4523],[15.8234,46.4949]]]}},{"type":"Feature","id":"Divaca","properties":{"id":"Divaca","iso_code":"SI-019","name":"Divaca","name_full":"Divača","name_ja":"ディヴァーチャ","center_lonlat":[14.0167,45.684]},"geometry":{"type":"Polygon","coordinates":[[[14.0372,45.761],[14.0721,45.7434],[14.0934,45.7143],[14.0625,45.6865],[14.0799,45.6279],[14.0906,45.6242],[14.0898,45.6141],[14.0397,45.6024],[13.9384,45.6426],[13.9365,45.6704],[13.9679,45.7053],[13.9567,45.74],[13.9899,45.765],[14.0372,45.761]]]}},{"type":"Feature","id":"Dobje","properties":{"id":"Dobje","iso_code":"SI-154","name":"Dobje","name_full":"Dobje","name_ja":"ドビェ","center_lonlat":[15.4025,46.131]},"geometry":{"type":"Polygon","coordinates":[[[15.3827,46.1082],[15.3709,46.1357],[15.4071,46.1527],[15.4403,46.1286],[15.4356,46.1181],[15.4201,46.1257],[15.3827,46.1082]]]}},{"type":"Feature","id":"Dobrepolje","properties":{"id":"Dobrepolje","iso_code":"SI-020","name":"Dobrepolje","name_full":"Dobrepolje","name_ja":"ドブレポリェ","center_lonlat":[14.7295,45.8276]},"geometry":{"type":"Polygon","coordinates":[[[14.7518,45.8833],[14.7681,45.8668],[14.7588,45.8374],[14.8046,45.7975],[14.8137,45.7577],[14.7959,45.7431],[14.6877,45.818],[14.6388,45.8493],[14.6402,45.8748],[14.6717,45.8901],[14.7231,45.8764],[14.7518,45.8833]]]}},{"type":"Feature","id":"Dobrna","properties":{"id":"Dobrna","iso_code":"SI-155","name":"Dobrna","name_full":"Dobrna","name_ja":"ドブラナ","center_lonlat":[15.2285,46.3562]},"geometry":{"type":"Polygon","coordinates":[[[15.2677,46.365],[15.2592,46.3356],[15.2401,46.3205],[15.2261,46.3174],[15.1965,46.3277],[15.2063,46.3457],[15.1903,46.3884],[15.2325,46.3925],[15.2677,46.365]]]}},{"type":"Feature","id":"Dobrova–Polhov Gradec","properties":{"id":"Dobrova–Polhov Gradec","iso_code":"SI-021","name":"Dobrova–Polhov Gradec","name_full":"Dobrova–Polhov Gradec","name_ja":"ドブロヴァ＝ポルホフ・グラデツ","center_lonlat":[14.3086,46.0609]},"geometry":{"type":"Polygon","coordinates":[[[14.4289,46.029],[14.3853,46.0322],[14.342,46.014],[14.3371,46.0376],[14.2824,46.0456],[14.2526,46.0397],[14.2441,46.0202],[14.1904,46.0247],[14.1868,46.0379],[14.2068,46.0601],[14.2112,46.0881],[14.2673,46.1065],[14.325,46.0983],[14.3504,46.0834],[14.4086,46.0829],[14.4399,46.0502],[14.4289,46.029]]]}},{"type":"Feature","id":"Dobrovnik","properties":{"id":"Dobrovnik","iso_code":"SI-156","name":"Dobrovnik","name_full":"Dobrovnik","name_ja":"ドブロヴニク","center_lonlat":[16.352,46.6543]},"geometry":{"type":"Polygon","coordinates":[[[16.4026,46.6631],[16.3776,46.6529],[16.3722,46.6363],[16.3479,46.6153],[16.3144,46.6451],[16.3342,46.6838],[16.3562,46.6847],[16.4026,46.6631]]]}},{"type":"Feature","id":"Dol pri Ljubljani","properties":{"id":"Dol pri Ljubljani","iso_code":"SI-022","name":"Dol pri Ljubljani","name_full":"Dol pri Ljubljani","name_ja":"ドル・プリ・リュブリャニ","center_lonlat":[14.6752,46.0952]},"geometry":{"type":"Polygon","coordinates":[[[14.754,46.1002],[14.7124,46.0793],[14.6331,46.0769],[14.5943,46.0966],[14.6872,46.1173],[14.754,46.1002]]]}},{"type":"Feature","id":"Dolenjske Toplice","properties":{"id":"Dolenjske Toplice","iso_code":"SI-157","name":"Dolenjske Toplice","name_full":"Dolenjske Toplice","name_ja":"ドレーニスケ・トプリーツェ","center_lonlat":[15.0396,45.7186]},"geometry":{"type":"Polygon","coordinates":[[[15.0581,45.7811],[15.1241,45.7068],[15.1028,45.6844],[15.0637,45.6756],[15.0376,45.6313],[14.972,45.7116],[14.9821,45.7663],[15.015,45.7848],[15.0581,45.7811]]]}},{"type":"Feature","id":"Domzale","properties":{"id":"Domzale","iso_code":"SI-023","name":"Domzale","name_full":"Domžale","name_ja":"ドムジャレ","center_lonlat":[14.6284,46.1488]},"geometry":{"type":"Polygon","coordinates":[[[14.5898,46.1477],[14.5901,46.1891],[14.6518,46.2061],[14.6831,46.1992],[14.6505,46.1646],[14.6838,46.144],[14.6752,46.1327],[14.6872,46.1173],[14.5943,46.0966],[14.5693,46.1078],[14.5898,46.1477]]]}},{"type":"Feature","id":"Dornava","properties":{"id":"Dornava","iso_code":"SI-024","name":"Dornava","name_full":"Dornava","name_ja":"ドルナヴァ","center_lonlat":[15.9964,46.4461]},"geometry":{"type":"Polygon","coordinates":[[[16.0261,46.4323],[15.9831,46.4166],[15.943,46.4205],[15.9531,46.451],[15.9772,46.4463],[16.021,46.4907],[16.04,46.4686],[16.0261,46.4323]]]}},{"type":"Feature","id":"Dravograd","properties":{"id":"Dravograd","iso_code":"SI-025","name":"Dravograd","name_full":"Dravograd","name_ja":"ドラボグラード","center_lonlat":[15.0406,46.5957]},"geometry":{"type":"Polygon","coordinates":[[[15.0857,46.6478],[15.1048,46.6117],[15.1258,46.6012],[15.1087,46.5949],[15.1034,46.57],[15.0643,46.5423],[15.0246,46.5381],[15.0105,46.5504],[15.0075,46.5689],[14.9195,46.615],[14.948,46.6193],[14.9672,46.6003],[15.0044,46.6368],[15.0857,46.6478]]]}},{"type":"Feature","id":"Duplek","properties":{"id":"Duplek","iso_code":"SI-026","name":"Duplek","name_full":"Duplek","name_ja":"ドゥプレク","center_lonlat":[15.7723,46.5117]},"geometry":{"type":"Polygon","coordinates":[[[15.7317,46.5048],[15.7208,46.5236],[15.7537,46.547],[15.7849,46.545],[15.8152,46.5202],[15.8163,46.4973],[15.7815,46.4677],[15.7331,46.5032],[15.7317,46.5048]]]}},{"type":"Feature","id":"Gorisnica","properties":{"id":"Gorisnica","iso_code":"SI-028","name":"Gorisnica","name_full":"Gorišnica","name_ja":"ゴリシュニツァ","center_lonlat":[16.0167,46.3662]},"geometry":{"type":"Polygon","coordinates":[[[16.0499,46.3167],[15.9937,46.2906],[15.9693,46.3619],[15.9984,46.373],[15.9831,46.4166],[16.0261,46.4323],[16.0506,46.4249],[16.0757,46.3845],[16.0552,46.3881],[16.0315,46.3641],[16.0499,46.3167]]]}},{"type":"Feature","id":"Gornja Radgona","properties":{"id":"Gornja Radgona","iso_code":"SI-029","name":"Gornja Radgona","name_full":"Gornja Radgona","name_ja":"ゴルニャ・ラドゴナ","center_lonlat":[15.9669,46.6386]},"geometry":{"type":"Polygon","coordinates":[[[15.9676,46.6946],[16.0167,46.6707],[16.0417,46.6627],[16.0077,46.6328],[16.0136,46.5937],[15.9783,46.586],[15.9559,46.5882],[15.9333,46.5964],[15.9133,46.6241],[15.9311,46.6383],[15.8881,46.6459],[15.8886,46.6628],[15.9321,46.6652],[15.9676,46.6946]]]}},{"type":"Feature","id":"Gornji Grad","properties":{"id":"Gornji Grad","iso_code":"SI-030","name":"Gornji Grad","name_full":"Gornji Grad","name_ja":"ゴルニ・グラード","center_lonlat":[14.7963,46.2928]},"geometry":{"type":"Polygon","coordinates":[[[14.8669,46.3155],[14.877,46.301],[14.8548,46.2529],[14.7141,46.2631],[14.7057,46.2869],[14.7808,46.3385],[14.7976,46.3434],[14.8669,46.3155]]]}},{"type":"Feature","id":"Gornji Petrovci","properties":{"id":"Gornji Petrovci","iso_code":"SI-031","name":"Gornji Petrovci","name_full":"Gornji Petrovci","name_ja":"ゴルニ・ペトロフツィ","center_lonlat":[16.2022,46.8113]},"geometry":{"type":"Polygon","coordinates":[[[16.1795,46.8585],[16.2588,46.8179],[16.2664,46.8019],[16.2577,46.78],[16.2106,46.745],[16.1934,46.7623],[16.2019,46.7903],[16.1364,46.8294],[16.1252,46.833],[16.1302,46.8567],[16.1795,46.8585]]]}},{"type":"Feature","id":"Grad","properties":{"id":"Grad","iso_code":"SI-158","name":"Grad","name_full":"Grad","name_ja":"グラード","center_lonlat":[16.0912,46.7973]},"geometry":{"type":"Polygon","coordinates":[[[16.1364,46.8294],[16.112,46.7674],[16.0636,46.7642],[16.0521,46.7701],[16.056,46.8161],[16.1252,46.833],[16.1364,46.8294]]]}},{"type":"Feature","id":"Grosuplje","properties":{"id":"Grosuplje","iso_code":"SI-032","name":"Grosuplje","name_full":"Grosuplje","name_ja":"グロースプリェ","center_lonlat":[14.6705,45.9401]},"geometry":{"type":"Polygon","coordinates":[[[14.7402,45.9981],[14.7148,45.9526],[14.7332,45.947],[14.7518,45.8833],[14.7231,45.8764],[14.6717,45.8901],[14.6402,45.8748],[14.6009,45.9089],[14.591,45.9801],[14.6162,45.9967],[14.6607,45.9898],[14.7097,46.0111],[14.7402,45.9981]]]}},{"type":"Feature","id":"Hajdina","properties":{"id":"Hajdina","iso_code":"SI-159","name":"Hajdina","name_full":"Hajdina","name_ja":"ハイディナ","center_lonlat":[15.8335,46.4185]},"geometry":{"type":"Polygon","coordinates":[[[15.8005,46.4316],[15.8186,46.4548],[15.8474,46.4307],[15.8695,46.384],[15.8315,46.3948],[15.8005,46.4316]]]}},{"type":"Feature","id":"Hoce-Slivnica","properties":{"id":"Hoce-Slivnica","iso_code":"SI-160","name":"Hoce-Slivnica","name_full":"Hoče-Slivnica","name_ja":"ホチェ＝スリヴニツァ","center_lonlat":[15.6306,46.4888]},"geometry":{"type":"Polygon","coordinates":[[[15.6965,46.5121],[15.6951,46.4866],[15.7095,46.465],[15.6588,46.4599],[15.5458,46.4832],[15.5394,46.4974],[15.5638,46.5099],[15.6965,46.5121]]]}},{"type":"Feature","id":"Hodos","properties":{"id":"Hodos","iso_code":"SI-161","name":"Hodos","name_full":"Hodoš","name_ja":"ホドシュ","center_lonlat":[16.3095,46.824]},"geometry":{"type":"Polygon","coordinates":[[[16.2974,46.847],[16.3298,46.8344],[16.3111,46.7975],[16.2959,46.8102],[16.2974,46.847]]]}},{"type":"Feature","id":"Horjul","properties":{"id":"Horjul","iso_code":"SI-162","name":"Horjul","name_full":"Horjul","name_ja":"ホリュル","center_lonlat":[14.289,46.0212]},"geometry":{"type":"Polygon","coordinates":[[[14.2441,46.0202],[14.2526,46.0397],[14.2824,46.0456],[14.3371,46.0376],[14.342,46.014],[14.2738,45.9939],[14.2405,46.0055],[14.2441,46.0202]]]}},{"type":"Feature","id":"Hrastnik","properties":{"id":"Hrastnik","iso_code":"SI-034","name":"Hrastnik","name_full":"Hrastnik","name_ja":"フラストニク","center_lonlat":[15.1238,46.1307]},"geometry":{"type":"Polygon","coordinates":[[[15.1063,46.0935],[15.0651,46.1365],[15.1133,46.1834],[15.1885,46.1162],[15.1732,46.1023],[15.1422,46.1064],[15.1634,46.0925],[15.1063,46.0935]]]}},{"type":"Feature","id":"Hrpelje-Kozina","properties":{"id":"Hrpelje-Kozina","iso_code":"SI-035","name":"Hrpelje-Kozina","name_full":"Hrpelje-Kozina","name_ja":"フルペリェ＝コジナ","center_lonlat":[14.0008,45.5673]},"geometry":{"type":"Polygon","coordinates":[[[13.8679,45.6022],[13.8936,45.6338],[13.9384,45.6426],[14.0397,45.6024],[14.0898,45.6141],[14.1045,45.6047],[14.0904,45.5702],[14.1056,45.566],[14.0872,45.518],[14.1121,45.5014],[14.1167,45.473],[13.9875,45.5119],[13.9522,45.546],[13.8946,45.5598],[13.8679,45.6022]]]}},{"type":"Feature","id":"Idrija","properties":{"id":"Idrija","iso_code":"SI-036","name":"Idrija","name_full":"Idrija","name_ja":"イドリヤ","center_lonlat":[14.0012,45.9894]},"geometry":{"type":"Polygon","coordinates":[[[14.1387,46.0058],[14.1086,45.9693],[14.1148,45.9516],[14.1004,45.9215],[14.1209,45.8787],[14.0428,45.8902],[13.8732,45.9802],[13.8523,46.002],[13.8659,46.007],[13.8746,46.043],[13.8609,46.0587],[13.8949,46.0677],[13.9235,46.0613],[13.9601,46.0873],[14.0091,46.0646],[14.0301,46.0732],[14.1112,46.0126],[14.1387,46.0058]]]}},{"type":"Feature","id":"Ig","properties":{"id":"Ig","iso_code":"SI-037","name":"Ig","name_full":"Ig","name_ja":"イグ","center_lonlat":[14.5134,45.9325]},"geometry":{"type":"Polygon","coordinates":[[[14.5333,45.9902],[14.5541,45.9724],[14.5645,45.9047],[14.5853,45.8963],[14.5701,45.8676],[14.4902,45.8809],[14.4669,45.906],[14.4451,45.9741],[14.5029,45.9976],[14.5333,45.9902]]]}},{"type":"Feature","id":"Ilirska Bistrica","properties":{"id":"Ilirska Bistrica","iso_code":"SI-038","name":"Ilirska Bistrica","name_full":"Ilirska Bistrica","name_ja":"イリルスカ・ビストリツァ","center_lonlat":[14.2814,45.565]},"geometry":{"type":"Polygon","coordinates":[[[14.4915,45.5792],[14.4689,45.5256],[14.3728,45.4778],[14.3268,45.4749],[14.2187,45.4972],[14.1167,45.473],[14.1121,45.5014],[14.0872,45.518],[14.1056,45.566],[14.0904,45.5702],[14.1045,45.6047],[14.0898,45.6141],[14.0906,45.6242],[14.2267,45.6333],[14.3326,45.6719],[14.4262,45.644],[14.4219,45.6169],[14.4439,45.5946],[14.4389,45.5807],[14.4915,45.5792]]]}},{"type":"Feature","id":"Ivancna Gorica","properties":{"id":"Ivancna Gorica","iso_code":"SI-039","name":"Ivancna Gorica","name_full":"Ivančna Gorica","name_ja":"イヴァンチュナ・ゴリツァ","center_lonlat":[14.8146,45.9183]},"geometry":{"type":"Polygon","coordinates":[[[14.7402,45.9981],[14.7496,46.003],[14.8714,46.0053],[14.9273,45.963],[14.882,45.9326],[14.8688,45.8874],[14.8772,45.8696],[14.8765,45.8571],[14.8474,45.8509],[14.8562,45.8251],[14.8489,45.7997],[14.8046,45.7975],[14.7588,45.8374],[14.7681,45.8668],[14.7518,45.8833],[14.7332,45.947],[14.7148,45.9526],[14.7402,45.9981]]]}},{"type":"Feature","id":"Izola","properties":{"id":"Izola","iso_code":"SI-040","name":"Izola","name_full":"Izola","name_ja":"イゾラ","center_lonlat":[13.6456,45.5212]},"geometry":{"type":"Polygon","coordinates":[[[13.6109,45.538],[13.6751,45.5447],[13.6628,45.507],[13.6575,45.4922],[13.6417,45.4896],[13.6109,45.538]]]}},{"type":"Feature","id":"Jesenice","properties":{"id":"Jesenice","iso_code":"SI-041","name":"Jesenice","name_full":"Jesenice","name_ja":"イェセニツェ","center_lonlat":[14.071,46.4446]},"geometry":{"type":"Polygon","coordinates":[[[14.1479,46.4404],[14.1294,46.4251],[14.1279,46.4068],[14.0966,46.4046],[13.9924,46.4448],[14.0123,46.4606],[14.0149,46.4825],[14.0664,46.481],[14.1479,46.4404]]]}},{"type":"Feature","id":"Jezersko","properties":{"id":"Jezersko","iso_code":"SI-163","name":"Jezersko","name_full":"Jezersko","name_ja":"イェゼルスコ","center_lonlat":[14.48,46.3853]},"geometry":{"type":"Polygon","coordinates":[[[14.5621,46.3917],[14.5687,46.3688],[14.5359,46.3603],[14.4498,46.3671],[14.427,46.3505],[14.4055,46.3516],[14.4371,46.4189],[14.5022,46.4184],[14.5403,46.3786],[14.5621,46.3917]]]}},{"type":"Feature","id":"Jursinci","properties":{"id":"Jursinci","iso_code":"SI-042","name":"Jursinci","name_full":"Juršinci","name_ja":"ユルシンツィ","center_lonlat":[15.9821,46.4865]},"geometry":{"type":"Polygon","coordinates":[[[15.9472,46.4872],[15.9622,46.5109],[16.0074,46.5244],[16.0203,46.5113],[16.021,46.4907],[15.9772,46.4463],[15.9531,46.451],[15.9443,46.4805],[15.9472,46.4872]]]}},{"type":"Feature","id":"Kamnik","properties":{"id":"Kamnik","iso_code":"SI-043","name":"Kamnik","name_full":"Kamnik","name_ja":"カムニーク","center_lonlat":[14.6783,46.262]},"geometry":{"type":"Polygon","coordinates":[[[14.544,46.312],[14.5531,46.3213],[14.5359,46.3603],[14.5687,46.3688],[14.6399,46.3664],[14.6467,46.3339],[14.6801,46.2906],[14.7057,46.2869],[14.7141,46.2631],[14.8548,46.2529],[14.8849,46.2405],[14.9301,46.2188],[14.9101,46.2105],[14.8989,46.2087],[14.6831,46.1992],[14.6518,46.2061],[14.5901,46.1891],[14.5827,46.1981],[14.5525,46.2432],[14.5699,46.2615],[14.544,46.312]]]}},{"type":"Feature","id":"Kanal ob Soci","properties":{"id":"Kanal ob Soci","iso_code":"SI-044","name":"Kanal ob Soci","name_full":"Kanal ob Soči","name_ja":"カナル","center_lonlat":[13.6478,46.0888]},"geometry":{"type":"Polygon","coordinates":[[[13.5226,46.0753],[13.6164,46.125],[13.645,46.1617],[13.6411,46.1714],[13.6665,46.1752],[13.6969,46.1363],[13.7689,46.1016],[13.7669,46.0819],[13.7398,46.0582],[13.6814,46.067],[13.6549,46.0547],[13.6254,46.0273],[13.6406,46.0021],[13.604,46.0129],[13.5226,46.0753]]]}},{"type":"Feature","id":"Kidricevo","properties":{"id":"Kidricevo","iso_code":"SI-045","name":"Kidricevo","name_full":"Kidričevo","name_ja":"キドリチェヴォ","center_lonlat":[15.7569,46.3924]},"geometry":{"type":"Polygon","coordinates":[[[15.6875,46.4086],[15.7345,46.4283],[15.8005,46.4316],[15.8315,46.3948],[15.8188,46.3591],[15.8025,46.3549],[15.6808,46.3677],[15.6774,46.4023],[15.6875,46.4086]]]}},{"type":"Feature","id":"Kobarid","properties":{"id":"Kobarid","iso_code":"SI-046","name":"Kobarid","name_full":"Kobarid","name_ja":"コバリード","center_lonlat":[13.5486,46.2539]},"geometry":{"type":"Polygon","coordinates":[[[13.3956,46.3067],[13.5152,46.2772],[13.5501,46.302],[13.7274,46.3017],[13.7367,46.2861],[13.709,46.2774],[13.6853,46.234],[13.6293,46.2242],[13.6228,46.2005],[13.6369,46.1911],[13.6274,46.1817],[13.559,46.1841],[13.5102,46.214],[13.4683,46.2234],[13.4228,46.2286],[13.4374,46.2109],[13.4101,46.208],[13.3653,46.2903],[13.3956,46.3067]]]}},{"type":"Feature","id":"Kobilje","properties":{"id":"Kobilje","iso_code":"SI-047","name":"Kobilje","name_full":"Kobilje","name_ja":"コビリェ","center_lonlat":[16.3839,46.682]},"geometry":{"type":"Polygon","coordinates":[[[16.4026,46.6631],[16.3562,46.6847],[16.3654,46.6967],[16.405,46.6873],[16.4026,46.6631]]]}},{"type":"Feature","id":"Kocevje","properties":{"id":"Kocevje","iso_code":"SI-048","name":"Kocevje","name_full":"Kočevje","name_ja":"コチェーヴィエ","center_lonlat":[14.9099,45.6135]},"geometry":{"type":"Polygon","coordinates":[[[15.0661,45.4739],[14.9773,45.4917],[14.9439,45.5254],[14.8646,45.5311],[14.8356,45.5017],[14.8171,45.5013],[14.7392,45.5536],[14.7237,45.597],[14.711,45.6281],[14.7318,45.647],[14.7707,45.6419],[14.7883,45.6635],[14.8224,45.7279],[14.7959,45.7431],[14.8137,45.7577],[14.8465,45.7596],[14.877,45.7439],[14.9264,45.7692],[14.9821,45.7663],[14.972,45.7116],[15.0376,45.6313],[15.0736,45.6019],[15.1006,45.5461],[15.0818,45.5424],[15.0698,45.5229],[15.1213,45.5116],[15.0867,45.4992],[15.0661,45.4739]]]}},{"type":"Feature","id":"Komen","properties":{"id":"Komen","iso_code":"SI-049","name":"Komen","name_full":"Komen","name_ja":"コメン","center_lonlat":[13.7425,45.8169]},"geometry":{"type":"Polygon","coordinates":[[[13.5742,45.819],[13.6701,45.8226],[13.7064,45.8464],[13.7092,45.865],[13.834,45.8355],[13.8859,45.8287],[13.9025,45.8102],[13.7319,45.7913],[13.6999,45.7705],[13.5742,45.819]]]}},{"type":"Feature","id":"Komenda","properties":{"id":"Komenda","iso_code":"SI-164","name":"Komenda","name_full":"Komenda","name_ja":"コメンダ","center_lonlat":[14.5434,46.206]},"geometry":{"type":"Polygon","coordinates":[[[14.5378,46.1742],[14.5007,46.2029],[14.5525,46.2432],[14.5827,46.1981],[14.5378,46.1742]]]}},{"type":"Feature","id":"Koper","properties":{"id":"Koper","iso_code":"SI-050","name":"Koper","name_full":"Koper","name_ja":"コペル","center_lonlat":[13.8262,45.509]},"geometry":{"type":"Polygon","coordinates":[[[13.8679,45.6022],[13.8946,45.5598],[13.9522,45.546],[13.9875,45.5119],[13.9615,45.5039],[13.9826,45.4753],[13.9698,45.463],[13.889,45.4236],[13.8199,45.4326],[13.7593,45.4632],[13.66,45.46],[13.6932,45.4954],[13.6628,45.507],[13.6751,45.5447],[13.7529,45.5529],[13.7118,45.5932],[13.7611,45.5962],[13.8005,45.5812],[13.8478,45.5847],[13.8679,45.6022]]]}},{"type":"Feature","id":"Kostel","properties":{"id":"Kostel","iso_code":"SI-165","name":"Kostel","name_full":"Kostel","name_ja":"コステル","center_lonlat":[14.9015,45.5188]},"geometry":{"type":"Polygon","coordinates":[[[14.9773,45.4917],[14.9044,45.5144],[14.8816,45.4698],[14.8388,45.459],[14.7972,45.4652],[14.7814,45.4932],[14.6685,45.534],[14.6637,45.5702],[14.7237,45.597],[14.7392,45.5536],[14.8171,45.5013],[14.8356,45.5017],[14.8646,45.5311],[14.9439,45.5254],[14.9773,45.4917]]]}},{"type":"Feature","id":"Kozje","properties":{"id":"Kozje","iso_code":"SI-051","name":"Kozje","name_full":"Kozje","name_ja":"コジエ","center_lonlat":[15.5631,46.0669]},"geometry":{"type":"Polygon","coordinates":[[[15.536,46.1304],[15.5846,46.1086],[15.6076,46.0659],[15.6241,46.0378],[15.6678,46.0264],[15.5837,45.994],[15.6018,46.0205],[15.5594,46.0171],[15.5377,46.0526],[15.4926,46.0677],[15.4816,46.1127],[15.4992,46.1093],[15.536,46.1304]]]}},{"type":"Feature","id":"Kranj","properties":{"id":"Kranj","iso_code":"SI-052","name":"Kranj","name_full":"Kranj","name_ja":"クラーニ","center_lonlat":[14.3335,46.2592]},"geometry":{"type":"Polygon","coordinates":[[[14.4065,46.1918],[14.4143,46.1705],[14.3938,46.1603],[14.3798,46.1815],[14.3642,46.1832],[14.3654,46.1956],[14.2759,46.2108],[14.2772,46.2321],[14.2486,46.243],[14.1665,46.2813],[14.1791,46.2842],[14.2746,46.2749],[14.33,46.2565],[14.3347,46.2705],[14.3113,46.2971],[14.3263,46.3214],[14.3505,46.3484],[14.4055,46.3516],[14.3866,46.307],[14.3668,46.3037],[14.3798,46.2893],[14.4172,46.2889],[14.3831,46.2245],[14.4065,46.1918]]]}},{"type":"Feature","id":"Kranjska Gora","properties":{"id":"Kranjska Gora","iso_code":"SI-053","name":"Kranjska Gora","name_full":"Kranjska Gora","name_ja":"クランスカ・ゴーラ","center_lonlat":[13.8399,46.4604]},"geometry":{"type":"Polygon","coordinates":[[[13.6859,46.464],[13.701,46.5197],[13.7821,46.5078],[13.8909,46.5118],[13.9823,46.4819],[14.0149,46.4825],[14.0123,46.4606],[13.9924,46.4448],[13.8479,46.3812],[13.8417,46.3822],[13.8113,46.413],[13.7674,46.4331],[13.687,46.4317],[13.6859,46.464]]]}},{"type":"Feature","id":"Krizevci","properties":{"id":"Krizevci","iso_code":"SI-166","name":"Krizevci","name_full":"Križevci","name_ja":"クリジェフツィ","center_lonlat":[16.1264,46.5677]},"geometry":{"type":"Polygon","coordinates":[[[16.1103,46.6239],[16.1608,46.6059],[16.1364,46.6031],[16.1381,46.5931],[16.1767,46.5601],[16.1739,46.5329],[16.1541,46.5254],[16.0778,46.5419],[16.0903,46.5696],[16.0793,46.5932],[16.112,46.608],[16.1103,46.6239]]]}},{"type":"Feature","id":"Krsko","properties":{"id":"Krsko","iso_code":"SI-054","name":"Krsko","name_full":"Krško","name_ja":"クルシュコ","center_lonlat":[15.4702,45.9338]},"geometry":{"type":"Polygon","coordinates":[[[15.5497,45.8237],[15.4403,45.8115],[15.4411,45.7822],[15.4298,45.7757],[15.4011,45.8099],[15.3881,45.8766],[15.361,45.8837],[15.3506,45.8917],[15.363,45.9348],[15.4294,46.0006],[15.4184,46.0633],[15.4926,46.0677],[15.5377,46.0526],[15.5594,46.0171],[15.5647,46.0],[15.5837,45.994],[15.5669,45.9201],[15.5101,45.8822],[15.5497,45.8237]]]}},{"type":"Feature","id":"Krsko (SI-054)","properties":{"id":"Krsko (SI-054)","iso_code":"SI-054","name":"Krsko (SI-054)","name_full":"Krsko","name_ja":"クルシュコ","center_lonlat":[15.579,46.0091]},"geometry":{"type":"Polygon","coordinates":[[[15.5837,45.994],[15.5647,46.0],[15.5594,46.0171],[15.6018,46.0205],[15.5837,45.994]]]}},{"type":"Feature","id":"Kungota","properties":{"id":"Kungota","iso_code":"SI-055","name":"Kungota","name_full":"Kungota","name_ja":"クンゴタ","center_lonlat":[15.6009,46.6442]},"geometry":{"type":"Polygon","coordinates":[[[15.6217,46.6782],[15.6457,46.6428],[15.6643,46.6036],[15.6471,46.5941],[15.5984,46.6281],[15.5203,46.6477],[15.546,46.6719],[15.6217,46.6782]]]}},{"type":"Feature","id":"Kuzma","properties":{"id":"Kuzma","iso_code":"SI-056","name":"Kuzma","name_full":"Kuzma","name_ja":"クズマ","center_lonlat":[16.0898,46.841]},"geometry":{"type":"Polygon","coordinates":[[[16.1302,46.8567],[16.1252,46.833],[16.056,46.8161],[16.0529,46.8461],[16.094,46.8628],[16.1302,46.8567]]]}},{"type":"Feature","id":"Lasko","properties":{"id":"Lasko","iso_code":"SI-057","name":"Lasko","name_full":"Laško","name_ja":"ラーシュコ","center_lonlat":[15.2646,46.1313]},"geometry":{"type":"Polygon","coordinates":[[[15.3709,46.1357],[15.3827,46.1082],[15.3684,46.0721],[15.2871,46.0591],[15.2539,46.0833],[15.1939,46.0822],[15.2019,46.0608],[15.1634,46.0925],[15.1422,46.1064],[15.1732,46.1023],[15.1885,46.1162],[15.1133,46.1834],[15.204,46.1882],[15.2164,46.1982],[15.3014,46.1889],[15.2938,46.1655],[15.3633,46.1813],[15.375,46.1678],[15.3709,46.1357]]]}},{"type":"Feature","id":"Lenart","properties":{"id":"Lenart","iso_code":"SI-058","name":"Lenart","name_full":"Lenart","name_ja":"レナルト","center_lonlat":[15.8348,46.5742]},"geometry":{"type":"Polygon","coordinates":[[[15.8002,46.6469],[15.8183,46.6454],[15.8346,46.6149],[15.8628,46.611],[15.8982,46.5843],[15.9333,46.5964],[15.9559,46.5882],[15.9196,46.5653],[15.9285,46.5419],[15.9241,46.5344],[15.8921,46.5464],[15.8676,46.5337],[15.8545,46.5063],[15.8234,46.4949],[15.8163,46.4973],[15.8152,46.5202],[15.7849,46.545],[15.7537,46.547],[15.7692,46.5594],[15.7547,46.5733],[15.7706,46.6343],[15.7784,46.6482],[15.8002,46.6469]]]}},{"type":"Feature","id":"Lendava","properties":{"id":"Lendava","iso_code":"SI-059","name":"Lendava","name_full":"Lendava","name_ja":"レンダヴァ","center_lonlat":[16.4226,46.5625]},"geometry":{"type":"Polygon","coordinates":[[[16.3722,46.6363],[16.5008,46.5448],[16.5153,46.5017],[16.4813,46.519],[16.4404,46.519],[16.4063,46.5395],[16.3403,46.5438],[16.3286,46.5487],[16.3345,46.5565],[16.3975,46.5782],[16.3785,46.5998],[16.3479,46.6153],[16.3722,46.6363]]]}},{"type":"Feature","id":"Litija","properties":{"id":"Litija","iso_code":"SI-060","name":"Litija","name_full":"Litija","name_ja":"リティヤ","center_lonlat":[14.9323,46.0572]},"geometry":{"type":"Polygon","coordinates":[[[14.8348,46.137],[14.8905,46.1278],[14.8924,46.1089],[14.9113,46.0929],[14.9999,46.1191],[15.0047,46.0989],[14.9931,46.0853],[15.0024,46.0564],[15.0715,46.0647],[15.0941,46.0403],[15.1161,46.0042],[15.0406,46.0006],[15.0241,45.9702],[14.9999,45.9644],[14.9545,45.9751],[14.9359,46.0183],[14.8657,46.07],[14.8058,46.0597],[14.7361,46.0656],[14.7124,46.0793],[14.754,46.1002],[14.8348,46.137]]]}},{"type":"Feature","id":"Ljubljana","properties":{"id":"Ljubljana","iso_code":"SI-061","name":"Ljubljana","name_full":"Ljubljana","name_ja":"リュブリャナ","center_lonlat":[14.562,46.0556]},"geometry":{"type":"Polygon","coordinates":[[[14.7496,46.003],[14.7402,45.9981],[14.7097,46.0111],[14.6607,45.9898],[14.6162,45.9967],[14.563,46.0188],[14.5355,46.0131],[14.5333,45.9902],[14.5029,45.9976],[14.4451,45.9741],[14.436,45.9868],[14.4578,46.0054],[14.4289,46.029],[14.4399,46.0502],[14.4086,46.0829],[14.4379,46.0974],[14.4225,46.1231],[14.4692,46.1435],[14.5139,46.1456],[14.5206,46.1324],[14.5693,46.1078],[14.5943,46.0966],[14.6331,46.0769],[14.7124,46.0793],[14.7361,46.0656],[14.7496,46.003]]]}},{"type":"Feature","id":"Ljubno","properties":{"id":"Ljubno","iso_code":"SI-062","name":"Ljubno","name_full":"Ljubno","name_ja":"リュブノ","center_lonlat":[14.8462,46.3768]},"geometry":{"type":"Polygon","coordinates":[[[14.8917,46.4235],[14.9022,46.3939],[14.8669,46.3155],[14.7976,46.3434],[14.7808,46.3385],[14.8069,46.3885],[14.8041,46.4251],[14.8917,46.4235]]]}},{"type":"Feature","id":"Ljutomer","properties":{"id":"Ljutomer","iso_code":"SI-063","name":"Ljutomer","name_full":"Ljutomer","name_ja":"リュトメル","center_lonlat":[16.1699,46.5228]},"geometry":{"type":"Polygon","coordinates":[[[16.3107,46.531],[16.3015,46.5271],[16.2776,46.5339],[16.2609,46.5136],[16.2342,46.4849],[16.2039,46.4729],[16.1707,46.4957],[16.1366,46.4892],[16.0203,46.5113],[16.0456,46.5453],[16.0778,46.5419],[16.1541,46.5254],[16.1739,46.5329],[16.1767,46.5601],[16.2168,46.5841],[16.2475,46.5539],[16.3107,46.531]]]}},{"type":"Feature","id":"Logatec","properties":{"id":"Logatec","iso_code":"SI-064","name":"Logatec","name_full":"Logatec","name_ja":"ロガテツ","center_lonlat":[14.1889,45.9295]},"geometry":{"type":"Polygon","coordinates":[[[14.1868,46.0379],[14.1904,46.0247],[14.1963,46.0081],[14.2298,45.995],[14.2143,45.9525],[14.2604,45.9292],[14.2992,45.8857],[14.2765,45.8461],[14.1997,45.8724],[14.126,45.8688],[14.1209,45.8787],[14.1004,45.9215],[14.1148,45.9516],[14.1086,45.9693],[14.1387,46.0058],[14.1868,46.0379]]]}},{"type":"Feature","id":"Loska Dolina","properties":{"id":"Loska Dolina","iso_code":"SI-065","name":"Loska Dolina","name_full":"Loška Dolina","name_ja":"ロシュカ・ドリナ","center_lonlat":[14.4814,45.6673]},"geometry":{"type":"Polygon","coordinates":[[[14.5691,45.6643],[14.4915,45.5792],[14.4389,45.5807],[14.4439,45.5946],[14.4219,45.6169],[14.4262,45.644],[14.4258,45.6616],[14.3862,45.7075],[14.4784,45.7479],[14.5082,45.7311],[14.5375,45.7344],[14.5691,45.6643]]]}},{"type":"Feature","id":"Loski Potok","properties":{"id":"Loski Potok","iso_code":"SI-066","name":"Loski Potok","name_full":"Loški Potok","name_ja":"ロシュキ・ポトク","center_lonlat":[14.64,45.6556]},"geometry":{"type":"Polygon","coordinates":[[[14.6637,45.5702],[14.6031,45.6036],[14.5919,45.6634],[14.5691,45.6643],[14.5375,45.7344],[14.5761,45.7353],[14.6196,45.7289],[14.6463,45.7075],[14.6766,45.6831],[14.7312,45.6673],[14.7318,45.647],[14.711,45.6281],[14.7237,45.597],[14.6637,45.5702]]]}},{"type":"Feature","id":"Lovrenc na Pohorju","properties":{"id":"Lovrenc na Pohorju","iso_code":"SI-167","name":"Lovrenc na Pohorju","name_full":"Lovrenc na Pohorju","name_ja":"ロヴェンツェ・ナ・ポホリュ","center_lonlat":[15.3879,46.5276]},"geometry":{"type":"Polygon","coordinates":[[[15.4434,46.5847],[15.4617,46.5683],[15.4597,46.55],[15.4082,46.4777],[15.3812,46.4688],[15.3351,46.4774],[15.3157,46.4822],[15.3121,46.4925],[15.3228,46.5106],[15.3714,46.5873],[15.4304,46.5748],[15.4434,46.5847]]]}},{"type":"Feature","id":"Luce","properties":{"id":"Luce","iso_code":"SI-067","name":"Luce","name_full":"Luče","name_ja":"ルチェ","center_lonlat":[14.7284,46.3564]},"geometry":{"type":"Polygon","coordinates":[[[14.8041,46.4251],[14.8069,46.3885],[14.7808,46.3385],[14.7057,46.2869],[14.6801,46.2906],[14.6467,46.3339],[14.6399,46.3664],[14.7265,46.3834],[14.7546,46.4215],[14.7757,46.4319],[14.8041,46.4251]]]}},{"type":"Feature","id":"Lukovica","properties":{"id":"Lukovica","iso_code":"SI-068","name":"Lukovica","name_full":"Lukovica","name_ja":"ルコヴィツァ","center_lonlat":[14.7689,46.1819]},"geometry":{"type":"Polygon","coordinates":[[[14.8989,46.2087],[14.8927,46.1792],[14.8168,46.1705],[14.8284,46.1603],[14.7721,46.1684],[14.6838,46.144],[14.6505,46.1646],[14.6831,46.1992],[14.8989,46.2087]]]}},{"type":"Feature","id":"Majsperk","properties":{"id":"Majsperk","iso_code":"SI-069","name":"Majsperk","name_full":"Majšperk","name_ja":"マイシュペルク","center_lonlat":[15.7467,46.3202]},"geometry":{"type":"Polygon","coordinates":[[[15.7579,46.262],[15.7413,46.2661],[15.6849,46.2741],[15.7118,46.2969],[15.7214,46.3367],[15.6901,46.3487],[15.6808,46.3677],[15.8025,46.3549],[15.8133,46.3389],[15.8011,46.3206],[15.7618,46.2858],[15.7579,46.262]]]}},{"type":"Feature","id":"Maribor","properties":{"id":"Maribor","iso_code":"SI-070","name":"Maribor","name_full":"Maribor","name_ja":"マリボル","center_lonlat":[15.6284,46.5651]},"geometry":{"type":"Polygon","coordinates":[[[15.5139,46.6325],[15.5203,46.6477],[15.5984,46.6281],[15.6471,46.5941],[15.6798,46.5928],[15.7207,46.5693],[15.7547,46.5733],[15.7692,46.5594],[15.7537,46.547],[15.7208,46.5236],[15.7317,46.5048],[15.6965,46.5121],[15.5638,46.5099],[15.5503,46.518],[15.5604,46.5621],[15.5139,46.6325]]]}},{"type":"Feature","id":"Markovci","properties":{"id":"Markovci","iso_code":"SI-168","name":"Markovci","name_full":"Markovci","name_ja":"マルコフツィ","center_lonlat":[15.9573,46.3928]},"geometry":{"type":"Polygon","coordinates":[[[15.9693,46.3619],[15.9041,46.3936],[15.943,46.4205],[15.9831,46.4166],[15.9984,46.373],[15.9693,46.3619]]]}},{"type":"Feature","id":"Medvode","properties":{"id":"Medvode","iso_code":"SI-071","name":"Medvode","name_full":"Medvode","name_ja":"メドヴォデ","center_lonlat":[14.4006,46.1322]},"geometry":{"type":"Polygon","coordinates":[[[14.3938,46.1603],[14.4143,46.1705],[14.4065,46.1918],[14.4587,46.1933],[14.4692,46.1435],[14.4225,46.1231],[14.4379,46.0974],[14.4086,46.0829],[14.3504,46.0834],[14.325,46.0983],[14.3378,46.1346],[14.3938,46.1603]]]}},{"type":"Feature","id":"Menges","properties":{"id":"Menges","iso_code":"SI-072","name":"Menges","name_full":"Mengeš","name_ja":"メンゲシュ","center_lonlat":[14.5578,46.1618]},"geometry":{"type":"Polygon","coordinates":[[[14.5139,46.1456],[14.5378,46.1742],[14.5827,46.1981],[14.5901,46.1891],[14.5898,46.1477],[14.5206,46.1324],[14.5139,46.1456]]]}},{"type":"Feature","id":"Metlika","properties":{"id":"Metlika","iso_code":"SI-073","name":"Metlika","name_full":"Metlika","name_ja":"メトリカ","center_lonlat":[15.2926,45.6492]},"geometry":{"type":"Polygon","coordinates":[[[15.2499,45.7137],[15.2919,45.6756],[15.3308,45.6846],[15.3738,45.6402],[15.2974,45.6257],[15.2686,45.6017],[15.2822,45.5715],[15.225,45.6083],[15.2589,45.6216],[15.2843,45.6501],[15.2281,45.7027],[15.2499,45.7137]]]}},{"type":"Feature","id":"Mezica","properties":{"id":"Mezica","iso_code":"SI-074","name":"Mezica","name_full":"Mežica","name_ja":"メージツァ","center_lonlat":[14.8506,46.5257]},"geometry":{"type":"Polygon","coordinates":[[[14.7967,46.5194],[14.8145,46.5513],[14.8634,46.5519],[14.9026,46.5166],[14.8995,46.5044],[14.8734,46.4973],[14.7967,46.5194]]]}},{"type":"Feature","id":"Miklavz na Dravskem Polju","properties":{"id":"Miklavz na Dravskem Polju","iso_code":"SI-169","name":"Miklavz na Dravskem Polju","name_full":"Miklavž na Dravskem Polju","name_ja":"ミクラヴジュ・ナ・ドラフスケム・ポリュ","center_lonlat":[15.713,46.4881]},"geometry":{"type":"Polygon","coordinates":[[[15.6965,46.5121],[15.7317,46.5048],[15.7331,46.5032],[15.7233,46.4917],[15.7328,46.4744],[15.717,46.46],[15.7095,46.465],[15.6951,46.4866],[15.6965,46.5121]]]}},{"type":"Feature","id":"Miren–Kostanjevica","properties":{"id":"Miren–Kostanjevica","iso_code":"SI-075","name":"Miren–Kostanjevica","name_full":"Miren–Kostanjevica","name_ja":"ミレン＝コスタニェヴィツァ","center_lonlat":[13.6291,45.8569]},"geometry":{"type":"Polygon","coordinates":[[[13.5742,45.819],[13.5693,45.8645],[13.5993,45.9123],[13.647,45.8972],[13.6204,45.886],[13.7092,45.865],[13.7064,45.8464],[13.6701,45.8226],[13.5742,45.819]]]}},{"type":"Feature","id":"Mirna Pec","properties":{"id":"Mirna Pec","iso_code":"SI-170","name":"Mirna Pec","name_full":"Mirna Peč","name_ja":"ミルナ・ペチ","center_lonlat":[15.0895,45.8525]},"geometry":{"type":"Polygon","coordinates":[[[15.1448,45.8733],[15.1127,45.8204],[15.086,45.8061],[15.0373,45.8409],[15.0434,45.8669],[15.0975,45.8947],[15.1448,45.8733]]]}},{"type":"Feature","id":"Mislinja","properties":{"id":"Mislinja","iso_code":"SI-076","name":"Mislinja","name_full":"Mislinja","name_ja":"ミスリニャ","center_lonlat":[15.2224,46.4507]},"geometry":{"type":"Polygon","coordinates":[[[15.3121,46.4925],[15.3157,46.4822],[15.3248,46.4512],[15.2735,46.4433],[15.2325,46.3925],[15.1903,46.3884],[15.1758,46.394],[15.1755,46.4091],[15.1236,46.422],[15.1957,46.5109],[15.2227,46.497],[15.3121,46.4925]]]}},{"type":"Feature","id":"Moravce","properties":{"id":"Moravce","iso_code":"SI-077","name":"Moravce","name_full":"Moravče","name_ja":"モラフチェ","center_lonlat":[14.7579,46.1363]},"geometry":{"type":"Polygon","coordinates":[[[14.8348,46.137],[14.754,46.1002],[14.6872,46.1173],[14.6752,46.1327],[14.6838,46.144],[14.7721,46.1684],[14.8284,46.1603],[14.8406,46.149],[14.8348,46.137]]]}},{"type":"Feature","id":"Moravske Toplice","properties":{"id":"Moravske Toplice","iso_code":"SI-078","name":"Moravske Toplice","name_full":"Moravske Toplice","name_ja":"モラフスケ・トプリツェ","center_lonlat":[16.2664,46.7087]},"geometry":{"type":"Polygon","coordinates":[[[16.2995,46.7795],[16.3142,46.7433],[16.3434,46.7142],[16.3573,46.7158],[16.3654,46.6967],[16.3562,46.6847],[16.3342,46.6838],[16.3144,46.6451],[16.2979,46.6479],[16.2408,46.6536],[16.1982,46.6669],[16.1787,46.6976],[16.1756,46.7187],[16.2106,46.745],[16.2577,46.78],[16.2995,46.7795]]]}},{"type":"Feature","id":"Mozirje","properties":{"id":"Mozirje","iso_code":"SI-079","name":"Mozirje","name_full":"Mozirje","name_ja":"モジリェ","center_lonlat":[14.9407,46.3516]},"geometry":{"type":"Polygon","coordinates":[[[14.8669,46.3155],[14.9022,46.3939],[14.9856,46.3958],[15.0019,46.3881],[14.9999,46.3772],[15.0084,46.3372],[14.9706,46.3029],[14.9538,46.3258],[14.877,46.301],[14.8669,46.3155]]]}},{"type":"Feature","id":"Murska Sobota","properties":{"id":"Murska Sobota","iso_code":"SI-080","name":"Murska Sobota","name_full":"Murska Sobota","name_ja":"ムルスカ・ソボタ","center_lonlat":[16.1606,46.6539]},"geometry":{"type":"Polygon","coordinates":[[[16.1787,46.6976],[16.1982,46.6669],[16.2408,46.6536],[16.1608,46.6059],[16.1103,46.6239],[16.123,46.6439],[16.1044,46.6716],[16.1083,46.6904],[16.1787,46.6976]]]}},{"type":"Feature","id":"Muta","properties":{"id":"Muta","iso_code":"SI-081","name":"Muta","name_full":"Muta","name_ja":"ムタ","center_lonlat":[15.1341,46.6268]},"geometry":{"type":"Polygon","coordinates":[[[15.1726,46.6414],[15.1835,46.6195],[15.1258,46.6012],[15.1048,46.6117],[15.0857,46.6478],[15.1726,46.6414]]]}},{"type":"Feature","id":"Naklo","properties":{"id":"Naklo","iso_code":"SI-082","name":"Naklo","name_full":"Naklo","name_ja":"ナクロ","center_lonlat":[14.2987,46.2939]},"geometry":{"type":"Polygon","coordinates":[[[14.3263,46.3214],[14.3113,46.2971],[14.3347,46.2705],[14.33,46.2565],[14.2746,46.2749],[14.2672,46.3261],[14.3263,46.3214]]]}},{"type":"Feature","id":"Nazarje","properties":{"id":"Nazarje","iso_code":"SI-083","name":"Nazarje","name_full":"Nazarje","name_ja":"ナザリェ","center_lonlat":[14.9132,46.2863]},"geometry":{"type":"Polygon","coordinates":[[[14.8849,46.2405],[14.8548,46.2529],[14.877,46.301],[14.9538,46.3258],[14.9706,46.3029],[14.9703,46.2838],[14.9003,46.2633],[14.8849,46.2405]]]}},{"type":"Feature","id":"Nova Gorica","properties":{"id":"Nova Gorica","iso_code":"SI-084","name":"Nova Gorica","name_full":"Nova Gorica","name_ja":"ノヴァ・ゴリツァ","center_lonlat":[13.7289,45.9786]},"geometry":{"type":"Polygon","coordinates":[[[13.6153,45.9459],[13.6228,45.9664],[13.6007,45.9846],[13.6262,45.9966],[13.604,46.0129],[13.6406,46.0021],[13.6254,46.0273],[13.6549,46.0547],[13.6814,46.067],[13.7398,46.0582],[13.7669,46.0819],[13.7689,46.1016],[13.8,46.1036],[13.8204,46.036],[13.8659,46.007],[13.8523,46.002],[13.844,45.9837],[13.7328,45.9059],[13.834,45.8355],[13.7092,45.865],[13.6204,45.886],[13.647,45.8972],[13.6851,45.913],[13.6862,45.9258],[13.6153,45.9459]]]}},{"type":"Feature","id":"Novo Mesto","properties":{"id":"Novo Mesto","iso_code":"SI-085","name":"Novo Mesto","name_full":"Novo Mesto","name_ja":"ノヴォ・メスト","center_lonlat":[15.1992,45.7902]},"geometry":{"type":"Polygon","coordinates":[[[15.331,45.7525],[15.2635,45.7304],[15.2499,45.7137],[15.2281,45.7027],[15.1846,45.6833],[15.1028,45.6844],[15.1241,45.7068],[15.0581,45.7811],[15.086,45.8061],[15.1127,45.8204],[15.1448,45.8733],[15.2099,45.8738],[15.2386,45.9244],[15.2982,45.8905],[15.3037,45.8645],[15.2809,45.8558],[15.2739,45.8299],[15.3205,45.7825],[15.331,45.7525]]]}},{"type":"Feature","id":"Obcina Gorenja vas-Poljane","properties":{"id":"Obcina Gorenja vas-Poljane","iso_code":"SI-027","name":"Obcina Gorenja vas-Poljane","name_full":"Občina Gorenja vas-Poljane","name_ja":"ゴレニャ・ヴァス＝ポリャネ","center_lonlat":[14.1353,46.1159]},"geometry":{"type":"Polygon","coordinates":[[[14.2112,46.0881],[14.2068,46.0601],[14.1868,46.0379],[14.1299,46.0732],[14.0502,46.0851],[14.0301,46.0732],[14.0278,46.1016],[14.0737,46.1581],[14.162,46.1794],[14.2228,46.1708],[14.2005,46.141],[14.2112,46.0881]]]}},{"type":"Feature","id":"Odranci","properties":{"id":"Odranci","iso_code":"SI-086","name":"Odranci","name_full":"Odranci","name_ja":"オドランツィ","center_lonlat":[16.2776,46.5864]},"geometry":{"type":"Polygon","coordinates":[[[16.3005,46.5973],[16.266,46.5691],[16.2663,46.5929],[16.3005,46.5973]]]}},{"type":"Feature","id":"Oplotnica","properties":{"id":"Oplotnica","iso_code":"SI-171","name":"Oplotnica","name_full":"Oplotnica","name_ja":"オプロトニツァ","center_lonlat":[15.4529,46.3862]},"geometry":{"type":"Polygon","coordinates":[[[15.4252,46.3713],[15.4091,46.3809],[15.4228,46.4246],[15.4603,46.3978],[15.4947,46.3925],[15.503,46.3595],[15.4252,46.3713]]]}},{"type":"Feature","id":"Ormoz","properties":{"id":"Ormoz","iso_code":"SI-087","name":"Ormoz","name_full":"Ormož","name_ja":"オルモジュ","center_lonlat":[16.1427,46.4369]},"geometry":{"type":"Polygon","coordinates":[[[16.2342,46.4849],[16.2509,46.405],[16.2803,46.3762],[16.2087,46.3671],[16.1439,46.3947],[16.0887,46.3731],[16.0757,46.3845],[16.0506,46.4249],[16.0261,46.4323],[16.04,46.4686],[16.021,46.4907],[16.0203,46.5113],[16.1366,46.4892],[16.1707,46.4957],[16.2039,46.4729],[16.2342,46.4849]]]}},{"type":"Feature","id":"Pesnica","properties":{"id":"Pesnica","iso_code":"SI-089","name":"Pesnica","name_full":"Pesnica","name_ja":"ペスニツァ","center_lonlat":[15.7124,46.6217]},"geometry":{"type":"Polygon","coordinates":[[[15.6471,46.5941],[15.6643,46.6036],[15.6457,46.6428],[15.6778,46.6489],[15.6915,46.6764],[15.7165,46.6761],[15.7706,46.6343],[15.7547,46.5733],[15.7207,46.5693],[15.6798,46.5928],[15.6471,46.5941]]]}},{"type":"Feature","id":"Piran","properties":{"id":"Piran","iso_code":"SI-090","name":"Piran","name_full":"Piran","name_ja":"ピラン","center_lonlat":[13.6291,45.4949]},"geometry":{"type":"Polygon","coordinates":[[[13.6109,45.538],[13.6417,45.4896],[13.6575,45.4922],[13.6628,45.507],[13.6932,45.4954],[13.66,45.46],[13.6241,45.4627],[13.5895,45.4888],[13.596,45.5181],[13.5686,45.5393],[13.6109,45.538]]]}},{"type":"Feature","id":"Pivka","properties":{"id":"Pivka","iso_code":"SI-091","name":"Pivka","name_full":"Pivka","name_ja":"ピフカ","center_lonlat":[14.2315,45.6818]},"geometry":{"type":"Polygon","coordinates":[[[14.3232,45.7541],[14.3277,45.7398],[14.3862,45.7075],[14.4258,45.6616],[14.4262,45.644],[14.3326,45.6719],[14.2267,45.6333],[14.0906,45.6242],[14.0799,45.6279],[14.0625,45.6865],[14.0934,45.7143],[14.1722,45.7068],[14.3232,45.7541]]]}},{"type":"Feature","id":"Podcetrtek","properties":{"id":"Podcetrtek","iso_code":"SI-092","name":"Podcetrtek","name_full":"Podčetrtek","name_ja":"ポッチェトルテク","center_lonlat":[15.646,46.0494]},"geometry":{"type":"Polygon","coordinates":[[[15.6236,46.0764],[15.6929,46.0416],[15.6678,46.0264],[15.6241,46.0378],[15.6076,46.0659],[15.6236,46.0764]]]}},{"type":"Feature","id":"Podlehnik","properties":{"id":"Podlehnik","iso_code":"SI-172","name":"Podlehnik","name_full":"Podlehnik","name_ja":"ポドレフニク","center_lonlat":[15.8764,46.3073]},"geometry":{"type":"Polygon","coordinates":[[[15.9189,46.2728],[15.8809,46.2593],[15.8251,46.3085],[15.8374,46.3452],[15.9005,46.3434],[15.9128,46.3348],[15.9189,46.2728]]]}},{"type":"Feature","id":"Podvelka","properties":{"id":"Podvelka","iso_code":"SI-093","name":"Podvelka","name_full":"Podvelka","name_ja":"ポドヴェルカ","center_lonlat":[15.3568,46.595]},"geometry":{"type":"Polygon","coordinates":[[[15.4354,46.6272],[15.4434,46.5847],[15.4304,46.5748],[15.3714,46.5873],[15.3228,46.5106],[15.3206,46.5375],[15.2704,46.5726],[15.2845,46.5986],[15.3292,46.6192],[15.3328,46.6436],[15.3881,46.6456],[15.4354,46.6272]]]}},{"type":"Feature","id":"Polzela","properties":{"id":"Polzela","iso_code":"SI-173","name":"Polzela","name_full":"Polzela","name_ja":"ポルゼラ","center_lonlat":[15.0873,46.3051]},"geometry":{"type":"Polygon","coordinates":[[[15.0666,46.3517],[15.1228,46.317],[15.104,46.255],[15.095,46.2577],[15.0513,46.3073],[15.0666,46.3517]]]}},{"type":"Feature","id":"Postojna","properties":{"id":"Postojna","iso_code":"SI-094","name":"Postojna","name_full":"Postojna","name_ja":"ポストイナ","center_lonlat":[14.1649,45.7899]},"geometry":{"type":"Polygon","coordinates":[[[14.2765,45.8461],[14.2583,45.7906],[14.2875,45.7629],[14.3232,45.7541],[14.1722,45.7068],[14.0934,45.7143],[14.0721,45.7434],[14.0372,45.761],[14.0587,45.8086],[14.046,45.8369],[14.126,45.8688],[14.1997,45.8724],[14.2765,45.8461]]]}},{"type":"Feature","id":"Prebold","properties":{"id":"Prebold","iso_code":"SI-174","name":"Prebold","name_full":"Prebold","name_ja":"プレボルド","center_lonlat":[15.0946,46.2182]},"geometry":{"type":"Polygon","coordinates":[[[15.095,46.2577],[15.104,46.255],[15.1436,46.23],[15.1309,46.1951],[15.111,46.1873],[15.0451,46.1933],[15.0511,46.2261],[15.095,46.2577]]]}},{"type":"Feature","id":"Preddvor","properties":{"id":"Preddvor","iso_code":"SI-095","name":"Preddvor","name_full":"Preddvor","name_ja":"プレッドヴォル","center_lonlat":[14.4648,46.3262]},"geometry":{"type":"Polygon","coordinates":[[[14.4672,46.2916],[14.4172,46.2889],[14.3798,46.2893],[14.3668,46.3037],[14.3866,46.307],[14.4055,46.3516],[14.427,46.3505],[14.4498,46.3671],[14.5359,46.3603],[14.5531,46.3213],[14.544,46.312],[14.4672,46.2916]]]}},{"type":"Feature","id":"Prevalje","properties":{"id":"Prevalje","iso_code":"SI-175","name":"Prevalje","name_full":"Prevalje","name_ja":"プレヴァリェ","center_lonlat":[14.8925,46.5588]},"geometry":{"type":"Polygon","coordinates":[[[14.8941,46.6052],[14.9453,46.5627],[14.9479,46.5214],[14.924,46.5048],[14.8995,46.5044],[14.9026,46.5166],[14.8634,46.5519],[14.8145,46.5513],[14.8504,46.6011],[14.8941,46.6052]]]}},{"type":"Feature","id":"Ptuj","properties":{"id":"Ptuj","iso_code":"SI-096","name":"Ptuj","name_full":"Ptuj","name_ja":"プトゥイ","center_lonlat":[15.8785,46.4423]},"geometry":{"type":"Polygon","coordinates":[[[15.8163,46.4973],[15.8234,46.4949],[15.8929,46.4523],[15.9443,46.4805],[15.9531,46.451],[15.943,46.4205],[15.9041,46.3936],[15.8695,46.384],[15.8474,46.4307],[15.8186,46.4548],[15.7815,46.4677],[15.8163,46.4973]]]}},{"type":"Feature","id":"Puconci","properties":{"id":"Puconci","iso_code":"SI-097","name":"Puconci","name_full":"Puconci","name_ja":"プツォンツィ","center_lonlat":[16.1342,46.7484]},"geometry":{"type":"Polygon","coordinates":[[[16.1364,46.8294],[16.2019,46.7903],[16.1934,46.7623],[16.2106,46.745],[16.1756,46.7187],[16.1787,46.6976],[16.1083,46.6904],[16.0591,46.7092],[16.0555,46.756],[16.0636,46.7642],[16.112,46.7674],[16.1364,46.8294]]]}},{"type":"Feature","id":"Race–Fram","properties":{"id":"Race–Fram","iso_code":"SI-098","name":"Race–Fram","name_full":"Rače–Fram","name_ja":"ラチェ＝フラム","center_lonlat":[15.6639,46.4454]},"geometry":{"type":"Polygon","coordinates":[[[15.7095,46.465],[15.717,46.46],[15.7345,46.4283],[15.6875,46.4086],[15.5458,46.4832],[15.6588,46.4599],[15.7095,46.465]]]}},{"type":"Feature","id":"Radece","properties":{"id":"Radece","iso_code":"SI-099","name":"Radece","name_full":"Radeče","name_ja":"ラデチェ","center_lonlat":[15.1473,46.0611]},"geometry":{"type":"Polygon","coordinates":[[[15.0941,46.0403],[15.0715,46.0647],[15.089,46.0679],[15.1063,46.0935],[15.1634,46.0925],[15.2019,46.0608],[15.2403,46.0337],[15.0941,46.0403]]]}},{"type":"Feature","id":"Radenci","properties":{"id":"Radenci","iso_code":"SI-100","name":"Radenci","name_full":"Radenci","name_ja":"ラデンツィ","center_lonlat":[16.0553,46.6219]},"geometry":{"type":"Polygon","coordinates":[[[16.0136,46.5937],[16.0077,46.6328],[16.0417,46.6627],[16.1103,46.6239],[16.112,46.608],[16.0793,46.5932],[16.0696,46.5873],[16.0489,46.6063],[16.0273,46.5896],[16.0136,46.5937]]]}},{"type":"Feature","id":"Radlje ob Dravi","properties":{"id":"Radlje ob Dravi","iso_code":"SI-101","name":"Radlje ob Dravi","name_full":"Radlje ob Dravi","name_ja":"ラドリェ・オブ・ドラヴィ","center_lonlat":[15.242,46.6005]},"geometry":{"type":"Polygon","coordinates":[[[15.1726,46.6414],[15.3328,46.6436],[15.3292,46.6192],[15.2845,46.5986],[15.2704,46.5726],[15.1993,46.5292],[15.1761,46.5475],[15.1838,46.5773],[15.2016,46.582],[15.2116,46.6017],[15.1835,46.6195],[15.1726,46.6414]]]}},{"type":"Feature","id":"Radovljica","properties":{"id":"Radovljica","iso_code":"SI-102","name":"Radovljica","name_full":"Radovljica","name_ja":"ラドヴリツァ","center_lonlat":[14.207,46.3401]},"geometry":{"type":"Polygon","coordinates":[[[14.1791,46.2842],[14.1716,46.305],[14.1111,46.3067],[14.1508,46.3468],[14.1375,46.3722],[14.1905,46.3869],[14.2146,46.417],[14.2382,46.4253],[14.2529,46.4135],[14.2486,46.3533],[14.2672,46.3261],[14.2746,46.2749],[14.1791,46.2842]]]}},{"type":"Feature","id":"Ravne na Koroskem","properties":{"id":"Ravne na Koroskem","iso_code":"SI-103","name":"Ravne na Koroskem","name_full":"Ravne na Koroškem","name_ja":"ラヴネ・ナ・コロシュケム","center_lonlat":[14.9631,46.5509]},"geometry":{"type":"Polygon","coordinates":[[[14.8941,46.6052],[14.9195,46.615],[15.0075,46.5689],[15.0105,46.5504],[14.9985,46.5058],[14.9656,46.4895],[14.924,46.5048],[14.9479,46.5214],[14.9453,46.5627],[14.8941,46.6052]]]}},{"type":"Feature","id":"Razkrizje","properties":{"id":"Razkrizje","iso_code":"SI-176","name":"Razkrizje","name_full":"Razkrižje","name_ja":"ラスクリジイェ","center_lonlat":[16.28,46.5249]},"geometry":{"type":"Polygon","coordinates":[[[16.3015,46.5271],[16.2609,46.5136],[16.2776,46.5339],[16.3015,46.5271]]]}},{"type":"Feature","id":"Ribnica","properties":{"id":"Ribnica","iso_code":"SI-104","name":"Ribnica","name_full":"Ribnica","name_ja":"リブニツァ","center_lonlat":[14.7224,45.7309]},"geometry":{"type":"Polygon","coordinates":[[[14.587,45.7934],[14.6877,45.818],[14.7959,45.7431],[14.8224,45.7279],[14.7883,45.6635],[14.7707,45.6419],[14.7318,45.647],[14.7312,45.6673],[14.6766,45.6831],[14.6463,45.7075],[14.6775,45.7506],[14.6752,45.7676],[14.587,45.7934]]]}},{"type":"Feature","id":"Ribnica na Pohorju","properties":{"id":"Ribnica na Pohorju","iso_code":"SI-177","name":"Ribnica na Pohorju","name_full":"Ribnica na Pohorju","name_ja":"リブニツァ・ナ・ポホリュ","center_lonlat":[15.2634,46.5256]},"geometry":{"type":"Polygon","coordinates":[[[15.2704,46.5726],[15.3206,46.5375],[15.3228,46.5106],[15.3121,46.4925],[15.2227,46.497],[15.1957,46.5109],[15.1888,46.5172],[15.1993,46.5292],[15.2704,46.5726]]]}},{"type":"Feature","id":"Rogaska Slatina","properties":{"id":"Rogaska Slatina","iso_code":"SI-106","name":"Rogaska Slatina","name_full":"Rogaška Slatina","name_ja":"ロガーシュカ・スラティナ","center_lonlat":[15.6423,46.2466]},"geometry":{"type":"Polygon","coordinates":[[[15.678,46.2145],[15.6266,46.1952],[15.6133,46.2043],[15.5658,46.2737],[15.5879,46.284],[15.6849,46.2741],[15.7413,46.2661],[15.7084,46.2517],[15.678,46.2145]]]}},{"type":"Feature","id":"Rogasovci","properties":{"id":"Rogasovci","iso_code":"SI-105","name":"Rogasovci","name_full":"Rogašovci","name_ja":"ロガショフツィ","center_lonlat":[16.0179,46.7994]},"geometry":{"type":"Polygon","coordinates":[[[16.0529,46.8461],[16.056,46.8161],[16.0521,46.7701],[16.0636,46.7642],[16.0555,46.756],[15.971,46.7751],[15.972,46.8206],[16.0529,46.8461]]]}},{"type":"Feature","id":"Rogatec","properties":{"id":"Rogatec","iso_code":"SI-107","name":"Rogatec","name_full":"Rogatec","name_ja":"ロガテツ","center_lonlat":[15.7378,46.2365]},"geometry":{"type":"Polygon","coordinates":[[[15.7995,46.2486],[15.7498,46.2108],[15.678,46.2145],[15.7084,46.2517],[15.7413,46.2661],[15.7579,46.262],[15.7995,46.2486]]]}},{"type":"Feature","id":"Ruse","properties":{"id":"Ruse","iso_code":"SI-108","name":"Ruse","name_full":"Ruše","name_ja":"ルシェ","center_lonlat":[15.4926,46.5157]},"geometry":{"type":"Polygon","coordinates":[[[15.5638,46.5099],[15.5394,46.4974],[15.4082,46.4777],[15.4597,46.55],[15.4581,46.5386],[15.4828,46.5345],[15.5604,46.5621],[15.5503,46.518],[15.5638,46.5099]]]}},{"type":"Feature","id":"Salovci","properties":{"id":"Salovci","iso_code":"SI-033","name":"Salovci","name_full":"Šalovci","name_ja":"シャロフツィ","center_lonlat":[16.2623,46.8286]},"geometry":{"type":"Polygon","coordinates":[[[16.3111,46.7975],[16.2995,46.7795],[16.2577,46.78],[16.2664,46.8019],[16.2588,46.8179],[16.1795,46.8585],[16.272,46.864],[16.2974,46.847],[16.2959,46.8102],[16.3111,46.7975]]]}},{"type":"Feature","id":"Selnica ob Dravi","properties":{"id":"Selnica ob Dravi","iso_code":"SI-178","name":"Selnica ob Dravi","name_full":"Selnica ob Dravi","name_ja":"セルニツァ・オブ・ドラヴィ","center_lonlat":[15.4945,46.5829]},"geometry":{"type":"Polygon","coordinates":[[[15.5139,46.6325],[15.5604,46.5621],[15.4828,46.5345],[15.4581,46.5386],[15.4597,46.55],[15.4617,46.5683],[15.4434,46.5847],[15.4354,46.6272],[15.4627,46.6146],[15.5139,46.6325]]]}},{"type":"Feature","id":"Semic","properties":{"id":"Semic","iso_code":"SI-109","name":"Semic","name_full":"Semič","name_ja":"セミチ","center_lonlat":[15.1589,45.6462]},"geometry":{"type":"Polygon","coordinates":[[[15.2281,45.7027],[15.2843,45.6501],[15.2589,45.6216],[15.225,45.6083],[15.174,45.6174],[15.1332,45.5963],[15.0736,45.6019],[15.0376,45.6313],[15.0637,45.6756],[15.1028,45.6844],[15.1846,45.6833],[15.2281,45.7027]]]}},{"type":"Feature","id":"Sempeter–Vrtojba","properties":{"id":"Sempeter–Vrtojba","iso_code":"SI-183","name":"Sempeter–Vrtojba","name_full":"Šempeter–Vrtojba","name_ja":"シェンペテル＝ヴロトイバ","center_lonlat":[13.6412,45.9203]},"geometry":{"type":"Polygon","coordinates":[[[13.5993,45.9123],[13.6153,45.9459],[13.6862,45.9258],[13.6851,45.913],[13.647,45.8972],[13.5993,45.9123]]]}},{"type":"Feature","id":"Sencur","properties":{"id":"Sencur","iso_code":"SI-117","name":"Sencur","name_full":"Šenčur","name_ja":"シェンチュル","center_lonlat":[14.4248,46.238]},"geometry":{"type":"Polygon","coordinates":[[[14.4172,46.2889],[14.4672,46.2916],[14.4422,46.2552],[14.4445,46.2232],[14.4629,46.2061],[14.4587,46.1933],[14.4065,46.1918],[14.3831,46.2245],[14.4172,46.2889]]]}},{"type":"Feature","id":"Sentilj","properties":{"id":"Sentilj","iso_code":"SI-118","name":"Sentilj","name_full":"Šentilj","name_ja":"シェンティリ","center_lonlat":[15.7129,46.6812]},"geometry":{"type":"Polygon","coordinates":[[[15.7846,46.7122],[15.8043,46.6998],[15.7928,46.6657],[15.8002,46.6469],[15.7784,46.6482],[15.7706,46.6343],[15.7165,46.6761],[15.6915,46.6764],[15.6778,46.6489],[15.6457,46.6428],[15.6217,46.6782],[15.636,46.7176],[15.7287,46.703],[15.7846,46.7122]]]}},{"type":"Feature","id":"Sentjernej","properties":{"id":"Sentjernej","iso_code":"SI-119","name":"Sentjernej","name_full":"Šentjernej","name_ja":"シェントイェルニェイ","center_lonlat":[15.35,45.8181]},"geometry":{"type":"Polygon","coordinates":[[[15.4298,45.7757],[15.331,45.7525],[15.3205,45.7825],[15.2739,45.8299],[15.2809,45.8558],[15.3037,45.8645],[15.3439,45.8683],[15.361,45.8837],[15.3881,45.8766],[15.4011,45.8099],[15.4298,45.7757]]]}},{"type":"Feature","id":"Sentjur","properties":{"id":"Sentjur","iso_code":"SI-120","name":"Sentjur","name_full":"Šentjur","name_ja":"シェントユル","center_lonlat":[15.4336,46.1857]},"geometry":{"type":"Polygon","coordinates":[[[15.3633,46.1813],[15.3638,46.2189],[15.3394,46.229],[15.3585,46.2605],[15.3799,46.2946],[15.3765,46.3113],[15.53,46.2766],[15.4471,46.2215],[15.4836,46.1659],[15.5455,46.1552],[15.536,46.1304],[15.4992,46.1093],[15.4816,46.1127],[15.4926,46.0677],[15.4184,46.0633],[15.3684,46.0721],[15.3827,46.1082],[15.4201,46.1257],[15.4356,46.1181],[15.4403,46.1286],[15.4071,46.1527],[15.3709,46.1357],[15.375,46.1678],[15.3633,46.1813]]]}},{"type":"Feature","id":"Sevnica","properties":{"id":"Sevnica","iso_code":"SI-110","name":"Sevnica","name_full":"Sevnica","name_ja":"セヴニツァ","center_lonlat":[15.281,46.0082]},"geometry":{"type":"Polygon","coordinates":[[[15.3684,46.0721],[15.4184,46.0633],[15.4294,46.0006],[15.363,45.9348],[15.3346,45.9542],[15.2957,45.9561],[15.284,45.9357],[15.2597,45.945],[15.2386,45.9244],[15.1661,45.9643],[15.1662,45.9959],[15.1434,45.9892],[15.1161,46.0042],[15.0941,46.0403],[15.2403,46.0337],[15.2019,46.0608],[15.1939,46.0822],[15.2539,46.0833],[15.2871,46.0591],[15.3684,46.0721]]]}},{"type":"Feature","id":"Sezana","properties":{"id":"Sezana","iso_code":"SI-111","name":"Sezana","name_full":"Sežana","name_ja":"セジャーナ","center_lonlat":[13.8676,45.7359]},"geometry":{"type":"Polygon","coordinates":[[[13.8936,45.6338],[13.8584,45.6494],[13.7787,45.7434],[13.6999,45.7705],[13.7319,45.7913],[13.9025,45.8102],[13.9899,45.765],[13.9567,45.74],[13.9679,45.7053],[13.9365,45.6704],[13.9384,45.6426],[13.8936,45.6338]]]}},{"type":"Feature","id":"Skocjan","properties":{"id":"Skocjan","iso_code":"SI-121","name":"Skocjan","name_full":"Škocjan","name_ja":"シュコツィアン","center_lonlat":[15.3122,45.9144]},"geometry":{"type":"Polygon","coordinates":[[[15.3037,45.8645],[15.2982,45.8905],[15.2386,45.9244],[15.2597,45.945],[15.284,45.9357],[15.2957,45.9561],[15.3346,45.9542],[15.363,45.9348],[15.3506,45.8917],[15.361,45.8837],[15.3439,45.8683],[15.3037,45.8645]]]}},{"type":"Feature","id":"Skofja Loka","properties":{"id":"Skofja Loka","iso_code":"SI-122","name":"Skofja Loka","name_full":"Škofja Loka","name_ja":"シュコーフィア・ロカ","center_lonlat":[14.2779,46.1609]},"geometry":{"type":"Polygon","coordinates":[[[14.2486,46.243],[14.2772,46.2321],[14.2759,46.2108],[14.3654,46.1956],[14.3642,46.1832],[14.3798,46.1815],[14.3938,46.1603],[14.3378,46.1346],[14.325,46.0983],[14.2673,46.1065],[14.2112,46.0881],[14.2005,46.141],[14.2228,46.1708],[14.162,46.1794],[14.2255,46.2068],[14.2486,46.243]]]}},{"type":"Feature","id":"Skofljica","properties":{"id":"Skofljica","iso_code":"SI-123","name":"Skofljica","name_full":"Škofljica","name_ja":"シュコフリツァ","center_lonlat":[14.5734,45.9653]},"geometry":{"type":"Polygon","coordinates":[[[14.6009,45.9089],[14.5853,45.8963],[14.5645,45.9047],[14.5541,45.9724],[14.5333,45.9902],[14.5355,46.0131],[14.563,46.0188],[14.6162,45.9967],[14.591,45.9801],[14.6009,45.9089]]]}},{"type":"Feature","id":"Slovenj Gradec","properties":{"id":"Slovenj Gradec","iso_code":"SI-112","name":"Slovenj Gradec","name_full":"Slovenj Gradec","name_ja":"スロヴェニ・グラデツ","center_lonlat":[15.0779,46.4909]},"geometry":{"type":"Polygon","coordinates":[[[14.9656,46.4895],[14.9985,46.5058],[15.0105,46.5504],[15.0246,46.5381],[15.0643,46.5423],[15.1034,46.57],[15.1433,46.5336],[15.1888,46.5172],[15.1957,46.5109],[15.1236,46.422],[15.0986,46.4338],[15.0893,46.4265],[14.9563,46.4599],[14.9656,46.4895]]]}},{"type":"Feature","id":"Slovenska Bistrica","properties":{"id":"Slovenska Bistrica","iso_code":"SI-113","name":"Slovenska Bistrica","name_full":"Slovenska Bistrica","name_ja":"スロヴェンスカ・ビストリツァ","center_lonlat":[15.5626,46.3901]},"geometry":{"type":"Polygon","coordinates":[[[15.5525,46.2777],[15.5478,46.3339],[15.503,46.3595],[15.4947,46.3925],[15.4603,46.3978],[15.4228,46.4246],[15.3525,46.4526],[15.3351,46.4774],[15.3812,46.4688],[15.4082,46.4777],[15.5394,46.4974],[15.5458,46.4832],[15.6875,46.4086],[15.6774,46.4023],[15.6808,46.3677],[15.6901,46.3487],[15.7214,46.3367],[15.7118,46.2969],[15.6849,46.2741],[15.5879,46.284],[15.5658,46.2737],[15.5525,46.2777]]]}},{"type":"Feature","id":"Slovenske Konjice","properties":{"id":"Slovenske Konjice","iso_code":"SI-114","name":"Slovenske Konjice","name_full":"Slovenske Konjice","name_ja":"スロヴェンスケ・コニツェ","center_lonlat":[15.468,46.3245]},"geometry":{"type":"Polygon","coordinates":[[[15.3765,46.3113],[15.3688,46.334],[15.4252,46.3713],[15.503,46.3595],[15.5478,46.3339],[15.5525,46.2777],[15.53,46.2766],[15.3765,46.3113]]]}},{"type":"Feature","id":"Smarje pri Jelsah","properties":{"id":"Smarje pri Jelsah","iso_code":"SI-124","name":"Smarje pri Jelsah","name_full":"Šmarje pri Jelšah","name_ja":"シュマリェ・プリ・イェルシャフ","center_lonlat":[15.5312,46.2147]},"geometry":{"type":"Polygon","coordinates":[[[15.53,46.2766],[15.5525,46.2777],[15.5658,46.2737],[15.6133,46.2043],[15.5455,46.1552],[15.4836,46.1659],[15.4471,46.2215],[15.53,46.2766]]]}},{"type":"Feature","id":"Smartno ob Paki","properties":{"id":"Smartno ob Paki","iso_code":"SI-125","name":"Smartno ob Paki","name_full":"Šmartno ob Paki","name_ja":"シュマルトノ・オプ・パキ","center_lonlat":[15.0334,46.3439]},"geometry":{"type":"Polygon","coordinates":[[[14.9999,46.3772],[15.0666,46.3517],[15.0513,46.3073],[15.0084,46.3372],[14.9999,46.3772]]]}},{"type":"Feature","id":"Smartno pri Litiji","properties":{"id":"Smartno pri Litiji","iso_code":"SI-194","name":"Smartno pri Litiji","name_full":"Šmartno pri Litiji","name_ja":"シュマルトノ・プリ・リティイ","center_lonlat":[14.844,46.0253]},"geometry":{"type":"Polygon","coordinates":[[[14.7496,46.003],[14.7361,46.0656],[14.8058,46.0597],[14.8657,46.07],[14.9359,46.0183],[14.9545,45.9751],[14.9273,45.963],[14.8714,46.0053],[14.7496,46.003]]]}},{"type":"Feature","id":"Sodrazica","properties":{"id":"Sodrazica","iso_code":"SI-179","name":"Sodrazica","name_full":"Sodražica","name_ja":"ソドラジツァ","center_lonlat":[14.6169,45.7561]},"geometry":{"type":"Polygon","coordinates":[[[14.5642,45.7901],[14.587,45.7934],[14.6752,45.7676],[14.6775,45.7506],[14.6463,45.7075],[14.6196,45.7289],[14.5761,45.7353],[14.5533,45.7813],[14.5642,45.7901]]]}},{"type":"Feature","id":"Solcava","properties":{"id":"Solcava","iso_code":"SI-180","name":"Solcava","name_full":"Solčava","name_ja":"ソルチャヴァ","center_lonlat":[14.6561,46.4097]},"geometry":{"type":"Polygon","coordinates":[[[14.6725,46.4598],[14.7221,46.448],[14.7546,46.4215],[14.7265,46.3834],[14.6399,46.3664],[14.5687,46.3688],[14.5621,46.3917],[14.5901,46.4344],[14.6725,46.4598]]]}},{"type":"Feature","id":"Sostanj","properties":{"id":"Sostanj","iso_code":"SI-126","name":"Sostanj","name_full":"Šoštanj","name_ja":"ショーシュタニ","center_lonlat":[15.0004,46.4108]},"geometry":{"type":"Polygon","coordinates":[[[14.9563,46.4599],[15.0893,46.4265],[15.0666,46.3517],[14.9999,46.3772],[15.0019,46.3881],[14.9856,46.3958],[14.9022,46.3939],[14.8917,46.4235],[14.9559,46.4472],[14.9563,46.4599]]]}},{"type":"Feature","id":"Starse","properties":{"id":"Starse","iso_code":"SI-115","name":"Starse","name_full":"Starše","name_ja":"スタルチェ","center_lonlat":[15.7603,46.457]},"geometry":{"type":"Polygon","coordinates":[[[15.7331,46.5032],[15.7815,46.4677],[15.8186,46.4548],[15.8005,46.4316],[15.7345,46.4283],[15.717,46.46],[15.7328,46.4744],[15.7233,46.4917],[15.7331,46.5032]]]}},{"type":"Feature","id":"Store","properties":{"id":"Store","iso_code":"SI-127","name":"Store","name_full":"Štore","name_ja":"シュトレ","center_lonlat":[15.3315,46.1977]},"geometry":{"type":"Polygon","coordinates":[[[15.3394,46.229],[15.3638,46.2189],[15.3633,46.1813],[15.2938,46.1655],[15.3014,46.1889],[15.3082,46.2183],[15.3394,46.229]]]}},{"type":"Feature","id":"Sveta Ana","properties":{"id":"Sveta Ana","iso_code":"SI-181","name":"Sveta Ana","name_full":"Sveta Ana","name_ja":"スヴェタ・アナ","center_lonlat":[15.8406,46.6545]},"geometry":{"type":"Polygon","coordinates":[[[15.8002,46.6469],[15.7928,46.6657],[15.8043,46.6998],[15.8886,46.6628],[15.8881,46.6459],[15.8628,46.611],[15.8346,46.6149],[15.8183,46.6454],[15.8002,46.6469]]]}},{"type":"Feature","id":"Sveti Andraz v Slovenskih Goricah","properties":{"id":"Sveti Andraz v Slovenskih Goricah","iso_code":"SI-182","name":"Sveti Andraz v Slovenskih Goricah","name_full":"Sveti Andraž v Slovenskih Goricah","name_ja":"スヴェティ・アンドラジュ・フ・スロヴェンスキフ・ゴリツァフ","center_lonlat":[15.9582,46.5218]},"geometry":{"type":"Polygon","coordinates":[[[15.9241,46.5344],[15.9285,46.5419],[15.9592,46.5334],[15.9867,46.5467],[16.0074,46.5244],[15.9622,46.5109],[15.9472,46.4872],[15.9286,46.5041],[15.9241,46.5344]]]}},{"type":"Feature","id":"Sveti Jurij ob Scavnici","properties":{"id":"Sveti Jurij ob Scavnici","iso_code":"SI-116","name":"Sveti Jurij ob Scavnici","name_full":"Sveti Jurij ob Ščavnici","name_ja":"スヴェティ・ユリイ・オプ・シュチャヴニツィ","center_lonlat":[16.0299,46.5639]},"geometry":{"type":"Polygon","coordinates":[[[15.9783,46.586],[16.0136,46.5937],[16.0273,46.5896],[16.0489,46.6063],[16.0696,46.5873],[16.0793,46.5932],[16.0903,46.5696],[16.0778,46.5419],[16.0456,46.5453],[16.0203,46.5113],[16.0074,46.5244],[15.9867,46.5467],[15.9685,46.5662],[15.9783,46.586]]]}},{"type":"Feature","id":"Tabor","properties":{"id":"Tabor","iso_code":"SI-184","name":"Tabor","name_full":"Tabor","name_ja":"タボル","center_lonlat":[15.0167,46.2214]},"geometry":{"type":"Polygon","coordinates":[[[14.9707,46.1978],[15.01,46.258],[15.0305,46.2533],[15.0511,46.2261],[15.0451,46.1933],[14.9999,46.199],[14.9707,46.1978]]]}},{"type":"Feature","id":"Tolmin","properties":{"id":"Tolmin","iso_code":"SI-128","name":"Tolmin","name_full":"Tolmin","name_ja":"トールミン","center_lonlat":[13.8076,46.1727]},"geometry":{"type":"Polygon","coordinates":[[[13.6411,46.1714],[13.6274,46.1817],[13.6369,46.1911],[13.6228,46.2005],[13.6293,46.2242],[13.6853,46.234],[13.709,46.2774],[13.7367,46.2861],[13.7708,46.262],[13.8657,46.2317],[13.997,46.2393],[14.005,46.2199],[13.9893,46.1946],[13.8935,46.1542],[13.8861,46.1345],[13.9078,46.0764],[13.8949,46.0677],[13.8609,46.0587],[13.8746,46.043],[13.8659,46.007],[13.8204,46.036],[13.8,46.1036],[13.7689,46.1016],[13.6969,46.1363],[13.6665,46.1752],[13.6411,46.1714]]]}},{"type":"Feature","id":"Trbovlje","properties":{"id":"Trbovlje","iso_code":"SI-129","name":"Trbovlje","name_full":"Trbovlje","name_ja":"トルボヴリェ","center_lonlat":[15.0474,46.1264]},"geometry":{"type":"Polygon","coordinates":[[[15.1063,46.0935],[15.089,46.0679],[15.0715,46.0647],[15.0024,46.0564],[14.9931,46.0853],[15.0047,46.0989],[14.9999,46.1191],[15.0313,46.1259],[15.0134,46.1559],[14.9859,46.1668],[15.0128,46.1822],[14.9999,46.199],[15.0451,46.1933],[15.111,46.1873],[15.1133,46.1834],[15.0651,46.1365],[15.1063,46.0935]]]}},{"type":"Feature","id":"Trebnje","properties":{"id":"Trebnje","iso_code":"SI-130","name":"Trebnje","name_full":"Trebnje","name_ja":"トレビニェ","center_lonlat":[15.0485,45.9219]},"geometry":{"type":"Polygon","coordinates":[[[15.1448,45.8733],[15.0975,45.8947],[15.0434,45.8669],[15.0373,45.8409],[14.967,45.8438],[14.9295,45.8706],[14.8772,45.8696],[14.8688,45.8874],[14.882,45.9326],[14.9273,45.963],[14.9545,45.9751],[14.9999,45.9644],[15.0241,45.9702],[15.0406,46.0006],[15.1161,46.0042],[15.1434,45.9892],[15.1662,45.9959],[15.1661,45.9643],[15.2386,45.9244],[15.2099,45.8738],[15.1448,45.8733]]]}},{"type":"Feature","id":"Trnovska Vas","properties":{"id":"Trnovska Vas","iso_code":"SI-185","name":"Trnovska Vas","name_full":"Trnovska Vas","name_ja":"トルノフスカ・ヴァス","center_lonlat":[15.8942,46.522]},"geometry":{"type":"Polygon","coordinates":[[[15.9241,46.5344],[15.9286,46.5041],[15.8545,46.5063],[15.8676,46.5337],[15.8921,46.5464],[15.9241,46.5344]]]}},{"type":"Feature","id":"Trzic","properties":{"id":"Trzic","iso_code":"SI-131","name":"Trzic","name_full":"Tržič","name_ja":"トルジッチ","center_lonlat":[14.3307,46.3888]},"geometry":{"type":"Polygon","coordinates":[[[14.2423,46.4382],[14.3958,46.441],[14.4371,46.4189],[14.4055,46.3516],[14.3505,46.3484],[14.3263,46.3214],[14.2672,46.3261],[14.2486,46.3533],[14.2529,46.4135],[14.2382,46.4253],[14.2423,46.4382]]]}},{"type":"Feature","id":"Trzin","properties":{"id":"Trzin","iso_code":"SI-186","name":"Trzin","name_full":"Trzin","name_ja":"トルジン","center_lonlat":[14.5599,46.1293]},"geometry":{"type":"Polygon","coordinates":[[[14.5206,46.1324],[14.5898,46.1477],[14.5693,46.1078],[14.5206,46.1324]]]}},{"type":"Feature","id":"Turnisce","properties":{"id":"Turnisce","iso_code":"SI-132","name":"Turnisce","name_full":"Turnišče","name_ja":"トゥルニシチェ","center_lonlat":[16.3209,46.6156]},"geometry":{"type":"Polygon","coordinates":[[[16.3479,46.6153],[16.3785,46.5998],[16.3404,46.5994],[16.3285,46.5838],[16.3005,46.5973],[16.2982,46.6179],[16.2832,46.6277],[16.2979,46.6479],[16.3144,46.6451],[16.3479,46.6153]]]}},{"type":"Feature","id":"Velenje","properties":{"id":"Velenje","iso_code":"SI-133","name":"Velenje","name_full":"Velenje","name_ja":"ヴェレニエ","center_lonlat":[15.1334,46.3723]},"geometry":{"type":"Polygon","coordinates":[[[15.1236,46.422],[15.1755,46.4091],[15.1758,46.394],[15.1903,46.3884],[15.2063,46.3457],[15.1965,46.3277],[15.1461,46.3358],[15.1228,46.317],[15.0666,46.3517],[15.0893,46.4265],[15.0986,46.4338],[15.1236,46.422]]]}},{"type":"Feature","id":"Velika Polana","properties":{"id":"Velika Polana","iso_code":"SI-187","name":"Velika Polana","name_full":"Velika Polana","name_ja":"ヴェリカ・ポラナ","center_lonlat":[16.3581,46.5814]},"geometry":{"type":"Polygon","coordinates":[[[16.3785,46.5998],[16.3975,46.5782],[16.3345,46.5565],[16.3285,46.5838],[16.3404,46.5994],[16.3785,46.5998]]]}},{"type":"Feature","id":"Velike Lasce","properties":{"id":"Velike Lasce","iso_code":"SI-134","name":"Velike Lasce","name_full":"Velike Lašče","name_ja":"ヴェリケ・ラシチェ","center_lonlat":[14.5852,45.8428]},"geometry":{"type":"Polygon","coordinates":[[[14.5051,45.8408],[14.4902,45.8809],[14.5701,45.8676],[14.5853,45.8963],[14.6009,45.9089],[14.6402,45.8748],[14.6388,45.8493],[14.6877,45.818],[14.587,45.7934],[14.5642,45.7901],[14.5051,45.8408]]]}},{"type":"Feature","id":"Verzej","properties":{"id":"Verzej","iso_code":"SI-188","name":"Verzej","name_full":"Veržej","name_ja":"ヴェルジェイ","center_lonlat":[16.1733,46.5855]},"geometry":{"type":"Polygon","coordinates":[[[16.1608,46.6059],[16.2168,46.5841],[16.1767,46.5601],[16.1381,46.5931],[16.1364,46.6031],[16.1608,46.6059]]]}},{"type":"Feature","id":"Videm","properties":{"id":"Videm","iso_code":"SI-135","name":"Videm","name_full":"Videm","name_ja":"ヴィデム","center_lonlat":[15.9069,46.3412]},"geometry":{"type":"Polygon","coordinates":[[[15.9937,46.2906],[15.9189,46.2728],[15.9128,46.3348],[15.9005,46.3434],[15.8374,46.3452],[15.8251,46.3085],[15.8011,46.3206],[15.8133,46.3389],[15.8025,46.3549],[15.8188,46.3591],[15.8315,46.3948],[15.8695,46.384],[15.9041,46.3936],[15.9693,46.3619],[15.9937,46.2906]]]}},{"type":"Feature","id":"Vipava","properties":{"id":"Vipava","iso_code":"SI-136","name":"Vipava","name_full":"Vipava","name_ja":"ヴィパーヴァ","center_lonlat":[13.983,45.8189]},"geometry":{"type":"Polygon","coordinates":[[[14.046,45.8369],[14.0587,45.8086],[14.0372,45.761],[13.9899,45.765],[13.9025,45.8102],[13.8859,45.8287],[13.9734,45.8772],[14.0051,45.873],[14.046,45.8369]]]}},{"type":"Feature","id":"Vitanje","properties":{"id":"Vitanje","iso_code":"SI-137","name":"Vitanje","name_full":"Vitanje","name_ja":"ヴィタニェ","center_lonlat":[15.2968,46.4035]},"geometry":{"type":"Polygon","coordinates":[[[15.3312,46.3652],[15.2677,46.365],[15.2325,46.3925],[15.2735,46.4433],[15.3248,46.4512],[15.3369,46.4459],[15.3253,46.4292],[15.3584,46.3976],[15.3312,46.3652]]]}},{"type":"Feature","id":"Vodice","properties":{"id":"Vodice","iso_code":"SI-138","name":"Vodice","name_full":"Vodice","name_ja":"ヴォディツェ","center_lonlat":[14.4931,46.1741]},"geometry":{"type":"Polygon","coordinates":[[[14.4692,46.1435],[14.4587,46.1933],[14.4629,46.2061],[14.5007,46.2029],[14.5378,46.1742],[14.5139,46.1456],[14.4692,46.1435]]]}},{"type":"Feature","id":"Vojnik","properties":{"id":"Vojnik","iso_code":"SI-139","name":"Vojnik","name_full":"Vojnik","name_ja":"ヴォイニク","center_lonlat":[15.3166,46.3166]},"geometry":{"type":"Polygon","coordinates":[[[15.2677,46.365],[15.3312,46.3652],[15.3688,46.334],[15.3765,46.3113],[15.3799,46.2946],[15.3585,46.2605],[15.3016,46.2739],[15.2401,46.3205],[15.2592,46.3356],[15.2677,46.365]]]}},{"type":"Feature","id":"Vransko","properties":{"id":"Vransko","iso_code":"SI-189","name":"Vransko","name_full":"Vransko","name_ja":"ヴランスコ","center_lonlat":[14.9499,46.2402]},"geometry":{"type":"Polygon","coordinates":[[[14.9101,46.2105],[14.9301,46.2188],[14.8849,46.2405],[14.9003,46.2633],[14.9703,46.2838],[15.01,46.258],[14.9707,46.1978],[14.9374,46.1919],[14.9101,46.2105]]]}},{"type":"Feature","id":"Vrhnika","properties":{"id":"Vrhnika","iso_code":"SI-140","name":"Vrhnika","name_full":"Vrhnika","name_ja":"ブルフニカ","center_lonlat":[14.3006,45.9597]},"geometry":{"type":"Polygon","coordinates":[[[14.2441,46.0202],[14.2405,46.0055],[14.2738,45.9939],[14.342,46.014],[14.3853,46.0322],[14.3974,46.0109],[14.3722,45.9939],[14.3656,45.9655],[14.3378,45.9548],[14.3344,45.9344],[14.3763,45.8715],[14.2992,45.8857],[14.2604,45.9292],[14.2143,45.9525],[14.2298,45.995],[14.1963,46.0081],[14.1904,46.0247],[14.2441,46.0202]]]}},{"type":"Feature","id":"Vuzenica","properties":{"id":"Vuzenica","iso_code":"SI-141","name":"Vuzenica","name_full":"Vuzenica","name_ja":"ヴゼニツァ","center_lonlat":[15.1574,46.5733]},"geometry":{"type":"Polygon","coordinates":[[[15.1835,46.6195],[15.2116,46.6017],[15.2016,46.582],[15.1838,46.5773],[15.1761,46.5475],[15.1993,46.5292],[15.1888,46.5172],[15.1433,46.5336],[15.1034,46.57],[15.1087,46.5949],[15.1258,46.6012],[15.1835,46.6195]]]}},{"type":"Feature","id":"Zagorje ob Savi","properties":{"id":"Zagorje ob Savi","iso_code":"SI-05","name":"Zagorje ob Savi","name_full":"Zagorje ob Savi","name_ja":"ザサヴスカ","center_lonlat":[14.9324,46.1518]},"geometry":{"type":"Polygon","coordinates":[[[14.8348,46.137],[14.8406,46.149],[14.8284,46.1603],[14.8168,46.1705],[14.8927,46.1792],[14.8989,46.2087],[14.9101,46.2105],[14.9374,46.1919],[14.9707,46.1978],[14.9999,46.199],[15.0128,46.1822],[14.9859,46.1668],[15.0134,46.1559],[15.0313,46.1259],[14.9999,46.1191],[14.9113,46.0929],[14.8924,46.1089],[14.8905,46.1278],[14.8348,46.137]]]}},{"type":"Feature","id":"Zalec","properties":{"id":"Zalec","iso_code":"SI-190","name":"Zalec","name_full":"Žalec","name_ja":"ジャレツ","center_lonlat":[15.1701,46.261]},"geometry":{"type":"Polygon","coordinates":[[[15.2261,46.3174],[15.2164,46.1982],[15.204,46.1882],[15.1133,46.1834],[15.111,46.1873],[15.1309,46.1951],[15.1436,46.23],[15.104,46.255],[15.1228,46.317],[15.1461,46.3358],[15.1965,46.3277],[15.2261,46.3174]]]}},{"type":"Feature","id":"Zavrc","properties":{"id":"Zavrc","iso_code":"SI-143","name":"Zavrc","name_full":"Zavrč","name_ja":"ザヴルチ","center_lonlat":[16.0517,46.362]},"geometry":{"type":"Polygon","coordinates":[[[16.0887,46.3731],[16.058,46.3775],[16.0499,46.3167],[16.0315,46.3641],[16.0552,46.3881],[16.0757,46.3845],[16.0887,46.3731]]]}},{"type":"Feature","id":"Zelezniki","properties":{"id":"Zelezniki","iso_code":"SI-146","name":"Zelezniki","name_full":"Železniki","name_ja":"ジェレズニキ","center_lonlat":[14.1145,46.2192]},"geometry":{"type":"Polygon","coordinates":[[[14.1665,46.2813],[14.2486,46.243],[14.2255,46.2068],[14.162,46.1794],[14.0737,46.1581],[13.9936,46.1781],[13.9893,46.1946],[14.005,46.2199],[13.997,46.2393],[14.0291,46.2501],[14.0853,46.2439],[14.1106,46.2813],[14.1665,46.2813]]]}},{"type":"Feature","id":"Zetale","properties":{"id":"Zetale","iso_code":"SI-191","name":"Zetale","name_full":"Žetale","name_ja":"ジェタレ","center_lonlat":[15.8112,46.2785]},"geometry":{"type":"Polygon","coordinates":[[[15.8809,46.2593],[15.7995,46.2486],[15.7579,46.262],[15.7618,46.2858],[15.8011,46.3206],[15.8251,46.3085],[15.8809,46.2593]]]}},{"type":"Feature","id":"Ziri","properties":{"id":"Ziri","iso_code":"SI-147","name":"Ziri","name_full":"Žiri","name_ja":"ジリ","center_lonlat":[14.1109,46.0481]},"geometry":{"type":"Polygon","coordinates":[[[14.1868,46.0379],[14.1387,46.0058],[14.1112,46.0126],[14.0301,46.0732],[14.0502,46.0851],[14.1299,46.0732],[14.1868,46.0379]]]}},{"type":"Feature","id":"Zirovnica","properties":{"id":"Zirovnica","iso_code":"SI-192","name":"Zirovnica","name_full":"Žirovnica","name_ja":"ジロヴニツァ","center_lonlat":[14.172,46.412]},"geometry":{"type":"Polygon","coordinates":[[[14.1479,46.4404],[14.2423,46.4382],[14.2382,46.4253],[14.2146,46.417],[14.1905,46.3869],[14.1375,46.3722],[14.1209,46.3927],[14.1279,46.4068],[14.1294,46.4251],[14.1479,46.4404]]]}},{"type":"Feature","id":"Zrece","properties":{"id":"Zrece","iso_code":"SI-144","name":"Zrece","name_full":"Zreče","name_ja":"ズレチェ","center_lonlat":[15.3714,46.4021]},"geometry":{"type":"Polygon","coordinates":[[[15.3312,46.3652],[15.3584,46.3976],[15.3253,46.4292],[15.3369,46.4459],[15.3248,46.4512],[15.3157,46.4822],[15.3351,46.4774],[15.3525,46.4526],[15.4228,46.4246],[15.4091,46.3809],[15.4252,46.3713],[15.3688,46.334],[15.3312,46.3652]]]}},{"type":"Feature","id":"Zuzemberk","properties":{"id":"Zuzemberk","iso_code":"SI-193","name":"Zuzemberk","name_full":"Žužemberk","name_ja":"ジュジェンベルク","center_lonlat":[14.9344,45.8073]},"geometry":{"type":"Polygon","coordinates":[[[15.0373,45.8409],[15.086,45.8061],[15.0581,45.7811],[15.015,45.7848],[14.9821,45.7663],[14.9264,45.7692],[14.877,45.7439],[14.8465,45.7596],[14.8137,45.7577],[14.8046,45.7975],[14.8489,45.7997],[14.8562,45.8251],[14.8474,45.8509],[14.8765,45.8571],[14.8772,45.8696],[14.9295,45.8706],[14.967,45.8438],[15.0373,45.8409]]]}}]}
