{"type":"FeatureCollection","features":[{"type":"Feature","id":"Central","properties":{"id":"Central","iso_code":"SB-CE","name":"Central","name_full":"Central","name_ja":"中央州","center_lonlat":[160.2025,-9.0555]},"geometry":{"type":"MultiPolygon","coordinates":[[[[160.0967,-9.0566],[160.0791,-9.0395],[160.1239,-9.0294],[160.1343,-9.0156],[160.1411,-9.023],[160.1477,-8.9897],[160.2085,-9.0027],[160.223,-9.023],[160.2402,-9.0063],[160.258,-9.009],[160.2951,-9.0395],[160.3014,-9.0616],[160.2645,-9.1316],[160.2442,-9.1242],[160.2282,-9.0983],[160.2162,-9.0976],[160.2162,-9.1179],[160.1875,-9.0818],[160.1567,-9.094],[160.12,-9.0906],[160.0967,-9.0566]]],[[[160.2541,-9.1589],[160.292,-9.1316],[160.315,-9.0617],[160.3323,-9.0634],[160.3592,-9.1109],[160.4142,-9.1316],[160.3664,-9.1862],[160.3049,-9.1598],[160.2852,-9.1658],[160.2893,-9.178],[160.2744,-9.1865],[160.2305,-9.193],[160.2346,-9.1788],[160.2162,-9.1726],[160.2219,-9.1628],[160.2541,-9.1589]]],[[[159.1672,-9.018],[159.1952,-9.023],[159.1473,-9.1037],[159.0996,-9.1179],[159.0762,-9.096],[159.0648,-9.1037],[159.0393,-9.0685],[159.041,-9.0573],[159.0723,-9.0566],[159.0693,-9.0338],[159.0921,-9.0361],[159.0921,-9.023],[159.1126,-9.0292],[159.0921,-8.9944],[159.124,-8.9999],[159.1336,-8.9884],[159.1444,-9.0209],[159.1594,-9.0291],[159.1672,-9.018]]],[[[159.1952,-9.0566],[159.2361,-9.023],[159.2171,-9.0751],[159.2361,-9.0763],[159.2332,-9.101],[159.1741,-9.1384],[159.1952,-9.0566]]],[[[160.0791,-9.023],[160.0667,-9.0136],[160.0744,-8.9513],[160.0926,-8.9405],[160.1131,-8.9944],[160.0991,-8.9885],[160.0791,-9.023]]],[[[159.8289,-9.1726],[159.8147,-9.1662],[159.8045,-9.1301],[159.8115,-9.1111],[159.8327,-9.1037],[159.8447,-9.1454],[159.8289,-9.1726]]]]}},{"type":"Feature","id":"Choiseul","properties":{"id":"Choiseul","iso_code":"SB-CH","name":"Choiseul","name_full":"Choiseul","name_ja":"チョイスル州","center_lonlat":[156.9409,-7.0205]},"geometry":{"type":"MultiPolygon","coordinates":[[[[157.5298,-7.3332],[157.5264,-7.3709],[157.4735,-7.3847],[157.4479,-7.4322],[157.4417,-7.4142],[157.3254,-7.3918],[157.308,-7.3603],[157.3169,-7.3366],[157.278,-7.3565],[157.2766,-7.3708],[157.2009,-7.3366],[157.148,-7.3323],[157.1183,-7.3425],[157.0569,-7.2683],[157.0147,-7.2826],[157.0228,-7.2683],[157.0135,-7.2519],[156.9277,-7.2088],[156.8343,-7.0998],[156.8233,-7.0671],[156.7932,-7.0502],[156.687,-6.8971],[156.5962,-6.8508],[156.4611,-6.7333],[156.4466,-6.665],[156.4544,-6.6308],[156.4878,-6.603],[156.548,-6.6105],[156.5816,-6.6497],[156.6431,-6.655],[156.7803,-6.7758],[156.8231,-6.7873],[156.9273,-6.8494],[156.9928,-6.8688],[157.0124,-6.8946],[157.0427,-6.8971],[157.1205,-6.9807],[157.1362,-7.0861],[157.1873,-7.1789],[157.2077,-7.1647],[157.2288,-7.1952],[157.2796,-7.2125],[157.3027,-7.2664],[157.3562,-7.2885],[157.3865,-7.3229],[157.3952,-7.3063],[157.4456,-7.3162],[157.5114,-7.3002],[157.5298,-7.3332]]],[[[157.7762,-7.408],[157.7974,-7.4732],[157.7183,-7.4732],[157.6786,-7.4482],[157.7217,-7.3839],[157.7762,-7.408]]],[[[157.6116,-7.4042],[157.619,-7.4521],[157.5916,-7.4322],[157.5804,-7.4528],[157.5495,-7.4521],[157.57,-7.4322],[157.4756,-7.4118],[157.5091,-7.3906],[157.5889,-7.3933],[157.6052,-7.4118],[157.6116,-7.4042]]]]}},{"type":"Feature","id":"Guadalcanal","properties":{"id":"Guadalcanal","iso_code":"SB-GU","name":"Guadalcanal","name_full":"Guadalcanal","name_ja":"ガダルカナル州","center_lonlat":[160.1682,-9.6224]},"geometry":{"type":"Polygon","coordinates":[[[160.028,-9.4221],[160.0435,-9.4142],[160.1206,-9.4333],[160.1577,-9.4128],[160.2305,-9.4264],[160.251,-9.4128],[160.3664,-9.4128],[160.4192,-9.4611],[160.4593,-9.475],[160.5037,-9.5363],[160.5408,-9.5314],[160.6284,-9.5823],[160.6615,-9.6276],[160.673,-9.698],[160.7127,-9.6954],[160.7854,-9.7275],[160.8083,-9.816],[160.8263,-9.8373],[160.8247,-9.8673],[160.6843,-9.9119],[160.6448,-9.9371],[160.5086,-9.8893],[160.4329,-9.8891],[160.408,-9.8585],[160.3875,-9.8585],[160.3738,-9.8373],[160.3203,-9.8151],[160.2083,-9.8102],[160.0313,-9.8238],[159.9373,-9.8056],[159.8872,-9.7828],[159.8356,-9.7939],[159.7234,-9.707],[159.6991,-9.6491],[159.6753,-9.6432],[159.654,-9.5748],[159.6018,-9.5219],[159.6272,-9.488],[159.6067,-9.4475],[159.6067,-9.3749],[159.5921,-9.3615],[159.616,-9.2953],[159.709,-9.2477],[159.779,-9.282],[159.8733,-9.3595],[159.9082,-9.4156],[159.9397,-9.4329],[159.9538,-9.4503],[160.022,-9.4674],[160.0371,-9.4616],[160.042,-9.4311],[160.028,-9.4221]]]}},{"type":"Feature","id":"Honiara","properties":{"id":"Honiara","iso_code":"SB-CT","name":"Honiara","name_full":"Honiara","name_ja":"ホニアラ","center_lonlat":[159.9993,-9.4431]},"geometry":{"type":"Polygon","coordinates":[[[159.9397,-9.4329],[160.028,-9.4221],[160.042,-9.4311],[160.0371,-9.4616],[160.022,-9.4674],[159.9538,-9.4503],[159.9397,-9.4329]]]}},{"type":"Feature","id":"Isabel","properties":{"id":"Isabel","iso_code":"SB-IS","name":"Isabel","name_full":"Isabel","name_ja":"イサベル州","center_lonlat":[159.1808,-8.0231]},"geometry":{"type":"MultiPolygon","coordinates":[[[[159.8594,-8.5113],[159.9004,-8.5507],[159.8872,-8.5624],[159.825,-8.5421],[159.7124,-8.4431],[159.7004,-8.4079],[159.6272,-8.3576],[159.544,-8.34],[159.4448,-8.2812],[159.4143,-8.2819],[159.3623,-8.2563],[159.3454,-8.2614],[159.3262,-8.2258],[159.2876,-8.2149],[159.2771,-8.1931],[159.2339,-8.1962],[159.12,-8.1174],[159.0921,-8.1174],[159.0859,-8.0895],[159.0648,-8.0969],[159.0101,-8.0833],[158.9761,-8.0349],[158.9481,-8.0491],[158.9373,-8.0139],[158.8457,-7.9734],[158.832,-7.9179],[158.7699,-7.9059],[158.7774,-7.8915],[158.7564,-7.871],[158.739,-7.8845],[158.7036,-7.8229],[158.6712,-7.8051],[158.654,-7.8097],[158.585,-7.7543],[158.585,-7.6686],[158.4553,-7.5763],[158.452,-7.532],[158.596,-7.5859],[158.6253,-7.5641],[158.654,-7.5613],[158.6758,-7.5938],[158.7149,-7.6103],[158.7331,-7.5916],[158.7517,-7.5934],[158.7666,-7.6274],[158.8723,-7.7338],[158.9898,-7.8022],[158.9795,-7.822],[158.9871,-7.8396],[159.0569,-7.86],[159.0857,-7.9036],[159.0996,-7.8984],[159.1268,-7.9195],[159.168,-7.9049],[159.2083,-7.9119],[159.1956,-7.9177],[159.2092,-7.9355],[159.2451,-7.9456],[159.2559,-7.9666],[159.273,-7.954],[159.3013,-7.9871],[159.3338,-7.9898],[159.3528,-7.9734],[159.387,-7.9939],[159.4026,-7.9824],[159.4317,-8.0315],[159.8421,-8.3256],[159.8464,-8.3354],[159.8042,-8.3862],[159.7568,-8.3918],[159.7816,-8.4254],[159.8086,-8.4118],[159.8179,-8.4201],[159.856,-8.4767],[159.8594,-8.5113]]],[[[159.6886,-8.5079],[159.6995,-8.525],[159.6599,-8.5396],[159.6279,-8.5226],[159.6014,-8.4889],[159.5794,-8.4948],[159.5498,-8.4708],[159.5379,-8.4328],[159.5583,-8.3894],[159.6067,-8.3775],[159.6359,-8.3842],[159.647,-8.4684],[159.6886,-8.5079]]],[[[158.4861,-7.6103],[158.5166,-7.631],[158.5236,-7.6581],[158.4929,-7.6511],[158.4751,-7.624],[158.4646,-7.6374],[158.4069,-7.6103],[158.4212,-7.6438],[158.3622,-7.6376],[158.3594,-7.6171],[158.3169,-7.5794],[158.3625,-7.5862],[158.3622,-7.5671],[158.3788,-7.5627],[158.4861,-7.6103]]],[[[158.3652,-7.5483],[158.3377,-7.5183],[158.2658,-7.4882],[158.2686,-7.467],[158.3591,-7.5141],[158.3931,-7.5058],[158.4348,-7.5278],[158.4185,-7.5397],[158.4212,-7.5613],[158.3652,-7.5483]]],[[[158.2832,-7.4118],[158.2762,-7.4521],[158.2564,-7.4384],[158.249,-7.4732],[158.2153,-7.4391],[158.1943,-7.4384],[158.2503,-7.395],[158.2694,-7.3906],[158.2694,-7.4179],[158.2832,-7.4118]]]]}},{"type":"Feature","id":"Makira-Ulawa","properties":{"id":"Makira-Ulawa","iso_code":"SB-MK","name":"Makira-Ulawa","name_full":"Makira-Ulawa","name_ja":"マキラ・ウラワ州","center_lonlat":[161.8434,-10.5521]},"geometry":{"type":"MultiPolygon","coordinates":[[[[162.3748,-10.8237],[162.3855,-10.8188],[162.3916,-10.8388],[162.3272,-10.8448],[162.207,-10.808],[162.162,-10.8311],[162.1108,-10.8237],[162.0112,-10.7696],[161.9694,-10.7813],[161.9089,-10.7621],[161.8918,-10.7696],[161.8615,-10.7526],[161.8469,-10.7281],[161.8405,-10.7492],[161.8186,-10.7332],[161.7922,-10.735],[161.7785,-10.715],[161.761,-10.7123],[161.7487,-10.6828],[161.7102,-10.6803],[161.6948,-10.65],[161.6475,-10.6186],[161.6366,-10.631],[161.6258,-10.6244],[161.573,-10.5568],[161.5527,-10.57],[161.5247,-10.5642],[161.5452,-10.5021],[161.5283,-10.4645],[161.4904,-10.468],[161.5075,-10.44],[161.5067,-10.4257],[161.4904,-10.4202],[161.52,-10.3764],[161.511,-10.3649],[161.4837,-10.3649],[161.466,-10.3469],[161.4137,-10.3416],[161.4028,-10.33],[161.344,-10.3445],[161.2849,-10.3239],[161.3001,-10.2071],[161.3191,-10.2005],[161.3408,-10.214],[161.396,-10.204],[161.5022,-10.2507],[161.6686,-10.3649],[161.7002,-10.3655],[161.7351,-10.4054],[161.7785,-10.4065],[161.8357,-10.447],[161.8952,-10.4338],[161.9325,-10.446],[161.9636,-10.4406],[162.0093,-10.4784],[162.0588,-10.4783],[162.0842,-10.4477],[162.1136,-10.4565],[162.1631,-10.5087],[162.1917,-10.5779],[162.2153,-10.5968],[162.2289,-10.6446],[162.2878,-10.692],[162.292,-10.7647],[162.265,-10.7895],[162.2717,-10.8144],[162.3748,-10.8237]]],[[[161.741,-10.2726],[161.7459,-10.2633],[161.7173,-10.2314],[161.7306,-10.2067],[161.7688,-10.2522],[161.7705,-10.2784],[161.7407,-10.2885],[161.741,-10.2726]]]]}},{"type":"Feature","id":"Malaita","properties":{"id":"Malaita","iso_code":"SB-ML","name":"Malaita","name_full":"Malaita","name_ja":"マライタ州","center_lonlat":[160.9596,-8.925]},"geometry":{"type":"MultiPolygon","coordinates":[[[[161.3607,-9.6176],[161.2993,-9.5807],[161.2446,-9.488],[161.2372,-9.4475],[161.1792,-9.3818],[161.1107,-9.3473],[161.0868,-9.3196],[161.0401,-9.3132],[161.0454,-9.2961],[161.0174,-9.2647],[160.9732,-9.2514],[160.9697,-9.2204],[160.8679,-9.1521],[160.7953,-9.0193],[160.7643,-8.9467],[160.7713,-8.9334],[160.7482,-8.8552],[160.6931,-8.7512],[160.6869,-8.6746],[160.6545,-8.6041],[160.72,-8.5534],[160.6514,-8.4396],[160.5935,-8.3849],[160.5811,-8.3405],[160.6013,-8.3255],[160.6755,-8.3434],[160.7028,-8.3645],[160.7302,-8.3491],[160.696,-8.3201],[160.7057,-8.3062],[160.759,-8.3167],[160.8098,-8.3673],[160.8291,-8.4208],[160.881,-8.484],[160.9968,-8.6038],[161.0106,-8.6415],[161.0027,-8.6624],[160.9424,-8.6922],[160.9534,-8.7185],[160.937,-8.7589],[160.9466,-8.8137],[160.9759,-8.8503],[161.023,-8.8408],[161.0591,-8.871],[161.0591,-8.8989],[161.103,-8.9098],[161.1511,-8.9496],[161.169,-8.9745],[161.1559,-8.9695],[161.1428,-8.9887],[161.1751,-9.0117],[161.1913,-9.0834],[161.2287,-9.1037],[161.2276,-9.1191],[161.2025,-9.1384],[161.231,-9.1589],[161.2557,-9.1569],[161.2583,-9.1794],[161.2849,-9.1862],[161.2443,-9.2053],[161.2788,-9.2892],[161.2653,-9.2966],[161.2542,-9.2804],[161.2354,-9.2812],[161.2966,-9.3603],[161.3281,-9.4386],[161.3811,-9.509],[161.3926,-9.6091],[161.3757,-9.6249],[161.3607,-9.6176]]],[[[161.3948,-9.4128],[161.375,-9.4196],[161.347,-9.3439],[161.3543,-9.3386],[161.4152,-9.386],[161.5452,-9.6047],[161.573,-9.7486],[161.5586,-9.789],[161.5492,-9.7926],[161.4883,-9.6921],[161.4665,-9.6899],[161.4489,-9.735],[161.4007,-9.67],[161.3923,-9.5076],[161.4092,-9.466],[161.3948,-9.4128]]],[[[161.9778,-9.851],[161.95,-9.8168],[161.9285,-9.7201],[161.9402,-9.6922],[161.9778,-9.6866],[161.9636,-9.7206],[161.9824,-9.8176],[161.9778,-9.851]]],[[[160.6358,-7.891],[160.648,-7.9269],[160.632,-7.927],[160.6076,-7.8888],[160.6233,-7.8744],[160.6358,-7.891]]],[[[162.7386,-8.3884],[162.7349,-8.3738],[162.7576,-8.3785],[162.7386,-8.3884]]]]}},{"type":"Feature","id":"Rennell and Bellona","properties":{"id":"Rennell and Bellona","iso_code":"SB-RB","name":"Rennell and Bellona","name_full":"Rennell and Bellona","name_ja":"レンネル・ベローナ州","center_lonlat":[160.3253,-11.6477]},"geometry":{"type":"MultiPolygon","coordinates":[[[[160.5037,-11.736],[160.5822,-11.7949],[160.5588,-11.8112],[160.5178,-11.8112],[160.4973,-11.8459],[160.4832,-11.845],[160.4496,-11.8044],[160.4285,-11.8112],[160.3853,-11.7838],[160.3601,-11.7169],[160.2858,-11.6869],[160.2848,-11.6495],[160.2708,-11.633],[160.2305,-11.6262],[160.21,-11.6535],[160.1685,-11.6535],[160.0926,-11.6194],[160.1008,-11.6051],[160.0825,-11.5922],[160.0237,-11.6007],[159.9655,-11.5258],[159.9692,-11.5032],[160.0033,-11.4611],[160.0524,-11.4952],[160.0872,-11.4948],[160.2874,-11.6174],[160.3939,-11.6578],[160.5037,-11.736]]],[[[159.8047,-11.2905],[159.8394,-11.2976],[159.8532,-11.3245],[159.7933,-11.3024],[159.7774,-11.2836],[159.8047,-11.2905]]]]}},{"type":"Feature","id":"Temotu","properties":{"id":"Temotu","iso_code":"SB-TE","name":"Temotu","name_full":"Temotu","name_ja":"テモツ州","center_lonlat":[165.934,-10.7367]},"geometry":{"type":"MultiPolygon","coordinates":[[[[166.1479,-10.694],[166.133,-10.7248],[166.0545,-10.7667],[166.0024,-10.7572],[165.9808,-10.7734],[165.9342,-10.7757],[165.862,-10.8685],[165.8404,-10.8146],[165.8001,-10.8375],[165.7702,-10.8358],[165.7565,-10.8122],[165.753,-10.7519],[165.8018,-10.7086],[165.7974,-10.7431],[165.8219,-10.7622],[165.8312,-10.7077],[165.8781,-10.6568],[165.9945,-10.6611],[166.0267,-10.647],[166.085,-10.6721],[166.1428,-10.6693],[166.1479,-10.694]]],[[[166.9239,-11.641],[166.924,-11.6743],[166.9784,-11.6705],[166.9841,-11.7099],[166.843,-11.7133],[166.7672,-11.6335],[166.7672,-11.6171],[166.8055,-11.5916],[166.8699,-11.589],[166.9356,-11.6088],[166.9239,-11.641]]],[[[166.5573,-11.2836],[166.5342,-11.3081],[166.5088,-11.3093],[166.5002,-11.2979],[166.5091,-11.2609],[166.4834,-11.2787],[166.4798,-11.2474],[166.5119,-11.2134],[166.5404,-11.2146],[166.5639,-11.241],[166.5573,-11.2836]]],[[[166.2525,-10.2649],[166.28,-10.273],[166.2515,-10.3092],[166.2373,-10.3111],[166.2287,-10.2761],[166.2385,-10.215],[166.2424,-10.269],[166.2525,-10.2649]]],[[[166.9849,-11.6144],[166.9797,-11.6386],[166.9456,-11.6533],[166.9443,-11.6254],[166.9577,-11.6126],[166.9849,-11.6144]]],[[[165.7453,-10.4216],[165.7229,-10.4129],[165.7322,-10.3899],[165.7551,-10.4069],[165.7453,-10.4216]]],[[[167.1733,-9.8864],[167.1702,-9.8591],[167.196,-9.8859],[167.1853,-9.8946],[167.1733,-9.8864]]],[[[168.8123,-12.2663],[168.8259,-12.2815],[168.8024,-12.2906],[168.8123,-12.2663]]]]}},{"type":"Feature","id":"Western","properties":{"id":"Western","iso_code":"SB-CH","name":"Western","name_full":"Western","name_ja":"西部州","center_lonlat":[157.5778,-8.2663]},"geometry":{"type":"MultiPolygon","coordinates":[[[[157.7974,-8.5624],[157.8205,-8.5832],[157.8179,-8.6178],[157.7557,-8.5283],[157.6497,-8.498],[157.5776,-8.4362],[157.5646,-8.3235],[157.583,-8.3865],[157.6065,-8.393],[157.615,-8.4124],[157.6323,-8.3884],[157.5497,-8.2614],[157.5026,-8.2688],[157.4818,-8.256],[157.4758,-8.2688],[157.3449,-8.2751],[157.3189,-8.3259],[157.2971,-8.3372],[157.2282,-8.3167],[157.2249,-8.2177],[157.2454,-8.1931],[157.2903,-8.1789],[157.302,-8.1957],[157.3169,-8.1857],[157.3265,-8.1194],[157.3828,-8.0315],[157.4411,-7.9797],[157.5026,-7.9597],[157.5789,-8.0055],[157.6056,-8.0076],[157.5986,-8.0256],[157.6193,-8.138],[157.6099,-8.1563],[157.6447,-8.2052],[157.6397,-8.2409],[157.7139,-8.2236],[157.7459,-8.2287],[157.7785,-8.2534],[157.7899,-8.2888],[157.8384,-8.3372],[157.8384,-8.3713],[157.8656,-8.3986],[157.8861,-8.4675],[157.9033,-8.4736],[157.9069,-8.4909],[157.8811,-8.5378],[157.8861,-8.5829],[157.8245,-8.5589],[157.7974,-8.5624]]],[[[156.8071,-7.7201],[156.8147,-7.7346],[156.7995,-7.7665],[156.7041,-7.885],[156.7207,-7.9318],[156.7007,-7.9455],[156.6781,-7.9323],[156.6597,-7.9392],[156.6589,-7.884],[156.6118,-7.8712],[156.6148,-7.8051],[156.571,-7.7543],[156.5452,-7.7465],[156.5348,-7.7166],[156.5156,-7.7201],[156.4971,-7.675],[156.5042,-7.6301],[156.5308,-7.5925],[156.571,-7.5694],[156.6016,-7.5776],[156.6112,-7.5694],[156.6848,-7.6657],[156.7149,-7.6786],[156.7075,-7.6861],[156.721,-7.7004],[156.7437,-7.6918],[156.8071,-7.7201]]],[[[157.1047,-8.1249],[157.0542,-8.1291],[157.0023,-8.0868],[156.9622,-8.0274],[156.947,-7.9797],[156.9613,-7.9325],[157.002,-7.8752],[157.0911,-7.8505],[157.1375,-7.8748],[157.1704,-7.9099],[157.2009,-8.0007],[157.1995,-8.0652],[157.1672,-8.1355],[157.1463,-8.1486],[157.1252,-8.1249],[157.1047,-8.1249]]],[[[158.0569,-8.5283],[158.1028,-8.5236],[158.1325,-8.5455],[158.1257,-8.5829],[158.0956,-8.5855],[158.065,-8.6109],[158.0984,-8.6246],[158.1189,-8.6178],[158.0916,-8.6451],[158.1143,-8.6677],[158.1057,-8.6911],[158.0386,-8.7568],[157.999,-8.7673],[157.957,-8.756],[157.8792,-8.6826],[157.8792,-8.6314],[157.8998,-8.5624],[157.9377,-8.5794],[157.9483,-8.5634],[157.9551,-8.5768],[157.9631,-8.5637],[157.9551,-8.5283],[158.0096,-8.5011],[158.0134,-8.5455],[158.0264,-8.551],[158.0569,-8.5283]]],[[[157.3587,-8.5768],[157.3381,-8.5768],[157.3294,-8.6491],[157.3709,-8.7009],[157.4138,-8.727],[157.3617,-8.7253],[157.3123,-8.6962],[157.3108,-8.6662],[157.2778,-8.6186],[157.2009,-8.5659],[157.2189,-8.5292],[157.27,-8.4965],[157.2891,-8.4592],[157.3475,-8.4125],[157.366,-8.4129],[157.3993,-8.444],[157.4138,-8.498],[157.376,-8.573],[157.3587,-8.5768]]],[[[155.8167,-7.0207],[155.8543,-7.0315],[155.868,-7.0485],[155.8509,-7.0993],[155.7349,-7.1243],[155.6729,-7.0895],[155.7007,-7.0207],[155.7088,-7.0255],[155.7179,-6.9924],[155.7349,-6.9865],[155.7349,-6.9661],[155.8167,-7.0207]]],[[[156.6112,-8.0727],[156.616,-8.1707],[156.5874,-8.1994],[156.5384,-8.0915],[156.5324,-7.9489],[156.5498,-7.9392],[156.5772,-7.9666],[156.6112,-8.0727]]],[[[157.6155,-8.7345],[157.6499,-8.7652],[157.6489,-8.7862],[157.6223,-8.7958],[157.4524,-8.7219],[157.4553,-8.7065],[157.5298,-8.714],[157.5497,-8.6922],[157.6155,-8.7345]]],[[[158.2288,-8.7747],[158.2567,-8.7856],[158.2522,-8.8027],[158.1872,-8.8368],[158.1537,-8.7966],[158.1605,-8.7584],[158.1946,-8.727],[158.2083,-8.6791],[158.2302,-8.738],[158.2288,-8.7747]]],[[[156.1184,-6.9182],[156.1526,-6.9313],[156.1116,-6.9313],[156.0837,-6.9865],[156.0768,-6.9661],[156.0427,-6.9804],[156.0734,-6.9557],[156.0671,-6.9109],[156.0872,-6.9016],[156.0469,-6.8517],[156.0497,-6.8317],[156.0768,-6.8152],[156.0979,-6.822],[156.0734,-6.8332],[156.0637,-6.8596],[156.1026,-6.8782],[156.0979,-6.8909],[156.1184,-6.9182]]],[[[157.2077,-8.2888],[157.173,-8.2688],[157.1504,-8.2159],[157.1047,-8.1789],[157.1121,-8.1726],[157.0978,-8.1589],[157.1673,-8.1674],[157.1873,-8.1857],[157.2077,-8.2888]]],[[[155.5703,-7.3229],[155.6182,-7.3639],[155.5974,-7.3829],[155.508,-7.3757],[155.5423,-7.3229],[155.5703,-7.3229]]],[[[157.1252,-8.2751],[157.1306,-8.3083],[157.1525,-8.3372],[157.1235,-8.3204],[157.0906,-8.2491],[157.0501,-8.2409],[157.0637,-8.2273],[157.0226,-8.1928],[157.0364,-8.1857],[157.1008,-8.2035],[157.1252,-8.2751]]],[[[156.8106,-8.0554],[156.8413,-8.113],[156.8154,-8.112],[156.7857,-8.0862],[156.7899,-8.0554],[156.8106,-8.0554]]],[[[156.5454,-7.7917],[156.5594,-7.8024],[156.5554,-7.8173],[156.5348,-7.8274],[156.5169,-7.8181],[156.5454,-7.7917]]]]}}]}
