{"type":"FeatureCollection","features":[{"type":"Feature","id":"Somaliland","properties":{"id":"Somaliland","iso_code":"-99-X11~","name":"Somaliland","name_full":"Somaliland","name_ja":"ソマリランド","center_lonlat":[46.2549,9.7308]},"geometry":{"type":"Polygon","coordinates":[[[48.9391,9.5627],[48.9391,9.4512],[47.9792,7.9966],[46.9792,7.9966],[46.9205,8.0256],[45.7664,8.4122],[44.0239,8.9855],[43.9848,9.0083],[43.6215,9.3369],[43.5482,9.3361],[43.419,9.413],[43.3707,9.5442],[43.3318,9.5751],[43.306,9.6176],[43.2707,9.6284],[43.2488,9.6523],[43.2063,9.8512],[43.1872,9.8833],[43.0677,9.9225],[43.0399,9.95],[42.9819,10.0916],[42.8363,10.2081],[42.7895,10.3333],[42.7658,10.4519],[42.6952,10.5247],[42.6472,10.6322],[42.7116,10.6752],[42.7381,10.7598],[42.8012,10.8208],[42.8194,10.8726],[42.8935,10.9197],[42.9237,10.9988],[43.2407,11.4879],[43.2669,11.4623],[43.2883,11.4604],[43.2827,11.4989],[43.376,11.3916],[43.4597,11.3511],[43.4894,11.3809],[43.479,11.2718],[43.4881,11.2389],[43.5293,11.1866],[43.563,11.1703],[43.6589,10.988],[43.8296,10.803],[44.0975,10.5893],[44.3476,10.4145],[44.3892,10.3972],[44.4653,10.4015],[44.5861,10.3836],[44.7507,10.4279],[44.962,10.4158],[44.9942,10.4427],[44.988,10.4604],[45.1572,10.5411],[45.2523,10.6005],[45.3206,10.6621],[45.3372,10.6708],[45.4092,10.6595],[45.4871,10.6847],[45.543,10.7217],[45.573,10.7581],[45.6731,10.7962],[45.7693,10.8781],[45.8169,10.8692],[45.8556,10.824],[45.8723,10.8235],[45.8682,10.8414],[45.8845,10.8412],[45.9776,10.7991],[46.1022,10.7707],[46.2074,10.7962],[46.2376,10.7924],[46.3351,10.7097],[46.4478,10.6931],[46.5277,10.7262],[46.6597,10.7543],[46.866,10.8719],[46.8865,10.8986],[47.0081,10.939],[47.1807,11.0805],[47.2267,11.0938],[47.3862,11.1801],[47.5227,11.187],[47.7105,11.1013],[47.7673,11.1302],[47.9483,11.1251],[48.1304,11.1367],[48.1608,11.1457],[48.2199,11.2111],[48.3042,11.2275],[48.3428,11.2755],[48.4785,11.2963],[48.522,11.3193],[48.6548,11.3306],[48.8888,11.2506],[48.9391,11.2491],[48.9391,9.5627]]]}}]}
