{"type":"FeatureCollection","features":[{"type":"Feature","id":"Bakool","properties":{"id":"Bakool","iso_code":"SO-BK","name":"Bakool","name_full":"Bakool","name_ja":"バコール州","center_lonlat":[43.9425,4.2092]},"geometry":{"type":"Polygon","coordinates":[[[44.5968,4.9176],[44.68,4.41],[44.8,3.8599],[44.77,3.7],[44.7799,3.27],[44.6599,3.25],[44.61,3.27],[44.4099,3.26],[44.28,3.34],[44.31,3.3899],[44.31,3.57],[44.18,3.8499],[43.95,3.9199],[43.8799,3.9199],[43.75,3.8499],[43.6799,3.72],[43.58,3.61],[43.41,3.57],[43.12,3.67],[43.1399,3.8499],[42.8702,4.3282],[42.9147,4.3933],[42.9526,4.5076],[43.1193,4.6477],[43.5285,4.8416],[43.969,4.954],[44.5968,4.9176]]]}},{"type":"Feature","id":"Banaadir","properties":{"id":"Banaadir","iso_code":"SO-BN","name":"Banaadir","name_full":"Banaadir","name_ja":"バナディール州","center_lonlat":[45.4245,2.1104]},"geometry":{"type":"Polygon","coordinates":[[[45.6056,2.183],[45.2662,1.9873],[45.39,2.1499],[45.46,2.1699],[45.6056,2.183]]]}},{"type":"Feature","id":"Bari","properties":{"id":"Bari","iso_code":"SO-BR","name":"Bari","name_full":"Bari","name_ja":"バリ州","center_lonlat":[50.0237,10.2248]},"geometry":{"type":"Polygon","coordinates":[[[48.9391,9.5627],[48.9391,11.2491],[49.2396,11.3003],[49.2781,11.317],[49.3035,11.3454],[49.3357,11.3346],[49.4192,11.3448],[49.5217,11.3938],[49.5444,11.4367],[49.5768,11.46],[49.6445,11.4604],[49.6868,11.4744],[49.8049,11.4584],[49.8512,11.4649],[49.9421,11.5156],[50.0725,11.5087],[50.1619,11.5634],[50.1976,11.5626],[50.2683,11.5893],[50.3723,11.6689],[50.437,11.6906],[50.5127,11.7712],[50.5295,11.8595],[50.5612,11.9079],[50.6411,11.9544],[50.6615,11.9476],[50.7979,11.9891],[50.8671,11.9429],[50.9701,11.9323],[51.0488,11.8786],[51.1277,11.8786],[51.1812,11.8554],[51.2927,11.8331],[51.2494,11.7288],[51.2478,11.6524],[51.1209,11.5053],[51.125,11.448],[51.0813,11.3415],[51.0725,11.2338],[51.0859,11.188],[51.1309,11.1608],[51.1744,11.1588],[51.1895,11.1383],[51.1644,11.1168],[51.1238,11.0388],[51.1151,10.9934],[51.1382,10.6767],[51.1607,10.5985],[51.1074,10.5766],[51.1072,10.515],[51.0923,10.4822],[51.0358,10.4675],[51.0101,10.434],[51.0381,10.4161],[51.1904,10.4461],[51.2204,10.442],[51.2196,10.461],[51.1965,10.4774],[51.1761,10.5628],[51.2925,10.4801],[51.3952,10.479],[51.417,10.4475],[51.3975,10.3958],[51.3726,10.3814],[51.3761,10.3677],[51.2729,10.3779],[51.2566,10.4203],[51.241,10.4256],[51.0901,10.4073],[51.0171,10.3819],[50.9274,10.3278],[50.9099,10.2956],[50.9017,10.2344],[50.9128,10.1769],[50.8838,10.1013],[50.9017,10.0117],[50.8812,9.9055],[50.8333,9.7688],[50.8245,9.6511],[50.8062,9.6245],[50.8374,9.4372],[50.7683,9.3193],[50.6895,9.2748],[50.647,9.2114],[50.6484,9.1104],[50.6336,9.0732],[50.4949,8.952],[50.4397,8.8882],[50.3743,8.6989],[50.3265,8.6411],[50.3196,8.5418],[50.3035,8.5046],[50.2562,8.4726],[50.2302,8.4177],[50.166,8.3334],[50.05,8.4399],[49.93,8.4599],[49.84,8.33],[49.7799,8.5299],[49.68,8.5799],[49.4499,8.5899],[49.18,8.77],[49.11,8.8999],[49.08,9.14],[49.06,9.57],[48.9391,9.5627]]]}},{"type":"Feature","id":"Bay","properties":{"id":"Bay","iso_code":"SO-BY","name":"Bay","name_full":"Bay","name_ja":"ベイ州","center_lonlat":[43.5668,2.6525]},"geometry":{"type":"Polygon","coordinates":[[[44.6599,3.25],[44.69,3.0499],[44.64,2.81],[44.6599,2.75],[44.6199,2.48],[44.65,2.2199],[43.8799,1.8799],[43.58,1.7599],[42.9799,1.46],[42.8999,1.52],[42.52,1.8799],[42.4,1.95],[42.6,3.0699],[42.93,3.0399],[43.0999,3.0599],[43.12,3.67],[43.41,3.57],[43.58,3.61],[43.6799,3.72],[43.75,3.8499],[43.8799,3.9199],[43.95,3.9199],[44.18,3.8499],[44.31,3.57],[44.31,3.3899],[44.28,3.34],[44.4099,3.26],[44.61,3.27],[44.6599,3.25]]]}},{"type":"Feature","id":"Galguduud","properties":{"id":"Galguduud","iso_code":"SO-GA","name":"Galguduud","name_full":"Galguduud","name_ja":"ガルグドゥード州","center_lonlat":[46.7627,5.1218]},"geometry":{"type":"Polygon","coordinates":[[[45.5185,5.5406],[45.936,5.9967],[46.467,6.5383],[47.6,6.2799],[47.35,5.7499],[47.47,5.5699],[47.6099,5.1899],[47.5,4.49],[47.8406,4.3414],[47.578,4.0599],[47.4893,3.9363],[47.0398,3.4693],[46.39,3.8899],[46.4,4.2299],[46.15,4.43],[46.11,4.7399],[46.21,4.94],[46.23,5.0799],[46.04,5.03],[45.71,5.1099],[45.5185,5.5406]]]}},{"type":"Feature","id":"Gedo","properties":{"id":"Gedo","iso_code":"SO-GE","name":"Gedo","name_full":"Gedo","name_ja":"ゲド州","center_lonlat":[41.9681,2.8969]},"geometry":{"type":"Polygon","coordinates":[[[42.8702,4.3282],[43.1399,3.8499],[43.12,3.67],[43.0999,3.0599],[42.93,3.0399],[42.6,3.0699],[42.4,1.95],[41.64,1.9399],[41.4199,1.26],[40.9685,1.2303],[40.9654,2.8141],[40.9798,2.8419],[41.3427,3.2011],[41.9122,4.008],[41.9235,4.0706],[41.9412,4.0862],[42.1029,4.1919],[42.2973,4.2017],[42.7898,4.2856],[42.8702,4.3282]]]}},{"type":"Feature","id":"Hiran","properties":{"id":"Hiran","iso_code":"SO-HI","name":"Hiran","name_full":"Hiran","name_ja":"ヒーラーン州","center_lonlat":[45.4747,4.2226]},"geometry":{"type":"Polygon","coordinates":[[[45.5185,5.5406],[45.71,5.1099],[46.04,5.03],[46.23,5.0799],[46.21,4.94],[46.11,4.7399],[46.15,4.43],[46.4,4.2299],[46.39,3.8899],[46.03,3.5199],[45.94,3.25],[45.2699,3.2],[45.1499,3.2099],[45.0699,3.25],[44.7799,3.27],[44.77,3.7],[44.8,3.8599],[44.68,4.41],[44.5968,4.9176],[44.9126,4.8994],[44.9415,4.9115],[45.5185,5.5406]]]}},{"type":"Feature","id":"Lower Juba","properties":{"id":"Lower Juba","iso_code":"SO-JH","name":"Lower Juba","name_full":"Lower Juba","name_ja":"下部ジュバ州","center_lonlat":[41.7867,0.0814]},"geometry":{"type":"Polygon","coordinates":[[[40.9685,1.2303],[41.4199,1.26],[42.43,1.3199],[42.63,0.72],[42.7299,0.31],[43.1849,0.3163],[42.7703,-0.1293],[42.5803,-0.2975],[42.5508,-0.3576],[42.5193,-0.3693],[42.4797,-0.4221],[42.4745,-0.4387],[42.4865,-0.4494],[42.4764,-0.466],[42.466,-0.4494],[42.4126,-0.491],[42.1665,-0.8027],[42.1355,-0.8217],[42.0715,-0.8287],[42.0625,-0.8393],[42.0817,-0.8434],[42.072,-0.8845],[42.037,-0.92],[42.0164,-0.968],[41.9719,-0.9998],[41.9647,-0.9116],[41.9528,-0.8945],[41.9465,-0.9548],[41.9717,-1.0236],[41.9535,-1.0686],[41.8739,-1.176],[41.8729,-1.1955],[41.8975,-1.1832],[41.8854,-1.2096],[41.8628,-1.2123],[41.8291,-1.1689],[41.842,-1.2249],[41.8366,-1.2623],[41.6521,-1.5651],[41.6106,-1.5932],[41.5351,-1.6963],[41.5386,-1.6137],[41.5229,-1.5728],[40.9798,-0.8708],[40.9685,1.2303]]]}},{"type":"Feature","id":"Lower Shebelle","properties":{"id":"Lower Shebelle","iso_code":"SO-SH","name":"Lower Shebelle","name_full":"Lower Shebelle","name_ja":"下部シャベレ州","center_lonlat":[44.326,1.9038]},"geometry":{"type":"Polygon","coordinates":[[[45.2662,1.9873],[45.0015,1.8664],[44.5501,1.5591],[44.3328,1.39],[44.2214,1.2756],[44.1579,1.2408],[44.138,1.1916],[44.1108,1.1783],[44.0329,1.0975],[43.9788,1.0687],[43.9326,1.0098],[43.7819,0.9216],[43.7342,0.855],[43.6589,0.8049],[43.5213,0.6723],[42.9799,1.46],[43.58,1.7599],[43.8799,1.8799],[44.65,2.2199],[44.6199,2.48],[44.6599,2.75],[44.64,2.81],[44.69,3.0499],[44.6599,3.25],[44.7799,3.27],[45.0699,3.25],[45.12,3.0399],[45.34,2.7199],[45.33,2.1799],[45.39,2.1499],[45.2662,1.9873]]]}},{"type":"Feature","id":"Middle Juba","properties":{"id":"Middle Juba","iso_code":"SO-JD","name":"Middle Juba","name_full":"Middle Juba","name_ja":"中部ジュバ州","center_lonlat":[42.5398,1.2235]},"geometry":{"type":"Polygon","coordinates":[[[43.5213,0.6723],[43.1849,0.3163],[42.7299,0.31],[42.63,0.72],[42.43,1.3199],[41.4199,1.26],[41.64,1.9399],[42.4,1.95],[42.52,1.8799],[42.8999,1.52],[42.9799,1.46],[43.5213,0.6723]]]}},{"type":"Feature","id":"Middle Shebelle","properties":{"id":"Middle Shebelle","iso_code":"SO-SD","name":"Middle Shebelle","name_full":"Middle Shebelle","name_ja":"中部シェベリ州","center_lonlat":[46.0123,3.0215]},"geometry":{"type":"Polygon","coordinates":[[[47.0398,3.4693],[46.8342,3.2325],[46.7,3.1133],[46.6257,3.0239],[46.3516,2.7886],[46.2894,2.6962],[46.2365,2.6676],[46.0476,2.4551],[45.8263,2.3088],[45.6056,2.183],[45.46,2.1699],[45.39,2.1499],[45.33,2.1799],[45.34,2.7199],[45.12,3.0399],[45.0699,3.25],[45.1499,3.2099],[45.2699,3.2],[45.94,3.25],[46.03,3.5199],[46.39,3.8899],[47.0398,3.4693]]]}},{"type":"Feature","id":"Mudug","properties":{"id":"Mudug","iso_code":"SO-MU","name":"Mudug","name_full":"Mudug","name_ja":"ムドゥグ州","center_lonlat":[48.1354,6.3841]},"geometry":{"type":"Polygon","coordinates":[[[46.467,6.5383],[47.5324,7.5659],[48.5,7.4099],[49.03,7.7099],[49.19,7.6999],[49.44,7.58],[49.5,7.57],[49.6408,7.4091],[49.5866,7.3148],[49.367,7.0257],[49.2473,6.8106],[49.1979,6.6736],[49.0747,6.4153],[49.0856,6.3074],[49.0713,6.2199],[48.8501,5.8244],[48.6958,5.5873],[48.6467,5.48],[48.5481,5.3751],[48.448,5.2087],[48.3289,5.0797],[48.2024,4.9089],[48.0557,4.6129],[47.9485,4.4571],[47.8406,4.3414],[47.5,4.49],[47.6099,5.1899],[47.47,5.5699],[47.35,5.7499],[47.6,6.2799],[46.467,6.5383]]]}},{"type":"Feature","id":"Nugal","properties":{"id":"Nugal","iso_code":"SO-NU","name":"Nugal","name_full":"Nugal","name_ja":"ヌガール州","center_lonlat":[48.9067,8.1884]},"geometry":{"type":"Polygon","coordinates":[[[47.5324,7.5659],[47.9792,7.9966],[48.9391,9.4512],[48.9391,9.5627],[49.06,9.57],[49.08,9.14],[49.11,8.8999],[49.18,8.77],[49.4499,8.5899],[49.68,8.5799],[49.7799,8.5299],[49.84,8.33],[49.93,8.4599],[50.05,8.4399],[50.166,8.3334],[50.0911,8.161],[49.9294,8.0517],[49.8242,7.9339],[49.8032,7.8269],[49.8276,7.7829],[49.8193,7.7399],[49.7609,7.6673],[49.7442,7.5891],[49.6408,7.4091],[49.5,7.57],[49.44,7.58],[49.19,7.6999],[49.03,7.7099],[48.5,7.4099],[47.5324,7.5659]]]}}]}
