{"type":"FeatureCollection","features":[{"type":"Feature","id":"Eastern Cape","properties":{"id":"Eastern Cape","iso_code":"ZA-EC","name":"Eastern Cape","name_full":"Eastern Cape","name_ja":"東ケープ州","center_lonlat":[26.4404,-32.1492]},"geometry":{"type":"Polygon","coordinates":[[[29.0158,-29.9786],[29.1204,-30.0862],[29.1176,-30.1507],[29.1016,-30.1738],[29.1296,-30.2453],[29.175,-30.2856],[29.2444,-30.3029],[29.2364,-30.2764],[29.2577,-30.2718],[29.2977,-30.3178],[29.2964,-30.3742],[29.2764,-30.3777],[29.2804,-30.395],[29.235,-30.4065],[29.2003,-30.4364],[29.175,-30.5123],[29.151,-30.5134],[29.1456,-30.5341],[29.163,-30.5548],[29.1176,-30.5812],[29.1403,-30.6099],[29.187,-30.6375],[29.2203,-30.618],[29.3333,-30.6564],[29.3596,-30.6383],[29.4176,-30.6367],[29.4705,-30.6182],[29.6116,-30.6917],[29.6606,-30.6853],[29.7546,-30.7196],[29.7939,-30.7088],[29.9002,-30.7802],[29.9427,-30.7796],[29.9742,-30.8318],[30.0608,-30.8545],[30.0733,-30.8886],[30.1202,-30.9178],[30.137,-31.0105],[30.1665,-31.029],[30.1728,-31.059],[30.196,-31.0779],[30.0951,-31.1786],[30.0628,-31.2387],[30.0099,-31.2922],[29.8641,-31.4116],[29.742,-31.4575],[29.6724,-31.5397],[29.6414,-31.5533],[29.6277,-31.5803],[29.5921,-31.593],[29.542,-31.6359],[29.4608,-31.6723],[29.4116,-31.6775],[29.3919,-31.7355],[29.3625,-31.7498],[29.3421,-31.7936],[29.2767,-31.8447],[29.2136,-31.9438],[29.1476,-31.9698],[29.0964,-32.0536],[28.9733,-32.1667],[28.8704,-32.287],[28.8171,-32.3151],[28.6172,-32.4782],[28.5627,-32.532],[28.5486,-32.5624],[28.3633,-32.6782],[28.3369,-32.7094],[28.2108,-32.7747],[28.1555,-32.7885],[28.1108,-32.8365],[28.094,-32.8875],[27.9699,-32.9806],[27.9396,-32.9898],[27.8971,-33.04],[27.8298,-33.0772],[27.7327,-33.1088],[27.6099,-33.2118],[27.5392,-33.2346],[27.4924,-33.277],[27.4657,-33.2734],[27.4346,-33.3207],[27.3558,-33.3696],[27.3423,-33.3634],[27.2188,-33.4487],[27.1431,-33.4794],[27.1009,-33.5253],[26.9846,-33.5702],[26.9191,-33.5815],[26.863,-33.6227],[26.7946,-33.6323],[26.6533,-33.6848],[26.6326,-33.7122],[26.4761,-33.7643],[26.3499,-33.7555],[26.2866,-33.7664],[26.2256,-33.7394],[26.0925,-33.7171],[25.9553,-33.7109],[25.7854,-33.7436],[25.679,-33.7952],[25.634,-33.8552],[25.6149,-33.935],[25.677,-33.9865],[25.7044,-34.0207],[25.6975,-34.0349],[25.666,-34.0265],[25.5982,-34.0485],[25.4852,-34.0275],[25.4105,-34.033],[25.2775,-33.9811],[25.1926,-33.9622],[25.1011,-33.9605],[24.9529,-33.9851],[24.9133,-34.0113],[24.9274,-34.0523],[24.9164,-34.0724],[24.8411,-34.1325],[24.8382,-34.1598],[24.8613,-34.1783],[24.8342,-34.2057],[24.7937,-34.1847],[24.6472,-34.1682],[24.565,-34.1769],[24.4785,-34.1578],[24.4002,-34.1126],[24.2591,-34.0942],[24.1631,-34.0548],[23.9842,-34.0411],[23.6355,-33.9797],[23.6399,-33.9349],[23.6868,-33.872],[23.5634,-33.8217],[23.5442,-33.7963],[23.5069,-33.7838],[23.3665,-33.7807],[23.4373,-33.712],[23.6182,-33.644],[23.6325,-33.6198],[23.5828,-33.564],[23.5634,-33.496],[23.5117,-33.4606],[23.4374,-33.4326],[23.2616,-33.3989],[23.0295,-33.39],[22.9053,-33.4049],[22.7495,-33.4016],[22.7366,-33.363],[22.7452,-33.3279],[22.9157,-33.0956],[22.9312,-33.0556],[22.9162,-33.0141],[22.9475,-32.9745],[22.9533,-32.9437],[23.0007,-32.8892],[23.0592,-32.8676],[23.0742,-32.8458],[23.069,-32.7803],[23.1148,-32.8335],[23.195,-32.808],[23.3269,-32.8077],[23.3704,-32.7682],[23.2782,-32.6675],[23.2762,-32.5864],[23.2371,-32.5053],[23.2425,-32.4245],[23.3254,-32.3546],[23.3984,-32.3609],[23.447,-32.3402],[23.6016,-32.3247],[23.6361,-32.3069],[23.6737,-32.2393],[23.7571,-32.1959],[23.8854,-32.228],[24.0288,-32.1746],[24.0508,-32.1435],[24.0901,-32.1248],[24.1136,-32.0168],[24.1816,-31.9516],[24.1523,-31.9009],[24.1259,-31.8883],[24.1298,-31.8575],[24.1577,-31.817],[24.147,-31.7899],[24.1543,-31.758],[24.1816,-31.7489],[24.2417,-31.7492],[24.3346,-31.7193],[24.4996,-31.7048],[24.5126,-31.553],[24.5587,-31.4018],[24.7652,-31.3891],[24.8478,-31.3603],[24.8717,-31.3356],[24.968,-31.2839],[25.0633,-31.2644],[25.2151,-31.2016],[25.3501,-31.2277],[25.3793,-31.2107],[25.3872,-31.1607],[25.4455,-31.0952],[25.4773,-31.0296],[25.4723,-30.9957],[25.5066,-30.9344],[25.4882,-30.8698],[25.522,-30.8019],[25.483,-30.7558],[25.4675,-30.6131],[25.6112,-30.6063],[25.6292,-30.6542],[25.7254,-30.6806],[25.8627,-30.5982],[25.8744,-30.5843],[25.8713,-30.5566],[25.8922,-30.5417],[25.9382,-30.5663],[25.9859,-30.535],[26.0599,-30.5138],[26.1355,-30.5261],[26.1464,-30.4851],[26.1719,-30.4895],[26.2047,-30.5255],[26.2599,-30.543],[26.2802,-30.5792],[26.4416,-30.5596],[26.4723,-30.5875],[26.4916,-30.6303],[26.5508,-30.6552],[26.6177,-30.6563],[26.6361,-30.6632],[26.6279,-30.6798],[26.6707,-30.6685],[26.7027,-30.6751],[26.7808,-30.6428],[26.8071,-30.6447],[26.8521,-30.6769],[26.8777,-30.6586],[26.9343,-30.6519],[26.9453,-30.6428],[26.9383,-30.6235],[26.9474,-30.6064],[26.9656,-30.5936],[27.0335,-30.5863],[26.9987,-30.5383],[27.0104,-30.5329],[27.0579,-30.5255],[27.1169,-30.5386],[27.1364,-30.5255],[27.1319,-30.5017],[27.1879,-30.5019],[27.2344,-30.4777],[27.2531,-30.4913],[27.2978,-30.4882],[27.3168,-30.4619],[27.2899,-30.4486],[27.2947,-30.4299],[27.335,-30.4435],[27.3566,-30.4321],[27.3234,-30.4091],[27.3254,-30.392],[27.3894,-30.3864],[27.4046,-30.3678],[27.39,-30.3542],[27.3704,-30.361],[27.3493,-30.32],[27.3777,-30.3123],[27.4521,-30.3101],[27.4775,-30.3563],[27.5297,-30.3822],[27.5868,-30.455],[27.5986,-30.4903],[27.7436,-30.6003],[27.8204,-30.6146],[27.8582,-30.6037],[27.9366,-30.6408],[28.0788,-30.6588],[28.0816,-30.5869],[28.1208,-30.5534],[28.1412,-30.5008],[28.1254,-30.4573],[28.2182,-30.3874],[28.2385,-30.3523],[28.2358,-30.3294],[28.1985,-30.3011],[28.2006,-30.2825],[28.237,-30.2563],[28.2944,-30.2425],[28.3839,-30.1442],[28.4562,-30.147],[28.5406,-30.1133],[28.6397,-30.1315],[28.86,-30.0664],[29.0158,-29.9786]]]}},{"type":"Feature","id":"Free State","properties":{"id":"Free State","iso_code":"ZA-FS","name":"Free State","name_full":"Free State","name_ja":"フリーステイト州","center_lonlat":[26.8663,-28.6056]},"geometry":{"type":"Polygon","coordinates":[[[28.859,-28.773],[28.7877,-28.7487],[28.7439,-28.6895],[28.6995,-28.6885],[28.6666,-28.5972],[28.6343,-28.5708],[28.5625,-28.6065],[28.3829,-28.6265],[28.3364,-28.6847],[28.2971,-28.7069],[28.155,-28.7023],[28.0187,-28.8568],[28.0136,-28.8784],[27.9775,-28.8807],[27.9262,-28.8534],[27.888,-28.9049],[27.8613,-28.9154],[27.7474,-28.9086],[27.7548,-28.9255],[27.7201,-28.9459],[27.7117,-28.991],[27.6392,-29.0353],[27.665,-29.0657],[27.6307,-29.0725],[27.6356,-29.0966],[27.613,-29.1338],[27.5215,-29.2165],[27.5289,-29.261],[27.4533,-29.2916],[27.4458,-29.332],[27.4086,-29.3571],[27.4137,-29.4025],[27.3655,-29.4467],[27.3502,-29.4803],[27.316,-29.4872],[27.2957,-29.5244],[27.1281,-29.5786],[27.0859,-29.6144],[27.072,-29.5999],[27.0424,-29.6281],[27.0224,-29.6162],[27.0022,-29.6665],[27.051,-29.6968],[27.0801,-29.7351],[27.1988,-29.9785],[27.2659,-30.0333],[27.3128,-30.1316],[27.3814,-30.1427],[27.3437,-30.2129],[27.3662,-30.311],[27.3777,-30.3123],[27.3493,-30.32],[27.3704,-30.361],[27.39,-30.3542],[27.4046,-30.3678],[27.3894,-30.3864],[27.3254,-30.392],[27.3234,-30.4091],[27.3566,-30.4321],[27.335,-30.4435],[27.2947,-30.4299],[27.2899,-30.4486],[27.3168,-30.4619],[27.2978,-30.4882],[27.2531,-30.4913],[27.2344,-30.4777],[27.1879,-30.5019],[27.1319,-30.5017],[27.1364,-30.5255],[27.1169,-30.5386],[27.0579,-30.5255],[27.0104,-30.5329],[26.9987,-30.5383],[27.0335,-30.5863],[26.9656,-30.5936],[26.9474,-30.6064],[26.9383,-30.6235],[26.9453,-30.6428],[26.9343,-30.6519],[26.8777,-30.6586],[26.8521,-30.6769],[26.8071,-30.6447],[26.7808,-30.6428],[26.7027,-30.6751],[26.6707,-30.6685],[26.6279,-30.6798],[26.6361,-30.6632],[26.6177,-30.6563],[26.5508,-30.6552],[26.4916,-30.6303],[26.4723,-30.5875],[26.4416,-30.5596],[26.2802,-30.5792],[26.2599,-30.543],[26.2047,-30.5255],[26.1719,-30.4895],[26.1464,-30.4851],[26.1355,-30.5261],[26.0599,-30.5138],[25.9859,-30.535],[25.9382,-30.5663],[25.8922,-30.5417],[25.8713,-30.5566],[25.8744,-30.5843],[25.8627,-30.5982],[25.7254,-30.6806],[25.6292,-30.6542],[25.6112,-30.6063],[25.4675,-30.6131],[25.3618,-30.5453],[25.2903,-30.5431],[25.2579,-30.4969],[25.1849,-30.4557],[25.0435,-30.3302],[25.0293,-30.2831],[24.9821,-30.2632],[24.9454,-30.2146],[24.9069,-30.2012],[24.7845,-29.9882],[24.6917,-29.9688],[24.6704,-29.9501],[24.6575,-29.8956],[24.5754,-29.866],[24.5295,-29.8163],[24.4883,-29.8129],[24.4746,-29.7856],[24.4281,-29.7791],[24.3647,-29.7133],[24.3408,-29.649],[24.8743,-28.6499],[24.8411,-28.5826],[24.8451,-28.5194],[24.9139,-28.3484],[24.916,-28.3174],[24.8951,-28.286],[24.9503,-28.2361],[24.9812,-28.1884],[25.0099,-28.1151],[25.0135,-28.0682],[25.0235,-28.0553],[25.0534,-28.0582],[25.0668,-28.0474],[25.1291,-27.9291],[25.1738,-27.9223],[25.2086,-27.8941],[25.2458,-27.8466],[25.2406,-27.8229],[25.2801,-27.7875],[25.3338,-27.7777],[25.4214,-27.7104],[25.5025,-27.6815],[25.5341,-27.6867],[25.581,-27.6548],[25.6474,-27.6724],[25.6941,-27.6344],[25.7987,-27.5807],[25.8305,-27.5838],[25.8744,-27.6209],[25.9944,-27.6361],[26.0192,-27.7121],[26.0612,-27.7138],[26.069,-27.6958],[26.0535,-27.6576],[26.0794,-27.6131],[26.1911,-27.5108],[26.2269,-27.4949],[26.2324,-27.4465],[26.2496,-27.426],[26.301,-27.4077],[26.3248,-27.4213],[26.3622,-27.3868],[26.5132,-27.3907],[26.4573,-27.3676],[26.4501,-27.3529],[26.4692,-27.3156],[26.4852,-27.3108],[26.4859,-27.2538],[26.4111,-27.1768],[26.4313,-27.1539],[26.4897,-27.1386],[26.5318,-27.0985],[26.5679,-27.1061],[26.5824,-27.0948],[26.5815,-27.0515],[26.6293,-27.0037],[26.6946,-27.017],[26.7042,-26.9848],[26.7375,-26.9555],[26.7938,-26.928],[26.8175,-26.9434],[26.8576,-26.913],[26.9179,-26.9553],[26.9142,-26.8899],[26.9327,-26.8649],[26.9663,-26.9075],[26.9996,-26.9232],[27.178,-26.9244],[27.1712,-26.9518],[27.1807,-26.9605],[27.2415,-26.9255],[27.3075,-26.8624],[27.3361,-26.8584],[27.3941,-26.8955],[27.4695,-26.8799],[27.5108,-26.8324],[27.5194,-26.7807],[27.5759,-26.7641],[27.5695,-26.7434],[27.5825,-26.7376],[27.6161,-26.7273],[27.6435,-26.7641],[27.7295,-26.7567],[27.7602,-26.7777],[27.7738,-26.7504],[27.8823,-26.7243],[27.9253,-26.6809],[27.9588,-26.6665],[27.9958,-26.6973],[27.9812,-26.7127],[28.044,-26.818],[28.1371,-26.8768],[28.1698,-26.8607],[28.1992,-26.904],[28.2558,-26.8936],[28.3233,-26.9303],[28.3958,-26.9363],[28.4264,-26.9826],[28.4872,-26.9661],[28.5192,-27.0032],[28.5467,-27.0139],[28.5348,-27.0583],[28.606,-27.0113],[28.6577,-27.0058],[28.6201,-26.9794],[28.6518,-26.9557],[28.8227,-27.0391],[28.8536,-27.0303],[28.8843,-27.044],[28.9586,-26.995],[28.9904,-26.9962],[29.0574,-27.0303],[29.0604,-27.0717],[29.1127,-27.1513],[29.1554,-27.1386],[29.2112,-27.1427],[29.3343,-27.2074],[29.3415,-27.2391],[29.4007,-27.2316],[29.4423,-27.2532],[29.4846,-27.3422],[29.5413,-27.3895],[29.5411,-27.4195],[29.626,-27.5103],[29.6913,-27.4925],[29.6968,-27.4643],[29.7132,-27.4513],[29.7712,-27.4523],[29.7194,-27.4829],[29.7161,-27.5177],[29.7626,-27.5381],[29.7737,-27.5946],[29.6834,-27.6616],[29.7061,-27.7099],[29.7027,-27.7762],[29.7219,-27.811],[29.668,-27.9105],[29.6657,-27.9688],[29.6241,-28.0481],[29.6711,-28.1044],[29.6639,-28.1647],[29.6229,-28.1958],[29.5914,-28.2489],[29.4944,-28.2636],[29.4073,-28.3569],[29.344,-28.383],[29.3045,-28.4251],[29.2306,-28.4426],[29.194,-28.4855],[29.2005,-28.5114],[29.1889,-28.5355],[29.1394,-28.5504],[29.0952,-28.5429],[28.973,-28.5748],[28.9342,-28.6144],[28.929,-28.6573],[28.8956,-28.6888],[28.859,-28.773]]]}},{"type":"Feature","id":"Gauteng","properties":{"id":"Gauteng","iso_code":"ZA-GT","name":"Gauteng","name_full":"Gauteng","name_ja":"ハウテン州","center_lonlat":[28.1272,-26.1056]},"geometry":{"type":"Polygon","coordinates":[[[27.5825,-26.7376],[27.6052,-26.6979],[27.5751,-26.6967],[27.5686,-26.6501],[27.446,-26.6268],[27.4139,-26.6444],[27.3818,-26.6113],[27.3842,-26.587],[27.3546,-26.5804],[27.3398,-26.5848],[27.3348,-26.6157],[27.2434,-26.64],[27.2306,-26.5713],[27.1854,-26.5748],[27.1573,-26.5251],[27.2298,-26.5035],[27.2206,-26.4334],[27.1913,-26.3819],[27.3244,-26.2865],[27.2905,-26.146],[27.3401,-26.1503],[27.3641,-26.1266],[27.3946,-26.1229],[27.4452,-26.0071],[27.4593,-25.8853],[27.5256,-25.8437],[27.6407,-25.8037],[27.6516,-25.8488],[27.6727,-25.8658],[27.7099,-25.8642],[27.7276,-25.8784],[27.8756,-25.853],[27.9242,-25.8304],[27.9428,-25.8068],[27.9442,-25.7568],[27.9629,-25.7415],[27.9557,-25.6494],[27.9816,-25.629],[27.9638,-25.5926],[27.9832,-25.5474],[28.0462,-25.5576],[28.0543,-25.5357],[28.001,-25.5182],[28.0074,-25.4847],[28.0333,-25.4716],[27.9913,-25.4264],[27.9671,-25.4351],[27.9493,-25.4103],[27.9687,-25.3636],[28.0042,-25.3607],[28.0511,-25.4001],[28.1044,-25.3724],[28.1722,-25.3651],[28.1735,-25.329],[28.2062,-25.3242],[28.2352,-25.3534],[28.2853,-25.3402],[28.2937,-25.3171],[28.3637,-25.3107],[28.3747,-25.3222],[28.4332,-25.3221],[28.5271,-25.2697],[28.6439,-25.263],[28.6631,-25.2475],[28.6607,-25.2273],[28.6153,-25.1844],[28.6057,-25.1579],[28.7518,-25.1149],[28.7829,-25.2278],[28.7603,-25.2307],[28.736,-25.2804],[28.6294,-25.3329],[28.644,-25.3928],[28.623,-25.4234],[28.6278,-25.527],[28.6698,-25.6639],[28.7086,-25.6829],[28.7296,-25.629],[28.7684,-25.6465],[28.7635,-25.7062],[28.8297,-25.6945],[28.8314,-25.6727],[28.812,-25.6479],[28.8265,-25.6334],[28.8556,-25.6465],[28.8588,-25.6319],[28.8394,-25.5765],[28.8184,-25.5795],[28.8039,-25.5416],[28.854,-25.4993],[28.8734,-25.5561],[28.8976,-25.5401],[28.9202,-25.5518],[28.9461,-25.5955],[29.0042,-25.5693],[28.9994,-25.5372],[29.0301,-25.5139],[29.089,-25.5025],[29.052,-25.5601],[29.0317,-25.6262],[28.976,-25.6737],[28.9623,-25.7015],[28.9673,-25.7255],[28.9417,-25.8006],[28.9558,-25.8422],[28.9412,-25.8698],[28.8815,-25.8957],[28.8879,-25.973],[28.8701,-26.0049],[28.778,-26.0122],[28.7538,-25.9904],[28.7086,-25.9933],[28.6343,-25.973],[28.5977,-26.0036],[28.581,-26.0586],[28.5341,-26.0586],[28.501,-26.08],[28.4953,-26.1268],[28.5293,-26.1442],[28.5325,-26.2211],[28.6213,-26.2486],[28.6278,-26.2906],[28.7183,-26.3384],[28.8071,-26.308],[28.8186,-26.3358],[28.8443,-26.3471],[28.8637,-26.4006],[28.7958,-26.4267],[28.7667,-26.5163],[28.644,-26.5077],[28.6301,-26.5404],[28.5842,-26.5366],[28.5293,-26.5048],[28.5293,-26.5655],[28.5064,-26.6129],[28.4771,-26.6236],[28.4531,-26.6513],[28.4016,-26.6594],[28.3903,-26.7142],[28.4081,-26.7589],[28.3362,-26.7971],[28.3038,-26.8294],[28.3036,-26.8695],[28.2558,-26.8936],[28.1992,-26.904],[28.1698,-26.8607],[28.1371,-26.8768],[28.044,-26.818],[27.9812,-26.7127],[27.9958,-26.6973],[27.9588,-26.6665],[27.9253,-26.6809],[27.8823,-26.7243],[27.7738,-26.7504],[27.7602,-26.7777],[27.7295,-26.7567],[27.6435,-26.7641],[27.6161,-26.7273],[27.5825,-26.7376]]]}},{"type":"Feature","id":"KwaZulu-Natal","properties":{"id":"KwaZulu-Natal","iso_code":"ZA-NL","name":"KwaZulu-Natal","name_full":"KwaZulu-Natal","name_ja":"クワズール・ナタール州","center_lonlat":[30.7225,-28.7219]},"geometry":{"type":"Polygon","coordinates":[[[28.859,-28.773],[28.8956,-28.6888],[28.929,-28.6573],[28.9342,-28.6144],[28.973,-28.5748],[29.0952,-28.5429],[29.1394,-28.5504],[29.1889,-28.5355],[29.2005,-28.5114],[29.194,-28.4855],[29.2306,-28.4426],[29.3045,-28.4251],[29.344,-28.383],[29.4073,-28.3569],[29.4944,-28.2636],[29.5914,-28.2489],[29.6229,-28.1958],[29.6639,-28.1647],[29.6711,-28.1044],[29.6241,-28.0481],[29.6657,-27.9688],[29.668,-27.9105],[29.7219,-27.811],[29.7027,-27.7762],[29.7061,-27.7099],[29.6834,-27.6616],[29.7737,-27.5946],[29.7626,-27.5381],[29.7161,-27.5177],[29.7194,-27.4829],[29.7712,-27.4523],[29.8079,-27.4586],[29.8637,-27.3789],[29.9292,-27.3644],[30.0107,-27.3827],[30.056,-27.3604],[30.1544,-27.377],[30.17,-27.3567],[30.281,-27.302],[30.355,-27.2876],[30.3885,-27.2656],[30.4193,-27.2714],[30.4289,-27.3022],[30.4438,-27.3088],[30.5969,-27.3087],[30.6332,-27.2845],[30.6909,-27.2746],[30.8333,-27.3342],[30.9016,-27.3112],[30.9536,-27.3511],[30.9801,-27.3547],[31.1054,-27.324],[31.1511,-27.324],[31.2447,-27.2326],[31.5265,-27.3109],[31.9683,-27.3163],[31.9474,-27.2555],[31.9421,-27.1007],[31.9901,-26.8083],[32.0732,-26.8114],[32.0978,-26.8335],[32.1432,-26.8457],[32.223,-26.8414],[32.3522,-26.8603],[32.8931,-26.8461],[32.8394,-27.1236],[32.8037,-27.1682],[32.781,-27.256],[32.6765,-27.5207],[32.5915,-27.8808],[32.5983,-27.9225],[32.5505,-28.1716],[32.46,-28.3067],[32.4392,-28.3666],[32.3997,-28.3879],[32.407,-28.4003],[32.4202,-28.3947],[32.4282,-28.4294],[32.3921,-28.5353],[32.2931,-28.631],[32.2351,-28.6616],[32.1936,-28.7162],[32.0838,-28.7995],[32.0563,-28.7795],[32.0169,-28.7849],[31.994,-28.8062],[32.0161,-28.8336],[32.0701,-28.8056],[32.051,-28.8378],[32.0121,-28.8665],[31.8884,-28.9247],[31.7691,-28.9223],[31.7827,-28.9496],[31.7521,-28.9662],[31.5575,-29.1619],[31.4885,-29.2096],[31.4822,-29.2333],[31.427,-29.2922],[31.365,-29.3326],[31.3547,-29.3634],[31.1869,-29.5603],[31.0555,-29.7898],[31.0453,-29.8295],[31.0558,-29.8683],[31.0158,-29.8681],[31.0012,-29.9024],[31.0633,-29.8744],[31.0583,-29.8959],[30.8906,-30.0501],[30.6095,-30.5296],[30.5623,-30.5739],[30.3923,-30.8471],[30.3203,-30.9123],[30.2887,-30.9711],[30.196,-31.0779],[30.1728,-31.059],[30.1665,-31.029],[30.137,-31.0105],[30.1202,-30.9178],[30.0733,-30.8886],[30.0608,-30.8545],[29.9742,-30.8318],[29.9427,-30.7796],[29.9002,-30.7802],[29.7939,-30.7088],[29.7546,-30.7196],[29.6606,-30.6853],[29.6116,-30.6917],[29.4705,-30.6182],[29.4176,-30.6367],[29.3596,-30.6383],[29.3333,-30.6564],[29.2203,-30.618],[29.187,-30.6375],[29.1403,-30.6099],[29.1176,-30.5812],[29.163,-30.5548],[29.1456,-30.5341],[29.151,-30.5134],[29.175,-30.5123],[29.2003,-30.4364],[29.235,-30.4065],[29.2804,-30.395],[29.2764,-30.3777],[29.2964,-30.3742],[29.2977,-30.3178],[29.2577,-30.2718],[29.2364,-30.2764],[29.2444,-30.3029],[29.175,-30.2856],[29.1296,-30.2453],[29.1016,-30.1738],[29.1176,-30.1507],[29.1204,-30.0862],[29.0158,-29.9786],[29.1507,-29.9111],[29.133,-29.852],[29.1058,-29.8256],[29.1138,-29.7501],[29.1613,-29.6669],[29.2786,-29.6136],[29.2799,-29.5814],[29.2963,-29.5716],[29.2751,-29.5323],[29.2827,-29.4856],[29.3995,-29.4303],[29.4359,-29.3424],[29.415,-29.3189],[29.414,-29.2903],[29.376,-29.2355],[29.3575,-29.1833],[29.3168,-29.1474],[29.3118,-29.0898],[29.2084,-29.0689],[29.126,-28.9924],[29.0558,-28.9654],[29.0405,-28.923],[28.9808,-28.909],[28.859,-28.773]]]}},{"type":"Feature","id":"Limpopo","properties":{"id":"Limpopo","iso_code":"ZA-LP","name":"Limpopo","name_full":"Limpopo","name_ja":"リンポポ州","center_lonlat":[29.2812,-23.7858]},"geometry":{"type":"Polygon","coordinates":[[[31.8565,-23.963],[31.78,-23.9653],[31.7353,-24.0014],[31.7123,-24.05],[31.6737,-24.0463],[31.647,-24.0131],[31.5892,-24.0501],[31.5661,-24.0329],[31.5242,-24.045],[31.4516,-24.0216],[31.4074,-24.0567],[31.3692,-24.0555],[31.3287,-24.0806],[31.2755,-24.0772],[31.2485,-24.1007],[31.203,-24.0353],[31.1755,-24.0368],[31.1626,-24.0634],[31.0786,-24.0811],[31.0737,-24.0944],[31.1109,-24.0973],[31.1125,-24.1253],[31.0963,-24.1548],[31.0511,-24.1902],[31.0592,-24.3213],[31.1949,-24.311],[31.2433,-24.3654],[31.1626,-24.3787],[31.1674,-24.4375],[31.2159,-24.4331],[31.2595,-24.5081],[31.2207,-24.5566],[30.9752,-24.5816],[30.9673,-24.527],[30.875,-24.5353],[30.7392,-24.4574],[30.7273,-24.5141],[30.7345,-24.5823],[30.6731,-24.6176],[30.7199,-24.7042],[30.6811,-24.7335],[30.6375,-24.7379],[30.6327,-24.7497],[30.6601,-24.7761],[30.6585,-24.8186],[30.6197,-24.8597],[30.5244,-24.9124],[30.4921,-24.9476],[30.421,-24.8509],[30.3677,-24.8567],[30.35,-24.8772],[30.1836,-24.8553],[30.1755,-24.9124],[30.1852,-25.0223],[30.148,-25.034],[30.1464,-25.1101],[30.1238,-25.1232],[30.0349,-25.072],[29.9784,-25.094],[30.0075,-25.1496],[30.0042,-25.3322],[29.8863,-25.3439],[29.8588,-25.3731],[29.791,-25.3658],[29.77,-25.395],[29.6714,-25.3702],[29.6214,-25.3979],[29.5277,-25.411],[29.3532,-25.4037],[29.3419,-25.376],[29.2676,-25.3745],[29.2482,-25.3964],[29.211,-25.4081],[29.1932,-25.3731],[29.1432,-25.395],[29.1722,-25.3307],[29.1658,-25.3045],[29.0995,-25.3176],[29.0915,-25.2884],[29.0381,-25.2694],[29.043,-25.1422],[29.0866,-25.1481],[29.127,-25.1115],[29.0737,-25.0706],[29.0236,-25.0574],[28.9687,-25.072],[28.938,-25.0032],[28.9121,-25.0032],[28.8976,-24.9564],[28.9364,-24.9373],[28.917,-24.9036],[28.8326,-24.9403],[28.7563,-24.9369],[28.6763,-24.9667],[28.6116,-25.0018],[28.6294,-25.0515],[28.4588,-25.1173],[28.4478,-25.135],[28.3733,-25.1673],[28.3545,-25.1886],[28.3691,-25.2178],[28.4335,-25.2191],[28.6057,-25.1579],[28.6153,-25.1844],[28.6607,-25.2273],[28.6631,-25.2475],[28.6439,-25.263],[28.5271,-25.2697],[28.4332,-25.3221],[28.3747,-25.3222],[28.3637,-25.3107],[28.2937,-25.3171],[28.2309,-25.2258],[28.1942,-25.2082],[28.1399,-25.21],[28.0841,-25.1491],[28.0873,-25.1157],[28.1098,-25.1081],[28.1989,-25.1336],[28.2116,-25.1245],[28.222,-25.0776],[28.1773,-25.0413],[28.0982,-25.0094],[27.9658,-24.9851],[27.9062,-25.0033],[27.7571,-24.9868],[27.7084,-25.0074],[27.6676,-24.9708],[27.6224,-24.9759],[27.5909,-24.9898],[27.5813,-25.0404],[27.5457,-25.0928],[27.5197,-25.1034],[27.4879,-25.0557],[27.3665,-25.059],[27.2894,-25.0067],[27.1698,-24.9814],[27.1474,-24.9383],[27.0796,-24.8876],[27.0554,-24.8497],[27.043,-24.7492],[27.023,-24.724],[26.9443,-24.7895],[26.768,-24.8662],[26.7274,-24.8665],[26.6264,-24.8274],[26.4449,-24.8088],[26.404,-24.7146],[26.404,-24.6328],[26.4695,-24.5714],[26.5312,-24.4587],[26.6235,-24.3994],[26.6929,-24.3266],[26.8023,-24.2897],[26.8392,-24.2656],[26.9412,-23.8502],[26.9381,-23.8029],[27.0042,-23.6458],[27.0243,-23.6425],[27.0376,-23.6657],[27.0701,-23.6561],[27.0615,-23.6044],[27.0752,-23.6112],[27.1134,-23.5643],[27.1367,-23.5702],[27.1274,-23.525],[27.1572,-23.5367],[27.1714,-23.5156],[27.1866,-23.5273],[27.2057,-23.5231],[27.1915,-23.5038],[27.2025,-23.4921],[27.2956,-23.4517],[27.35,-23.3915],[27.3612,-23.4225],[27.4105,-23.3893],[27.4111,-23.4058],[27.4252,-23.4127],[27.4527,-23.3853],[27.5489,-23.3608],[27.5694,-23.3204],[27.5633,-23.2992],[27.608,-23.2167],[27.6471,-23.2276],[27.6984,-23.1935],[27.7257,-23.2217],[27.7536,-23.2208],[27.7893,-23.1638],[27.7742,-23.1252],[27.8223,-23.123],[27.8157,-23.1047],[27.9301,-23.057],[27.9461,-23.029],[27.9375,-22.9638],[28.0374,-22.9114],[28.054,-22.8691],[28.0472,-22.8369],[28.1037,-22.8167],[28.1174,-22.7895],[28.155,-22.772],[28.1597,-22.7181],[28.1962,-22.6716],[28.2506,-22.6556],[28.2868,-22.6158],[28.3386,-22.5846],[28.4594,-22.5696],[28.5225,-22.5848],[28.5598,-22.563],[28.6239,-22.5628],[28.7314,-22.5139],[28.8168,-22.4929],[28.8466,-22.4499],[28.9125,-22.4537],[28.9679,-22.3804],[28.9602,-22.3102],[29.0478,-22.2203],[29.1688,-22.214],[29.2482,-22.1793],[29.378,-22.1929],[29.4569,-22.1588],[29.5318,-22.1724],[29.551,-22.146],[29.604,-22.1451],[29.6614,-22.1265],[29.6796,-22.1383],[29.7792,-22.1364],[29.8373,-22.1724],[30.0053,-22.2223],[30.0381,-22.2538],[30.0826,-22.2629],[30.1351,-22.2936],[30.2217,-22.2909],[30.335,-22.3447],[30.4127,-22.3369],[30.4885,-22.3102],[30.6011,-22.3164],[30.6324,-22.3307],[30.6939,-22.3028],[30.8379,-22.2823],[31.0876,-22.3369],[31.1526,-22.3164],[31.2135,-22.3619],[31.2656,-22.3655],[31.2889,-22.3973],[31.2791,-22.4153],[31.5363,-23.157],[31.5276,-23.4568],[31.5463,-23.4924],[31.6423,-23.5879],[31.7412,-23.8368],[31.8504,-23.9306],[31.8565,-23.963]]]}},{"type":"Feature","id":"Mpumalanga","properties":{"id":"Mpumalanga","iso_code":"ZA-MP","name":"Mpumalanga","name_full":"Mpumalanga","name_ja":"ムプマランガ州","center_lonlat":[30.2864,-25.8726]},"geometry":{"type":"Polygon","coordinates":[[[31.2447,-27.2326],[31.1511,-27.324],[31.1054,-27.324],[30.9801,-27.3547],[30.9536,-27.3511],[30.9016,-27.3112],[30.8333,-27.3342],[30.6909,-27.2746],[30.6332,-27.2845],[30.5969,-27.3087],[30.4438,-27.3088],[30.4289,-27.3022],[30.4193,-27.2714],[30.3885,-27.2656],[30.355,-27.2876],[30.281,-27.302],[30.17,-27.3567],[30.1544,-27.377],[30.056,-27.3604],[30.0107,-27.3827],[29.9292,-27.3644],[29.8637,-27.3789],[29.8079,-27.4586],[29.7712,-27.4523],[29.7132,-27.4513],[29.6968,-27.4643],[29.6913,-27.4925],[29.626,-27.5103],[29.5411,-27.4195],[29.5413,-27.3895],[29.4846,-27.3422],[29.4423,-27.2532],[29.4007,-27.2316],[29.3415,-27.2391],[29.3343,-27.2074],[29.2112,-27.1427],[29.1554,-27.1386],[29.1127,-27.1513],[29.0604,-27.0717],[29.0574,-27.0303],[28.9904,-26.9962],[28.9586,-26.995],[28.8843,-27.044],[28.8536,-27.0303],[28.8227,-27.0391],[28.6518,-26.9557],[28.6201,-26.9794],[28.6577,-27.0058],[28.606,-27.0113],[28.5348,-27.0583],[28.5467,-27.0139],[28.5192,-27.0032],[28.4872,-26.9661],[28.4264,-26.9826],[28.3958,-26.9363],[28.3233,-26.9303],[28.2558,-26.8936],[28.3036,-26.8695],[28.3038,-26.8294],[28.3362,-26.7971],[28.4081,-26.7589],[28.3903,-26.7142],[28.4016,-26.6594],[28.4531,-26.6513],[28.4771,-26.6236],[28.5064,-26.6129],[28.5293,-26.5655],[28.5293,-26.5048],[28.5842,-26.5366],[28.6301,-26.5404],[28.644,-26.5077],[28.7667,-26.5163],[28.7958,-26.4267],[28.8637,-26.4006],[28.8443,-26.3471],[28.8186,-26.3358],[28.8071,-26.308],[28.7183,-26.3384],[28.6278,-26.2906],[28.6213,-26.2486],[28.5325,-26.2211],[28.5293,-26.1442],[28.4953,-26.1268],[28.501,-26.08],[28.5341,-26.0586],[28.581,-26.0586],[28.5977,-26.0036],[28.6343,-25.973],[28.7086,-25.9933],[28.7538,-25.9904],[28.778,-26.0122],[28.8701,-26.0049],[28.8879,-25.973],[28.8815,-25.8957],[28.9412,-25.8698],[28.9558,-25.8422],[28.9417,-25.8006],[28.9673,-25.7255],[28.9623,-25.7015],[28.976,-25.6737],[29.0317,-25.6262],[29.052,-25.5601],[29.089,-25.5025],[29.0301,-25.5139],[28.9994,-25.5372],[29.0042,-25.5693],[28.9461,-25.5955],[28.9202,-25.5518],[28.8976,-25.5401],[28.8734,-25.5561],[28.854,-25.4993],[28.8039,-25.5416],[28.8184,-25.5795],[28.8394,-25.5765],[28.8588,-25.6319],[28.8556,-25.6465],[28.8265,-25.6334],[28.812,-25.6479],[28.8314,-25.6727],[28.8297,-25.6945],[28.7635,-25.7062],[28.7684,-25.6465],[28.7296,-25.629],[28.7086,-25.6829],[28.6698,-25.6639],[28.6278,-25.527],[28.623,-25.4234],[28.644,-25.3928],[28.6294,-25.3329],[28.736,-25.2804],[28.7603,-25.2307],[28.7829,-25.2278],[28.7518,-25.1149],[28.6057,-25.1579],[28.4335,-25.2191],[28.3691,-25.2178],[28.3545,-25.1886],[28.3733,-25.1673],[28.4478,-25.135],[28.4588,-25.1173],[28.6294,-25.0515],[28.6116,-25.0018],[28.6763,-24.9667],[28.7563,-24.9369],[28.8326,-24.9403],[28.917,-24.9036],[28.9364,-24.9373],[28.8976,-24.9564],[28.9121,-25.0032],[28.938,-25.0032],[28.9687,-25.072],[29.0236,-25.0574],[29.0737,-25.0706],[29.127,-25.1115],[29.0866,-25.1481],[29.043,-25.1422],[29.0381,-25.2694],[29.0915,-25.2884],[29.0995,-25.3176],[29.1658,-25.3045],[29.1722,-25.3307],[29.1432,-25.395],[29.1932,-25.3731],[29.211,-25.4081],[29.2482,-25.3964],[29.2676,-25.3745],[29.3419,-25.376],[29.3532,-25.4037],[29.5277,-25.411],[29.6214,-25.3979],[29.6714,-25.3702],[29.77,-25.395],[29.791,-25.3658],[29.8588,-25.3731],[29.8863,-25.3439],[30.0042,-25.3322],[30.0075,-25.1496],[29.9784,-25.094],[30.0349,-25.072],[30.1238,-25.1232],[30.1464,-25.1101],[30.148,-25.034],[30.1852,-25.0223],[30.1755,-24.9124],[30.1836,-24.8553],[30.35,-24.8772],[30.3677,-24.8567],[30.421,-24.8509],[30.4921,-24.9476],[30.5244,-24.9124],[30.6197,-24.8597],[30.6585,-24.8186],[30.6601,-24.7761],[30.6327,-24.7497],[30.6375,-24.7379],[30.6811,-24.7335],[30.7199,-24.7042],[30.6731,-24.6176],[30.7345,-24.5823],[30.7273,-24.5141],[30.7392,-24.4574],[30.875,-24.5353],[30.9673,-24.527],[30.9752,-24.5816],[31.2207,-24.5566],[31.2595,-24.5081],[31.2159,-24.4331],[31.1674,-24.4375],[31.1626,-24.3787],[31.2433,-24.3654],[31.1949,-24.311],[31.0592,-24.3213],[31.0511,-24.1902],[31.0963,-24.1548],[31.1125,-24.1253],[31.1109,-24.0973],[31.0737,-24.0944],[31.0786,-24.0811],[31.1626,-24.0634],[31.1755,-24.0368],[31.203,-24.0353],[31.2485,-24.1007],[31.2755,-24.0772],[31.3287,-24.0806],[31.3692,-24.0555],[31.4074,-24.0567],[31.4516,-24.0216],[31.5242,-24.045],[31.5661,-24.0329],[31.5892,-24.0501],[31.647,-24.0131],[31.6737,-24.0463],[31.7123,-24.05],[31.7353,-24.0014],[31.78,-23.9653],[31.8565,-23.963],[31.8695,-24.1638],[31.9613,-24.3463],[31.9866,-24.4231],[31.9919,-24.5004],[31.9887,-25.3726],[31.9664,-25.4797],[31.9958,-25.6369],[31.9544,-25.6849],[31.9058,-25.813],[31.9492,-25.9581],[31.8634,-25.9899],[31.8346,-25.9821],[31.4269,-25.7436],[31.3374,-25.7447],[31.1198,-25.91],[31.0378,-26.1001],[30.9699,-26.2091],[30.8046,-26.3975],[30.7829,-26.4724],[30.7857,-26.7169],[30.8024,-26.8089],[30.8364,-26.8051],[30.8802,-26.7722],[30.9026,-26.8313],[30.9551,-26.8914],[30.9494,-26.9754],[30.9761,-27.035],[31.0788,-27.1182],[31.142,-27.1965],[31.2447,-27.2326]]]}},{"type":"Feature","id":"North West","properties":{"id":"North West","iso_code":"ZA-NW","name":"North West","name_full":"North West","name_ja":"北西州","center_lonlat":[25.5098,-26.2659]},"geometry":{"type":"Polygon","coordinates":[[[26.404,-24.6328],[26.404,-24.7146],[26.4449,-24.8088],[26.6264,-24.8274],[26.7274,-24.8665],[26.768,-24.8662],[26.9443,-24.7895],[27.023,-24.724],[27.043,-24.7492],[27.0554,-24.8497],[27.0796,-24.8876],[27.1474,-24.9383],[27.1698,-24.9814],[27.2894,-25.0067],[27.3665,-25.059],[27.4879,-25.0557],[27.5197,-25.1034],[27.5457,-25.0928],[27.5813,-25.0404],[27.5909,-24.9898],[27.6224,-24.9759],[27.6676,-24.9708],[27.7084,-25.0074],[27.7571,-24.9868],[27.9062,-25.0033],[27.9658,-24.9851],[28.0982,-25.0094],[28.1773,-25.0413],[28.222,-25.0776],[28.2116,-25.1245],[28.1989,-25.1336],[28.1098,-25.1081],[28.0873,-25.1157],[28.0841,-25.1491],[28.1399,-25.21],[28.1942,-25.2082],[28.2309,-25.2258],[28.2937,-25.3171],[28.2853,-25.3402],[28.2352,-25.3534],[28.2062,-25.3242],[28.1735,-25.329],[28.1722,-25.3651],[28.1044,-25.3724],[28.0511,-25.4001],[28.0042,-25.3607],[27.9687,-25.3636],[27.9493,-25.4103],[27.9671,-25.4351],[27.9913,-25.4264],[28.0333,-25.4716],[28.0074,-25.4847],[28.001,-25.5182],[28.0543,-25.5357],[28.0462,-25.5576],[27.9832,-25.5474],[27.9638,-25.5926],[27.9816,-25.629],[27.9557,-25.6494],[27.9629,-25.7415],[27.9442,-25.7568],[27.9428,-25.8068],[27.9242,-25.8304],[27.8756,-25.853],[27.7276,-25.8784],[27.7099,-25.8642],[27.6727,-25.8658],[27.6516,-25.8488],[27.6407,-25.8037],[27.5256,-25.8437],[27.4593,-25.8853],[27.4452,-26.0071],[27.3946,-26.1229],[27.3641,-26.1266],[27.3401,-26.1503],[27.2905,-26.146],[27.3244,-26.2865],[27.1913,-26.3819],[27.2206,-26.4334],[27.2298,-26.5035],[27.1573,-26.5251],[27.1854,-26.5748],[27.2306,-26.5713],[27.2434,-26.64],[27.3348,-26.6157],[27.3398,-26.5848],[27.3546,-26.5804],[27.3842,-26.587],[27.3818,-26.6113],[27.4139,-26.6444],[27.446,-26.6268],[27.5686,-26.6501],[27.5751,-26.6967],[27.6052,-26.6979],[27.5825,-26.7376],[27.5695,-26.7434],[27.5759,-26.7641],[27.5194,-26.7807],[27.5108,-26.8324],[27.4695,-26.8799],[27.3941,-26.8955],[27.3361,-26.8584],[27.3075,-26.8624],[27.2415,-26.9255],[27.1807,-26.9605],[27.1712,-26.9518],[27.178,-26.9244],[26.9996,-26.9232],[26.9663,-26.9075],[26.9327,-26.8649],[26.9142,-26.8899],[26.9179,-26.9553],[26.8576,-26.913],[26.8175,-26.9434],[26.7938,-26.928],[26.7375,-26.9555],[26.7042,-26.9848],[26.6946,-27.017],[26.6293,-27.0037],[26.5815,-27.0515],[26.5824,-27.0948],[26.5679,-27.1061],[26.5318,-27.0985],[26.4897,-27.1386],[26.4313,-27.1539],[26.4111,-27.1768],[26.4859,-27.2538],[26.4852,-27.3108],[26.4692,-27.3156],[26.4501,-27.3529],[26.4573,-27.3676],[26.5132,-27.3907],[26.3622,-27.3868],[26.3248,-27.4213],[26.301,-27.4077],[26.2496,-27.426],[26.2324,-27.4465],[26.2269,-27.4949],[26.1911,-27.5108],[26.0794,-27.6131],[26.0535,-27.6576],[26.069,-27.6958],[26.0612,-27.7138],[26.0192,-27.7121],[25.9944,-27.6361],[25.8744,-27.6209],[25.8305,-27.5838],[25.7987,-27.5807],[25.6941,-27.6344],[25.6474,-27.6724],[25.581,-27.6548],[25.5341,-27.6867],[25.5025,-27.6815],[25.4214,-27.7104],[25.3338,-27.7777],[25.2801,-27.7875],[25.2406,-27.8229],[25.2458,-27.8466],[25.2086,-27.8941],[25.1738,-27.9223],[25.1291,-27.9291],[25.0668,-28.0474],[25.0534,-28.0582],[25.0235,-28.0553],[25.0135,-28.0682],[24.9324,-28.0966],[24.8245,-27.909],[24.842,-27.906],[25.0267,-27.7077],[24.9915,-27.6872],[24.7893,-27.6807],[24.7803,-27.6677],[24.7958,-27.6111],[24.7618,-27.6125],[24.7425,-27.6354],[24.6813,-27.6537],[24.6709,-27.6911],[24.6999,-27.7309],[24.681,-27.7508],[24.6757,-27.7882],[24.6927,-27.8012],[24.6913,-27.8264],[24.6212,-27.9043],[24.6113,-28.0001],[24.5632,-28.0402],[24.5197,-28.0996],[24.4384,-28.0376],[24.4471,-27.9772],[24.4199,-27.9452],[24.3802,-27.9304],[24.3626,-27.8989],[24.4452,-27.7828],[24.4128,-27.7599],[24.4404,-27.7027],[24.4075,-27.6844],[24.1124,-27.7427],[24.0914,-27.6955],[24.1156,-27.6283],[24.0434,-27.5852],[24.0322,-27.509],[24.0849,-27.3589],[24.0134,-27.3362],[23.8943,-27.2577],[23.9622,-27.0996],[24.0106,-27.0651],[24.0235,-27.0161],[23.988,-26.9125],[23.9266,-26.8664],[23.8717,-26.8635],[23.8458,-26.8865],[23.4937,-26.7366],[23.5809,-26.6153],[23.4581,-26.5286],[23.2707,-26.4795],[23.2836,-26.3435],[23.2222,-26.2682],[23.303,-26.1435],[23.2222,-26.1203],[23.2287,-26.0594],[23.3515,-26.0797],[23.3741,-26.0158],[23.0995,-25.9868],[23.0575,-26.1],[22.9928,-26.0942],[22.9864,-26.1609],[22.9153,-26.1551],[22.8507,-26.3985],[22.8151,-26.4477],[22.702,-26.41],[22.7052,-26.1297],[22.6209,-26.1115],[22.665,-26.0514],[22.6616,-26.0209],[22.7194,-25.9843],[22.7268,-25.9216],[22.7088,-25.891],[22.7655,-25.8265],[22.7405,-25.777],[22.7598,-25.7349],[22.8102,-25.6774],[22.8108,-25.6253],[22.8334,-25.6061],[22.814,-25.5666],[22.8513,-25.4713],[22.8768,-25.462],[22.9119,-25.3991],[22.9561,-25.3721],[23.007,-25.3108],[23.0545,-25.3025],[23.0717,-25.326],[23.2161,-25.2672],[23.2657,-25.264],[23.3814,-25.2926],[23.4593,-25.2822],[23.4966,-25.3242],[23.5611,-25.3573],[23.6867,-25.4544],[23.7427,-25.47],[23.769,-25.5074],[23.8075,-25.5236],[23.8454,-25.5691],[23.9248,-25.6292],[23.988,-25.6195],[24.0087,-25.6332],[24.0057,-25.6547],[24.131,-25.6262],[24.1835,-25.6259],[24.2277,-25.649],[24.3389,-25.7518],[24.3892,-25.7595],[24.4567,-25.743],[24.5767,-25.7833],[24.6296,-25.8161],[24.8289,-25.826],[24.9084,-25.8041],[25.0133,-25.743],[25.0517,-25.7379],[25.1778,-25.7633],[25.3865,-25.7435],[25.4584,-25.7112],[25.5873,-25.6195],[25.6635,-25.44],[25.6955,-25.31],[25.8352,-25.0164],[25.8371,-24.9791],[25.8767,-24.886],[25.8684,-24.7482],[25.9147,-24.7318],[25.966,-24.7336],[26.0136,-24.7045],[26.2788,-24.6285],[26.404,-24.6328]]]}},{"type":"Feature","id":"Northern Cape","properties":{"id":"Northern Cape","iso_code":"ZA-NC","name":"Northern Cape","name_full":"Northern Cape","name_ja":"北ケープ州","center_lonlat":[21.4006,-29.4494]},"geometry":{"type":"Polygon","coordinates":[[[22.6209,-26.1115],[22.7052,-26.1297],[22.702,-26.41],[22.8151,-26.4477],[22.8507,-26.3985],[22.9153,-26.1551],[22.9864,-26.1609],[22.9928,-26.0942],[23.0575,-26.1],[23.0995,-25.9868],[23.3741,-26.0158],[23.3515,-26.0797],[23.2287,-26.0594],[23.2222,-26.1203],[23.303,-26.1435],[23.2222,-26.2682],[23.2836,-26.3435],[23.2707,-26.4795],[23.4581,-26.5286],[23.5809,-26.6153],[23.4937,-26.7366],[23.8458,-26.8865],[23.8717,-26.8635],[23.9266,-26.8664],[23.988,-26.9125],[24.0235,-27.0161],[24.0106,-27.0651],[23.9622,-27.0996],[23.8943,-27.2577],[24.0134,-27.3362],[24.0849,-27.3589],[24.0322,-27.509],[24.0434,-27.5852],[24.1156,-27.6283],[24.0914,-27.6955],[24.1124,-27.7427],[24.4075,-27.6844],[24.4404,-27.7027],[24.4128,-27.7599],[24.4452,-27.7828],[24.3626,-27.8989],[24.3802,-27.9304],[24.4199,-27.9452],[24.4471,-27.9772],[24.4384,-28.0376],[24.5197,-28.0996],[24.5632,-28.0402],[24.6113,-28.0001],[24.6212,-27.9043],[24.6913,-27.8264],[24.6927,-27.8012],[24.6757,-27.7882],[24.681,-27.7508],[24.6999,-27.7309],[24.6709,-27.6911],[24.6813,-27.6537],[24.7425,-27.6354],[24.7618,-27.6125],[24.7958,-27.6111],[24.7803,-27.6677],[24.7893,-27.6807],[24.9915,-27.6872],[25.0267,-27.7077],[24.842,-27.906],[24.8245,-27.909],[24.9324,-28.0966],[25.0135,-28.0682],[25.0099,-28.1151],[24.9812,-28.1884],[24.9503,-28.2361],[24.8951,-28.286],[24.916,-28.3174],[24.9139,-28.3484],[24.8451,-28.5194],[24.8411,-28.5826],[24.8743,-28.6499],[24.3408,-29.649],[24.3647,-29.7133],[24.4281,-29.7791],[24.4746,-29.7856],[24.4883,-29.8129],[24.5295,-29.8163],[24.5754,-29.866],[24.6575,-29.8956],[24.6704,-29.9501],[24.6917,-29.9688],[24.7845,-29.9882],[24.9069,-30.2012],[24.9454,-30.2146],[24.9821,-30.2632],[25.0293,-30.2831],[25.0435,-30.3302],[25.1849,-30.4557],[25.2579,-30.4969],[25.2903,-30.5431],[25.3618,-30.5453],[25.4675,-30.6131],[25.483,-30.7558],[25.522,-30.8019],[25.4882,-30.8698],[25.5066,-30.9344],[25.4723,-30.9957],[25.4773,-31.0296],[25.4455,-31.0952],[25.3872,-31.1607],[25.3793,-31.2107],[25.3501,-31.2277],[25.2151,-31.2016],[25.0633,-31.2644],[24.968,-31.2839],[24.8717,-31.3356],[24.8478,-31.3603],[24.7652,-31.3891],[24.5587,-31.4018],[24.5126,-31.553],[24.4996,-31.7048],[24.3346,-31.7193],[24.2417,-31.7492],[24.1816,-31.7489],[24.1543,-31.758],[24.147,-31.7899],[24.0674,-31.7724],[24.0232,-31.7195],[23.9951,-31.7162],[23.9631,-31.7268],[23.934,-31.7627],[23.8632,-31.7998],[23.816,-31.768],[23.8088,-31.7276],[23.6989,-31.6674],[23.6285,-31.6594],[23.525,-31.6824],[23.4009,-31.6813],[23.3567,-31.7207],[23.2927,-31.7509],[23.2009,-31.8696],[23.0698,-31.9765],[23.0378,-31.9325],[23.0265,-31.8865],[22.943,-31.8564],[22.7564,-31.8339],[22.6055,-31.7766],[22.5154,-31.6779],[22.2915,-31.5702],[22.2628,-31.6048],[22.1444,-31.8542],[22.1046,-31.8603],[22.0888,-31.8931],[22.0766,-32.0019],[22.1012,-32.0574],[22.08,-32.0955],[22.0564,-32.0998],[21.9714,-32.1958],[21.9136,-32.2306],[21.8527,-32.243],[21.7158,-32.2124],[21.6028,-32.2204],[21.5534,-32.2415],[21.5245,-32.2891],[21.4231,-32.3485],[21.3052,-32.3767],[21.2548,-32.4315],[21.1922,-32.4591],[21.1178,-32.6072],[21.0414,-32.6378],[20.8651,-32.6769],[20.8234,-32.7162],[20.7841,-32.8615],[20.7051,-32.9181],[20.6079,-32.921],[20.5458,-32.9022],[20.4212,-32.9369],[20.3555,-32.8929],[20.2795,-32.8062],[20.1858,-32.7372],[20.0951,-32.5219],[20.0787,-32.4584],[20.0823,-32.4117],[20.2128,-32.2836],[20.2126,-32.243],[20.1683,-32.186],[20.1392,-32.1896],[19.9246,-32.3574],[19.8013,-32.3728],[19.7307,-32.4072],[19.7039,-32.4377],[19.6526,-32.453],[19.6299,-32.4426],[19.6098,-32.4575],[19.5725,-32.5629],[19.5965,-32.6047],[19.5912,-32.614],[19.5336,-32.6376],[19.4729,-32.5835],[19.4875,-32.4655],[19.4389,-32.3864],[19.4251,-32.31],[19.4926,-32.232],[19.4746,-32.1563],[19.4758,-32.081],[19.4456,-32.077],[19.4087,-32.0401],[19.3713,-32.0472],[19.3261,-32.0305],[19.2923,-31.9787],[19.2485,-31.9518],[19.2595,-31.8833],[19.1852,-31.9221],[19.1634,-31.9145],[19.137,-31.9233],[19.0951,-31.8996],[19.0286,-31.8932],[19.0718,-31.7481],[19.0541,-31.662],[19.0667,-31.5772],[19.0426,-31.5144],[19.0167,-31.4948],[19.0085,-31.4713],[18.9896,-31.3361],[18.9969,-31.2899],[18.9598,-31.248],[18.9373,-31.1971],[18.905,-31.0095],[18.9283,-30.9422],[18.9065,-30.8826],[18.9379,-30.8442],[18.9387,-30.724],[18.8426,-30.6951],[18.7352,-30.577],[18.5608,-30.4707],[18.5071,-30.4757],[18.4786,-30.4968],[18.4643,-30.5263],[18.4106,-30.4999],[18.3622,-30.5775],[18.3363,-30.6544],[18.2472,-30.7828],[18.1569,-30.8217],[18.0584,-30.7765],[18.024,-30.7751],[17.9746,-30.8163],[17.951,-30.8862],[17.8915,-30.9343],[17.8776,-31.0063],[17.8284,-31.063],[17.8206,-31.1696],[17.7671,-31.1558],[17.5617,-30.8381],[17.536,-30.7521],[17.4504,-30.6391],[17.4541,-30.6013],[17.282,-30.3478],[17.2595,-30.245],[17.2069,-30.1653],[17.1664,-30.0129],[17.0857,-29.8338],[17.0563,-29.7304],[17.0563,-29.6764],[17.0188,-29.5987],[17.0078,-29.5392],[16.9339,-29.3577],[16.8849,-29.299],[16.8433,-29.2114],[16.8241,-29.101],[16.745,-29.0287],[16.6677,-28.9086],[16.6004,-28.8575],[16.5628,-28.7128],[16.5348,-28.7032],[16.5135,-28.6609],[16.47,-28.62],[16.4867,-28.5988],[16.4871,-28.5729],[16.5974,-28.5262],[16.6731,-28.4598],[16.6923,-28.4611],[16.7038,-28.4945],[16.7404,-28.4809],[16.7693,-28.4426],[16.7785,-28.383],[16.8039,-28.3661],[16.7684,-28.3037],[16.7687,-28.2654],[16.8246,-28.2645],[16.8103,-28.2229],[16.8198,-28.2097],[16.8564,-28.2066],[16.8377,-28.1682],[16.8782,-28.172],[16.8855,-28.162],[16.893,-28.0826],[16.9196,-28.0583],[16.9475,-28.0727],[16.9854,-28.0522],[17.012,-28.0583],[17.0764,-28.0268],[17.0978,-28.0312],[17.1363,-28.0847],[17.1809,-28.0995],[17.192,-28.2088],[17.2131,-28.2321],[17.3457,-28.2276],[17.372,-28.3061],[17.4,-28.3464],[17.3997,-28.3953],[17.3913,-28.4188],[17.3412,-28.4428],[17.3242,-28.4705],[17.373,-28.5594],[17.4096,-28.5714],[17.4206,-28.5934],[17.4036,-28.7043],[17.4409,-28.7096],[17.5829,-28.6802],[17.598,-28.6896],[17.6071,-28.7557],[17.6287,-28.7641],[17.6738,-28.7716],[17.7463,-28.7486],[17.9133,-28.7813],[18.0441,-28.8584],[18.1665,-28.9019],[18.3087,-28.88],[18.3976,-28.8989],[18.4694,-28.8749],[18.4962,-28.8883],[18.5539,-28.8647],[18.7457,-28.8399],[18.9545,-28.8667],[19.0069,-28.9263],[19.0601,-28.9357],[19.0817,-28.9594],[19.1202,-28.9575],[19.2185,-28.9189],[19.2437,-28.8919],[19.2884,-28.8831],[19.245,-28.7925],[19.2659,-28.7426],[19.29,-28.7197],[19.339,-28.7375],[19.4551,-28.7052],[19.4829,-28.6782],[19.5117,-28.598],[19.5688,-28.5312],[19.6883,-28.516],[19.7481,-28.4871],[19.8256,-28.4767],[19.8967,-28.4277],[19.9817,-28.4223],[19.9814,-24.7525],[20.0293,-24.8152],[20.1078,-24.8803],[20.1593,-24.8937],[20.2357,-24.936],[20.3649,-25.0332],[20.4448,-25.1684],[20.4344,-25.1998],[20.4817,-25.2305],[20.4855,-25.2632],[20.5164,-25.2836],[20.5105,-25.3123],[20.5422,-25.3822],[20.588,-25.404],[20.5969,-25.4329],[20.612,-25.431],[20.6066,-25.462],[20.6435,-25.4574],[20.6565,-25.4678],[20.6204,-25.5006],[20.6185,-25.5285],[20.6634,-25.5647],[20.6714,-25.5912],[20.6379,-25.6203],[20.6708,-25.6423],[20.6629,-25.6853],[20.7167,-25.7326],[20.7378,-25.7989],[20.7265,-25.8274],[20.7558,-25.819],[20.7941,-25.8939],[20.8039,-26.0713],[20.8414,-26.1313],[20.7533,-26.2762],[20.666,-26.3918],[20.6225,-26.4275],[20.6053,-26.4933],[20.6053,-26.5477],[20.6324,-26.5953],[20.6089,-26.6861],[20.6147,-26.7532],[20.6387,-26.817],[20.6755,-26.85],[20.6908,-26.8918],[20.8519,-26.8065],[20.9077,-26.8],[20.9904,-26.8386],[21.1225,-26.8653],[21.4266,-26.8227],[21.4987,-26.8464],[21.6434,-26.8628],[21.6872,-26.8552],[21.7734,-26.7868],[21.7675,-26.7043],[21.7806,-26.6782],[21.999,-26.6503],[22.0577,-26.6176],[22.1462,-26.5192],[22.1974,-26.4041],[22.2483,-26.3469],[22.3429,-26.3174],[22.4509,-26.2101],[22.5451,-26.2074],[22.5803,-26.1465],[22.6209,-26.1115]]]}},{"type":"Feature","id":"Western Cape","properties":{"id":"Western Cape","iso_code":"ZA-WC","name":"Western Cape","name_full":"Western Cape","name_ja":"西ケープ州","center_lonlat":[20.6097,-33.0097]},"geometry":{"type":"MultiPolygon","coordinates":[[[[23.6355,-33.9797],[23.4276,-34.0124],[23.3869,-34.0312],[23.3612,-34.0667],[23.3679,-34.0866],[23.4084,-34.11],[23.0628,-34.0827],[23.049,-34.0411],[22.9981,-34.0275],[23.0387,-34.0724],[23.0322,-34.0861],[22.9845,-34.0753],[22.936,-34.0827],[22.8001,-34.0356],[22.7905,-34.0043],[22.8125,-34.0007],[22.7967,-33.9895],[22.7305,-33.9797],[22.7852,-34.0275],[22.7425,-34.0289],[22.6299,-33.9958],[22.5837,-33.9941],[22.4554,-34.0571],[22.4105,-34.0656],[22.2752,-34.0577],[22.1892,-34.0753],[22.1528,-34.0937],[22.111,-34.1415],[22.1154,-34.1578],[22.1477,-34.1783],[22.134,-34.1881],[21.947,-34.2237],[21.9217,-34.2467],[21.9238,-34.2957],[21.8945,-34.336],[21.8296,-34.3686],[21.7461,-34.3884],[21.5972,-34.3727],[21.5376,-34.3489],[21.439,-34.3723],[21.4155,-34.395],[21.3059,-34.4246],[21.0584,-34.3634],[20.9134,-34.3604],[20.8052,-34.398],[20.8561,-34.4169],[20.8682,-34.4379],[20.8599,-34.4588],[20.8411,-34.465],[20.6643,-34.4384],[20.5244,-34.4543],[20.4827,-34.4705],[20.3745,-34.5698],[20.3412,-34.5787],[20.3186,-34.6034],[20.2433,-34.641],[20.2224,-34.6751],[20.1467,-34.6922],[20.0726,-34.7369],[20.0444,-34.7683],[20.0579,-34.8014],[19.9993,-34.822],[19.9535,-34.8087],[19.8584,-34.7497],[19.6981,-34.7537],[19.6424,-34.7721],[19.3987,-34.6018],[19.2969,-34.6178],[19.3601,-34.5387],[19.3602,-34.5004],[19.3239,-34.4387],[19.2904,-34.4091],[19.2078,-34.4186],[19.1465,-34.415],[19.1193,-34.4006],[19.0852,-34.3565],[19.111,-34.3526],[19.1399,-34.2944],[19.0884,-34.3427],[18.999,-34.3393],[18.8729,-34.3619],[18.8382,-34.3839],[18.8176,-34.3769],[18.8083,-34.3647],[18.8176,-34.3427],[18.8103,-34.3019],[18.8397,-34.2543],[18.8225,-34.185],[18.8582,-34.1503],[18.8001,-34.0895],[18.6472,-34.07],[18.555,-34.0738],[18.4784,-34.1069],[18.4403,-34.1578],[18.4745,-34.2262],[18.4676,-34.3113],[18.4717,-34.3317],[18.4888,-34.3427],[18.4452,-34.3365],[18.3822,-34.2621],[18.3858,-34.2223],[18.3625,-34.1862],[18.3255,-34.1672],[18.3138,-34.1446],[18.3413,-34.1147],[18.3584,-34.0548],[18.3304,-34.0622],[18.3148,-34.0291],[18.3518,-33.9822],[18.3721,-33.9251],[18.4046,-33.9033],[18.4754,-33.8998],[18.4888,-33.863],[18.4318,-33.6967],[18.4001,-33.6334],[18.3203,-33.5675],[18.3143,-33.4965],[18.2827,-33.4452],[18.1462,-33.3559],[18.1502,-33.3193],[18.0752,-33.2022],[17.9917,-33.1503],[17.9549,-33.102],[18.0059,-33.0917],[18.0374,-33.13],[18.033,-33.1409],[18.0991,-33.2009],[18.1275,-33.1974],[18.0916,-33.1355],[18.0409,-33.1017],[18.0405,-33.0485],[18.0232,-33.0143],[17.9407,-33.0064],[17.9549,-33.0275],[17.9128,-33.0475],[17.9019,-33.0369],[17.8625,-32.9072],[17.881,-32.8676],[17.843,-32.8233],[17.8973,-32.7927],[17.9059,-32.7258],[17.9675,-32.7035],[17.9823,-32.7048],[17.9749,-32.7122],[17.9866,-32.727],[18.0374,-32.7668],[18.0806,-32.7813],[18.1188,-32.773],[18.2731,-32.6476],[18.2964,-32.6086],[18.3379,-32.4516],[18.3332,-32.382],[18.3154,-32.3437],[18.3447,-32.3007],[18.3494,-32.2603],[18.2759,-31.9575],[18.2769,-31.8927],[18.2357,-31.8281],[18.1968,-31.6974],[18.0711,-31.5335],[18.0233,-31.4904],[18.0095,-31.4566],[17.8937,-31.3448],[17.8718,-31.2729],[17.8186,-31.2321],[17.7671,-31.1558],[17.8206,-31.1696],[17.8284,-31.063],[17.8776,-31.0063],[17.8915,-30.9343],[17.951,-30.8862],[17.9746,-30.8163],[18.024,-30.7751],[18.0584,-30.7765],[18.1569,-30.8217],[18.2472,-30.7828],[18.3363,-30.6544],[18.3622,-30.5775],[18.4106,-30.4999],[18.4643,-30.5263],[18.4786,-30.4968],[18.5071,-30.4757],[18.5608,-30.4707],[18.7352,-30.577],[18.8426,-30.6951],[18.9387,-30.724],[18.9379,-30.8442],[18.9065,-30.8826],[18.9283,-30.9422],[18.905,-31.0095],[18.9373,-31.1971],[18.9598,-31.248],[18.9969,-31.2899],[18.9896,-31.3361],[19.0085,-31.4713],[19.0167,-31.4948],[19.0426,-31.5144],[19.0667,-31.5772],[19.0541,-31.662],[19.0718,-31.7481],[19.0286,-31.8932],[19.0951,-31.8996],[19.137,-31.9233],[19.1634,-31.9145],[19.1852,-31.9221],[19.2595,-31.8833],[19.2485,-31.9518],[19.2923,-31.9787],[19.3261,-32.0305],[19.3713,-32.0472],[19.4087,-32.0401],[19.4456,-32.077],[19.4758,-32.081],[19.4746,-32.1563],[19.4926,-32.232],[19.4251,-32.31],[19.4389,-32.3864],[19.4875,-32.4655],[19.4729,-32.5835],[19.5336,-32.6376],[19.5912,-32.614],[19.5965,-32.6047],[19.5725,-32.5629],[19.6098,-32.4575],[19.6299,-32.4426],[19.6526,-32.453],[19.7039,-32.4377],[19.7307,-32.4072],[19.8013,-32.3728],[19.9246,-32.3574],[20.1392,-32.1896],[20.1683,-32.186],[20.2126,-32.243],[20.2128,-32.2836],[20.0823,-32.4117],[20.0787,-32.4584],[20.0951,-32.5219],[20.1858,-32.7372],[20.2795,-32.8062],[20.3555,-32.8929],[20.4212,-32.9369],[20.5458,-32.9022],[20.6079,-32.921],[20.7051,-32.9181],[20.7841,-32.8615],[20.8234,-32.7162],[20.8651,-32.6769],[21.0414,-32.6378],[21.1178,-32.6072],[21.1922,-32.4591],[21.2548,-32.4315],[21.3052,-32.3767],[21.4231,-32.3485],[21.5245,-32.2891],[21.5534,-32.2415],[21.6028,-32.2204],[21.7158,-32.2124],[21.8527,-32.243],[21.9136,-32.2306],[21.9714,-32.1958],[22.0564,-32.0998],[22.08,-32.0955],[22.1012,-32.0574],[22.0766,-32.0019],[22.0888,-31.8931],[22.1046,-31.8603],[22.1444,-31.8542],[22.2628,-31.6048],[22.2915,-31.5702],[22.5154,-31.6779],[22.6055,-31.7766],[22.7564,-31.8339],[22.943,-31.8564],[23.0265,-31.8865],[23.0378,-31.9325],[23.0698,-31.9765],[23.2009,-31.8696],[23.2927,-31.7509],[23.3567,-31.7207],[23.4009,-31.6813],[23.525,-31.6824],[23.6285,-31.6594],[23.6989,-31.6674],[23.8088,-31.7276],[23.816,-31.768],[23.8632,-31.7998],[23.934,-31.7627],[23.9631,-31.7268],[23.9951,-31.7162],[24.0232,-31.7195],[24.0674,-31.7724],[24.147,-31.7899],[24.1577,-31.817],[24.1298,-31.8575],[24.1259,-31.8883],[24.1523,-31.9009],[24.1816,-31.9516],[24.1136,-32.0168],[24.0901,-32.1248],[24.0508,-32.1435],[24.0288,-32.1746],[23.8854,-32.228],[23.7571,-32.1959],[23.6737,-32.2393],[23.6361,-32.3069],[23.6016,-32.3247],[23.447,-32.3402],[23.3984,-32.3609],[23.3254,-32.3546],[23.2425,-32.4245],[23.2371,-32.5053],[23.2762,-32.5864],[23.2782,-32.6675],[23.3704,-32.7682],[23.3269,-32.8077],[23.195,-32.808],[23.1148,-32.8335],[23.069,-32.7803],[23.0742,-32.8458],[23.0592,-32.8676],[23.0007,-32.8892],[22.9533,-32.9437],[22.9475,-32.9745],[22.9162,-33.0141],[22.9312,-33.0556],[22.9157,-33.0956],[22.7452,-33.3279],[22.7366,-33.363],[22.7495,-33.4016],[22.9053,-33.4049],[23.0295,-33.39],[23.2616,-33.3989],[23.4374,-33.4326],[23.5117,-33.4606],[23.5634,-33.496],[23.5828,-33.564],[23.6325,-33.6198],[23.6182,-33.644],[23.4373,-33.712],[23.3665,-33.7807],[23.5069,-33.7838],[23.5442,-33.7963],[23.5634,-33.8217],[23.6868,-33.872],[23.6399,-33.9349],[23.6355,-33.9797]]],[[[37.6624,-46.8285],[37.7285,-46.8253],[37.8211,-46.8442],[37.8958,-46.8899],[37.8638,-46.9409],[37.8065,-46.9658],[37.6021,-46.9487],[37.5754,-46.9035],[37.6624,-46.8285]]],[[[37.8611,-46.6362],[37.8649,-46.6142],[37.9004,-46.5997],[37.9456,-46.5983],[37.9778,-46.6157],[37.9764,-46.6447],[37.9387,-46.6544],[37.8611,-46.6362]]]]}}]}
