{"type":"FeatureCollection","features":[{"type":"Feature","id":"Busan","properties":{"id":"Busan","iso_code":"KR-26","name":"Busan","name_full":"Busan","name_ja":"釜山広域市","center_lonlat":[129.0577,35.1629]},"geometry":{"type":"Polygon","coordinates":[[[129.1993,35.1636],[129.1203,35.1496],[129.1286,35.1141],[129.1011,35.0923],[129.0638,35.1208],[129.0376,35.0978],[129.0219,35.06],[129.0138,35.0553],[128.997,35.0757],[129.0004,35.0459],[128.9584,35.0504],[128.9504,35.0729],[128.9628,35.1334],[129.0005,35.179],[129.011,35.2381],[129.0678,35.2716],[129.1128,35.2605],[129.1362,35.2183],[129.1993,35.1636]]]}},{"type":"Feature","id":"Daegu","properties":{"id":"Daegu","iso_code":"KR-27","name":"Daegu","name_full":"Daegu","name_ja":"大邱広域市","center_lonlat":[128.6266,35.8926]},"geometry":{"type":"Polygon","coordinates":[[[128.6932,36.0093],[128.746,35.9676],[128.7409,35.9277],[128.7618,35.8946],[128.7569,35.8619],[128.7244,35.85],[128.711,35.7991],[128.6887,35.7881],[128.5986,35.803],[128.5624,35.7683],[128.4813,35.8277],[128.4753,35.8462],[128.4891,35.8619],[128.5245,35.8736],[128.5263,35.8835],[128.5081,35.8874],[128.536,35.9224],[128.5297,35.968],[128.5767,35.9996],[128.6932,36.0093]]]}},{"type":"Feature","id":"Daejeon","properties":{"id":"Daejeon","iso_code":"KR-30","name":"Daejeon","name_full":"Daejeon","name_ja":"大田広域市","center_lonlat":[127.3603,36.3634]},"geometry":{"type":"Polygon","coordinates":[[[127.219,36.4562],[127.3526,36.4791],[127.3754,36.4433],[127.3716,36.4257],[127.4018,36.4188],[127.4596,36.4355],[127.4823,36.3745],[127.4498,36.2908],[127.3658,36.2436],[127.3166,36.2332],[127.2959,36.2876],[127.2907,36.3601],[127.219,36.4562]]]}},{"type":"Feature","id":"Gangwon","properties":{"id":"Gangwon","iso_code":"KR-42","name":"Gangwon","name_full":"Gangwon","name_ja":"江原道","center_lonlat":[128.3426,37.6658]},"geometry":{"type":"Polygon","coordinates":[[[129.4226,36.6166],[129.3792,36.6231],[129.3472,36.6117],[129.2779,36.6323],[129.289,36.6561],[129.2744,36.7311],[129.2985,36.7829],[129.2821,36.7968],[129.2861,36.8196],[129.2128,36.824],[129.1684,36.8416],[129.1516,36.8813],[129.1187,36.8938],[129.0981,36.9187],[129.1009,36.9759],[129.1366,36.9919],[129.1658,36.9827],[129.1895,36.9968],[129.1797,37.0199],[129.1143,37.0413],[129.061,37.0245],[128.9401,37.0532],[128.8817,37.0261],[128.8819,37.061],[128.8452,37.0715],[128.8311,37.0912],[128.8038,37.0929],[128.7585,37.065],[128.756,36.996],[128.6503,37.0223],[128.5585,37.0461],[128.5084,37.0741],[128.4207,37.0637],[128.3855,37.1163],[128.2895,37.1006],[128.2643,37.1168],[128.3219,37.1754],[128.1911,37.2028],[128.038,37.1508],[128.0256,37.1862],[127.9876,37.2183],[127.9366,37.2045],[127.9177,37.186],[127.9232,37.1374],[127.8885,37.1144],[127.8104,37.1178],[127.819,37.1661],[127.607,37.1314],[127.7673,37.4031],[127.7692,37.4481],[127.8311,37.5085],[127.8048,37.534],[127.723,37.547],[127.6163,37.593],[127.562,37.5897],[127.5397,37.6046],[127.5565,37.6778],[127.53,37.671],[127.5181,37.6832],[127.5473,37.7103],[127.5344,37.7464],[127.5379,37.7916],[127.6092,37.8266],[127.6258,37.8811],[127.6022,37.9098],[127.5642,37.9196],[127.5503,37.9492],[127.5045,37.9488],[127.4787,37.9638],[127.445,38.0655],[127.3664,38.0576],[127.2968,38.0836],[127.3071,38.1379],[127.2328,38.1054],[127.2002,38.1393],[127.1768,38.0738],[127.0823,38.1199],[127.036,38.1803],[126.9661,38.213],[127.0267,38.2545],[127.1575,38.3072],[127.3771,38.3185],[127.4719,38.2959],[127.7537,38.3254],[127.8008,38.2939],[127.8669,38.3048],[128.0399,38.3043],[128.1085,38.3235],[128.1724,38.356],[128.2487,38.4258],[128.2811,38.4844],[128.2811,38.5844],[128.3649,38.6243],[128.4414,38.5058],[128.4745,38.4261],[128.5628,38.289],[128.6428,38.1293],[128.9238,37.8023],[129.0642,37.6789],[129.0733,37.613],[129.1087,37.5974],[129.1482,37.5051],[129.19,37.4694],[129.2628,37.3709],[129.2828,37.3244],[129.3311,37.2822],[129.3789,37.1301],[129.4341,37.0611],[129.4127,37.0181],[129.4287,36.8974],[129.4712,36.7719],[129.4739,36.7306],[129.4226,36.6166]]]}},{"type":"Feature","id":"Gwangju","properties":{"id":"Gwangju","iso_code":"KR-29","name":"Gwangju","name_full":"Gwangju","name_ja":"光州広域市","center_lonlat":[126.9192,35.2055]},"geometry":{"type":"Polygon","coordinates":[[[126.934,35.2546],[126.9856,35.2388],[127.0058,35.193],[126.9664,35.1501],[126.9047,35.1581],[126.8503,35.1849],[126.8229,35.2341],[126.8445,35.2508],[126.8803,35.243],[126.934,35.2546]]]}},{"type":"Feature","id":"Gyeonggi","properties":{"id":"Gyeonggi","iso_code":"KR-41","name":"Gyeonggi","name_full":"Gyeonggi","name_ja":"京畿道","center_lonlat":[127.162,37.5196]},"geometry":{"type":"MultiPolygon","coordinates":[[[[126.9661,38.213],[127.036,38.1803],[127.0823,38.1199],[127.1768,38.0738],[127.2002,38.1393],[127.2328,38.1054],[127.3071,38.1379],[127.2968,38.0836],[127.3664,38.0576],[127.445,38.0655],[127.4787,37.9638],[127.5045,37.9488],[127.5503,37.9492],[127.5642,37.9196],[127.6022,37.9098],[127.6258,37.8811],[127.6092,37.8266],[127.5379,37.7916],[127.5344,37.7464],[127.5473,37.7103],[127.5181,37.6832],[127.53,37.671],[127.5565,37.6778],[127.5397,37.6046],[127.562,37.5897],[127.6163,37.593],[127.723,37.547],[127.8048,37.534],[127.8311,37.5085],[127.7692,37.4481],[127.7673,37.4031],[127.607,37.1314],[127.5177,37.0143],[127.4926,37.0003],[127.4674,37.0096],[127.4315,36.9673],[127.3896,36.9442],[127.3806,36.9148],[127.26,36.8789],[127.2127,36.8841],[127.1309,36.9258],[127.0478,36.8974],[126.9617,36.9051],[127.0003,36.9284],[127.0072,36.9526],[126.9942,36.9669],[127.0394,36.982],[127.042,36.9936],[126.9822,36.9802],[126.9691,36.932],[126.9127,36.9296],[126.8379,36.9759],[126.8244,37.0026],[126.8843,37.0079],[126.8707,37.0215],[126.911,37.0141],[126.8831,37.0696],[126.8905,37.0959],[126.8705,37.0908],[126.8491,37.0373],[126.7552,37.0488],[126.7529,37.1007],[126.7645,37.1177],[126.7942,37.1389],[126.8635,37.1503],[126.8707,37.1755],[126.8298,37.1587],[126.8074,37.1653],[126.8023,37.1854],[126.7029,37.1247],[126.686,37.1393],[126.7069,37.1649],[126.6685,37.1618],[126.6707,37.1856],[126.719,37.2129],[126.6802,37.2177],[126.6585,37.2543],[126.6721,37.2617],[126.7676,37.2543],[126.7676,37.2323],[126.782,37.2202],[126.8192,37.2744],[126.8707,37.2679],[126.8521,37.2862],[126.7333,37.3062],[126.6898,37.3325],[126.6875,37.344],[126.72,37.3771],[126.7721,37.3965],[126.7958,37.443],[126.7702,37.4638],[126.7595,37.5071],[126.7006,37.552],[126.6038,37.5493],[126.5605,37.6074],[126.5349,37.7682],[126.6033,37.7545],[126.6619,37.758],[126.6615,37.6724],[126.6921,37.652],[126.7552,37.6379],[126.6788,37.6863],[126.7005,37.743],[126.6849,37.7936],[126.7,37.8297],[126.6675,37.8278],[126.6658,37.9376],[126.7619,37.979],[126.8473,38.082],[126.9198,38.1346],[126.9661,38.213]],[[127.1159,37.5506],[127.1245,37.6033],[127.1074,37.6574],[127.0903,37.6808],[127.0543,37.6831],[127.0231,37.6772],[126.966,37.6134],[126.9212,37.61],[126.9137,37.5769],[126.8688,37.5603],[126.8087,37.5772],[126.7937,37.5517],[126.8373,37.5062],[126.8425,37.4775],[126.8914,37.4601],[126.9208,37.4295],[126.9637,37.4283],[127.0493,37.4494],[127.0608,37.4285],[127.1446,37.4578],[127.1713,37.4894],[127.1629,37.5147],[127.1921,37.5283],[127.1947,37.5432],[127.1871,37.5578],[127.1159,37.5506]]],[[[126.5078,37.5969],[126.4761,37.6111],[126.4102,37.602],[126.3701,37.631],[126.4167,37.6518],[126.367,37.7272],[126.3738,37.7961],[126.4071,37.8207],[126.4253,37.8244],[126.5164,37.7672],[126.514,37.7235],[126.542,37.631],[126.5078,37.5969]]],[[[124.7327,37.9805],[124.742,37.955],[124.7282,37.947],[124.678,37.9525],[124.6784,37.942],[124.7053,37.9327],[124.6849,37.92],[124.6441,37.9245],[124.6136,37.9451],[124.624,37.9805],[124.6494,37.9733],[124.7049,37.9887],[124.7327,37.9805]]],[[[126.2953,37.8025],[126.3333,37.8004],[126.3425,37.7921],[126.3359,37.7744],[126.3182,37.7623],[126.2245,37.7604],[126.2464,37.8118],[126.2953,37.8025]]],[[[126.3567,37.6951],[126.3788,37.6787],[126.3701,37.6584],[126.3499,37.6574],[126.282,37.6993],[126.32,37.7472],[126.3567,37.6951]]],[[[126.6139,37.2552],[126.6135,37.2328],[126.5393,37.1981],[126.5604,37.2393],[126.543,37.285],[126.5767,37.2877],[126.5779,37.2711],[126.6139,37.2552]]],[[[126.4841,37.279],[126.4983,37.2614],[126.4695,37.2335],[126.4357,37.2384],[126.4435,37.2731],[126.4841,37.279]]],[[[126.0999,37.228],[126.0886,37.226],[126.1047,37.2675],[126.1592,37.2319],[126.1216,37.2109],[126.0999,37.228]]],[[[124.7165,37.8469],[124.7258,37.8374],[124.7142,37.8096],[124.6846,37.8],[124.6765,37.8249],[124.7165,37.8469]]],[[[125.6882,37.6793],[125.7062,37.6723],[125.6878,37.6518],[125.6792,37.6697],[125.6882,37.6793]]]]}},{"type":"Feature","id":"Incheon","properties":{"id":"Incheon","iso_code":"KR-28","name":"Incheon","name_full":"Incheon","name_ja":"仁川広域市","center_lonlat":[126.6876,37.462]},"geometry":{"type":"MultiPolygon","coordinates":[[[[126.72,37.3771],[126.6647,37.3892],[126.6403,37.3644],[126.6151,37.3797],[126.6386,37.4138],[126.596,37.4397],[126.595,37.4723],[126.6442,37.5044],[126.6065,37.4968],[126.6038,37.5493],[126.7006,37.552],[126.7595,37.5071],[126.7702,37.4638],[126.7958,37.443],[126.7721,37.3965],[126.72,37.3771]]],[[[126.5633,37.5144],[126.5831,37.4904],[126.5066,37.4656],[126.4434,37.4206],[126.4205,37.4224],[126.3995,37.4449],[126.365,37.4423],[126.3555,37.4662],[126.4189,37.4969],[126.4937,37.5078],[126.5007,37.5302],[126.5148,37.5343],[126.5633,37.5144]]]]}},{"type":"Feature","id":"Jeju","properties":{"id":"Jeju","iso_code":"KR-49","name":"Jeju","name_full":"Jeju","name_ja":"済州特別自治道","center_lonlat":[126.5565,33.3851]},"geometry":{"type":"Polygon","coordinates":[[[126.9461,33.478],[126.9536,33.465],[126.9324,33.4513],[126.9392,33.4309],[126.8735,33.373],[126.8406,33.3102],[126.7801,33.3055],[126.7418,33.2802],[126.6407,33.2647],[126.6069,33.2406],[126.4706,33.2287],[126.3334,33.2382],[126.27,33.1976],[126.1714,33.2694],[126.1611,33.3008],[126.1958,33.3667],[126.241,33.3928],[126.2707,33.4359],[126.2979,33.4417],[126.3106,33.4645],[126.4594,33.5024],[126.4849,33.5208],[126.5824,33.5293],[126.6488,33.5534],[126.7924,33.5638],[126.8234,33.5594],[126.8499,33.535],[126.8982,33.519],[126.9324,33.4649],[126.9461,33.478]]]}},{"type":"Feature","id":"North Chungcheong","properties":{"id":"North Chungcheong","iso_code":"KR-43","name":"North Chungcheong","name_full":"North Chungcheong","name_ja":"忠清北道","center_lonlat":[127.8089,36.7047]},"geometry":{"type":"Polygon","coordinates":[[[127.607,37.1314],[127.819,37.1661],[127.8104,37.1178],[127.8885,37.1144],[127.9232,37.1374],[127.9177,37.186],[127.9366,37.2045],[127.9876,37.2183],[128.0256,37.1862],[128.038,37.1508],[128.1911,37.2028],[128.3219,37.1754],[128.2643,37.1168],[128.2895,37.1006],[128.3855,37.1163],[128.4207,37.0637],[128.5084,37.0741],[128.5585,37.0461],[128.6503,37.0223],[128.6029,37.0036],[128.4651,36.9104],[128.4199,36.8478],[128.4401,36.8282],[128.4254,36.789],[128.3417,36.7608],[128.306,36.7702],[128.2379,36.8319],[128.2024,36.7763],[128.1266,36.7952],[128.0931,36.7686],[128.0571,36.7757],[128.0258,36.7169],[128.0595,36.6747],[127.9505,36.697],[127.9288,36.671],[127.8627,36.6407],[127.8552,36.6093],[127.8182,36.5725],[127.7887,36.5648],[127.8,36.542],[127.8392,36.5366],[127.8881,36.4794],[127.86,36.4422],[127.85,36.3637],[127.8674,36.3307],[127.8309,36.2922],[127.8369,36.2447],[127.8771,36.2524],[127.949,36.2194],[128.0001,36.2293],[128.0227,36.2159],[128.0341,36.1637],[127.9888,36.1683],[127.9646,36.1516],[127.9682,36.0946],[127.9425,36.0483],[127.927,36.0238],[127.8776,36.0074],[127.852,35.987],[127.8227,36.0046],[127.7537,35.9752],[127.619,36.0295],[127.5759,36.0874],[127.5583,36.186],[127.498,36.209],[127.4657,36.2036],[127.4768,36.2984],[127.5389,36.3902],[127.5122,36.3987],[127.4823,36.3745],[127.4596,36.4355],[127.4018,36.4188],[127.3716,36.4257],[127.3754,36.4433],[127.3526,36.4791],[127.3614,36.5437],[127.2117,36.5357],[127.227,36.6119],[127.2465,36.646],[127.2953,36.7077],[127.3225,36.7158],[127.3393,36.7648],[127.3233,36.8128],[127.26,36.8789],[127.3806,36.9148],[127.3896,36.9442],[127.4315,36.9673],[127.4674,37.0096],[127.4926,37.0003],[127.5177,37.0143],[127.607,37.1314]]]}},{"type":"Feature","id":"North Gyeongsang","properties":{"id":"North Gyeongsang","iso_code":"KR-47","name":"North Gyeongsang","name_full":"North Gyeongsang","name_ja":"慶尚北道","center_lonlat":[128.7025,36.2577]},"geometry":{"type":"MultiPolygon","coordinates":[[[[129.4226,36.6166],[129.4471,36.4933],[129.4409,36.4079],[129.3919,36.3425],[129.3823,36.2019],[129.4305,36.0974],[129.4187,36.073],[129.3818,36.0552],[129.3809,36.0415],[129.4331,35.9961],[129.4533,35.9933],[129.5548,36.0825],[129.5713,36.0718],[129.5873,36.0169],[129.5356,35.939],[129.5221,35.8446],[129.4962,35.7851],[129.4977,35.7479],[129.4431,35.6361],[129.4591,35.6108],[129.379,35.6264],[129.2692,35.6162],[129.2446,35.6641],[129.1755,35.6822],[129.0986,35.6659],[129.0649,35.6446],[129.08,35.6177],[129.0737,35.6079],[129.0085,35.5795],[128.9805,35.5719],[128.9126,35.591],[128.7898,35.5302],[128.7525,35.5311],[128.6886,35.5526],[128.6149,35.5438],[128.5836,35.5599],[128.5584,35.585],[128.5501,35.6403],[128.5024,35.5971],[128.475,35.6017],[128.4214,35.5793],[128.3403,35.6102],[128.2196,35.6128],[128.2039,35.659],[128.2165,35.7051],[128.1433,35.7768],[128.1243,35.7936],[128.0414,35.8023],[127.9656,35.8272],[127.9607,35.8432],[127.9219,35.8648],[127.9139,35.8871],[127.9185,35.9508],[127.8776,36.0074],[127.927,36.0238],[127.9425,36.0483],[127.9682,36.0946],[127.9646,36.1516],[127.9888,36.1683],[128.0341,36.1637],[128.0227,36.2159],[128.0001,36.2293],[127.949,36.2194],[127.8771,36.2524],[127.8369,36.2447],[127.8309,36.2922],[127.8674,36.3307],[127.85,36.3637],[127.86,36.4422],[127.8881,36.4794],[127.8392,36.5366],[127.8,36.542],[127.7887,36.5648],[127.8182,36.5725],[127.8552,36.6093],[127.8627,36.6407],[127.9288,36.671],[127.9505,36.697],[128.0595,36.6747],[128.0258,36.7169],[128.0571,36.7757],[128.0931,36.7686],[128.1266,36.7952],[128.2024,36.7763],[128.2379,36.8319],[128.306,36.7702],[128.3417,36.7608],[128.4254,36.789],[128.4401,36.8282],[128.4199,36.8478],[128.4651,36.9104],[128.6029,37.0036],[128.6503,37.0223],[128.756,36.996],[128.7585,37.065],[128.8038,37.0929],[128.8311,37.0912],[128.8452,37.0715],[128.8819,37.061],[128.8817,37.0261],[128.9401,37.0532],[129.061,37.0245],[129.1143,37.0413],[129.1797,37.0199],[129.1895,36.9968],[129.1658,36.9827],[129.1366,36.9919],[129.1009,36.9759],[129.0981,36.9187],[129.1187,36.8938],[129.1516,36.8813],[129.1684,36.8416],[129.2128,36.824],[129.2861,36.8196],[129.2821,36.7968],[129.2985,36.7829],[129.2744,36.7311],[129.289,36.6561],[129.2779,36.6323],[129.3472,36.6117],[129.3792,36.6231],[129.4226,36.6166]],[[128.7413,35.8488],[128.7623,35.8777],[128.7597,35.9105],[128.7409,35.9277],[128.746,35.9676],[128.6932,36.0093],[128.5767,35.9996],[128.5297,35.968],[128.536,35.9224],[128.5081,35.8874],[128.5263,35.8835],[128.5245,35.8736],[128.4753,35.8462],[128.4813,35.8277],[128.5624,35.7683],[128.5986,35.803],[128.6887,35.7881],[128.711,35.7991],[128.7244,35.85],[128.7413,35.8488]]],[[[130.9036,37.5458],[130.9207,37.5356],[130.9194,37.5102],[130.8967,37.4631],[130.8522,37.4595],[130.811,37.487],[130.8143,37.5226],[130.9036,37.5458]]]]}},{"type":"Feature","id":"North Jeolla","properties":{"id":"North Jeolla","iso_code":"KR-45","name":"North Jeolla","name_full":"North Jeolla","name_ja":"全羅北道","center_lonlat":[127.1655,35.6946]},"geometry":{"type":"MultiPolygon","coordinates":[[[[126.4369,35.3706],[126.4182,35.394],[126.4255,35.4177],[126.4927,35.5253],[126.5942,35.5425],[126.6429,35.5728],[126.6925,35.5344],[126.6702,35.5887],[126.655,35.5958],[126.5132,35.5769],[126.4637,35.602],[126.4676,35.6396],[126.5972,35.7139],[126.6251,35.7456],[126.6294,35.7755],[126.6622,35.793],[126.7331,35.7924],[126.782,35.7602],[126.791,35.7914],[126.7007,35.8398],[126.7034,35.8485],[126.7291,35.865],[126.7971,35.8629],[126.8375,35.8933],[126.8098,35.9117],[126.7332,35.8856],[126.6123,35.8902],[126.6088,35.9311],[126.5697,35.946],[126.5257,35.9404],[126.5214,35.9705],[126.7445,35.9896],[126.8491,36.036],[126.8707,36.062],[126.8121,36.0473],[126.8571,36.0922],[127.0647,36.1326],[127.1016,36.1267],[127.0927,36.0825],[127.114,36.0557],[127.2763,36.0904],[127.3065,36.1212],[127.3384,36.0982],[127.3834,36.0327],[127.4294,36.0165],[127.4325,35.9871],[127.4903,35.9809],[127.5711,35.993],[127.619,36.0295],[127.7537,35.9752],[127.8227,36.0046],[127.852,35.987],[127.8776,36.0074],[127.9185,35.9508],[127.9139,35.8871],[127.8676,35.8342],[127.7698,35.8027],[127.751,35.7696],[127.7066,35.7348],[127.6291,35.5222],[127.6548,35.5133],[127.6697,35.4405],[127.6943,35.4138],[127.6883,35.3864],[127.6465,35.3456],[127.6384,35.2942],[127.6175,35.2766],[127.5604,35.3142],[127.4964,35.3331],[127.431,35.291],[127.2935,35.2838],[127.2612,35.3015],[127.1639,35.2799],[127.1267,35.2844],[127.1027,35.3054],[127.104,35.3385],[127.0775,35.3758],[127.0864,35.4046],[127.0663,35.4297],[127.0368,35.4284],[127.011,35.3829],[126.9801,35.3826],[126.9332,35.4345],[126.8851,35.461],[126.8669,35.462],[126.8503,35.4459],[126.8164,35.4486],[126.7913,35.4302],[126.7921,35.4032],[126.7703,35.3842],[126.773,35.3633],[126.7514,35.3398],[126.595,35.2944],[126.5701,35.3012],[126.5837,35.3918],[126.5549,35.3982],[126.4369,35.3706]]],[[[126.2581,35.5706],[126.259,35.5984],[126.3073,35.6166],[126.3057,35.6032],[126.2581,35.5706]]]]}},{"type":"Feature","id":"Sejong","properties":{"id":"Sejong","iso_code":"KR-50","name":"Sejong","name_full":"Sejong","name_ja":"世宗特別自治市","center_lonlat":[127.1825,36.5476]},"geometry":{"type":"Polygon","coordinates":[[[127.2465,36.646],[127.227,36.6119],[127.2117,36.5357],[127.3614,36.5437],[127.3526,36.4791],[127.219,36.4562],[127.1508,36.4412],[127.0598,36.4556],[127.0841,36.4883],[127.0809,36.6398],[127.1042,36.6916],[127.2465,36.646]]]}},{"type":"Feature","id":"Seoul","properties":{"id":"Seoul","iso_code":"KR-11","name":"Seoul","name_full":"Seoul","name_ja":"ソウル特別市","center_lonlat":[127.0082,37.5382]},"geometry":{"type":"Polygon","coordinates":[[[127.0543,37.6831],[127.0903,37.6808],[127.1074,37.6574],[127.1245,37.6033],[127.1159,37.5506],[127.1871,37.5578],[127.1947,37.5432],[127.1921,37.5283],[127.1629,37.5147],[127.1713,37.4894],[127.1446,37.4578],[127.0608,37.4285],[127.0493,37.4494],[126.9819,37.4307],[126.9208,37.4295],[126.8914,37.4601],[126.8425,37.4775],[126.8373,37.5062],[126.7937,37.5517],[126.8087,37.5772],[126.8688,37.5603],[126.8925,37.5667],[126.9137,37.5769],[126.9212,37.61],[126.966,37.6134],[127.0231,37.6772],[127.0543,37.6831]]]}},{"type":"Feature","id":"South Chungcheong","properties":{"id":"South Chungcheong","iso_code":"KR-44","name":"South Chungcheong","name_full":"South Chungcheong","name_ja":"忠清南道","center_lonlat":[126.8704,36.5029]},"geometry":{"type":"MultiPolygon","coordinates":[[[[126.8121,36.0473],[126.6925,35.9999],[126.6773,36.0059],[126.6311,36.0756],[126.645,36.0847],[126.6123,36.099],[126.5894,36.1308],[126.5523,36.1308],[126.5292,36.1535],[126.5096,36.151],[126.5003,36.1257],[126.4934,36.1308],[126.4974,36.16],[126.5314,36.1739],[126.5613,36.1816],[126.6033,36.1718],[126.5801,36.1994],[126.5349,36.2196],[126.568,36.2868],[126.5826,36.2947],[126.5138,36.3227],[126.5826,36.353],[126.5762,36.3663],[126.5206,36.3736],[126.5007,36.3909],[126.5138,36.3977],[126.4988,36.4201],[126.5375,36.4332],[126.5568,36.4558],[126.6174,36.4735],[126.5591,36.4735],[126.5234,36.4411],[126.4977,36.4484],[126.4834,36.497],[126.5139,36.5288],[126.4703,36.5402],[126.4577,36.5956],[126.5123,36.6032],[126.5199,36.6262],[126.4838,36.6496],[126.508,36.6704],[126.4745,36.6879],[126.4773,36.7169],[126.5007,36.7199],[126.4796,36.7471],[126.438,36.7165],[126.4439,36.6381],[126.4242,36.6066],[126.3671,36.6291],[126.3779,36.7026],[126.3664,36.707],[126.3699,36.7323],[126.343,36.7404],[126.3243,36.6997],[126.3015,36.6994],[126.3291,36.6606],[126.3357,36.6441],[126.3262,36.6284],[126.343,36.61],[126.2953,36.5827],[126.2886,36.61],[126.3023,36.6344],[126.273,36.6732],[126.2817,36.6926],[126.2742,36.7199],[126.2293,36.6847],[126.1777,36.6732],[126.157,36.7021],[126.2031,36.7059],[126.2134,36.7267],[126.1582,36.7608],[126.1328,36.7038],[126.1282,36.7613],[126.1656,36.8161],[126.1854,36.7813],[126.2134,36.7813],[126.1922,36.8086],[126.2207,36.8017],[126.24,36.8161],[126.1987,36.8232],[126.2134,36.857],[126.1908,36.872],[126.1922,36.8859],[126.2339,36.9042],[126.23,36.873],[126.2752,36.8747],[126.2857,36.9611],[126.3089,36.9669],[126.3067,36.9315],[126.3235,36.8832],[126.3015,36.857],[126.3089,36.8291],[126.2827,36.8037],[126.2913,36.7893],[126.3279,36.8046],[126.3567,36.7888],[126.3287,36.847],[126.3394,36.857],[126.3653,36.8354],[126.3741,36.8496],[126.4046,36.857],[126.3773,36.8769],[126.4014,36.8814],[126.4192,36.9223],[126.4114,36.9389],[126.3539,36.9552],[126.3507,36.9645],[126.3699,36.9594],[126.3765,36.9749],[126.3357,36.9868],[126.353,37.0],[126.3914,36.9898],[126.3909,37.0079],[126.4454,37.0034],[126.4529,36.9902],[126.4324,36.962],[126.4387,36.9458],[126.4686,36.9576],[126.4785,36.9359],[126.4659,36.9116],[126.4659,36.8669],[126.4839,36.8415],[126.5191,36.9479],[126.5684,36.8985],[126.5826,36.898],[126.5591,36.9424],[126.4934,36.997],[126.5054,37.0066],[126.54,36.9769],[126.5721,36.9775],[126.5123,37.0164],[126.5007,37.055],[126.535,37.0493],[126.6261,36.9961],[126.6361,36.9825],[126.6217,36.9598],[126.6311,36.9116],[126.6465,36.9251],[126.6494,36.9661],[126.6815,36.9947],[126.7578,36.9822],[126.7962,36.9558],[126.782,36.8912],[126.8128,36.9169],[126.8302,36.9102],[126.8298,36.8393],[126.8491,36.788],[126.8298,36.7751],[126.8508,36.754],[126.8716,36.804],[126.8633,36.8291],[126.9048,36.8223],[126.8602,36.8696],[126.9617,36.9051],[127.0478,36.8974],[127.1309,36.9258],[127.2127,36.8841],[127.26,36.8789],[127.3233,36.8128],[127.3393,36.7648],[127.3225,36.7158],[127.2953,36.7077],[127.2465,36.646],[127.1042,36.6916],[127.0809,36.6398],[127.0841,36.4883],[127.0598,36.4556],[127.1508,36.4412],[127.219,36.4562],[127.2907,36.3601],[127.2959,36.2876],[127.3166,36.2332],[127.3658,36.2436],[127.4498,36.2908],[127.4823,36.3745],[127.5122,36.3987],[127.5389,36.3902],[127.4768,36.2984],[127.4657,36.2036],[127.498,36.209],[127.5583,36.186],[127.5759,36.0874],[127.619,36.0295],[127.5711,35.993],[127.4903,35.9809],[127.4325,35.9871],[127.4294,36.0165],[127.3834,36.0327],[127.3384,36.0982],[127.3065,36.1212],[127.2763,36.0904],[127.114,36.0557],[127.0927,36.0825],[127.1016,36.1267],[127.0647,36.1326],[126.8571,36.0922],[126.8121,36.0473]]],[[[126.4054,36.4588],[126.4321,36.4079],[126.3638,36.4114],[126.3611,36.4263],[126.3776,36.4462],[126.3426,36.4384],[126.3638,36.4735],[126.3281,36.4711],[126.3298,36.5317],[126.3148,36.5818],[126.3412,36.6041],[126.3602,36.6094],[126.3735,36.5922],[126.3643,36.567],[126.3794,36.5184],[126.4048,36.4933],[126.3838,36.4871],[126.4048,36.4796],[126.4054,36.4588]]]]}},{"type":"Feature","id":"South Gyeongsang","properties":{"id":"South Gyeongsang","iso_code":"KR-48","name":"South Gyeongsang","name_full":"South Gyeongsang","name_ja":"慶尚南道","center_lonlat":[128.291,35.3436]},"geometry":{"type":"MultiPolygon","coordinates":[[[[128.9628,35.1334],[128.9184,35.0819],[128.9046,35.0811],[128.8979,35.1213],[128.8822,35.0815],[128.7916,35.083],[128.7811,35.1111],[128.762,35.0794],[128.7278,35.1047],[128.7004,35.0961],[128.6963,35.1435],[128.6799,35.116],[128.638,35.1498],[128.6179,35.1433],[128.6179,35.1849],[128.6021,35.2139],[128.5779,35.1787],[128.627,35.0908],[128.6248,35.0682],[128.6521,35.0613],[128.6036,35.0566],[128.5803,35.0879],[128.5264,35.1035],[128.4781,35.0991],[128.4697,35.0884],[128.4813,35.075],[128.3892,35.049],[128.3714,35.0136],[128.4881,35.0512],[128.4976,35.0207],[128.4915,34.9959],[128.4268,34.9925],[128.42,34.9827],[128.4414,34.9599],[128.433,34.8907],[128.4509,34.8859],[128.4609,34.9037],[128.4745,34.8907],[128.4353,34.8432],[128.4129,34.8376],[128.3829,34.8393],[128.3834,34.8546],[128.4159,34.8627],[128.3538,34.8685],[128.3265,34.8891],[128.3578,34.9099],[128.3351,34.9473],[128.3023,34.908],[128.2791,34.9068],[128.2579,34.9302],[128.2241,34.9379],[128.2086,34.9208],[128.207,34.8907],[128.1394,34.8919],[128.1211,34.9003],[128.1177,34.9242],[128.0557,34.9316],[128.054,35.0358],[128.0693,35.0825],[128.025,35.0358],[128.001,35.0341],[128.0193,34.9987],[128.0068,34.9918],[127.9539,34.9788],[127.9258,35.0198],[127.9121,34.9621],[127.8912,34.9467],[127.8303,34.9447],[127.805,34.9571],[127.7891,35.0073],[127.6469,35.1563],[127.6427,35.2094],[127.6121,35.2548],[127.6175,35.2766],[127.6384,35.2942],[127.6465,35.3456],[127.6883,35.3864],[127.6943,35.4138],[127.6697,35.4405],[127.6548,35.5133],[127.6291,35.5222],[127.7066,35.7348],[127.751,35.7696],[127.7698,35.8027],[127.8676,35.8342],[127.9139,35.8871],[127.9219,35.8648],[127.9607,35.8432],[127.9656,35.8272],[128.0414,35.8023],[128.1243,35.7936],[128.1433,35.7768],[128.2165,35.7051],[128.2039,35.659],[128.2196,35.6128],[128.3403,35.6102],[128.4214,35.5793],[128.475,35.6017],[128.5024,35.5971],[128.5501,35.6403],[128.5584,35.585],[128.5836,35.5599],[128.6149,35.5438],[128.6886,35.5526],[128.7525,35.5311],[128.7898,35.5302],[128.9126,35.591],[128.9805,35.5719],[129.0085,35.5795],[129.0127,35.5397],[128.9877,35.4987],[129.0027,35.474],[129.0643,35.4663],[129.1334,35.4099],[129.2079,35.3722],[129.2146,35.3444],[129.2364,35.3268],[129.2688,35.3157],[129.2497,35.2662],[129.2557,35.247],[129.1993,35.1636],[129.1362,35.2183],[129.1128,35.2605],[129.0678,35.2716],[129.011,35.2381],[129.0005,35.179],[128.9628,35.1334]]],[[[128.7485,34.869],[128.7429,34.8445],[128.7206,34.8423],[128.7417,34.7907],[128.6864,34.8081],[128.6572,34.757],[128.6939,34.7362],[128.584,34.7051],[128.6182,34.7256],[128.5986,34.74],[128.6045,34.7665],[128.5735,34.7535],[128.5604,34.7818],[128.5916,34.7912],[128.6045,34.8354],[128.5908,34.8423],[128.5288,34.8081],[128.4915,34.8499],[128.4885,34.869],[128.5233,34.8992],[128.5737,34.9101],[128.6455,34.8907],[128.6164,34.9219],[128.6106,34.9549],[128.6939,34.9863],[128.6819,35.0046],[128.7029,35.0329],[128.7249,35.0189],[128.7192,34.9663],[128.7344,34.9355],[128.7144,34.8764],[128.7443,34.8878],[128.7485,34.869]]],[[[128.0696,34.815],[128.0559,34.6982],[128.0101,34.7088],[127.9753,34.6999],[127.9541,34.7597],[127.9377,34.767],[127.9063,34.7131],[127.8921,34.7127],[127.8618,34.7309],[127.8294,34.869],[127.8623,34.8961],[127.8729,34.9245],[127.9021,34.94],[127.9382,34.914],[127.9056,34.869],[127.9199,34.8354],[127.9619,34.807],[128.0291,34.8218],[128.0696,34.815]]],[[[128.0728,34.8451],[128.0824,34.8356],[127.9873,34.8381],[127.9636,34.8598],[127.9928,34.9034],[128.0178,34.9166],[128.0134,34.8691],[128.0459,34.8936],[128.0728,34.8451]]],[[[128.3858,34.8201],[128.438,34.8196],[128.439,34.7939],[128.4206,34.7892],[128.4373,34.7798],[128.4231,34.7633],[128.4065,34.7631],[128.3862,34.7919],[128.3687,34.7965],[128.3801,34.8104],[128.332,34.8257],[128.3518,34.8354],[128.3858,34.8201]]],[[[128.8428,35.0219],[128.8267,34.9924],[128.8044,35.0563],[128.8364,35.0598],[128.8428,35.0219]]],[[[128.2946,34.6396],[128.2817,34.6199],[128.2363,34.6105],[128.2378,34.6258],[128.2253,34.6328],[128.2395,34.6524],[128.2713,34.6323],[128.2946,34.6396]]],[[[128.2399,34.8362],[128.2605,34.8146],[128.2385,34.7969],[128.2058,34.8156],[128.2273,34.8386],[128.2399,34.8362]]]]}},{"type":"Feature","id":"South Jeolla","properties":{"id":"South Jeolla","iso_code":"KR-46","name":"South Jeolla","name_full":"South Jeolla","name_ja":"全羅南道","center_lonlat":[126.9748,34.9379]},"geometry":{"type":"MultiPolygon","coordinates":[[[[127.805,34.9571],[127.7444,34.9602],[127.7192,34.9901],[127.7092,34.9404],[127.6621,34.9068],[127.6411,34.8991],[127.6072,34.9413],[127.5916,34.9464],[127.5807,34.9337],[127.5857,34.8792],[127.646,34.8161],[127.6565,34.8119],[127.7,34.8423],[127.7756,34.8491],[127.7415,34.7256],[127.7064,34.7159],[127.6563,34.7313],[127.638,34.6982],[127.6243,34.6982],[127.6407,34.618],[127.5608,34.6622],[127.5559,34.6846],[127.5845,34.7462],[127.5559,34.8007],[127.5354,34.8081],[127.5213,34.8898],[127.4839,34.8395],[127.3653,34.824],[127.4255,34.8007],[127.3616,34.7733],[127.3579,34.7597],[127.3953,34.7567],[127.406,34.7],[127.4662,34.6622],[127.4876,34.6369],[127.4522,34.6369],[127.4952,34.6232],[127.5036,34.5913],[127.4841,34.5766],[127.4522,34.5748],[127.3921,34.602],[127.3494,34.5858],[127.3579,34.5543],[127.4184,34.5553],[127.4392,34.5407],[127.3749,34.485],[127.3566,34.492],[127.3278,34.4739],[127.3436,34.445],[127.3159,34.4449],[127.2235,34.5468],[127.1724,34.5276],[127.1792,34.5133],[127.1338,34.5263],[127.1245,34.5407],[127.1296,34.5639],[127.2134,34.6369],[127.1929,34.5748],[127.2467,34.5837],[127.2613,34.6004],[127.261,34.63],[127.2406,34.671],[127.2747,34.7051],[127.292,34.6945],[127.2944,34.6641],[127.3145,34.6519],[127.3579,34.6982],[127.3316,34.7412],[127.2908,34.7214],[127.2481,34.7665],[127.1997,34.6915],[127.1362,34.6881],[127.0991,34.6545],[127.0103,34.6125],[127.0072,34.5815],[126.9867,34.5537],[126.9942,34.5407],[126.939,34.4959],[126.9408,34.4546],[126.896,34.4499],[126.898,34.4177],[126.8098,34.4512],[126.8067,34.5685],[126.7778,34.5865],[126.7552,34.5577],[126.766,34.5234],[126.7351,34.5149],[126.7615,34.4792],[126.7088,34.4499],[126.7269,34.433],[126.6902,34.4359],[126.6822,34.414],[126.6336,34.3957],[126.6033,34.3004],[126.5213,34.2942],[126.5274,34.3414],[126.4796,34.3488],[126.4885,34.3806],[126.5007,34.3823],[126.5176,34.4138],[126.5088,34.4272],[126.4758,34.4333],[126.4837,34.4702],[126.4659,34.4724],[126.4703,34.4965],[126.4902,34.5086],[126.5418,34.5133],[126.5138,34.5338],[126.5396,34.563],[126.4796,34.5611],[126.4659,34.5407],[126.3909,34.5338],[126.389,34.5497],[126.346,34.5846],[126.325,34.5696],[126.2953,34.5891],[126.3015,34.6089],[126.3228,34.6089],[126.3186,34.6191],[126.2711,34.6425],[126.2694,34.6713],[126.2984,34.7535],[126.3196,34.7477],[126.3567,34.6982],[126.346,34.6677],[126.3823,34.6027],[126.4531,34.5838],[126.4727,34.602],[126.435,34.6068],[126.4126,34.6298],[126.4161,34.6527],[126.3861,34.6358],[126.3786,34.7112],[126.4479,34.7059],[126.4529,34.671],[126.5357,34.6232],[126.5191,34.6504],[126.6027,34.6255],[126.6236,34.63],[126.5554,34.6635],[126.5628,34.671],[126.5084,34.7185],[126.4154,34.739],[126.3902,34.7334],[126.364,34.7492],[126.3923,34.7686],[126.4221,34.7648],[126.4601,34.7788],[126.5349,34.746],[126.5325,34.7829],[126.5444,34.7957],[126.6382,34.788],[126.6311,34.8007],[126.6653,34.8081],[126.6504,34.8222],[126.5758,34.8218],[126.5894,34.8832],[126.5676,34.9014],[126.5418,34.8832],[126.5486,34.8491],[126.5133,34.7823],[126.4872,34.7871],[126.5007,34.8081],[126.4872,34.8138],[126.3735,34.7907],[126.4251,34.8907],[126.4017,34.9155],[126.3977,34.9515],[126.4364,34.9814],[126.4,34.9846],[126.3706,34.9685],[126.3773,34.9379],[126.3633,34.9274],[126.3152,34.9379],[126.3289,34.9447],[126.3015,34.9726],[126.3492,34.9726],[126.3462,34.9941],[126.3741,35.0168],[126.3206,35.0833],[126.3015,35.0887],[126.3094,35.0662],[126.2883,35.053],[126.2542,35.1234],[126.2891,35.1394],[126.3152,35.116],[126.343,35.157],[126.345,35.0964],[126.3567,35.0961],[126.3653,35.074],[126.4114,35.0613],[126.4072,35.039],[126.4251,35.0198],[126.4503,35.0666],[126.4524,35.1003],[126.4142,35.1197],[126.3711,35.1735],[126.3635,35.188],[126.3773,35.2116],[126.3635,35.2395],[126.3089,35.2333],[126.3773,35.2526],[126.3567,35.26],[126.3804,35.2842],[126.3807,35.3271],[126.4114,35.3699],[126.4319,35.3494],[126.4585,35.3454],[126.4369,35.3706],[126.5549,35.3982],[126.5837,35.3918],[126.5701,35.3012],[126.595,35.2944],[126.7514,35.3398],[126.773,35.3633],[126.7703,35.3842],[126.7921,35.4032],[126.7913,35.4302],[126.8164,35.4486],[126.8503,35.4459],[126.8669,35.462],[126.8851,35.461],[126.9332,35.4345],[126.9801,35.3826],[127.011,35.3829],[127.0368,35.4284],[127.0663,35.4297],[127.0864,35.4046],[127.0775,35.3758],[127.104,35.3385],[127.1027,35.3054],[127.1267,35.2844],[127.1639,35.2799],[127.2612,35.3015],[127.2935,35.2838],[127.431,35.291],[127.4964,35.3331],[127.5604,35.3142],[127.6175,35.2766],[127.6121,35.2548],[127.6427,35.2094],[127.6469,35.1563],[127.7891,35.0073],[127.805,34.9571]],[[126.9856,35.2388],[126.934,35.2546],[126.8803,35.243],[126.8445,35.2508],[126.8229,35.2341],[126.8503,35.1849],[126.9047,35.1581],[126.9664,35.1501],[127.0058,35.193],[126.9856,35.2388]]],[[[126.3801,34.4984],[126.3735,34.4544],[126.3459,34.409],[126.3359,34.4035],[126.3093,34.424],[126.3052,34.4017],[126.21,34.3588],[126.1448,34.355],[126.1585,34.3823],[126.1243,34.4035],[126.1243,34.3823],[126.1033,34.4028],[126.1157,34.4362],[126.1442,34.4632],[126.1721,34.4649],[126.2266,34.5276],[126.2383,34.5157],[126.2683,34.522],[126.2744,34.5373],[126.2411,34.5665],[126.2477,34.5748],[126.2804,34.5683],[126.3223,34.5338],[126.3495,34.5468],[126.3801,34.4984]]],[[[126.7639,34.3092],[126.7681,34.2892],[126.689,34.3011],[126.6956,34.3208],[126.6449,34.3371],[126.6458,34.3856],[126.6702,34.4006],[126.71,34.3929],[126.7639,34.3092]]],[[[127.173,34.4837],[127.2342,34.4803],[127.2419,34.4455],[127.2287,34.4302],[127.169,34.4177],[127.1174,34.4376],[127.1238,34.4552],[127.1105,34.4649],[127.173,34.4837]]],[[[127.7821,34.6846],[127.8016,34.6705],[127.8172,34.6308],[127.8151,34.602],[127.7979,34.5797],[127.7754,34.584],[127.7358,34.6252],[127.7683,34.6661],[127.7759,34.6915],[127.7625,34.7128],[127.7966,34.7142],[127.7821,34.6846]]],[[[126.1106,35.0512],[126.056,35.0613],[126.0691,35.1024],[126.1294,35.1429],[126.1652,35.1435],[126.1278,35.1206],[126.1448,35.0825],[126.1106,35.0512]]],[[[126.3407,34.8641],[126.3596,34.8586],[126.3617,34.8374],[126.3421,34.8225],[126.3313,34.8258],[126.3382,34.8415],[126.3062,34.8559],[126.2487,34.8447],[126.2307,34.8546],[126.2927,34.8807],[126.2865,34.9129],[126.2974,34.9175],[126.3452,34.8962],[126.3181,34.8765],[126.3201,34.8659],[126.3407,34.8641]]],[[[126.7625,34.383],[126.7532,34.3869],[126.7825,34.4267],[126.823,34.4398],[126.8355,34.4381],[126.8366,34.4186],[126.8611,34.3928],[126.8247,34.3952],[126.7757,34.3547],[126.7625,34.383]]],[[[126.0072,34.781],[126.0076,34.7597],[125.9461,34.7567],[125.93,34.7226],[125.9064,34.7193],[125.8926,34.7366],[125.8939,34.7623],[125.9129,34.7769],[125.9959,34.7908],[126.0072,34.781]]],[[[126.056,34.9136],[126.0701,34.9289],[126.0891,34.9113],[126.0807,34.871],[126.0547,34.8592],[126.0314,34.869],[125.9865,34.8627],[126.028,34.9099],[126.056,34.9136]]],[[[126.1741,34.7328],[126.1721,34.7038],[126.1384,34.7235],[126.1113,34.7177],[126.0696,34.7697],[126.1636,34.755],[126.1741,34.7328]]],[[[125.989,34.7133],[126.0054,34.6926],[125.9769,34.6564],[125.9251,34.671],[125.916,34.6876],[125.9767,34.7283],[125.989,34.7133]]],[[[126.0794,34.8227],[126.0671,34.8505],[126.1126,34.8534],[126.1228,34.8788],[126.152,34.8712],[126.1397,34.8579],[126.1421,34.8329],[126.1189,34.8238],[126.1159,34.8031],[126.0962,34.7988],[126.0794,34.8227]]],[[[126.2342,35.0471],[126.1748,35.0683],[126.1587,35.0942],[126.1775,35.1058],[126.236,35.0984],[126.2185,35.0766],[126.2551,35.0564],[126.2611,35.0246],[126.2429,35.0273],[126.2342,35.0471]]],[[[126.8539,34.3085],[126.8406,34.3034],[126.8283,34.3229],[126.7887,34.321],[126.7576,34.3361],[126.8377,34.3537],[126.8933,34.3413],[126.8768,34.3122],[126.8539,34.3085]]],[[[126.9094,34.1977],[126.925,34.1849],[126.9136,34.1577],[126.8532,34.159],[126.8491,34.1744],[126.8679,34.2075],[126.8993,34.2097],[126.9094,34.1977]]],[[[126.599,34.1686],[126.6135,34.1525],[126.5818,34.1574],[126.5369,34.1265],[126.5071,34.1389],[126.5151,34.1688],[126.5329,34.1791],[126.599,34.1686]]],[[[127.5319,34.4506],[127.5364,34.4348],[127.4946,34.4143],[127.4522,34.453],[127.4534,34.4706],[127.4871,34.4612],[127.5099,34.47],[127.5319,34.4506]]],[[[126.1001,34.5967],[126.0994,34.5587],[126.0576,34.5325],[126.0352,34.5339],[126.0545,34.5489],[126.0313,34.5564],[126.065,34.5638],[126.0813,34.5808],[126.0601,34.6208],[126.1001,34.5967]]],[[[127.783,34.507],[127.7918,34.492],[127.7712,34.4882],[127.7075,34.5339],[127.7481,34.5511],[127.783,34.507]]],[[[126.6122,34.2182],[126.6066,34.1883],[126.584,34.1863],[126.5838,34.1756],[126.5498,34.1912],[126.5597,34.2345],[126.6122,34.2182]]],[[[127.0916,34.3449],[127.0969,34.3378],[127.0653,34.3398],[127.074,34.3342],[127.0388,34.3129],[127.0456,34.3354],[126.9915,34.3563],[127.0254,34.3813],[127.0459,34.3577],[127.0774,34.3593],[127.0916,34.3449]]],[[[125.4458,34.6885],[125.4592,34.6868],[125.4126,34.6323],[125.3988,34.632],[125.3934,34.6597],[125.4129,34.692],[125.4295,34.6984],[125.4458,34.6885]]],[[[126.672,34.1533],[126.6795,34.1466],[126.6654,34.1191],[126.6387,34.1281],[126.6453,34.1972],[126.6707,34.1899],[126.6619,34.1657],[126.672,34.1533]]],[[[126.1687,34.7923],[126.1642,34.7698],[126.1463,34.7619],[126.0925,34.7876],[126.1494,34.8081],[126.1687,34.7923]]],[[[126.0381,34.5695],[126.0205,34.5714],[126.0166,34.6061],[126.0286,34.6342],[126.0604,34.5843],[126.0576,34.5726],[126.0381,34.5695]]],[[[126.0887,34.3079],[126.0894,34.2896],[126.0693,34.279],[126.0217,34.2956],[126.0332,34.3149],[126.0887,34.3079]]],[[[125.1277,34.0486],[125.0921,34.0718],[125.1022,34.0959],[125.1364,34.0593],[125.1277,34.0486]]],[[[126.1784,35.0485],[126.1724,35.0236],[126.1278,35.0482],[126.1438,35.0577],[126.1784,35.0485]]],[[[127.3091,34.0201],[127.3235,34.0058],[127.2957,34.0141],[127.28,34.0574],[127.2957,34.0615],[127.3091,34.0201]]],[[[126.2464,34.9162],[126.2254,34.9134],[126.2224,34.932],[126.2532,34.9335],[126.2464,34.9162]]]]}},{"type":"Feature","id":"Ulsan","properties":{"id":"Ulsan","iso_code":"KR-31","name":"Ulsan","name_full":"Ulsan","name_ja":"蔚山広域市","center_lonlat":[129.2307,35.5155]},"geometry":{"type":"Polygon","coordinates":[[[129.4591,35.6108],[129.4673,35.5997],[129.4546,35.5133],[129.428,35.4787],[129.4129,35.4721],[129.3875,35.5299],[129.3735,35.5328],[129.3652,35.5133],[129.3871,35.5023],[129.3919,35.4757],[129.3875,35.4623],[129.3578,35.4518],[129.3646,35.4069],[129.3468,35.3823],[129.3604,35.3536],[129.2927,35.316],[129.2688,35.3157],[129.2364,35.3268],[129.2146,35.3444],[129.2079,35.3722],[129.1334,35.4099],[129.0643,35.4663],[129.0027,35.474],[128.9877,35.4987],[129.0127,35.5397],[129.0085,35.5795],[129.0737,35.6079],[129.08,35.6177],[129.0649,35.6446],[129.0986,35.6659],[129.1755,35.6822],[129.2446,35.6641],[129.2692,35.6162],[129.379,35.6264],[129.4591,35.6108]]]}}]}
