{"type":"FeatureCollection","features":[{"type":"Feature","id":"Ampara","properties":{"id":"Ampara","iso_code":"LK-52","name":"Ampara","name_full":"Ampara","name_ja":"アンパーラ県","center_lonlat":[81.5618,7.2303]},"geometry":{"type":"Polygon","coordinates":[[[81.77,7.4608],[81.7934,7.4655],[81.8078,7.4103],[81.8205,7.4765],[81.835,7.4656],[81.8807,7.3271],[81.876,7.0919],[81.8903,7.0199],[81.8316,6.7654],[81.7798,6.6636],[81.7866,6.6393],[81.7756,6.6104],[81.7121,6.5103],[81.6379,6.5422],[81.6081,6.5788],[81.6341,6.9457],[81.6101,7.0211],[81.6168,7.0596],[81.5247,7.0982],[81.5,7.1508],[81.5116,7.1818],[81.5487,7.2191],[81.5102,7.2947],[81.4881,7.3138],[81.4756,7.4231],[81.4627,7.428],[81.4774,7.4508],[81.4578,7.4561],[81.4096,7.4337],[81.3991,7.4137],[81.375,7.4093],[81.3818,7.3727],[81.3657,7.3475],[81.3206,7.3375],[81.326,7.2618],[81.2872,7.2412],[81.2705,7.2768],[81.247,7.3333],[81.226,7.3335],[81.1999,7.3716],[81.1864,7.4404],[81.2053,7.5083],[81.2015,7.5583],[81.157,7.5679],[81.0464,7.5078],[81.0059,7.6031],[80.9881,7.6149],[80.9977,7.6623],[80.989,7.7208],[81.0634,7.7276],[81.0998,7.7137],[81.1293,7.6842],[81.2208,7.6536],[81.2397,7.693],[81.2412,7.7391],[81.3271,7.7268],[81.3834,7.6567],[81.4456,7.642],[81.4363,7.5663],[81.494,7.5162],[81.5596,7.505],[81.6496,7.5251],[81.6682,7.4028],[81.7235,7.4534],[81.77,7.4608]]]}},{"type":"Feature","id":"Anuradhapura","properties":{"id":"Anuradhapura","iso_code":"LK-71","name":"Anuradhapura","name_full":"Anuradhapura","name_ja":"アヌラーダプラ県","center_lonlat":[80.5122,8.3919]},"geometry":{"type":"Polygon","coordinates":[[[80.9242,8.3369],[80.8868,8.2808],[80.8029,8.2736],[80.7655,8.1555],[80.7571,8.0817],[80.777,8.0658],[80.7575,8.0387],[80.7561,8.0123],[80.678,7.9587],[80.6604,7.9605],[80.6551,7.926],[80.6146,7.866],[80.5998,7.8557],[80.5717,7.8642],[80.4991,7.815],[80.4737,7.8392],[80.4775,7.874],[80.4605,7.9375],[80.4523,7.9513],[80.4222,7.9583],[80.4202,8.0403],[80.3683,8.0631],[80.3218,8.1037],[80.1025,8.1962],[80.0766,8.2222],[80.0385,8.2348],[80.0008,8.2271],[79.955,8.3737],[79.966,8.3985],[80.02,8.4475],[80.0381,8.4858],[80.0325,8.5271],[80.0503,8.5219],[80.0444,8.6732],[80.089,8.6552],[80.1381,8.6551],[80.2353,8.6803],[80.246,8.6197],[80.276,8.6078],[80.2967,8.5608],[80.338,8.5461],[80.429,8.675],[80.4595,8.6889],[80.495,8.6671],[80.5268,8.6674],[80.6505,8.7895],[80.6237,8.8389],[80.5977,8.8479],[80.5958,8.8698],[80.6702,8.8724],[80.6993,8.8925],[80.753,8.9051],[80.8106,8.9159],[80.9126,8.8368],[80.884,8.7861],[80.8846,8.7431],[80.9108,8.6821],[80.8961,8.6257],[80.9871,8.4743],[80.9523,8.4383],[80.9242,8.3369]]]}},{"type":"Feature","id":"Badulla","properties":{"id":"Badulla","iso_code":"LK-81","name":"Badulla","name_full":"Badulla","name_ja":"バドゥッラ県","center_lonlat":[81.0454,7.0693]},"geometry":{"type":"Polygon","coordinates":[[[81.2705,7.2768],[81.2316,7.2676],[81.2239,7.228],[81.1874,7.1782],[81.1708,7.1713],[81.1404,7.1883],[81.1286,7.1706],[81.1256,7.1503],[81.1752,7.0866],[81.212,7.0963],[81.2356,7.0688],[81.2435,7.023],[81.2153,6.926],[81.1924,6.9275],[81.1591,6.8906],[81.1121,6.8718],[81.1366,6.8379],[81.1075,6.8291],[81.0989,6.8124],[81.065,6.8095],[81.0561,6.7488],[81.0775,6.7311],[81.0787,6.7134],[81.062,6.6606],[81.0862,6.6096],[81.0655,6.6022],[81.0624,6.5784],[81.0408,6.5906],[81.0227,6.5421],[80.9681,6.6519],[80.928,6.6875],[80.8653,6.6619],[80.8271,6.6785],[80.8214,6.7081],[80.8484,6.7204],[80.8578,6.7414],[80.8269,6.7617],[80.8122,6.7551],[80.8095,6.7919],[80.8386,6.811],[80.8202,6.8215],[80.8349,6.8453],[80.8136,6.8874],[80.7817,6.9034],[80.7805,6.9193],[80.8173,6.9192],[80.8514,6.9688],[80.9073,6.9855],[80.9296,7.0183],[80.9612,7.0785],[80.9543,7.1032],[80.9659,7.1208],[80.9512,7.1918],[81.0122,7.2304],[80.9921,7.3352],[80.9833,7.4861],[80.9881,7.6149],[81.0059,7.6031],[81.0464,7.5078],[81.157,7.5679],[81.2015,7.5583],[81.2053,7.5083],[81.1864,7.4404],[81.1999,7.3716],[81.226,7.3335],[81.247,7.3333],[81.2705,7.2768]]]}},{"type":"Feature","id":"Batticaloa","properties":{"id":"Batticaloa","iso_code":"LK-51","name":"Batticaloa","name_full":"Batticaloa","name_ja":"バッティカロア県","center_lonlat":[81.4831,7.8066]},"geometry":{"type":"MultiPolygon","coordinates":[[[[81.4167,8.2539],[81.4485,8.128],[81.4303,8.103],[81.4036,8.1918],[81.3963,8.1365],[81.4356,8.0932],[81.4524,8.0945],[81.4644,8.116],[81.5197,7.9993],[81.5339,8.0136],[81.5402,7.9863],[81.5607,7.9993],[81.5607,7.9584],[81.5955,7.9174],[81.5759,7.8894],[81.5876,7.8553],[81.6082,7.8317],[81.6364,7.8355],[81.7107,7.7311],[81.7131,7.7118],[81.6909,7.7051],[81.6265,7.7602],[81.6025,7.7484],[81.5955,7.7263],[81.619,7.7192],[81.6364,7.7331],[81.659,7.7233],[81.7116,7.6505],[81.7116,7.6225],[81.714,7.6437],[81.7546,7.6146],[81.773,7.568],[81.773,7.5239],[81.7576,7.5054],[81.7798,7.4724],[81.77,7.4608],[81.7235,7.4534],[81.6682,7.4028],[81.6496,7.5251],[81.5596,7.505],[81.494,7.5162],[81.4363,7.5663],[81.4456,7.642],[81.3834,7.6567],[81.3271,7.7268],[81.2412,7.7391],[81.227,7.8165],[81.2433,7.9225],[81.2658,7.9375],[81.3399,7.9374],[81.3075,8.0476],[81.3103,8.2574],[81.4167,8.2539]]],[[[81.7388,7.6605],[81.7251,7.7399],[81.8063,7.5986],[81.8233,7.5114],[81.8226,7.4914],[81.8078,7.4792],[81.7874,7.4968],[81.7874,7.5935],[81.7388,7.6605]]]]}},{"type":"Feature","id":"Colombo","properties":{"id":"Colombo","iso_code":"LK-11","name":"Colombo","name_full":"Colombo","name_ja":"コロンボ県","center_lonlat":[80.02,6.868]},"geometry":{"type":"Polygon","coordinates":[[[79.9004,6.712],[79.863,6.8072],[79.8493,6.965],[79.905,6.9438],[79.922,6.9518],[79.9717,6.9373],[80.006,6.9419],[80.0719,6.9099],[80.0934,6.911],[80.0986,6.9494],[80.1145,6.9651],[80.1795,6.9778],[80.2185,6.9676],[80.2101,6.9176],[80.177,6.8591],[80.2016,6.8331],[80.1796,6.8135],[80.1504,6.8203],[80.1179,6.8066],[80.1243,6.7776],[80.1048,6.7826],[80.0803,6.8168],[79.9403,6.7472],[79.894,6.7757],[79.9004,6.712]]]}},{"type":"Feature","id":"Galle","properties":{"id":"Galle","iso_code":"LK-31","name":"Galle","name_full":"Galle","name_ja":"ゴール県","center_lonlat":[80.2487,6.2224]},"geometry":{"type":"Polygon","coordinates":[[[80.385,5.9638],[80.3584,5.9784],[80.341,5.9709],[80.2114,6.0336],[80.2039,6.0262],[80.097,6.1324],[80.032,6.2663],[79.9821,6.441],[80.0002,6.4266],[80.0169,6.4351],[80.1368,6.3651],[80.1801,6.3569],[80.2378,6.3747],[80.2984,6.3249],[80.2928,6.3881],[80.3819,6.4258],[80.4077,6.4018],[80.4867,6.3799],[80.4953,6.3675],[80.4612,6.3478],[80.4883,6.3145],[80.4825,6.2863],[80.4516,6.2934],[80.4114,6.327],[80.3788,6.3276],[80.4296,6.2664],[80.4371,6.2378],[80.4196,6.2165],[80.3845,6.2226],[80.3997,6.194],[80.3834,6.1539],[80.3899,6.1344],[80.4388,6.0936],[80.3896,6.0465],[80.4182,6.0245],[80.3829,5.9863],[80.385,5.9638]]]}},{"type":"Feature","id":"Gampaha","properties":{"id":"Gampaha","iso_code":"LK-12","name":"Gampaha","name_full":"Gampaha","name_ja":"ガンパハ県","center_lonlat":[80.0125,7.1228]},"geometry":{"type":"Polygon","coordinates":[[[79.8493,6.965],[79.8616,7.0119],[79.8137,7.1807],[79.8203,7.2055],[79.8482,7.123],[79.8618,7.1366],[79.8616,7.1674],[79.8543,7.1918],[79.8263,7.2104],[79.8279,7.276],[79.9413,7.2744],[80.0007,7.3124],[80.0247,7.3134],[80.0523,7.2941],[80.1335,7.3248],[80.1936,7.2572],[80.1827,7.2018],[80.1539,7.1815],[80.1497,7.1532],[80.1619,7.1281],[80.2073,7.1277],[80.1726,7.0717],[80.1795,6.9778],[80.1145,6.9651],[80.0986,6.9494],[80.0934,6.911],[80.0719,6.9099],[80.006,6.9419],[79.9717,6.9373],[79.922,6.9518],[79.905,6.9438],[79.8493,6.965]]]}},{"type":"Feature","id":"Hambantota","properties":{"id":"Hambantota","iso_code":"LK-33","name":"Hambantota","name_full":"Hambantota","name_ja":"ハンバントタ県","center_lonlat":[81.103,6.2603]},"geometry":{"type":"Polygon","coordinates":[[[81.7121,6.5103],[81.6501,6.4309],[81.5477,6.3707],[81.3621,6.2254],[81.2044,6.1627],[81.2026,6.178],[81.1877,6.1816],[81.1764,6.1504],[81.1126,6.1203],[80.9027,6.0708],[80.8623,6.0399],[80.8091,6.0351],[80.7297,5.9756],[80.6987,5.9902],[80.6869,6.0085],[80.6945,6.0208],[80.6624,6.0354],[80.66,6.0513],[80.6925,6.0651],[80.6814,6.1036],[80.6941,6.1206],[80.655,6.1299],[80.6623,6.1663],[80.6118,6.1895],[80.6239,6.2325],[80.6623,6.2614],[80.6556,6.2772],[80.67,6.306],[80.8006,6.2685],[80.8579,6.2719],[80.8848,6.2466],[80.9425,6.2323],[80.9475,6.2499],[80.9198,6.2957],[81.0196,6.3509],[81.0148,6.3959],[81.041,6.3969],[81.049,6.4217],[81.0613,6.413],[81.0708,6.4237],[81.1208,6.4208],[81.1554,6.3951],[81.1878,6.4034],[81.2218,6.3532],[81.2469,6.3428],[81.3989,6.4124],[81.4647,6.4116],[81.486,6.463],[81.4804,6.4933],[81.6081,6.5788],[81.6379,6.5422],[81.7121,6.5103]]]}},{"type":"Feature","id":"Jaffna","properties":{"id":"Jaffna","iso_code":"LK-41","name":"Jaffna","name_full":"Jaffna","name_ja":"ジャフナ県","center_lonlat":[80.0981,9.715]},"geometry":{"type":"MultiPolygon","coordinates":[[[[80.256,9.6156],[80.1736,9.6487],[80.176,9.6243],[80.2,9.5992],[80.186,9.5841],[80.0941,9.6448],[80.1356,9.6038],[80.0874,9.6184],[80.001,9.6747],[79.947,9.6932],[79.9097,9.7683],[79.9885,9.8229],[80.1223,9.8189],[80.1301,9.7773],[80.1804,9.7558],[80.2223,9.7545],[80.2907,9.6808],[80.256,9.6156]]],[[[80.4417,9.5769],[80.3198,9.6728],[80.2478,9.7551],[80.1538,9.788],[80.1367,9.8139],[80.2268,9.8296],[80.2606,9.8162],[80.279,9.7698],[80.4099,9.6175],[80.626,9.4548],[80.6148,9.4462],[80.5467,9.4924],[80.4564,9.5287],[80.4417,9.5769]]],[[[79.8958,9.6175],[79.8407,9.6994],[79.8605,9.7563],[79.8823,9.7609],[79.8941,9.7574],[79.8947,9.6882],[79.9264,9.6789],[79.9336,9.6547],[79.9779,9.6243],[79.9578,9.6172],[79.9265,9.6295],[79.8958,9.6175]]],[[[79.7308,9.5002],[79.7147,9.4851],[79.666,9.4913],[79.6558,9.5039],[79.6587,9.5554],[79.6763,9.535],[79.7192,9.5244],[79.7308,9.5002]]]]}},{"type":"Feature","id":"Kalutara","properties":{"id":"Kalutara","iso_code":"LK-13","name":"Kalutara","name_full":"Kalutara","name_ja":"カルタラ県","center_lonlat":[80.126,6.5762]},"geometry":{"type":"Polygon","coordinates":[[[79.9821,6.441],[79.9642,6.4719],[79.9779,6.4787],[79.9696,6.5353],[79.9004,6.712],[79.894,6.7757],[79.9403,6.7472],[80.0803,6.8168],[80.1048,6.7826],[80.1243,6.7776],[80.1179,6.8066],[80.1504,6.8203],[80.1796,6.8135],[80.2151,6.6923],[80.2456,6.6628],[80.2515,6.6337],[80.2988,6.5977],[80.3133,6.5702],[80.2982,6.5645],[80.3034,6.5475],[80.3819,6.4258],[80.2928,6.3881],[80.2984,6.3249],[80.2378,6.3747],[80.1801,6.3569],[80.1368,6.3651],[80.0169,6.4351],[80.0002,6.4266],[79.9821,6.441]]]}},{"type":"Feature","id":"Kandy","properties":{"id":"Kandy","iso_code":"LK-21","name":"Kandy","name_full":"Kandy","name_ja":"マハヌヴァラ","center_lonlat":[80.7126,7.2759]},"geometry":{"type":"Polygon","coordinates":[[[80.4634,7.0284],[80.4712,7.0635],[80.4488,7.1121],[80.5324,7.1483],[80.5459,7.1737],[80.5198,7.2026],[80.5219,7.2351],[80.4759,7.2696],[80.4776,7.2889],[80.4344,7.3266],[80.4221,7.3572],[80.4608,7.3602],[80.4691,7.4027],[80.5161,7.3905],[80.516,7.412],[80.5558,7.4228],[80.5418,7.449],[80.5656,7.4576],[80.5861,7.4294],[80.6497,7.3898],[80.6865,7.3876],[80.7078,7.4112],[80.7045,7.4478],[80.7244,7.4718],[80.7764,7.4356],[80.8051,7.4399],[80.8368,7.4658],[80.8944,7.4735],[80.9065,7.4585],[80.9313,7.4866],[80.9833,7.4861],[80.9921,7.3352],[81.0122,7.2304],[80.9512,7.1918],[80.8301,7.1967],[80.8072,7.2328],[80.7881,7.2374],[80.7564,7.272],[80.7687,7.2056],[80.6841,7.0958],[80.6474,7.0999],[80.598,7.0755],[80.5619,7.0799],[80.5393,7.0619],[80.5553,7.061],[80.5997,6.9985],[80.5661,6.9423],[80.5369,6.9594],[80.4921,7.0259],[80.4634,7.0284]]]}},{"type":"Feature","id":"Kegalle","properties":{"id":"Kegalle","iso_code":"LK-92","name":"Kegalle","name_full":"Kegalle","name_ja":"ケーガッラ県","center_lonlat":[80.3426,7.1037]},"geometry":{"type":"Polygon","coordinates":[[[80.2101,6.9176],[80.2185,6.9676],[80.1795,6.9778],[80.1726,7.0717],[80.2073,7.1277],[80.1619,7.1281],[80.1497,7.1532],[80.1539,7.1815],[80.1827,7.2018],[80.1936,7.2572],[80.2565,7.3029],[80.3395,7.325],[80.3524,7.386],[80.3983,7.3915],[80.4221,7.3572],[80.4344,7.3266],[80.4776,7.2889],[80.4759,7.2696],[80.5219,7.2351],[80.5198,7.2026],[80.5459,7.1737],[80.5324,7.1483],[80.4488,7.1121],[80.4712,7.0635],[80.4634,7.0284],[80.4323,6.988],[80.4443,6.9739],[80.4373,6.9367],[80.446,6.9078],[80.4982,6.8813],[80.5075,6.8417],[80.496,6.8317],[80.4562,6.8338],[80.4071,6.8552],[80.3491,6.8373],[80.3241,6.8428],[80.3121,6.8612],[80.2948,6.8551],[80.2795,6.867],[80.2256,6.9246],[80.2101,6.9176]]]}},{"type":"Feature","id":"Kilinochchi","properties":{"id":"Kilinochchi","iso_code":"LK-42","name":"Kilinochchi","name_full":"Kilinochchi","name_ja":"キリノッチ県","center_lonlat":[80.2943,9.3925]},"geometry":{"type":"MultiPolygon","coordinates":[[[[80.1098,9.2095],[80.1182,9.3004],[80.0662,9.3326],[80.053,9.3915],[80.1409,9.4303],[80.1629,9.4592],[80.197,9.4735],[80.1613,9.5206],[80.053,9.5964],[80.0852,9.5954],[80.176,9.5486],[80.2334,9.5342],[80.2722,9.5041],[80.2659,9.4667],[80.2869,9.4527],[80.4266,9.5002],[80.6148,9.4462],[80.5864,9.4082],[80.5862,9.3627],[80.5313,9.3995],[80.5175,9.3542],[80.5006,9.3452],[80.4163,9.3454],[80.3992,9.3022],[80.2415,9.2953],[80.2155,9.2617],[80.2181,9.234],[80.1917,9.2372],[80.1515,9.2124],[80.1098,9.2095]]],[[[80.2907,9.6808],[80.3386,9.6292],[80.4417,9.5769],[80.4564,9.5287],[80.429,9.5178],[80.3687,9.5302],[80.256,9.6156],[80.2907,9.6808]]]]}},{"type":"Feature","id":"Kurunegala","properties":{"id":"Kurunegala","iso_code":"LK-61","name":"Kurunegala","name_full":"Kurunegala","name_ja":"クルネーガラ県","center_lonlat":[80.2357,7.664]},"geometry":{"type":"Polygon","coordinates":[[[80.4221,7.3572],[80.3983,7.3915],[80.3524,7.386],[80.3395,7.325],[80.2565,7.3029],[80.1936,7.2572],[80.1335,7.3248],[80.0523,7.2941],[80.0247,7.3134],[80.0007,7.3124],[79.9413,7.2744],[79.9019,7.531],[79.9021,7.5999],[79.9387,7.674],[79.9651,7.6841],[79.9473,7.6963],[79.9592,7.7209],[80.0043,7.7397],[79.9951,7.7614],[80.0133,7.8347],[80.0673,7.8817],[80.079,7.9149],[80.1058,7.928],[80.1118,7.9499],[80.1326,7.9382],[80.1452,7.9479],[80.1332,7.9701],[80.1466,7.9931],[80.1532,8.0678],[80.1181,8.098],[80.1025,8.1962],[80.3218,8.1037],[80.3683,8.0631],[80.4202,8.0403],[80.4222,7.9583],[80.4523,7.9513],[80.4605,7.9375],[80.4775,7.874],[80.4737,7.8392],[80.4991,7.815],[80.497,7.7812],[80.5305,7.742],[80.5548,7.6336],[80.5731,7.6158],[80.5497,7.5406],[80.5737,7.4875],[80.5656,7.4576],[80.5418,7.449],[80.5558,7.4228],[80.516,7.412],[80.5161,7.3905],[80.4691,7.4027],[80.4608,7.3602],[80.4221,7.3572]]]}},{"type":"Feature","id":"Mannar","properties":{"id":"Mannar","iso_code":"LK-43","name":"Mannar","name_full":"Mannar","name_ja":"マンナール県","center_lonlat":[80.1097,8.8666]},"geometry":{"type":"MultiPolygon","coordinates":[[[[79.9128,8.572],[79.9417,8.6425],[79.9505,8.7398],[79.9264,8.8019],[79.9302,8.8844],[79.9155,8.9385],[79.9471,8.9487],[80.048,9.0263],[80.1098,9.2095],[80.1515,9.2124],[80.1917,9.2372],[80.199,9.1705],[80.2206,9.127],[80.2183,9.0737],[80.2168,9.0533],[80.1948,9.0458],[80.1818,9.0135],[80.1877,8.9862],[80.175,8.9503],[80.34,8.959],[80.3671,8.9464],[80.3826,8.9218],[80.3978,8.8835],[80.3927,8.8486],[80.339,8.8289],[80.2465,8.8259],[80.2185,8.8106],[80.2036,8.7771],[80.1778,8.7745],[80.1738,8.7467],[80.2353,8.6803],[80.1381,8.6551],[80.089,8.6552],[80.0444,8.6732],[80.0503,8.5219],[80.0325,8.5271],[79.9128,8.572]]],[[[79.7141,9.0756],[79.698,9.0896],[79.7141,9.1036],[79.7588,9.1036],[79.8416,9.0772],[79.9165,9.021],[79.8543,9.0415],[79.9097,8.9732],[79.8858,8.9762],[79.7998,9.049],[79.7141,9.0756]]]]}},{"type":"Feature","id":"Matale","properties":{"id":"Matale","iso_code":"LK-22","name":"Matale","name_full":"Matale","name_ja":"マータレー県","center_lonlat":[80.7333,7.6665]},"geometry":{"type":"Polygon","coordinates":[[[80.7561,8.0123],[80.7839,7.9648],[80.8112,7.9779],[80.8533,7.9627],[80.8233,7.9315],[80.7958,7.8065],[80.7668,7.8],[80.7601,7.7726],[80.7817,7.6783],[80.808,7.6726],[80.8531,7.701],[80.877,7.6796],[80.8836,7.7151],[80.989,7.7208],[80.9977,7.6623],[80.9881,7.6149],[80.9833,7.4861],[80.9313,7.4866],[80.9065,7.4585],[80.8944,7.4735],[80.8368,7.4658],[80.8051,7.4399],[80.7764,7.4356],[80.7244,7.4718],[80.7045,7.4478],[80.7078,7.4112],[80.6865,7.3876],[80.6497,7.3898],[80.5861,7.4294],[80.5656,7.4576],[80.5737,7.4875],[80.5497,7.5406],[80.5731,7.6158],[80.5548,7.6336],[80.5305,7.742],[80.497,7.7812],[80.4991,7.815],[80.5717,7.8642],[80.5998,7.8557],[80.6146,7.866],[80.6551,7.926],[80.6604,7.9605],[80.678,7.9587],[80.7561,8.0123]]]}},{"type":"Feature","id":"Matara","properties":{"id":"Matara","iso_code":"LK-32","name":"Matara","name_full":"Matara","name_ja":"マータラ県","center_lonlat":[80.5419,6.1435]},"geometry":{"type":"Polygon","coordinates":[[[80.7297,5.9756],[80.7144,5.9579],[80.6563,5.9579],[80.5908,5.9237],[80.5396,5.9443],[80.4652,5.9407],[80.444,5.9709],[80.385,5.9638],[80.3829,5.9863],[80.4182,6.0245],[80.3896,6.0465],[80.4388,6.0936],[80.3899,6.1344],[80.3834,6.1539],[80.3997,6.194],[80.3845,6.2226],[80.4196,6.2165],[80.4371,6.2378],[80.4296,6.2664],[80.3788,6.3276],[80.4114,6.327],[80.4516,6.2934],[80.4825,6.2863],[80.4883,6.3145],[80.4612,6.3478],[80.4953,6.3675],[80.5344,6.3748],[80.5414,6.391],[80.6023,6.3969],[80.6168,6.3704],[80.6102,6.3526],[80.6522,6.3535],[80.6753,6.3209],[80.67,6.306],[80.6556,6.2772],[80.6623,6.2614],[80.6239,6.2325],[80.6118,6.1895],[80.6623,6.1663],[80.655,6.1299],[80.6941,6.1206],[80.6814,6.1036],[80.6925,6.0651],[80.66,6.0513],[80.6624,6.0354],[80.6945,6.0208],[80.6869,6.0085],[80.6987,5.9902],[80.7297,5.9756]]]}},{"type":"Feature","id":"Monaragala","properties":{"id":"Monaragala","iso_code":"LK-82","name":"Monaragala","name_full":"Monaragala","name_ja":"モナラーガラ県","center_lonlat":[81.3043,6.7872]},"geometry":{"type":"Polygon","coordinates":[[[80.9198,6.2957],[80.9024,6.3373],[80.8651,6.3603],[80.8397,6.4005],[80.8296,6.4945],[80.928,6.6875],[80.9681,6.6519],[81.0227,6.5421],[81.0408,6.5906],[81.0624,6.5784],[81.0655,6.6022],[81.0862,6.6096],[81.062,6.6606],[81.0787,6.7134],[81.0775,6.7311],[81.0561,6.7488],[81.065,6.8095],[81.0989,6.8124],[81.1075,6.8291],[81.1366,6.8379],[81.1121,6.8718],[81.1591,6.8906],[81.1924,6.9275],[81.2153,6.926],[81.2435,7.023],[81.2356,7.0688],[81.212,7.0963],[81.1752,7.0866],[81.1256,7.1503],[81.1286,7.1706],[81.1404,7.1883],[81.1708,7.1713],[81.1874,7.1782],[81.2239,7.228],[81.2316,7.2676],[81.2705,7.2768],[81.2872,7.2412],[81.326,7.2618],[81.3206,7.3375],[81.3657,7.3475],[81.3818,7.3727],[81.375,7.4093],[81.3991,7.4137],[81.4096,7.4337],[81.4578,7.4561],[81.4774,7.4508],[81.4627,7.428],[81.4756,7.4231],[81.4881,7.3138],[81.5102,7.2947],[81.5487,7.2191],[81.5116,7.1818],[81.5,7.1508],[81.5247,7.0982],[81.6168,7.0596],[81.6101,7.0211],[81.6341,6.9457],[81.6081,6.5788],[81.4804,6.4933],[81.486,6.463],[81.4647,6.4116],[81.3989,6.4124],[81.2469,6.3428],[81.2218,6.3532],[81.1878,6.4034],[81.1554,6.3951],[81.1208,6.4208],[81.0708,6.4237],[81.0613,6.413],[81.049,6.4217],[81.041,6.3969],[81.0148,6.3959],[81.0196,6.3509],[80.9198,6.2957]]]}},{"type":"Feature","id":"Mullaitivu","properties":{"id":"Mullaitivu","iso_code":"LK-45","name":"Mullaitivu","name_full":"Mullaitivu","name_ja":"ムッライッティーヴー県","center_lonlat":[80.542,9.1755]},"geometry":{"type":"Polygon","coordinates":[[[80.626,9.4548],[80.7444,9.3597],[80.7988,9.2949],[80.7866,9.2885],[80.7444,9.3113],[80.7417,9.2985],[80.8139,9.2395],[80.8036,9.2716],[80.8239,9.2705],[80.8822,9.1452],[80.8401,9.156],[80.8345,9.1418],[80.8731,9.1265],[80.8753,9.1036],[80.8965,9.1166],[80.9164,9.0622],[80.9583,9.0179],[80.9443,9.0006],[80.9307,9.021],[80.8753,9.0415],[80.9229,8.9889],[80.7657,8.9368],[80.7841,9.0045],[80.7721,9.0206],[80.7087,9.0447],[80.6784,9.031],[80.6897,9.0587],[80.6781,9.0789],[80.6512,9.0818],[80.6476,9.1139],[80.6166,9.1257],[80.5841,9.1248],[80.5187,9.0786],[80.4783,9.1171],[80.4066,9.1156],[80.404,9.101],[80.4264,9.0882],[80.4322,9.0371],[80.4143,9.0104],[80.34,8.959],[80.175,8.9503],[80.1877,8.9862],[80.1818,9.0135],[80.1948,9.0458],[80.2168,9.0533],[80.2183,9.0737],[80.2206,9.127],[80.199,9.1705],[80.1917,9.2372],[80.2181,9.234],[80.2155,9.2617],[80.2415,9.2953],[80.3992,9.3022],[80.4163,9.3454],[80.5006,9.3452],[80.5175,9.3542],[80.5313,9.3995],[80.5862,9.3627],[80.5864,9.4082],[80.6148,9.4462],[80.626,9.4548]]]}},{"type":"Feature","id":"Nuwara Eliya","properties":{"id":"Nuwara Eliya","iso_code":"LK-23","name":"Nuwara Eliya","name_full":"Nuwara Eliya","name_ja":"ヌワラ・エリヤ県","center_lonlat":[80.7118,6.9755]},"geometry":{"type":"Polygon","coordinates":[[[80.496,6.8317],[80.5075,6.8417],[80.4982,6.8813],[80.446,6.9078],[80.4373,6.9367],[80.4443,6.9739],[80.4323,6.988],[80.4634,7.0284],[80.4921,7.0259],[80.5369,6.9594],[80.5661,6.9423],[80.5997,6.9985],[80.5553,7.061],[80.5393,7.0619],[80.5619,7.0799],[80.598,7.0755],[80.6474,7.0999],[80.6841,7.0958],[80.7687,7.2056],[80.7564,7.272],[80.7881,7.2374],[80.8072,7.2328],[80.8301,7.1967],[80.9512,7.1918],[80.9659,7.1208],[80.9543,7.1032],[80.9612,7.0785],[80.9296,7.0183],[80.9073,6.9855],[80.8514,6.9688],[80.8173,6.9192],[80.7805,6.9193],[80.7817,6.9034],[80.8136,6.8874],[80.8349,6.8453],[80.8202,6.8215],[80.8386,6.811],[80.8095,6.7919],[80.7528,6.7625],[80.6426,6.7539],[80.5114,6.7749],[80.4908,6.7905],[80.5021,6.8079],[80.496,6.8317]]]}},{"type":"Feature","id":"Polonnaruwa","properties":{"id":"Polonnaruwa","iso_code":"LK-72","name":"Polonnaruwa","name_full":"Polonnaruwa","name_ja":"ポロンナルワ県","center_lonlat":[81.0275,7.9945]},"geometry":{"type":"Polygon","coordinates":[[[80.7561,8.0123],[80.7575,8.0387],[80.777,8.0658],[80.7571,8.0817],[80.7655,8.1555],[80.8029,8.2736],[80.8868,8.2808],[80.9242,8.3369],[80.9392,8.3412],[80.9824,8.3059],[80.999,8.2726],[81.0412,8.2767],[81.1348,8.2583],[81.1979,8.2286],[81.2096,8.174],[81.1927,8.1543],[81.2015,8.1499],[81.2266,8.1556],[81.2521,8.2241],[81.2823,8.2574],[81.3103,8.2574],[81.3075,8.0476],[81.3399,7.9374],[81.2658,7.9375],[81.2433,7.9225],[81.227,7.8165],[81.2412,7.7391],[81.2397,7.693],[81.2208,7.6536],[81.1293,7.6842],[81.0998,7.7137],[81.0634,7.7276],[80.989,7.7208],[80.8836,7.7151],[80.877,7.6796],[80.8531,7.701],[80.808,7.6726],[80.7817,7.6783],[80.7601,7.7726],[80.7668,7.8],[80.7958,7.8065],[80.8233,7.9315],[80.8533,7.9627],[80.8112,7.9779],[80.7839,7.9648],[80.7561,8.0123]]]}},{"type":"Feature","id":"Puttalam","properties":{"id":"Puttalam","iso_code":"LK-62","name":"Puttalam","name_full":"Puttalam","name_ja":"プッタラム県","center_lonlat":[79.9124,7.9694]},"geometry":{"type":"Polygon","coordinates":[[[79.8279,7.276],[79.7786,7.6027],[79.793,7.6027],[79.802,7.6593],[79.7603,7.8684],[79.6968,8.0983],[79.7072,8.1421],[79.6968,8.2191],[79.7288,8.2497],[79.7786,8.35],[79.7445,8.2812],[79.7571,8.2637],[79.7786,8.26],[79.7461,8.2061],[79.7275,8.1109],[79.7295,8.0811],[79.752,8.0546],[79.7319,8.0131],[79.7638,7.9901],[79.8102,7.9865],[79.8338,8.0031],[79.7935,8.0728],[79.8272,8.1365],[79.8047,8.229],[79.8272,8.2777],[79.8738,8.5381],[79.9128,8.572],[80.0325,8.5271],[80.0381,8.4858],[80.02,8.4475],[79.966,8.3985],[79.955,8.3737],[80.0008,8.2271],[80.0385,8.2348],[80.0766,8.2222],[80.1025,8.1962],[80.1181,8.098],[80.1532,8.0678],[80.1466,7.9931],[80.1332,7.9701],[80.1452,7.9479],[80.1326,7.9382],[80.1118,7.9499],[80.1058,7.928],[80.079,7.9149],[80.0673,7.8817],[80.0133,7.8347],[79.9951,7.7614],[80.0043,7.7397],[79.9592,7.7209],[79.9473,7.6963],[79.9651,7.6841],[79.9387,7.674],[79.9021,7.5999],[79.9019,7.531],[79.9413,7.2744],[79.8279,7.276]]]}},{"type":"Feature","id":"Ratnapura","properties":{"id":"Ratnapura","iso_code":"LK-91","name":"Ratnapura","name_full":"Ratnapura","name_ja":"ラトゥナプラ県","center_lonlat":[80.5665,6.5874]},"geometry":{"type":"Polygon","coordinates":[[[80.928,6.6875],[80.8296,6.4945],[80.8397,6.4005],[80.8651,6.3603],[80.9024,6.3373],[80.9198,6.2957],[80.9475,6.2499],[80.9425,6.2323],[80.8848,6.2466],[80.8579,6.2719],[80.8006,6.2685],[80.67,6.306],[80.6753,6.3209],[80.6522,6.3535],[80.6102,6.3526],[80.6168,6.3704],[80.6023,6.3969],[80.5414,6.391],[80.5344,6.3748],[80.4953,6.3675],[80.4867,6.3799],[80.4077,6.4018],[80.3819,6.4258],[80.3034,6.5475],[80.2982,6.5645],[80.3133,6.5702],[80.2988,6.5977],[80.2515,6.6337],[80.2456,6.6628],[80.2151,6.6923],[80.1796,6.8135],[80.2016,6.8331],[80.177,6.8591],[80.2101,6.9176],[80.2256,6.9246],[80.2795,6.867],[80.2948,6.8551],[80.3121,6.8612],[80.3241,6.8428],[80.3491,6.8373],[80.4071,6.8552],[80.4562,6.8338],[80.496,6.8317],[80.5021,6.8079],[80.4908,6.7905],[80.5114,6.7749],[80.6426,6.7539],[80.7528,6.7625],[80.8095,6.7919],[80.8122,6.7551],[80.8269,6.7617],[80.8578,6.7414],[80.8484,6.7204],[80.8214,6.7081],[80.8271,6.6785],[80.8653,6.6619],[80.928,6.6875]]]}},{"type":"Feature","id":"Trincomalee","properties":{"id":"Trincomalee","iso_code":"LK-53","name":"Trincomalee","name_full":"Trincomalee","name_ja":"トリンコマリー県","center_lonlat":[81.0953,8.5547]},"geometry":{"type":"Polygon","coordinates":[[[80.9229,8.9889],[80.9351,8.9649],[80.9149,8.9439],[80.9476,8.9329],[80.9785,8.98],[81.0467,8.8821],[81.0928,8.8516],[81.1143,8.8],[81.1502,8.7772],[81.1765,8.6989],[81.1823,8.7122],[81.1975,8.7057],[81.2317,8.6511],[81.2316,8.633],[81.2044,8.6101],[81.2249,8.6169],[81.2498,8.5458],[81.2249,8.5418],[81.23,8.5579],[81.2122,8.5727],[81.2106,8.5071],[81.159,8.5346],[81.1423,8.5276],[81.134,8.5013],[81.1703,8.5207],[81.2131,8.4724],[81.2811,8.467],[81.2966,8.4768],[81.2864,8.5002],[81.3231,8.5153],[81.3464,8.5076],[81.3657,8.4822],[81.3884,8.3906],[81.3894,8.3637],[81.3518,8.4047],[81.3566,8.3625],[81.3621,8.35],[81.3993,8.3393],[81.4167,8.2539],[81.3103,8.2574],[81.2823,8.2574],[81.2521,8.2241],[81.2266,8.1556],[81.2015,8.1499],[81.1927,8.1543],[81.2096,8.174],[81.1979,8.2286],[81.1348,8.2583],[81.0412,8.2767],[80.999,8.2726],[80.9824,8.3059],[80.9392,8.3412],[80.9242,8.3369],[80.9523,8.4383],[80.9871,8.4743],[80.8961,8.6257],[80.9108,8.6821],[80.8846,8.7431],[80.884,8.7861],[80.9126,8.8368],[80.8106,8.9159],[80.753,8.9051],[80.7657,8.9368],[80.9229,8.9889]]]}},{"type":"Feature","id":"Vavuniya","properties":{"id":"Vavuniya","iso_code":"LK-44","name":"Vavuniya","name_full":"Vavuniya","name_ja":"バブニヤ県","center_lonlat":[80.4811,8.8588]},"geometry":{"type":"Polygon","coordinates":[[[80.753,8.9051],[80.6993,8.8925],[80.6702,8.8724],[80.5958,8.8698],[80.5977,8.8479],[80.6237,8.8389],[80.6505,8.7895],[80.5268,8.6674],[80.495,8.6671],[80.4595,8.6889],[80.429,8.675],[80.338,8.5461],[80.2967,8.5608],[80.276,8.6078],[80.246,8.6197],[80.2353,8.6803],[80.1738,8.7467],[80.1778,8.7745],[80.2036,8.7771],[80.2185,8.8106],[80.2465,8.8259],[80.339,8.8289],[80.3927,8.8486],[80.3978,8.8835],[80.3826,8.9218],[80.3671,8.9464],[80.34,8.959],[80.4143,9.0104],[80.4322,9.0371],[80.4264,9.0882],[80.404,9.101],[80.4066,9.1156],[80.4783,9.1171],[80.5187,9.0786],[80.5841,9.1248],[80.6166,9.1257],[80.6476,9.1139],[80.6512,9.0818],[80.6781,9.0789],[80.6897,9.0587],[80.6784,9.031],[80.7087,9.0447],[80.7721,9.0206],[80.7841,9.0045],[80.7657,8.9368],[80.753,8.9051]]]}}]}
