{"type":"FeatureCollection","features":[{"type":"Feature","id":"Brokopondo","properties":{"id":"Brokopondo","iso_code":"SR-BR","name":"Brokopondo","name_full":"Brokopondo","name_ja":"ブロコポンド","center_lonlat":[-55.1189,4.725]},"geometry":{"type":"Polygon","coordinates":[[[-54.8513,4.9809],[-54.784,4.9549],[-54.757,4.9305],[-54.7401,4.8903],[-54.8176,4.6602],[-54.8207,4.5378],[-54.8975,4.4404],[-54.8733,4.298],[-54.8973,4.2294],[-54.9474,4.133],[-54.9666,4.1347],[-54.9836,4.1611],[-55.0113,4.1721],[-55.055,4.1192],[-55.1201,4.1046],[-55.1843,4.0491],[-55.2701,4.0118],[-55.2987,4.0268],[-55.311,4.0699],[-55.331,4.4221],[-55.3666,4.4904],[-55.3598,4.6898],[-55.3765,4.8537],[-55.4016,4.9216],[-55.503,5.0805],[-55.3869,5.1892],[-55.3478,5.2568],[-55.3624,5.2907],[-55.3503,5.3148],[-55.0258,5.3226],[-55.0055,5.3194],[-54.9941,5.3024],[-54.982,5.2209],[-54.8971,5.1474],[-54.897,5.0961],[-54.8715,5.0511],[-54.8754,4.9876],[-54.8659,4.9751],[-54.8513,4.9809]]]}},{"type":"Feature","id":"Commewijne","properties":{"id":"Commewijne","iso_code":"SR-CM","name":"Commewijne","name_full":"Commewijne","name_ja":"コメウィン地方","center_lonlat":[-54.9026,5.7651]},"geometry":{"type":"Polygon","coordinates":[[[-55.1286,5.8214],[-55.101,5.8305],[-55.0855,5.8828],[-55.0101,5.8555],[-54.9812,5.8655],[-54.9503,5.8503],[-54.9003,5.8754],[-54.863,5.8555],[-54.8903,5.8828],[-54.9562,5.8676],[-54.9856,5.8804],[-55.0166,5.872],[-55.1256,5.9186],[-55.16,5.9581],[-55.1169,5.9853],[-55.0139,5.9934],[-54.7049,5.9748],[-54.717,5.9411],[-54.7098,5.8613],[-54.7402,5.8126],[-54.7384,5.7744],[-54.7044,5.6826],[-54.628,5.5593],[-55.0305,5.5321],[-55.0492,5.5381],[-55.0546,5.6222],[-55.0893,5.616],[-55.0751,5.6495],[-55.0392,5.6668],[-55.0274,5.6769],[-55.036,5.6904],[-55.0956,5.7116],[-55.1438,5.7662],[-55.1571,5.8015],[-55.1286,5.8214]]]}},{"type":"Feature","id":"Coronie","properties":{"id":"Coronie","iso_code":"SR-CR","name":"Coronie","name_full":"Coronie","name_ja":"コロニー","center_lonlat":[-56.2769,5.6402]},"geometry":{"type":"Polygon","coordinates":[[[-56.6037,5.9503],[-55.936,5.8047],[-55.8977,5.763],[-55.8972,5.6767],[-55.9131,5.6575],[-55.9639,5.6478],[-55.9744,5.6314],[-55.9169,5.5399],[-55.9707,5.5186],[-55.964,5.4817],[-56.0424,5.4291],[-56.06,5.395],[-56.2867,5.3878],[-56.39,5.3203],[-56.4839,5.3168],[-56.4616,5.3516],[-56.4874,5.3997],[-56.5041,5.3993],[-56.5194,5.3706],[-56.5524,5.3849],[-56.5254,5.4502],[-56.5684,5.5181],[-56.5268,5.5344],[-56.5032,5.5259],[-56.4979,5.543],[-56.564,5.655],[-56.5988,5.7485],[-56.6037,5.9503]]]}},{"type":"Feature","id":"Marowijne","properties":{"id":"Marowijne","iso_code":"SR-MA","name":"Marowijne","name_full":"Marowijne","name_ja":"マロウェイネ","center_lonlat":[-54.3766,5.6305]},"geometry":{"type":"Polygon","coordinates":[[[-54.3207,5.2125],[-54.3446,5.237],[-54.473,5.3065],[-54.6549,5.3746],[-54.6099,5.4544],[-54.6131,5.5236],[-54.628,5.5593],[-54.7044,5.6826],[-54.7384,5.7744],[-54.7402,5.8126],[-54.7098,5.8613],[-54.717,5.9411],[-54.7049,5.9748],[-54.2527,5.8948],[-54.0974,5.8473],[-54.0367,5.8424],[-54.0147,5.8201],[-53.9864,5.7457],[-54.0311,5.6693],[-54.0611,5.5129],[-54.1905,5.3257],[-54.2692,5.2691],[-54.3207,5.2125]]]}},{"type":"Feature","id":"Nickerie","properties":{"id":"Nickerie","iso_code":"SR-NI","name":"Nickerie","name_full":"Nickerie","name_ja":"ニッケリ","center_lonlat":[-56.8788,5.607]},"geometry":{"type":"Polygon","coordinates":[[[-56.6037,5.9503],[-56.5988,5.7485],[-56.564,5.655],[-56.4979,5.543],[-56.5032,5.5259],[-56.5268,5.5344],[-56.5684,5.5181],[-56.5254,5.4502],[-56.5524,5.3849],[-56.5194,5.3706],[-56.5041,5.3993],[-56.4874,5.3997],[-56.4616,5.3516],[-56.4839,5.3168],[-56.7239,5.3333],[-57.2325,5.2606],[-57.2476,5.2718],[-57.2674,5.2663],[-57.2538,5.2349],[-57.2805,5.2253],[-57.2888,5.3085],[-57.3317,5.3076],[-57.3357,5.3169],[-57.2652,5.4034],[-57.2477,5.4849],[-57.1795,5.5306],[-57.1637,5.5571],[-57.1396,5.6651],[-57.1258,5.8181],[-57.066,5.9501],[-56.9565,6.0116],[-56.8304,5.9856],[-56.6595,5.9797],[-56.6037,5.9503]]]}},{"type":"Feature","id":"Para","properties":{"id":"Para","iso_code":"SR-PR","name":"Para","name_full":"Para","name_ja":"パラ","center_lonlat":[-55.3178,5.3424]},"geometry":{"type":"Polygon","coordinates":[[[-55.0392,5.6668],[-55.0751,5.6495],[-55.0893,5.616],[-55.0546,5.6222],[-55.0492,5.5381],[-55.0305,5.5321],[-54.628,5.5593],[-54.6131,5.5236],[-54.6099,5.4544],[-54.6549,5.3746],[-54.6693,5.3793],[-54.7502,5.2196],[-54.8032,5.1626],[-54.8513,4.9809],[-54.8659,4.9751],[-54.8754,4.9876],[-54.8715,5.0511],[-54.897,5.0961],[-54.8971,5.1474],[-54.982,5.2209],[-54.9941,5.3024],[-55.0055,5.3194],[-55.0258,5.3226],[-55.3503,5.3148],[-55.3624,5.2907],[-55.3478,5.2568],[-55.3869,5.1892],[-55.503,5.0805],[-55.5272,5.0702],[-55.5596,5.0209],[-55.6766,4.9781],[-55.6982,4.9905],[-55.718,5.0619],[-55.7533,5.0873],[-55.837,5.1106],[-55.9412,5.0898],[-55.9988,5.1029],[-55.9695,5.3808],[-55.9169,5.5399],[-55.8896,5.5016],[-55.9135,5.4548],[-55.9,5.4072],[-55.8463,5.417],[-55.7945,5.4058],[-55.4644,5.44],[-55.4457,5.4264],[-55.3985,5.4565],[-55.3825,5.4939],[-55.4055,5.5389],[-55.3759,5.5949],[-55.3872,5.6265],[-55.3444,5.6489],[-55.3522,5.6727],[-55.2217,5.6624],[-55.1148,5.6831],[-55.0392,5.6668]]]}},{"type":"Feature","id":"Paramaribo","properties":{"id":"Paramaribo","iso_code":"SR-PM","name":"Paramaribo","name_full":"Paramaribo","name_ja":"パラマリボ地方","center_lonlat":[-55.1727,5.8506]},"geometry":{"type":"Polygon","coordinates":[[[-55.2298,5.9024],[-55.1478,5.9082],[-55.1108,5.8812],[-55.1031,5.8664],[-55.1286,5.8214],[-55.1571,5.8015],[-55.1438,5.7662],[-55.2111,5.7991],[-55.2288,5.8468],[-55.2298,5.9024]]]}},{"type":"Feature","id":"Saramacca","properties":{"id":"Saramacca","iso_code":"SR-SA","name":"Saramacca","name_full":"Saramacca","name_ja":"サラマッカ","center_lonlat":[-55.6312,5.7111]},"geometry":{"type":"Polygon","coordinates":[[[-55.8972,5.6767],[-55.885,5.6925],[-55.884,5.7419],[-55.9154,5.8218],[-55.9,5.842],[-55.934,5.8498],[-55.9512,5.8815],[-55.9236,5.9278],[-55.868,5.9698],[-55.6373,5.9859],[-55.395,5.9739],[-55.336,5.9627],[-55.2532,5.9178],[-55.3182,5.7804],[-55.3548,5.7443],[-55.3522,5.6727],[-55.3444,5.6489],[-55.3872,5.6265],[-55.3759,5.5949],[-55.4055,5.5389],[-55.3825,5.4939],[-55.3985,5.4565],[-55.4457,5.4264],[-55.4644,5.44],[-55.7945,5.4058],[-55.8463,5.417],[-55.9,5.4072],[-55.9135,5.4548],[-55.8896,5.5016],[-55.9169,5.5399],[-55.9744,5.6314],[-55.9639,5.6478],[-55.9131,5.6575],[-55.8972,5.6767]]]}},{"type":"Feature","id":"Sipaliwini","properties":{"id":"Sipaliwini","iso_code":"SR-SI","name":"Sipaliwini","name_full":"Sipaliwini","name_ja":"シパリウィニ","center_lonlat":[-56.0345,3.7513]},"geometry":{"type":"Polygon","coordinates":[[[-57.2325,5.2606],[-56.7239,5.3333],[-56.4839,5.3168],[-56.39,5.3203],[-56.2867,5.3878],[-56.06,5.395],[-56.0424,5.4291],[-55.964,5.4817],[-55.9707,5.5186],[-55.9169,5.5399],[-55.9695,5.3808],[-55.9988,5.1029],[-55.9412,5.0898],[-55.837,5.1106],[-55.7533,5.0873],[-55.718,5.0619],[-55.6982,4.9905],[-55.6766,4.9781],[-55.5596,5.0209],[-55.5272,5.0702],[-55.503,5.0805],[-55.4016,4.9216],[-55.3765,4.8537],[-55.3598,4.6898],[-55.3666,4.4904],[-55.331,4.4221],[-55.311,4.0699],[-55.2987,4.0268],[-55.2701,4.0118],[-55.1843,4.0491],[-55.1201,4.1046],[-55.055,4.1192],[-55.0113,4.1721],[-54.9836,4.1611],[-54.9666,4.1347],[-54.9474,4.133],[-54.8973,4.2294],[-54.8733,4.298],[-54.8975,4.4404],[-54.8207,4.5378],[-54.8176,4.6602],[-54.7401,4.8903],[-54.757,4.9305],[-54.784,4.9549],[-54.8513,4.9809],[-54.8032,5.1626],[-54.7502,5.2196],[-54.6693,5.3793],[-54.6549,5.3746],[-54.473,5.3065],[-54.3446,5.237],[-54.3207,5.2125],[-54.3436,5.1564],[-54.4486,5.0243],[-54.4576,4.9913],[-54.4508,4.9367],[-54.4867,4.903],[-54.4787,4.7552],[-54.4355,4.7094],[-54.4377,4.6487],[-54.4235,4.6043],[-54.4235,4.5634],[-54.4508,4.4842],[-54.4334,4.3764],[-54.3941,4.2698],[-54.4106,4.2086],[-54.3949,4.1779],[-54.3386,4.1523],[-54.3539,4.0417],[-54.3102,3.9942],[-54.2931,3.9498],[-54.1874,3.8147],[-54.1255,3.7887],[-54.0944,3.7471],[-54.0501,3.6345],[-54.0179,3.6415],[-53.9888,3.611],[-54.0063,3.531],[-54.003,3.4554],[-54.0194,3.4154],[-54.0557,3.3777],[-54.0802,3.3097],[-54.1143,3.2854],[-54.1766,3.2006],[-54.2112,3.1274],[-54.188,3.131],[-54.1771,3.1166],[-54.177,3.0728],[-54.1907,3.0591],[-54.177,3.0489],[-54.1692,3.0107],[-54.1851,2.9978],[-54.163,2.956],[-54.1913,2.8773],[-54.1702,2.8531],[-54.2853,2.678],[-54.3756,2.4838],[-54.4235,2.4359],[-54.4934,2.4171],[-54.5316,2.3402],[-54.5992,2.3458],[-54.6153,2.3263],[-54.6534,2.3165],[-54.7041,2.3248],[-54.7157,2.3759],[-54.6956,2.4035],[-54.7077,2.4503],[-54.743,2.4665],[-54.8419,2.4335],[-54.8803,2.4473],[-54.9786,2.5431],[-54.9591,2.609],[-55.0177,2.5906],[-55.1209,2.5248],[-55.1366,2.5338],[-55.1378,2.5622],[-55.172,2.5593],[-55.2519,2.4979],[-55.3028,2.5197],[-55.3378,2.5113],[-55.3711,2.4425],[-55.3996,2.4302],[-55.6083,2.434],[-55.7243,2.3969],[-55.7546,2.4094],[-55.7736,2.4401],[-55.8707,2.4709],[-55.9472,2.5282],[-55.983,2.5265],[-56.0075,2.4607],[-56.0133,2.3988],[-56.0502,2.347],[-56.1038,2.3491],[-56.1468,2.2562],[-56.0729,2.2415],[-56.054,2.2241],[-56.0313,2.1635],[-55.9183,2.0504],[-55.922,1.8862],[-55.9538,1.8533],[-56.0197,1.8335],[-56.2098,1.8885],[-56.2738,1.8875],[-56.348,1.9266],[-56.4298,1.9227],[-56.4818,1.9416],[-56.5,1.97],[-56.5798,2.0168],[-56.6778,2.0184],[-56.7052,2.0296],[-56.8015,2.166],[-56.8262,2.2617],[-56.8389,2.2811],[-56.8801,2.2948],[-56.895,2.3621],[-56.9308,2.3933],[-56.9302,2.4362],[-56.9596,2.4838],[-56.9513,2.5155],[-56.9596,2.5247],[-56.9941,2.5049],[-57.0006,2.5142],[-56.9971,2.5551],[-57.0272,2.5936],[-57.0205,2.6354],[-57.0272,2.6482],[-57.056,2.6424],[-57.062,2.6818],[-57.1029,2.7405],[-57.0899,2.7739],[-57.1371,2.7712],[-57.1437,2.79],[-57.1264,2.826],[-57.1746,2.819],[-57.2023,2.8462],[-57.2196,2.9083],[-57.1838,2.9447],[-57.1886,2.9595],[-57.2346,2.9704],[-57.2212,2.9926],[-57.2265,3.0213],[-57.206,3.0281],[-57.2222,3.0783],[-57.2486,3.1124],[-57.2333,3.1417],[-57.2649,3.1326],[-57.286,3.1424],[-57.2749,3.169],[-57.2925,3.2763],[-57.2805,3.3298],[-57.3084,3.3949],[-57.3668,3.3656],[-57.425,3.3875],[-57.4309,3.3606],[-57.4763,3.3389],[-57.5224,3.3652],[-57.5353,3.3678],[-57.5542,3.3467],[-57.6499,3.3859],[-57.6646,3.4175],[-57.644,3.5167],[-57.7029,3.5557],[-57.7261,3.6072],[-57.8298,3.6624],[-57.8751,3.8122],[-57.9421,3.9054],[-58.0321,3.9877],[-58.0659,4.1718],[-57.9538,4.299],[-57.9453,4.3439],[-57.9527,4.4097],[-57.9219,4.4509],[-57.8374,4.6509],[-57.836,4.6698],[-57.8845,4.7629],[-57.9254,4.7961],[-57.9185,4.8298],[-57.8428,4.9299],[-57.774,4.9264],[-57.7205,4.9898],[-57.6869,5.0063],[-57.6494,5.0084],[-57.6101,4.9913],[-57.5176,5.0124],[-57.4903,4.9913],[-57.2805,5.0261],[-57.3214,5.0702],[-57.289,5.171],[-57.2473,5.1724],[-57.2333,5.1421],[-57.202,5.1576],[-57.1849,5.1831],[-57.2325,5.2606]]]}},{"type":"Feature","id":"Wanica","properties":{"id":"Wanica","iso_code":"SR-WA","name":"Wanica","name_full":"Wanica","name_ja":"ワニカ","center_lonlat":[-55.2304,5.7459]},"geometry":{"type":"Polygon","coordinates":[[[-55.2532,5.9178],[-55.2298,5.9024],[-55.2288,5.8468],[-55.2111,5.7991],[-55.1438,5.7662],[-55.0956,5.7116],[-55.036,5.6904],[-55.0274,5.6769],[-55.0392,5.6668],[-55.1148,5.6831],[-55.2217,5.6624],[-55.3522,5.6727],[-55.3548,5.7443],[-55.3182,5.7804],[-55.2532,5.9178]]]}}]}
