{"type":"FeatureCollection","features":[{"type":"Feature","id":"Blekinge","properties":{"id":"Blekinge","iso_code":"SE-K","name":"Blekinge","name_full":"Blekinge","name_ja":"ブレーキンゲ県","center_lonlat":[15.2024,56.2939]},"geometry":{"type":"MultiPolygon","coordinates":[[[[16.0662,56.3359],[16.0383,56.2551],[16.0044,56.2194],[15.9321,56.1747],[15.8517,56.0864],[15.7887,56.1064],[15.8265,56.1594],[15.8062,56.1679],[15.7312,56.1572],[15.7136,56.1747],[15.6482,56.1946],[15.5921,56.1605],[15.5759,56.1747],[15.5962,56.2038],[15.5864,56.2089],[15.4929,56.1763],[15.48,56.1518],[15.4333,56.1789],[15.404,56.1798],[15.3656,56.1411],[15.2953,56.1474],[15.3226,56.1536],[15.2953,56.1884],[15.2345,56.1572],[15.1924,56.1529],[15.1543,56.1686],[15.093,56.1611],[15.0755,56.1884],[15.0347,56.1815],[15.049,56.1536],[14.9534,56.1729],[14.8482,56.164],[14.8496,56.1474],[14.8303,56.1426],[14.7746,56.1679],[14.7249,56.1676],[14.6858,56.1474],[14.6823,56.1171],[14.7034,56.1094],[14.7678,56.0307],[14.7155,56.0023],[14.7057,56.017],[14.673,56.0053],[14.6115,56.0111],[14.6238,56.0245],[14.6033,56.0581],[14.5822,56.0438],[14.5691,56.0581],[14.5534,56.054],[14.556,56.0962],[14.587,56.1547],[14.5765,56.2004],[14.5491,56.2359],[14.4607,56.2555],[14.4106,56.3378],[14.4573,56.4076],[14.5407,56.4775],[14.5963,56.4645],[14.7251,56.402],[14.8941,56.3783],[14.948,56.3986],[15.003,56.4511],[15.1214,56.4627],[15.2157,56.4431],[15.247,56.4675],[15.3312,56.4671],[15.363,56.4821],[15.3969,56.5006],[15.5125,56.4876],[15.5495,56.5091],[15.5786,56.5091],[15.8002,56.3749],[15.8596,56.3506],[15.98,56.3262],[16.0662,56.3359]]],[[[15.7053,56.1164],[15.7269,56.1184],[15.7009,56.1057],[15.6968,56.0743],[15.6511,56.09],[15.6423,56.1046],[15.6691,56.1239],[15.7053,56.1164]]]]}},{"type":"Feature","id":"Dalarna","properties":{"id":"Dalarna","iso_code":"SE-W","name":"Dalarna","name_full":"Dalarna","name_ja":"ダーラナ県","center_lonlat":[14.369,60.9686]},"geometry":{"type":"Polygon","coordinates":[[[12.7108,61.057],[12.7392,61.1424],[12.8398,61.227],[12.8869,61.3615],[12.6138,61.547],[12.5834,61.5611],[12.4165,61.5823],[12.1617,61.7248],[12.3175,62.234],[12.3151,62.2718],[12.7971,62.2071],[12.9754,62.1306],[13.0486,62.0812],[13.1867,62.0433],[13.2854,62.0474],[13.3821,62.0044],[13.359,61.9801],[13.327,61.9058],[13.4946,61.7528],[13.5457,61.6856],[13.6065,61.6585],[14.2964,61.5999],[14.3824,61.582],[14.4816,61.5915],[14.6668,61.563],[14.68,61.5235],[14.7122,61.4923],[15.1015,61.4924],[15.1855,61.5442],[15.4507,61.3459],[15.676,61.217],[15.696,61.1834],[15.7025,61.1278],[15.7668,61.0818],[15.9182,61.0305],[16.1559,60.9994],[16.2104,60.9545],[16.2615,60.8898],[16.3862,60.8135],[16.407,60.7806],[16.3954,60.7499],[16.3428,60.7063],[16.2621,60.6484],[16.2048,60.6247],[16.2025,60.58],[16.3989,60.4187],[16.5431,60.3575],[16.7174,60.2159],[16.7194,60.2016],[16.6991,60.1959],[16.554,60.1756],[16.4495,60.0995],[16.32,60.0776],[16.1771,60.097],[16.1536,60.1492],[16.0535,60.1815],[15.9491,60.1893],[15.8153,60.1781],[15.7497,60.1468],[15.7545,60.1277],[15.7086,60.0779],[15.7227,60.0477],[15.7235,60.0004],[15.7087,59.9838],[15.6626,59.9648],[15.5931,59.9801],[15.5348,59.9727],[15.5097,59.9315],[15.4547,59.8832],[15.2581,60.008],[14.9274,60.0755],[14.8624,60.0979],[14.8486,60.1201],[14.7692,60.0985],[14.7518,60.06],[14.7715,60.0225],[14.4511,60.0366],[14.2574,60.1071],[14.143,60.2381],[13.9806,60.2589],[13.9761,60.2434],[14.0175,60.2126],[13.9747,60.1974],[13.952,60.2038],[13.8453,60.2615],[13.6686,60.407],[13.5056,60.4564],[13.2612,60.6826],[13.2043,60.7058],[13.1415,60.7866],[12.756,61.0009],[12.7108,61.057]]]}},{"type":"Feature","id":"Gavleborg","properties":{"id":"Gavleborg","iso_code":"SE-X","name":"Gavleborg","name_full":"Gävleborg","name_ja":"イェヴレボリ県","center_lonlat":[16.3043,61.4636]},"geometry":{"type":"Polygon","coordinates":[[[17.4985,62.1476],[17.4745,62.1166],[17.4732,62.0847],[17.4473,62.0682],[17.469,62.0622],[17.4261,62.0266],[17.4605,62.0033],[17.3921,61.9924],[17.386,61.962],[17.3482,61.9476],[17.3442,61.9241],[17.3646,61.8863],[17.3435,61.8713],[17.3538,61.8473],[17.3374,61.8237],[17.3537,61.814],[17.4056,61.8211],[17.3716,61.8006],[17.3884,61.7883],[17.3859,61.746],[17.3992,61.7224],[17.4831,61.7346],[17.5142,61.7138],[17.52,61.6912],[17.4963,61.6351],[17.4329,61.6394],[17.3623,61.7091],[17.3306,61.7181],[17.3509,61.6772],[17.3132,61.682],[17.2998,61.6899],[17.3032,61.7051],[17.2666,61.7216],[17.138,61.7255],[17.2686,61.6908],[17.2598,61.6741],[17.2287,61.6631],[17.1662,61.6567],[17.1934,61.6423],[17.1189,61.6458],[17.0972,61.6361],[17.2256,61.622],[17.2479,61.6088],[17.0835,61.6157],[17.1457,61.5952],[17.0563,61.5822],[17.1865,61.561],[17.0801,61.5505],[17.1662,61.5269],[17.1245,61.5133],[17.1724,61.499],[17.177,61.4869],[17.1519,61.4648],[17.1693,61.4411],[17.2204,61.448],[17.2171,61.4339],[17.1662,61.4164],[17.1366,61.4371],[17.104,61.3994],[17.138,61.3693],[17.2002,61.3481],[17.2018,61.3371],[17.2761,61.314],[17.1519,61.3283],[17.1663,61.3084],[17.2479,61.2873],[17.2051,61.2885],[17.0972,61.3209],[17.1803,61.276],[17.2127,61.2353],[17.1519,61.2042],[17.1865,61.1911],[17.1817,61.166],[17.1587,61.1496],[17.1828,61.1232],[17.1457,61.1147],[17.1934,61.1086],[17.1999,61.0959],[17.1687,61.0593],[17.1662,61.0465],[17.1865,61.0329],[17.1587,61.0198],[17.2358,61.0223],[17.2479,61.0124],[17.1677,60.9922],[17.1582,60.9484],[17.2051,60.9339],[17.2168,60.8994],[17.2463,60.898],[17.2822,60.841],[17.2581,60.8327],[17.2593,60.8157],[17.2822,60.8131],[17.2831,60.7812],[17.3357,60.7669],[17.3115,60.7453],[17.1867,60.6924],[17.258,60.6944],[17.3646,60.6492],[17.3237,60.6287],[17.3766,60.6239],[17.3159,60.486],[17.2238,60.404],[17.2262,60.3096],[17.1203,60.2842],[16.9657,60.2956],[16.9287,60.2775],[16.9157,60.2457],[16.8097,60.2106],[16.7174,60.2159],[16.5431,60.3575],[16.3989,60.4187],[16.2025,60.58],[16.2048,60.6247],[16.2621,60.6484],[16.3428,60.7063],[16.3954,60.7499],[16.407,60.7806],[16.3862,60.8135],[16.2615,60.8898],[16.2104,60.9545],[16.1559,60.9994],[15.9182,61.0305],[15.7668,61.0818],[15.7025,61.1278],[15.696,61.1834],[15.676,61.217],[15.4507,61.3459],[15.1855,61.5442],[15.1015,61.4924],[14.7122,61.4923],[14.68,61.5235],[14.6668,61.563],[14.4816,61.5915],[14.5217,61.6314],[14.5698,61.7747],[14.6017,61.812],[14.6841,61.8687],[14.7341,61.8807],[14.8112,61.8075],[14.8384,61.7963],[14.8502,61.8134],[14.8376,61.84],[14.8632,61.8462],[14.9019,61.8305],[14.9375,61.8329],[14.9605,61.8537],[15.0061,61.8571],[15.1118,61.8383],[15.1256,61.8513],[15.1196,61.8938],[15.1383,61.9087],[15.1453,61.9425],[15.1252,62.0003],[15.4167,62.1169],[15.4456,62.1399],[15.4549,62.1601],[15.4444,62.1831],[15.3801,62.2405],[15.3587,62.282],[15.5303,62.3491],[15.5815,62.3581],[16.2095,62.2606],[16.4876,62.2509],[17.0111,62.1804],[17.2096,62.1781],[17.4985,62.1476]]]}},{"type":"Feature","id":"Gotland","properties":{"id":"Gotland","iso_code":"SE-I","name":"Gotland","name_full":"Gotland","name_ja":"ゴットランド県","center_lonlat":[18.507,57.4832]},"geometry":{"type":"MultiPolygon","coordinates":[[[[19.0402,57.8679],[19.0852,57.8258],[19.015,57.822],[18.9866,57.8074],[18.9816,57.7705],[18.9487,57.7827],[18.9321,57.7523],[18.9413,57.7296],[18.8652,57.7233],[18.8071,57.7344],[18.8103,57.7097],[18.7647,57.6269],[18.7625,57.6172],[18.8103,57.6073],[18.7614,57.5076],[18.7761,57.4975],[18.7732,57.4722],[18.8035,57.4694],[18.7898,57.449],[18.9089,57.4392],[18.9261,57.4182],[18.9263,57.3926],[18.8582,57.3944],[18.8015,57.3762],[18.6804,57.3105],[18.6668,57.2968],[18.6737,57.2777],[18.7109,57.2743],[18.7141,57.2429],[18.5915,57.2187],[18.5645,57.2094],[18.5781,57.1957],[18.4064,57.143],[18.3858,57.1274],[18.4546,57.1274],[18.3599,57.0961],[18.3447,57.0827],[18.3379,57.0312],[18.4001,57.004],[18.3447,57.004],[18.3584,56.9897],[18.3215,56.9691],[18.3115,56.9481],[18.2039,56.9152],[18.1387,56.922],[18.2039,56.9863],[18.2009,57.0176],[18.2656,57.0415],[18.2902,57.0927],[18.2233,57.0603],[18.2009,57.0654],[18.2251,57.0949],[18.2273,57.1075],[18.2144,57.1138],[18.228,57.1337],[18.1853,57.1448],[18.1598,57.2298],[18.0994,57.259],[18.1156,57.297],[18.1659,57.3316],[18.166,57.3671],[18.1792,57.3795],[18.1462,57.408],[18.1135,57.488],[18.1282,57.5482],[18.325,57.6726],[18.4631,57.8032],[18.5501,57.8394],[18.6087,57.8363],[18.6408,57.8862],[18.6777,57.9139],[18.7424,57.9179],[18.7693,57.8878],[18.7647,57.8652],[18.8035,57.8258],[18.8107,57.8512],[18.8441,57.8736],[18.8519,57.8913],[18.8374,57.9122],[18.8513,57.9151],[18.9133,57.9213],[18.898,57.8976],[18.9172,57.8881],[18.9958,57.9121],[19.0095,57.9083],[19.0021,57.9021],[19.014,57.8813],[19.0402,57.8679]]],[[[19.273,57.9765],[19.3386,57.9636],[19.2961,57.9437],[19.2479,57.9525],[19.162,57.926],[19.1399,57.9083],[19.1607,57.8961],[19.1603,57.8803],[19.1296,57.8469],[19.0845,57.8594],[19.0368,57.9052],[19.0983,57.9765],[19.2224,57.9902],[19.2267,57.9737],[19.273,57.9765]]],[[[19.3317,58.3676],[19.2503,58.3428],[19.2141,58.3547],[19.1878,58.395],[19.3317,58.3676]]]]}},{"type":"Feature","id":"Halland","properties":{"id":"Halland","iso_code":"SE-N","name":"Halland","name_full":"Halland","name_ja":"ハッランド県","center_lonlat":[12.8268,56.9753]},"geometry":{"type":"Polygon","coordinates":[[[12.9109,56.4744],[12.9334,56.5065],[12.9344,56.5471],[12.8718,56.6495],[12.7318,56.647],[12.6799,56.6796],[12.6643,56.7143],[12.6157,56.7501],[12.5947,56.788],[12.5983,56.821],[12.5339,56.8463],[12.4696,56.892],[12.3565,56.9238],[12.3421,56.963],[12.3543,56.9857],[12.341,57.0141],[12.2713,57.0429],[12.2474,57.0607],[12.2453,57.079],[12.2186,57.0927],[12.2376,57.1081],[12.2044,57.1479],[12.1974,57.1849],[12.1491,57.1883],[12.1913,57.2126],[12.1013,57.2367],[12.1565,57.2429],[12.0951,57.2504],[12.1472,57.2855],[12.1441,57.3101],[12.105,57.3445],[12.0671,57.3398],[12.0498,57.3511],[12.1087,57.3944],[12.0603,57.3944],[12.0921,57.4114],[12.0593,57.4588],[12.0436,57.4618],[12.0066,57.4341],[11.979,57.3466],[11.9722,57.3641],[11.9336,57.3608],[11.9448,57.3876],[11.9033,57.3944],[11.9152,57.4034],[11.9071,57.4653],[11.9448,57.4899],[11.9102,57.5036],[11.9312,57.5111],[11.9033,57.5241],[11.9177,57.5395],[11.9128,57.5829],[12.0693,57.5726],[12.3019,57.6164],[12.3319,57.5838],[12.3368,57.4908],[12.4155,57.4359],[12.3949,57.3702],[12.4466,57.2951],[12.5148,57.2981],[12.5946,57.3506],[12.6742,57.3467],[12.7703,57.2962],[12.8199,57.3022],[12.8642,57.284],[12.9515,57.276],[12.9307,57.2327],[12.9375,57.2086],[13.1166,57.157],[13.0954,57.1385],[13.0899,57.11],[13.1425,57.0391],[13.1725,57.0457],[13.2444,57.1009],[13.4125,57.1202],[13.5759,57.0771],[13.6015,57.0526],[13.607,57.0214],[13.6937,56.9834],[13.693,56.9532],[13.6411,56.9128],[13.4999,56.8811],[13.3521,56.8676],[13.3213,56.8321],[13.3082,56.7019],[13.4383,56.5789],[13.456,56.5282],[13.4563,56.4738],[13.5014,56.4238],[13.3911,56.4191],[13.2957,56.3832],[13.2306,56.3428],[13.1926,56.3387],[13.1551,56.3568],[12.9852,56.3772],[12.9756,56.3874],[12.9852,56.4345],[12.9109,56.4744]]]}},{"type":"Feature","id":"Jamtland","properties":{"id":"Jamtland","iso_code":"SE-Z","name":"Jamtland","name_full":"Jämtland","name_ja":"イェムトランド県","center_lonlat":[14.3312,63.2641]},"geometry":{"type":"Polygon","coordinates":[[[14.3329,65.115],[14.7085,65.0004],[14.7816,64.9613],[14.8862,64.8792],[15.0438,64.8315],[15.1005,64.7591],[15.17,64.7549],[15.2693,64.7225],[15.3689,64.6701],[15.2915,64.6446],[15.5579,64.527],[15.6055,64.4678],[15.6394,64.4726],[15.6731,64.5272],[15.7132,64.5305],[15.7446,64.5071],[15.7649,64.4454],[15.7876,64.4267],[15.9854,64.3536],[16.0234,64.3301],[16.0691,64.2702],[16.1938,64.274],[16.263,64.2556],[16.745,64.0175],[16.6303,63.852],[16.592,63.7369],[16.4874,63.7073],[16.2621,63.6921],[16.1043,63.6956],[15.9378,63.6638],[15.9123,63.6397],[15.9898,63.5612],[16.0205,63.4619],[16.1373,63.4202],[16.1813,63.3778],[16.9691,62.9934],[16.9649,62.9793],[16.6584,62.9225],[16.3921,62.7451],[16.3549,62.7314],[15.8861,62.7105],[15.6091,62.6534],[15.1725,62.6032],[14.9941,62.6108],[14.8615,62.6017],[14.8248,62.5847],[14.8328,62.5452],[14.871,62.4823],[14.8378,62.4545],[14.8514,62.4252],[15.0007,62.3277],[15.066,62.2977],[15.1937,62.2741],[15.2699,62.2877],[15.3587,62.282],[15.3801,62.2405],[15.4444,62.1831],[15.4549,62.1601],[15.4456,62.1399],[15.4167,62.1169],[15.1252,62.0003],[15.1453,61.9425],[15.1383,61.9087],[15.1196,61.8938],[15.1256,61.8513],[15.1118,61.8383],[15.0061,61.8571],[14.9605,61.8537],[14.9375,61.8329],[14.9019,61.8305],[14.8632,61.8462],[14.8376,61.84],[14.8502,61.8134],[14.8384,61.7963],[14.8112,61.8075],[14.7341,61.8807],[14.6841,61.8687],[14.6017,61.812],[14.5698,61.7747],[14.5217,61.6314],[14.4816,61.5915],[14.3824,61.582],[14.2964,61.5999],[13.6065,61.6585],[13.5457,61.6856],[13.4946,61.7528],[13.327,61.9058],[13.359,61.9801],[13.3821,62.0044],[13.2854,62.0474],[13.1867,62.0433],[13.0486,62.0812],[12.9754,62.1306],[12.7971,62.2071],[12.3151,62.2718],[12.2864,62.3354],[12.0912,62.5863],[12.0901,62.6063],[12.1541,62.7105],[12.1562,62.7337],[12.0933,62.9074],[12.2227,63.0015],[11.9924,63.2889],[12.2198,63.4743],[12.2195,63.4966],[12.1703,63.5981],[12.2932,63.657],[12.6819,63.9564],[12.7553,63.9914],[12.9824,64.0588],[13.2341,64.0909],[13.9394,64.0095],[13.9823,64.0195],[14.1605,64.1872],[14.1156,64.4412],[14.0969,64.4653],[14.0609,64.4766],[13.9401,64.4913],[13.6428,64.584],[14.1724,64.9914],[14.3107,65.0841],[14.3329,65.115]]]}},{"type":"Feature","id":"Jonkoping","properties":{"id":"Jonkoping","iso_code":"SE-F","name":"Jonkoping","name_full":"Jönköping","name_ja":"ヨンショーピング県","center_lonlat":[14.4455,57.5144]},"geometry":{"type":"Polygon","coordinates":[[[13.1166,57.157],[13.2322,57.2575],[13.275,57.2709],[13.3151,57.317],[13.4131,57.3551],[13.529,57.4236],[13.5959,57.4972],[13.6827,57.5651],[13.6949,57.6312],[13.73,57.6768],[13.7244,57.7202],[13.7666,57.7808],[13.7506,57.8531],[13.9317,57.8555],[14.0185,57.8287],[14.0495,57.8675],[14.212,57.9159],[14.2503,57.953],[14.2371,58.0015],[14.4286,58.2244],[14.486,58.1539],[14.5978,58.1119],[14.8751,58.0972],[14.9119,58.1114],[14.9296,58.1434],[14.9998,58.1539],[15.0305,58.1214],[15.0598,58.0558],[15.1023,58.0148],[15.0455,57.9928],[15.0252,57.9559],[15.0247,57.9141],[15.0808,57.8567],[15.1059,57.7982],[15.1535,57.7403],[15.1971,57.7234],[15.4431,57.7116],[15.667,57.6091],[15.6128,57.558],[15.6628,57.5297],[15.6619,57.5095],[15.6295,57.4614],[15.604,57.4473],[15.5515,57.4685],[15.5275,57.4401],[15.5275,57.3451],[15.4954,57.3016],[15.5043,57.2762],[15.5449,57.2412],[15.5508,57.2114],[15.4158,57.2358],[15.1647,57.2419],[15.1745,57.197],[15.1045,57.1977],[14.9838,57.1501],[14.9296,57.1598],[14.8926,57.201],[14.8087,57.2278],[14.7691,57.2277],[14.5469,57.1765],[14.4318,57.1632],[14.3819,57.1424],[14.3538,57.0325],[14.3892,57.0003],[14.3931,56.9553],[14.3207,56.8885],[14.2436,56.9084],[14.1718,57.0062],[14.0653,57.0502],[13.9511,57.0388],[13.862,57.0023],[13.7621,57.0333],[13.6937,56.9834],[13.607,57.0214],[13.6015,57.0526],[13.5759,57.0771],[13.4125,57.1202],[13.2444,57.1009],[13.1725,57.0457],[13.1425,57.0391],[13.0899,57.11],[13.0954,57.1385],[13.1166,57.157]]]}},{"type":"Feature","id":"Kalmar","properties":{"id":"Kalmar","iso_code":"SE-H","name":"Kalmar","name_full":"Kalmar","name_ja":"カルマル県","center_lonlat":[16.0537,57.2521]},"geometry":{"type":"MultiPolygon","coordinates":[[[[16.6869,57.9892],[16.7064,57.9621],[16.7354,57.9719],[16.7415,57.9462],[16.7825,57.9151],[16.7273,57.9288],[16.7654,57.8988],[16.7581,57.877],[16.7234,57.8835],[16.6829,57.9189],[16.6707,57.8914],[16.6106,57.8947],[16.6038,57.9288],[16.6447,57.9213],[16.5153,57.9988],[16.4945,57.984],[16.5046,57.9702],[16.5321,57.9503],[16.5901,57.9356],[16.5696,57.9213],[16.577,57.9019],[16.5628,57.8878],[16.4808,57.9151],[16.4945,57.9021],[16.4871,57.8947],[16.4603,57.8947],[16.7068,57.7506],[16.7,57.7438],[16.6351,57.7657],[16.5418,57.839],[16.4194,57.8947],[16.439,57.8654],[16.53,57.8253],[16.5945,57.7729],[16.6652,57.737],[16.6521,57.7296],[16.6908,57.7257],[16.7149,57.7028],[16.6931,57.7028],[16.7068,57.6885],[16.577,57.7097],[16.62,57.6667],[16.6177,57.6583],[16.5833,57.6619],[16.6305,57.6291],[16.5628,57.593],[16.5559,57.6271],[16.5205,57.6271],[16.5422,57.6073],[16.5205,57.5861],[16.5422,57.5725],[16.515,57.5663],[16.6292,57.5569],[16.689,57.4717],[16.6595,57.4763],[16.6722,57.4597],[16.6333,57.4371],[16.6726,57.4155],[16.6257,57.399],[16.6317,57.3808],[16.5476,57.3825],[16.5348,57.3603],[16.5696,57.3466],[16.5474,57.3288],[16.5628,57.3193],[16.4852,57.2946],[16.4691,57.2754],[16.4945,57.2429],[16.466,57.228],[16.465,57.1773],[16.5095,57.1273],[16.5525,57.1101],[16.5696,57.0865],[16.5545,57.0808],[16.5833,57.0449],[16.5348,57.0517],[16.5277,57.0654],[16.5003,57.0397],[16.4398,57.0517],[16.4734,57.0312],[16.4398,57.0141],[16.4349,56.9979],[16.4681,56.9493],[16.4364,56.9111],[16.4398,56.8668],[16.408,56.7991],[16.4286,56.7829],[16.4634,56.7978],[16.4717,56.7774],[16.4548,56.7683],[16.4126,56.7774],[16.3566,56.7585],[16.3778,56.7259],[16.3716,56.6613],[16.3416,56.6513],[16.3011,56.6633],[16.2463,56.6424],[16.221,56.6087],[16.2132,56.5484],[16.1787,56.5371],[16.1177,56.4553],[16.0662,56.3359],[15.98,56.3262],[15.8596,56.3506],[15.8002,56.3749],[15.5786,56.5091],[15.5495,56.5091],[15.5125,56.4876],[15.3969,56.5006],[15.363,56.4821],[15.355,56.5001],[15.3686,56.5319],[15.4091,56.5695],[15.419,56.6777],[15.3941,56.7677],[15.4596,56.7967],[15.5219,56.799],[15.5562,56.8149],[15.553,56.8519],[15.5291,56.8925],[15.5346,56.9112],[15.5748,56.9241],[15.665,56.9016],[15.7826,56.9081],[15.8113,56.9128],[15.8461,56.9426],[15.8056,57.0205],[15.6881,57.107],[15.6726,57.1302],[15.5914,57.1567],[15.5835,57.1926],[15.5508,57.2114],[15.5449,57.2412],[15.5043,57.2762],[15.4954,57.3016],[15.5275,57.3451],[15.5275,57.4401],[15.5515,57.4685],[15.604,57.4473],[15.6295,57.4614],[15.6619,57.5095],[15.6628,57.5297],[15.6128,57.558],[15.667,57.6091],[15.4431,57.7116],[15.4603,57.7507],[15.552,57.7778],[15.634,57.846],[15.67,57.8572],[15.7668,57.8584],[15.9308,57.8192],[16.0018,57.8342],[16.0532,57.8758],[16.0433,57.9339],[16.0762,57.9758],[16.0264,58.0265],[16.0338,58.0573],[16.0228,58.0783],[16.1604,58.0708],[16.1971,58.1021],[16.2771,58.1218],[16.4399,58.1254],[16.5015,58.0986],[16.5796,58.0951],[16.6325,58.0018],[16.6869,57.9892]]],[[[17.1245,57.3193],[17.0755,57.3051],[17.042,57.2709],[17.0663,57.2267],[17.0495,57.1883],[17.0282,57.1815],[17.0153,57.1479],[16.9735,57.1042],[16.9606,57.0632],[16.8986,57.0381],[16.9339,57.0176],[16.8713,56.9692],[16.8831,56.9162],[16.8582,56.8968],[16.8303,56.8258],[16.7687,56.7968],[16.6828,56.5935],[16.637,56.5597],[16.6384,56.5242],[16.5759,56.4057],[16.5664,56.3461],[16.5412,56.3061],[16.4909,56.2396],[16.4285,56.218],[16.4126,56.2293],[16.4126,56.2709],[16.3989,56.2982],[16.4141,56.4028],[16.3914,56.4587],[16.3989,56.5447],[16.4194,56.5856],[16.6209,56.8723],[16.7313,56.904],[16.7936,57.0039],[16.8884,57.1182],[16.9099,57.2022],[16.9592,57.2307],[16.9665,57.3046],[17.0549,57.3582],[17.0819,57.3414],[17.104,57.3528],[17.1245,57.3193]]]]}},{"type":"Feature","id":"Kronoberg","properties":{"id":"Kronoberg","iso_code":"SE-G","name":"Kronoberg","name_full":"Kronoberg","name_ja":"クロノベリ県","center_lonlat":[14.5892,56.8054]},"geometry":{"type":"Polygon","coordinates":[[[13.5014,56.4238],[13.4563,56.4738],[13.456,56.5282],[13.4383,56.5789],[13.3082,56.7019],[13.3213,56.8321],[13.3521,56.8676],[13.4999,56.8811],[13.6411,56.9128],[13.693,56.9532],[13.6937,56.9834],[13.7621,57.0333],[13.862,57.0023],[13.9511,57.0388],[14.0653,57.0502],[14.1718,57.0062],[14.2436,56.9084],[14.3207,56.8885],[14.3931,56.9553],[14.3892,57.0003],[14.3538,57.0325],[14.3819,57.1424],[14.4318,57.1632],[14.5469,57.1765],[14.7691,57.2277],[14.8087,57.2278],[14.8926,57.201],[14.9296,57.1598],[14.9838,57.1501],[15.1045,57.1977],[15.1745,57.197],[15.1647,57.2419],[15.4158,57.2358],[15.5508,57.2114],[15.5835,57.1926],[15.5914,57.1567],[15.6726,57.1302],[15.6881,57.107],[15.8056,57.0205],[15.8461,56.9426],[15.8113,56.9128],[15.7826,56.9081],[15.665,56.9016],[15.5748,56.9241],[15.5346,56.9112],[15.5291,56.8925],[15.553,56.8519],[15.5562,56.8149],[15.5219,56.799],[15.4596,56.7967],[15.3941,56.7677],[15.419,56.6777],[15.4091,56.5695],[15.3686,56.5319],[15.355,56.5001],[15.363,56.4821],[15.3312,56.4671],[15.247,56.4675],[15.2157,56.4431],[15.1214,56.4627],[15.003,56.4511],[14.948,56.3986],[14.8941,56.3783],[14.7251,56.402],[14.5963,56.4645],[14.5407,56.4775],[14.3078,56.5203],[14.1623,56.5233],[14.1089,56.5422],[14.0633,56.5255],[14.0419,56.4927],[13.9933,56.4792],[13.5767,56.4238],[13.5014,56.4238]]]}},{"type":"Feature","id":"Norrbotten","properties":{"id":"Norrbotten","iso_code":"SE-BD","name":"Norrbotten","name_full":"Norrbotten","name_ja":"ノールボッテン県","center_lonlat":[20.1033,66.9509]},"geometry":{"type":"MultiPolygon","coordinates":[[[[21.5817,65.0677],[21.2662,65.1645],[20.1149,65.3116],[19.7036,65.2499],[19.6285,65.2085],[19.5055,65.1728],[19.4032,65.1623],[19.3319,65.2003],[19.2508,65.2138],[19.2312,65.2619],[19.2031,65.277],[19.0408,65.3086],[18.9869,65.3419],[18.8204,65.3747],[18.7197,65.4379],[18.5269,65.4522],[18.4642,65.4821],[18.3032,65.5092],[18.1828,65.5811],[17.7806,65.6571],[17.4721,65.7554],[16.8814,66.0059],[16.4979,66.0756],[15.8635,66.2762],[15.4761,66.3549],[15.4263,66.4912],[15.6695,66.5994],[16.0388,66.8875],[16.1257,66.9344],[16.3997,67.036],[16.4156,67.0527],[16.4438,67.1826],[16.4379,67.2003],[16.1271,67.4228],[16.1996,67.5083],[16.4286,67.534],[16.5872,67.6259],[16.7619,67.8772],[16.808,67.9106],[17.2201,68.0401],[17.3215,68.1053],[17.8954,67.9697],[17.921,67.9729],[18.1667,68.1585],[18.1886,68.1987],[18.1357,68.3957],[18.1615,68.5302],[18.4362,68.5739],[18.6446,68.5012],[19.0381,68.5056],[19.4817,68.424],[19.9712,68.3513],[20.2459,68.4774],[19.9622,68.5412],[20.1518,68.6068],[20.2366,68.6591],[20.3388,68.7655],[20.3565,68.8046],[20.3411,68.9101],[20.1023,69.0221],[20.6232,69.0364],[20.6755,69.0182],[20.7953,69.0112],[20.9346,68.967],[20.9178,68.933],[20.8876,68.9271],[20.8845,68.9067],[20.9057,68.8946],[21.0721,68.8694],[21.2166,68.8172],[21.3054,68.7558],[21.4064,68.7489],[21.4636,68.6869],[21.5725,68.6674],[21.7168,68.6192],[21.7371,68.5879],[21.9192,68.5682],[22.0722,68.477],[22.3031,68.4761],[22.3711,68.4684],[22.378,68.4541],[22.6622,68.4274],[22.7486,68.3855],[22.8083,68.3949],[22.9037,68.3366],[23.0669,68.2903],[23.0816,68.2653],[23.1552,68.2174],[23.1494,68.1394],[23.1656,68.122],[23.3065,68.1456],[23.383,68.0512],[23.5737,67.9733],[23.6622,67.9504],[23.6612,67.9329],[23.6361,67.9135],[23.5325,67.8932],[23.4813,67.8646],[23.4846,67.7372],[23.5535,67.587],[23.4734,67.555],[23.4847,67.543],[23.4313,67.4855],[23.4437,67.461],[23.4772,67.4438],[23.5946,67.4536],[23.7652,67.4201],[23.7514,67.3462],[23.7857,67.3375],[23.7354,67.2897],[23.6027,67.2603],[23.5915,67.225],[23.6149,67.214],[23.574,67.173],[23.5813,67.1531],[23.6666,67.0979],[23.6767,67.0585],[23.7203,67.0169],[23.8167,66.9755],[23.9334,66.8888],[24.004,66.8052],[23.9392,66.7911],[23.8924,66.7509],[23.9032,66.6863],[23.8819,66.6318],[23.8932,66.596],[23.8819,66.5635],[23.7311,66.5031],[23.7311,66.4872],[23.6768,66.474],[23.6423,66.4363],[23.6659,66.4056],[23.677,66.3636],[23.666,66.3055],[23.7242,66.2066],[23.7856,66.1767],[23.8893,66.1611],[23.9746,66.0728],[24.0196,66.0489],[24.0553,65.9852],[24.0548,65.9479],[24.1634,65.8408],[24.1631,65.8227],[24.1403,65.8045],[24.0327,65.8097],[24.0532,65.796],[23.957,65.7891],[23.9264,65.7604],[23.8854,65.7736],[23.8718,65.7949],[23.7817,65.793],[23.762,65.8223],[23.7394,65.8293],[23.6902,65.8301],[23.6233,65.7962],[23.6076,65.8097],[23.4841,65.8159],[23.4836,65.8344],[23.4574,65.8301],[23.422,65.8022],[23.4378,65.7923],[23.4285,65.7653],[23.385,65.7752],[23.3743,65.8227],[23.2897,65.7958],[23.196,65.827],[23.1838,65.8196],[23.1908,65.7899],[23.2376,65.7687],[23.1482,65.7456],[23.1284,65.734],[23.1296,65.715],[23.103,65.7047],[23.0788,65.7072],[23.0868,65.7277],[23.0459,65.7612],[22.944,65.7753],[22.9011,65.7987],[22.8602,65.796],[22.7852,65.8643],[22.653,65.9084],[22.6343,65.9052],[22.6821,65.8711],[22.6997,65.8039],[22.6887,65.7756],[22.6637,65.7575],[22.6481,65.7551],[22.653,65.7781],[22.6279,65.7904],[22.5698,65.796],[22.5115,65.7749],[22.5116,65.7947],[22.532,65.8097],[22.5184,65.8227],[22.4699,65.8432],[22.4773,65.8569],[22.4055,65.8639],[22.3701,65.8617],[22.3674,65.8432],[22.3259,65.837],[22.3674,65.8097],[22.3645,65.7978],[22.3191,65.8022],[22.3606,65.7612],[22.326,65.7355],[22.2092,65.7612],[22.2498,65.7357],[22.3618,65.7163],[22.388,65.6725],[22.3396,65.665],[22.3294,65.6893],[22.2815,65.7015],[22.2576,65.693],[22.2681,65.6812],[22.2576,65.665],[22.2849,65.6315],[22.1892,65.6241],[22.3006,65.6115],[22.3191,65.6315],[22.2849,65.665],[22.3086,65.6694],[22.3333,65.6514],[22.3259,65.6452],[22.3804,65.634],[22.3333,65.6042],[22.4114,65.579],[22.429,65.549],[22.4053,65.5419],[22.2749,65.5879],[22.2507,65.5832],[22.2566,65.569],[22.2283,65.5721],[22.0513,65.6173],[22.0062,65.6418],[21.8678,65.6725],[21.7642,65.7277],[21.7878,65.6867],[21.8479,65.661],[21.9702,65.6315],[22.203,65.549],[22.0931,65.5353],[22.0659,65.5143],[22.0476,65.525],[22.0112,65.5175],[21.8535,65.5353],[21.9279,65.4894],[21.9504,65.4949],[21.9217,65.508],[21.9471,65.5094],[22.0316,65.467],[21.9976,65.4261],[21.9422,65.4534],[21.9323,65.4414],[21.9422,65.4118],[21.9277,65.4041],[21.8885,65.4077],[21.8809,65.4186],[21.7902,65.4001],[21.7059,65.4145],[21.6883,65.4123],[21.7026,65.3981],[21.6561,65.3972],[21.5867,65.4182],[21.5444,65.4056],[21.5996,65.3919],[21.4891,65.3934],[21.47,65.3776],[21.4898,65.3708],[21.4489,65.3572],[21.543,65.3186],[21.5657,65.3159],[21.584,65.3209],[21.5859,65.3367],[21.6047,65.3337],[21.7017,65.2859],[21.6992,65.2716],[21.6681,65.2528],[21.6228,65.2408],[21.5444,65.2473],[21.4896,65.3055],[21.4089,65.3332],[21.3456,65.3728],[21.3123,65.3708],[21.3328,65.364],[21.2644,65.3367],[21.3914,65.3218],[21.5376,65.2309],[21.6099,65.1689],[21.6188,65.148],[21.5444,65.1374],[21.5628,65.1225],[21.5438,65.0831],[21.5817,65.0677]]],[[[22.2188,65.5068],[22.1868,65.5378],[22.2264,65.5439],[22.3587,65.504],[22.3327,65.4916],[22.2788,65.5133],[22.2705,65.4969],[22.2801,65.4782],[22.2188,65.5068]]],[[[23.7972,65.7537],[23.8027,65.7437],[23.7847,65.7182],[23.7383,65.6967],[23.6815,65.7217],[23.6896,65.7484],[23.7048,65.736],[23.7136,65.7519],[23.7537,65.7413],[23.7972,65.7537]]],[[[22.9627,65.7163],[22.9851,65.7003],[22.9609,65.6901],[22.9719,65.6671],[22.8822,65.7204],[22.8862,65.7374],[22.93,65.7419],[22.9562,65.7332],[22.9597,65.7253],[22.9448,65.7246],[22.9627,65.7163]]],[[[22.7411,65.7136],[22.7262,65.73],[22.7355,65.7663],[22.7468,65.7704],[22.7908,65.7503],[22.8114,65.7141],[22.8054,65.7052],[22.7411,65.7136]]],[[[22.1536,65.4304],[22.1426,65.4458],[22.1473,65.4687],[22.174,65.4743],[22.2102,65.4658],[22.2066,65.4502],[22.2332,65.4239],[22.1536,65.4304]]],[[[22.4081,65.4553],[22.4178,65.4499],[22.4104,65.4413],[22.3757,65.4307],[22.2852,65.4316],[22.3064,65.4554],[22.3325,65.443],[22.3709,65.4595],[22.4081,65.4553]]],[[[22.578,65.5828],[22.6414,65.5891],[22.5974,65.5539],[22.5393,65.5637],[22.5291,65.5762],[22.578,65.5828]]],[[[22.5949,65.5283],[22.6143,65.5119],[22.5676,65.5169],[22.553,65.5301],[22.5589,65.5383],[22.5949,65.5283]]],[[[22.5702,65.5948],[22.5545,65.6054],[22.5951,65.613],[22.6045,65.6003],[22.5702,65.5948]]]]}},{"type":"Feature","id":"Orebro","properties":{"id":"Orebro","iso_code":"SE-T","name":"Orebro","name_full":"Örebro","name_ja":"エレブルー県","center_lonlat":[14.9941,59.3714]},"geometry":{"type":"Polygon","coordinates":[[[14.4511,60.0366],[14.7715,60.0225],[14.7518,60.06],[14.7692,60.0985],[14.8486,60.1201],[14.8624,60.0979],[14.9274,60.0755],[15.2581,60.008],[15.4547,59.8832],[15.4813,59.8566],[15.4749,59.8247],[15.5394,59.8066],[15.5745,59.7608],[15.579,59.741],[15.5548,59.6755],[15.5583,59.6378],[15.6408,59.6275],[15.6563,59.6148],[15.679,59.5476],[15.7396,59.5398],[15.7174,59.4916],[15.7455,59.4696],[15.7522,59.4406],[15.6383,59.4034],[15.6296,59.3795],[15.6568,59.3466],[15.6273,59.2976],[15.6991,59.27],[15.7341,59.2395],[15.804,59.2361],[15.7786,59.2062],[15.7713,59.1966],[15.8068,59.1384],[15.8042,59.1222],[15.7125,59.0947],[15.6399,59.0365],[15.7236,58.9845],[15.6031,58.9573],[15.5931,58.9074],[15.5394,58.874],[15.4006,58.8415],[15.2793,58.8454],[15.1709,58.8079],[15.0113,58.6993],[14.8946,58.6813],[14.8115,58.6455],[14.7467,58.672],[14.6953,58.7341],[14.6752,58.7419],[14.6444,58.7415],[14.589,58.7091],[14.4964,58.7346],[14.4802,58.7797],[14.3999,58.8598],[14.3983,58.8944],[14.3126,59.0163],[14.3322,59.0964],[14.3109,59.1615],[14.3099,59.2073],[14.3299,59.3005],[14.4172,59.4365],[14.4733,59.4825],[14.4298,59.5285],[14.4365,59.557],[14.4554,59.5681],[14.4756,59.5625],[14.4821,59.5836],[14.4355,59.7268],[14.4281,59.9066],[14.4182,59.9257],[14.3524,59.9594],[14.4559,60.0018],[14.4511,60.0366]]]}},{"type":"Feature","id":"Ostergotland","properties":{"id":"Ostergotland","iso_code":"SE-E","name":"Ostergotland","name_full":"Östergötland","name_ja":"エステルイェータランド県","center_lonlat":[15.6682,58.369]},"geometry":{"type":"MultiPolygon","coordinates":[[[[16.7814,58.6345],[16.2337,58.6693],[16.2571,58.6518],[16.2549,58.6345],[16.1792,58.6345],[16.2854,58.6159],[16.334,58.6391],[16.3716,58.6206],[16.3716,58.6037],[16.3877,58.5916],[16.4092,58.5966],[16.4398,58.6481],[16.5178,58.6246],[16.6359,58.6268],[16.7483,58.5929],[16.7415,58.614],[16.7893,58.6072],[16.786,58.5727],[16.8303,58.5594],[16.8167,58.5464],[16.844,58.5464],[16.8342,58.5295],[16.9402,58.4911],[16.844,58.4775],[16.8529,58.4631],[16.7483,58.429],[16.5979,58.4486],[16.4414,58.486],[16.4126,58.4775],[16.7056,58.4077],[16.7149,58.3602],[16.7666,58.3686],[16.7751,58.3397],[16.6317,58.3539],[16.7,58.3192],[16.6985,58.3017],[16.7271,58.3036],[16.7205,58.3192],[16.7992,58.3236],[16.7893,58.3056],[16.7614,58.3056],[16.7546,58.2851],[16.7068,58.2783],[16.803,58.2447],[16.7893,58.2373],[16.8213,58.2071],[16.8223,58.1796],[16.7883,58.1793],[16.8098,58.1621],[16.7772,58.1305],[16.6174,58.2031],[16.6719,58.1653],[16.6863,58.1479],[16.6595,58.1479],[16.7361,58.0848],[16.7149,58.0796],[16.7123,58.0595],[16.6863,58.0585],[16.7402,58.0398],[16.7546,58.025],[16.7464,58.0166],[16.7205,58.025],[16.6916,58.0148],[16.7,57.9977],[16.679,58.0051],[16.658,58.0353],[16.6312,58.0279],[16.6595,57.9902],[16.6869,57.9892],[16.6325,58.0018],[16.5796,58.0951],[16.5015,58.0986],[16.4399,58.1254],[16.2771,58.1218],[16.1971,58.1021],[16.1604,58.0708],[16.0228,58.0783],[16.0338,58.0573],[16.0264,58.0265],[16.0762,57.9758],[16.0433,57.9339],[16.0532,57.8758],[16.0018,57.8342],[15.9308,57.8192],[15.7668,57.8584],[15.67,57.8572],[15.634,57.846],[15.552,57.7778],[15.4603,57.7507],[15.4431,57.7116],[15.1971,57.7234],[15.1535,57.7403],[15.1059,57.7982],[15.0808,57.8567],[15.0247,57.9141],[15.0252,57.9559],[15.0455,57.9928],[15.1023,58.0148],[15.0598,58.0558],[15.0305,58.1214],[14.9998,58.1539],[14.9296,58.1434],[14.9119,58.1114],[14.8751,58.0972],[14.5978,58.1119],[14.486,58.1539],[14.4286,58.2244],[14.8115,58.6455],[14.8946,58.6813],[15.0113,58.6993],[15.1709,58.8079],[15.2793,58.8454],[15.4006,58.8415],[15.5394,58.874],[15.5931,58.9074],[15.6031,58.9573],[15.7236,58.9845],[15.7884,58.9708],[15.8281,59.0039],[15.8808,59.0076],[16.2981,58.8239],[16.441,58.6955],[16.6882,58.68],[16.7814,58.6345]]],[[[16.8916,58.3337],[16.919,58.3364],[16.8818,58.3171],[16.8274,58.3275],[16.7852,58.3801],[16.8597,58.4003],[16.8512,58.3834],[16.8288,58.3815],[16.8472,58.3721],[16.8306,58.3559],[16.8916,58.3337]]],[[[16.8667,58.3046],[16.8791,58.2806],[16.8474,58.2755],[16.8325,58.3042],[16.8667,58.3046]]]]}},{"type":"Feature","id":"Skane","properties":{"id":"Skane","iso_code":"SE-M","name":"Skane","name_full":"Skåne","name_ja":"スコーネ県","center_lonlat":[13.6062,55.9627]},"geometry":{"type":"Polygon","coordinates":[[[14.5534,56.054],[14.4789,56.0317],[14.4077,55.977],[14.3464,55.9533],[14.3233,55.9157],[14.271,55.8945],[14.2347,55.8627],[14.2085,55.8213],[14.1958,55.7257],[14.2737,55.6676],[14.2845,55.623],[14.3675,55.5454],[14.3488,55.5106],[14.2649,55.4612],[14.1812,55.3908],[14.0642,55.3908],[13.8972,55.4349],[13.8423,55.4212],[13.6296,55.4183],[13.5808,55.3888],[13.5034,55.3884],[13.3814,55.346],[13.2805,55.3454],[12.9792,55.4033],[12.9326,55.388],[12.8328,55.3826],[12.8288,55.4001],[12.8594,55.4349],[12.9297,55.4188],[12.9658,55.4349],[12.9632,55.4543],[12.9857,55.4479],[12.9175,55.5472],[12.9294,55.5789],[13.0495,55.6471],[13.0614,55.6745],[13.0549,55.694],[13.0115,55.7284],[12.9744,55.7265],[12.9658,55.7462],[12.9226,55.7495],[12.9113,55.7639],[12.9319,55.7695],[12.9387,55.7905],[12.926,55.8341],[12.8213,55.8867],[12.8049,55.9293],[12.7708,55.9484],[12.7523,55.9966],[12.7195,56.0122],[12.698,56.0515],[12.6022,56.1232],[12.5537,56.1815],[12.5046,56.2753],[12.4514,56.3044],[12.6463,56.2573],[12.7048,56.2225],[12.7969,56.2281],[12.8274,56.2499],[12.8294,56.2786],[12.7835,56.2934],[12.7318,56.3597],[12.6438,56.3961],[12.6216,56.4193],[12.6569,56.4553],[12.7137,56.4674],[12.8333,56.4426],[12.8901,56.4553],[12.9109,56.4744],[12.9852,56.4345],[12.9756,56.3874],[12.9852,56.3772],[13.1551,56.3568],[13.1926,56.3387],[13.2306,56.3428],[13.2957,56.3832],[13.3911,56.4191],[13.5014,56.4238],[13.5767,56.4238],[13.9933,56.4792],[14.0419,56.4927],[14.0633,56.5255],[14.1089,56.5422],[14.1623,56.5233],[14.3078,56.5203],[14.5407,56.4775],[14.4573,56.4076],[14.4106,56.3378],[14.4607,56.2555],[14.5491,56.2359],[14.5765,56.2004],[14.587,56.1547],[14.556,56.0962],[14.5534,56.054]]]}},{"type":"Feature","id":"Sodermanland","properties":{"id":"Sodermanland","iso_code":"SE-D","name":"Sodermanland","name_full":"Södermanland","name_ja":"セーデルマンランド県","center_lonlat":[16.7006,59.0936]},"geometry":{"type":"Polygon","coordinates":[[[17.5863,58.9649],[17.5769,58.9567],[17.6111,58.943],[17.6012,58.9278],[17.6267,58.9178],[17.6179,58.902],[17.536,58.902],[17.5907,58.8673],[17.5695,58.861],[17.5838,58.8536],[17.4473,58.8952],[17.4691,58.8704],[17.45,58.8159],[17.4883,58.7996],[17.4597,58.7914],[17.3374,58.8065],[17.3768,58.7644],[17.3578,58.7512],[17.2761,58.7488],[17.2761,58.7307],[17.1624,58.732],[17.0754,58.7627],[17.0282,58.7512],[17.0835,58.7375],[17.0625,58.7102],[17.1457,58.7028],[17.093,58.6608],[16.9749,58.6854],[16.9539,58.6693],[17.0016,58.6679],[17.0358,58.6413],[16.9242,58.6254],[16.7814,58.6345],[16.6882,58.68],[16.441,58.6955],[16.2981,58.8239],[15.8808,59.0076],[15.8281,59.0039],[15.7884,58.9708],[15.7236,58.9845],[15.6399,59.0365],[15.7125,59.0947],[15.8042,59.1222],[15.8068,59.1384],[15.7713,59.1966],[15.7786,59.2062],[15.8999,59.2423],[15.9144,59.2875],[16.0046,59.3586],[16.0695,59.3688],[16.1757,59.3581],[16.2986,59.3828],[16.3176,59.3983],[16.275,59.4245],[16.2698,59.4421],[16.2871,59.4537],[16.8935,59.5092],[16.9664,59.5321],[17.2006,59.5178],[17.2448,59.5003],[17.2984,59.4583],[17.3947,59.4275],[17.4445,59.3853],[17.4557,59.3761],[17.4491,59.3564],[17.3647,59.3447],[17.3419,59.3249],[17.333,59.2543],[17.2822,59.22],[17.2888,59.1865],[17.3351,59.1212],[17.3528,59.0424],[17.386,58.9983],[17.5248,58.9904],[17.5863,58.9649]]]}},{"type":"Feature","id":"Stockholm","properties":{"id":"Stockholm","iso_code":"SE-AB","name":"Stockholm","name_full":"Stockholm","name_ja":"ストックホルム県","center_lonlat":[18.1095,59.4938]},"geometry":{"type":"MultiPolygon","coordinates":[[[[18.5545,60.1214],[18.5843,60.0739],[18.5908,60.1083],[18.5781,60.1422],[18.6514,60.1483],[18.7207,60.126],[18.7352,60.1148],[18.7451,60.0497],[18.7966,60.005],[18.7531,60.0822],[18.7659,60.1111],[18.8169,60.1176],[18.8245,60.0683],[18.9031,59.9472],[19.0055,59.9118],[19.0321,59.8815],[19.0436,59.8821],[19.0368,59.9025],[19.0716,59.8963],[19.0679,59.8337],[19.0347,59.835],[18.9168,59.9213],[18.886,59.9299],[18.9307,59.8855],[18.9241,59.8523],[18.8616,59.803],[18.7546,59.7912],[18.7339,59.7688],[19.042,59.785],[19.0852,59.7722],[19.0745,59.7497],[19.036,59.7285],[18.9568,59.7192],[18.9133,59.7518],[18.8799,59.7216],[18.7813,59.7016],[18.7578,59.6911],[18.7556,59.6767],[18.7141,59.6732],[18.6936,59.6494],[18.742,59.6494],[18.7356,59.6415],[18.7005,59.6214],[18.66,59.6357],[18.6865,59.6058],[18.64,59.5836],[18.4841,59.5344],[18.3796,59.4764],[18.2691,59.4774],[18.3032,59.457],[18.2485,59.4501],[18.2827,59.4364],[18.2769,59.4226],[18.2931,59.414],[18.3379,59.4085],[18.3073,59.3968],[18.1885,59.4074],[18.1592,59.4222],[18.207,59.4222],[18.1995,59.4509],[18.1814,59.4582],[18.1455,59.4438],[18.1133,59.4547],[18.0845,59.439],[18.0984,59.4085],[18.0654,59.3972],[18.009,59.4085],[18.1462,59.3402],[18.0951,59.3384],[18.0951,59.3268],[18.1966,59.3342],[18.2206,59.3198],[18.2547,59.3628],[18.3181,59.3759],[18.3897,59.3695],[18.4478,59.3539],[18.4268,59.3402],[18.4701,59.3371],[18.4819,59.3477],[18.4478,59.3955],[18.4956,59.3955],[18.4375,59.4193],[18.4268,59.4364],[18.4846,59.4342],[18.5366,59.416],[18.544,59.3955],[18.6123,59.3749],[18.6008,59.3625],[18.544,59.3681],[18.6326,59.3469],[18.6465,59.3303],[18.6198,59.3083],[18.5193,59.2983],[18.4612,59.3124],[18.3644,59.3066],[18.3379,59.3129],[18.3447,59.3341],[18.2913,59.3227],[18.2759,59.3129],[18.3169,59.2788],[18.2831,59.279],[18.273,59.2742],[18.2793,59.2617],[18.4123,59.215],[18.4268,59.1968],[18.3357,59.2359],[18.3137,59.2341],[18.3135,59.2221],[18.3652,59.2099],[18.3871,59.1831],[18.4063,59.1894],[18.3926,59.1689],[18.4297,59.1746],[18.4242,59.1439],[18.3438,59.1418],[18.2902,59.1206],[18.3242,59.1081],[18.2009,59.0808],[18.2554,59.1013],[18.2417,59.1081],[18.2554,59.1206],[18.2236,59.1195],[18.1852,59.0993],[18.1387,59.0938],[18.0962,59.0583],[18.0432,59.0597],[18.0505,59.0386],[18.0137,59.0449],[18.0027,59.0386],[18.0186,59.0229],[17.9612,58.9634],[17.9706,58.936],[17.9612,58.9225],[17.9307,58.9101],[17.8997,58.9157],[17.8928,58.861],[17.8694,58.877],[17.8612,58.9191],[17.8147,58.9282],[17.7736,58.9607],[17.8035,58.9083],[17.7863,58.8842],[17.7744,58.8862],[17.783,58.9157],[17.7493,58.9238],[17.7415,58.984],[17.7557,59.0063],[17.7561,59.0852],[17.7688,59.1206],[17.7328,59.1144],[17.7105,59.0528],[17.6658,59.0808],[17.6936,59.1314],[17.6589,59.1689],[17.6731,59.1348],[17.6475,59.1081],[17.6111,59.0938],[17.6205,59.0726],[17.6145,59.0321],[17.6316,59.0181],[17.6071,58.966],[17.5863,58.9649],[17.5248,58.9904],[17.386,58.9983],[17.3528,59.0424],[17.3351,59.1212],[17.2888,59.1865],[17.2822,59.22],[17.333,59.2543],[17.3419,59.3249],[17.3647,59.3447],[17.4491,59.3564],[17.4557,59.3761],[17.4445,59.3853],[17.483,59.4368],[17.5289,59.462],[17.5353,59.507],[17.5949,59.572],[17.564,59.6086],[17.5817,59.6662],[17.6337,59.6811],[17.6729,59.7094],[17.7814,59.6919],[18.009,59.7516],[18.0899,59.7526],[18.1778,59.8288],[18.39,59.882],[18.4215,59.9223],[18.4269,59.98],[18.4939,60.0108],[18.461,60.0429],[18.5545,60.1214]]],[[[18.6566,59.5067],[18.633,59.4897],[18.5944,59.4869],[18.6018,59.4561],[18.5785,59.4639],[18.5809,59.4307],[18.5564,59.4223],[18.5105,59.4831],[18.5381,59.4956],[18.5574,59.482],[18.5776,59.4951],[18.5481,59.499],[18.5511,59.5101],[18.6097,59.5456],[18.6543,59.55],[18.689,59.5334],[18.7391,59.5404],[18.6566,59.5067]]],[[[17.7073,58.9934],[17.6971,58.9355],[17.6807,58.9218],[17.6848,58.9008],[17.6481,58.9189],[17.6243,58.9639],[17.6481,59.0175],[17.6522,59.0715],[17.6867,59.0504],[17.7073,58.9934]]],[[[18.4854,59.0976],[18.4873,59.085],[18.4359,59.0498],[18.4136,59.0117],[18.3767,59.0069],[18.3444,59.0257],[18.3616,59.0392],[18.3511,59.0568],[18.3763,59.0638],[18.3748,59.0784],[18.466,59.1173],[18.4793,59.1166],[18.4854,59.0976]]],[[[18.4304,59.2583],[18.4131,59.2788],[18.3447,59.2993],[18.4617,59.2982],[18.6123,59.2583],[18.5391,59.26],[18.5161,59.2713],[18.5173,59.249],[18.5324,59.2419],[18.5781,59.2446],[18.5516,59.2259],[18.4304,59.2583]]],[[[18.9963,59.8098],[18.9978,59.7946],[18.972,59.7866],[18.8858,59.7939],[18.9592,59.8637],[18.988,59.8505],[18.9963,59.8098]]],[[[18.1983,59.0097],[18.1902,58.9939],[18.1458,59.0044],[18.1447,58.9691],[18.099,58.9788],[18.0506,58.9609],[18.0586,58.9851],[18.1035,59.0226],[18.2166,59.0245],[18.1787,59.0114],[18.1983,59.0097]]],[[[18.3215,58.9691],[18.3571,58.977],[18.3389,58.9579],[18.2898,58.9414],[18.3164,58.9269],[18.2163,58.9056],[18.1936,58.9113],[18.2264,58.9447],[18.3215,58.9691]]],[[[18.676,59.3403],[18.638,59.368],[18.7059,59.3712],[18.7417,59.3508],[18.7471,59.3319],[18.7266,59.312],[18.6775,59.2995],[18.6858,59.3165],[18.676,59.3403]]],[[[18.1067,59.385],[18.2493,59.3667],[18.2039,59.3659],[18.2224,59.3518],[18.2121,59.3415],[18.1655,59.3406],[18.1228,59.3568],[18.1067,59.385]]],[[[18.724,60.1966],[18.7185,60.2165],[18.7531,60.2092],[18.8069,60.1606],[18.7244,60.1555],[18.7131,60.1826],[18.724,60.1966]]],[[[18.9777,59.6339],[18.9846,59.6243],[18.968,59.6194],[18.9275,59.6225],[18.9053,59.5832],[18.8635,59.584],[18.8586,59.5958],[18.9378,59.6491],[18.9525,59.653],[18.9777,59.6339]]],[[[18.8543,59.6011],[18.8239,59.5839],[18.7568,59.5727],[18.9243,59.6569],[18.8543,59.6011]]],[[[18.797,59.2949],[18.8108,59.2893],[18.7752,59.2522],[18.7227,59.2624],[18.7577,59.2946],[18.797,59.2949]]],[[[18.9258,59.434],[18.8939,59.4072],[18.8723,59.4086],[18.8606,59.4245],[18.8986,59.4457],[18.9258,59.434]]],[[[18.7158,59.2088],[18.75,59.2051],[18.6597,59.1769],[18.6909,59.2088],[18.7158,59.2088]]],[[[18.9424,59.3936],[18.9483,59.3787],[18.9377,59.3732],[18.8994,59.4007],[18.9216,59.4059],[18.9424,59.3936]]],[[[18.8543,59.4025],[18.8695,59.3935],[18.8477,59.3894],[18.8543,59.4025]]]]}},{"type":"Feature","id":"Uppsala","properties":{"id":"Uppsala","iso_code":"SE-C","name":"Uppsala","name_full":"Uppsala","name_ja":"ウプサラ県","center_lonlat":[17.6854,60.0427]},"geometry":{"type":"MultiPolygon","coordinates":[[[[17.3766,60.6239],[17.4138,60.6379],[17.575,60.6479],[17.6589,60.6083],[17.6038,60.5841],[17.6382,60.5154],[17.7415,60.4984],[17.7271,60.5347],[17.7622,60.5633],[17.8161,60.5853],[17.9487,60.5992],[17.9749,60.5878],[17.9954,60.553],[17.9675,60.5121],[18.0183,60.5023],[18.0984,60.4649],[18.112,60.437],[18.1433,60.4136],[18.2622,60.3824],[18.207,60.355],[18.2349,60.3271],[18.2964,60.355],[18.428,60.3488],[18.4478,60.3414],[18.4478,60.3135],[18.4745,60.293],[18.4268,60.2862],[18.5654,60.2593],[18.6048,60.2383],[18.5637,60.2276],[18.4006,60.2596],[18.3169,60.321],[18.3309,60.2857],[18.4478,60.2111],[18.3926,60.2322],[18.3997,60.2078],[18.4199,60.1935],[18.5061,60.1557],[18.5349,60.1589],[18.5485,60.1741],[18.5545,60.1214],[18.461,60.0429],[18.4939,60.0108],[18.4269,59.98],[18.4215,59.9223],[18.39,59.882],[18.1778,59.8288],[18.0899,59.7526],[18.009,59.7516],[17.7814,59.6919],[17.6729,59.7094],[17.6337,59.6811],[17.5817,59.6662],[17.564,59.6086],[17.5949,59.572],[17.5353,59.507],[17.5289,59.462],[17.483,59.4368],[17.4445,59.3853],[17.3947,59.4275],[17.2984,59.4583],[17.2448,59.5003],[17.2006,59.5178],[16.9664,59.5321],[16.9003,59.669],[16.7875,59.7984],[16.8524,59.8339],[16.8589,59.8844],[17.0072,59.8651],[17.0504,59.8391],[17.1947,59.8975],[17.211,59.9563],[17.1656,59.997],[17.2206,60.0483],[17.2715,60.0504],[17.3077,60.0774],[17.3941,60.2246],[17.3694,60.2509],[17.2262,60.3096],[17.2238,60.404],[17.3159,60.486],[17.3766,60.6239]]],[[[18.5501,60.3271],[18.5679,60.3213],[18.5669,60.3074],[18.4022,60.3698],[18.3892,60.391],[18.3788,60.5078],[18.4063,60.5058],[18.4268,60.4854],[18.4268,60.4649],[18.4661,60.4427],[18.4745,60.4308],[18.4199,60.4438],[18.4846,60.3664],[18.5078,60.356],[18.5298,60.3681],[18.5501,60.3271]]]]}},{"type":"Feature","id":"Varmland","properties":{"id":"Varmland","iso_code":"SE-S","name":"Varmland","name_full":"Värmland","name_ja":"ヴェルムランド県","center_lonlat":[13.1539,59.7834]},"geometry":{"type":"Polygon","coordinates":[[[12.7108,61.057],[12.756,61.0009],[13.1415,60.7866],[13.2043,60.7058],[13.2612,60.6826],[13.5056,60.4564],[13.6686,60.407],[13.8453,60.2615],[13.952,60.2038],[13.9747,60.1974],[14.0175,60.2126],[13.9761,60.2434],[13.9806,60.2589],[14.143,60.2381],[14.2574,60.1071],[14.4511,60.0366],[14.4559,60.0018],[14.3524,59.9594],[14.4182,59.9257],[14.4281,59.9066],[14.4355,59.7268],[14.4821,59.5836],[14.4756,59.5625],[14.4554,59.5681],[14.4365,59.557],[14.4298,59.5285],[14.4733,59.4825],[14.4172,59.4365],[14.3299,59.3005],[14.3099,59.2073],[14.3109,59.1615],[14.3322,59.0964],[14.3126,59.0163],[14.2267,59.0445],[13.5878,59.0513],[13.516,59.0178],[13.457,58.9678],[13.386,58.8564],[13.3844,58.8268],[13.4457,58.7596],[13.3753,58.7422],[13.2882,58.7422],[12.9281,58.8152],[12.859,58.9881],[12.7772,59.0615],[12.7563,59.1368],[12.6868,59.1756],[12.6312,59.1576],[12.585,59.1231],[12.5485,59.1488],[12.4852,59.1422],[12.4163,59.1715],[12.4196,59.1823],[12.4767,59.1911],[12.4687,59.1999],[12.3528,59.1885],[12.2563,59.2147],[12.2141,59.2521],[12.1275,59.2487],[12.1088,59.2404],[12.1074,59.21],[12.0822,59.2],[11.9638,59.2454],[11.8982,59.2337],[11.8111,59.2487],[11.784,59.3606],[11.671,59.5806],[11.6749,59.6071],[11.6937,59.6223],[11.8284,59.6597],[11.8972,59.714],[11.9021,59.7851],[11.843,59.8384],[11.8496,59.8724],[11.9422,59.902],[12.1437,59.8984],[12.2906,59.9587],[12.4468,60.0511],[12.5109,60.118],[12.5247,60.1617],[12.4917,60.3123],[12.5779,60.3759],[12.6053,60.4192],[12.6126,60.4554],[12.5944,60.5149],[12.4825,60.6573],[12.377,60.7541],[12.35,60.7933],[12.3132,60.9019],[12.2561,60.9813],[12.2533,61.0017],[12.281,61.0152],[12.5118,61.0491],[12.6825,61.0403],[12.7108,61.057]]]}},{"type":"Feature","id":"Vasterbotten","properties":{"id":"Vasterbotten","iso_code":"SE-AC","name":"Vasterbotten","name_full":"Västerbotten","name_ja":"ヴェステルボッテン県","center_lonlat":[17.8342,64.8701]},"geometry":{"type":"MultiPolygon","coordinates":[[[[14.3329,65.115],[14.3802,65.2403],[14.4821,65.2887],[14.5143,65.3181],[14.5104,65.4647],[14.5607,65.7011],[14.6489,65.8024],[14.6444,65.8429],[14.5405,66.1254],[15.0534,66.1533],[15.4819,66.2749],[15.4918,66.288],[15.4761,66.3549],[15.8635,66.2762],[16.4979,66.0756],[16.8814,66.0059],[17.4721,65.7554],[17.7806,65.6571],[18.1828,65.5811],[18.3032,65.5092],[18.4642,65.4821],[18.5269,65.4522],[18.7197,65.4379],[18.8204,65.3747],[18.9869,65.3419],[19.0408,65.3086],[19.2031,65.277],[19.2312,65.2619],[19.2508,65.2138],[19.3319,65.2003],[19.4032,65.1623],[19.5055,65.1728],[19.6285,65.2085],[19.7036,65.2499],[20.1149,65.3116],[21.2662,65.1645],[21.5817,65.0677],[21.4793,65.0623],[21.4671,65.0555],[21.5034,65.0214],[21.4631,65.0077],[21.4221,65.0146],[21.3831,64.9866],[21.3942,64.9668],[21.3778,64.96],[21.2434,64.9531],[21.2468,64.9218],[21.2024,64.8985],[21.2126,64.872],[21.1727,64.8534],[21.1813,64.8358],[21.113,64.8227],[21.0973,64.8275],[21.0852,64.8576],[21.0691,64.8607],[21.0374,64.8327],[21.0423,64.8199],[21.0852,64.8091],[21.0789,64.7949],[21.0972,64.7853],[21.2175,64.7893],[21.3058,64.7683],[21.3123,64.7539],[21.2995,64.7488],[21.2292,64.7477],[21.3123,64.6993],[21.2887,64.6868],[21.3049,64.6657],[21.1848,64.7067],[21.1439,64.733],[21.1199,64.7297],[21.1112,64.6994],[21.1404,64.6719],[21.2319,64.6611],[21.2503,64.644],[21.2317,64.6426],[21.2451,64.622],[21.3049,64.6105],[21.3533,64.5695],[21.374,64.608],[21.4556,64.5625],[21.4673,64.5873],[21.4856,64.5834],[21.5012,64.5442],[21.5519,64.5347],[21.511,64.5209],[21.4631,64.5484],[21.3866,64.5217],[21.3646,64.5417],[21.3473,64.532],[21.3992,64.5052],[21.4761,64.515],[21.4898,64.487],[21.4797,64.4608],[21.492,64.4543],[21.5199,64.4554],[21.5376,64.4727],[21.5786,64.4659],[21.5724,64.4802],[21.5859,64.4802],[21.6053,64.4656],[21.6001,64.4424],[21.5257,64.4218],[21.3732,64.3304],[21.3185,64.3641],[21.3185,64.3293],[21.3328,64.315],[21.2878,64.3023],[21.2439,64.3071],[21.117,64.2211],[21.0789,64.2269],[21.0447,64.1916],[20.9666,64.1494],[20.9485,64.1301],[20.9608,64.1129],[20.9543,64.0948],[20.9124,64.0529],[20.9144,64.0242],[20.897,63.9837],[20.825,63.9447],[20.7772,63.8694],[20.6748,63.8427],[20.6779,63.8226],[20.709,63.8222],[20.6747,63.7893],[20.6126,63.8222],[20.5427,63.7753],[20.5309,63.7812],[20.5387,63.8008],[20.5034,63.822],[20.4558,63.7722],[20.4369,63.7612],[20.4136,63.7676],[20.4211,63.7123],[20.3943,63.6811],[20.3547,63.6892],[20.3617,63.7255],[20.3255,63.754],[20.308,63.6544],[20.2676,63.6706],[20.2844,63.7329],[20.2461,63.6982],[20.236,63.6736],[20.2428,63.6509],[20.1199,63.6425],[20.0736,63.6662],[20.02,63.6474],[20.0134,63.6229],[20.0305,63.6025],[19.9378,63.6199],[19.887,63.6031],[19.8644,63.5732],[19.7532,63.5243],[19.7725,63.4646],[19.6995,63.4337],[19.6395,63.4449],[19.6371,63.4783],[19.613,63.4858],[19.6192,63.5001],[19.4702,63.5615],[19.4204,63.5485],[19.4688,63.5342],[19.4546,63.5089],[19.4671,63.5009],[19.5234,63.4858],[19.4614,63.4689],[19.5117,63.4333],[19.5166,63.4147],[19.4546,63.4312],[19.3462,63.4859],[19.3726,63.4449],[19.3514,63.44],[19.3156,63.4577],[19.206,63.5942],[19.0473,63.7151],[18.9694,63.7403],[18.9562,63.7703],[18.6921,63.8307],[18.6012,63.8311],[18.5208,63.852],[18.4306,63.9277],[18.4306,63.9393],[18.4791,63.9474],[18.4677,63.971],[18.4268,63.9829],[18.3623,63.9828],[17.7299,63.8895],[16.9017,63.9599],[16.745,64.0175],[16.263,64.2556],[16.1938,64.274],[16.0691,64.2702],[16.0234,64.3301],[15.9854,64.3536],[15.7876,64.4267],[15.7649,64.4454],[15.7446,64.5071],[15.7132,64.5305],[15.6731,64.5272],[15.6394,64.4726],[15.6055,64.4678],[15.5579,64.527],[15.2915,64.6446],[15.3689,64.6701],[15.2693,64.7225],[15.17,64.7549],[15.1005,64.7591],[15.0438,64.8315],[14.8862,64.8792],[14.7816,64.9613],[14.7085,65.0004],[14.3329,65.115]]],[[[20.8981,63.7541],[20.9485,63.7746],[20.9231,63.7032],[20.8648,63.6831],[20.8809,63.7424],[20.8981,63.7541]]],[[[20.8392,63.7676],[20.8649,63.7968],[20.9046,63.7935],[20.9204,63.7737],[20.8735,63.754],[20.8732,63.7707],[20.8392,63.7676]]],[[[20.8709,63.6694],[20.8561,63.6509],[20.8259,63.6436],[20.8646,63.6767],[20.8709,63.6694]]]]}},{"type":"Feature","id":"Vasternorrland","properties":{"id":"Vasternorrland","iso_code":"SE-Y","name":"Vasternorrland","name_full":"Västernorrland","name_ja":"ヴェステルノールランド県","center_lonlat":[17.2755,63.1125]},"geometry":{"type":"MultiPolygon","coordinates":[[[[19.3156,63.4577],[19.2808,63.4594],[19.2593,63.329],[19.2337,63.3257],[19.2293,63.3425],[19.2075,63.3261],[19.1331,63.3083],[19.1535,63.294],[19.112,63.2531],[19.1331,63.2531],[19.1167,63.2366],[19.0574,63.2605],[19.0399,63.239],[19.0564,63.2265],[19.112,63.2195],[19.1042,63.2078],[19.0679,63.2021],[19.0527,63.1789],[19.0368,63.1779],[18.9618,63.2258],[18.9666,63.2389],[18.9067,63.2671],[18.8729,63.2692],[18.8792,63.2531],[18.8661,63.2499],[18.7511,63.2595],[18.7352,63.2531],[18.9133,63.2121],[18.8626,63.192],[18.7966,63.1916],[18.8035,63.1779],[18.7731,63.1688],[18.7529,63.2077],[18.8239,63.2195],[18.7005,63.2258],[18.7556,63.1575],[18.5645,63.1779],[18.6431,63.1469],[18.6546,63.1137],[18.5786,63.1245],[18.557,63.1165],[18.523,63.0755],[18.557,63.0755],[18.499,63.0551],[18.4782,63.0202],[18.4038,63.0556],[18.3721,63.0476],[18.4341,63.0141],[18.3683,63.0202],[18.3431,63.0395],[18.3242,63.0141],[18.2417,62.9998],[18.2664,62.9903],[18.5244,62.9919],[18.5511,62.9859],[18.5767,62.9584],[18.554,62.9584],[18.544,62.9731],[18.5281,62.9538],[18.5049,62.9492],[18.4033,62.9648],[18.3926,62.9452],[18.4396,62.9282],[18.523,62.9248],[18.5125,62.9041],[18.4001,62.9111],[18.4745,62.8769],[18.4626,62.8612],[18.3776,62.8367],[18.3242,62.8415],[18.2683,62.8835],[18.2485,62.8837],[18.2554,62.8695],[18.207,62.8695],[18.2202,62.8523],[18.207,62.8354],[18.2293,62.8295],[18.2622,62.8483],[18.2827,62.8415],[18.2437,62.799],[18.1951,62.7774],[18.1829,62.79],[18.2009,62.808],[18.1863,62.8117],[18.1405,62.7719],[18.0773,62.7739],[18.0847,62.7869],[18.0684,62.7939],[18.009,62.7944],[18.034,62.8115],[18.1214,62.8058],[18.1462,62.8223],[18.0843,62.8373],[18.0711,62.8489],[18.0773,62.8558],[18.0203,62.8413],[17.9678,62.8078],[17.9353,62.817],[17.9128,62.8837],[17.9264,62.9005],[17.9214,62.9157],[17.8787,62.9111],[17.8545,62.9551],[17.8097,62.9793],[17.8308,62.9998],[17.762,62.9793],[17.7108,62.9982],[17.6936,62.9936],[17.8477,62.9213],[17.9019,62.8393],[17.8855,62.8148],[17.9568,62.7825],[17.9549,62.7633],[18.0027,62.709],[17.9934,62.6599],[17.8718,62.6708],[18.0432,62.6262],[18.0642,62.5958],[17.9683,62.5605],[17.9534,62.6118],[17.937,62.6156],[17.9094,62.5494],[17.8787,62.5411],[17.8928,62.5275],[17.8431,62.4897],[17.7346,62.5058],[17.6589,62.4784],[17.6597,62.4614],[17.7074,62.4374],[17.5618,62.4438],[17.4268,62.5411],[17.4061,62.5356],[17.3955,62.5113],[17.3415,62.4981],[17.3306,62.4722],[17.3792,62.4258],[17.3709,62.4062],[17.3374,62.404],[17.3665,62.3789],[17.368,62.3431],[17.3928,62.3283],[17.4541,62.3214],[17.4883,62.2866],[17.4602,62.273],[17.6527,62.232],[17.5444,62.2016],[17.5695,62.232],[17.5191,62.2279],[17.5042,62.2037],[17.5086,62.1638],[17.4985,62.1476],[17.2096,62.1781],[17.0111,62.1804],[16.4876,62.2509],[16.2095,62.2606],[15.5815,62.3581],[15.5303,62.3491],[15.3587,62.282],[15.2699,62.2877],[15.1937,62.2741],[15.066,62.2977],[15.0007,62.3277],[14.8514,62.4252],[14.8378,62.4545],[14.871,62.4823],[14.8328,62.5452],[14.8248,62.5847],[14.8615,62.6017],[14.9941,62.6108],[15.1725,62.6032],[15.6091,62.6534],[15.8861,62.7105],[16.3549,62.7314],[16.3921,62.7451],[16.6584,62.9225],[16.9649,62.9793],[16.9691,62.9934],[16.1813,63.3778],[16.1373,63.4202],[16.0205,63.4619],[15.9898,63.5612],[15.9123,63.6397],[15.9378,63.6638],[16.1043,63.6956],[16.2621,63.6921],[16.4874,63.7073],[16.592,63.7369],[16.6303,63.852],[16.745,64.0175],[16.9017,63.9599],[17.7299,63.8895],[18.3623,63.9828],[18.4268,63.9829],[18.4677,63.971],[18.4791,63.9474],[18.4306,63.9393],[18.4306,63.9277],[18.5208,63.852],[18.6012,63.8311],[18.6921,63.8307],[18.9562,63.7703],[18.9694,63.7403],[19.0473,63.7151],[19.206,63.5942],[19.3156,63.4577]]],[[[18.1247,62.6879],[18.027,62.6845],[18.0061,62.7056],[18.041,62.7545],[18.1598,62.7471],[18.147,62.7095],[18.117,62.7017],[18.1247,62.6879]]]]}},{"type":"Feature","id":"Vastmanland","properties":{"id":"Vastmanland","iso_code":"SE-U","name":"Vastmanland","name_full":"Västmanland","name_ja":"ヴェストマンランド県","center_lonlat":[16.3434,59.8179]},"geometry":{"type":"Polygon","coordinates":[[[16.9664,59.5321],[16.8935,59.5092],[16.2871,59.4537],[16.2698,59.4421],[16.275,59.4245],[16.3176,59.3983],[16.2986,59.3828],[16.1757,59.3581],[16.0695,59.3688],[16.0046,59.3586],[15.9144,59.2875],[15.8999,59.2423],[15.7786,59.2062],[15.804,59.2361],[15.7341,59.2395],[15.6991,59.27],[15.6273,59.2976],[15.6568,59.3466],[15.6296,59.3795],[15.6383,59.4034],[15.7522,59.4406],[15.7455,59.4696],[15.7174,59.4916],[15.7396,59.5398],[15.679,59.5476],[15.6563,59.6148],[15.6408,59.6275],[15.5583,59.6378],[15.5548,59.6755],[15.579,59.741],[15.5745,59.7608],[15.5394,59.8066],[15.4749,59.8247],[15.4813,59.8566],[15.4547,59.8832],[15.5097,59.9315],[15.5348,59.9727],[15.5931,59.9801],[15.6626,59.9648],[15.7087,59.9838],[15.7235,60.0004],[15.7227,60.0477],[15.7086,60.0779],[15.7545,60.1277],[15.7497,60.1468],[15.8153,60.1781],[15.9491,60.1893],[16.0535,60.1815],[16.1536,60.1492],[16.1771,60.097],[16.32,60.0776],[16.4495,60.0995],[16.554,60.1756],[16.6991,60.1959],[16.7194,60.2016],[16.7174,60.2159],[16.8097,60.2106],[16.9157,60.2457],[16.9287,60.2775],[16.9657,60.2956],[17.1203,60.2842],[17.2262,60.3096],[17.3694,60.2509],[17.3941,60.2246],[17.3077,60.0774],[17.2715,60.0504],[17.2206,60.0483],[17.1656,59.997],[17.211,59.9563],[17.1947,59.8975],[17.0504,59.8391],[17.0072,59.8651],[16.8589,59.8844],[16.8524,59.8339],[16.7875,59.7984],[16.9003,59.669],[16.9664,59.5321]]]}},{"type":"Feature","id":"Vastra Gotaland","properties":{"id":"Vastra Gotaland","iso_code":"SE-O","name":"Vastra Gotaland","name_full":"Västra Götaland","name_ja":"ヴェストラ・イェータランド県","center_lonlat":[12.9019,58.3179]},"geometry":{"type":"MultiPolygon","coordinates":[[[[11.8111,59.2487],[11.8982,59.2337],[11.9638,59.2454],[12.0822,59.2],[12.1074,59.21],[12.1088,59.2404],[12.1275,59.2487],[12.2141,59.2521],[12.2563,59.2147],[12.3528,59.1885],[12.4687,59.1999],[12.4767,59.1911],[12.4196,59.1823],[12.4163,59.1715],[12.4852,59.1422],[12.5485,59.1488],[12.585,59.1231],[12.6312,59.1576],[12.6868,59.1756],[12.7563,59.1368],[12.7772,59.0615],[12.859,58.9881],[12.9281,58.8152],[13.2882,58.7422],[13.3753,58.7422],[13.4457,58.7596],[13.3844,58.8268],[13.386,58.8564],[13.457,58.9678],[13.516,59.0178],[13.5878,59.0513],[14.2267,59.0445],[14.3126,59.0163],[14.3983,58.8944],[14.3999,58.8598],[14.4802,58.7797],[14.4964,58.7346],[14.589,58.7091],[14.6444,58.7415],[14.6752,58.7419],[14.6953,58.7341],[14.7467,58.672],[14.8115,58.6455],[14.4286,58.2244],[14.2371,58.0015],[14.2503,57.953],[14.212,57.9159],[14.0495,57.8675],[14.0185,57.8287],[13.9317,57.8555],[13.7506,57.8531],[13.7666,57.7808],[13.7244,57.7202],[13.73,57.6768],[13.6949,57.6312],[13.6827,57.5651],[13.5959,57.4972],[13.529,57.4236],[13.4131,57.3551],[13.3151,57.317],[13.275,57.2709],[13.2322,57.2575],[13.1166,57.157],[12.9375,57.2086],[12.9307,57.2327],[12.9515,57.276],[12.8642,57.284],[12.8199,57.3022],[12.7703,57.2962],[12.6742,57.3467],[12.5946,57.3506],[12.5148,57.2981],[12.4466,57.2951],[12.3949,57.3702],[12.4155,57.4359],[12.3368,57.4908],[12.3319,57.5838],[12.3019,57.6164],[12.0693,57.5726],[11.9128,57.5829],[11.9168,57.6209],[11.8971,57.6271],[11.8919,57.613],[11.8674,57.6074],[11.835,57.6619],[11.8446,57.683],[11.9095,57.6868],[11.9237,57.7028],[11.8459,57.6933],[11.7477,57.7136],[11.7518,57.696],[11.7054,57.6984],[11.7063,57.722],[11.8104,57.7814],[11.7518,57.7848],[11.6868,57.8376],[11.6563,57.8394],[11.7039,57.8605],[11.6936,57.8812],[11.7073,57.8914],[11.7593,57.9021],[11.7456,57.9151],[11.7661,57.9288],[11.7366,57.9387],[11.8001,58.0223],[11.783,58.0692],[11.801,58.0864],[11.7935,58.1001],[11.8181,58.1032],[11.8285,58.1212],[11.8413,58.1938],[11.8757,58.1992],[11.8897,58.2168],[11.8518,58.2266],[11.8089,58.3022],[11.8828,58.3328],[11.8704,58.3454],[11.807,58.3266],[11.7267,58.3271],[11.7258,58.313],[11.679,58.3074],[11.5811,58.2509],[11.5259,58.2578],[11.5396,58.2373],[11.5059,58.2431],[11.4966,58.2584],[11.5037,58.2802],[11.5418,58.3336],[11.6221,58.3881],[11.6078,58.395],[11.6218,58.406],[11.6699,58.4222],[11.6526,58.4374],[11.6289,58.4313],[11.5886,58.4011],[11.5532,58.4632],[11.5518,58.3994],[11.5225,58.3362],[11.466,58.2941],[11.3962,58.2646],[11.4434,58.3056],[11.3992,58.303],[11.3838,58.3182],[11.4011,58.3368],[11.4486,58.3417],[11.4229,58.3638],[11.4241,58.3881],[11.407,58.3874],[11.3825,58.3539],[11.3459,58.346],[11.4241,58.4427],[11.3342,58.3676],[11.2536,58.3659],[11.2317,58.3397],[11.2209,58.3463],[11.209,58.4189],[11.259,58.4222],[11.2515,58.4423],[11.2937,58.47],[11.2577,58.4822],[11.2385,58.5079],[11.2522,58.5185],[11.2556,58.5557],[11.2863,58.5799],[11.2658,58.5799],[11.2698,58.5922],[11.2522,58.6072],[11.259,58.6345],[11.2106,58.6792],[11.218,58.708],[11.1774,58.7186],[11.1786,58.7365],[11.2106,58.7574],[11.2069,58.7709],[11.2334,58.8082],[11.2317,58.8437],[11.1976,58.8642],[11.1976,58.9225],[11.1467,58.9312],[11.1082,58.9536],[11.1174,58.9688],[11.1838,58.9914],[11.1228,58.9941],[11.115,59.0082],[11.1936,59.0801],[11.321,59.0995],[11.3547,59.0916],[11.3938,59.0194],[11.4381,58.9911],[11.4532,58.9605],[11.452,58.896],[11.5471,58.8847],[11.6116,58.8932],[11.6644,58.9201],[11.7453,59.0922],[11.7485,59.1401],[11.7756,59.2025],[11.8111,59.2487]]],[[[11.807,58.2304],[11.8153,58.1893],[11.8047,58.1257],[11.7082,58.0982],[11.6546,58.108],[11.6289,58.1001],[11.6123,58.1186],[11.5853,58.1231],[11.5339,58.1069],[11.5163,58.086],[11.4639,58.1069],[11.4577,58.0722],[11.4474,58.1035],[11.4066,58.1311],[11.429,58.161],[11.5278,58.2128],[11.6016,58.2373],[11.6631,58.2373],[11.66,58.2581],[11.6774,58.2714],[11.6699,58.2851],[11.6864,58.2912],[11.7388,58.2851],[11.7498,58.2629],[11.807,58.2304]]],[[[11.7388,58.0585],[11.7456,58.0312],[11.7319,57.9977],[11.7102,57.9929],[11.7114,58.0114],[11.6951,58.0151],[11.6506,57.9554],[11.6189,57.9543],[11.5947,57.9356],[11.5278,57.9543],[11.5156,58.0008],[11.5676,58.0039],[11.5056,58.013],[11.4979,58.0281],[11.5059,58.046],[11.5247,58.0507],[11.6597,58.0455],[11.7166,58.0645],[11.7388,58.0585]]]]}}]}
