{"type":"FeatureCollection","features":[{"type":"Feature","id":"Aargau","properties":{"id":"Aargau","iso_code":"CH-AG","name":"Aargau","name_full":"Aargau","name_ja":"アールガウ州","center_lonlat":[8.1533,47.4133]},"geometry":{"type":"Polygon","coordinates":[[[8.4211,47.5811],[8.3581,47.5168],[8.3526,47.4876],[8.4035,47.4104],[8.3708,47.3783],[8.4035,47.3625],[8.402,47.3389],[8.416,47.3264],[8.4456,47.3328],[8.4149,47.2959],[8.3825,47.2861],[8.4074,47.2455],[8.393,47.2195],[8.4056,47.1423],[8.3514,47.1568],[8.2886,47.2681],[8.2606,47.2823],[8.2437,47.2811],[8.1835,47.2239],[8.1593,47.2299],[8.1604,47.2429],[8.0893,47.2612],[8.0204,47.243],[7.9827,47.2774],[7.9556,47.2754],[7.9487,47.2466],[7.8393,47.2318],[7.8229,47.269],[7.8575,47.3107],[7.9019,47.3383],[7.9816,47.3283],[8.0218,47.3678],[8.028,47.3981],[7.997,47.4099],[7.9791,47.4487],[7.9549,47.4577],[7.9424,47.4634],[7.9402,47.4836],[7.9005,47.4904],[7.8494,47.5453],[7.8291,47.5475],[7.8214,47.5297],[7.7827,47.5128],[7.7777,47.5326],[7.7273,47.5504],[7.7855,47.5632],[7.8197,47.5953],[7.8982,47.5878],[7.9122,47.5606],[8.0423,47.5606],[8.0872,47.5674],[8.179,47.6158],[8.233,47.622],[8.2886,47.6158],[8.3162,47.5878],[8.4211,47.5811]]]}},{"type":"Feature","id":"Appenzell Ausserrhoden","properties":{"id":"Appenzell Ausserrhoden","iso_code":"CH-AR","name":"Appenzell Ausserrhoden","name_full":"Appenzell Ausserrhoden","name_ja":"アッペンツェル・アウサーローデン準州","center_lonlat":[9.2711,47.3711]},"geometry":{"type":"Polygon","coordinates":[[[9.4866,47.3936],[9.4882,47.3534],[9.3498,47.388],[9.3374,47.3545],[9.3056,47.327],[9.3046,47.2949],[9.3315,47.2531],[9.1966,47.2811],[9.2083,47.2905],[9.2019,47.3193],[9.218,47.3369],[9.1861,47.3577],[9.226,47.4003],[9.4094,47.4118],[9.4257,47.434],[9.5223,47.4681],[9.6084,47.4498],[9.5484,47.4412],[9.5815,47.4244],[9.5832,47.4152],[9.5405,47.3972],[9.5428,47.423],[9.5278,47.4337],[9.4866,47.3936]]]}},{"type":"Feature","id":"Appenzell Innerrhoden","properties":{"id":"Appenzell Innerrhoden","iso_code":"CH-AI","name":"Appenzell Innerrhoden","name_full":"Appenzell Innerrhoden","name_ja":"アッペンツェル・インナーローデン準州","center_lonlat":[9.3909,47.3132]},"geometry":{"type":"MultiPolygon","coordinates":[[[[9.4882,47.3534],[9.4711,47.2964],[9.4377,47.261],[9.3755,47.2397],[9.3315,47.2531],[9.3046,47.2949],[9.3056,47.327],[9.3374,47.3545],[9.3498,47.388],[9.4882,47.3534]]],[[[9.5405,47.3972],[9.4866,47.3936],[9.5278,47.4337],[9.5428,47.423],[9.5405,47.3972]]],[[[9.6084,47.4498],[9.5815,47.4244],[9.5484,47.4412],[9.6084,47.4498]]]]}},{"type":"Feature","id":"Basel-Landschaft","properties":{"id":"Basel-Landschaft","iso_code":"CH-BL","name":"Basel-Landschaft","name_full":"Basel-Landschaft","name_ja":"バーゼル＝ラント準州","center_lonlat":[7.8306,47.4578]},"geometry":{"type":"MultiPolygon","coordinates":[[[[7.7273,47.5504],[7.7777,47.5326],[7.7827,47.5128],[7.8214,47.5297],[7.8291,47.5475],[7.8494,47.5453],[7.9005,47.4904],[7.9402,47.4836],[7.9424,47.4634],[7.9549,47.4577],[7.9478,47.4171],[7.882,47.4024],[7.8705,47.3847],[7.8053,47.3636],[7.7861,47.3385],[7.7138,47.3662],[7.6452,47.3722],[7.6379,47.4065],[7.6755,47.4145],[7.7134,47.4673],[7.6643,47.4916],[7.6145,47.4841],[7.6081,47.4728],[7.6266,47.4618],[7.6151,47.4397],[7.5748,47.4283],[7.576,47.4134],[7.5383,47.4097],[7.5068,47.3886],[7.4527,47.3958],[7.4371,47.3793],[7.3842,47.4131],[7.4551,47.4214],[7.4206,47.4509],[7.4293,47.4651],[7.4143,47.4902],[7.446,47.4869],[7.4542,47.452],[7.5339,47.4608],[7.529,47.4939],[7.4858,47.4988],[7.4769,47.5149],[7.5011,47.5173],[7.5052,47.533],[7.4827,47.5423],[7.5209,47.5634],[7.5889,47.5349],[7.6117,47.544],[7.6404,47.5297],[7.6469,47.5514],[7.7273,47.5504]]],[[[7.3882,47.4333],[7.3842,47.4131],[7.3369,47.4319],[7.3882,47.4333]]]]}},{"type":"Feature","id":"Basel-Stadt","properties":{"id":"Basel-Stadt","iso_code":"CH-BS","name":"Basel-Stadt","name_full":"Basel-Stadt","name_ja":"バーゼル＝シュタット準州","center_lonlat":[7.5991,47.5619]},"geometry":{"type":"Polygon","coordinates":[[[7.6469,47.5514],[7.6404,47.5297],[7.6117,47.544],[7.5889,47.5349],[7.5209,47.5634],[7.6597,47.5966],[7.6359,47.5646],[7.6097,47.5647],[7.6469,47.5514]]]}},{"type":"Feature","id":"Bern","properties":{"id":"Bern","iso_code":"CH-BE","name":"Bern","name_full":"Bern","name_ja":"ベルン州","center_lonlat":[7.6254,46.8258]},"geometry":{"type":"MultiPolygon","coordinates":[[[[8.4462,46.7692],[8.4366,46.7506],[8.4481,46.6948],[8.4017,46.6887],[8.4094,46.6557],[8.3795,46.6381],[8.3491,46.5735],[8.2664,46.5352],[8.1844,46.5218],[8.1142,46.5472],[8.0031,46.5574],[7.9652,46.5399],[7.9661,46.5157],[7.9019,46.4856],[7.8449,46.4813],[7.7231,46.4202],[7.6244,46.4434],[7.541,46.4056],[7.5599,46.3952],[7.5096,46.3757],[7.4042,46.3786],[7.3296,46.3485],[7.3083,46.3716],[7.2278,46.3314],[7.2332,46.3641],[7.2004,46.3847],[7.2117,46.4092],[7.2032,46.4372],[7.2315,46.4558],[7.234,46.486],[7.2526,46.5127],[7.2425,46.5561],[7.3191,46.5876],[7.3197,46.6396],[7.3307,46.6483],[7.378,46.6556],[7.3827,46.6908],[7.3127,46.7227],[7.3044,46.7482],[7.3138,46.8529],[7.3557,46.8606],[7.3557,46.8912],[7.2059,46.9062],[7.216,46.9296],[7.2036,46.9641],[7.2365,46.9856],[7.2252,47.0025],[7.0624,46.9782],[7.0211,46.9897],[7.0438,47.0359],[7.0911,47.0566],[7.0903,47.0914],[7.0398,47.1096],[7.0391,47.1234],[6.8773,47.0897],[6.8902,47.133],[6.8498,47.1651],[6.9018,47.1557],[7.0296,47.2021],[7.0678,47.2423],[7.1547,47.2475],[7.1749,47.2971],[7.2782,47.2863],[7.3192,47.2947],[7.369,47.3247],[7.3872,47.3126],[7.4966,47.3066],[7.5563,47.3182],[7.5428,47.298],[7.4423,47.2588],[7.4238,47.2395],[7.3488,47.2166],[7.3926,47.1613],[7.4759,47.1909],[7.491,47.1646],[7.4444,47.1498],[7.43,47.1212],[7.3765,47.1199],[7.3883,47.0962],[7.4368,47.098],[7.4463,47.0754],[7.4647,47.0797],[7.4747,47.0858],[7.4686,47.1094],[7.5534,47.165],[7.6374,47.1525],[7.6727,47.1724],[7.6558,47.2102],[7.6029,47.2472],[7.5834,47.2776],[7.6863,47.2942],[7.7318,47.2615],[7.8229,47.269],[7.8393,47.2318],[7.8751,47.1767],[7.8871,47.1283],[7.8741,47.1014],[7.8733,47.0481],[7.8975,47.0115],[7.9525,47.0027],[7.9281,46.9462],[7.8757,46.9244],[7.8752,46.8948],[7.8609,46.8779],[7.8705,46.8503],[7.9771,46.7788],[8.0437,46.7883],[8.0946,46.7843],[8.1581,46.759],[8.1987,46.7676],[8.28,46.7588],[8.3682,46.7895],[8.3916,46.7751],[8.4462,46.7692]]],[[[7.5545,47.344],[7.5692,47.3337],[7.559,47.3207],[7.5358,47.3271],[7.5545,47.344]]]]}},{"type":"Feature","id":"Fribourg","properties":{"id":"Fribourg","iso_code":"CH-FR","name":"Fribourg","name_full":"Fribourg","name_ja":"フリブール州","center_lonlat":[7.1042,46.7106]},"geometry":{"type":"MultiPolygon","coordinates":[[[[7.2425,46.5561],[7.1552,46.5276],[7.1031,46.4921],[7.0598,46.4849],[7.0003,46.4445],[6.9747,46.4904],[6.9192,46.5189],[6.8948,46.5228],[6.8498,46.5037],[6.8265,46.5173],[6.8281,46.5429],[6.8666,46.5371],[6.9047,46.5693],[6.8599,46.5831],[6.807,46.5807],[6.8092,46.6514],[6.8722,46.6643],[6.94,46.741],[6.9437,46.7493],[6.9201,46.7588],[6.9693,46.7951],[6.9733,46.8192],[7.0014,46.8444],[6.9878,46.8496],[6.9845,46.8814],[6.9637,46.8743],[6.9074,46.9255],[6.9459,46.9472],[7.0415,46.8524],[7.0675,46.8658],[7.0844,46.895],[7.1069,46.9009],[7.0732,46.9373],[7.0624,46.9782],[7.2252,47.0025],[7.2365,46.9856],[7.2036,46.9641],[7.216,46.9296],[7.2059,46.9062],[7.3557,46.8912],[7.3557,46.8606],[7.3138,46.8529],[7.3044,46.7482],[7.3127,46.7227],[7.3827,46.6908],[7.378,46.6556],[7.3307,46.6483],[7.3197,46.6396],[7.3191,46.5876],[7.2425,46.5561]]],[[[6.8751,46.9072],[6.924,46.8718],[6.901,46.8669],[6.9299,46.8554],[6.9112,46.8084],[6.9299,46.8028],[6.9154,46.7841],[6.8355,46.7802],[6.7935,46.7904],[6.798,46.8003],[6.7746,46.8119],[6.766,46.8453],[6.8751,46.9072]]],[[[6.8596,46.7734],[6.8885,46.7519],[6.8778,46.7346],[6.8,46.7263],[6.8596,46.7734]]],[[[6.7868,46.7519],[6.7918,46.7329],[6.7678,46.7205],[6.7587,46.7404],[6.7868,46.7519]]]]}},{"type":"Feature","id":"Geneva","properties":{"id":"Geneva","iso_code":"CH-GE","name":"Geneva","name_full":"Geneva","name_ja":"ジュネーヴ州","center_lonlat":[6.1171,46.2208]},"geometry":{"type":"Polygon","coordinates":[[[6.1186,46.3318],[6.1742,46.3],[6.2166,46.3095],[6.2376,46.2679],[6.276,46.2631],[6.2812,46.2401],[6.1079,46.1386],[6.0283,46.1479],[5.9588,46.1305],[5.9829,46.1708],[5.9548,46.1999],[5.9585,46.212],[6.0429,46.2431],[6.0897,46.2464],[6.1186,46.3318]]]}},{"type":"Feature","id":"Glarus","properties":{"id":"Glarus","iso_code":"CH-GL","name":"Glarus","name_full":"Glarus","name_ja":"グラールス州","center_lonlat":[9.0567,46.983]},"geometry":{"type":"Polygon","coordinates":[[[8.9303,46.9222],[8.9516,46.9296],[8.9586,46.9613],[8.8899,47.0265],[8.9574,47.0803],[8.9851,47.1689],[9.007,47.1747],[9.0747,47.1363],[9.1799,47.1222],[9.1693,47.0606],[9.1322,47.0417],[9.1578,47.0312],[9.2024,47.0385],[9.2187,47.0267],[9.2378,46.9923],[9.2302,46.9579],[9.2409,46.9203],[9.196,46.8871],[9.115,46.864],[9.0424,46.8718],[9.0247,46.8354],[8.9805,46.8123],[8.9158,46.8004],[8.8717,46.8154],[8.8718,46.8459],[8.9482,46.8805],[8.9303,46.9222]]]}},{"type":"Feature","id":"Grisons","properties":{"id":"Grisons","iso_code":"CH-GR","name":"Grisons","name_full":"Grisons","name_ja":"グラウビュンデン州","center_lonlat":[9.6204,46.6567]},"geometry":{"type":"Polygon","coordinates":[[[9.1638,46.173],[9.0875,46.2206],[9.0565,46.2949],[9.0891,46.3637],[9.0978,46.4161],[9.0773,46.4823],[9.0486,46.4809],[9.0214,46.5142],[9.0152,46.5335],[9.0352,46.5962],[8.9648,46.6148],[8.953,46.6323],[8.9148,46.6204],[8.9077,46.5942],[8.8473,46.5752],[8.7884,46.5681],[8.6779,46.5836],[8.6734,46.6175],[8.6527,46.6388],[8.6726,46.6905],[8.7156,46.705],[8.7488,46.733],[8.8037,46.7372],[8.8256,46.7908],[8.8717,46.8154],[8.9158,46.8004],[8.9805,46.8123],[9.0247,46.8354],[9.0424,46.8718],[9.115,46.864],[9.196,46.8871],[9.2409,46.9203],[9.2602,46.9069],[9.4457,46.8827],[9.4744,46.9097],[9.4928,46.9532],[9.532,46.9833],[9.477,47.0639],[9.5606,47.0524],[9.6691,47.0562],[9.858,47.0155],[9.8563,47.0041],[9.8706,46.9988],[9.8624,46.9398],[9.8751,46.9274],[10.1113,46.8471],[10.2014,46.8668],[10.2351,46.9233],[10.2957,46.9227],[10.3137,46.9643],[10.3389,46.9841],[10.3844,46.9932],[10.4585,46.9366],[10.4638,46.9197],[10.4485,46.8322],[10.4172,46.7989],[10.4287,46.7556],[10.3997,46.7355],[10.3944,46.7008],[10.3692,46.6724],[10.3956,46.6388],[10.4591,46.6236],[10.4579,46.5537],[10.4259,46.5353],[10.3066,46.5475],[10.2347,46.5753],[10.2338,46.618],[10.2179,46.627],[10.0878,46.6044],[10.0712,46.5644],[10.0328,46.533],[10.0281,46.4839],[10.044,46.467],[10.0263,46.4463],[10.0421,46.4327],[10.1334,46.414],[10.1332,46.3811],[10.105,46.3614],[10.0918,46.329],[10.1589,46.2624],[10.1458,46.2433],[10.0757,46.22],[10.0427,46.2205],[10.0317,46.2601],[9.9776,46.2981],[9.964,46.3561],[9.9184,46.3712],[9.8554,46.367],[9.7681,46.3386],[9.7201,46.3509],[9.7084,46.3117],[9.6743,46.2918],[9.5365,46.2986],[9.5026,46.3207],[9.4826,46.3568],[9.4444,46.3753],[9.4346,46.4983],[9.3846,46.4664],[9.3516,46.4855],[9.3508,46.4979],[9.2823,46.4974],[9.2632,46.4851],[9.238,46.4365],[9.2609,46.4167],[9.269,46.3094],[9.2248,46.2312],[9.1813,46.2041],[9.1638,46.173]]]}},{"type":"Feature","id":"Jura","properties":{"id":"Jura","iso_code":"CH-JU","name":"Jura","name_full":"Jura","name_ja":"ジュラ州","center_lonlat":[7.1502,47.3484]},"geometry":{"type":"Polygon","coordinates":[[[7.3369,47.4319],[7.3842,47.4131],[7.4371,47.3793],[7.5206,47.3679],[7.5545,47.344],[7.5358,47.3271],[7.559,47.3207],[7.5563,47.3182],[7.4966,47.3066],[7.3872,47.3126],[7.369,47.3247],[7.3192,47.2947],[7.2782,47.2863],[7.1749,47.2971],[7.1547,47.2475],[7.0678,47.2423],[7.0296,47.2021],[6.9018,47.1557],[6.8498,47.1651],[6.8381,47.1681],[6.8883,47.2113],[6.9562,47.2452],[6.9586,47.2906],[7.0443,47.3405],[7.004,47.3681],[6.8666,47.3542],[6.884,47.3826],[6.9245,47.406],[6.9261,47.4249],[6.991,47.4522],[6.9733,47.4891],[7.0098,47.4992],[7.1808,47.4883],[7.1626,47.4599],[7.1683,47.4436],[7.2303,47.419],[7.3369,47.4319]]]}},{"type":"Feature","id":"Lucerne","properties":{"id":"Lucerne","iso_code":"CH-LU","name":"Lucerne","name_full":"Lucerne","name_ja":"ルツェルン州","center_lonlat":[8.1074,47.0673]},"geometry":{"type":"Polygon","coordinates":[[[8.4056,47.1423],[8.4424,47.1133],[8.4062,47.097],[8.3863,47.0677],[8.4043,47.0531],[8.4597,47.0508],[8.5018,47.023],[8.4982,47.0053],[8.4651,46.9933],[8.4461,47.0093],[8.4122,46.9986],[8.366,47.0077],[8.2318,46.9909],[8.2271,46.9716],[8.1548,46.9604],[8.1559,46.939],[8.1118,46.9054],[8.084,46.9055],[8.0465,46.8393],[8.06,46.8061],[8.0437,46.7883],[7.9771,46.7788],[7.8705,46.8503],[7.8609,46.8779],[7.8752,46.8948],[7.8757,46.9244],[7.9281,46.9462],[7.9525,47.0027],[7.8975,47.0115],[7.8733,47.0481],[7.8741,47.1014],[7.8871,47.1283],[7.8751,47.1767],[7.8393,47.2318],[7.9487,47.2466],[7.9556,47.2754],[7.9827,47.2774],[8.0204,47.243],[8.0893,47.2612],[8.1604,47.2429],[8.1593,47.2299],[8.1835,47.2239],[8.2437,47.2811],[8.2606,47.2823],[8.2886,47.2681],[8.3514,47.1568],[8.4056,47.1423]]]}},{"type":"Feature","id":"Neuchatel","properties":{"id":"Neuchatel","iso_code":"CH-NE","name":"Neuchatel","name_full":"Neuchâtel","name_ja":"ヌーシャテル州","center_lonlat":[6.7803,46.9968]},"geometry":{"type":"Polygon","coordinates":[[[6.4431,46.8515],[6.4484,46.8716],[6.4278,46.9091],[6.4426,46.9442],[6.5987,46.9865],[6.6654,47.0213],[6.6883,47.0438],[6.6763,47.0624],[6.6897,47.0783],[6.746,47.1039],[6.7448,47.1211],[6.8381,47.1681],[6.8498,47.1651],[6.8902,47.133],[6.8773,47.0897],[7.0391,47.1234],[7.0398,47.1096],[7.0903,47.0914],[7.0911,47.0566],[7.0438,47.0359],[7.0211,46.9897],[6.9459,46.9472],[6.9074,46.9255],[6.8751,46.9072],[6.766,46.8453],[6.7255,46.939],[6.5218,46.8565],[6.4431,46.8515]]]}},{"type":"Feature","id":"Nidwalden","properties":{"id":"Nidwalden","iso_code":"CH-NW","name":"Nidwalden","name_full":"Nidwalden","name_ja":"ニトヴァルデン準州","center_lonlat":[8.3996,46.9273]},"geometry":{"type":"Polygon","coordinates":[[[8.4651,46.9933],[8.4895,46.9816],[8.5617,46.9881],[8.545,46.9432],[8.4594,46.9047],[8.4726,46.8557],[8.424,46.8545],[8.4053,46.8675],[8.3761,46.8582],[8.364,46.8722],[8.3728,46.8206],[8.4225,46.7832],[8.3916,46.7751],[8.3682,46.7895],[8.3268,46.8175],[8.3334,46.9135],[8.2917,46.9367],[8.3076,46.9673],[8.2636,46.9794],[8.2271,46.9716],[8.2318,46.9909],[8.366,47.0077],[8.4122,46.9986],[8.4461,47.0093],[8.4651,46.9933]]]}},{"type":"Feature","id":"Obwalden","properties":{"id":"Obwalden","iso_code":"CH-OW","name":"Obwalden","name_full":"Obwalden","name_ja":"オプヴァルデン準州","center_lonlat":[8.2068,46.8574]},"geometry":{"type":"MultiPolygon","coordinates":[[[[8.3682,46.7895],[8.28,46.7588],[8.1987,46.7676],[8.1581,46.759],[8.0946,46.7843],[8.0437,46.7883],[8.06,46.8061],[8.0465,46.8393],[8.084,46.9055],[8.1118,46.9054],[8.1559,46.939],[8.1548,46.9604],[8.2271,46.9716],[8.2636,46.9794],[8.3076,46.9673],[8.2917,46.9367],[8.3334,46.9135],[8.3268,46.8175],[8.3682,46.7895]]],[[[8.3916,46.7751],[8.4225,46.7832],[8.3728,46.8206],[8.364,46.8722],[8.3761,46.8582],[8.4053,46.8675],[8.424,46.8545],[8.4726,46.8557],[8.5001,46.8476],[8.4706,46.8036],[8.4807,46.7809],[8.4462,46.7692],[8.3916,46.7751]]]]}},{"type":"Feature","id":"Schaffhausen","properties":{"id":"Schaffhausen","iso_code":"CH-SH","name":"Schaffhausen","name_full":"Schaffhausen","name_ja":"シャフハウゼン州","center_lonlat":[8.5898,47.7105]},"geometry":{"type":"MultiPolygon","coordinates":[[[[8.8519,47.6713],[8.8003,47.6818],[8.7885,47.6626],[8.7486,47.6461],[8.7078,47.6472],[8.6816,47.6643],[8.6832,47.6955],[8.64,47.6963],[8.5936,47.6582],[8.5197,47.6574],[8.4583,47.6399],[8.3913,47.6655],[8.3921,47.6995],[8.4379,47.7232],[8.4636,47.7639],[8.5365,47.7741],[8.5516,47.7793],[8.5423,47.795],[8.5831,47.8002],[8.6016,47.7946],[8.6174,47.7573],[8.6441,47.791],[8.6819,47.7587],[8.7131,47.7574],[8.7198,47.7473],[8.7004,47.7235],[8.7171,47.6946],[8.7699,47.6951],[8.7617,47.7013],[8.7707,47.7209],[8.7976,47.72],[8.8561,47.6907],[8.8377,47.6878],[8.8519,47.6713]]],[[[8.5763,47.595],[8.5525,47.5605],[8.5294,47.5754],[8.5517,47.5969],[8.5763,47.595]]]]}},{"type":"Feature","id":"Schwyz","properties":{"id":"Schwyz","iso_code":"CH-SZ","name":"Schwyz","name_full":"Schwyz","name_ja":"シュヴィーツ州","center_lonlat":[8.7487,47.0641]},"geometry":{"type":"Polygon","coordinates":[[[8.5617,46.9881],[8.4895,46.9816],[8.4651,46.9933],[8.4982,47.0053],[8.5018,47.023],[8.4597,47.0508],[8.4043,47.0531],[8.3863,47.0677],[8.4062,47.097],[8.4424,47.1133],[8.4803,47.1195],[8.4978,47.0926],[8.6241,47.0964],[8.7019,47.1567],[8.6835,47.1654],[8.6757,47.1836],[8.6931,47.1976],[8.7754,47.2206],[8.9553,47.2139],[8.9519,47.1957],[8.9851,47.1689],[8.9574,47.0803],[8.8899,47.0265],[8.9586,46.9613],[8.9516,46.9296],[8.9303,46.9222],[8.8449,46.8902],[8.8175,46.9332],[8.7612,46.9412],[8.7083,46.923],[8.6874,46.9456],[8.6092,46.9596],[8.5998,46.9861],[8.5617,46.9881]]]}},{"type":"Feature","id":"Solothurn","properties":{"id":"Solothurn","iso_code":"CH-SO","name":"Solothurn","name_full":"Solothurn","name_ja":"ゾロトゥルン州","center_lonlat":[7.6519,47.2986]},"geometry":{"type":"MultiPolygon","coordinates":[[[[7.559,47.3207],[7.5692,47.3337],[7.5545,47.344],[7.5206,47.3679],[7.4371,47.3793],[7.4527,47.3958],[7.5068,47.3886],[7.5383,47.4097],[7.576,47.4134],[7.5748,47.4283],[7.6151,47.4397],[7.6266,47.4618],[7.6081,47.4728],[7.6145,47.4841],[7.6643,47.4916],[7.7134,47.4673],[7.6755,47.4145],[7.6379,47.4065],[7.6452,47.3722],[7.7138,47.3662],[7.7861,47.3385],[7.8053,47.3636],[7.8705,47.3847],[7.882,47.4024],[7.9478,47.4171],[7.9549,47.4577],[7.9791,47.4487],[7.997,47.4099],[8.028,47.3981],[8.0218,47.3678],[7.9816,47.3283],[7.9019,47.3383],[7.8575,47.3107],[7.8229,47.269],[7.7318,47.2615],[7.6863,47.2942],[7.5834,47.2776],[7.6029,47.2472],[7.6558,47.2102],[7.6727,47.1724],[7.6374,47.1525],[7.5534,47.165],[7.4686,47.1094],[7.4747,47.0858],[7.4647,47.0797],[7.4463,47.0754],[7.4368,47.098],[7.3883,47.0962],[7.3765,47.1199],[7.43,47.1212],[7.4444,47.1498],[7.491,47.1646],[7.4759,47.1909],[7.3926,47.1613],[7.3488,47.2166],[7.4238,47.2395],[7.4423,47.2588],[7.5428,47.298],[7.5563,47.3182],[7.559,47.3207]]],[[[7.4858,47.4988],[7.529,47.4939],[7.5339,47.4608],[7.4542,47.452],[7.446,47.4869],[7.4674,47.4819],[7.4858,47.4988]]],[[[7.3882,47.4333],[7.4206,47.4509],[7.4551,47.4214],[7.3842,47.4131],[7.3882,47.4333]]]]}},{"type":"Feature","id":"St. Gallen","properties":{"id":"St. Gallen","iso_code":"CH-SG","name":"St. Gallen","name_full":"St. Gallen","name_ja":"ザンクト・ガレン州","center_lonlat":[9.2838,47.2511]},"geometry":{"type":"Polygon","coordinates":[[[9.5531,47.5169],[9.5845,47.4807],[9.6503,47.4521],[9.6495,47.4097],[9.4874,47.21],[9.485,47.1763],[9.5124,47.108],[9.477,47.0639],[9.532,46.9833],[9.4928,46.9532],[9.4744,46.9097],[9.4457,46.8827],[9.2602,46.9069],[9.2409,46.9203],[9.2302,46.9579],[9.2378,46.9923],[9.2187,47.0267],[9.2024,47.0385],[9.1578,47.0312],[9.1322,47.0417],[9.1693,47.0606],[9.1799,47.1222],[9.0747,47.1363],[9.007,47.1747],[8.9851,47.1689],[8.9519,47.1957],[8.9553,47.2139],[8.7754,47.2206],[8.8076,47.2536],[8.8618,47.2505],[8.93,47.2748],[8.9691,47.3173],[8.9324,47.38],[8.9891,47.4335],[9.0303,47.4405],[9.0312,47.4601],[9.0004,47.4819],[9.0276,47.4957],[9.1133,47.4879],[9.1515,47.5076],[9.1991,47.485],[9.2557,47.4774],[9.2897,47.4834],[9.3049,47.5008],[9.2998,47.5158],[9.268,47.5207],[9.3351,47.5354],[9.343,47.5075],[9.3805,47.4814],[9.4384,47.5167],[9.4597,47.4964],[9.5531,47.5169]],[[9.4882,47.3534],[9.4866,47.3936],[9.5405,47.3972],[9.5832,47.4152],[9.5815,47.4244],[9.6084,47.4498],[9.5223,47.4681],[9.4257,47.434],[9.4094,47.4118],[9.226,47.4003],[9.1861,47.3577],[9.218,47.3369],[9.2019,47.3193],[9.2083,47.2905],[9.1966,47.2811],[9.3315,47.2531],[9.3755,47.2397],[9.4377,47.261],[9.4711,47.2964],[9.4882,47.3534]]]}},{"type":"Feature","id":"Thurgau","properties":{"id":"Thurgau","iso_code":"CH-TG","name":"Thurgau","name_full":"Thurgau","name_ja":"トゥールガウ州","center_lonlat":[9.1094,47.5644]},"geometry":{"type":"Polygon","coordinates":[[[8.8519,47.6713],[8.9062,47.6518],[9.0166,47.6789],[9.1834,47.6704],[9.1969,47.6561],[9.2732,47.6501],[9.5475,47.5345],[9.5531,47.5169],[9.4597,47.4964],[9.4384,47.5167],[9.3805,47.4814],[9.343,47.5075],[9.3351,47.5354],[9.268,47.5207],[9.2998,47.5158],[9.3049,47.5008],[9.2897,47.4834],[9.2557,47.4774],[9.1991,47.485],[9.1515,47.5076],[9.1133,47.4879],[9.0276,47.4957],[9.0004,47.4819],[9.0312,47.4601],[9.0303,47.4405],[8.9891,47.4335],[8.9324,47.38],[8.8925,47.4086],[8.9114,47.4364],[8.8743,47.4795],[8.8885,47.5282],[8.8418,47.5441],[8.8275,47.5756],[8.7393,47.6106],[8.7544,47.62],[8.7933,47.6075],[8.8082,47.6219],[8.8202,47.6453],[8.805,47.6674],[8.7885,47.6626],[8.8003,47.6818],[8.8519,47.6713]]]}},{"type":"Feature","id":"Ticino","properties":{"id":"Ticino","iso_code":"CH-TI","name":"Ticino","name_full":"Ticino","name_ja":"ティチーノ州","center_lonlat":[8.7982,46.2935]},"geometry":{"type":"Polygon","coordinates":[[[8.3859,46.4502],[8.396,46.4909],[8.4476,46.5046],[8.4769,46.5318],[8.5098,46.5509],[8.5297,46.5831],[8.6363,46.5712],[8.6779,46.5836],[8.7884,46.5681],[8.8473,46.5752],[8.9077,46.5942],[8.9148,46.6204],[8.953,46.6323],[8.9648,46.6148],[9.0352,46.5962],[9.0152,46.5335],[9.0214,46.5142],[9.0486,46.4809],[9.0773,46.4823],[9.0978,46.4161],[9.0891,46.3637],[9.0565,46.2949],[9.0875,46.2206],[9.1638,46.173],[9.0906,46.1382],[9.0721,46.1189],[9.0592,46.0618],[9.0021,46.0393],[9.0156,45.9931],[8.9805,45.9644],[9.0108,45.9267],[9.0517,45.9155],[9.0631,45.899],[9.0344,45.8481],[9.0024,45.8207],[8.9396,45.8348],[8.9,45.8264],[8.9121,45.8834],[8.871,45.9471],[8.7679,45.9831],[8.8344,46.0664],[8.7939,46.0934],[8.7471,46.0944],[8.7239,46.1095],[8.6775,46.0958],[8.6018,46.1228],[8.5103,46.2079],[8.4381,46.2354],[8.4232,46.2758],[8.4463,46.3822],[8.4416,46.4349],[8.4279,46.4487],[8.3859,46.4502]]]}},{"type":"Feature","id":"Uri","properties":{"id":"Uri","iso_code":"CH-UR","name":"Uri","name_full":"Uri","name_ja":"ウーリ州","center_lonlat":[8.6242,46.7756]},"geometry":{"type":"Polygon","coordinates":[[[8.9303,46.9222],[8.9482,46.8805],[8.8718,46.8459],[8.8717,46.8154],[8.8256,46.7908],[8.8037,46.7372],[8.7488,46.733],[8.7156,46.705],[8.6726,46.6905],[8.6527,46.6388],[8.6734,46.6175],[8.6779,46.5836],[8.6363,46.5712],[8.5297,46.5831],[8.5098,46.5509],[8.4769,46.5318],[8.4374,46.5466],[8.4116,46.5812],[8.4217,46.6459],[8.4094,46.6557],[8.4017,46.6887],[8.4481,46.6948],[8.4366,46.7506],[8.4462,46.7692],[8.4807,46.7809],[8.4706,46.8036],[8.5001,46.8476],[8.4726,46.8557],[8.4594,46.9047],[8.545,46.9432],[8.5617,46.9881],[8.5998,46.9861],[8.6092,46.9596],[8.6874,46.9456],[8.7083,46.923],[8.7612,46.9412],[8.8175,46.9332],[8.8449,46.8902],[8.9303,46.9222]]]}},{"type":"Feature","id":"Valais","properties":{"id":"Valais","iso_code":"CH-VS","name":"Valais","name_full":"Valais","name_ja":"ヴァレー州","center_lonlat":[7.5852,46.2101]},"geometry":{"type":"Polygon","coordinates":[[[6.7881,46.405],[6.8666,46.4027],[6.8945,46.3748],[6.8945,46.3481],[6.931,46.3343],[6.9401,46.3076],[7.0449,46.1899],[7.1702,46.257],[7.196,46.2849],[7.1985,46.3089],[7.2278,46.3314],[7.3083,46.3716],[7.3296,46.3485],[7.4042,46.3786],[7.5096,46.3757],[7.5599,46.3952],[7.541,46.4056],[7.6244,46.4434],[7.7231,46.4202],[7.8449,46.4813],[7.9019,46.4856],[7.9661,46.5157],[7.9652,46.5399],[8.0031,46.5574],[8.1142,46.5472],[8.1844,46.5218],[8.2664,46.5352],[8.3491,46.5735],[8.3795,46.6381],[8.4094,46.6557],[8.4217,46.6459],[8.4116,46.5812],[8.4374,46.5466],[8.4769,46.5318],[8.4476,46.5046],[8.396,46.4909],[8.3859,46.4502],[8.3163,46.4337],[8.2866,46.4054],[8.297,46.3976],[8.2915,46.3784],[8.2417,46.3541],[8.1926,46.3092],[8.0873,46.2718],[8.0731,46.2536],[8.1295,46.196],[8.1323,46.1594],[8.1106,46.127],[8.0253,46.0911],[8.0107,46.0297],[7.9858,45.9993],[7.8838,45.9739],[7.8702,45.9404],[7.8496,45.9397],[7.8437,45.9192],[7.7063,45.9257],[7.643,45.9663],[7.5411,45.9841],[7.5037,45.9567],[7.3938,45.9157],[7.2867,45.9134],[7.1535,45.8765],[7.0669,45.8902],[7.0152,45.9333],[6.9877,45.9931],[6.9151,46.0486],[6.8509,46.0496],[6.8486,46.085],[6.8692,46.1123],[6.7743,46.1348],[6.7657,46.1516],[6.7749,46.1859],[6.8277,46.2695],[6.7504,46.3455],[6.7821,46.3785],[6.7881,46.405]]]}},{"type":"Feature","id":"Vaud","properties":{"id":"Vaud","iso_code":"CH-VD","name":"Vaud","name_full":"Vaud","name_ja":"ヴォー州","center_lonlat":[6.6459,46.5629]},"geometry":{"type":"MultiPolygon","coordinates":[[[[6.1186,46.3318],[6.1351,46.3704],[6.1082,46.3965],[6.0542,46.4194],[6.0676,46.4336],[6.0642,46.4711],[6.1457,46.5516],[6.1184,46.5835],[6.2663,46.6804],[6.4179,46.7511],[6.433,46.7691],[6.4171,46.8022],[6.4431,46.8515],[6.5218,46.8565],[6.7255,46.939],[6.766,46.8453],[6.7746,46.8119],[6.798,46.8003],[6.7935,46.7904],[6.8355,46.7802],[6.9154,46.7841],[6.9299,46.8028],[6.9112,46.8084],[6.9299,46.8554],[6.901,46.8669],[6.924,46.8718],[6.8751,46.9072],[6.9074,46.9255],[6.9637,46.8743],[6.9845,46.8814],[6.9878,46.8496],[7.0014,46.8444],[6.9733,46.8192],[6.9693,46.7951],[6.9201,46.7588],[6.9437,46.7493],[6.94,46.741],[6.8722,46.6643],[6.8092,46.6514],[6.807,46.5807],[6.8599,46.5831],[6.9047,46.5693],[6.8666,46.5371],[6.8281,46.5429],[6.8265,46.5173],[6.8498,46.5037],[6.8948,46.5228],[6.9192,46.5189],[6.9747,46.4904],[7.0003,46.4445],[7.0598,46.4849],[7.1031,46.4921],[7.1552,46.5276],[7.2425,46.5561],[7.2526,46.5127],[7.234,46.486],[7.2315,46.4558],[7.2032,46.4372],[7.2117,46.4092],[7.2004,46.3847],[7.2332,46.3641],[7.2278,46.3314],[7.1985,46.3089],[7.196,46.2849],[7.1702,46.257],[7.0449,46.1899],[6.9401,46.3076],[6.931,46.3343],[6.8945,46.3481],[6.8945,46.3748],[6.8666,46.4027],[6.7881,46.405],[6.7627,46.4293],[6.6137,46.4559],[6.4829,46.4486],[6.3977,46.4082],[6.3016,46.3945],[6.2195,46.3291],[6.2166,46.3095],[6.1742,46.3],[6.1186,46.3318]],[[6.7727,46.7189],[6.7918,46.7329],[6.7868,46.7519],[6.7562,46.7354],[6.7727,46.7189]],[[6.8629,46.7271],[6.8885,46.7519],[6.8596,46.7734],[6.7975,46.7304],[6.8629,46.7271]]],[[[7.0211,46.9897],[7.0624,46.9782],[7.0732,46.9373],[7.1069,46.9009],[7.0844,46.895],[7.0675,46.8658],[7.0415,46.8524],[6.9459,46.9472],[7.0211,46.9897]]]]}},{"type":"Feature","id":"Zug","properties":{"id":"Zug","iso_code":"CH-ZG","name":"Zug","name_full":"Zug","name_ja":"ツーク州","center_lonlat":[8.5291,47.1581]},"geometry":{"type":"Polygon","coordinates":[[[8.4424,47.1133],[8.4056,47.1423],[8.393,47.2195],[8.4074,47.2455],[8.416,47.2266],[8.4624,47.2148],[8.5708,47.2173],[8.6316,47.1722],[8.6835,47.1654],[8.7019,47.1567],[8.6241,47.0964],[8.4978,47.0926],[8.4803,47.1195],[8.4424,47.1133]]]}},{"type":"Feature","id":"Zurich","properties":{"id":"Zurich","iso_code":"CH-ZH","name":"Zurich","name_full":"Zürich","name_ja":"チューリヒ州","center_lonlat":[8.6464,47.4176]},"geometry":{"type":"Polygon","coordinates":[[[8.5936,47.6582],[8.64,47.6963],[8.6832,47.6955],[8.6816,47.6643],[8.7078,47.6472],[8.7486,47.6461],[8.7885,47.6626],[8.805,47.6674],[8.8202,47.6453],[8.8082,47.6219],[8.7933,47.6075],[8.7544,47.62],[8.7393,47.6106],[8.8275,47.5756],[8.8418,47.5441],[8.8885,47.5282],[8.8743,47.4795],[8.9114,47.4364],[8.8925,47.4086],[8.9324,47.38],[8.9691,47.3173],[8.93,47.2748],[8.8618,47.2505],[8.8076,47.2536],[8.7754,47.2206],[8.6931,47.1976],[8.6757,47.1836],[8.6835,47.1654],[8.6316,47.1722],[8.5708,47.2173],[8.4624,47.2148],[8.416,47.2266],[8.4074,47.2455],[8.3825,47.2861],[8.4149,47.2959],[8.4456,47.3328],[8.416,47.3264],[8.402,47.3389],[8.4035,47.3625],[8.3708,47.3783],[8.4035,47.4104],[8.3526,47.4876],[8.3581,47.5168],[8.4211,47.5811],[8.4489,47.5843],[8.4618,47.6061],[8.4924,47.6198],[8.5224,47.6219],[8.5517,47.5969],[8.5294,47.5754],[8.5525,47.5605],[8.5763,47.595],[8.5803,47.639],[8.6016,47.6326],[8.6073,47.6563],[8.5936,47.6582]]]}}]}
