{"type":"FeatureCollection","features":[{"type":"Feature","id":"Al-Hasakah","properties":{"id":"Al-Hasakah","iso_code":"SY-HA","name":"Al-Hasakah","name_full":"Al-Hasakah","name_ja":"ハサカ県","center_lonlat":[40.9074,36.5115]},"geometry":{"type":"Polygon","coordinates":[[[41.3085,35.5522],[40.9995,35.5692],[40.8254,35.6041],[40.775,35.6263],[39.9007,36.3243],[39.8045,36.4637],[39.7825,36.5008],[39.7202,36.5291],[39.6235,36.5607],[39.5382,36.5571],[39.474,36.6195],[39.4417,36.6924],[39.7653,36.7422],[39.9798,36.807],[40.0792,36.8549],[40.1901,36.8844],[40.4139,37.004],[40.5257,37.0259],[40.709,37.1005],[40.8964,37.1227],[41.2013,37.065],[41.4798,37.0756],[42.0092,37.1756],[42.053,37.1966],[42.2112,37.3249],[42.2232,37.2881],[42.2672,37.2745],[42.292,37.2851],[42.3532,37.227],[42.3353,37.1712],[42.3546,37.1524],[42.3772,37.0622],[42.2816,36.994],[41.8173,36.5997],[41.3854,36.5164],[41.277,36.3548],[41.2367,36.0603],[41.3437,35.8577],[41.3593,35.7928],[41.358,35.6239],[41.3085,35.5522]]]}},{"type":"Feature","id":"Al-Raqqah","properties":{"id":"Al-Raqqah","iso_code":"SY-RA","name":"Al-Raqqah","name_full":"Al-Raqqah","name_ja":"ラッカ県","center_lonlat":[38.938,35.9851]},"geometry":{"type":"Polygon","coordinates":[[[39.4417,36.6924],[39.474,36.6195],[39.5382,36.5571],[39.6235,36.5607],[39.7202,36.5291],[39.7825,36.5008],[39.8045,36.4637],[39.6414,35.8643],[39.6308,35.7921],[39.675,35.7709],[39.242,35.2493],[38.6842,35.3723],[38.3903,35.3909],[38.3017,35.3823],[38.2348,35.4359],[38.0214,35.6331],[38.0519,35.7691],[38.0888,35.8369],[38.1619,35.9141],[38.1802,35.9625],[38.085,36.0543],[38.0598,36.134],[38.1367,36.2383],[38.2222,36.2687],[38.4252,36.292],[38.5934,36.383],[38.6434,36.4491],[38.6695,36.5581],[38.6654,36.6381],[38.5915,36.6124],[38.5728,36.6469],[38.5766,36.6627],[38.6406,36.6755],[38.6488,36.6955],[38.6352,36.744],[38.725,36.6939],[38.7954,36.6867],[39.0322,36.7012],[39.1859,36.6595],[39.4417,36.6924]]]}},{"type":"Feature","id":"Aleppo","properties":{"id":"Aleppo","iso_code":"SY-HL","name":"Aleppo","name_full":"Aleppo","name_ja":"アレッポ県","center_lonlat":[37.5985,36.2314]},"geometry":{"type":"Polygon","coordinates":[[[38.6352,36.744],[38.6488,36.6955],[38.6406,36.6755],[38.5766,36.6627],[38.5728,36.6469],[38.5915,36.6124],[38.6654,36.6381],[38.6695,36.5581],[38.6434,36.4491],[38.5934,36.383],[38.4252,36.292],[38.2222,36.2687],[38.1367,36.2383],[38.0598,36.134],[38.085,36.0543],[38.1802,35.9625],[38.1619,35.9141],[38.0888,35.8369],[38.0519,35.7691],[38.0214,35.6331],[38.2348,35.4359],[37.8085,35.4349],[37.679,35.456],[37.5759,35.5113],[37.3534,35.5022],[37.2164,35.5515],[37.1293,35.5916],[37.0922,35.6291],[37.0557,35.7137],[37.0962,35.7424],[37.101,35.7639],[37.0009,35.8215],[36.8887,35.9692],[36.8809,36.0307],[36.7726,36.0772],[36.7262,36.1265],[36.8313,36.2148],[36.839,36.2462],[36.7821,36.2968],[36.7663,36.3322],[36.6488,36.3057],[36.5776,36.3329],[36.5934,36.3735],[36.5527,36.4082],[36.5312,36.479],[36.5653,36.5325],[36.5693,36.6201],[36.6033,36.747],[36.6433,36.8036],[36.6399,36.8281],[36.9647,36.7538],[37.0184,36.7066],[37.0145,36.6423],[37.0531,36.6199],[37.1044,36.651],[37.1561,36.6439],[37.2419,36.6586],[37.4461,36.6342],[37.6541,36.7321],[37.8197,36.7605],[38.0079,36.8258],[38.123,36.8846],[38.2243,36.9084],[38.48,36.8557],[38.5294,36.8337],[38.6352,36.744]]]}},{"type":"Feature","id":"As-Suwayda","properties":{"id":"As-Suwayda","iso_code":"SY-SU","name":"As-Suwayda","name_full":"As-Suwayda","name_ja":"スワイダー県","center_lonlat":[36.833,32.7642]},"geometry":{"type":"Polygon","coordinates":[[[37.4946,32.6901],[36.8194,32.3168],[36.7069,32.3283],[36.6896,32.3197],[36.6535,32.3429],[36.5167,32.357],[36.5273,32.4787],[36.495,32.5196],[36.5066,32.5506],[36.495,32.5662],[36.4581,32.5765],[36.4007,32.5785],[36.4002,32.6266],[36.4436,32.6498],[36.4506,32.6668],[36.3558,32.7074],[36.3681,32.7401],[36.3636,32.8294],[36.3364,32.9014],[36.3432,32.9468],[36.4193,32.997],[36.5437,33.0022],[36.5313,33.0569],[36.488,33.0611],[36.4711,33.152],[36.5048,33.1864],[36.5709,33.194],[36.8238,33.2247],[36.8995,33.1738],[36.9084,33.1489],[36.948,33.114],[36.9607,33.0781],[37.0778,33.0472],[37.1044,33.0305],[37.1326,32.9748],[37.1835,32.9499],[37.2572,32.9463],[37.2717,32.928],[37.2839,32.8626],[37.4946,32.6901]]]}},{"type":"Feature","id":"Damascus","properties":{"id":"Damascus","iso_code":"SY-DI","name":"Damascus","name_full":"Damascus","name_ja":"ダマスカス県","center_lonlat":[36.2807,33.5165]},"geometry":{"type":"Polygon","coordinates":[[[36.3071,33.5641],[36.335,33.5621],[36.3511,33.5439],[36.3431,33.4924],[36.3166,33.4607],[36.2368,33.4891],[36.2143,33.4764],[36.209,33.4865],[36.2303,33.5052],[36.1907,33.5132],[36.1832,33.5315],[36.3071,33.5641]]]}},{"type":"Feature","id":"Daraa","properties":{"id":"Daraa","iso_code":"SY-DR","name":"Daraa","name_full":"Daraa","name_ja":"ダルアー県","center_lonlat":[36.2094,32.8493]},"geometry":{"type":"Polygon","coordinates":[[[35.7697,32.7481],[35.8154,32.7865],[35.8468,32.8358],[35.9418,32.9128],[35.9342,32.9585],[35.9671,32.9638],[35.9873,32.9507],[35.9471,33.0246],[35.9598,33.0948],[35.98,33.1261],[35.953,33.1562],[35.9617,33.2048],[35.9997,33.1792],[36.0254,33.1776],[36.0635,33.1972],[36.147,33.2038],[36.2134,33.2263],[36.2349,33.2909],[36.2802,33.2397],[36.3816,33.1982],[36.4241,33.2478],[36.5108,33.2948],[36.5662,33.2262],[36.5709,33.194],[36.5048,33.1864],[36.4711,33.152],[36.488,33.0611],[36.5313,33.0569],[36.5437,33.0022],[36.4193,32.997],[36.3432,32.9468],[36.3364,32.9014],[36.3636,32.8294],[36.3681,32.7401],[36.3558,32.7074],[36.4506,32.6668],[36.4436,32.6498],[36.4002,32.6266],[36.4007,32.5785],[36.4581,32.5765],[36.495,32.5662],[36.5066,32.5506],[36.495,32.5196],[36.5273,32.4787],[36.5167,32.357],[36.3731,32.3864],[36.1774,32.5273],[36.1559,32.5152],[36.0663,32.5173],[36.006,32.6079],[36.0036,32.6551],[35.9554,32.6574],[35.9375,32.674],[35.9442,32.6908],[35.7697,32.7481]]]}},{"type":"Feature","id":"Deir ez-Zor","properties":{"id":"Deir ez-Zor","iso_code":"SY-DY","name":"Deir ez-Zor","name_full":"Deir ez-Zor","name_ja":"デリゾール県","center_lonlat":[40.2797,35.1553]},"geometry":{"type":"Polygon","coordinates":[[[41.3085,35.5522],[41.2611,35.4942],[41.2431,35.3665],[41.1915,35.1821],[41.2042,34.7931],[40.988,34.4285],[40.936,34.3861],[40.6905,34.3315],[40.1731,34.0723],[39.4445,34.9364],[39.4352,34.9622],[39.4411,35.0293],[39.3744,35.1492],[39.242,35.2493],[39.675,35.7709],[39.6308,35.7921],[39.6414,35.8643],[39.8045,36.4637],[39.9007,36.3243],[40.775,35.6263],[40.8254,35.6041],[40.9995,35.5692],[41.3085,35.5522]]]}},{"type":"Feature","id":"Hama","properties":{"id":"Hama","iso_code":"SY-HM","name":"Hama","name_full":"Hama","name_ja":"ハマー県","center_lonlat":[37.1571,35.2245]},"geometry":{"type":"Polygon","coordinates":[[[37.2164,35.5515],[37.3534,35.5022],[37.5759,35.5113],[37.679,35.456],[37.8085,35.4349],[38.2348,35.4359],[38.3017,35.3823],[38.3,35.2536],[38.2421,35.1545],[38.2432,35.096],[38.1008,35.0379],[38.057,35.0066],[38.0211,34.9208],[37.992,34.8987],[37.852,35.0125],[37.8404,35.0594],[37.8189,35.0872],[37.7786,35.094],[37.7407,35.1186],[37.575,35.0853],[37.5109,35.0517],[37.4973,35.0218],[37.4973,34.9635],[37.4561,34.9869],[37.3767,34.975],[37.3432,34.984],[37.3303,34.965],[37.2924,34.9644],[37.2544,34.9095],[37.2234,34.9166],[37.188,34.9447],[37.1447,34.9143],[37.1069,34.9277],[36.9728,34.8609],[36.9166,34.9583],[36.8736,34.9783],[36.7987,34.9507],[36.7377,34.9484],[36.6493,34.9126],[36.5597,34.9018],[36.515,34.9264],[36.52,34.9503],[36.495,34.9525],[36.4502,34.9082],[36.4395,34.8656],[36.4194,34.8516],[36.3676,34.8703],[36.3404,34.8498],[36.3094,34.8749],[36.32,34.8889],[36.3132,34.9009],[36.2751,34.9308],[36.2601,34.9663],[36.144,34.9753],[36.1368,35.0022],[36.2293,35.0237],[36.257,35.0479],[36.2651,35.0865],[36.253,35.2234],[36.2013,35.4252],[36.2244,35.602],[36.219,35.6445],[36.1994,35.6731],[36.2281,35.6996],[36.2386,35.7444],[36.2548,35.7559],[36.2776,35.7398],[36.3259,35.7471],[36.3479,35.7195],[36.4123,35.7112],[36.3914,35.5827],[36.3929,35.5001],[36.4261,35.4366],[36.4477,35.4316],[36.4871,35.446],[36.5371,35.4082],[36.6994,35.3901],[36.8289,35.417],[36.904,35.3584],[36.9405,35.3661],[36.9976,35.4259],[37.0142,35.4076],[37.0023,35.3673],[37.0096,35.3232],[37.0832,35.3191],[37.1166,35.3465],[37.1421,35.3488],[37.1355,35.4065],[37.1014,35.3847],[37.0778,35.3897],[37.0988,35.4423],[37.1503,35.4718],[37.1948,35.5398],[37.2164,35.5515]]]}},{"type":"Feature","id":"Homs","properties":{"id":"Homs","iso_code":"SY-HI","name":"Homs","name_full":"Homs","name_ja":"ホムス県","center_lonlat":[38.3001,34.3375]},"geometry":{"type":"Polygon","coordinates":[[[36.1121,34.6295],[36.1182,34.6668],[36.1865,34.7687],[36.2734,34.8432],[36.2796,34.8881],[36.3132,34.9009],[36.32,34.8889],[36.3094,34.8749],[36.3404,34.8498],[36.3676,34.8703],[36.4194,34.8516],[36.4395,34.8656],[36.4502,34.9082],[36.495,34.9525],[36.52,34.9503],[36.515,34.9264],[36.5597,34.9018],[36.6493,34.9126],[36.7377,34.9484],[36.7987,34.9507],[36.8736,34.9783],[36.9166,34.9583],[36.9728,34.8609],[37.1069,34.9277],[37.1447,34.9143],[37.188,34.9447],[37.2234,34.9166],[37.2544,34.9095],[37.2924,34.9644],[37.3303,34.965],[37.3432,34.984],[37.3767,34.975],[37.4561,34.9869],[37.4973,34.9635],[37.4973,35.0218],[37.5109,35.0517],[37.575,35.0853],[37.7407,35.1186],[37.7786,35.094],[37.8189,35.0872],[37.8404,35.0594],[37.852,35.0125],[37.992,34.8987],[38.0211,34.9208],[38.057,35.0066],[38.1008,35.0379],[38.2432,35.096],[38.2421,35.1545],[38.3,35.2536],[38.3017,35.3823],[38.3903,35.3909],[38.6842,35.3723],[39.242,35.2493],[39.3744,35.1492],[39.4411,35.0293],[39.4352,34.9622],[39.4445,34.9364],[40.1731,34.0723],[38.3157,33.1312],[37.9082,33.4047],[37.8369,33.4444],[37.7537,33.4647],[37.648,33.5279],[37.5804,33.6043],[37.5468,33.6754],[37.3205,33.8458],[37.2555,33.942],[37.1846,33.9528],[37.069,34.0098],[37.0199,34.051],[36.9667,34.1279],[36.8701,34.2279],[36.7903,34.2024],[36.6645,34.2192],[36.6036,34.2001],[36.574,34.2297],[36.5628,34.2629],[36.582,34.2999],[36.5558,34.3111],[36.5186,34.3536],[36.5251,34.4229],[36.4498,34.4645],[36.4335,34.4943],[36.3354,34.4935],[36.3199,34.5141],[36.3835,34.5538],[36.3889,34.5962],[36.4363,34.5978],[36.4402,34.6294],[36.3675,34.6292],[36.3089,34.6875],[36.2882,34.6756],[36.2807,34.6391],[36.2616,34.6272],[36.1121,34.6295]]]}},{"type":"Feature","id":"Idlib","properties":{"id":"Idlib","iso_code":"SY-ID","name":"Idlib","name_full":"Idlib","name_ja":"イドリブ県","center_lonlat":[36.6781,35.7796]},"geometry":{"type":"Polygon","coordinates":[[[36.6488,36.3057],[36.7663,36.3322],[36.7821,36.2968],[36.839,36.2462],[36.8313,36.2148],[36.7262,36.1265],[36.7726,36.0772],[36.8809,36.0307],[36.8887,35.9692],[37.0009,35.8215],[37.101,35.7639],[37.0962,35.7424],[37.0557,35.7137],[37.0922,35.6291],[37.1293,35.5916],[37.2164,35.5515],[37.1948,35.5398],[37.1503,35.4718],[37.0988,35.4423],[37.0778,35.3897],[37.1014,35.3847],[37.1355,35.4065],[37.1421,35.3488],[37.1166,35.3465],[37.0832,35.3191],[37.0096,35.3232],[37.0023,35.3673],[37.0142,35.4076],[36.9976,35.4259],[36.9405,35.3661],[36.904,35.3584],[36.8289,35.417],[36.6994,35.3901],[36.5371,35.4082],[36.4871,35.446],[36.4477,35.4316],[36.4261,35.4366],[36.3929,35.5001],[36.3914,35.5827],[36.4123,35.7112],[36.3479,35.7195],[36.3259,35.7471],[36.2776,35.7398],[36.2548,35.7559],[36.2875,35.7779],[36.2835,35.7936],[36.162,35.7898],[36.1498,35.798],[36.1553,35.8222],[36.1749,35.9227],[36.1969,35.9517],[36.269,35.9587],[36.2775,35.9942],[36.2974,36.0007],[36.3367,35.9882],[36.358,35.994],[36.3586,36.167],[36.3758,36.2045],[36.3614,36.2182],[36.373,36.2276],[36.3981,36.2082],[36.4507,36.1999],[36.4802,36.2255],[36.5935,36.2181],[36.6643,36.229],[36.6691,36.2599],[36.6488,36.3057]]]}},{"type":"Feature","id":"Latakia","properties":{"id":"Latakia","iso_code":"SY-LA","name":"Latakia","name_full":"Latakia","name_ja":"ラタキア県","center_lonlat":[36.0238,35.5696]},"geometry":{"type":"Polygon","coordinates":[[[36.1553,35.8222],[36.1498,35.798],[36.162,35.7898],[36.2835,35.7936],[36.2875,35.7779],[36.2548,35.7559],[36.2386,35.7444],[36.2281,35.6996],[36.1994,35.6731],[36.219,35.6445],[36.2244,35.602],[36.2013,35.4252],[36.253,35.2234],[36.2011,35.2401],[36.0256,35.2195],[35.9312,35.2615],[35.9153,35.2879],[35.929,35.3215],[35.919,35.4177],[35.8184,35.5089],[35.7705,35.5042],[35.7781,35.5412],[35.7371,35.5617],[35.7433,35.5821],[35.7234,35.5759],[35.7785,35.6127],[35.7844,35.6306],[35.7712,35.6678],[35.8001,35.6815],[35.8403,35.7475],[35.8359,35.79],[35.7986,35.8497],[35.8709,35.8518],[35.9113,35.9177],[35.9803,35.9269],[36.0039,35.8692],[36.0508,35.8654],[36.1385,35.8198],[36.1553,35.8222]]]}},{"type":"Feature","id":"Quneitra","properties":{"id":"Quneitra","iso_code":"SY-QU","name":"Quneitra","name_full":"Quneitra","name_ja":"クネイトラ県","center_lonlat":[35.913,33.0947]},"geometry":{"type":"Polygon","coordinates":[[[35.8468,32.8358],[35.8607,32.8802],[35.9238,32.9677],[35.8771,32.9926],[35.8684,33.1073],[35.9027,33.1096],[35.8919,33.1244],[35.9106,33.1354],[35.9113,33.1658],[35.8849,33.1791],[35.8888,33.1986],[35.8662,33.226],[35.8513,33.2758],[35.8202,33.2806],[35.845,33.3039],[35.843,33.3228],[35.8953,33.2987],[35.8796,33.2687],[35.89,33.2406],[35.907,33.257],[35.9634,33.2479],[35.9617,33.2048],[35.953,33.1562],[35.98,33.1261],[35.9598,33.0948],[35.9471,33.0246],[35.9873,32.9507],[35.9671,32.9638],[35.9342,32.9585],[35.9418,32.9128],[35.8468,32.8358]]]}},{"type":"Feature","id":"Rif Dimashq","properties":{"id":"Rif Dimashq","iso_code":"SY-RD","name":"Rif Dimashq","name_full":"Rif Dimashq","name_ja":"ダマスカス郊外県","center_lonlat":[37.0083,33.4608]},"geometry":{"type":"Polygon","coordinates":[[[36.6036,34.2001],[36.6645,34.2192],[36.7903,34.2024],[36.8701,34.2279],[36.9667,34.1279],[37.0199,34.051],[37.069,34.0098],[37.1846,33.9528],[37.2555,33.942],[37.3205,33.8458],[37.5468,33.6754],[37.5804,33.6043],[37.648,33.5279],[37.7537,33.4647],[37.8369,33.4444],[37.9082,33.4047],[38.3157,33.1312],[37.4946,32.6901],[37.2839,32.8626],[37.2717,32.928],[37.2572,32.9463],[37.1835,32.9499],[37.1326,32.9748],[37.1044,33.0305],[37.0778,33.0472],[36.9607,33.0781],[36.948,33.114],[36.9084,33.1489],[36.8995,33.1738],[36.8238,33.2247],[36.5709,33.194],[36.5662,33.2262],[36.5108,33.2948],[36.4241,33.2478],[36.3816,33.1982],[36.2802,33.2397],[36.2349,33.2909],[36.2134,33.2263],[36.147,33.2038],[36.0635,33.1972],[36.0254,33.1776],[35.9997,33.1792],[35.9617,33.2048],[35.9634,33.2479],[35.907,33.257],[35.89,33.2406],[35.8796,33.2687],[35.8953,33.2987],[35.843,33.3228],[35.8302,33.3648],[35.87,33.4069],[35.8701,33.4312],[35.9195,33.4624],[35.9354,33.4943],[35.9219,33.5146],[35.9332,33.5278],[35.9993,33.5413],[36.0352,33.5678],[36.0297,33.5976],[35.9216,33.6403],[35.9254,33.6617],[35.9472,33.6731],[35.9484,33.7092],[35.994,33.7607],[36.0504,33.8164],[36.1383,33.8506],[36.1657,33.8298],[36.2318,33.8525],[36.3575,33.8238],[36.3676,33.8575],[36.3111,33.872],[36.2689,33.9068],[36.2886,33.9465],[36.3911,34.0447],[36.4752,34.0535],[36.4884,34.0886],[36.6036,34.2001]],[[36.3166,33.4607],[36.3521,33.5144],[36.3511,33.5439],[36.335,33.5621],[36.2216,33.5495],[36.1832,33.5315],[36.1907,33.5132],[36.2303,33.5052],[36.209,33.4865],[36.2143,33.4764],[36.2368,33.4891],[36.3166,33.4607]]]}},{"type":"Feature","id":"Tartus","properties":{"id":"Tartus","iso_code":"SY-TA","name":"Tartus","name_full":"Tartus","name_ja":"タルトゥース県","center_lonlat":[36.073,34.9571]},"geometry":{"type":"Polygon","coordinates":[[[35.9312,35.2615],[36.0256,35.2195],[36.2011,35.2401],[36.253,35.2234],[36.2651,35.0865],[36.257,35.0479],[36.2293,35.0237],[36.1368,35.0022],[36.144,34.9753],[36.2601,34.9663],[36.2751,34.9308],[36.3132,34.9009],[36.2796,34.8881],[36.2734,34.8432],[36.1865,34.7687],[36.1182,34.6668],[36.1121,34.6295],[36.0379,34.6284],[35.9699,34.6498],[35.9312,34.741],[35.929,34.7907],[35.8669,34.9242],[35.8814,34.945],[35.8735,34.9788],[35.9006,35.0219],[35.8879,35.1092],[35.9624,35.1979],[35.9312,35.2615]]]}},{"type":"Feature","id":"Western al-Samadania","properties":{"id":"Western al-Samadania","iso_code":"SY-X01~","name":"Western al-Samadania","name_full":"Western al-Samadania","name_ja":"アンドフ","center_lonlat":[35.8451,33.1609]},"geometry":{"type":"Polygon","coordinates":[[[35.8701,33.4312],[35.87,33.4069],[35.8302,33.3648],[35.843,33.3228],[35.845,33.3039],[35.8202,33.2806],[35.8513,33.2758],[35.8662,33.226],[35.8888,33.1986],[35.8849,33.1791],[35.9113,33.1658],[35.9106,33.1354],[35.8919,33.1244],[35.9027,33.1096],[35.8684,33.1073],[35.8771,32.9926],[35.9238,32.9677],[35.8607,32.8802],[35.8468,32.8358],[35.8154,32.7865],[35.7697,32.7481],[35.7576,32.7443],[35.8342,32.8279],[35.8497,32.8958],[35.8881,32.9449],[35.859,32.9902],[35.8489,33.0987],[35.8115,33.1119],[35.8334,33.1611],[35.8302,33.19],[35.8077,33.2017],[35.8036,33.2485],[35.7686,33.2727],[35.8021,33.3125],[35.7638,33.3344],[35.8099,33.36],[35.8211,33.4067],[35.8701,33.4312]]]}}]}
