{"type":"FeatureCollection","features":[{"type":"Feature","id":"Changhua","properties":{"id":"Changhua","iso_code":"TW-CHA","name":"Changhua","name_full":"Changhua","name_ja":"彰化県","center_lonlat":[120.4812,23.9594]},"geometry":{"type":"Polygon","coordinates":[[[120.2439,23.8385],[120.2575,23.8784],[120.2922,23.9119],[120.3401,24.0218],[120.4119,24.0969],[120.422,24.1522],[120.4754,24.2071],[120.5128,24.1884],[120.5439,24.1211],[120.6055,24.0966],[120.6302,24.04],[120.6672,24.0201],[120.6464,23.9921],[120.6266,23.8542],[120.6343,23.8323],[120.6841,23.806],[120.6474,23.7749],[120.5758,23.7805],[120.5296,23.8014],[120.3851,23.8309],[120.2728,23.8232],[120.2439,23.8385]]]}},{"type":"Feature","id":"Chiayi","properties":{"id":"Chiayi","iso_code":"TW-CYQ","name":"Chiayi","name_full":"Chiayi","name_ja":"嘉義県","center_lonlat":[120.5203,23.4546]},"geometry":{"type":"MultiPolygon","coordinates":[[[[120.1165,23.3179],[120.1489,23.3223],[120.1458,23.3333],[120.1209,23.3297],[120.1301,23.361],[120.1646,23.3617],[120.1348,23.4263],[120.1421,23.4458],[120.1305,23.451],[120.1575,23.4915],[120.125,23.4896],[120.1243,23.52],[120.1685,23.5247],[120.2231,23.5082],[120.2524,23.5466],[120.3306,23.5909],[120.3926,23.6237],[120.4678,23.6388],[120.4941,23.6401],[120.5331,23.6035],[120.5811,23.5873],[120.6268,23.5975],[120.6539,23.5721],[120.7374,23.5871],[120.7407,23.6163],[120.8248,23.5911],[120.812,23.5547],[120.8324,23.4815],[120.9622,23.4754],[120.8597,23.4189],[120.83,23.3775],[120.7535,23.3226],[120.7068,23.2969],[120.6584,23.2973],[120.6448,23.2849],[120.6534,23.2287],[120.6076,23.2359],[120.5538,23.2254],[120.5367,23.2376],[120.5336,23.3294],[120.4959,23.3647],[120.4815,23.3972],[120.4389,23.4139],[120.3192,23.3901],[120.1977,23.3],[120.1165,23.3179]],[[120.4546,23.4453],[120.509,23.4646],[120.4899,23.5022],[120.4531,23.5173],[120.3878,23.5092],[120.3736,23.4949],[120.3769,23.4753],[120.4546,23.4453]]],[[[120.0219,23.4516],[120.1248,23.5505],[120.0903,23.4994],[120.0077,23.4326],[120.0219,23.4516]]]]}},{"type":"Feature","id":"Chiayi (TW-CYI)","properties":{"id":"Chiayi (TW-CYI)","iso_code":"TW-CYI","name":"Chiayi (TW-CYI)","name_full":"Chiayi","name_ja":"嘉義市","center_lonlat":[120.4414,23.4833]},"geometry":{"type":"Polygon","coordinates":[[[120.4531,23.5173],[120.4899,23.5022],[120.509,23.4646],[120.4546,23.4453],[120.3769,23.4753],[120.3736,23.4949],[120.3878,23.5092],[120.4531,23.5173]]]}},{"type":"Feature","id":"Hsinchu","properties":{"id":"Hsinchu","iso_code":"TW-HSQ","name":"Hsinchu","name_full":"Hsinchu","name_ja":"新竹県","center_lonlat":[121.1618,24.6869]},"geometry":{"type":"Polygon","coordinates":[[[120.9146,24.8534],[120.9717,24.9518],[121.0356,24.9513],[121.0684,24.9106],[121.1455,24.8851],[121.1679,24.8377],[121.2206,24.8093],[121.2498,24.8079],[121.3022,24.7636],[121.3095,24.7211],[121.287,24.6569],[121.4123,24.5954],[121.4005,24.5414],[121.333,24.4723],[121.3165,24.436],[121.2626,24.4333],[121.2252,24.5037],[121.2062,24.5175],[121.0696,24.5027],[121.0755,24.6145],[120.9918,24.6613],[120.9602,24.715],[120.9914,24.76],[121.0333,24.7713],[121.0459,24.7887],[121.0242,24.8146],[120.9146,24.8534]]]}},{"type":"Feature","id":"Hsinchu (TW-HSZ)","properties":{"id":"Hsinchu (TW-HSZ)","iso_code":"TW-HSZ","name":"Hsinchu (TW-HSZ)","name_full":"Hsinchu","name_ja":"新竹市","center_lonlat":[120.952,24.7821]},"geometry":{"type":"Polygon","coordinates":[[[120.8727,24.7478],[120.9092,24.8169],[120.9024,24.8368],[120.9146,24.8534],[121.0242,24.8146],[121.0459,24.7887],[121.0333,24.7713],[120.9914,24.76],[120.9602,24.715],[120.9254,24.7164],[120.8727,24.7478]]]}},{"type":"Feature","id":"Hualien","properties":{"id":"Hualien","iso_code":"TW-HUA","name":"Hualien","name_full":"Hualien","name_ja":"花蓮県","center_lonlat":[121.3769,23.7539]},"geometry":{"type":"Polygon","coordinates":[[[121.7633,24.3258],[121.7727,24.3092],[121.6629,24.1931],[121.6074,24.0769],[121.6292,24.015],[121.5215,23.6587],[121.4795,23.4352],[121.4253,23.4205],[121.4106,23.4015],[121.4193,23.3536],[121.329,23.1646],[121.3259,23.1194],[121.3013,23.1063],[121.27,23.1105],[121.2254,23.1442],[121.1905,23.2002],[121.145,23.2087],[121.0731,23.2452],[121.0496,23.2994],[121.0377,23.3348],[120.9887,23.3792],[121.0265,23.4164],[121.0193,23.4367],[121.0539,23.4586],[121.0475,23.4802],[121.0589,23.5036],[121.1349,23.5236],[121.155,23.5401],[121.1752,23.5878],[121.2213,23.6085],[121.2443,23.6993],[121.2361,23.7433],[121.216,23.7713],[121.2744,23.9013],[121.2827,23.9622],[121.268,23.9894],[121.2771,24.0158],[121.3268,24.0892],[121.3221,24.1182],[121.2915,24.1405],[121.2906,24.1751],[121.3496,24.2012],[121.3435,24.2355],[121.3834,24.2686],[121.3998,24.3036],[121.4285,24.3201],[121.4567,24.3727],[121.5796,24.3307],[121.6044,24.3306],[121.6465,24.37],[121.7169,24.3317],[121.7633,24.3258]]]}},{"type":"Feature","id":"Kaohsiung","properties":{"id":"Kaohsiung","iso_code":"TW-KHH","name":"Kaohsiung","name_full":"Kaohsiung","name_ja":"高雄市","center_lonlat":[120.6167,22.9977]},"geometry":{"type":"Polygon","coordinates":[[[120.4119,22.4829],[120.3809,22.4839],[120.3312,22.5197],[120.2852,22.5801],[120.3337,22.5259],[120.3135,22.5771],[120.2458,22.6425],[120.2396,22.6591],[120.2521,22.6896],[120.2,22.7925],[120.2035,22.8397],[120.1755,22.8841],[120.1675,22.9319],[120.1909,22.9448],[120.2065,22.9129],[120.2843,22.8965],[120.3477,22.8961],[120.4017,22.9195],[120.567,23.0931],[120.6534,23.2287],[120.6448,23.2849],[120.6584,23.2973],[120.7068,23.2969],[120.7535,23.3226],[120.83,23.3775],[120.8597,23.4189],[120.9622,23.4754],[121.0009,23.4639],[121.0193,23.4367],[121.0265,23.4164],[120.9887,23.3792],[121.0377,23.3348],[121.0496,23.2994],[120.9902,23.286],[120.9209,23.2405],[120.9261,23.1996],[120.8878,23.1684],[120.881,23.0243],[120.8322,22.9784],[120.8234,22.9443],[120.8285,22.9158],[120.8632,22.8773],[120.868,22.8599],[120.8533,22.8583],[120.8169,22.8608],[120.7845,22.8372],[120.7334,22.8876],[120.6807,22.8608],[120.6309,22.8839],[120.5406,22.8335],[120.4728,22.8372],[120.4314,22.6351],[120.4428,22.5549],[120.4119,22.4829]]]}},{"type":"Feature","id":"Keelung","properties":{"id":"Keelung","iso_code":"TW-KEE","name":"Keelung","name_full":"Keelung","name_ja":"基隆市","center_lonlat":[121.7077,25.1155]},"geometry":{"type":"Polygon","coordinates":[[[121.6893,25.1695],[121.7613,25.1426],[121.7608,25.091],[121.7734,25.0692],[121.729,25.0599],[121.6775,25.0824],[121.6353,25.1312],[121.6331,25.1412],[121.6893,25.1695]]]}},{"type":"Feature","id":"Kinmen","properties":{"id":"Kinmen","iso_code":"TW-KIN","name":"Kinmen","name_full":"Kinmen","name_ja":"金門県","center_lonlat":[118.3759,24.4576]},"geometry":{"type":"Polygon","coordinates":[[[118.3942,24.5227],[118.4226,24.528],[118.4496,24.5055],[118.4674,24.4618],[118.4634,24.4315],[118.4488,24.4155],[118.4036,24.436],[118.3729,24.4332],[118.3182,24.3905],[118.2839,24.4013],[118.2927,24.4321],[118.2821,24.4774],[118.3167,24.4933],[118.3548,24.4706],[118.3814,24.4735],[118.3942,24.5227]]]}},{"type":"Feature","id":"Miaoli","properties":{"id":"Miaoli","iso_code":"TW-MIA","name":"Miaoli","name_full":"Miaoli","name_ja":"苗栗県","center_lonlat":[120.9181,24.4885]},"geometry":{"type":"Polygon","coordinates":[[[120.6213,24.456],[120.6489,24.4839],[120.7022,24.607],[120.7279,24.6139],[120.7781,24.6657],[120.8267,24.6661],[120.823,24.685],[120.8727,24.7478],[120.9254,24.7164],[120.9602,24.715],[120.9918,24.6613],[121.0755,24.6145],[121.0696,24.5027],[121.2062,24.5175],[121.2252,24.5037],[121.2626,24.4333],[121.2415,24.4049],[121.2028,24.3983],[121.1029,24.3295],[121.0431,24.3033],[121.0035,24.3299],[120.943,24.3409],[120.9221,24.3295],[120.9187,24.304],[120.8526,24.292],[120.7556,24.3317],[120.6983,24.3703],[120.6213,24.456]]]}},{"type":"Feature","id":"Nantou","properties":{"id":"Nantou","iso_code":"TW-NAN","name":"Nantou","name_full":"Nantou","name_ja":"南投県","center_lonlat":[120.9865,23.8488]},"geometry":{"type":"Polygon","coordinates":[[[121.3435,24.2355],[121.3496,24.2012],[121.2906,24.1751],[121.2915,24.1405],[121.3221,24.1182],[121.3268,24.0892],[121.2771,24.0158],[121.268,23.9894],[121.2827,23.9622],[121.2744,23.9013],[121.216,23.7713],[121.2361,23.7433],[121.2443,23.6993],[121.2213,23.6085],[121.1752,23.5878],[121.155,23.5401],[121.1349,23.5236],[121.0589,23.5036],[121.0475,23.4802],[121.0539,23.4586],[121.0193,23.4367],[121.0009,23.4639],[120.9622,23.4754],[120.8324,23.4815],[120.812,23.5547],[120.8248,23.5911],[120.7407,23.6163],[120.7308,23.6287],[120.6735,23.6184],[120.6363,23.6436],[120.6547,23.7496],[120.6474,23.7749],[120.6841,23.806],[120.6343,23.8323],[120.6266,23.8542],[120.6464,23.9921],[120.6672,24.0201],[120.7676,24.0131],[120.8294,24.109],[120.8537,24.1196],[120.9151,24.1155],[120.9485,24.1487],[120.9826,24.1255],[120.9959,24.1287],[121.0236,24.1612],[121.0678,24.1674],[121.0979,24.1939],[121.1675,24.2228],[121.257,24.2424],[121.3435,24.2355]]]}},{"type":"Feature","id":"New Taipei","properties":{"id":"New Taipei","iso_code":"TW-TPQ","name":"New Taipei","name_full":"New Taipei","name_ja":"新北市","center_lonlat":[121.5859,24.9981]},"geometry":{"type":"Polygon","coordinates":[[[121.7613,25.1426],[121.9051,25.1066],[121.8999,25.066],[121.9192,25.022],[121.9675,25.0211],[122.0054,25.0019],[121.9723,24.9871],[121.9341,24.9932],[121.8458,24.9614],[121.8437,24.9259],[121.7988,24.9048],[121.7555,24.8609],[121.6166,24.8002],[121.5913,24.7693],[121.5973,24.737],[121.4833,24.6811],[121.44,24.7291],[121.4316,24.7663],[121.4491,24.7973],[121.4171,24.8399],[121.3501,24.8553],[121.3514,24.8962],[121.3269,24.9313],[121.3302,24.9726],[121.3939,24.9998],[121.4086,25.0402],[121.3891,25.0659],[121.2874,25.1237],[121.3874,25.1593],[121.4123,25.1555],[121.43,25.1316],[121.4432,25.1364],[121.3958,25.1828],[121.3991,25.1921],[121.4613,25.2619],[121.5397,25.2874],[121.5979,25.2714],[121.6497,25.1971],[121.6844,25.2005],[121.6764,25.1794],[121.6893,25.1695],[121.6331,25.1412],[121.6353,25.1312],[121.6775,25.0824],[121.729,25.0599],[121.7734,25.0692],[121.7608,25.091],[121.7613,25.1426]],[[121.6028,24.9706],[121.6552,25.0244],[121.6236,25.0442],[121.6291,25.0845],[121.6081,25.1117],[121.5869,25.1941],[121.5645,25.2059],[121.4967,25.1681],[121.4622,25.1202],[121.4985,25.0866],[121.497,25.0395],[121.5121,25.0163],[121.5624,24.9745],[121.6028,24.9706]]]}},{"type":"Feature","id":"Penghu","properties":{"id":"Penghu","iso_code":"TW-PEN","name":"Penghu","name_full":"Penghu","name_ja":"澎湖県","center_lonlat":[119.5988,23.567]},"geometry":{"type":"MultiPolygon","coordinates":[[[[119.648,23.6035],[119.6685,23.5488],[119.6406,23.5635],[119.6097,23.5519],[119.6001,23.5284],[119.564,23.5166],[119.5271,23.54],[119.532,23.5488],[119.5574,23.5346],[119.5872,23.5488],[119.5593,23.5693],[119.5524,23.5625],[119.5524,23.5904],[119.6131,23.6103],[119.6063,23.5904],[119.648,23.6035]]],[[[119.4771,23.6035],[119.5013,23.6504],[119.5173,23.6376],[119.5012,23.6198],[119.4917,23.571],[119.4424,23.5625],[119.4745,23.5797],[119.4771,23.6035]]],[[[119.5726,23.6277],[119.5453,23.6649],[119.5664,23.6792],[119.5962,23.6533],[119.5851,23.6247],[119.5726,23.6277]]]]}},{"type":"Feature","id":"Pingtung","properties":{"id":"Pingtung","iso_code":"TW-PIF","name":"Pingtung","name_full":"Pingtung","name_ja":"屏東県","center_lonlat":[120.6745,22.4886]},"geometry":{"type":"Polygon","coordinates":[[[120.876,22.2377],[120.8792,22.0558],[120.8636,22.0089],[120.8357,21.9872],[120.8403,21.9046],[120.8231,21.9286],[120.7674,21.9593],[120.7373,21.9661],[120.7361,21.9428],[120.7144,21.9375],[120.7004,21.9484],[120.7044,21.9814],[120.6817,22.0225],[120.697,22.1132],[120.6213,22.2951],[120.5697,22.3738],[120.5181,22.407],[120.512,22.4247],[120.4119,22.4829],[120.4428,22.5549],[120.4314,22.6351],[120.4728,22.8372],[120.5406,22.8335],[120.6309,22.8839],[120.6807,22.8608],[120.7334,22.8876],[120.7845,22.8372],[120.8169,22.8608],[120.8533,22.8583],[120.8692,22.8182],[120.9106,22.8008],[120.8994,22.7343],[120.8918,22.7169],[120.787,22.6714],[120.7522,22.5989],[120.7655,22.4591],[120.7932,22.4219],[120.7634,22.3973],[120.7535,22.3676],[120.7886,22.3324],[120.8027,22.2702],[120.82,22.2531],[120.876,22.2377]]]}},{"type":"Feature","id":"Taichung City","properties":{"id":"Taichung City","iso_code":"TW-TXG","name":"Taichung City","name_full":"Taichung City","name_ja":"台中市","center_lonlat":[120.8914,24.2452]},"geometry":{"type":"Polygon","coordinates":[[[120.4754,24.2071],[120.5581,24.3859],[120.6213,24.456],[120.6983,24.3703],[120.7556,24.3317],[120.8526,24.292],[120.9187,24.304],[120.9221,24.3295],[120.943,24.3409],[121.0035,24.3299],[121.0431,24.3033],[121.1029,24.3295],[121.2028,24.3983],[121.2415,24.4049],[121.2626,24.4333],[121.3165,24.436],[121.3304,24.4326],[121.3333,24.4004],[121.3829,24.3791],[121.4345,24.389],[121.4567,24.3727],[121.4285,24.3201],[121.3998,24.3036],[121.3834,24.2686],[121.3435,24.2355],[121.257,24.2424],[121.1675,24.2228],[121.0979,24.1939],[121.0678,24.1674],[121.0236,24.1612],[120.9959,24.1287],[120.9826,24.1255],[120.9485,24.1487],[120.9151,24.1155],[120.8537,24.1196],[120.8294,24.109],[120.7676,24.0131],[120.6672,24.0201],[120.6302,24.04],[120.6055,24.0966],[120.5439,24.1211],[120.5128,24.1884],[120.4754,24.2071]]]}},{"type":"Feature","id":"Tainan","properties":{"id":"Tainan","iso_code":"TW-TNN","name":"Tainan","name_full":"Tainan","name_ja":"台南市","center_lonlat":[120.333,23.1531]},"geometry":{"type":"Polygon","coordinates":[[[120.1675,22.9319],[120.1421,22.9803],[120.1703,23.0134],[120.1662,23.0317],[120.1421,23.0349],[120.1267,23.0071],[120.1141,23.0076],[120.1079,23.0486],[120.0925,23.0548],[120.0663,23.0349],[120.0524,23.0558],[120.0594,23.0759],[120.1004,23.097],[120.0594,23.1107],[120.0892,23.1177],[120.0594,23.151],[120.0869,23.182],[120.0786,23.207],[120.1089,23.2867],[120.1247,23.295],[120.1105,23.3037],[120.1165,23.3179],[120.1977,23.3],[120.3192,23.3901],[120.4389,23.4139],[120.4815,23.3972],[120.4959,23.3647],[120.5336,23.3294],[120.5367,23.2376],[120.5538,23.2254],[120.6076,23.2359],[120.6534,23.2287],[120.567,23.0931],[120.4017,22.9195],[120.3477,22.8961],[120.2843,22.8965],[120.2065,22.9129],[120.1909,22.9448],[120.1675,22.9319]]]}},{"type":"Feature","id":"Taipei","properties":{"id":"Taipei","iso_code":"TW-TPE","name":"Taipei","name_full":"Taipei","name_ja":"台北市","center_lonlat":[121.5585,25.0836]},"geometry":{"type":"Polygon","coordinates":[[[121.5645,25.2059],[121.5869,25.1941],[121.6081,25.1117],[121.6291,25.0845],[121.6236,25.0442],[121.6552,25.0244],[121.6028,24.9706],[121.5624,24.9745],[121.5121,25.0163],[121.497,25.0395],[121.4985,25.0866],[121.4622,25.1202],[121.4967,25.1681],[121.5645,25.2059]]]}},{"type":"Feature","id":"Taitung","properties":{"id":"Taitung","iso_code":"TW-TTT","name":"Taitung","name_full":"Taitung","name_ja":"台東県","center_lonlat":[121.0308,22.8798]},"geometry":{"type":"MultiPolygon","coordinates":[[[[121.4795,23.4352],[121.4622,23.343],[121.4089,23.2546],[121.4001,23.1455],[121.3816,23.1107],[121.3474,23.0833],[121.2996,22.9592],[121.2556,22.8978],[121.1903,22.8432],[121.1903,22.8022],[121.1594,22.7575],[121.021,22.6479],[120.9483,22.5268],[120.9229,22.4247],[120.8814,22.3459],[120.876,22.2377],[120.82,22.2531],[120.8027,22.2702],[120.7886,22.3324],[120.7535,22.3676],[120.7634,22.3973],[120.7932,22.4219],[120.7655,22.4591],[120.7522,22.5989],[120.787,22.6714],[120.8918,22.7169],[120.8994,22.7343],[120.9106,22.8008],[120.8692,22.8182],[120.8533,22.8583],[120.868,22.8599],[120.8632,22.8773],[120.8285,22.9158],[120.8234,22.9443],[120.8322,22.9784],[120.881,23.0243],[120.8878,23.1684],[120.9261,23.1996],[120.9209,23.2405],[120.9902,23.286],[121.0496,23.2994],[121.0731,23.2452],[121.145,23.2087],[121.1905,23.2002],[121.2254,23.1442],[121.27,23.1105],[121.3013,23.1063],[121.3259,23.1194],[121.329,23.1646],[121.4193,23.3536],[121.4106,23.4015],[121.4253,23.4205],[121.4795,23.4352]]],[[[121.5635,22.0446],[121.5877,22.0139],[121.5669,22.0078],[121.5132,22.0351],[121.4983,22.048],[121.492,22.0822],[121.5666,22.0822],[121.5635,22.0446]]],[[[121.4607,22.659],[121.4575,22.6759],[121.5028,22.6695],[121.4961,22.6347],[121.4714,22.6418],[121.4607,22.659]]]]}},{"type":"Feature","id":"Taoyuan","properties":{"id":"Taoyuan","iso_code":"TW-TAO","name":"Taoyuan","name_full":"Taoyuan","name_ja":"桃園市","center_lonlat":[121.2637,24.8992]},"geometry":{"type":"Polygon","coordinates":[[[120.9717,24.9518],[121.0593,25.0502],[121.2109,25.1112],[121.2874,25.1237],[121.3891,25.0659],[121.4086,25.0402],[121.3939,24.9998],[121.3302,24.9726],[121.3269,24.9313],[121.3514,24.8962],[121.3501,24.8553],[121.4171,24.8399],[121.4491,24.7973],[121.4316,24.7663],[121.44,24.7291],[121.4833,24.6811],[121.4512,24.6646],[121.4631,24.6216],[121.4545,24.6084],[121.4123,24.5954],[121.287,24.6569],[121.3095,24.7211],[121.3022,24.7636],[121.2498,24.8079],[121.2206,24.8093],[121.1679,24.8377],[121.1455,24.8851],[121.0684,24.9106],[121.0356,24.9513],[120.9717,24.9518]]]}},{"type":"Feature","id":"Yilan","properties":{"id":"Yilan","iso_code":"TW-ILA","name":"Yilan","name_full":"Yilan","name_ja":"宜蘭県","center_lonlat":[121.6363,24.5785]},"geometry":{"type":"Polygon","coordinates":[[[121.9723,24.9871],[121.9058,24.9501],[121.8347,24.8715],[121.8146,24.8317],[121.815,24.6444],[121.828,24.6228],[121.8818,24.5978],[121.8408,24.5903],[121.856,24.5505],[121.8528,24.531],[121.8301,24.5192],[121.84,24.4813],[121.78,24.4327],[121.7633,24.3258],[121.7169,24.3317],[121.6465,24.37],[121.6044,24.3306],[121.5796,24.3307],[121.4567,24.3727],[121.4345,24.389],[121.3829,24.3791],[121.3333,24.4004],[121.3304,24.4326],[121.3165,24.436],[121.333,24.4723],[121.4005,24.5414],[121.4123,24.5954],[121.4545,24.6084],[121.4631,24.6216],[121.4512,24.6646],[121.4833,24.6811],[121.5973,24.737],[121.5913,24.7693],[121.6166,24.8002],[121.7555,24.8609],[121.7988,24.9048],[121.8437,24.9259],[121.8458,24.9614],[121.9341,24.9932],[121.9723,24.9871]]]}},{"type":"Feature","id":"Yunlin","properties":{"id":"Yunlin","iso_code":"TW-YUN","name":"Yunlin","name_full":"Yunlin","name_ja":"雲林県","center_lonlat":[120.3898,23.689]},"geometry":{"type":"Polygon","coordinates":[[[120.1243,23.52],[120.1417,23.5379],[120.1436,23.638],[120.1844,23.7644],[120.2439,23.8385],[120.2728,23.8232],[120.3851,23.8309],[120.5296,23.8014],[120.5758,23.7805],[120.6474,23.7749],[120.6547,23.7496],[120.6363,23.6436],[120.6735,23.6184],[120.7308,23.6287],[120.7407,23.6163],[120.7374,23.5871],[120.6539,23.5721],[120.6268,23.5975],[120.5811,23.5873],[120.5331,23.6035],[120.4941,23.6401],[120.4678,23.6388],[120.3926,23.6237],[120.3306,23.5909],[120.2524,23.5466],[120.2231,23.5082],[120.1685,23.5247],[120.1243,23.52]]]}}]}
