{"type":"FeatureCollection","features":[{"type":"Feature","id":"Dushanbe","properties":{"id":"Dushanbe","iso_code":"TJ-DU","name":"Dushanbe","name_full":"Dushanbe","name_ja":"ドゥシャンベ","center_lonlat":[68.7722,38.5498]},"geometry":{"type":"Polygon","coordinates":[[[68.7645,38.6582],[68.8102,38.5808],[68.8612,38.5571],[68.8429,38.5297],[68.7856,38.5006],[68.786,38.4738],[68.748,38.4693],[68.7296,38.4796],[68.7184,38.5517],[68.6893,38.5499],[68.7153,38.5642],[68.7095,38.5911],[68.7578,38.6067],[68.7645,38.6582]]]}},{"type":"Feature","id":"Gorno-Badakhshan","properties":{"id":"Gorno-Badakhshan","iso_code":"TJ-GB","name":"Gorno-Badakhshan","name_full":"Gorno-Badakhshan","name_ja":"ゴルノ・バダフシャン自治州","center_lonlat":[72.8815,38.1067]},"geometry":{"type":"Polygon","coordinates":[[[70.2986,37.9981],[70.2738,38.0355],[70.3413,38.156],[70.3362,38.2635],[70.359,38.3368],[70.3382,38.3846],[70.3419,38.4183],[70.3556,38.442],[70.4241,38.4879],[70.4391,38.5157],[70.499,38.5588],[70.5169,38.5927],[70.5935,38.6581],[70.5906,38.683],[70.5451,38.7173],[70.6478,38.7755],[70.7327,38.804],[70.758,38.789],[70.7726,38.7602],[70.8587,38.762],[70.9932,38.8062],[71.0126,38.7966],[71.0104,38.7677],[71.0512,38.6988],[71.0333,38.6287],[71.0418,38.6066],[71.1782,38.6083],[71.2024,38.5902],[71.2162,38.5409],[71.2778,38.489],[71.3722,38.5137],[71.4269,38.4751],[71.4652,38.5196],[71.527,38.529],[71.5329,38.5741],[71.561,38.5878],[71.6046,38.6375],[71.72,38.6541],[71.7508,38.646],[71.7778,38.6759],[71.8474,38.7124],[71.9742,38.736],[72.0627,38.8081],[72.0337,38.8329],[72.0074,38.8847],[72.027,38.9567],[72.1146,39.0275],[72.1311,39.0859],[72.2205,39.1281],[72.2287,39.1895],[72.2403,39.1899],[72.3163,39.3288],[72.3932,39.3508],[72.4767,39.3461],[72.519,39.3757],[72.5758,39.3593],[72.6337,39.3945],[72.8353,39.3562],[72.8937,39.3639],[73.0093,39.3486],[73.0711,39.3707],[73.1679,39.3554],[73.3264,39.3909],[73.3432,39.4307],[73.3676,39.4438],[73.5122,39.4674],[73.6326,39.4483],[73.6438,39.3513],[73.6023,39.2358],[73.6078,39.2073],[73.6738,39.1426],[73.7093,39.0655],[73.8261,38.9769],[73.8239,38.9449],[73.8096,38.9327],[73.7172,38.9186],[73.6808,38.873],[73.6837,38.8549],[73.7359,38.8004],[73.7364,38.7217],[73.7723,38.6746],[73.7974,38.6028],[73.9329,38.5297],[74.0289,38.5272],[74.0588,38.547],[74.0373,38.5985],[74.0844,38.614],[74.095,38.6458],[74.1234,38.6695],[74.2214,38.6497],[74.3342,38.667],[74.6461,38.5611],[74.6965,38.524],[74.7603,38.52],[74.8262,38.4696],[74.8441,38.3978],[74.8267,38.3632],[74.7843,38.3257],[74.7711,38.2915],[74.7713,38.1963],[74.7907,38.0814],[74.8099,38.0532],[74.8804,38.0217],[74.8928,37.994],[74.8908,37.8977],[74.9137,37.8808],[74.8832,37.8439],[74.8861,37.8306],[74.9493,37.7953],[74.9652,37.7675],[74.8861,37.6535],[74.8919,37.5992],[74.9452,37.5486],[75.0534,37.4938],[75.104,37.4406],[75.1641,37.4006],[75.0918,37.3784],[75.0684,37.3121],[74.9515,37.2813],[74.8923,37.2311],[74.8626,37.2446],[74.7885,37.3312],[74.6604,37.394],[74.6314,37.3811],[74.5212,37.3756],[74.4548,37.3936],[74.3781,37.3938],[74.3438,37.421],[74.3209,37.4139],[74.3156,37.4269],[74.3038,37.4002],[74.2239,37.4034],[74.1876,37.3384],[73.8362,37.2567],[73.7982,37.2285],[73.7461,37.2305],[73.7092,37.217],[73.6805,37.2425],[73.6177,37.2332],[73.6016,37.2409],[73.5973,37.2618],[73.631,37.296],[73.6904,37.3052],[73.7391,37.3383],[73.7535,37.4284],[73.6745,37.431],[73.4853,37.481],[73.4406,37.4799],[73.3784,37.4525],[73.2963,37.4649],[73.2115,37.4083],[73.1702,37.4083],[73.1321,37.3844],[73.0675,37.3151],[72.9956,37.3093],[72.9022,37.2538],[72.7907,37.2203],[72.6577,37.0288],[72.475,36.9975],[72.4059,37.0077],[72.2598,36.9673],[72.1267,36.8727],[71.8366,36.6992],[71.6999,36.6786],[71.6111,36.7048],[71.5639,36.7507],[71.5285,36.8561],[71.4631,36.9481],[71.46,37.0107],[71.4332,37.0547],[71.4501,37.2167],[71.487,37.2671],[71.4939,37.3075],[71.4871,37.4091],[71.5112,37.4859],[71.4972,37.5665],[71.5015,37.6103],[71.5221,37.6376],[71.5409,37.7097],[71.5295,37.7611],[71.5903,37.8157],[71.5977,37.8984],[71.5371,37.9445],[71.5012,37.9462],[71.3412,37.8933],[71.2583,37.9265],[71.2726,37.998],[71.3345,38.1117],[71.3645,38.2068],[71.3582,38.2513],[71.3344,38.2807],[71.2177,38.3258],[71.1174,38.3986],[71.0498,38.4087],[70.9868,38.4709],[70.9507,38.4731],[70.9362,38.433],[70.871,38.4532],[70.843,38.4402],[70.7611,38.4435],[70.7418,38.4194],[70.6649,38.4054],[70.6848,38.3867],[70.6767,38.3749],[70.6321,38.3501],[70.6,38.3471],[70.5831,38.2751],[70.5472,38.2627],[70.4703,38.1205],[70.4154,38.0945],[70.2986,37.9981]]]}},{"type":"Feature","id":"Khatlon","properties":{"id":"Khatlon","iso_code":"TJ-KT","name":"Khatlon","name_full":"Khatlon","name_ja":"ハトロン州","center_lonlat":[69.1336,37.8259]},"geometry":{"type":"Polygon","coordinates":[[[68.238,37.9427],[68.2898,37.9066],[68.4096,37.9182],[68.4291,37.9025],[68.4607,37.9102],[68.4918,37.983],[68.5437,38.0194],[68.5492,38.0841],[68.5188,38.1022],[68.582,38.1943],[68.5853,38.2405],[68.5697,38.2895],[68.6093,38.3282],[68.7139,38.3178],[68.78,38.3531],[68.822,38.3268],[68.8736,38.3399],[68.9269,38.3929],[68.9943,38.4123],[69.1308,38.4187],[69.1811,38.4365],[69.2157,38.4243],[69.2337,38.3862],[69.3347,38.3755],[69.3156,38.3492],[69.3197,38.3319],[69.3738,38.3253],[69.477,38.413],[69.6063,38.4932],[69.7073,38.6119],[69.7405,38.6156],[69.7704,38.5911],[69.8062,38.5987],[69.8495,38.6553],[69.9095,38.705],[69.9869,38.7338],[70.033,38.7242],[70.1196,38.6496],[70.1604,38.6318],[70.164,38.5459],[70.2291,38.5995],[70.3533,38.6067],[70.4179,38.5653],[70.4391,38.5157],[70.4241,38.4879],[70.3556,38.442],[70.3419,38.4183],[70.3382,38.3846],[70.359,38.3368],[70.3362,38.2635],[70.3413,38.156],[70.2738,38.0355],[70.2986,37.9981],[70.2539,37.9734],[70.2615,37.9393],[70.2147,37.9293],[70.1721,37.9461],[70.1605,37.9207],[70.1792,37.8608],[70.196,37.8399],[70.2403,37.8276],[70.2751,37.7742],[70.2831,37.7048],[70.2483,37.6233],[70.2165,37.6171],[70.1994,37.5793],[70.1579,37.5414],[70.1291,37.5323],[70.0076,37.5488],[69.9895,37.5673],[69.9554,37.5755],[69.9188,37.6171],[69.8022,37.5815],[69.7543,37.5967],[69.665,37.5762],[69.5087,37.579],[69.4914,37.537],[69.4254,37.4943],[69.3784,37.4374],[69.377,37.3807],[69.3912,37.3707],[69.3864,37.3415],[69.4179,37.2677],[69.4099,37.2457],[69.4452,37.2364],[69.4421,37.2236],[69.4077,37.1775],[69.3239,37.121],[69.2457,37.1039],[69.1236,37.1692],[69.0964,37.213],[69.0358,37.2516],[69.021,37.288],[68.9852,37.3204],[68.8879,37.3381],[68.9176,37.3024],[68.9158,37.2791],[68.8903,37.282],[68.8568,37.3249],[68.8358,37.3291],[68.8102,37.3121],[68.8204,37.2509],[68.7596,37.2752],[68.6689,37.2783],[68.6575,37.2677],[68.6712,37.2472],[68.6486,37.2444],[68.6269,37.2063],[68.5515,37.1926],[68.5239,37.1647],[68.4037,37.1516],[68.418,37.1283],[68.3919,37.1054],[68.3073,37.1142],[68.2883,37.1032],[68.2883,37.0244],[68.2778,37.0101],[68.1864,37.0183],[68.0549,36.9346],[68.0202,36.9257],[67.9618,36.9899],[67.9184,37.0138],[67.8781,37.0644],[67.808,37.0832],[67.7731,37.11],[67.7805,37.1889],[67.8206,37.3033],[67.7973,37.4244],[67.8012,37.4664],[67.8719,37.5868],[68.0502,37.7604],[68.1222,37.9083],[68.14,37.9227],[68.238,37.9427]]]}},{"type":"Feature","id":"Khujand","properties":{"id":"Khujand","iso_code":"TJ-SU","name":"Khujand","name_full":"Khujand","name_ja":"ホジェンド","center_lonlat":[69.2165,39.7925]},"geometry":{"type":"MultiPolygon","coordinates":[[[[70.6556,39.4946],[70.6034,39.4661],[70.587,39.4416],[70.5047,39.4262],[70.485,39.402],[70.3687,39.3776],[70.2858,39.3904],[70.2552,39.3602],[70.1245,39.3067],[70.111,39.3381],[70.0945,39.3418],[70.022,39.3132],[69.99,39.3319],[69.8809,39.3193],[69.8461,39.2812],[69.8082,39.2636],[69.7776,39.2699],[69.7568,39.2949],[69.7363,39.2934],[69.6665,39.2616],[69.6938,39.2225],[69.6813,39.1632],[69.6483,39.1363],[69.6516,39.115],[69.559,39.0721],[69.5428,39.0858],[69.5475,39.1433],[69.5004,39.1858],[69.4029,39.1803],[69.3652,39.1587],[69.3469,39.0991],[69.2166,39.0968],[69.0655,39.0304],[68.921,39.06],[68.804,39.0602],[68.7607,39.0755],[68.6658,39.0469],[68.5901,39.0481],[68.5668,39.0],[68.5099,38.9511],[68.4748,38.9401],[68.3678,38.9196],[68.3199,38.9306],[68.1534,38.8994],[68.0853,38.994],[68.0198,38.9797],[67.9489,39.002],[67.8184,38.9734],[67.6905,38.9896],[67.6722,39.0038],[67.6672,39.0284],[67.6786,39.1059],[67.6676,39.1318],[67.6377,39.1315],[67.6198,39.1513],[67.5803,39.1636],[67.499,39.166],[67.3782,39.1995],[67.3501,39.2198],[67.3465,39.2808],[67.3869,39.2942],[67.4273,39.4766],[67.4912,39.4901],[67.4876,39.538],[67.5074,39.5529],[67.5874,39.5627],[67.7176,39.6234],[68.1062,39.5541],[68.2559,39.5506],[68.3376,39.5279],[68.4363,39.5288],[68.5174,39.5484],[68.5067,39.5676],[68.6003,39.6429],[68.6262,39.8496],[68.6511,39.8447],[68.6851,39.868],[68.7416,39.8196],[68.7575,39.8575],[68.7874,39.8817],[68.7556,39.954],[68.7589,39.9806],[68.7798,39.9694],[68.8383,39.8646],[68.8808,39.8783],[68.8774,39.9006],[68.7894,39.994],[68.785,40.0339],[68.7617,40.0615],[68.7747,40.0799],[68.8131,40.0389],[68.8818,40.0708],[68.9773,40.0649],[68.987,40.0917],[68.9773,40.121],[68.9307,40.1468],[68.6871,40.1103],[68.5811,40.1642],[68.6983,40.195],[68.8019,40.1911],[68.8566,40.2127],[69.0192,40.2321],[69.1979,40.183],[69.2477,40.1817],[69.2853,40.195],[69.2853,40.2186],[69.2125,40.2688],[69.2084,40.2983],[69.3053,40.2938],[69.3127,40.3428],[69.2383,40.494],[69.198,40.5458],[69.1984,40.5665],[69.2343,40.5853],[69.3093,40.5958],[69.3142,40.7293],[69.3551,40.7804],[69.4178,40.8042],[69.5092,40.7747],[69.6601,40.6387],[69.7177,40.6363],[69.8033,40.7056],[70.0097,40.758],[70.1042,40.8133],[70.2804,40.8777],[70.3359,40.927],[70.3635,41.0324],[70.4012,41.04],[70.4457,41.0259],[70.7051,40.8074],[70.7032,40.7889],[70.6487,40.8175],[70.6287,40.8159],[70.6218,40.786],[70.6374,40.7706],[70.7671,40.7376],[70.7562,40.6951],[70.7321,40.675],[70.6172,40.6119],[70.5693,40.5704],[70.5255,40.5571],[70.4778,40.5055],[70.3696,40.4755],[70.3538,40.4561],[70.357,40.4304],[70.3849,40.3997],[70.3714,40.3649],[70.4422,40.3433],[70.524,40.3437],[70.5506,40.3105],[70.5818,40.2217],[70.6221,40.1996],[70.7072,40.2002],[70.8497,40.2338],[70.9383,40.2399],[70.959,40.2384],[70.9795,40.2141],[70.9629,40.1897],[70.8985,40.1626],[70.8452,40.1718],[70.7921,40.1614],[70.7298,40.1207],[70.6659,40.1042],[70.6394,40.0849],[70.636,40.0285],[70.614,39.9758],[70.5766,39.9522],[70.5009,39.9406],[70.4772,39.9009],[70.4556,39.9068],[70.4509,39.9374],[70.4732,39.9701],[70.5209,39.9937],[70.5356,40.016],[70.5255,40.0337],[70.3243,40.0775],[70.2415,40.1327],[70.1472,40.137],[70.0046,40.2088],[69.9696,40.2116],[69.5755,40.1036],[69.543,40.1031],[69.518,40.1251],[69.4631,40.0254],[69.5016,39.9225],[69.4054,39.8961],[69.3573,39.9595],[69.3278,39.9847],[69.3103,39.9848],[69.2407,39.8289],[69.2263,39.751],[69.2875,39.6778],[69.2862,39.5397],[69.3003,39.5156],[69.3397,39.5281],[69.3616,39.5529],[69.4122,39.525],[69.5144,39.5376],[69.5823,39.5736],[69.6694,39.5778],[69.8304,39.5362],[69.9078,39.5485],[69.9788,39.5344],[70.0404,39.5736],[70.1324,39.55],[70.149,39.5543],[70.2007,39.6195],[70.2148,39.5911],[70.206,39.5241],[70.2233,39.5191],[70.3303,39.5731],[70.3843,39.5709],[70.4772,39.6012],[70.5261,39.5756],[70.5978,39.5778],[70.6221,39.5635],[70.6556,39.4946]]],[[[70.4837,39.8822],[70.6199,39.8507],[70.6989,39.8584],[70.7048,39.8221],[70.5816,39.7666],[70.4901,39.8502],[70.4837,39.8822]]],[[[70.5659,41.0184],[70.6167,40.9935],[70.6451,40.9352],[70.6252,40.9387],[70.5615,40.9946],[70.5498,41.0152],[70.5659,41.0184]]]]}},{"type":"Feature","id":"districts of Republican Subordination","properties":{"id":"districts of Republican Subordination","iso_code":"TJ-X01~","name":"districts of Republican Subordination","name_full":"districts of Republican Subordination","name_ja":"共和国直轄地","center_lonlat":[70.1229,38.8868]},"geometry":{"type":"Polygon","coordinates":[[[72.2287,39.1895],[72.2205,39.1281],[72.1311,39.0859],[72.1146,39.0275],[72.027,38.9567],[72.0074,38.8847],[72.0337,38.8329],[72.0627,38.8081],[71.9742,38.736],[71.8474,38.7124],[71.7778,38.6759],[71.7508,38.646],[71.72,38.6541],[71.6046,38.6375],[71.561,38.5878],[71.5329,38.5741],[71.527,38.529],[71.4652,38.5196],[71.4269,38.4751],[71.3722,38.5137],[71.2778,38.489],[71.2162,38.5409],[71.2024,38.5902],[71.1782,38.6083],[71.0418,38.6066],[71.0333,38.6287],[71.0512,38.6988],[71.0104,38.7677],[71.0126,38.7966],[70.9932,38.8062],[70.8587,38.762],[70.7726,38.7602],[70.758,38.789],[70.7327,38.804],[70.6478,38.7755],[70.5451,38.7173],[70.5906,38.683],[70.5935,38.6581],[70.5169,38.5927],[70.499,38.5588],[70.4391,38.5157],[70.4179,38.5653],[70.3533,38.6067],[70.2291,38.5995],[70.164,38.5459],[70.1604,38.6318],[70.1196,38.6496],[70.033,38.7242],[69.9869,38.7338],[69.9095,38.705],[69.8495,38.6553],[69.8062,38.5987],[69.7704,38.5911],[69.7405,38.6156],[69.7073,38.6119],[69.6063,38.4932],[69.477,38.413],[69.3738,38.3253],[69.3197,38.3319],[69.3156,38.3492],[69.3347,38.3755],[69.2337,38.3862],[69.2157,38.4243],[69.1811,38.4365],[69.1308,38.4187],[68.9943,38.4123],[68.9269,38.3929],[68.8736,38.3399],[68.822,38.3268],[68.78,38.3531],[68.7139,38.3178],[68.6093,38.3282],[68.5697,38.2895],[68.5853,38.2405],[68.582,38.1943],[68.5188,38.1022],[68.5492,38.0841],[68.5437,38.0194],[68.4918,37.983],[68.4607,37.9102],[68.4291,37.9025],[68.4096,37.9182],[68.2898,37.9066],[68.238,37.9427],[68.3195,38.0602],[68.3607,38.1741],[68.3562,38.2126],[68.332,38.243],[68.2008,38.3217],[68.1076,38.4183],[68.0869,38.494],[68.0552,38.5363],[68.0537,38.6359],[68.0376,38.6916],[68.0759,38.7269],[68.0667,38.788],[68.119,38.7967],[68.1637,38.8286],[68.1737,38.8673],[68.1534,38.8994],[68.3199,38.9306],[68.3678,38.9196],[68.4748,38.9401],[68.5099,38.9511],[68.5668,39.0],[68.5901,39.0481],[68.6658,39.0469],[68.7607,39.0755],[68.804,39.0602],[68.921,39.06],[69.0655,39.0304],[69.2166,39.0968],[69.3469,39.0991],[69.3652,39.1587],[69.4029,39.1803],[69.5004,39.1858],[69.5475,39.1433],[69.5428,39.0858],[69.559,39.0721],[69.6516,39.115],[69.6483,39.1363],[69.6813,39.1632],[69.6938,39.2225],[69.6665,39.2616],[69.7363,39.2934],[69.7568,39.2949],[69.7776,39.2699],[69.8082,39.2636],[69.8461,39.2812],[69.8809,39.3193],[69.99,39.3319],[70.022,39.3132],[70.0945,39.3418],[70.111,39.3381],[70.1245,39.3067],[70.2552,39.3602],[70.2858,39.3904],[70.3687,39.3776],[70.485,39.402],[70.5047,39.4262],[70.587,39.4416],[70.6034,39.4661],[70.6556,39.4946],[70.6997,39.4722],[70.6981,39.419],[70.7397,39.3862],[70.7976,39.3853],[70.9034,39.4209],[70.9771,39.3949],[71.0093,39.4076],[71.0629,39.4956],[71.0959,39.5124],[71.18,39.523],[71.2493,39.5144],[71.3685,39.5915],[71.4595,39.6121],[71.5109,39.5841],[71.5314,39.5531],[71.4921,39.4937],[71.5129,39.4588],[71.5543,39.4442],[71.7046,39.459],[71.7403,39.4483],[71.7481,39.3796],[71.713,39.3415],[71.7109,39.321],[71.7512,39.2742],[71.807,39.2728],[71.9592,39.3459],[72.0498,39.3689],[72.0781,39.3366],[72.0948,39.2751],[72.2033,39.2408],[72.2287,39.1895]],[[68.8008,38.592],[68.7645,38.6582],[68.7578,38.6067],[68.7095,38.5911],[68.7153,38.5642],[68.6893,38.5499],[68.7184,38.5517],[68.7296,38.4796],[68.748,38.4693],[68.786,38.4738],[68.7856,38.5006],[68.8429,38.5297],[68.8612,38.5571],[68.8008,38.592]]]}}]}
