{"type":"FeatureCollection","features":[{"type":"Feature","id":"Arusha","properties":{"id":"Arusha","iso_code":"TZ-01","name":"Arusha","name_full":"Arusha","name_ja":"アルーシャ州","center_lonlat":[35.9327,-3.0132]},"geometry":{"type":"Polygon","coordinates":[[[35.2464,-1.7068],[37.4242,-2.9228],[37.2644,-2.8594],[37.1406,-2.8573],[37.0093,-2.9632],[36.9092,-2.9972],[36.8862,-3.063],[36.8969,-3.1577],[37.023,-3.2411],[37.0603,-3.3096],[37.0624,-3.491],[36.9958,-3.5255],[36.9544,-3.5722],[36.8792,-3.573],[36.8284,-3.635],[36.7978,-3.6421],[36.7789,-3.6086],[36.7424,-3.5913],[36.6694,-3.595],[36.6551,-3.6295],[36.5771,-3.6654],[36.5174,-3.7437],[36.501,-3.7842],[36.5307,-4.0821],[36.3524,-4.1032],[36.3427,-4.1235],[36.2963,-4.1295],[36.2466,-4.1086],[36.0207,-3.7812],[35.9402,-3.6448],[35.8825,-3.6643],[35.7718,-3.7931],[35.7688,-3.823],[35.7484,-3.8287],[35.7266,-3.7599],[35.7337,-3.6871],[35.7584,-3.6153],[35.7451,-3.5678],[35.7187,-3.5642],[35.7128,-3.6338],[35.6954,-3.6696],[35.5767,-3.7013],[35.5798,-3.7397],[35.5623,-3.7661],[35.5171,-3.7599],[35.4869,-3.7287],[35.5319,-3.666],[35.4216,-3.6239],[35.3794,-3.6243],[35.313,-3.6912],[35.2384,-3.7297],[35.1796,-3.7385],[35.0844,-3.7968],[35.0579,-3.8386],[34.8922,-3.9095],[34.7605,-3.8018],[34.7533,-3.7231],[34.8143,-3.654],[34.8221,-3.6246],[34.8653,-3.6227],[34.8925,-3.5969],[34.9012,-2.8831],[34.936,-2.8883],[34.9975,-2.9554],[35.0356,-2.9675],[35.1227,-2.9196],[35.1501,-2.8686],[35.2162,-2.5837],[35.2076,-2.487],[35.2489,-2.37],[35.3012,-2.3496],[35.3414,-2.237],[35.3274,-2.1874],[35.2328,-2.1459],[35.2249,-2.1012],[35.2464,-1.7068]]]}},{"type":"Feature","id":"Dar es Salaam","properties":{"id":"Dar es Salaam","iso_code":"TZ-02","name":"Dar es Salaam","name_full":"Dar es Salaam","name_ja":"ダルエスサラーム州","center_lonlat":[39.2646,-6.8816]},"geometry":{"type":"Polygon","coordinates":[[[39.1292,-6.5619],[39.2127,-6.6418],[39.2459,-6.7311],[39.2639,-6.7444],[39.28,-6.7271],[39.2803,-6.8305],[39.3005,-6.8494],[39.2937,-6.8152],[39.312,-6.8163],[39.355,-6.8391],[39.4645,-6.8577],[39.5505,-6.9938],[39.5401,-7.0281],[39.5475,-7.1183],[39.5326,-7.1169],[39.4979,-7.1772],[39.4779,-7.1511],[39.4347,-7.1817],[39.4225,-7.1656],[39.4092,-7.1697],[39.4077,-7.0278],[39.3578,-6.9602],[39.2462,-6.9535],[39.2233,-6.9866],[39.1931,-6.9859],[39.1691,-7.0164],[39.1358,-7.0033],[39.0789,-7.056],[39.0583,-7.0367],[39.0391,-7.0435],[39.0272,-7.0326],[39.074,-6.9431],[39.1048,-6.9124],[39.0907,-6.8711],[39.0625,-6.8533],[39.0545,-6.7997],[39.0178,-6.7874],[39.0201,-6.7725],[39.0483,-6.7371],[39.0843,-6.6005],[39.1292,-6.5619]]]}},{"type":"Feature","id":"Dodoma","properties":{"id":"Dodoma","iso_code":"TZ-03","name":"Dodoma","name_full":"Dodoma","name_ja":"ドドマ州","center_lonlat":[35.9227,-5.899]},"geometry":{"type":"Polygon","coordinates":[[[36.8617,-6.0021],[36.8318,-6.0505],[36.8303,-6.1078],[36.8575,-6.3435],[36.8034,-6.4248],[36.7621,-6.4451],[36.6991,-6.632],[36.6708,-6.626],[36.6798,-6.6828],[36.6408,-6.779],[36.6409,-7.0035],[36.5588,-7.0541],[36.5161,-7.1431],[36.5035,-7.1883],[36.5222,-7.2855],[36.5147,-7.3323],[36.4778,-7.3704],[36.4661,-7.332],[36.4491,-7.3209],[36.3261,-7.3205],[36.2988,-7.2548],[36.2709,-7.2336],[36.243,-7.1723],[36.1099,-7.1257],[36.0407,-7.1168],[35.9828,-7.1306],[35.7742,-7.068],[35.7067,-7.0675],[35.6353,-7.0284],[35.5391,-7.0056],[35.5124,-6.9613],[35.443,-6.9332],[35.3277,-6.9346],[35.2992,-6.9418],[35.2787,-6.9633],[35.1779,-6.9789],[35.0809,-6.9205],[35.06,-6.721],[35.186,-6.7152],[35.2137,-6.6485],[35.196,-6.4773],[35.2234,-6.3195],[35.1937,-6.2447],[35.1855,-6.1579],[35.2072,-6.0679],[35.2109,-5.9519],[35.2722,-5.8311],[35.2869,-5.7525],[35.3385,-5.7003],[35.2689,-5.594],[35.2623,-5.5585],[35.2201,-5.5277],[35.1397,-5.4047],[35.0929,-5.2571],[35.0907,-5.1826],[35.0702,-5.1491],[35.0755,-5.1158],[35.3194,-4.9489],[35.345,-4.8897],[35.3409,-4.8545],[35.4581,-4.8703],[35.5103,-4.8616],[35.6518,-4.6065],[35.6613,-4.5684],[35.6381,-4.5171],[35.6409,-4.4827],[35.6719,-4.4859],[35.7505,-4.432],[35.8204,-4.3624],[35.8546,-4.3791],[35.9033,-4.3503],[35.9529,-4.3515],[35.9835,-4.3007],[36.0491,-4.2553],[36.2992,-4.1848],[36.3062,-4.4814],[36.3607,-4.6759],[36.349,-4.8792],[36.3121,-5.1197],[36.2907,-5.1899],[36.2372,-5.2927],[36.2481,-5.3557],[36.2309,-5.412],[36.2442,-5.4578],[36.3812,-5.5858],[36.4449,-5.6813],[36.5701,-5.7488],[36.6753,-5.9119],[36.7251,-5.9558],[36.8617,-6.0021]]]}},{"type":"Feature","id":"Geita","properties":{"id":"Geita","iso_code":"TZ-27","name":"Geita","name_full":"Geita","name_ja":"ゲイタ州","center_lonlat":[31.679,-3.0757]},"geometry":{"type":"Polygon","coordinates":[[[31.4166,-4.3563],[31.3471,-4.2195],[31.3348,-4.1572],[31.3762,-3.9669],[31.3586,-3.8851],[31.2983,-3.7525],[31.2422,-3.6991],[31.2179,-3.6364],[31.2054,-3.4644],[31.147,-3.3617],[31.1103,-3.2201],[31.0577,-3.1813],[31.0244,-3.2102],[31.0034,-3.1997],[31.0054,-3.1444],[31.0711,-3.0142],[31.0689,-2.9386],[31.0242,-2.8554],[30.9821,-2.8387],[30.9699,-2.7756],[30.8749,-2.6842],[30.9101,-2.5857],[31.0191,-2.5329],[31.1669,-2.2796],[31.1985,-2.2867],[31.3181,-2.2585],[31.3639,-2.2656],[31.5644,-2.3535],[31.6337,-2.3563],[31.6839,-2.3043],[31.7278,-2.2833],[31.7414,-2.2471],[31.7337,-2.1982],[31.7465,-2.1804],[31.8187,-2.1729],[31.8772,-2.148],[31.9073,-2.2912],[31.9383,-2.3328],[31.9354,-2.3581],[31.9523,-2.389],[32.1624,-2.5208],[32.214,-2.5382],[32.245,-2.5804],[32.4138,-2.6085],[32.3604,-2.7098],[32.5348,-2.8111],[32.5095,-2.8871],[32.5967,-2.9603],[32.5104,-3.1978],[32.4157,-3.2344],[32.3625,-3.2858],[32.3464,-3.3191],[32.3149,-3.3158],[32.289,-3.2946],[32.2803,-3.2572],[32.2502,-3.2364],[32.1809,-3.2722],[32.1377,-3.3279],[32.1166,-3.3947],[32.1483,-3.5952],[32.1342,-3.6726],[31.9407,-3.6937],[31.8352,-3.7429],[31.7473,-3.8203],[31.691,-3.9047],[31.6769,-3.968],[31.6906,-4.0379],[31.6371,-4.1279],[31.6642,-4.1579],[31.6818,-4.2123],[31.6128,-4.2464],[31.5162,-4.236],[31.4755,-4.2471],[31.4166,-4.3563]]]}},{"type":"Feature","id":"Iringa","properties":{"id":"Iringa","iso_code":"TZ-04","name":"Iringa","name_full":"Iringa","name_ja":"イリンガ州","center_lonlat":[35.4041,-7.7855]},"geometry":{"type":"Polygon","coordinates":[[[36.4778,-7.3704],[36.5173,-7.5008],[36.5467,-7.514],[36.6412,-7.5214],[36.693,-7.5584],[36.7841,-7.5811],[36.7917,-7.6348],[36.8175,-7.652],[36.8688,-7.6374],[36.9683,-7.6538],[36.8474,-7.7838],[36.7658,-7.9563],[36.6901,-7.978],[36.6018,-7.9521],[36.5078,-7.9428],[36.4198,-7.975],[36.347,-8.0305],[36.3155,-8.0604],[36.3266,-8.1511],[36.3093,-8.1803],[36.2191,-8.1971],[36.182,-8.1894],[36.0945,-8.2424],[35.9482,-8.3992],[35.9107,-8.5029],[35.8397,-8.5662],[35.7471,-8.6087],[35.7174,-8.6369],[35.6802,-8.7642],[35.6697,-8.857],[35.6482,-8.8389],[35.6434,-8.7542],[35.6273,-8.7308],[35.4214,-8.6856],[35.3412,-8.6881],[35.3362,-8.7322],[35.3538,-8.8171],[35.3284,-8.8539],[35.357,-8.8983],[35.3533,-8.9695],[35.3654,-9.0086],[35.2924,-9.0327],[35.1976,-9.0271],[35.1027,-8.9602],[35.1139,-8.7817],[34.8741,-8.698],[34.8741,-8.6478],[34.7325,-8.6052],[34.7442,-8.5399],[34.6906,-8.434],[34.7115,-8.3925],[34.7766,-8.3153],[34.8541,-8.2742],[34.9406,-8.1183],[34.9956,-8.102],[35.0635,-8.0356],[35.036,-8.0079],[34.9907,-7.9918],[34.9159,-7.9911],[34.9096,-7.9351],[34.6388,-7.8922],[34.5593,-7.8526],[34.4113,-7.8178],[33.8563,-7.8319],[33.8418,-7.8027],[33.8505,-7.762],[33.9804,-7.5346],[33.9385,-7.499],[34.1089,-7.3944],[34.174,-7.3138],[34.2647,-7.3306],[34.358,-7.3258],[34.3777,-7.3096],[34.376,-7.2784],[34.4265,-7.2181],[34.7207,-7.1571],[34.758,-7.0869],[34.7695,-6.9901],[34.9194,-6.8897],[35.0809,-6.9205],[35.1779,-6.9789],[35.2787,-6.9633],[35.2992,-6.9418],[35.3277,-6.9346],[35.443,-6.9332],[35.5124,-6.9613],[35.5391,-7.0056],[35.6353,-7.0284],[35.7067,-7.0675],[35.7742,-7.068],[35.9828,-7.1306],[36.0407,-7.1168],[36.1099,-7.1257],[36.243,-7.1723],[36.2709,-7.2336],[36.2988,-7.2548],[36.3261,-7.3205],[36.4491,-7.3209],[36.4661,-7.332],[36.4778,-7.3704]]]}},{"type":"Feature","id":"Kagera","properties":{"id":"Kagera","iso_code":"TZ-05","name":"Kagera","name_full":"Kagera","name_ja":"カゲラ州","center_lonlat":[31.4852,-1.6883]},"geometry":{"type":"Polygon","coordinates":[[[32.7223,-1.0026],[32.7039,-1.4688],[31.8772,-2.148],[31.8187,-2.1729],[31.7465,-2.1804],[31.7337,-2.1982],[31.7414,-2.2471],[31.7278,-2.2833],[31.6839,-2.3043],[31.6337,-2.3563],[31.5644,-2.3535],[31.3639,-2.2656],[31.3181,-2.2585],[31.1985,-2.2867],[31.1669,-2.2796],[31.0191,-2.5329],[30.9101,-2.5857],[30.8749,-2.6842],[30.9699,-2.7756],[30.9821,-2.8387],[30.8188,-2.9905],[30.8255,-2.9786],[30.7321,-2.9935],[30.6837,-2.97],[30.6376,-2.9744],[30.6295,-2.9477],[30.5389,-2.899],[30.4885,-2.9435],[30.4696,-2.9142],[30.4742,-2.9032],[30.456,-2.8983],[30.4158,-2.8517],[30.4136,-2.8344],[30.4469,-2.7827],[30.4505,-2.7418],[30.5226,-2.6494],[30.4427,-2.6811],[30.4121,-2.6702],[30.416,-2.6456],[30.4577,-2.598],[30.5081,-2.4635],[30.5546,-2.4006],[30.5739,-2.3893],[30.6379,-2.397],[30.6748,-2.3517],[30.7588,-2.3811],[30.8344,-2.3453],[30.8489,-2.3063],[30.8534,-2.1938],[30.8878,-2.0825],[30.8535,-2.0237],[30.8168,-2.0187],[30.8269,-1.9341],[30.797,-1.9293],[30.8242,-1.9021],[30.8166,-1.8842],[30.8379,-1.8368],[30.8264,-1.7862],[30.8379,-1.7587],[30.8242,-1.7307],[30.8375,-1.6411],[30.831,-1.5942],[30.8072,-1.6033],[30.7916,-1.591],[30.7723,-1.5325],[30.7389,-1.4895],[30.7375,-1.4067],[30.6324,-1.3676],[30.5553,-1.3184],[30.5546,-1.2735],[30.5112,-1.1704],[30.4947,-1.1553],[30.4673,-1.1553],[30.4709,-1.1181],[30.453,-1.0973],[30.4718,-1.0668],[30.5927,-1.0634],[30.6386,-1.0734],[30.6871,-1.025],[30.7771,-0.9858],[30.8284,-1.0026],[32.7223,-1.0026]]]}},{"type":"Feature","id":"Katavi","properties":{"id":"Katavi","iso_code":"TZ-28","name":"Katavi","name_full":"Katavi","name_ja":"カタヴィ州","center_lonlat":[31.3202,-6.4598]},"geometry":{"type":"Polygon","coordinates":[[[30.2945,-7.1494],[30.2347,-7.0571],[30.0909,-6.89],[29.9691,-6.803],[30.2428,-6.5807],[30.2687,-6.5461],[30.2984,-6.4582],[30.3932,-6.3936],[30.372,-6.3077],[30.3825,-6.2453],[30.304,-6.181],[30.1842,-5.9011],[30.1188,-5.5203],[30.0805,-5.4339],[29.9896,-5.3571],[30.0074,-5.3347],[30.2212,-5.3321],[30.2702,-5.3208],[30.4087,-5.1902],[30.7299,-5.1914],[30.7821,-5.2394],[30.81,-5.2394],[30.8348,-5.2567],[30.8858,-5.3151],[30.9226,-5.2614],[30.9573,-5.2604],[30.9671,-5.3213],[31.0379,-5.4177],[31.0622,-5.4986],[31.0595,-5.5235],[31.0309,-5.5394],[31.0332,-5.5629],[31.1145,-5.6338],[31.139,-5.6372],[31.152,-5.6925],[31.1489,-5.7572],[31.2218,-5.7457],[31.2414,-5.7527],[31.2752,-5.8015],[31.3718,-5.7874],[31.4506,-5.8222],[31.507,-5.8112],[31.522,-5.8222],[31.5434,-5.8041],[31.6285,-5.8253],[31.6902,-5.8011],[31.7978,-5.7186],[31.8273,-5.7123],[31.8537,-5.7321],[31.8653,-5.726],[31.9352,-5.7469],[31.9683,-5.7396],[32.0471,-5.7669],[32.098,-5.8358],[32.1014,-5.9046],[32.1383,-6.0066],[32.2039,-6.1051],[32.3119,-6.1667],[32.3177,-6.1921],[32.3444,-6.22],[32.4304,-6.257],[32.5123,-6.3609],[32.7159,-6.3987],[32.7371,-6.4472],[32.7312,-6.4662],[32.6145,-6.6007],[32.5854,-6.693],[32.5869,-6.9011],[32.5528,-7.1036],[32.5014,-7.132],[32.2738,-7.2101],[32.2732,-7.3159],[32.2334,-7.4245],[32.197,-7.4955],[32.0943,-7.5344],[32.0594,-7.5876],[31.9926,-7.754],[32.0102,-7.7891],[31.4928,-7.7082],[31.4383,-7.3052],[31.3839,-7.2398],[31.0789,-7.218],[31.0353,-7.1527],[31.0353,-7.0655],[30.9917,-6.9348],[30.9046,-6.9021],[30.6867,-6.913],[30.5778,-6.9457],[30.2945,-7.1494]]]}},{"type":"Feature","id":"Kigoma","properties":{"id":"Kigoma","iso_code":"TZ-08","name":"Kigoma","name_full":"Kigoma","name_ja":"キゴマ州","center_lonlat":[30.3904,-4.8178]},"geometry":{"type":"Polygon","coordinates":[[[30.8188,-2.9905],[30.9821,-2.8387],[31.0242,-2.8554],[31.0689,-2.9386],[31.0711,-3.0142],[31.0054,-3.1444],[31.0034,-3.1997],[31.0244,-3.2102],[31.0577,-3.1813],[31.1103,-3.2201],[31.147,-3.3617],[31.2054,-3.4644],[31.2179,-3.6364],[31.2422,-3.6991],[31.2983,-3.7525],[31.3586,-3.8851],[31.3762,-3.9669],[31.3348,-4.1572],[31.3471,-4.2195],[31.4166,-4.3563],[31.4241,-4.448],[31.4518,-4.4453],[31.4638,-4.4698],[31.4909,-4.6205],[31.4665,-4.6758],[31.3919,-4.7096],[31.3896,-4.8441],[31.3258,-4.8767],[31.3136,-4.9059],[31.2276,-4.9592],[31.2503,-5.0181],[31.2017,-5.153],[31.193,-5.2684],[31.2303,-5.4271],[31.2117,-5.4618],[31.0622,-5.4986],[31.0379,-5.4177],[30.9671,-5.3213],[30.9573,-5.2604],[30.9226,-5.2614],[30.8858,-5.3151],[30.8348,-5.2567],[30.81,-5.2394],[30.7821,-5.2394],[30.7299,-5.1914],[30.4087,-5.1902],[30.2702,-5.3208],[30.2212,-5.3321],[30.0074,-5.3347],[29.9896,-5.3571],[30.0805,-5.4339],[30.1188,-5.5203],[30.1842,-5.9011],[30.304,-6.181],[30.3825,-6.2453],[30.372,-6.3077],[30.3932,-6.3936],[30.2984,-6.4582],[30.2687,-6.5461],[30.2428,-6.5807],[29.9691,-6.803],[29.8731,-6.7542],[29.707,-6.6193],[29.6339,-6.4469],[29.566,-6.3595],[29.5255,-6.2731],[29.4761,-6.0021],[29.4961,-5.9387],[29.603,-5.7817],[29.6124,-5.7044],[29.5935,-5.6203],[29.4964,-5.3917],[29.4556,-5.23],[29.3778,-5.0875],[29.3238,-4.9202],[29.321,-4.8363],[29.4013,-4.5869],[29.4042,-4.4498],[29.6383,-4.4468],[29.7328,-4.4633],[29.7841,-4.3738],[29.8003,-4.3639],[29.8474,-4.3705],[30.003,-4.2719],[30.0515,-4.1802],[30.1498,-4.0868],[30.1914,-4.0025],[30.2088,-3.9305],[30.2733,-3.8562],[30.3117,-3.7899],[30.337,-3.7738],[30.3816,-3.7883],[30.3731,-3.7036],[30.4289,-3.6022],[30.4323,-3.5519],[30.4689,-3.513],[30.5072,-3.5111],[30.5115,-3.4977],[30.545,-3.4891],[30.6391,-3.4195],[30.6404,-3.3928],[30.6033,-3.3726],[30.6405,-3.3329],[30.712,-3.3019],[30.7215,-3.281],[30.7479,-3.2941],[30.7998,-3.2746],[30.8329,-3.1477],[30.8123,-3.1235],[30.8177,-3.0991],[30.7783,-3.0474],[30.8188,-2.9905]]]}},{"type":"Feature","id":"Kilimanjaro","properties":{"id":"Kilimanjaro","iso_code":"TZ-09","name":"Kilimanjaro","name_full":"Kilimanjaro","name_ja":"キリマンジャロ州","center_lonlat":[37.6417,-3.7653]},"geometry":{"type":"Polygon","coordinates":[[[37.4242,-2.9228],[37.6449,-3.046],[37.6602,-3.0706],[37.7001,-3.3144],[37.6719,-3.3243],[37.6699,-3.3561],[37.6272,-3.3703],[37.5852,-3.413],[37.5794,-3.4464],[37.6082,-3.4636],[37.5991,-3.5134],[37.6683,-3.5125],[37.7083,-3.5272],[37.771,-3.6554],[38.4162,-4.12],[38.075,-4.6073],[38.0299,-4.6386],[37.9816,-4.5884],[37.9274,-4.568],[37.8447,-4.5689],[37.7851,-4.5956],[37.761,-4.5869],[37.6917,-4.5339],[37.5814,-4.4823],[37.5299,-4.4401],[37.4968,-4.3835],[37.4989,-4.1662],[37.5129,-4.102],[37.4728,-3.9787],[37.4674,-3.817],[37.4497,-3.7725],[37.3832,-3.6577],[37.3294,-3.5993],[37.2985,-3.5262],[37.3026,-3.5072],[37.288,-3.4946],[37.231,-3.4839],[37.2059,-3.4507],[37.1662,-3.4583],[37.1397,-3.485],[37.0624,-3.491],[37.0603,-3.3096],[37.023,-3.2411],[36.8969,-3.1577],[36.8862,-3.063],[36.9092,-2.9972],[37.0093,-2.9632],[37.1406,-2.8573],[37.2644,-2.8594],[37.4242,-2.9228]]]}},{"type":"Feature","id":"Lindi","properties":{"id":"Lindi","iso_code":"TZ-12","name":"Lindi","name_full":"Lindi","name_ja":"リンディ州","center_lonlat":[38.3869,-9.464]},"geometry":{"type":"Polygon","coordinates":[[[39.2847,-8.3186],[39.3053,-8.3889],[39.3031,-8.5055],[39.3364,-8.5395],[39.3618,-8.6109],[39.3543,-8.714],[39.4391,-8.7555],[39.4526,-8.8054],[39.4885,-8.8269],[39.5195,-8.892],[39.5537,-8.9223],[39.5207,-8.923],[39.4494,-8.8587],[39.4131,-8.8674],[39.3887,-8.8989],[39.4642,-8.8989],[39.4476,-8.9256],[39.4919,-8.9384],[39.4849,-8.9944],[39.4985,-9.0087],[39.4924,-9.0429],[39.506,-9.0562],[39.4933,-9.0795],[39.4985,-9.1242],[39.5692,-9.093],[39.6438,-9.1891],[39.6486,-9.2199],[39.6321,-9.2585],[39.6499,-9.2825],[39.6428,-9.3686],[39.616,-9.3971],[39.5691,-9.405],[39.5674,-9.4475],[39.6084,-9.4401],[39.6159,-9.4249],[39.6507,-9.4448],[39.6499,-9.4743],[39.6807,-9.5053],[39.7009,-9.5795],[39.7249,-9.6041],[39.7121,-9.6251],[39.7409,-9.6668],[39.7466,-9.7065],[39.697,-9.7449],[39.7523,-9.7486],[39.8073,-9.8522],[39.7813,-9.8824],[39.7523,-9.879],[39.7902,-9.923],[39.7142,-9.9521],[39.7244,-10.0075],[39.6908,-10.0434],[39.7165,-10.0388],[39.7632,-9.9828],[39.8269,-9.9903],[39.8482,-10.0114],[39.8894,-10.0149],[39.9143,-10.0339],[39.9749,-10.1334],[39.9764,-10.1783],[39.706,-10.3301],[39.6804,-10.3635],[39.6567,-10.4449],[39.6572,-10.4718],[39.683,-10.4935],[39.6884,-10.5293],[39.6318,-10.5949],[39.591,-10.5735],[39.5619,-10.5034],[39.5316,-10.4749],[39.4984,-10.3832],[39.4217,-10.3349],[39.3972,-10.3356],[39.372,-10.3397],[39.3156,-10.3827],[39.2833,-10.3808],[39.262,-10.4459],[39.2178,-10.4547],[39.1988,-10.3964],[39.1659,-10.3895],[38.9187,-10.5021],[38.8728,-10.5423],[38.8029,-10.548],[38.7351,-10.5171],[38.701,-10.516],[38.6695,-10.531],[38.58,-10.5379],[38.3142,-10.6463],[38.2523,-10.7082],[38.2031,-10.7814],[38.1679,-10.8047],[37.993,-10.817],[37.9038,-10.6756],[37.8217,-10.4985],[37.7175,-10.4269],[37.1623,-10.2929],[36.9206,-10.2012],[36.8712,-10.1595],[36.8773,-9.9539],[36.9027,-9.8991],[36.9855,-9.8248],[37.1056,-9.6791],[37.1431,-9.5612],[37.2492,-9.2614],[37.2578,-9.1978],[37.3038,-9.16],[37.3595,-9.1423],[37.3666,-9.1033],[37.3371,-9.0603],[37.3457,-8.998],[37.3192,-8.9331],[37.3056,-8.8092],[37.3784,-8.6154],[37.3819,-8.5721],[37.3606,-8.5287],[37.3686,-8.4994],[37.4741,-8.3543],[37.5017,-8.3403],[37.5728,-8.2155],[37.6284,-8.1875],[37.717,-8.028],[37.7785,-7.9797],[37.8012,-7.9434],[37.9917,-8.0799],[38.2336,-8.1478],[38.2892,-8.1759],[38.5038,-8.3597],[38.5364,-8.495],[38.5933,-8.4968],[38.6398,-8.4688],[38.687,-8.3718],[38.7567,-8.3563],[38.8022,-8.3826],[39.1833,-8.2857],[39.2332,-8.284],[39.2847,-8.3186]]]}},{"type":"Feature","id":"Manyara","properties":{"id":"Manyara","iso_code":"TZ-26","name":"Manyara","name_full":"Manyara","name_ja":"マニャラ州","center_lonlat":[36.5629,-4.5634]},"geometry":{"type":"Polygon","coordinates":[[[37.0607,-5.8679],[36.9151,-5.9846],[36.8617,-6.0021],[36.7251,-5.9558],[36.6753,-5.9119],[36.5701,-5.7488],[36.4449,-5.6813],[36.3812,-5.5858],[36.2442,-5.4578],[36.2309,-5.412],[36.2481,-5.3557],[36.2372,-5.2927],[36.2907,-5.1899],[36.3121,-5.1197],[36.349,-4.8792],[36.3607,-4.6759],[36.3062,-4.4814],[36.2992,-4.1848],[36.0491,-4.2553],[35.9835,-4.3007],[35.9529,-4.3515],[35.9033,-4.3503],[35.8546,-4.3791],[35.8204,-4.3624],[35.7505,-4.432],[35.6719,-4.4859],[35.6409,-4.4827],[35.6381,-4.5171],[35.6613,-4.5684],[35.6518,-4.6065],[35.5103,-4.8616],[35.4581,-4.8703],[35.3409,-4.8545],[35.2813,-4.8316],[35.2436,-4.7614],[35.185,-4.7511],[35.1448,-4.7235],[35.1357,-4.6419],[35.069,-4.6095],[35.0323,-4.5287],[34.9825,-4.4715],[34.9144,-4.4312],[34.8692,-4.3811],[34.9064,-4.28],[35.017,-4.1076],[35.0144,-4.0778],[34.929,-3.985],[34.8922,-3.9095],[35.0579,-3.8386],[35.0844,-3.7968],[35.1796,-3.7385],[35.2384,-3.7297],[35.313,-3.6912],[35.3794,-3.6243],[35.4216,-3.6239],[35.5319,-3.666],[35.4869,-3.7287],[35.5171,-3.7599],[35.5623,-3.7661],[35.5798,-3.7397],[35.5767,-3.7013],[35.6954,-3.6696],[35.7128,-3.6338],[35.7187,-3.5642],[35.7451,-3.5678],[35.7584,-3.6153],[35.7337,-3.6871],[35.7266,-3.7599],[35.7484,-3.8287],[35.7688,-3.823],[35.7718,-3.7931],[35.8825,-3.6643],[35.9402,-3.6448],[36.0207,-3.7812],[36.2466,-4.1086],[36.2963,-4.1295],[36.3427,-4.1235],[36.3524,-4.1032],[36.5307,-4.0821],[36.501,-3.7842],[36.5174,-3.7437],[36.5771,-3.6654],[36.6551,-3.6295],[36.6694,-3.595],[36.7424,-3.5913],[36.7789,-3.6086],[36.7978,-3.6421],[36.8284,-3.635],[36.8792,-3.573],[36.9544,-3.5722],[36.9958,-3.5255],[37.0624,-3.491],[37.1397,-3.485],[37.1662,-3.4583],[37.2059,-3.4507],[37.231,-3.4839],[37.288,-3.4946],[37.3026,-3.5072],[37.2985,-3.5262],[37.3294,-3.5993],[37.3832,-3.6577],[37.4497,-3.7725],[37.4674,-3.817],[37.4728,-3.9787],[37.5129,-4.102],[37.4989,-4.1662],[37.4968,-4.3835],[37.5299,-4.4401],[37.5814,-4.4823],[37.6917,-4.5339],[37.761,-4.5869],[37.7851,-4.5956],[37.8447,-4.5689],[37.9274,-4.568],[37.9816,-4.5884],[38.0299,-4.6386],[37.9799,-4.6912],[37.9715,-4.8056],[38.0491,-4.9989],[38.0009,-4.997],[37.9469,-4.9622],[37.7496,-5.0086],[37.6416,-4.9784],[37.5917,-4.9782],[37.5366,-5.0278],[37.3893,-5.2055],[37.3809,-5.2288],[37.3881,-5.2835],[37.366,-5.38],[37.3436,-5.4464],[37.2517,-5.5647],[37.2112,-5.7357],[37.1796,-5.7871],[37.0607,-5.8679]]]}},{"type":"Feature","id":"Mara","properties":{"id":"Mara","iso_code":"TZ-13","name":"Mara","name_full":"Mara","name_ja":"マラ州","center_lonlat":[34.1062,-1.6948]},"geometry":{"type":"Polygon","coordinates":[[[35.2464,-1.7068],[35.2249,-2.1012],[35.2328,-2.1459],[35.3274,-2.1874],[35.3414,-2.237],[35.3012,-2.3496],[35.2489,-2.37],[35.2076,-2.487],[34.6578,-2.4913],[34.5648,-2.4367],[34.5072,-2.4394],[34.4785,-2.4249],[34.4284,-2.3578],[34.3216,-2.2905],[34.2983,-2.2569],[34.1696,-2.196],[34.0996,-2.1916],[34.0356,-2.1324],[34.0111,-2.1472],[34.0043,-2.182],[33.8969,-2.1818],[33.8706,-2.194],[33.8311,-2.1721],[33.816,-2.1233],[33.7864,-2.095],[33.7494,-2.086],[33.6422,-2.1468],[33.6056,-2.1831],[33.5094,-2.1532],[33.3581,-2.1679],[33.3367,-2.1359],[33.2825,-2.1112],[33.2594,-2.1112],[33.2215,-2.1421],[33.2078,-2.1148],[33.2215,-2.0801],[33.219,-2.0428],[33.2859,-2.0565],[33.2924,-2.0317],[33.2698,-2.0118],[33.2816,-2.0006],[33.3177,-2.0459],[33.3242,-2.0166],[33.3797,-2.0534],[33.4002,-2.0391],[33.3723,-1.9981],[33.3999,-1.9723],[33.4964,-2.0255],[33.5504,-2.0289],[33.5734,-1.9872],[33.5579,-1.9702],[33.5368,-1.9702],[33.5442,-1.9634],[33.4617,-1.9497],[33.4902,-1.9268],[33.455,-1.8935],[33.4617,-1.8814],[33.3926,-1.8972],[33.3144,-1.9445],[33.2829,-1.9224],[33.3109,-1.9056],[33.319,-1.8701],[33.3007,-1.8343],[33.3431,-1.7386],[33.3852,-1.7081],[33.4294,-1.713],[33.4555,-1.7345],[33.4667,-1.5724],[33.4561,-1.5213],[33.3344,-1.4736],[32.7208,-1.4835],[32.7039,-1.4688],[32.7223,-1.0026],[34.0,-1.0026],[34.002,-1.0287],[34.0154,-1.0375],[34.0525,-1.0404],[35.2464,-1.7068]]]}},{"type":"Feature","id":"Mbeya","properties":{"id":"Mbeya","iso_code":"TZ-14","name":"Mbeya","name_full":"Mbeya","name_ja":"ムベヤ州","center_lonlat":[33.3219,-8.2628]},"geometry":{"type":"Polygon","coordinates":[[[34.0785,-9.5102],[34.0127,-9.4775],[33.9607,-9.5249],[33.9459,-9.55],[33.9645,-9.5947],[33.9549,-9.6606],[33.9119,-9.718],[33.8653,-9.6696],[33.7346,-9.5841],[33.6506,-9.611],[33.5595,-9.5933],[33.4805,-9.6244],[33.439,-9.6215],[33.4042,-9.6049],[33.375,-9.5491],[33.3003,-9.4922],[33.2024,-9.4935],[33.1729,-9.511],[33.113,-9.4915],[32.9747,-9.3812],[32.9209,-9.4079],[32.7843,-9.3397],[32.7523,-9.3374],[32.7397,-9.3073],[32.7132,-9.2858],[32.518,-9.2582],[32.4597,-9.168],[32.4234,-9.1438],[32.2314,-9.1338],[32.1456,-9.0703],[32.1368,-9.004],[32.1624,-8.9904],[32.1495,-8.9499],[32.0701,-8.8785],[32.0906,-8.8502],[32.009,-8.7826],[32.0302,-8.7426],[32.1547,-8.6985],[32.2124,-8.6635],[32.2874,-8.5691],[32.2919,-8.4563],[32.2747,-8.4021],[32.2781,-8.3451],[32.3149,-8.3011],[32.3762,-8.299],[32.5018,-8.2146],[32.528,-8.2267],[32.5488,-8.36],[32.6321,-8.4649],[32.7501,-8.4703],[32.7423,-8.4048],[32.4644,-8.0518],[32.2788,-7.9287],[32.0102,-7.7891],[31.9926,-7.754],[32.0594,-7.5876],[32.0943,-7.5344],[32.197,-7.4955],[32.2334,-7.4245],[32.2732,-7.3159],[32.2738,-7.2101],[32.5014,-7.132],[32.5528,-7.1036],[32.6905,-7.0938],[32.7164,-7.0747],[32.7923,-6.9469],[32.8173,-6.9368],[32.8611,-6.9413],[32.9186,-6.8982],[33.0362,-6.8669],[33.1178,-6.8909],[33.1872,-6.9373],[33.2677,-6.9556],[33.4849,-6.9428],[33.5381,-7.0013],[33.5598,-7.1078],[33.584,-7.1477],[33.6266,-7.1636],[33.6613,-7.1971],[33.7204,-7.2843],[33.7778,-7.3017],[33.8154,-7.4347],[33.9385,-7.499],[33.9804,-7.5346],[33.8505,-7.762],[33.8418,-7.8027],[33.8563,-7.8319],[34.4113,-7.8178],[34.5593,-7.8526],[34.6388,-7.8922],[34.9096,-7.9351],[34.9159,-7.9911],[34.9907,-7.9918],[35.036,-8.0079],[35.0635,-8.0356],[34.9956,-8.102],[34.9406,-8.1183],[34.8541,-8.2742],[34.7766,-8.3153],[34.7115,-8.3925],[34.6906,-8.434],[34.7442,-8.5399],[34.7325,-8.6052],[34.7074,-8.6703],[34.6849,-8.6857],[34.6522,-8.6818],[34.6148,-8.6955],[34.5826,-8.7179],[34.5565,-8.7701],[34.5213,-8.8072],[34.475,-8.8255],[34.3275,-8.813],[34.2277,-8.8371],[34.1116,-8.8332],[34.0609,-8.8537],[34.0507,-8.8825],[34.0228,-8.8916],[33.949,-8.8663],[33.8945,-8.877],[33.8533,-8.9136],[33.7959,-9.0063],[33.8017,-9.0539],[33.835,-9.092],[33.875,-9.1794],[33.8537,-9.1907],[33.8483,-9.2114],[33.8933,-9.2322],[33.8959,-9.2635],[34.0033,-9.4269],[34.0422,-9.4376],[34.0824,-9.4775],[34.0785,-9.5102]]]}},{"type":"Feature","id":"Mjini Magharibi","properties":{"id":"Mjini Magharibi","iso_code":"TZ-15","name":"Mjini Magharibi","name_full":"Mjini Magharibi","name_ja":"ザンジバル都市部・西部州","center_lonlat":[39.242,-6.1602]},"geometry":{"type":"Polygon","coordinates":[[[39.3081,-6.2457],[39.2869,-6.2468],[39.2937,-6.2678],[39.2803,-6.2585],[39.2825,-6.3122],[39.1986,-6.2208],[39.177,-6.1579],[39.2129,-6.1142],[39.1979,-6.0336],[39.2741,-6.0339],[39.2764,-6.1779],[39.3081,-6.2457]]]}},{"type":"Feature","id":"Morogoro","properties":{"id":"Morogoro","iso_code":"TZ-16","name":"Morogoro","name_full":"Morogoro","name_ja":"モロゴロ州","center_lonlat":[37.0014,-7.8967]},"geometry":{"type":"Polygon","coordinates":[[[37.8012,-7.9434],[37.7785,-7.9797],[37.717,-8.028],[37.6284,-8.1875],[37.5728,-8.2155],[37.5017,-8.3403],[37.4741,-8.3543],[37.3686,-8.4994],[37.3606,-8.5287],[37.3819,-8.5721],[37.3784,-8.6154],[37.3056,-8.8092],[37.3192,-8.9331],[37.3457,-8.998],[37.3371,-9.0603],[37.3666,-9.1033],[37.3595,-9.1423],[37.3038,-9.16],[37.2578,-9.1978],[37.2492,-9.2614],[37.1431,-9.5612],[37.0687,-9.5829],[36.8686,-9.7125],[36.6641,-9.9089],[36.5716,-9.9592],[36.5037,-9.961],[36.4784,-9.9136],[36.533,-9.843],[36.5642,-9.7622],[36.4928,-9.6132],[36.4808,-9.5527],[36.4489,-9.564],[36.4403,-9.634],[36.3644,-9.7273],[36.2816,-9.739],[36.2207,-9.7288],[36.1334,-9.751],[36.0922,-9.7294],[36.0878,-9.7091],[36.0437,-9.7215],[35.9986,-9.7606],[35.9726,-9.8086],[35.7619,-9.8108],[35.7184,-9.7775],[35.7249,-9.7169],[35.7822,-9.6868],[35.8607,-9.5754],[35.8624,-9.5016],[35.9181,-9.4344],[35.9335,-9.3841],[35.905,-9.3156],[35.8998,-9.1887],[35.7766,-9.3154],[35.697,-9.3399],[35.6802,-9.2469],[35.491,-9.0995],[35.4225,-8.9959],[35.401,-8.9857],[35.3654,-9.0086],[35.3533,-8.9695],[35.357,-8.8983],[35.3284,-8.8539],[35.3538,-8.8171],[35.3362,-8.7322],[35.3412,-8.6881],[35.4214,-8.6856],[35.6273,-8.7308],[35.6434,-8.7542],[35.6482,-8.8389],[35.6697,-8.857],[35.6802,-8.7642],[35.7174,-8.6369],[35.7471,-8.6087],[35.8397,-8.5662],[35.9107,-8.5029],[35.9482,-8.3992],[36.0945,-8.2424],[36.182,-8.1894],[36.2191,-8.1971],[36.3093,-8.1803],[36.3266,-8.1511],[36.3155,-8.0604],[36.347,-8.0305],[36.4198,-7.975],[36.5078,-7.9428],[36.6018,-7.9521],[36.6901,-7.978],[36.7658,-7.9563],[36.8474,-7.7838],[36.9683,-7.6538],[36.8688,-7.6374],[36.8175,-7.652],[36.7917,-7.6348],[36.7841,-7.5811],[36.693,-7.5584],[36.6412,-7.5214],[36.5467,-7.514],[36.5173,-7.5008],[36.4778,-7.3704],[36.5147,-7.3323],[36.5222,-7.2855],[36.5035,-7.1883],[36.5161,-7.1431],[36.5588,-7.0541],[36.6409,-7.0035],[36.6408,-6.779],[36.6798,-6.6828],[36.6708,-6.626],[36.6991,-6.632],[36.7621,-6.4451],[36.8034,-6.4248],[36.8575,-6.3435],[36.8303,-6.1078],[36.8318,-6.0505],[36.8617,-6.0021],[36.9151,-5.9846],[37.0607,-5.8679],[37.0758,-5.9735],[37.1325,-5.9978],[37.1119,-6.0272],[37.1192,-6.0693],[37.1685,-6.1109],[37.215,-6.044],[37.2891,-5.9742],[37.3575,-5.9308],[37.3757,-5.816],[37.3908,-5.7894],[37.5273,-5.8394],[37.5389,-5.8853],[37.6279,-5.9802],[37.655,-5.9529],[37.7074,-5.9556],[37.7478,-5.9427],[37.7465,-5.9147],[37.7614,-5.9022],[37.7854,-5.9094],[37.8015,-5.8946],[37.8489,-5.9305],[37.8792,-5.9819],[37.8872,-6.0379],[37.9843,-6.194],[38.034,-6.2063],[38.013,-6.2178],[38.057,-6.2519],[38.0602,-6.3324],[38.0395,-6.4853],[37.9911,-6.5855],[38.0232,-6.6407],[38.1997,-6.705],[38.3037,-6.6919],[38.3209,-6.767],[38.286,-6.8854],[38.3249,-6.9409],[38.3468,-6.9401],[38.3861,-6.9658],[38.417,-6.9559],[38.478,-6.9685],[38.4967,-6.9831],[38.5156,-7.043],[38.4323,-7.181],[38.3926,-7.1857],[38.3554,-7.2081],[38.3271,-7.2448],[38.3027,-7.3191],[38.3658,-7.4855],[38.3604,-7.5219],[38.1004,-7.5756],[38.0289,-7.5629],[37.9015,-7.593],[37.8717,-7.6197],[37.8553,-7.8177],[37.8256,-7.8571],[37.8012,-7.9434]]]}},{"type":"Feature","id":"Mtwara","properties":{"id":"Mtwara","iso_code":"TZ-17","name":"Mtwara","name_full":"Mtwara","name_ja":"ムトワラ州","center_lonlat":[39.1482,-10.7764]},"geometry":{"type":"Polygon","coordinates":[[[38.0934,-11.2563],[38.0243,-11.0202],[37.993,-10.817],[38.1679,-10.8047],[38.2031,-10.7814],[38.2523,-10.7082],[38.3142,-10.6463],[38.58,-10.5379],[38.6695,-10.531],[38.701,-10.516],[38.7351,-10.5171],[38.8029,-10.548],[38.8728,-10.5423],[38.9187,-10.5021],[39.1659,-10.3895],[39.1988,-10.3964],[39.2178,-10.4547],[39.262,-10.4459],[39.2833,-10.3808],[39.3156,-10.3827],[39.372,-10.3397],[39.3972,-10.3356],[39.4217,-10.3349],[39.4984,-10.3832],[39.5316,-10.4749],[39.5619,-10.5034],[39.591,-10.5735],[39.6318,-10.5949],[39.6884,-10.5293],[39.683,-10.4935],[39.6572,-10.4718],[39.6567,-10.4449],[39.6804,-10.3635],[39.706,-10.3301],[39.9764,-10.1783],[39.9851,-10.221],[40.0005,-10.1926],[39.9866,-10.1397],[40.0007,-10.1301],[40.1296,-10.1682],[40.1243,-10.2216],[40.1355,-10.2477],[40.1184,-10.2569],[40.1206,-10.2712],[40.1604,-10.2805],[40.1738,-10.2551],[40.2321,-10.2966],[40.2389,-10.2687],[40.2669,-10.2687],[40.198,-10.2421],[40.2321,-10.2005],[40.2454,-10.2047],[40.2595,-10.2421],[40.301,-10.2687],[40.3488,-10.3581],[40.3898,-10.3649],[40.4221,-10.3556],[40.4268,-10.3359],[40.3926,-10.3121],[40.4177,-10.2966],[40.4494,-10.3454],[40.4109,-10.3923],[40.4369,-10.3923],[40.4246,-10.4372],[40.4369,-10.4748],[40.421,-10.5038],[40.3533,-10.5607],[40.2885,-10.583],[40.2507,-10.6109],[40.1611,-10.7044],[40.0081,-10.8111],[39.886,-10.8645],[39.7605,-10.9431],[39.4985,-10.9906],[39.2633,-11.1668],[39.2116,-11.1739],[39.1262,-11.1397],[39.0608,-11.1601],[38.8963,-11.1677],[38.7597,-11.2632],[38.7151,-11.2565],[38.6542,-11.2758],[38.4923,-11.4135],[38.3477,-11.3588],[38.2566,-11.2771],[38.2104,-11.27],[38.1669,-11.2838],[38.1154,-11.2495],[38.0934,-11.2563]]]}},{"type":"Feature","id":"Mwanza","properties":{"id":"Mwanza","iso_code":"TZ-18","name":"Mwanza","name_full":"Mwanza","name_ja":"ムワンザ州","center_lonlat":[32.8705,-2.3977]},"geometry":{"type":"Polygon","coordinates":[[[32.7039,-1.4688],[32.7208,-1.4835],[33.3344,-1.4736],[33.4561,-1.5213],[33.4667,-1.5724],[33.4555,-1.7345],[33.4294,-1.713],[33.3852,-1.7081],[33.3431,-1.7386],[33.3007,-1.8343],[33.319,-1.8701],[33.3109,-1.9056],[33.2829,-1.9224],[33.3144,-1.9445],[33.3926,-1.8972],[33.4617,-1.8814],[33.455,-1.8935],[33.4902,-1.9268],[33.4617,-1.9497],[33.5442,-1.9634],[33.5368,-1.9702],[33.5579,-1.9702],[33.5734,-1.9872],[33.5504,-2.0289],[33.4964,-2.0255],[33.3999,-1.9723],[33.3723,-1.9981],[33.4002,-2.0391],[33.3797,-2.0534],[33.3242,-2.0166],[33.3177,-2.0459],[33.2816,-2.0006],[33.2698,-2.0118],[33.2924,-2.0317],[33.2859,-2.0565],[33.219,-2.0428],[33.2215,-2.0801],[33.2078,-2.1148],[33.2215,-2.1421],[33.2594,-2.1112],[33.2825,-2.1112],[33.3367,-2.1359],[33.3581,-2.1679],[33.5153,-2.4487],[33.6721,-2.6129],[33.7632,-2.6617],[33.7873,-2.7075],[33.7839,-2.7359],[33.7646,-2.7554],[33.727,-2.7617],[33.6888,-2.7914],[33.6199,-2.7715],[33.5128,-2.8353],[33.4986,-2.8608],[33.5295,-2.9728],[33.4855,-3.1475],[33.4474,-3.2019],[33.4229,-3.274],[33.329,-3.3184],[33.2486,-3.3152],[33.2139,-3.3275],[33.1759,-3.4018],[33.1099,-3.4326],[33.0667,-3.3996],[32.964,-3.3629],[32.9371,-3.3419],[32.9212,-3.3052],[32.8621,-3.255],[32.8003,-3.2715],[32.7744,-3.2641],[32.7542,-3.2761],[32.7391,-3.3075],[32.6808,-3.3197],[32.6597,-3.3849],[32.6644,-3.4164],[32.6878,-3.4202],[32.6866,-3.4479],[32.6493,-3.4466],[32.5338,-3.3711],[32.5407,-3.2643],[32.5104,-3.1978],[32.5967,-2.9603],[32.5095,-2.8871],[32.5348,-2.8111],[32.3604,-2.7098],[32.4138,-2.6085],[32.245,-2.5804],[32.214,-2.5382],[32.1624,-2.5208],[31.9523,-2.389],[31.9354,-2.3581],[31.9383,-2.3328],[31.9073,-2.2912],[31.8772,-2.148],[32.7039,-1.4688]]]}},{"type":"Feature","id":"Njombe","properties":{"id":"Njombe","iso_code":"TZ-29","name":"Njombe","name_full":"Njombe","name_ja":"ンジョンベ州","center_lonlat":[34.7335,-9.4306]},"geometry":{"type":"Polygon","coordinates":[[[34.5801,-10.5318],[34.593,-10.4817],[34.5651,-10.4098],[34.5856,-10.29],[34.5247,-10.0948],[34.5378,-10.0539],[34.5247,-10.0088],[34.3317,-9.7692],[34.3179,-9.7192],[34.2881,-9.7084],[34.0785,-9.5102],[34.0824,-9.4775],[34.0422,-9.4376],[34.0033,-9.4269],[33.8959,-9.2635],[33.8933,-9.2322],[33.8483,-9.2114],[33.8537,-9.1907],[33.875,-9.1794],[33.835,-9.092],[33.8017,-9.0539],[33.7959,-9.0063],[33.8533,-8.9136],[33.8945,-8.877],[33.949,-8.8663],[34.0228,-8.8916],[34.0507,-8.8825],[34.0609,-8.8537],[34.1116,-8.8332],[34.2277,-8.8371],[34.3275,-8.813],[34.475,-8.8255],[34.5213,-8.8072],[34.5565,-8.7701],[34.5826,-8.7179],[34.6148,-8.6955],[34.6522,-8.6818],[34.6849,-8.6857],[34.7074,-8.6703],[34.7325,-8.6052],[34.8741,-8.6478],[34.8741,-8.698],[35.1139,-8.7817],[35.1027,-8.9602],[35.1976,-9.0271],[35.2924,-9.0327],[35.3654,-9.0086],[35.401,-8.9857],[35.4225,-8.9959],[35.491,-9.0995],[35.6802,-9.2469],[35.697,-9.3399],[35.6309,-9.3944],[35.5469,-9.4399],[35.3919,-9.5753],[35.3271,-9.6098],[35.2297,-9.7125],[35.1238,-9.7599],[35.1142,-9.7872],[35.17,-9.8705],[35.1669,-9.9193],[35.2065,-9.9765],[35.216,-10.042],[35.1192,-10.1913],[35.0129,-10.2106],[34.989,-10.2365],[34.9838,-10.3022],[34.8981,-10.3678],[34.8243,-10.4036],[34.7781,-10.4677],[34.6916,-10.5227],[34.6633,-10.5353],[34.5801,-10.5318]]]}},{"type":"Feature","id":"North Pemba","properties":{"id":"North Pemba","iso_code":"TZ-06","name":"North Pemba","name_full":"North Pemba","name_ja":"ペンバ北部州","center_lonlat":[39.7748,-5.0473]},"geometry":{"type":"Polygon","coordinates":[[[39.7425,-5.1618],[39.7318,-5.1565],[39.7183,-5.1705],[39.7205,-5.1363],[39.6908,-5.1375],[39.7007,-5.0792],[39.7254,-5.0805],[39.7183,-5.0618],[39.6773,-5.0444],[39.6983,-5.0134],[39.6839,-5.0202],[39.6812,-4.9872],[39.7121,-4.9929],[39.716,-4.9768],[39.6773,-4.9451],[39.6841,-4.8903],[39.7121,-4.9314],[39.7352,-4.9103],[39.8059,-4.9609],[39.8215,-4.9938],[39.8237,-4.9572],[39.8356,-4.9451],[39.8416,-4.9656],[39.8499,-4.9492],[39.856,-4.8972],[39.8695,-4.906],[39.8782,-4.9877],[39.8356,-5.0265],[39.8281,-5.1021],[39.8386,-5.1375],[39.8485,-5.109],[39.8612,-5.1145],[39.8559,-5.1823],[39.8088,-5.2016],[39.7889,-5.1975],[39.7807,-5.1578],[39.7425,-5.1618]]]}},{"type":"Feature","id":"Pwani","properties":{"id":"Pwani","iso_code":"TZ-19","name":"Pwani","name_full":"Pwani","name_ja":"プワニ州","center_lonlat":[38.6531,-7.2549]},"geometry":{"type":"MultiPolygon","coordinates":[[[[39.4347,-7.1817],[39.4144,-7.2409],[39.3674,-7.2714],[39.3698,-7.3069],[39.3278,-7.3093],[39.3543,-7.3493],[39.3543,-7.3708],[39.3304,-7.4242],[39.304,-7.4485],[39.2747,-7.5964],[39.2962,-7.6884],[39.2869,-7.7175],[39.302,-7.7541],[39.2526,-7.8233],[39.2832,-7.8166],[39.305,-7.7918],[39.3278,-7.7263],[39.3552,-7.7525],[39.3408,-7.7817],[39.3955,-7.7799],[39.4131,-7.7922],[39.4435,-7.8326],[39.4209,-7.902],[39.437,-7.9939],[39.4575,-7.9797],[39.4544,-8.0104],[39.3618,-8.2068],[39.3408,-8.2068],[39.3483,-8.2751],[39.334,-8.2688],[39.3278,-8.2956],[39.2937,-8.2688],[39.3021,-8.2951],[39.28,-8.3093],[39.2847,-8.3186],[39.2332,-8.284],[39.1833,-8.2857],[38.8022,-8.3826],[38.7567,-8.3563],[38.687,-8.3718],[38.6398,-8.4688],[38.5933,-8.4968],[38.5364,-8.495],[38.5038,-8.3597],[38.2892,-8.1759],[38.2336,-8.1478],[37.9917,-8.0799],[37.8012,-7.9434],[37.8256,-7.8571],[37.8553,-7.8177],[37.8717,-7.6197],[37.9015,-7.593],[38.0289,-7.5629],[38.1004,-7.5756],[38.3604,-7.5219],[38.3658,-7.4855],[38.3027,-7.3191],[38.3271,-7.2448],[38.3554,-7.2081],[38.3926,-7.1857],[38.4323,-7.181],[38.5156,-7.043],[38.4967,-6.9831],[38.478,-6.9685],[38.417,-6.9559],[38.3861,-6.9658],[38.3468,-6.9401],[38.3249,-6.9409],[38.286,-6.8854],[38.3209,-6.767],[38.3037,-6.6919],[38.1997,-6.705],[38.0232,-6.6407],[37.9911,-6.5855],[38.0395,-6.4853],[38.0602,-6.3324],[38.057,-6.2519],[38.013,-6.2178],[38.034,-6.2063],[37.9843,-6.194],[37.8872,-6.0379],[37.8792,-5.9819],[37.8489,-5.9305],[37.8015,-5.8946],[37.9531,-5.8541],[38.0209,-5.8696],[38.0756,-5.8524],[38.147,-5.8581],[38.2097,-5.8893],[38.2378,-5.9202],[38.3177,-5.9448],[38.3438,-5.9814],[38.4032,-5.9913],[38.4354,-6.0165],[38.4689,-6.0235],[38.49,-6.0078],[38.5555,-6.0182],[38.6348,-5.9865],[38.6528,-5.9678],[38.6805,-5.969],[38.7167,-5.9493],[38.8003,-5.9631],[38.7791,-6.0549],[38.8132,-6.1306],[38.8586,-6.1699],[38.86,-6.2316],[38.8412,-6.2678],[38.8648,-6.3736],[38.8983,-6.3947],[38.9289,-6.4494],[38.9539,-6.455],[38.9647,-6.4732],[39.0261,-6.487],[39.0359,-6.4752],[38.9914,-6.4521],[39.0409,-6.4701],[39.1292,-6.5619],[39.0843,-6.6005],[39.0483,-6.7371],[39.0201,-6.7725],[39.0178,-6.7874],[39.0545,-6.7997],[39.0625,-6.8533],[39.0907,-6.8711],[39.1048,-6.9124],[39.074,-6.9431],[39.0272,-7.0326],[39.0391,-7.0435],[39.0583,-7.0367],[39.0789,-7.056],[39.1358,-7.0033],[39.1691,-7.0164],[39.1931,-6.9859],[39.2233,-6.9866],[39.2462,-6.9535],[39.3578,-6.9602],[39.4077,-7.0278],[39.4092,-7.1697],[39.4225,-7.1656],[39.4347,-7.1817]]],[[[39.8957,-7.6376],[39.911,-7.6545],[39.8934,-7.7541],[39.8233,-7.914],[39.7837,-7.9059],[39.7546,-7.9153],[39.7263,-7.9734],[39.6868,-7.9889],[39.6297,-7.9858],[39.5872,-7.9455],[39.6219,-7.9392],[39.6317,-7.915],[39.6499,-7.9119],[39.693,-7.8703],[39.7075,-7.8474],[39.7039,-7.8194],[39.8143,-7.7885],[39.7734,-7.7755],[39.8449,-7.7377],[39.8957,-7.6376]]],[[[39.742,-7.9948],[39.7967,-7.9925],[39.8015,-8.0066],[39.7194,-8.0926],[39.7028,-8.0914],[39.7028,-8.049],[39.742,-7.9948]]]]}},{"type":"Feature","id":"Rukwa","properties":{"id":"Rukwa","iso_code":"TZ-20","name":"Rukwa","name_full":"Rukwa","name_ja":"ルクワ州","center_lonlat":[31.3761,-7.9747]},"geometry":{"type":"Polygon","coordinates":[[[30.2945,-7.1494],[30.5778,-6.9457],[30.6867,-6.913],[30.9046,-6.9021],[30.9917,-6.9348],[31.0353,-7.0655],[31.0353,-7.1527],[31.0789,-7.218],[31.3839,-7.2398],[31.4383,-7.3052],[31.4928,-7.7082],[32.0102,-7.7891],[32.2788,-7.9287],[32.4644,-8.0518],[32.7423,-8.4048],[32.7501,-8.4703],[32.6321,-8.4649],[32.5488,-8.36],[32.528,-8.2267],[32.5018,-8.2146],[32.3762,-8.299],[32.3149,-8.3011],[32.2781,-8.3451],[32.2747,-8.4021],[32.2919,-8.4563],[32.2874,-8.5691],[32.2124,-8.6635],[32.1547,-8.6985],[32.0302,-8.7426],[32.009,-8.7826],[32.0906,-8.8502],[32.0701,-8.8785],[32.1495,-8.9499],[32.1624,-8.9904],[32.1368,-9.004],[32.1456,-9.0703],[32.0964,-9.0691],[32.0317,-9.046],[31.9806,-9.0719],[31.9381,-9.0618],[31.9177,-9.0225],[31.9178,-8.9731],[31.9366,-8.9326],[31.7876,-8.8922],[31.7098,-8.9197],[31.6727,-8.913],[31.5533,-8.8091],[31.539,-8.7035],[31.4275,-8.6335],[31.386,-8.6325],[31.3533,-8.5872],[31.2609,-8.624],[31.2068,-8.5808],[31.1827,-8.5808],[31.1198,-8.6166],[31.0778,-8.6163],[30.9595,-8.5505],[30.8283,-8.3881],[30.7783,-8.2891],[30.7281,-8.1041],[30.655,-7.9274],[30.4416,-7.5963],[30.3696,-7.3102],[30.2945,-7.1494]]]}},{"type":"Feature","id":"Ruvuma","properties":{"id":"Ruvuma","iso_code":"TZ-21","name":"Ruvuma","name_full":"Ruvuma","name_ja":"ルヴマ州","center_lonlat":[36.2579,-10.7359]},"geometry":{"type":"Polygon","coordinates":[[[34.5801,-10.5318],[34.6633,-10.5353],[34.6916,-10.5227],[34.7781,-10.4677],[34.8243,-10.4036],[34.8981,-10.3678],[34.9838,-10.3022],[34.989,-10.2365],[35.0129,-10.2106],[35.1192,-10.1913],[35.216,-10.042],[35.2065,-9.9765],[35.1669,-9.9193],[35.17,-9.8705],[35.1142,-9.7872],[35.1238,-9.7599],[35.2297,-9.7125],[35.3271,-9.6098],[35.3919,-9.5753],[35.5469,-9.4399],[35.6309,-9.3944],[35.697,-9.3399],[35.7766,-9.3154],[35.8998,-9.1887],[35.905,-9.3156],[35.9335,-9.3841],[35.9181,-9.4344],[35.8624,-9.5016],[35.8607,-9.5754],[35.7822,-9.6868],[35.7249,-9.7169],[35.7184,-9.7775],[35.7619,-9.8108],[35.9726,-9.8086],[35.9986,-9.7606],[36.0437,-9.7215],[36.0878,-9.7091],[36.0922,-9.7294],[36.1334,-9.751],[36.2207,-9.7288],[36.2816,-9.739],[36.3644,-9.7273],[36.4403,-9.634],[36.4489,-9.564],[36.4808,-9.5527],[36.4928,-9.6132],[36.5642,-9.7622],[36.533,-9.843],[36.4784,-9.9136],[36.5037,-9.961],[36.5716,-9.9592],[36.6641,-9.9089],[36.8686,-9.7125],[37.0687,-9.5829],[37.1431,-9.5612],[37.1056,-9.6791],[36.9855,-9.8248],[36.9027,-9.8991],[36.8773,-9.9539],[36.8712,-10.1595],[36.9206,-10.2012],[37.1623,-10.2929],[37.7175,-10.4269],[37.8217,-10.4985],[37.9038,-10.6756],[37.993,-10.817],[38.0243,-11.0202],[38.0934,-11.2563],[37.9381,-11.284],[37.8752,-11.3191],[37.8185,-11.4599],[37.8169,-11.5336],[37.6478,-11.636],[37.5729,-11.6441],[37.5038,-11.6727],[37.4848,-11.7088],[37.4507,-11.7226],[37.3783,-11.7088],[37.3408,-11.6809],[37.2702,-11.6984],[37.1416,-11.6747],[37.0716,-11.6292],[37.0324,-11.5649],[36.9984,-11.5846],[36.9059,-11.5928],[36.8663,-11.5742],[36.8201,-11.5736],[36.738,-11.6747],[36.6673,-11.7134],[36.6257,-11.7214],[36.5457,-11.7294],[36.5087,-11.7098],[36.4949,-11.6809],[36.3781,-11.6809],[36.2787,-11.7088],[36.2409,-11.6946],[36.1997,-11.7015],[36.1792,-11.6756],[36.1681,-11.5787],[36.0222,-11.5057],[35.9885,-11.5122],[35.9698,-11.5024],[35.9608,-11.4835],[35.9703,-11.4612],[35.9397,-11.4341],[35.8264,-11.4135],[35.7643,-11.4749],[35.6956,-11.4946],[35.7034,-11.5165],[35.6648,-11.572],[35.5763,-11.6052],[35.5327,-11.5956],[35.5315,-11.6127],[35.4987,-11.5823],[35.4412,-11.5914],[35.4235,-11.5766],[34.9646,-11.5736],[34.9607,-11.4985],[34.8866,-11.3754],[34.8005,-11.3319],[34.7656,-11.3451],[34.737,-11.2968],[34.7575,-11.2776],[34.7287,-11.254],[34.7141,-11.2027],[34.6818,-11.1851],[34.6135,-11.1022],[34.593,-11.0162],[34.6455,-10.9132],[34.6567,-10.7699],[34.675,-10.7524],[34.6476,-10.7084],[34.66,-10.6655],[34.6263,-10.6143],[34.6244,-10.5834],[34.6004,-10.5781],[34.5801,-10.5318]]]}},{"type":"Feature","id":"Shinyanga","properties":{"id":"Shinyanga","iso_code":"TZ-22","name":"Shinyanga","name_full":"Shinyanga","name_ja":"シニャンガ州","center_lonlat":[32.9033,-3.7549]},"geometry":{"type":"Polygon","coordinates":[[[31.6906,-4.0379],[31.6769,-3.968],[31.691,-3.9047],[31.7473,-3.8203],[31.8352,-3.7429],[31.9407,-3.6937],[32.1342,-3.6726],[32.1483,-3.5952],[32.1166,-3.3947],[32.1377,-3.3279],[32.1809,-3.2722],[32.2502,-3.2364],[32.2803,-3.2572],[32.289,-3.2946],[32.3149,-3.3158],[32.3464,-3.3191],[32.3625,-3.2858],[32.4157,-3.2344],[32.5104,-3.1978],[32.5407,-3.2643],[32.5338,-3.3711],[32.6493,-3.4466],[32.6866,-3.4479],[32.6878,-3.4202],[32.6644,-3.4164],[32.6597,-3.3849],[32.6808,-3.3197],[32.7391,-3.3075],[32.7542,-3.2761],[32.7744,-3.2641],[32.8003,-3.2715],[32.8621,-3.255],[32.9212,-3.3052],[32.9371,-3.3419],[32.964,-3.3629],[33.0667,-3.3996],[33.1099,-3.4326],[33.1759,-3.4018],[33.2139,-3.3275],[33.2486,-3.3152],[33.329,-3.3184],[33.4229,-3.274],[33.4748,-3.28],[33.594,-3.3886],[33.6815,-3.431],[33.7318,-3.4442],[33.8033,-3.4177],[33.8325,-3.431],[33.8616,-3.4866],[33.9093,-3.5157],[34.0762,-3.5263],[34.1583,-3.5502],[34.1901,-3.6031],[34.2669,-3.8151],[34.3225,-3.8866],[34.4129,-3.9609],[34.3876,-3.988],[34.3269,-4.0037],[34.2888,-4.0365],[34.2601,-4.0324],[34.224,-4.069],[34.1965,-4.0697],[34.1063,-4.0472],[34.0714,-4.025],[34.0168,-4.031],[33.984,-4.0221],[33.9099,-3.9588],[33.8181,-3.9527],[33.7432,-3.9271],[33.6758,-3.9333],[33.656,-3.9179],[33.6514,-3.8923],[33.5955,-3.8796],[33.5102,-3.904],[33.3864,-3.8896],[33.2708,-3.9174],[33.182,-3.9593],[33.1288,-3.9618],[33.0689,-3.9568],[33.0236,-3.9189],[32.983,-3.9053],[32.935,-3.9261],[32.8637,-3.9106],[32.713,-3.9797],[32.7239,-4.0369],[32.7092,-4.0917],[32.6853,-4.0954],[32.6496,-4.1463],[32.687,-4.1843],[32.7318,-4.1996],[32.7134,-4.2527],[32.5924,-4.2821],[32.5811,-4.2182],[32.5291,-4.1831],[32.4676,-4.2087],[32.445,-4.2737],[32.4482,-4.3331],[32.407,-4.3774],[32.3711,-4.3849],[32.293,-4.3425],[32.2114,-4.317],[32.1283,-4.3331],[32.0462,-4.3955],[31.9717,-4.4302],[31.9821,-4.3507],[31.9678,-4.3014],[31.9592,-4.144],[31.8964,-4.0921],[31.6906,-4.0379]]]}},{"type":"Feature","id":"Simiyu","properties":{"id":"Simiyu","iso_code":"TZ-30","name":"Simiyu","name_full":"Simiyu","name_ja":"シミユ州","center_lonlat":[34.2691,-2.9563]},"geometry":{"type":"Polygon","coordinates":[[[35.2076,-2.487],[35.2162,-2.5837],[35.1501,-2.8686],[35.1227,-2.9196],[35.0356,-2.9675],[34.9975,-2.9554],[34.936,-2.8883],[34.9012,-2.8831],[34.8925,-3.5969],[34.8653,-3.6227],[34.8221,-3.6246],[34.8143,-3.654],[34.7533,-3.7231],[34.7605,-3.8018],[34.7245,-3.8085],[34.685,-3.8517],[34.4428,-3.9387],[34.4129,-3.9609],[34.3225,-3.8866],[34.2669,-3.8151],[34.1901,-3.6031],[34.1583,-3.5502],[34.0762,-3.5263],[33.9093,-3.5157],[33.8616,-3.4866],[33.8325,-3.431],[33.8033,-3.4177],[33.7318,-3.4442],[33.6815,-3.431],[33.594,-3.3886],[33.4748,-3.28],[33.4229,-3.274],[33.4474,-3.2019],[33.4855,-3.1475],[33.5295,-2.9728],[33.4986,-2.8608],[33.5128,-2.8353],[33.6199,-2.7715],[33.6888,-2.7914],[33.727,-2.7617],[33.7646,-2.7554],[33.7839,-2.7359],[33.7873,-2.7075],[33.7632,-2.6617],[33.6721,-2.6129],[33.5153,-2.4487],[33.3581,-2.1679],[33.5094,-2.1532],[33.6056,-2.1831],[33.6422,-2.1468],[33.7494,-2.086],[33.7864,-2.095],[33.816,-2.1233],[33.8311,-2.1721],[33.8706,-2.194],[33.8969,-2.1818],[34.0043,-2.182],[34.0111,-2.1472],[34.0356,-2.1324],[34.0996,-2.1916],[34.1696,-2.196],[34.2983,-2.2569],[34.3216,-2.2905],[34.4284,-2.3578],[34.4785,-2.4249],[34.5072,-2.4394],[34.5648,-2.4367],[34.6578,-2.4913],[35.2076,-2.487]]]}},{"type":"Feature","id":"Singida","properties":{"id":"Singida","iso_code":"TZ-23","name":"Singida","name_full":"Singida","name_ja":"シンギダ州","center_lonlat":[34.4931,-5.7482]},"geometry":{"type":"Polygon","coordinates":[[[35.3409,-4.8545],[35.345,-4.8897],[35.3194,-4.9489],[35.0755,-5.1158],[35.0702,-5.1491],[35.0907,-5.1826],[35.0929,-5.2571],[35.1397,-5.4047],[35.2201,-5.5277],[35.2623,-5.5585],[35.2689,-5.594],[35.3385,-5.7003],[35.2869,-5.7525],[35.2722,-5.8311],[35.2109,-5.9519],[35.2072,-6.0679],[35.1855,-6.1579],[35.1937,-6.2447],[35.2234,-6.3195],[35.196,-6.4773],[35.2137,-6.6485],[35.186,-6.7152],[35.06,-6.721],[35.0809,-6.9205],[34.9194,-6.8897],[34.7695,-6.9901],[34.758,-7.0869],[34.7207,-7.1571],[34.4265,-7.2181],[34.376,-7.2784],[34.3777,-7.3096],[34.358,-7.3258],[34.2647,-7.3306],[34.174,-7.3138],[34.1089,-7.3944],[33.9385,-7.499],[33.8154,-7.4347],[33.7778,-7.3017],[33.7204,-7.2843],[33.6613,-7.1971],[33.6266,-7.1636],[33.584,-7.1477],[33.5598,-7.1078],[33.5381,-7.0013],[33.4849,-6.9428],[33.5283,-6.8546],[33.5291,-6.6425],[33.5186,-6.6206],[33.5664,-6.564],[33.6541,-6.5279],[33.7559,-6.4249],[33.8527,-6.3754],[33.8879,-6.319],[34.0153,-6.2189],[34.0001,-6.1523],[34.0029,-6.0689],[34.0553,-5.8745],[34.0587,-5.7675],[34.112,-5.6867],[34.1089,-5.6417],[34.0569,-5.5935],[34.1011,-5.5262],[34.2033,-5.4334],[34.2313,-5.39],[34.1208,-5.2735],[34.0093,-5.1987],[33.9585,-5.1799],[33.9294,-5.1505],[33.9135,-5.0663],[33.9418,-4.9878],[33.9165,-4.9008],[33.9159,-4.8506],[33.9518,-4.7541],[33.9385,-4.5838],[33.9601,-4.4925],[34.0789,-4.3392],[34.1736,-4.1579],[34.1968,-4.1382],[34.2603,-4.146],[34.2888,-4.0365],[34.3269,-4.0037],[34.3876,-3.988],[34.4129,-3.9609],[34.4428,-3.9387],[34.685,-3.8517],[34.7245,-3.8085],[34.7605,-3.8018],[34.8922,-3.9095],[34.929,-3.985],[35.0144,-4.0778],[35.017,-4.1076],[34.9064,-4.28],[34.8692,-4.3811],[34.9144,-4.4312],[34.9825,-4.4715],[35.0323,-4.5287],[35.069,-4.6095],[35.1357,-4.6419],[35.1448,-4.7235],[35.185,-4.7511],[35.2436,-4.7614],[35.2813,-4.8316],[35.3409,-4.8545]]]}},{"type":"Feature","id":"South Pemba","properties":{"id":"South Pemba","iso_code":"TZ-10","name":"South Pemba","name_full":"South Pemba","name_ja":"ペンバ南部州","center_lonlat":[39.7534,-5.3083]},"geometry":{"type":"MultiPolygon","coordinates":[[[[39.8559,-5.1823],[39.856,-5.253],[39.7961,-5.4068],[39.7815,-5.4011],[39.7809,-5.3832],[39.764,-5.4323],[39.729,-5.4542],[39.7386,-5.4311],[39.7054,-5.443],[39.6983,-5.4311],[39.6489,-5.4275],[39.6506,-5.3385],[39.6983,-5.3424],[39.6636,-5.2872],[39.6989,-5.2927],[39.7263,-5.2804],[39.6908,-5.2599],[39.7461,-5.253],[39.7642,-5.2624],[39.7809,-5.2394],[39.7363,-5.24],[39.6908,-5.2114],[39.6687,-5.214],[39.6499,-5.1909],[39.7461,-5.2052],[39.7425,-5.1618],[39.7807,-5.1578],[39.7889,-5.1975],[39.8088,-5.2016],[39.8559,-5.1823]]],[[[39.5755,-5.3945],[39.6212,-5.4411],[39.6522,-5.4509],[39.6598,-5.476],[39.6329,-5.4778],[39.6153,-5.4638],[39.569,-5.4062],[39.5755,-5.3945]]]]}},{"type":"Feature","id":"Tabora","properties":{"id":"Tabora","iso_code":"TZ-24","name":"Tabora","name_full":"Tabora","name_ja":"タボーラ州","center_lonlat":[32.8229,-5.2854]},"geometry":{"type":"Polygon","coordinates":[[[34.2888,-4.0365],[34.2603,-4.146],[34.1968,-4.1382],[34.1736,-4.1579],[34.0789,-4.3392],[33.9601,-4.4925],[33.9385,-4.5838],[33.9518,-4.7541],[33.9159,-4.8506],[33.9165,-4.9008],[33.9418,-4.9878],[33.9135,-5.0663],[33.9294,-5.1505],[33.9585,-5.1799],[34.0093,-5.1987],[34.1208,-5.2735],[34.2313,-5.39],[34.2033,-5.4334],[34.1011,-5.5262],[34.0569,-5.5935],[34.1089,-5.6417],[34.112,-5.6867],[34.0587,-5.7675],[34.0553,-5.8745],[34.0029,-6.0689],[34.0001,-6.1523],[34.0153,-6.2189],[33.8879,-6.319],[33.8527,-6.3754],[33.7559,-6.4249],[33.6541,-6.5279],[33.5664,-6.564],[33.5186,-6.6206],[33.5291,-6.6425],[33.5283,-6.8546],[33.4849,-6.9428],[33.2677,-6.9556],[33.1872,-6.9373],[33.1178,-6.8909],[33.0362,-6.8669],[32.9186,-6.8982],[32.8611,-6.9413],[32.8173,-6.9368],[32.7923,-6.9469],[32.7164,-7.0747],[32.6905,-7.0938],[32.5528,-7.1036],[32.5869,-6.9011],[32.5854,-6.693],[32.6145,-6.6007],[32.7312,-6.4662],[32.7371,-6.4472],[32.7159,-6.3987],[32.5123,-6.3609],[32.4304,-6.257],[32.3444,-6.22],[32.3177,-6.1921],[32.3119,-6.1667],[32.2039,-6.1051],[32.1383,-6.0066],[32.1014,-5.9046],[32.098,-5.8358],[32.0471,-5.7669],[31.9683,-5.7396],[31.9352,-5.7469],[31.8653,-5.726],[31.8537,-5.7321],[31.8273,-5.7123],[31.7978,-5.7186],[31.6902,-5.8011],[31.6285,-5.8253],[31.5434,-5.8041],[31.522,-5.8222],[31.507,-5.8112],[31.4506,-5.8222],[31.3718,-5.7874],[31.2752,-5.8015],[31.2414,-5.7527],[31.2218,-5.7457],[31.1489,-5.7572],[31.152,-5.6925],[31.139,-5.6372],[31.1145,-5.6338],[31.0332,-5.5629],[31.0309,-5.5394],[31.0595,-5.5235],[31.0622,-5.4986],[31.2117,-5.4618],[31.2303,-5.4271],[31.193,-5.2684],[31.2017,-5.153],[31.2503,-5.0181],[31.2276,-4.9592],[31.3136,-4.9059],[31.3258,-4.8767],[31.3896,-4.8441],[31.3919,-4.7096],[31.4665,-4.6758],[31.4909,-4.6205],[31.4638,-4.4698],[31.4518,-4.4453],[31.4241,-4.448],[31.4166,-4.3563],[31.4755,-4.2471],[31.5162,-4.236],[31.6128,-4.2464],[31.6818,-4.2123],[31.6642,-4.1579],[31.6371,-4.1279],[31.6906,-4.0379],[31.8964,-4.0921],[31.9592,-4.144],[31.9678,-4.3014],[31.9821,-4.3507],[31.9717,-4.4302],[32.0462,-4.3955],[32.1283,-4.3331],[32.2114,-4.317],[32.293,-4.3425],[32.3711,-4.3849],[32.407,-4.3774],[32.4482,-4.3331],[32.445,-4.2737],[32.4676,-4.2087],[32.5291,-4.1831],[32.5811,-4.2182],[32.5924,-4.2821],[32.7134,-4.2527],[32.7318,-4.1996],[32.687,-4.1843],[32.6496,-4.1463],[32.6853,-4.0954],[32.7092,-4.0917],[32.7239,-4.0369],[32.713,-3.9797],[32.8637,-3.9106],[32.935,-3.9261],[32.983,-3.9053],[33.0236,-3.9189],[33.0689,-3.9568],[33.1288,-3.9618],[33.182,-3.9593],[33.2708,-3.9174],[33.3864,-3.8896],[33.5102,-3.904],[33.5955,-3.8796],[33.6514,-3.8923],[33.656,-3.9179],[33.6758,-3.9333],[33.7432,-3.9271],[33.8181,-3.9527],[33.9099,-3.9588],[33.984,-4.0221],[34.0168,-4.031],[34.0714,-4.025],[34.1063,-4.0472],[34.1965,-4.0697],[34.224,-4.069],[34.2601,-4.0324],[34.2888,-4.0365]]]}},{"type":"Feature","id":"Tanga","properties":{"id":"Tanga","iso_code":"TZ-25","name":"Tanga","name_full":"Tanga","name_ja":"タンガ州","center_lonlat":[38.2758,-5.2249]},"geometry":{"type":"Polygon","coordinates":[[[38.4162,-4.12],[39.2151,-4.6887],[39.2215,-4.7167],[39.2161,-4.7491],[39.1702,-4.78],[39.216,-4.7957],[39.207,-4.8723],[39.1623,-4.9387],[39.1633,-4.8483],[39.1457,-4.8998],[39.1304,-4.9181],[39.1087,-4.9166],[39.1287,-4.9534],[39.1322,-5.0102],[39.1223,-5.0245],[39.0982,-5.0234],[39.0828,-5.0615],[39.1292,-5.0475],[39.1428,-5.0959],[39.0941,-5.145],[39.0404,-5.2394],[39.0482,-5.2467],[39.0746,-5.2188],[39.0806,-5.2311],[39.0264,-5.3785],[38.9813,-5.4174],[38.9988,-5.4653],[38.9854,-5.505],[38.9216,-5.6163],[38.8889,-5.6371],[38.9026,-5.6433],[38.8952,-5.7105],[38.8325,-5.8156],[38.8213,-5.925],[38.8003,-5.9631],[38.7167,-5.9493],[38.6805,-5.969],[38.6528,-5.9678],[38.6348,-5.9865],[38.5555,-6.0182],[38.49,-6.0078],[38.4689,-6.0235],[38.4354,-6.0165],[38.4032,-5.9913],[38.3438,-5.9814],[38.3177,-5.9448],[38.2378,-5.9202],[38.2097,-5.8893],[38.147,-5.8581],[38.0756,-5.8524],[38.0209,-5.8696],[37.9531,-5.8541],[37.8015,-5.8946],[37.7854,-5.9094],[37.7614,-5.9022],[37.7465,-5.9147],[37.7478,-5.9427],[37.7074,-5.9556],[37.655,-5.9529],[37.6279,-5.9802],[37.5389,-5.8853],[37.5273,-5.8394],[37.3908,-5.7894],[37.3757,-5.816],[37.3575,-5.9308],[37.2891,-5.9742],[37.215,-6.044],[37.1685,-6.1109],[37.1192,-6.0693],[37.1119,-6.0272],[37.1325,-5.9978],[37.0758,-5.9735],[37.0607,-5.8679],[37.1796,-5.7871],[37.2112,-5.7357],[37.2517,-5.5647],[37.3436,-5.4464],[37.366,-5.38],[37.3881,-5.2835],[37.3809,-5.2288],[37.3893,-5.2055],[37.5366,-5.0278],[37.5917,-4.9782],[37.6416,-4.9784],[37.7496,-5.0086],[37.9469,-4.9622],[38.0009,-4.997],[38.0491,-4.9989],[37.9715,-4.8056],[37.9799,-4.6912],[38.0299,-4.6386],[38.075,-4.6073],[38.4162,-4.12]]]}},{"type":"Feature","id":"Unguja North","properties":{"id":"Unguja North","iso_code":"TZ-07","name":"Unguja North","name_full":"Unguja North","name_ja":"ザンジバル北部州","center_lonlat":[39.2913,-5.9219]},"geometry":{"type":"MultiPolygon","coordinates":[[[[39.1979,-6.0336],[39.1862,-5.9943],[39.1932,-5.9041],[39.1974,-5.8967],[39.2111,-5.9177],[39.28,-5.842],[39.2953,-5.7365],[39.3135,-5.7184],[39.3557,-5.8038],[39.3543,-5.8967],[39.3907,-6.0004],[39.3468,-6.029],[39.2741,-6.0339],[39.1979,-6.0336]]],[[[39.2261,-5.7692],[39.2379,-5.856],[39.2145,-5.8581],[39.2144,-5.7774],[39.2261,-5.7692]]]]}},{"type":"Feature","id":"Unguja South","properties":{"id":"Unguja South","iso_code":"TZ-11","name":"Unguja South","name_full":"Unguja South","name_ja":"ザンジバル中部・南部州","center_lonlat":[39.4176,-6.2341]},"geometry":{"type":"Polygon","coordinates":[[[39.3907,-6.0004],[39.4028,-6.048],[39.4302,-6.0549],[39.4324,-6.0683],[39.4238,-6.1223],[39.437,-6.1579],[39.4165,-6.1921],[39.431,-6.186],[39.4575,-6.212],[39.4649,-6.1874],[39.4779,-6.1989],[39.501,-6.1962],[39.4985,-6.1238],[39.516,-6.1467],[39.5435,-6.3212],[39.5741,-6.3776],[39.5695,-6.4208],[39.5443,-6.4509],[39.5085,-6.4628],[39.4717,-6.4521],[39.4339,-6.4015],[39.4165,-6.3014],[39.3941,-6.3082],[39.4085,-6.3683],[39.3757,-6.3634],[39.3744,-6.3288],[39.3081,-6.2457],[39.2764,-6.1779],[39.2741,-6.0339],[39.3468,-6.029],[39.3907,-6.0004]]]}}]}
