{"type":"FeatureCollection","features":[{"type":"Feature","id":"Acklins","properties":{"id":"Acklins","iso_code":"BS-AK","name":"Acklins","name_full":"Acklins","name_ja":"アクリンズ","center_lonlat":[-73.8774,22.492]},"geometry":{"type":"MultiPolygon","coordinates":[[[[-73.9957,22.6575],[-74.0162,22.6849],[-73.9753,22.6718],[-73.9645,22.6915],[-73.9343,22.6985],[-73.9547,22.7202],[-73.8517,22.7333],[-73.8449,22.7202],[-73.8797,22.6718],[-73.8995,22.6985],[-73.8878,22.6718],[-73.8654,22.6718],[-73.8586,22.6572],[-73.8495,22.5825],[-73.8312,22.5414],[-73.8484,22.5376],[-73.8654,22.48],[-73.9284,22.4301],[-73.9616,22.3702],[-74.0138,22.3301],[-74.1194,22.2969],[-74.1942,22.2169],[-74.2447,22.2004],[-74.277,22.1715],[-74.2725,22.2257],[-74.2225,22.2255],[-74.1839,22.2541],[-74.1937,22.2739],[-74.1671,22.2882],[-74.1813,22.3019],[-74.1033,22.3324],[-74.0792,22.3552],[-74.0839,22.3906],[-74.0133,22.4058],[-73.9869,22.4575],[-73.9077,22.4794],[-73.8802,22.5029],[-73.8708,22.5353],[-73.8859,22.5756],[-73.9134,22.5945],[-73.9845,22.5956],[-74.0312,22.6237],[-73.9957,22.6575]]],[[[-73.4687,22.5877],[-73.5589,22.6117],[-73.5012,22.6109],[-73.4687,22.5877]]],[[[-73.6182,22.6013],[-73.5938,22.602],[-73.6076,22.5773],[-73.6255,22.5743],[-73.6182,22.6013]]]]}},{"type":"Feature","id":"Berry Islands","properties":{"id":"Berry Islands","iso_code":"BS-BY","name":"Berry Islands","name_full":"Berry Islands","name_ja":"ベリー諸島","center_lonlat":[-77.8567,25.7567]},"geometry":{"type":"MultiPolygon","coordinates":[[[[-77.8192,25.7076],[-77.8805,25.769],[-77.8807,25.7895],[-77.8583,25.7773],[-77.8192,25.7076]]],[[[-77.8641,25.4079],[-77.9067,25.4091],[-77.8368,25.4345],[-77.8641,25.4079]]]]}},{"type":"Feature","id":"Bimini","properties":{"id":"Bimini","iso_code":"BS-BI","name":"Bimini","name_full":"Bimini","name_ja":"ビミニ","center_lonlat":[-79.2564,25.7355]},"geometry":{"type":"Polygon","coordinates":[[[-79.2501,25.7747],[-79.2459,25.7346],[-79.267,25.7325],[-79.2655,25.7616],[-79.2939,25.7207],[-79.258,25.699],[-79.3006,25.6979],[-79.2803,25.7572],[-79.2501,25.7747]]]}},{"type":"Feature","id":"Black Point","properties":{"id":"Black Point","iso_code":"BS-BP","name":"Black Point","name_full":"Black Point","name_ja":"ブラック・ポイント","center_lonlat":[-76.3616,24.0484]},"geometry":{"type":"MultiPolygon","coordinates":[[[[-76.3252,23.974],[-76.375,24.0466],[-76.4015,24.1174],[-76.3768,24.1014],[-76.319,23.9802],[-76.3252,23.974]]],[[[-76.463,24.2136],[-76.4932,24.2188],[-76.5449,24.2956],[-76.463,24.2136]]],[[[-76.7743,24.5386],[-76.7726,24.5191],[-76.7893,24.5185],[-76.7924,24.5491],[-76.7743,24.5386]]]]}},{"type":"Feature","id":"Cat Island","properties":{"id":"Cat Island","iso_code":"BS-CI","name":"Cat Island","name_full":"Cat Island","name_ja":"キャット島","center_lonlat":[-75.5,24.3675]},"geometry":{"type":"Polygon","coordinates":[[[-75.3147,24.2174],[-75.2904,24.1447],[-75.3799,24.1584],[-75.4831,24.1257],[-75.5099,24.1421],[-75.5213,24.1626],[-75.4636,24.1856],[-75.4339,24.2136],[-75.4147,24.2131],[-75.4101,24.2729],[-75.4806,24.3094],[-75.534,24.3892],[-75.5885,24.5126],[-75.6474,24.529],[-75.6527,24.5884],[-75.7566,24.6603],[-75.7322,24.6986],[-75.7089,24.7002],[-75.6263,24.645],[-75.6126,24.5624],[-75.572,24.5227],[-75.5322,24.4449],[-75.4761,24.3706],[-75.4004,24.3235],[-75.3696,24.2683],[-75.3147,24.2174]]]}},{"type":"Feature","id":"Central Abaco","properties":{"id":"Central Abaco","iso_code":"BS-CO","name":"Central Abaco","name_full":"Central Abaco","name_ja":"セントラル・アバコ","center_lonlat":[-77.1689,26.4709]},"geometry":{"type":"MultiPolygon","coordinates":[[[[-77.2306,26.2851],[-77.2504,26.3131],[-77.2186,26.3553],[-77.2301,26.4475],[-77.1962,26.4629],[-77.1864,26.5059],[-77.1681,26.5158],[-77.1536,26.5495],[-77.1607,26.5642],[-77.3297,26.6046],[-77.353,26.6461],[-77.3501,26.669],[-77.3754,26.6995],[-77.328,26.7091],[-77.2506,26.6877],[-77.2726,26.673],[-77.3052,26.674],[-77.2699,26.6251],[-77.1553,26.5881],[-77.0588,26.5294],[-77.0423,26.498],[-77.0586,26.4678],[-77.0554,26.4069],[-77.0172,26.386],[-77.0316,26.3553],[-77.2306,26.2851]]],[[[-77.2443,26.4785],[-77.241,26.4428],[-77.2545,26.4381],[-77.2782,26.4658],[-77.2443,26.4785]]]]}},{"type":"Feature","id":"Central Andros","properties":{"id":"Central Andros","iso_code":"BS-CS","name":"Central Andros","name_full":"Central Andros","name_ja":"セントラル・アンドロス","center_lonlat":[-77.9398,24.4938]},"geometry":{"type":"MultiPolygon","coordinates":[[[[-77.7418,24.6347],[-77.7536,24.602],[-77.7235,24.5351],[-77.7279,24.4742],[-77.8041,24.4488],[-77.8335,24.4191],[-77.8638,24.4154],[-77.8717,24.4068],[-77.8601,24.3849],[-77.9086,24.3508],[-77.9614,24.3455],[-78.0128,24.3142],[-78.0178,24.2751],[-78.0519,24.2887],[-78.0801,24.3795],[-78.1341,24.404],[-78.1344,24.5016],[-78.0718,24.5965],[-78.0299,24.6175],[-77.8341,24.649],[-77.7418,24.6347]]],[[[-77.8807,24.1863],[-77.9626,24.1522],[-77.9762,24.1868],[-77.9734,24.1962],[-77.9406,24.1936],[-77.85,24.2515],[-77.7987,24.2546],[-77.8084,24.2394],[-77.8539,24.2347],[-77.8807,24.1863]]],[[[-77.7677,24.3266],[-77.7869,24.3146],[-77.8044,24.3272],[-77.7192,24.3717],[-77.6824,24.3528],[-77.6903,24.3384],[-77.7375,24.3497],[-77.7677,24.3266]]],[[[-77.9216,24.262],[-77.9426,24.2531],[-77.9359,24.2272],[-77.9905,24.2272],[-78.0169,24.2484],[-77.9322,24.2757],[-77.9216,24.262]]],[[[-77.8692,24.3468],[-77.8328,24.3496],[-77.8673,24.3195],[-77.8837,24.3273],[-77.8836,24.3411],[-77.8692,24.3468]]]]}},{"type":"Feature","id":"Central Eleuthera","properties":{"id":"Central Eleuthera","iso_code":"BS-CE","name":"Central Eleuthera","name_full":"Central Eleuthera","name_ja":"セントラル・エルーセラ","center_lonlat":[-76.2009,25.1541]},"geometry":{"type":"Polygon","coordinates":[[[-76.314,25.2996],[-76.2237,25.2081],[-76.1183,25.1339],[-76.1266,25.0053],[-76.1544,24.9814],[-76.1703,24.9889],[-76.1544,25.0053],[-76.1467,25.0624],[-76.1649,25.1298],[-76.2637,25.1937],[-76.3326,25.2853],[-76.314,25.2996]]]}},{"type":"Feature","id":"Crooked Island","properties":{"id":"Crooked Island","iso_code":"BS-CK","name":"Crooked Island","name_full":"Crooked Island","name_ja":"クルックド島","center_lonlat":[-74.2034,22.7476]},"geometry":{"type":"MultiPolygon","coordinates":[[[[-74.2869,22.7333],[-74.352,22.8227],[-74.3446,22.8362],[-74.3104,22.8432],[-74.2285,22.8158],[-74.2006,22.7947],[-74.1937,22.7612],[-74.1739,22.7612],[-74.1671,22.7469],[-74.0907,22.7333],[-74.0981,22.7469],[-74.0162,22.7202],[-74.0907,22.6575],[-74.1041,22.6883],[-74.1484,22.6778],[-74.2223,22.6956],[-74.2489,22.7202],[-74.2783,22.6932],[-74.2869,22.7333]]],[[[-74.2838,22.6718],[-74.3175,22.6025],[-74.3856,22.5414],[-74.3767,22.5844],[-74.2838,22.6718]]],[[[-73.6662,23.0895],[-73.7974,23.0738],[-73.817,23.1038],[-73.6857,23.1025],[-73.6662,23.0895]]]]}},{"type":"Feature","id":"East Grand Bahama","properties":{"id":"East Grand Bahama","iso_code":"BS-EG","name":"East Grand Bahama","name_full":"East Grand Bahama","name_ja":"イースト・グランド・バハマ","center_lonlat":[-78.1886,26.6723]},"geometry":{"type":"MultiPolygon","coordinates":[[[[-78.4744,26.7128],[-78.2871,26.6855],[-78.2529,26.7129],[-78.2026,26.6972],[-78.1671,26.7104],[-78.1189,26.7043],[-78.0554,26.726],[-77.9717,26.7296],[-77.9154,26.7764],[-77.9208,26.7169],[-77.9022,26.6624],[-77.9291,26.6392],[-77.9626,26.6597],[-78.0408,26.6584],[-78.4112,26.5942],[-78.4744,26.7128]]],[[[-77.8538,26.6008],[-77.8346,26.6105],[-77.8684,26.5639],[-77.8931,26.6026],[-77.8576,26.6118],[-77.8645,26.5937],[-77.8538,26.6008]]]]}},{"type":"Feature","id":"Exuma","properties":{"id":"Exuma","iso_code":"BS-EX","name":"Exuma","name_full":"Exuma","name_ja":"エグズーマ","center_lonlat":[-75.8889,23.5738]},"geometry":{"type":"MultiPolygon","coordinates":[[[[-75.7982,23.5386],[-75.7825,23.5076],[-75.7449,23.4827],[-75.661,23.4526],[-75.6754,23.4385],[-75.743,23.4669],[-75.7938,23.4705],[-75.8127,23.4796],[-75.8044,23.5004],[-75.8592,23.5375],[-75.8734,23.5284],[-75.9455,23.588],[-75.9877,23.6008],[-76.0372,23.5966],[-76.003,23.614],[-76.0315,23.6685],[-75.99,23.686],[-75.9572,23.6549],[-75.9081,23.645],[-75.9217,23.6314],[-75.8563,23.5673],[-75.7982,23.5386]]],[[[-75.6536,23.4595],[-75.577,23.4459],[-75.5398,23.4277],[-75.5238,23.4049],[-75.6373,23.4355],[-75.6536,23.4595]]]]}},{"type":"Feature","id":"Freeport","properties":{"id":"Freeport","iso_code":"BS-FP","name":"Freeport","name_full":"Freeport","name_ja":"フリーポート","center_lonlat":[-78.6297,26.5285]},"geometry":{"type":"Polygon","coordinates":[[[-78.5981,26.5314],[-78.6464,26.5049],[-78.6567,26.5207],[-78.6359,26.5462],[-78.6128,26.5462],[-78.5981,26.5314]]]}},{"type":"Feature","id":"Harbour Island","properties":{"id":"Harbour Island","iso_code":"BS-HI","name":"Harbour Island","name_full":"Harbour Island","name_ja":"ハーバー島","center_lonlat":[-76.7678,25.5461]},"geometry":{"type":"Polygon","coordinates":[[[-76.7702,25.5513],[-76.7459,25.545],[-76.7874,25.5419],[-76.7702,25.5513]]]}},{"type":"Feature","id":"Inagua","properties":{"id":"Inagua","iso_code":"BS-IN","name":"Inagua","name_full":"Inagua","name_ja":"イナグア島","center_lonlat":[-73.3503,21.077]},"geometry":{"type":"MultiPolygon","coordinates":[[[[-73.6471,21.0616],[-73.6452,21.0805],[-73.6678,21.1152],[-73.6334,21.0997],[-73.5529,21.1302],[-73.5146,21.1869],[-73.4333,21.1933],[-73.3899,21.2333],[-73.3438,21.1654],[-73.2552,21.1351],[-73.161,21.1699],[-73.053,21.3293],[-73.0338,21.3404],[-73.0122,21.332],[-73.0046,21.3144],[-73.0339,21.1567],[-73.0976,21.0814],[-73.1298,20.9937],[-73.2256,20.9525],[-73.2689,20.9587],[-73.3173,20.9376],[-73.3107,20.9505],[-73.3469,20.9638],[-73.399,20.9358],[-73.4926,20.9245],[-73.6008,20.9465],[-73.6314,20.9367],[-73.6516,20.9138],[-73.6761,20.9352],[-73.6823,20.9858],[-73.7032,21.0198],[-73.6533,21.0399],[-73.6471,21.0616]]],[[[-72.9996,21.4517],[-73.053,21.4249],[-73.0762,21.5068],[-72.9915,21.562],[-72.9104,21.5049],[-72.9146,21.4851],[-72.9334,21.4735],[-72.9996,21.4517]]]]}},{"type":"Feature","id":"Long Island","properties":{"id":"Long Island","iso_code":"BS-LI","name":"Long Island","name_full":"Long Island","name_ja":"ロング島","center_lonlat":[-75.1074,23.2299]},"geometry":{"type":"Polygon","coordinates":[[[-74.8591,22.9803],[-74.8334,22.9141],[-74.84,22.8599],[-74.8581,22.8706],[-74.8653,22.9045],[-74.879,22.8978],[-74.9244,23.0117],[-74.978,23.0729],[-75.1049,23.0996],[-75.2296,23.1715],[-75.2017,23.2062],[-75.1533,23.1652],[-75.1874,23.1715],[-75.1703,23.15],[-75.1061,23.1175],[-75.0685,23.1166],[-75.1396,23.2028],[-75.1129,23.2813],[-75.1317,23.3558],[-75.1465,23.3708],[-75.1608,23.357],[-75.159,23.3806],[-75.1969,23.4101],[-75.1949,23.4321],[-75.2269,23.4473],[-75.2222,23.4595],[-75.2501,23.4902],[-75.2768,23.583],[-75.3116,23.5768],[-75.3105,23.6394],[-75.3314,23.624],[-75.3116,23.645],[-75.3241,23.6487],[-75.3526,23.624],[-75.3314,23.686],[-75.1949,23.5141],[-75.1827,23.4464],[-75.0941,23.3053],[-75.0769,23.1717],[-75.06,23.1417],[-74.9097,23.0673],[-74.8448,23.0001],[-74.8591,22.9803]]]}},{"type":"Feature","id":"Mangrove Cay","properties":{"id":"Mangrove Cay","iso_code":"BS-MC","name":"Mangrove Cay","name_full":"Mangrove Cay","name_ja":"マングローブ・キー","center_lonlat":[-77.7826,24.1398]},"geometry":{"type":"Polygon","coordinates":[[[-77.8226,23.9802],[-77.8372,23.9848],[-77.8335,24.0218],[-77.8665,24.0476],[-77.8601,24.0627],[-77.942,24.0969],[-77.9291,24.1112],[-77.9091,24.1053],[-77.911,24.1358],[-77.8539,24.1658],[-77.8397,24.2067],[-77.7925,24.2136],[-77.7557,24.2593],[-77.6752,24.303],[-77.6312,24.2491],[-77.7025,24.1903],[-77.7577,24.1726],[-77.7325,24.1571],[-77.7585,24.1408],[-77.7023,24.1127],[-77.7298,24.0426],[-77.744,24.0355],[-77.8226,23.9802]]]}},{"type":"Feature","id":"Mayaguana","properties":{"id":"Mayaguana","iso_code":"BS-MG","name":"Mayaguana","name_full":"Mayaguana","name_ja":"マヤグアナ","center_lonlat":[-72.9701,22.3782]},"geometry":{"type":"Polygon","coordinates":[[[-73.1392,22.3633],[-73.166,22.3742],[-73.1454,22.3969],[-73.1422,22.4514],[-73.1317,22.4595],[-73.1061,22.4335],[-73.0702,22.4453],[-73.0399,22.439],[-72.9637,22.3976],[-72.9399,22.3969],[-72.9536,22.4186],[-72.8205,22.3838],[-72.7833,22.3532],[-72.755,22.3497],[-72.7462,22.3313],[-72.7509,22.3112],[-72.7794,22.2882],[-72.8976,22.3622],[-72.957,22.3559],[-72.9884,22.3702],[-73.0737,22.3422],[-73.1392,22.3633]]]}},{"type":"Feature","id":"Moore's Island","properties":{"id":"Moore's Island","iso_code":"BS-MI","name":"Moore's Island","name_full":"Moore's Island","name_ja":"モーレイズ島","center_lonlat":[-77.5634,26.3043]},"geometry":{"type":"Polygon","coordinates":[[[-77.538,26.3066],[-77.5727,26.2687],[-77.5796,26.3376],[-77.538,26.3066]]]}},{"type":"Feature","id":"New Providence","properties":{"id":"New Providence","iso_code":"BS-X01~","name":"New Providence","name_full":"New Providence","name_ja":"ニュープロビデンス島","center_lonlat":[-77.4228,25.04]},"geometry":{"type":"Polygon","coordinates":[[[-77.48,24.9914],[-77.5455,25.0019],[-77.5619,25.0189],[-77.5272,25.0544],[-77.456,25.077],[-77.34,25.0838],[-77.2638,25.0581],[-77.3795,25.0015],[-77.4356,25.0149],[-77.4668,24.987],[-77.48,24.9914]]]}},{"type":"Feature","id":"North Abaco","properties":{"id":"North Abaco","iso_code":"BS-NO","name":"North Abaco","name_full":"North Abaco","name_ja":"ノース・アバコ","center_lonlat":[-77.4989,26.8427]},"geometry":{"type":"Polygon","coordinates":[[[-77.3754,26.6995],[-77.3909,26.6877],[-77.427,26.6951],[-77.4447,26.7551],[-77.4902,26.8233],[-77.5562,26.8706],[-77.6143,26.8565],[-77.7546,26.8795],[-77.8307,26.9094],[-77.9626,26.8931],[-77.9134,26.921],[-77.8682,26.9284],[-77.7745,26.9272],[-77.6298,26.9042],[-77.6068,26.9204],[-77.5113,26.8695],[-77.328,26.7091],[-77.3754,26.6995]]]}},{"type":"Feature","id":"North Andros","properties":{"id":"North Andros","iso_code":"BS-NS","name":"North Andros","name_full":"North Andros","name_ja":"ノース・アンドロス","center_lonlat":[-78.0842,24.7971]},"geometry":{"type":"Polygon","coordinates":[[[-78.1344,24.5016],[-78.18,24.4649],[-78.2264,24.4655],[-78.3516,24.5305],[-78.443,24.6245],[-78.3898,24.6467],[-78.3784,24.6694],[-78.3428,24.6654],[-78.3333,24.6821],[-78.3406,24.6934],[-78.3275,24.7106],[-78.3114,24.7101],[-78.2979,24.6968],[-78.2933,24.6588],[-78.3126,24.6177],[-78.3331,24.604],[-78.3263,24.5854],[-78.2773,24.6013],[-78.2716,24.6313],[-78.2522,24.6228],[-78.2543,24.5661],[-78.2377,24.5569],[-78.2307,24.6108],[-78.1965,24.604],[-78.264,24.7393],[-78.2785,24.7344],[-78.2642,24.7105],[-78.2648,24.6723],[-78.3041,24.7282],[-78.2921,24.7753],[-78.2396,24.8264],[-78.2437,24.851],[-78.2081,24.8618],[-78.1739,24.9196],[-78.1897,24.9467],[-78.1577,25.0002],[-78.1599,25.0283],[-78.2143,25.1846],[-78.2027,25.2067],[-78.1344,25.1937],[-78.107,25.1631],[-78.0904,25.1595],[-78.0452,25.1831],[-77.9877,25.1522],[-77.9769,25.1384],[-77.9943,25.1052],[-77.97,25.077],[-77.9866,25.0129],[-77.9342,24.9762],[-77.8734,24.8386],[-77.8292,24.7782],[-77.7372,24.7002],[-77.7418,24.6347],[-77.8341,24.649],[-78.0299,24.6175],[-78.0718,24.5965],[-78.1344,24.5016]]]}},{"type":"Feature","id":"North Eleuthera","properties":{"id":"North Eleuthera","iso_code":"BS-NE","name":"North Eleuthera","name_full":"North Eleuthera","name_ja":"ノース・エルーセラ","center_lonlat":[-76.6206,25.4442]},"geometry":{"type":"Polygon","coordinates":[[[-76.3326,25.2853],[-76.3716,25.3225],[-76.5308,25.3704],[-76.5912,25.4226],[-76.7128,25.4469],[-76.7845,25.4264],[-76.7595,25.45],[-76.7455,25.4892],[-76.7367,25.5636],[-76.6752,25.5568],[-76.691,25.5259],[-76.6889,25.4879],[-76.6732,25.5067],[-76.6439,25.4674],[-76.4976,25.3735],[-76.4609,25.3546],[-76.3516,25.3386],[-76.314,25.2996],[-76.3326,25.2853]]]}},{"type":"Feature","id":"Ragged Island","properties":{"id":"Ragged Island","iso_code":"BS-RI","name":"Ragged Island","name_full":"Ragged Island","name_ja":"ラグド島","center_lonlat":[-75.731,22.1939]},"geometry":{"type":"MultiPolygon","coordinates":[[[[-75.7221,22.2026],[-75.7147,22.1829],[-75.7344,22.175],[-75.7497,22.2045],[-75.733,22.1998],[-75.7395,22.2228],[-75.7221,22.2026]]],[[[-75.8117,22.3716],[-75.8055,22.3476],[-75.8196,22.3884],[-75.8117,22.3716]]]]}},{"type":"Feature","id":"Rum Cay","properties":{"id":"Rum Cay","iso_code":"BS-RC","name":"Rum Cay","name_full":"Rum Cay","name_ja":"ラム・キー","center_lonlat":[-74.8577,23.6869]},"geometry":{"type":"MultiPolygon","coordinates":[[[[-74.9001,23.7065],[-74.8124,23.7197],[-74.7772,23.6997],[-74.7937,23.6713],[-74.8249,23.6649],[-74.8187,23.6511],[-74.8607,23.6579],[-74.8728,23.6723],[-74.9416,23.6587],[-74.9386,23.6943],[-74.9001,23.7065]]],[[[-75.109,23.8469],[-75.1174,23.8151],[-75.1236,23.831],[-75.109,23.8469]]]]}},{"type":"Feature","id":"San Salvador Island","properties":{"id":"San Salvador Island","iso_code":"BS-SS","name":"San Salvador Island","name_full":"San Salvador Island","name_ja":"サン・サルバドル島","center_lonlat":[-74.4892,24.0476]},"geometry":{"type":"Polygon","coordinates":[[[-74.4687,24.0218],[-74.4923,23.9604],[-74.5581,23.9536],[-74.5297,24.0111],[-74.5297,24.1004],[-74.4648,24.1439],[-74.4271,24.0832],[-74.4346,24.0454],[-74.4755,23.9802],[-74.4687,24.0218]]]}},{"type":"Feature","id":"South Abaco","properties":{"id":"South Abaco","iso_code":"BS-SO","name":"South Abaco","name_full":"South Abaco","name_ja":"サウス・アバコ","center_lonlat":[-77.2246,26.1069]},"geometry":{"type":"Polygon","coordinates":[[[-77.0316,26.3553],[-77.0148,26.3157],[-77.0247,26.3035],[-77.0588,26.2904],[-77.052,26.3096],[-77.0845,26.3061],[-77.1649,26.2454],[-77.1922,26.069],[-77.1907,25.9163],[-77.2267,25.8851],[-77.253,25.8976],[-77.3151,25.991],[-77.3882,26.0054],[-77.4083,26.0297],[-77.3739,26.0355],[-77.3479,26.0706],[-77.3089,26.0806],[-77.2233,26.1458],[-77.258,26.2147],[-77.2339,26.244],[-77.2306,26.2851],[-77.0316,26.3553]]]}},{"type":"Feature","id":"South Andros","properties":{"id":"South Andros","iso_code":"BS-SA","name":"South Andros","name_full":"South Andros","name_ja":"サウス・アンドロス","center_lonlat":[-77.6509,23.9489]},"geometry":{"type":"Polygon","coordinates":[[[-77.744,24.0355],[-77.7255,24.0307],[-77.7096,24.0437],[-77.6479,24.1379],[-77.6392,24.2065],[-77.6273,24.2211],[-77.6075,24.2182],[-77.5495,24.1259],[-77.538,24.0454],[-77.5455,24.0044],[-77.525,23.9704],[-77.5455,23.9427],[-77.5971,23.9304],[-77.6007,23.9051],[-77.545,23.9366],[-77.5165,23.9188],[-77.5175,23.8642],[-77.5346,23.8286],[-77.5727,23.8294],[-77.5455,23.7884],[-77.5659,23.7407],[-77.5973,23.7306],[-77.6683,23.7611],[-77.6511,23.7419],[-77.6683,23.7202],[-77.6849,23.7414],[-77.7146,23.7487],[-77.7782,23.7468],[-77.744,23.7611],[-77.7491,23.7783],[-77.6752,23.7611],[-77.6589,23.7921],[-77.5913,23.8249],[-77.5762,23.8471],[-77.5941,23.8535],[-77.7031,23.7884],[-77.6963,23.7822],[-77.7202,23.7848],[-77.7443,23.8164],[-77.7646,23.8232],[-77.6656,23.8635],[-77.6609,23.8847],[-77.6948,23.8647],[-77.7987,23.8567],[-77.8275,23.9439],[-77.8226,23.9802],[-77.744,24.0355]]]}},{"type":"Feature","id":"South Eleuthera","properties":{"id":"South Eleuthera","iso_code":"BS-SE","name":"South Eleuthera","name_full":"South Eleuthera","name_ja":"サウス・エルーサラ","center_lonlat":[-76.2026,24.8205]},"geometry":{"type":"Polygon","coordinates":[[[-76.1544,24.9814],[-76.137,24.9022],[-76.1461,24.8342],[-76.175,24.7859],[-76.174,24.6773],[-76.1613,24.645],[-76.1945,24.6584],[-76.2364,24.7548],[-76.3153,24.7927],[-76.3363,24.8149],[-76.3175,24.8253],[-76.2128,24.8127],[-76.1776,24.8577],[-76.1758,24.8945],[-76.206,24.8641],[-76.2109,24.901],[-76.1966,24.9634],[-76.1703,24.9889],[-76.1544,24.9814]]]}},{"type":"Feature","id":"Spanish Wells","properties":{"id":"Spanish Wells","iso_code":"BS-SW","name":"Spanish Wells","name_full":"Spanish Wells","name_ja":"スパニッシュ・ウェルズ","center_lonlat":[-76.8368,25.5226]},"geometry":{"type":"Polygon","coordinates":[[[-76.829,25.5317],[-76.8094,25.5294],[-76.8721,25.5066],[-76.829,25.5317]]]}},{"type":"Feature","id":"West Grand Bahama","properties":{"id":"West Grand Bahama","iso_code":"BS-WG","name":"West Grand Bahama","name_full":"West Grand Bahama","name_ja":"ウェスト・グランド・バハマ","center_lonlat":[-78.6265,26.6195]},"geometry":{"type":"Polygon","coordinates":[[[-78.4112,26.5942],[-78.5402,26.565],[-78.5981,26.5314],[-78.6128,26.5462],[-78.6359,26.5462],[-78.6567,26.5207],[-78.6464,26.5049],[-78.6861,26.4919],[-78.7668,26.5081],[-78.8346,26.5537],[-78.9979,26.7013],[-78.8358,26.6146],[-78.8061,26.5778],[-78.7704,26.5833],[-78.7143,26.5705],[-78.638,26.6097],[-78.5736,26.6842],[-78.6,26.7082],[-78.6416,26.715],[-78.6074,26.7559],[-78.5938,26.8105],[-78.5572,26.7786],[-78.5392,26.7392],[-78.4744,26.7128],[-78.4112,26.5942]]]}}]}
