{"type":"FeatureCollection","features":[{"type":"Feature","id":"Banjul","properties":{"id":"Banjul","iso_code":"GM-B","name":"Banjul","name_full":"Banjul","name_ja":"バンジュール","center_lonlat":[-16.672,13.4113]},"geometry":{"type":"Polygon","coordinates":[[[-16.7629,13.405],[-16.6788,13.4962],[-16.6523,13.4682],[-16.6169,13.4782],[-16.5907,13.4614],[-16.5853,13.4433],[-16.6243,13.4272],[-16.5955,13.3851],[-16.6634,13.3346],[-16.7044,13.3378],[-16.7629,13.405]]]}},{"type":"Feature","id":"Central River","properties":{"id":"Central River","iso_code":"GM-M","name":"Central River","name_full":"Central River","name_ja":"ガンビア川中流地方","center_lonlat":[-14.9435,13.5963]},"geometry":{"type":"Polygon","coordinates":[[[-14.4621,13.5167],[-14.5188,13.4534],[-14.4886,13.3986],[-14.5256,13.3842],[-14.5521,13.3231],[-14.5922,13.3531],[-14.6616,13.3409],[-14.7316,13.359],[-14.7903,13.4173],[-14.8626,13.4471],[-14.9497,13.4631],[-15.0151,13.4957],[-15.1377,13.59],[-15.1813,13.5598],[-15.1974,13.5609],[-15.3,13.4962],[-15.3019,13.4962],[-15.3608,13.538],[-15.3726,13.5661],[-15.3679,13.6264],[-15.498,13.6415],[-15.4675,13.7083],[-15.3941,13.7715],[-15.3478,13.7886],[-15.3045,13.7819],[-15.2673,13.7418],[-15.1706,13.7938],[-15.0763,13.819],[-15.0168,13.7969],[-14.8793,13.7806],[-14.8313,13.7356],[-14.8029,13.6523],[-14.7409,13.6154],[-14.6267,13.6635],[-14.5426,13.6408],[-14.5097,13.6091],[-14.4804,13.5331],[-14.4621,13.5167]]]}},{"type":"Feature","id":"Lower River","properties":{"id":"Lower River","iso_code":"GM-L","name":"Lower River","name_full":"Lower River","name_ja":"ガンビア川下流地方","center_lonlat":[-15.7549,13.3864]},"geometry":{"type":"Polygon","coordinates":[[[-15.1813,13.5598],[-15.218,13.5147],[-15.2278,13.4252],[-15.2771,13.3803],[-15.3792,13.3625],[-15.5195,13.3866],[-15.5961,13.3558],[-15.6925,13.3603],[-15.8071,13.3398],[-15.8227,13.3194],[-15.8244,13.2485],[-15.9788,13.2798],[-16.0635,13.2729],[-16.0901,13.2534],[-16.1182,13.2888],[-16.1513,13.2839],[-16.1993,13.2591],[-16.2108,13.3133],[-16.2271,13.3337],[-16.2162,13.3727],[-16.1612,13.4287],[-15.9949,13.413],[-15.8912,13.4272],[-15.8713,13.4409],[-15.7645,13.4369],[-15.6687,13.4757],[-15.6208,13.4548],[-15.5434,13.5097],[-15.5004,13.4882],[-15.4511,13.4909],[-15.4189,13.4546],[-15.3406,13.4408],[-15.3048,13.4553],[-15.3,13.4962],[-15.1974,13.5609],[-15.1813,13.5598]]]}},{"type":"Feature","id":"North Bank","properties":{"id":"North Bank","iso_code":"GM-N","name":"North Bank","name_full":"North Bank","name_ja":"ノースバンク地方","center_lonlat":[-16.0348,13.5068]},"geometry":{"type":"Polygon","coordinates":[[[-15.498,13.6415],[-15.3679,13.6264],[-15.3726,13.5661],[-15.3608,13.538],[-15.3019,13.4962],[-15.3218,13.4582],[-15.3517,13.4567],[-15.4158,13.4732],[-15.4652,13.5102],[-15.4908,13.503],[-15.5561,13.5283],[-15.6107,13.4893],[-15.6721,13.503],[-15.7699,13.4651],[-16.0902,13.4405],[-16.1416,13.4546],[-16.1785,13.441],[-16.273,13.3626],[-16.2891,13.3659],[-16.2891,13.4068],[-16.306,13.3917],[-16.3021,13.372],[-16.3164,13.3659],[-16.3021,13.3528],[-16.3905,13.3369],[-16.5218,13.359],[-16.5035,13.4169],[-16.5198,13.4513],[-16.5565,13.4856],[-16.548,13.5481],[-16.5614,13.5869],[-15.5182,13.5831],[-15.5025,13.5883],[-15.498,13.6415]]]}},{"type":"Feature","id":"Upper River","properties":{"id":"Upper River","iso_code":"GM-U","name":"Upper River","name_full":"Upper River","name_ja":"ガンビア川上流地方","center_lonlat":[-14.1726,13.3945]},"geometry":{"type":"Polygon","coordinates":[[[-14.4621,13.5167],[-14.3896,13.4659],[-14.3473,13.4524],[-14.0929,13.5547],[-13.9675,13.5756],[-13.9181,13.555],[-13.8846,13.5055],[-13.8427,13.4766],[-13.8187,13.4294],[-13.8226,13.3782],[-13.851,13.3358],[-13.9006,13.3146],[-14.1168,13.2822],[-14.2017,13.2296],[-14.3688,13.2357],[-14.4314,13.2614],[-14.4703,13.2983],[-14.5296,13.3073],[-14.5521,13.3231],[-14.5256,13.3842],[-14.4886,13.3986],[-14.5188,13.4534],[-14.4621,13.5167]]]}},{"type":"Feature","id":"West Coast","properties":{"id":"West Coast","iso_code":"GM-W","name":"West Coast","name_full":"West Coast","name_ja":"西部地方","center_lonlat":[-16.1085,13.2334]},"geometry":{"type":"Polygon","coordinates":[[[-15.8244,13.2485],[-15.8333,13.1568],[-16.6735,13.1643],[-16.7084,13.1567],[-16.7485,13.0992],[-16.7537,13.065],[-16.7867,13.0901],[-16.7755,13.1127],[-16.7967,13.1772],[-16.795,13.2359],[-16.8201,13.2813],[-16.8166,13.3106],[-16.8297,13.3385],[-16.81,13.3799],[-16.7629,13.405],[-16.7044,13.3378],[-16.6634,13.3346],[-16.5955,13.3851],[-16.5907,13.3385],[-16.5539,13.2958],[-16.4294,13.2622],[-16.4139,13.24],[-16.4194,13.2082],[-16.3998,13.2243],[-16.3778,13.215],[-16.4153,13.267],[-16.4399,13.2764],[-16.3846,13.2839],[-16.3747,13.2639],[-16.258,13.3249],[-16.2301,13.3164],[-16.2276,13.256],[-16.1855,13.2583],[-16.1513,13.2839],[-16.1182,13.2888],[-16.0901,13.2534],[-16.0635,13.2729],[-15.9788,13.2798],[-15.8244,13.2485]]]}}]}
