{"type":"FeatureCollection","features":[{"type":"Feature","id":"Centre","properties":{"id":"Centre","iso_code":"TG-C","name":"Centre","name_full":"Centre","name_ja":"中部地方","center_lonlat":[1.0541,8.6115]},"geometry":{"type":"Polygon","coordinates":[[[0.4836,8.835],[0.5849,8.8768],[0.5815,8.911],[0.6271,8.9426],[0.6417,8.9775],[0.6722,8.9866],[0.7312,9.0486],[0.7722,9.048],[0.7874,9.0263],[0.8673,9.0048],[0.9517,9.0219],[1.0003,9.0683],[0.986,9.1628],[1.0007,9.2058],[1.1098,9.2239],[1.2064,9.2135],[1.3621,9.2513],[1.4201,9.2923],[1.5673,9.1367],[1.5958,9.0768],[1.6076,8.5588],[1.6442,8.4935],[1.6076,8.4219],[1.6039,8.3675],[1.2364,8.372],[1.2307,8.2987],[1.2646,8.1637],[1.2512,8.0579],[1.2344,8.0203],[1.242,8.0024],[1.2099,7.9788],[1.0772,7.9518],[0.9745,7.9767],[0.84,7.9679],[0.8172,7.9463],[0.7269,7.9328],[0.6732,7.9013],[0.6027,7.8931],[0.575,8.1246],[0.5933,8.1507],[0.5738,8.2039],[0.7052,8.2828],[0.7128,8.298],[0.7088,8.3226],[0.6892,8.3313],[0.6851,8.3826],[0.6467,8.4142],[0.6163,8.4888],[0.5508,8.5193],[0.4435,8.6069],[0.3744,8.7248],[0.3727,8.7838],[0.3971,8.7815],[0.4078,8.7591],[0.4196,8.7912],[0.4735,8.7935],[0.4836,8.835]]]}},{"type":"Feature","id":"Kara","properties":{"id":"Kara","iso_code":"TG-K","name":"Kara","name_full":"Kara","name_ja":"カラ州","center_lonlat":[0.8555,9.5833]},"geometry":{"type":"Polygon","coordinates":[[[0.3946,10.0356],[0.4207,9.9995],[0.4248,9.9618],[0.5197,9.9399],[0.5189,9.9105],[0.5543,9.8765],[0.6394,9.8861],[0.6791,9.8783],[0.6679,9.9426],[0.6881,9.9959],[0.6948,10.0638],[0.7385,10.134],[0.7369,10.1699],[0.783,10.1764],[0.8056,10.156],[0.8525,10.1798],[0.8926,10.1685],[0.9158,10.1848],[0.9666,10.1811],[0.9971,10.2165],[1.331,9.9965],[1.3438,9.9624],[1.356,9.6475],[1.3513,9.5951],[1.3232,9.5423],[1.3365,9.4975],[1.3513,9.4825],[1.3684,9.4908],[1.3799,9.4625],[1.3867,9.3611],[1.4201,9.2923],[1.3621,9.2513],[1.2064,9.2135],[1.1098,9.2239],[1.0007,9.2058],[0.986,9.1628],[1.0003,9.0683],[0.9517,9.0219],[0.8673,9.0048],[0.7874,9.0263],[0.7722,9.048],[0.7312,9.0486],[0.6722,8.9866],[0.6417,8.9775],[0.6271,8.9426],[0.5815,8.911],[0.5849,8.8768],[0.4836,8.835],[0.5056,8.8663],[0.4931,8.9152],[0.4313,9.0276],[0.4585,9.0892],[0.4636,9.1371],[0.5047,9.1872],[0.4929,9.2586],[0.5266,9.2977],[0.5314,9.4011],[0.4835,9.4268],[0.4917,9.4513],[0.4835,9.47],[0.4117,9.4922],[0.3338,9.4795],[0.3218,9.4428],[0.2685,9.4206],[0.2314,9.419],[0.2268,9.4323],[0.2281,9.474],[0.2853,9.4884],[0.3019,9.5075],[0.2931,9.5183],[0.2535,9.5143],[0.2259,9.5319],[0.2302,9.5757],[0.3046,9.5716],[0.3224,9.5831],[0.3546,9.5711],[0.3777,9.5894],[0.3692,9.6101],[0.3494,9.6139],[0.2776,9.607],[0.2617,9.6279],[0.261,9.6572],[0.2753,9.6856],[0.3187,9.6486],[0.3471,9.6632],[0.3476,9.6988],[0.3224,9.7607],[0.3439,9.8384],[0.3417,9.9038],[0.3696,9.9388],[0.3498,10.0288],[0.3946,10.0356]]]}},{"type":"Feature","id":"Maritime","properties":{"id":"Maritime","iso_code":"TG-M","name":"Maritime","name_full":"Maritime","name_ja":"沿岸州","center_lonlat":[1.2689,6.487]},"geometry":{"type":"Polygon","coordinates":[[[0.7131,6.5339],[0.7649,6.5415],[0.8164,6.5694],[0.8825,6.6441],[0.8983,6.6832],[0.902,6.7815],[0.9236,6.8098],[0.9526,6.8181],[1.1159,6.8089],[1.1219,6.7943],[1.1798,6.7647],[1.1964,6.7392],[1.2409,6.7217],[1.3665,6.8283],[1.4205,6.8415],[1.4647,6.8314],[1.4998,6.8378],[1.5642,6.9031],[1.588,6.8812],[1.5832,6.8083],[1.6011,6.7464],[1.566,6.6781],[1.5963,6.6364],[1.5973,6.6008],[1.6274,6.5733],[1.6539,6.5707],[1.6808,6.5301],[1.6817,6.4898],[1.7184,6.467],[1.7441,6.4257],[1.7824,6.2773],[1.6331,6.2457],[1.6124,6.2348],[1.6193,6.2138],[1.4295,6.182],[1.1854,6.1005],[1.188,6.1356],[1.1762,6.1515],[1.0934,6.1609],[1.0252,6.2223],[0.9835,6.3246],[0.8868,6.3304],[0.8413,6.3792],[0.7668,6.4194],[0.7179,6.4888],[0.7131,6.5339]]]}},{"type":"Feature","id":"Plateaux","properties":{"id":"Plateaux","iso_code":"TG-P","name":"Plateaux","name_full":"Plateaux","name_ja":"高原州","center_lonlat":[1.117,7.437]},"geometry":{"type":"Polygon","coordinates":[[[0.6027,7.8931],[0.6732,7.9013],[0.7269,7.9328],[0.8172,7.9463],[0.84,7.9679],[0.9745,7.9767],[1.0772,7.9518],[1.2099,7.9788],[1.242,8.0024],[1.2344,8.0203],[1.2512,8.0579],[1.2646,8.1637],[1.2307,8.2987],[1.2364,8.372],[1.6039,8.3675],[1.6149,8.3563],[1.6256,8.2705],[1.6257,6.9968],[1.5319,6.9919],[1.5642,6.9031],[1.4998,6.8378],[1.4647,6.8314],[1.4205,6.8415],[1.3665,6.8283],[1.2409,6.7217],[1.1964,6.7392],[1.1798,6.7647],[1.1219,6.7943],[1.1159,6.8089],[0.9526,6.8181],[0.9236,6.8098],[0.902,6.7815],[0.8983,6.6832],[0.8825,6.6441],[0.8164,6.5694],[0.7649,6.5415],[0.7131,6.5339],[0.7274,6.5714],[0.7146,6.5839],[0.6682,6.5858],[0.6322,6.624],[0.6258,6.7278],[0.5766,6.7547],[0.5411,6.8172],[0.5193,6.8322],[0.5463,6.9148],[0.4946,6.9731],[0.5789,6.9968],[0.598,7.0312],[0.5977,7.1589],[0.6444,7.3019],[0.6297,7.3892],[0.623,7.3979],[0.5482,7.3833],[0.5167,7.411],[0.4956,7.5043],[0.5092,7.5854],[0.5621,7.6123],[0.5834,7.7043],[0.6123,7.6994],[0.6027,7.8931]]]}},{"type":"Feature","id":"Savanes","properties":{"id":"Savanes","iso_code":"TG-S","name":"Savanes","name_full":"Savanes","name_ja":"サバナ州","center_lonlat":[0.4481,10.5769]},"geometry":{"type":"Polygon","coordinates":[[[0.9971,10.2165],[0.9666,10.1811],[0.9158,10.1848],[0.8926,10.1685],[0.8525,10.1798],[0.8056,10.156],[0.783,10.1764],[0.7369,10.1699],[0.7385,10.134],[0.6948,10.0638],[0.6881,9.9959],[0.6679,9.9426],[0.6791,9.8783],[0.6394,9.8861],[0.5543,9.8765],[0.5189,9.9105],[0.5197,9.9399],[0.4248,9.9618],[0.4207,9.9995],[0.3946,10.0356],[0.3951,10.0724],[0.3634,10.0897],[0.3536,10.1155],[0.3572,10.22],[0.372,10.2651],[0.3966,10.2832],[0.3666,10.3045],[0.3088,10.2971],[0.3176,10.3173],[0.2788,10.3666],[0.2831,10.3968],[0.2732,10.4066],[0.2332,10.3986],[0.1971,10.4103],[0.1799,10.3942],[0.126,10.4916],[0.0573,10.5411],[0.0294,10.5825],[-0.0881,10.6335],[-0.0977,10.675],[-0.0828,10.7562],[-0.0321,10.8132],[-0.0361,10.8531],[-0.0144,10.9536],[0.0142,10.9837],[0.0162,11.0626],[0.0011,11.086],[-0.0323,11.0986],[-0.1217,11.0922],[-0.1661,11.135],[0.4866,11.0032],[0.4836,10.9797],[0.4997,10.9757],[0.4876,10.9332],[0.6753,10.9885],[0.9015,10.9927],[0.8758,10.9312],[0.8851,10.8694],[0.8629,10.7961],[0.7956,10.7265],[0.7813,10.693],[0.7885,10.5639],[0.7607,10.3822],[0.9971,10.2165]]]}}]}
