{"type":"FeatureCollection","features":[{"type":"Feature","id":"Haʻapai","properties":{"id":"Haʻapai","iso_code":"TO-02","name":"Haʻapai","name_full":"Haʻapai","name_ja":"ハアパイ諸島","center_lonlat":[-175.0735,-19.7544]},"geometry":{"type":"MultiPolygon","coordinates":[[[[-175.0693,-19.712],[-175.046,-19.7512],[-175.0593,-19.8014],[-175.0873,-19.7877],[-175.0995,-19.7498],[-175.0906,-19.7127],[-175.0693,-19.712]]],[[[-174.3611,-19.8014],[-174.337,-19.7878],[-174.3257,-19.7597],[-174.3059,-19.7672],[-174.3202,-19.8193],[-174.3393,-19.8219],[-174.3611,-19.8014]]],[[[-174.3058,-19.733],[-174.2574,-19.6847],[-174.2522,-19.6993],[-174.2717,-19.7491],[-174.3022,-19.7441],[-174.3058,-19.733]]],[[[-174.2609,-19.6305],[-174.248,-19.6359],[-174.2493,-19.6537],[-174.2752,-19.6357],[-174.293,-19.5927],[-174.2779,-19.5959],[-174.2609,-19.6305]]]]}},{"type":"Feature","id":"Niuas","properties":{"id":"Niuas","iso_code":"TO-03","name":"Niuas","name_full":"Niuas","name_ja":"ニウアス諸島","center_lonlat":[-175.6484,-15.5933]},"geometry":{"type":"MultiPolygon","coordinates":[[[[-175.6313,-15.5595],[-175.6126,-15.5733],[-175.6178,-15.6015],[-175.6392,-15.6243],[-175.6689,-15.6215],[-175.6863,-15.6023],[-175.6833,-15.5821],[-175.6313,-15.5595]]],[[[-173.7334,-15.9397],[-173.7152,-15.9321],[-173.7266,-15.963],[-173.7569,-15.9766],[-173.7647,-15.9586],[-173.7334,-15.9397]]]]}},{"type":"Feature","id":"Tongatapu","properties":{"id":"Tongatapu","iso_code":"TO-04","name":"Tongatapu","name_full":"Tongatapu","name_ja":"トンガタプ島","center_lonlat":[-175.2063,-21.1729]},"geometry":{"type":"MultiPolygon","coordinates":[[[[-175.0655,-21.124],[-175.0519,-21.155],[-175.1174,-21.2031],[-175.1176,-21.256],[-175.1488,-21.268],[-175.1805,-21.2551],[-175.2097,-21.2145],[-175.3258,-21.1736],[-175.3648,-21.1139],[-175.3553,-21.0896],[-175.3058,-21.0626],[-175.3408,-21.1026],[-175.3154,-21.1214],[-175.2406,-21.1137],[-175.2189,-21.1301],[-175.2164,-21.141],[-175.2382,-21.1584],[-175.2236,-21.1725],[-175.1931,-21.1581],[-175.1401,-21.1684],[-175.114,-21.1308],[-175.0655,-21.124]]],[[[-176.2135,-22.3239],[-176.1981,-22.332],[-176.2102,-22.3388],[-176.2135,-22.3239]]]]}},{"type":"Feature","id":"Vavaʻu","properties":{"id":"Vavaʻu","iso_code":"TO-05","name":"Vavaʻu","name_full":"Vavaʻu","name_ja":"ヴァヴァウ諸島","center_lonlat":[-173.9888,-18.6226]},"geometry":{"type":"MultiPolygon","coordinates":[[[[-173.9564,-18.5673],[-173.9154,-18.5953],[-173.9152,-18.6269],[-173.923,-18.637],[-173.9421,-18.6158],[-173.953,-18.6207],[-173.949,-18.6432],[-173.9626,-18.6635],[-173.986,-18.671],[-173.9905,-18.7052],[-174.0172,-18.6635],[-174.0012,-18.6574],[-174.011,-18.6295],[-174.0301,-18.6633],[-174.0594,-18.6635],[-174.0725,-18.634],[-174.0255,-18.6049],[-174.0041,-18.571],[-173.9564,-18.5673]]],[[[-174.6538,-18.8175],[-174.6641,-18.8014],[-174.6496,-18.7796],[-174.6268,-18.7975],[-174.6538,-18.8175]]]]}},{"type":"Feature","id":"ʻEua","properties":{"id":"ʻEua","iso_code":"TO-01","name":"ʻEua","name_full":"ʻEua","name_ja":"エウア島","center_lonlat":[-174.9398,-21.3738]},"geometry":{"type":"Polygon","coordinates":[[[-174.9147,-21.2922],[-174.9203,-21.4542],[-174.9836,-21.3909],[-174.97,-21.384],[-174.9717,-21.3479],[-174.9519,-21.3398],[-174.9184,-21.2844],[-174.9147,-21.2922]]]}}]}
