{"type":"FeatureCollection","features":[{"type":"Feature","id":"Arima","properties":{"id":"Arima","iso_code":"TT-ARI","name":"Arima","name_full":"Arima","name_ja":"アリマ","center_lonlat":[-61.2812,10.6276]},"geometry":{"type":"Polygon","coordinates":[[[-61.2854,10.654],[-61.2713,10.6406],[-61.2698,10.6085],[-61.295,10.6121],[-61.2854,10.654]]]}},{"type":"Feature","id":"Chaguanas","properties":{"id":"Chaguanas","iso_code":"TT-CHA","name":"Chaguanas","name_full":"Chaguanas","name_ja":"チャグアナス","center_lonlat":[-61.4105,10.5387]},"geometry":{"type":"Polygon","coordinates":[[[-61.4623,10.5226],[-61.4622,10.5381],[-61.441,10.565],[-61.4098,10.5663],[-61.369,10.5655],[-61.3645,10.5443],[-61.3795,10.5049],[-61.4623,10.5226]]]}},{"type":"Feature","id":"Couva-Tabaquite-Talparo","properties":{"id":"Couva-Tabaquite-Talparo","iso_code":"TT-CTT","name":"Couva-Tabaquite-Talparo","name_full":"Couva-Tabaquite-Talparo","name_ja":"クーバ＝タバキテ＝タルパロ地域自治体","center_lonlat":[-61.3389,10.4383]},"geometry":{"type":"Polygon","coordinates":[[[-61.4596,10.3097],[-61.4827,10.371],[-61.4752,10.3815],[-61.4879,10.4301],[-61.4623,10.5226],[-61.3795,10.5049],[-61.3645,10.5443],[-61.369,10.5655],[-61.2392,10.5914],[-61.2102,10.5132],[-61.218,10.4662],[-61.1971,10.4564],[-61.2436,10.3071],[-61.3115,10.3331],[-61.4278,10.31],[-61.4596,10.3097]]]}},{"type":"Feature","id":"Diego Martin Regional Corporation","properties":{"id":"Diego Martin Regional Corporation","iso_code":"TT-DMN","name":"Diego Martin Regional Corporation","name_full":"Diego Martin Regional Corporation","name_ja":"ディエゴ・マーティン地域自治体","center_lonlat":[-61.5672,10.7118]},"geometry":{"type":"Polygon","coordinates":[[[-61.5491,10.6671],[-61.6564,10.6898],[-61.6676,10.7068],[-61.6021,10.7477],[-61.4901,10.7546],[-61.4937,10.7065],[-61.5114,10.6758],[-61.5491,10.6671]]]}},{"type":"Feature","id":"Mayaro-Rio Claro","properties":{"id":"Mayaro-Rio Claro","iso_code":"TT-RCM","name":"Mayaro-Rio Claro","name_full":"Mayaro-Rio Claro","name_ja":"リオ・クラロー＝マヤロ","center_lonlat":[-61.1074,10.2868]},"geometry":{"type":"Polygon","coordinates":[[[-61.0384,10.4636],[-61.0163,10.3821],[-60.9613,10.33],[-60.9902,10.2993],[-61.0028,10.2475],[-60.996,10.1383],[-61.0416,10.1356],[-61.0997,10.0952],[-61.1777,10.0752],[-61.192,10.2301],[-61.2436,10.3071],[-61.1971,10.4564],[-61.0953,10.4695],[-61.0384,10.4636]]]}},{"type":"Feature","id":"Penal-Debe Regional Corporation","properties":{"id":"Penal-Debe Regional Corporation","iso_code":"TT-PED","name":"Penal-Debe Regional Corporation","name_full":"Penal-Debe Regional Corporation","name_ja":"ペナル＝デベ地域自治体","center_lonlat":[-61.4357,10.16]},"geometry":{"type":"Polygon","coordinates":[[[-61.5208,10.2401],[-61.4899,10.2493],[-61.4415,10.2591],[-61.3728,10.2174],[-61.3791,10.0728],[-61.5041,10.0695],[-61.4688,10.1857],[-61.5208,10.2401]]]}},{"type":"Feature","id":"Point Fortin","properties":{"id":"Point Fortin","iso_code":"TT-PTF","name":"Point Fortin","name_full":"Point Fortin","name_ja":"ポイント・フォーティン","center_lonlat":[-61.6685,10.1737]},"geometry":{"type":"Polygon","coordinates":[[[-61.7074,10.1659],[-61.6393,10.2101],[-61.6307,10.1922],[-61.6711,10.147],[-61.692,10.1424],[-61.7074,10.1659]]]}},{"type":"Feature","id":"Port of Spain","properties":{"id":"Port of Spain","iso_code":"TT-POS","name":"Port of Spain","name_full":"Port of Spain","name_ja":"ポートオブスペイン","center_lonlat":[-61.5144,10.659]},"geometry":{"type":"Polygon","coordinates":[[[-61.4957,10.6356],[-61.5491,10.6671],[-61.5114,10.6758],[-61.4932,10.661],[-61.4957,10.6356]]]}},{"type":"Feature","id":"Princes Town","properties":{"id":"Princes Town","iso_code":"TT-PRT","name":"Princes Town","name_full":"Princes Town","name_ja":"プリンセス・タウン地域自治体","center_lonlat":[-61.2981,10.2009]},"geometry":{"type":"Polygon","coordinates":[[[-61.1777,10.0752],[-61.253,10.0836],[-61.3791,10.0728],[-61.3728,10.2174],[-61.4415,10.2591],[-61.4278,10.31],[-61.3115,10.3331],[-61.2436,10.3071],[-61.192,10.2301],[-61.1777,10.0752]]]}},{"type":"Feature","id":"San Fernando","properties":{"id":"San Fernando","iso_code":"TT-SFO","name":"San Fernando","name_full":"San Fernando","name_ja":"サンフェルナンド","center_lonlat":[-61.453,10.2804]},"geometry":{"type":"Polygon","coordinates":[[[-61.4899,10.2493],[-61.4621,10.2822],[-61.4596,10.3097],[-61.4278,10.31],[-61.4415,10.2591],[-61.4899,10.2493]]]}},{"type":"Feature","id":"San Juan–Laventille","properties":{"id":"San Juan–Laventille","iso_code":"TT-SJL","name":"San Juan–Laventille","name_full":"San Juan–Laventille","name_ja":"サン・ファン＝ラヴェンティル地域自治体","center_lonlat":[-61.4391,10.6833]},"geometry":{"type":"Polygon","coordinates":[[[-61.4901,10.7546],[-61.4604,10.7744],[-61.4479,10.762],[-61.4417,10.7757],[-61.4417,10.7546],[-61.4001,10.7683],[-61.3526,10.8041],[-61.3337,10.7562],[-61.3412,10.7375],[-61.4123,10.7413],[-61.4265,10.7288],[-61.4098,10.5663],[-61.441,10.565],[-61.4622,10.5381],[-61.4723,10.5949],[-61.4957,10.6356],[-61.4932,10.661],[-61.5114,10.6758],[-61.4937,10.7065],[-61.4901,10.7546]]]}},{"type":"Feature","id":"Sangre Grande Regional Corporation","properties":{"id":"Sangre Grande Regional Corporation","iso_code":"TT-SGE","name":"Sangre Grande Regional Corporation","name_full":"Sangre Grande Regional Corporation","name_ja":"サングレ・グランド地域自治体","center_lonlat":[-61.0985,10.6577]},"geometry":{"type":"Polygon","coordinates":[[[-61.1716,10.8039],[-61.0785,10.831],[-60.9488,10.8453],[-60.9073,10.8371],[-60.9498,10.7635],[-61.0023,10.6994],[-61.0209,10.7027],[-61.0327,10.6835],[-61.037,10.6249],[-61.0135,10.5345],[-61.0425,10.51],[-61.0384,10.4636],[-61.0953,10.4695],[-61.1971,10.4564],[-61.218,10.4662],[-61.2102,10.5132],[-61.2392,10.5914],[-61.2134,10.6035],[-61.2013,10.6321],[-61.218,10.6715],[-61.2143,10.7127],[-61.2395,10.7232],[-61.2002,10.7327],[-61.1572,10.7692],[-61.1716,10.8039]]]}},{"type":"Feature","id":"Siparia Regional Corporation","properties":{"id":"Siparia Regional Corporation","iso_code":"TT-SIP","name":"Siparia Regional Corporation","name_full":"Siparia Regional Corporation","name_ja":"シパリア地域自治体","center_lonlat":[-61.6373,10.1362]},"geometry":{"type":"Polygon","coordinates":[[[-61.6393,10.2101],[-61.6396,10.2407],[-61.6269,10.2473],[-61.5208,10.2401],[-61.4688,10.1857],[-61.5041,10.0695],[-61.5441,10.0762],[-61.6229,10.0556],[-61.6862,10.0816],[-61.7933,10.0841],[-61.8898,10.0423],[-61.9287,10.0565],[-61.8819,10.0905],[-61.8385,10.0998],[-61.8059,10.1329],[-61.7074,10.1659],[-61.692,10.1424],[-61.6711,10.147],[-61.6307,10.1922],[-61.6393,10.2101]]]}},{"type":"Feature","id":"Tobago","properties":{"id":"Tobago","iso_code":"TT-ETO","name":"Tobago","name_full":"Tobago","name_ja":"トバゴ島","center_lonlat":[-60.6073,11.2764]},"geometry":{"type":"Polygon","coordinates":[[[-60.6547,11.308],[-60.5836,11.3295],[-60.5604,11.3212],[-60.5305,11.3511],[-60.5231,11.3437],[-60.533,11.2665],[-60.5851,11.2555],[-60.6471,11.2042],[-60.7042,11.2407],[-60.647,11.2919],[-60.6547,11.308]]]}},{"type":"Feature","id":"Tobago (TT-WTO)","properties":{"id":"Tobago (TT-WTO)","iso_code":"TT-WTO","name":"Tobago (TT-WTO)","name_full":"Tobago","name_ja":"トバゴ島","center_lonlat":[-60.7442,11.2132]},"geometry":{"type":"Polygon","coordinates":[[[-60.6471,11.2042],[-60.6813,11.2071],[-60.8033,11.1433],[-60.8104,11.1592],[-60.8254,11.1518],[-60.8475,11.164],[-60.8452,11.1791],[-60.8099,11.1907],[-60.7943,11.2166],[-60.6547,11.308],[-60.647,11.2919],[-60.7042,11.2407],[-60.6471,11.2042]]]}},{"type":"Feature","id":"Tunapuna-Piarco Regional Corporation","properties":{"id":"Tunapuna-Piarco Regional Corporation","iso_code":"TT-TUP","name":"Tunapuna-Piarco Regional Corporation","name_full":"Tunapuna-Piarco Regional Corporation","name_ja":"マコヤ","center_lonlat":[-61.3032,10.6875]},"geometry":{"type":"Polygon","coordinates":[[[-61.3526,10.8041],[-61.1716,10.8039],[-61.1572,10.7692],[-61.2002,10.7327],[-61.2395,10.7232],[-61.2143,10.7127],[-61.218,10.6715],[-61.2013,10.6321],[-61.2134,10.6035],[-61.2392,10.5914],[-61.369,10.5655],[-61.4098,10.5663],[-61.4265,10.7288],[-61.4123,10.7413],[-61.3412,10.7375],[-61.3337,10.7562],[-61.3526,10.8041]],[[-61.2745,10.6074],[-61.2655,10.6197],[-61.2854,10.654],[-61.2956,10.6139],[-61.2745,10.6074]]]}}]}
