{"type":"FeatureCollection","features":[{"type":"Feature","id":"Beja","properties":{"id":"Beja","iso_code":"TN-31","name":"Beja","name_full":"Beja","name_ja":"ベジャ県","center_lonlat":[9.3145,36.6833]},"geometry":{"type":"Polygon","coordinates":[[[8.896,37.0189],[8.9569,37.0693],[8.9876,37.1168],[9.0794,37.1668],[9.0815,37.0569],[9.1575,37.0502],[9.1836,37.0359],[9.2542,36.9089],[9.3639,36.8522],[9.3692,36.8306],[9.3501,36.7837],[9.3726,36.7347],[9.4178,36.7278],[9.553,36.8293],[9.6699,36.7414],[9.7593,36.7214],[9.8561,36.5704],[9.7787,36.5146],[9.7308,36.4429],[9.6483,36.4335],[9.5715,36.405],[9.4904,36.4467],[9.3906,36.44],[9.3099,36.355],[9.2134,36.3934],[9.1175,36.3731],[9.0117,36.4492],[9.039,36.4642],[9.0442,36.5095],[9.0725,36.5537],[9.0185,36.665],[9.0208,36.7429],[8.9128,36.7843],[8.9296,36.8317],[8.9771,36.8671],[8.9127,36.9462],[8.9173,36.9613],[8.9457,36.9715],[8.896,37.0189]]]}},{"type":"Feature","id":"Ben Arous","properties":{"id":"Ben Arous","iso_code":"TN-13","name":"Ben Arous","name_full":"Ben Arous","name_ja":"ベンナラス県","center_lonlat":[10.2275,36.6242]},"geometry":{"type":"Polygon","coordinates":[[[10.2539,36.7914],[10.2721,36.8161],[10.3201,36.7488],[10.3553,36.7312],[10.4168,36.7296],[10.3933,36.661],[10.3553,36.5999],[10.3593,36.559],[10.3412,36.4706],[10.2472,36.4452],[10.2293,36.4831],[10.1359,36.5546],[10.0683,36.5861],[10.0084,36.591],[9.9714,36.6354],[10.0547,36.6895],[10.1123,36.6884],[10.1447,36.7153],[10.2111,36.7222],[10.238,36.7416],[10.2539,36.7914]]]}},{"type":"Feature","id":"Bizerte","properties":{"id":"Bizerte","iso_code":"TN-23","name":"Bizerte","name_full":"Bizerte","name_ja":"ビゼルト県","center_lonlat":[9.6063,37.0805]},"geometry":{"type":"Polygon","coordinates":[[[9.0794,37.1668],[9.1714,37.1988],[9.2107,37.2338],[9.3425,37.2353],[9.4191,37.2758],[9.4539,37.2683],[9.5527,37.3095],[9.5915,37.3029],[9.6493,37.3319],[9.7446,37.3452],[9.7734,37.3305],[9.8589,37.3288],[9.8617,37.2712],[9.7927,37.238],[9.7718,37.2133],[9.8078,37.155],[9.8799,37.1501],[9.9253,37.1968],[9.925,37.2131],[9.8612,37.2338],[9.8196,37.2276],[9.8674,37.2617],[9.9798,37.246],[10.0513,37.2666],[10.0759,37.2449],[10.1463,37.2365],[10.1787,37.2127],[10.2721,37.1785],[10.2113,37.1587],[10.2058,37.1751],[10.178,37.178],[10.1281,37.1587],[10.1354,37.1423],[10.2182,37.1289],[10.0974,37.1031],[9.9801,36.9318],[9.8079,36.9564],[9.7419,36.9018],[9.5929,36.8568],[9.553,36.8293],[9.4178,36.7278],[9.3726,36.7347],[9.3501,36.7837],[9.3692,36.8306],[9.3639,36.8522],[9.2542,36.9089],[9.1836,37.0359],[9.1575,37.0502],[9.0815,37.0569],[9.0794,37.1668]]]}},{"type":"Feature","id":"Gabes","properties":{"id":"Gabes","iso_code":"TN-81","name":"Gabes","name_full":"Gabès","name_ja":"ガベズ県","center_lonlat":[9.7981,33.784]},"geometry":{"type":"Polygon","coordinates":[[[10.0101,34.1731],[10.0215,34.0733],[10.0488,33.9835],[10.1631,33.8362],[10.3303,33.7028],[10.4602,33.6527],[10.3736,33.5735],[10.2788,33.4402],[10.1744,33.4088],[10.0594,33.3287],[9.9362,33.2987],[9.7407,33.2912],[9.6867,33.3429],[9.6331,33.4217],[9.551,33.4881],[9.553,33.5138],[9.5878,33.5711],[9.5748,33.5971],[9.5272,33.639],[9.4814,33.6457],[9.4418,33.6914],[9.3793,33.7169],[9.2969,33.8445],[9.2604,33.9624],[9.2652,34.0457],[9.3577,34.124],[9.2839,34.175],[9.2678,34.2048],[9.3501,34.2314],[9.4809,34.2209],[9.5585,34.2523],[9.6015,34.2801],[9.6598,34.2927],[9.6986,34.2722],[9.7136,34.2487],[9.7607,34.2169],[9.8515,34.2175],[9.9306,34.1582],[9.9666,34.1569],[9.979,34.1909],[10.0101,34.1731]]]}},{"type":"Feature","id":"Gafsa","properties":{"id":"Gafsa","iso_code":"TN-71","name":"Gafsa","name_full":"Gafsa","name_ja":"ガフサ県","center_lonlat":[8.7589,34.4071]},"geometry":{"type":"Polygon","coordinates":[[[8.1025,34.5364],[8.2288,34.6364],[8.2365,34.6477],[8.2106,34.6812],[8.2134,34.6967],[8.2587,34.7413],[8.3079,34.7366],[8.5696,34.6374],[8.5826,34.6698],[8.6014,34.6818],[8.8059,34.7506],[8.9676,34.6977],[9.167,34.6811],[9.2426,34.6505],[9.2904,34.6613],[9.2658,34.584],[9.2893,34.5392],[9.3464,34.4963],[9.4247,34.4693],[9.462,34.4295],[9.5605,34.3781],[9.5585,34.2523],[9.4809,34.2209],[9.3501,34.2314],[9.2678,34.2048],[9.1347,34.1871],[9.1015,34.1931],[9.0533,34.1791],[9.0235,34.1627],[9.0154,34.1185],[9.0002,34.1048],[8.8854,34.1184],[8.8411,34.104],[8.6692,34.0909],[8.577,34.103],[8.3578,34.0921],[8.3328,34.1445],[8.2985,34.1719],[8.1665,34.2065],[8.1228,34.2599],[8.028,34.3188],[8.0791,34.3813],[8.1439,34.3941],[8.0985,34.4449],[8.1149,34.5046],[8.1025,34.5364]]]}},{"type":"Feature","id":"Jendouba","properties":{"id":"Jendouba","iso_code":"TN-32","name":"Jendouba","name_full":"Jendouba","name_ja":"ジェンドゥーバ県","center_lonlat":[8.6831,36.6392]},"geometry":{"type":"Polygon","coordinates":[[[8.896,37.0189],[8.9457,36.9715],[8.9173,36.9613],[8.9127,36.9462],[8.9771,36.8671],[8.9296,36.8317],[8.9128,36.7843],[9.0208,36.7429],[9.0185,36.665],[9.0725,36.5537],[9.0442,36.5095],[9.039,36.4642],[9.0117,36.4492],[8.9789,36.4542],[8.9173,36.4381],[8.8303,36.4143],[8.5825,36.403],[8.4543,36.3541],[8.3554,36.3561],[8.3492,36.4488],[8.1679,36.4914],[8.1699,36.5258],[8.1935,36.549],[8.2869,36.5834],[8.4304,36.6626],[8.4618,36.7328],[8.4067,36.768],[8.4131,36.7839],[8.5545,36.8036],[8.6417,36.8364],[8.6082,36.8907],[8.6025,36.9395],[8.6921,36.9694],[8.802,36.9731],[8.896,37.0189]]]}},{"type":"Feature","id":"Kairouan","properties":{"id":"Kairouan","iso_code":"TN-41","name":"Kairouan","name_full":"Kairouan","name_ja":"ケルアン県","center_lonlat":[9.8643,35.6057]},"geometry":{"type":"Polygon","coordinates":[[[10.2065,36.1331],[10.1739,36.0692],[10.2292,36.0455],[10.2537,36.0063],[10.2262,35.9082],[10.1596,35.8269],[10.3057,35.5762],[10.236,35.5462],[10.2476,35.4845],[10.211,35.4411],[10.1742,35.3591],[10.1922,35.3201],[10.1927,35.2514],[10.2292,35.1979],[10.2287,35.1465],[10.1915,35.1403],[10.1306,35.1003],[10.0516,35.014],[10.0274,35.0442],[9.9863,35.1536],[9.9211,35.1418],[9.7253,35.1868],[9.6195,35.2817],[9.5582,35.2901],[9.4829,35.3478],[9.4735,35.3661],[9.489,35.4465],[9.4542,35.4879],[9.4119,35.5621],[9.2737,35.7119],[9.3028,35.722],[9.4061,35.7019],[9.5065,35.7399],[9.5082,35.7578],[9.4806,35.7987],[9.4986,35.8502],[9.4891,35.899],[9.7281,36.0667],[9.779,36.0576],[9.9031,36.0685],[9.9886,36.0421],[10.0425,36.0095],[10.0597,36.0298],[10.0734,36.0834],[10.1013,36.0764],[10.1471,36.1169],[10.2065,36.1331]]]}},{"type":"Feature","id":"Kasserine","properties":{"id":"Kasserine","iso_code":"TN-42","name":"Kasserine","name_full":"Kasserine","name_ja":"カスリーヌ県","center_lonlat":[8.7402,35.2229]},"geometry":{"type":"Polygon","coordinates":[[[8.2587,34.7413],[8.2693,34.7639],[8.2489,34.902],[8.3005,35.0677],[8.3137,35.1031],[8.3609,35.1459],[8.4313,35.2417],[8.3174,35.2895],[8.2944,35.3251],[8.29,35.4026],[8.3367,35.5084],[8.3272,35.6214],[8.388,35.6303],[8.4613,35.6735],[8.5348,35.6493],[8.6023,35.649],[8.6296,35.7455],[8.6895,35.7847],[8.9529,35.706],[9.0022,35.7034],[9.0829,35.6138],[9.1271,35.6191],[9.1762,35.5991],[9.2072,35.5572],[9.3029,35.5195],[9.327,35.4807],[9.3169,35.443],[9.2334,35.3856],[9.2107,35.3416],[9.1693,35.3078],[9.1482,35.2572],[9.163,35.2332],[9.2629,35.1976],[9.2557,35.1242],[9.2711,35.052],[9.1439,34.9999],[9.1076,35.0023],[9.0269,34.9045],[9.0599,34.8736],[8.8059,34.7506],[8.6014,34.6818],[8.5826,34.6698],[8.5696,34.6374],[8.3079,34.7366],[8.2587,34.7413]]]}},{"type":"Feature","id":"Kebili","properties":{"id":"Kebili","iso_code":"TN-73","name":"Kebili","name_full":"Kebili","name_ja":"ケビリ県","center_lonlat":[8.8793,33.2908]},"geometry":{"type":"Polygon","coordinates":[[[7.7083,33.4107],[7.9182,33.4994],[8.534,33.9141],[8.5887,33.9706],[8.6692,34.0909],[8.8411,34.104],[8.8854,34.1184],[9.0002,34.1048],[9.0154,34.1185],[9.0235,34.1627],[9.0533,34.1791],[9.1015,34.1931],[9.1347,34.1871],[9.2678,34.2048],[9.2839,34.175],[9.3577,34.124],[9.2652,34.0457],[9.2604,33.9624],[9.2969,33.8445],[9.3793,33.7169],[9.4418,33.6914],[9.4814,33.6457],[9.5272,33.639],[9.5748,33.5971],[9.5878,33.5711],[9.553,33.5138],[9.551,33.4881],[9.6331,33.4217],[9.6867,33.3429],[9.7407,33.2912],[9.8176,33.2263],[9.9258,33.1997],[9.9276,33.117],[9.9095,33.0748],[9.9093,33.0446],[9.9878,32.9806],[9.9473,32.9531],[9.968,32.8624],[9.9269,32.8136],[9.9218,32.7889],[9.9208,32.7396],[9.9649,32.6712],[9.9613,32.6585],[9.9112,32.6753],[9.7503,32.7956],[9.6721,32.8025],[9.6214,32.7905],[9.5242,32.7354],[8.3326,32.5264],[8.3196,32.5606],[8.2964,32.8044],[8.2829,32.8364],[8.0868,33.0943],[8.0022,33.1084],[7.872,33.1841],[7.7507,33.2077],[7.725,33.2314],[7.7097,33.2782],[7.7083,33.4107]]]}},{"type":"Feature","id":"Kef","properties":{"id":"Kef","iso_code":"TN-33","name":"Kef","name_full":"Kef","name_ja":"ケフ県","center_lonlat":[8.6634,36.0335]},"geometry":{"type":"Polygon","coordinates":[[[8.3272,35.6214],[8.3066,35.6849],[8.2577,35.7503],[8.2414,35.8277],[8.2756,36.0368],[8.3171,36.1459],[8.3023,36.2023],[8.3071,36.2436],[8.3554,36.3561],[8.4543,36.3541],[8.5825,36.403],[8.8303,36.4143],[8.9173,36.4381],[8.976,36.3603],[8.9617,36.2927],[9.0236,36.2137],[9.0309,36.1363],[9.1096,36.0981],[9.1502,36.0452],[9.1313,35.9671],[9.0874,35.9204],[9.0713,35.8772],[9.0242,35.8379],[9.0022,35.7034],[8.9529,35.706],[8.6895,35.7847],[8.6296,35.7455],[8.6023,35.649],[8.5348,35.6493],[8.4613,35.6735],[8.388,35.6303],[8.3272,35.6214]]]}},{"type":"Feature","id":"Mahdia","properties":{"id":"Mahdia","iso_code":"TN-53","name":"Mahdia","name_full":"Mahdia","name_ja":"マーディア県","center_lonlat":[10.6416,35.3237]},"geometry":{"type":"Polygon","coordinates":[[[11.0139,35.5629],[11.0392,35.5185],[11.0851,35.5068],[11.0577,35.4867],[11.0507,35.4598],[11.0422,35.3344],[11.1013,35.2668],[11.1608,35.2382],[11.1592,35.2188],[11.1116,35.2056],[11.0159,35.0928],[10.953,35.1072],[10.8962,35.1718],[10.8686,35.1511],[10.8334,35.1573],[10.8033,35.2426],[10.775,35.2721],[10.7255,35.2203],[10.6155,35.2405],[10.5514,35.1635],[10.4208,35.1086],[10.2287,35.1465],[10.2292,35.1979],[10.1927,35.2514],[10.1922,35.3201],[10.1742,35.3591],[10.211,35.4411],[10.2476,35.4845],[10.236,35.5462],[10.3057,35.5762],[10.2988,35.534],[10.3443,35.4956],[10.4386,35.4871],[10.4585,35.4429],[10.5212,35.4187],[10.5389,35.4201],[10.5609,35.4525],[10.5854,35.4632],[10.6011,35.502],[10.7173,35.4705],[10.8334,35.4589],[10.9084,35.5272],[11.0139,35.5629]]]}},{"type":"Feature","id":"Manouba","properties":{"id":"Manouba","iso_code":"TN-14","name":"Manouba","name_full":"Manouba","name_ja":"マヌーバ県","center_lonlat":[9.9472,36.8451]},"geometry":{"type":"Polygon","coordinates":[[[10.2182,37.1289],[10.2303,37.1081],[10.2244,37.0959],[10.2175,37.1103],[10.1743,37.0762],[10.1824,37.027],[10.2201,36.9766],[10.337,36.8918],[10.1921,36.8531],[9.9979,36.772],[10.0553,36.7126],[10.0547,36.6895],[9.9714,36.6354],[9.961,36.649],[9.9404,36.6495],[9.8963,36.5856],[9.8561,36.5704],[9.7593,36.7214],[9.6699,36.7414],[9.553,36.8293],[9.5929,36.8568],[9.7419,36.9018],[9.8079,36.9564],[9.9801,36.9318],[10.0974,37.1031],[10.2182,37.1289]]]}},{"type":"Feature","id":"Medenine","properties":{"id":"Medenine","iso_code":"TN-82","name":"Medenine","name_full":"Medenine","name_ja":"メドニン県","center_lonlat":[10.861,33.1535]},"geometry":{"type":"MultiPolygon","coordinates":[[[[11.1823,32.2622],[11.2642,32.3823],[11.3825,32.4386],[11.4376,32.4841],[11.3704,32.4942],[11.104,32.6819],[11.1111,32.8318],[11.1338,32.9117],[11.0398,32.9863],[11.0072,33.0583],[10.7249,33.1709],[10.6298,33.189],[10.611,33.2098],[10.6382,33.225],[10.6512,33.253],[10.6382,33.2608],[10.517,33.2563],[10.231,33.1411],[10.1426,33.1487],[10.0807,33.0995],[10.0425,33.0849],[9.9095,33.0748],[9.9276,33.117],[9.9258,33.1997],[9.8176,33.2263],[9.7407,33.2912],[9.9362,33.2987],[10.0594,33.3287],[10.1744,33.4088],[10.2788,33.4402],[10.3736,33.5735],[10.4602,33.6527],[10.5584,33.6557],[10.7166,33.7069],[10.74,33.6716],[10.7369,33.6028],[10.6914,33.5761],[10.6741,33.5456],[10.7036,33.496],[10.7381,33.478],[10.9094,33.5396],[10.9328,33.574],[10.9065,33.6164],[10.9362,33.6363],[10.9606,33.6277],[10.9846,33.6431],[11.0428,33.6179],[11.1116,33.54],[11.1166,33.49],[11.0899,33.4541],[11.1108,33.393],[11.1021,33.3641],[11.1311,33.3715],[11.1707,33.3318],[11.2937,33.2868],[11.28,33.28],[11.1336,33.3114],[11.1218,33.28],[11.1795,33.2111],[11.2454,33.2179],[11.3722,33.1838],[11.4331,33.1935],[11.3519,33.2589],[11.5051,33.1812],[11.506,33.1364],[11.4774,33.0412],[11.4565,32.9021],[11.4638,32.7985],[11.4499,32.638],[11.4704,32.5993],[11.5374,32.5435],[11.5606,32.5076],[11.5641,32.4655],[11.5139,32.408],[11.444,32.3685],[11.1823,32.2622]]],[[[10.9915,33.8417],[11.0603,33.8007],[10.971,33.7387],[10.9567,33.6977],[10.9567,33.7325],[10.9411,33.7282],[10.8878,33.6401],[10.8711,33.6543],[10.8769,33.6882],[10.8262,33.7298],[10.8089,33.7343],[10.7819,33.7037],[10.7634,33.7002],[10.7402,33.7155],[10.7278,33.7582],[10.7283,33.7846],[10.7476,33.8127],[10.736,33.8848],[10.773,33.8963],[10.8978,33.8793],[10.9299,33.8963],[10.9915,33.8417]]]]}},{"type":"Feature","id":"Monastir","properties":{"id":"Monastir","iso_code":"TN-52","name":"Monastir","name_full":"Monastir","name_ja":"モナスティル県","center_lonlat":[10.7665,35.6053]},"geometry":{"type":"Polygon","coordinates":[[[10.6913,35.7896],[10.7436,35.7697],[10.8138,35.785],[10.8414,35.7665],[10.8245,35.7334],[10.8412,35.6988],[10.9718,35.6541],[11.012,35.6579],[11.041,35.6377],[11.055,35.6145],[11.0171,35.6023],[11.0139,35.5629],[10.9084,35.5272],[10.8334,35.4589],[10.7173,35.4705],[10.6011,35.502],[10.5623,35.5173],[10.5235,35.4827],[10.4942,35.4871],[10.4798,35.5083],[10.4836,35.5243],[10.5324,35.5479],[10.5254,35.5835],[10.6275,35.6209],[10.6428,35.6716],[10.6397,35.733],[10.6913,35.7896]]]}},{"type":"Feature","id":"Nabeul","properties":{"id":"Nabeul","iso_code":"TN-21","name":"Nabeul","name_full":"Nabeul","name_ja":"ナブール県","center_lonlat":[10.7147,36.6916]},"geometry":{"type":"Polygon","coordinates":[[[10.4168,36.7296],[10.5187,36.7558],[10.5382,36.772],[10.5669,36.8632],[10.585,36.8762],[10.6526,36.8769],[10.7335,36.8958],[10.8875,37.006],[10.9021,37.0488],[10.9741,37.0613],[11.0127,37.0848],[11.051,37.0803],[11.0603,37.0625],[11.0483,37.0203],[11.0877,36.9594],[11.0945,36.9184],[11.1362,36.8705],[11.1168,36.8384],[11.0221,36.7883],[10.8795,36.5885],[10.8257,36.4798],[10.7999,36.4519],[10.7172,36.4346],[10.6204,36.3903],[10.5856,36.3981],[10.5294,36.3503],[10.5116,36.3744],[10.4708,36.362],[10.4273,36.3738],[10.3655,36.3651],[10.342,36.3796],[10.3412,36.4706],[10.3593,36.559],[10.3553,36.5999],[10.3933,36.661],[10.4168,36.7296]]]}},{"type":"Feature","id":"Sfax","properties":{"id":"Sfax","iso_code":"TN-61","name":"Sfax","name_full":"Sfax","name_ja":"スファックス県","center_lonlat":[10.3542,34.767]},"geometry":{"type":"MultiPolygon","coordinates":[[[[11.0159,35.0928],[11.0181,35.0342],[10.9177,34.9574],[10.9163,34.8736],[10.8563,34.8309],[10.8714,34.7974],[10.8113,34.7689],[10.7173,34.6647],[10.6253,34.6332],[10.597,34.5447],[10.5594,34.5235],[10.466,34.5119],[10.4319,34.4963],[10.3787,34.4231],[10.2881,34.414],[10.2472,34.3721],[10.1267,34.3256],[10.1022,34.3041],[10.0328,34.1847],[10.0101,34.1731],[9.979,34.1909],[9.9666,34.1569],[9.9306,34.1582],[9.8515,34.2175],[9.7607,34.2169],[9.7136,34.2487],[9.7613,34.2433],[9.7518,34.2855],[9.7175,34.3196],[9.7444,34.349],[9.8519,34.387],[9.9131,34.4266],[9.959,34.4303],[10.0519,34.4951],[10.0607,34.5301],[10.0502,34.5465],[9.9692,34.5802],[9.836,34.5972],[9.824,34.6265],[9.8589,34.7136],[9.9737,34.8698],[10.0516,35.014],[10.1306,35.1003],[10.1915,35.1403],[10.2287,35.1465],[10.4208,35.1086],[10.5514,35.1635],[10.6155,35.2405],[10.7255,35.2203],[10.775,35.2721],[10.8033,35.2426],[10.8334,35.1573],[10.8686,35.1511],[10.8962,35.1718],[10.953,35.1072],[11.0159,35.0928]]],[[[11.2658,34.7734],[11.3048,34.7423],[11.297,34.7287],[11.1307,34.6633],[11.1223,34.6804],[11.1706,34.7286],[11.173,34.758],[11.1982,34.744],[11.2221,34.7476],[11.2175,34.7816],[11.2543,34.8258],[11.3042,34.8053],[11.2781,34.7977],[11.2658,34.7734]]],[[[10.9641,34.6567],[10.9872,34.6718],[11.1013,34.671],[11.1108,34.6595],[11.0557,34.621],[10.9641,34.6567]]]]}},{"type":"Feature","id":"Sidi Bouzid","properties":{"id":"Sidi Bouzid","iso_code":"TN-43","name":"Sidi Bouzid","name_full":"Sidi Bouzid","name_ja":"シディブジッド県","center_lonlat":[9.5308,34.8592]},"geometry":{"type":"Polygon","coordinates":[[[9.4542,35.4879],[9.489,35.4465],[9.4735,35.3661],[9.4829,35.3478],[9.5582,35.2901],[9.6195,35.2817],[9.7253,35.1868],[9.9211,35.1418],[9.9863,35.1536],[10.0274,35.0442],[10.0516,35.014],[9.9737,34.8698],[9.8589,34.7136],[9.824,34.6265],[9.836,34.5972],[9.9692,34.5802],[10.0502,34.5465],[10.0607,34.5301],[10.0519,34.4951],[9.959,34.4303],[9.9131,34.4266],[9.8519,34.387],[9.7444,34.349],[9.7175,34.3196],[9.7518,34.2855],[9.7613,34.2433],[9.7136,34.2487],[9.6986,34.2722],[9.6598,34.2927],[9.6015,34.2801],[9.5585,34.2523],[9.5605,34.3781],[9.462,34.4295],[9.4247,34.4693],[9.3464,34.4963],[9.2893,34.5392],[9.2658,34.584],[9.2904,34.6613],[9.2426,34.6505],[9.167,34.6811],[8.9676,34.6977],[8.8059,34.7506],[9.0599,34.8736],[9.0269,34.9045],[9.1076,35.0023],[9.1439,34.9999],[9.2711,35.052],[9.2557,35.1242],[9.2629,35.1976],[9.163,35.2332],[9.1482,35.2572],[9.1693,35.3078],[9.2107,35.3416],[9.2334,35.3856],[9.3169,35.443],[9.327,35.4807],[9.3799,35.4932],[9.4542,35.4879]]]}},{"type":"Feature","id":"Siliana","properties":{"id":"Siliana","iso_code":"TN-34","name":"Siliana","name_full":"Siliana","name_ja":"シリアナ県","center_lonlat":[9.3289,36.049]},"geometry":{"type":"Polygon","coordinates":[[[9.4542,35.4879],[9.3799,35.4932],[9.327,35.4807],[9.3029,35.5195],[9.2072,35.5572],[9.1762,35.5991],[9.1271,35.6191],[9.0829,35.6138],[9.0022,35.7034],[9.0242,35.8379],[9.0713,35.8772],[9.0874,35.9204],[9.1313,35.9671],[9.1502,36.0452],[9.1096,36.0981],[9.0309,36.1363],[9.0236,36.2137],[8.9617,36.2927],[8.976,36.3603],[8.9173,36.4381],[8.9789,36.4542],[9.0117,36.4492],[9.1175,36.3731],[9.2134,36.3934],[9.3099,36.355],[9.3906,36.44],[9.4904,36.4467],[9.5715,36.405],[9.6483,36.4335],[9.7308,36.4429],[9.7495,36.402],[9.73,36.3519],[9.6768,36.3026],[9.5722,36.2482],[9.6344,36.1999],[9.7424,36.1677],[9.7576,36.1112],[9.7281,36.0667],[9.4891,35.899],[9.4986,35.8502],[9.4806,35.7987],[9.5082,35.7578],[9.5065,35.7399],[9.4061,35.7019],[9.3028,35.722],[9.2737,35.7119],[9.4119,35.5621],[9.4542,35.4879]]]}},{"type":"Feature","id":"Sousse","properties":{"id":"Sousse","iso_code":"TN-51","name":"Sousse","name_full":"Sousse","name_ja":"スース県","center_lonlat":[10.4097,35.8726]},"geometry":{"type":"Polygon","coordinates":[[[10.5294,36.3503],[10.4793,36.217],[10.4795,36.0793],[10.5186,35.98],[10.5823,35.9218],[10.6086,35.8559],[10.6913,35.7896],[10.6397,35.733],[10.6428,35.6716],[10.6275,35.6209],[10.5254,35.5835],[10.5324,35.5479],[10.4836,35.5243],[10.4798,35.5083],[10.4942,35.4871],[10.5235,35.4827],[10.5623,35.5173],[10.6011,35.502],[10.5854,35.4632],[10.5609,35.4525],[10.5389,35.4201],[10.5212,35.4187],[10.4585,35.4429],[10.4386,35.4871],[10.3443,35.4956],[10.2988,35.534],[10.3057,35.5762],[10.1596,35.8269],[10.2262,35.9082],[10.2537,36.0063],[10.2292,36.0455],[10.1739,36.0692],[10.2065,36.1331],[10.2591,36.1613],[10.2676,36.2214],[10.3556,36.2423],[10.3423,36.2734],[10.3623,36.291],[10.3655,36.3651],[10.4273,36.3738],[10.4708,36.362],[10.5116,36.3744],[10.5294,36.3503]]]}},{"type":"Feature","id":"Tataouine","properties":{"id":"Tataouine","iso_code":"TN-83","name":"Tataouine","name_full":"Tataouine","name_ja":"タタウイヌ県","center_lonlat":[9.9433,31.9993]},"geometry":{"type":"Polygon","coordinates":[[[11.1823,32.2622],[10.8732,32.1367],[10.8459,32.1118],[10.8056,32.0324],[10.7031,31.9622],[10.6836,31.957],[10.6285,31.9741],[10.6059,31.9536],[10.5846,31.8403],[10.4825,31.7331],[10.4278,31.7146],[10.3154,31.7158],[10.264,31.6805],[10.1965,31.5786],[10.1169,31.4944],[10.1062,31.4292],[10.2132,31.1354],[10.2448,31.0782],[10.245,30.9857],[10.2702,30.9156],[10.2539,30.8418],[10.1922,30.7313],[10.1012,30.6417],[9.9956,30.4945],[9.8713,30.3552],[9.7435,30.3313],[9.5197,30.2289],[9.045,32.0718],[9.0199,32.1049],[8.3326,32.5264],[9.5242,32.7354],[9.6214,32.7905],[9.6721,32.8025],[9.7503,32.7956],[9.9112,32.6753],[9.9613,32.6585],[9.9649,32.6712],[9.9208,32.7396],[9.9218,32.7889],[9.9269,32.8136],[9.968,32.8624],[9.9473,32.9531],[9.9878,32.9806],[9.9093,33.0446],[9.9095,33.0748],[10.0425,33.0849],[10.0807,33.0995],[10.1426,33.1487],[10.231,33.1411],[10.517,33.2563],[10.6382,33.2608],[10.6512,33.253],[10.6382,33.225],[10.611,33.2098],[10.6298,33.189],[10.7249,33.1709],[11.0072,33.0583],[11.0398,32.9863],[11.1338,32.9117],[11.1111,32.8318],[11.104,32.6819],[11.3704,32.4942],[11.4376,32.4841],[11.3825,32.4386],[11.2642,32.3823],[11.1823,32.2622]]]}},{"type":"Feature","id":"Tozeur","properties":{"id":"Tozeur","iso_code":"TN-72","name":"Tozeur","name_full":"Tozeur","name_ja":"トズール県","center_lonlat":[7.9612,33.9445]},"geometry":{"type":"Polygon","coordinates":[[[7.7083,33.4107],[7.6932,33.4541],[7.553,33.6587],[7.5342,33.7362],[7.4985,33.8],[7.4798,33.8939],[7.5037,34.068],[7.5175,34.095],[7.6315,34.1991],[7.7339,34.2238],[7.7653,34.2447],[7.8315,34.4144],[8.1025,34.5364],[8.1149,34.5046],[8.0985,34.4449],[8.1439,34.3941],[8.0791,34.3813],[8.028,34.3188],[8.1228,34.2599],[8.1665,34.2065],[8.2985,34.1719],[8.3328,34.1445],[8.3578,34.0921],[8.577,34.103],[8.6692,34.0909],[8.5887,33.9706],[8.534,33.9141],[7.9182,33.4994],[7.7083,33.4107]]]}},{"type":"Feature","id":"Tunis","properties":{"id":"Tunis","iso_code":"TN-11","name":"Tunis","name_full":"Tunis","name_ja":"チュニス県","center_lonlat":[10.1571,36.7805]},"geometry":{"type":"Polygon","coordinates":[[[10.337,36.8918],[10.342,36.8686],[10.2988,36.8218],[10.2721,36.8291],[10.2796,36.8443],[10.2529,36.8463],[10.2107,36.8319],[10.1885,36.7976],[10.2539,36.7914],[10.238,36.7416],[10.2111,36.7222],[10.1447,36.7153],[10.1123,36.6884],[10.0547,36.6895],[10.0553,36.7126],[9.9979,36.772],[10.1921,36.8531],[10.337,36.8918]]]}},{"type":"Feature","id":"Zaghouan","properties":{"id":"Zaghouan","iso_code":"TN-22","name":"Zaghouan","name_full":"Zaghouan","name_ja":"ザグアン県","center_lonlat":[9.9954,36.3166]},"geometry":{"type":"Polygon","coordinates":[[[10.3412,36.4706],[10.342,36.3796],[10.3655,36.3651],[10.3623,36.291],[10.3423,36.2734],[10.3556,36.2423],[10.2676,36.2214],[10.2591,36.1613],[10.2065,36.1331],[10.1471,36.1169],[10.1013,36.0764],[10.0734,36.0834],[10.0597,36.0298],[10.0425,36.0095],[9.9886,36.0421],[9.9031,36.0685],[9.779,36.0576],[9.7281,36.0667],[9.7576,36.1112],[9.7424,36.1677],[9.6344,36.1999],[9.5722,36.2482],[9.6768,36.3026],[9.73,36.3519],[9.7495,36.402],[9.7308,36.4429],[9.7787,36.5146],[9.8561,36.5704],[9.8963,36.5856],[9.9404,36.6495],[9.961,36.649],[9.9714,36.6354],[10.0084,36.591],[10.0683,36.5861],[10.1359,36.5546],[10.2293,36.4831],[10.2472,36.4452],[10.3412,36.4706]]]}}]}
