{"type":"FeatureCollection","features":[{"type":"Feature","id":"Northern Cyprus","properties":{"id":"Northern Cyprus","iso_code":"-99-X04~","name":"Northern Cyprus","name_full":"Northern Cyprus","name_ja":"北キプロス","center_lonlat":[33.5972,35.2761]},"geometry":{"type":"MultiPolygon","coordinates":[[[[34.0123,35.0638],[33.9129,35.0659],[33.9215,35.0807],[33.8894,35.119],[33.8762,35.119],[33.8769,35.0768],[33.8669,35.0667],[33.8427,35.0566],[33.824,35.0667],[33.7661,35.0316],[33.7397,35.0472],[33.7076,35.0293],[33.7147,35.0667],[33.6789,35.0558],[33.671,35.0308],[33.6375,35.0308],[33.6141,35.0464],[33.579,35.0355],[33.5407,35.0731],[33.5352,35.0566],[33.4939,35.0566],[33.4768,35.0027],[33.4658,35.0144],[33.4768,35.0948],[33.4135,35.1994],[33.3745,35.1743],[33.3153,35.1619],[33.1903,35.1899],[33.1575,35.1853],[33.1201,35.1603],[33.0958,35.1697],[33.0311,35.1494],[32.9469,35.1026],[32.8704,35.098],[32.8549,35.0792],[32.8392,35.0799],[32.7948,35.1268],[32.7315,35.1432],[32.7106,35.1753],[32.7454,35.178],[32.8284,35.1486],[32.8926,35.175],[32.9294,35.233],[32.9347,35.2706],[32.936,35.3366],[32.9204,35.3978],[33.0698,35.3587],[33.1401,35.3622],[33.4275,35.3289],[33.6603,35.3593],[33.7835,35.4167],[33.8346,35.41],[34.0356,35.4714],[34.1312,35.5113],[34.1817,35.5542],[34.3197,35.5862],[34.5925,35.692],[34.5728,35.6435],[34.5423,35.6373],[34.3523,35.5207],[34.1377,35.4151],[34.0855,35.3699],[34.0589,35.3241],[33.9517,35.3115],[33.9121,35.26],[33.8999,35.1645],[34.0123,35.0638]]],[[[32.6407,35.1871],[32.6262,35.1651],[32.6027,35.1743],[32.6407,35.1871]]]]}}]}
