{"type":"FeatureCollection","features":[{"type":"Feature","id":"Tuvalu","properties":{"id":"Tuvalu","iso_code":"TV-X01~","name":"Tuvalu","name_full":"Tuvalu","name_ja":"ツバル","center_lonlat":[179.2062,-8.5082]},"geometry":{"type":"MultiPolygon","coordinates":[[[[179.1913,-8.5421],[179.2041,-8.519],[179.1994,-8.4606],[179.2175,-8.5206],[179.1913,-8.5421]]],[[[178.6828,-7.4915],[178.6652,-7.454],[178.6911,-7.4754],[178.6914,-7.4986],[178.6828,-7.4915]]],[[[178.3805,-8.07],[178.3755,-8.0561],[178.3906,-8.0265],[178.3805,-8.07]]]]}}]}
