{"type":"FeatureCollection","features":[{"type":"Feature","id":"Abim","properties":{"id":"Abim","iso_code":"UG-317","name":"Abim","name_full":"Abim","name_ja":"アビム県","center_lonlat":[33.715,2.7552]},"geometry":{"type":"Polygon","coordinates":[[[33.555,3.1957],[33.6378,3.1755],[33.6787,3.1784],[33.6705,3.0539],[33.7047,3.029],[33.7159,2.9944],[33.8424,2.9329],[33.8474,2.6685],[33.9506,2.6169],[34.0175,2.5225],[34.02,2.5105],[34.0061,2.5024],[33.9014,2.4929],[33.7717,2.5011],[33.7112,2.467],[33.6512,2.4564],[33.5342,2.5964],[33.5247,2.6687],[33.5526,2.7355],[33.6038,2.7833],[33.5712,2.9306],[33.555,3.1957]]]}},{"type":"Feature","id":"Adjumani","properties":{"id":"Adjumani","iso_code":"UG-301","name":"Adjumani","name_full":"Adjumani","name_ja":"アジュマニ県","center_lonlat":[31.7657,3.2257]},"geometry":{"type":"Polygon","coordinates":[[[32.0222,3.5864],[32.0542,3.5596],[32.0493,3.4162],[32.0285,3.3767],[32.0416,3.3211],[32.0218,3.2851],[32.0245,3.2429],[31.9815,3.1768],[31.9309,3.0362],[31.7307,2.9741],[31.6251,2.9574],[31.555,2.8691],[31.4887,2.8968],[31.4435,2.9444],[31.4022,2.9555],[31.4154,2.9938],[31.5124,3.1186],[31.5245,3.1447],[31.597,3.3345],[31.6462,3.3876],[31.6642,3.4538],[31.6933,3.4864],[31.7486,3.4975],[31.8152,3.5352],[31.8131,3.5222],[31.9084,3.4995],[31.9419,3.5277],[31.9583,3.5634],[32.0222,3.5864]]]}},{"type":"Feature","id":"Agago","properties":{"id":"Agago","iso_code":"UG-322","name":"Agago","name_full":"Agago","name_ja":"アガゴ県","center_lonlat":[33.367,2.913]},"geometry":{"type":"Polygon","coordinates":[[[33.55,3.2687],[33.555,3.1957],[33.5712,2.9306],[33.6038,2.7833],[33.5526,2.7355],[33.5247,2.6687],[33.5342,2.5964],[33.4771,2.5938],[33.4321,2.6293],[33.3982,2.6046],[33.3536,2.6159],[33.3181,2.5886],[33.2772,2.602],[33.1799,2.5964],[33.1484,2.6161],[33.1287,2.6118],[33.056,2.7107],[33.0823,2.7399],[33.211,2.7458],[33.2431,2.7809],[33.249,2.8481],[33.2285,2.8832],[33.1116,2.8949],[33.1057,2.93],[33.1554,2.9767],[33.1554,3.0177],[33.2143,3.188],[33.2729,3.1782],[33.36,3.196],[33.3515,3.2624],[33.4167,3.2601],[33.3893,3.2995],[33.4705,3.2911],[33.5049,3.2673],[33.55,3.2687]]]}},{"type":"Feature","id":"Alebtong","properties":{"id":"Alebtong","iso_code":"UG-323","name":"Alebtong","name_full":"Alebtong","name_ja":"アレブトング県","center_lonlat":[33.2335,2.2599]},"geometry":{"type":"Polygon","coordinates":[[[33.3712,2.0193],[33.3331,2.0387],[33.2912,2.0395],[33.2622,2.0817],[33.1734,2.1115],[33.1362,2.108],[33.1181,2.0789],[33.0859,2.0663],[33.0794,2.2225],[33.0589,2.2576],[32.9829,2.3073],[32.9683,2.3424],[32.8894,2.354],[32.8952,2.3774],[32.9391,2.395],[32.9654,2.4242],[32.9654,2.4534],[33.0648,2.4418],[33.0882,2.4593],[33.1262,2.4593],[33.17,2.4418],[33.2051,2.3833],[33.3279,2.3687],[33.3922,2.3394],[33.4887,2.3394],[33.515,2.357],[33.5461,2.3559],[33.5485,2.2898],[33.4842,2.2366],[33.444,2.236],[33.4762,2.188],[33.4641,2.1491],[33.4708,2.1283],[33.4364,2.1057],[33.4097,2.1252],[33.3698,2.0919],[33.3712,2.0193]]]}},{"type":"Feature","id":"Amolatar","properties":{"id":"Amolatar","iso_code":"UG-314","name":"Amolatar","name_full":"Amolatar","name_ja":"アモラタル県","center_lonlat":[32.7339,1.616]},"geometry":{"type":"Polygon","coordinates":[[[32.9893,1.7155],[32.979,1.6643],[32.9433,1.6456],[32.9653,1.5624],[32.9642,1.4736],[32.8114,1.4752],[32.688,1.4705],[32.601,1.4627],[32.5556,1.5205],[32.5061,1.5213],[32.4537,1.5672],[32.3177,1.6238],[32.3029,1.6486],[32.5947,1.6519],[32.7733,1.8015],[32.8883,1.8082],[32.9893,1.7155]]]}},{"type":"Feature","id":"Amudat","properties":{"id":"Amudat","iso_code":"UG-324","name":"Amudat","name_full":"Amudat","name_ja":"アムダット県","center_lonlat":[34.8619,1.7629]},"geometry":{"type":"Polygon","coordinates":[[[34.9223,2.2107],[34.9675,2.1019],[34.962,1.9778],[35.0065,1.9169],[34.9797,1.8703],[34.9787,1.6759],[34.9337,1.5757],[34.8826,1.5522],[34.8595,1.5179],[34.8384,1.4372],[34.779,1.3885],[34.7807,1.3718],[34.7422,1.4194],[34.6812,1.514],[34.6373,1.5409],[34.7504,1.6139],[34.7888,1.6811],[34.8032,1.7771],[34.808,1.993],[34.8608,1.9978],[34.8416,2.113],[34.8848,2.1514],[34.9223,2.2107]]]}},{"type":"Feature","id":"Amuria","properties":{"id":"Amuria","iso_code":"UG-216","name":"Amuria","name_full":"Amuria","name_ja":"アムリア県","center_lonlat":[33.6896,2.0962]},"geometry":{"type":"Polygon","coordinates":[[[33.4438,1.8874],[33.4173,1.9174],[33.4164,1.9577],[33.3843,1.98],[33.3712,2.0193],[33.3698,2.0919],[33.4097,2.1252],[33.4364,2.1057],[33.4708,2.1283],[33.4641,2.1491],[33.4762,2.188],[33.444,2.236],[33.4842,2.2366],[33.5485,2.2898],[33.5461,2.3559],[33.6101,2.3321],[33.6378,2.3604],[33.6731,2.362],[33.7237,2.4129],[33.9057,2.3043],[33.8785,2.2095],[33.8958,2.1796],[33.9071,2.1127],[33.8909,2.074],[33.9016,2.0343],[33.8891,1.9978],[33.897,1.8967],[33.8517,1.8454],[33.8686,1.8107],[33.8699,1.7713],[33.8466,1.7351],[33.809,1.7083],[33.79,1.7317],[33.7816,1.774],[33.7527,1.8072],[33.6597,1.8837],[33.6492,1.9181],[33.5746,1.9497],[33.5309,2.0129],[33.4923,2.0214],[33.4684,2.0038],[33.4438,1.8874]]]}},{"type":"Feature","id":"Amuru","properties":{"id":"Amuru","iso_code":"UG-319","name":"Amuru","name_full":"Amuru","name_ja":"アムル県","center_lonlat":[31.9354,3.0209]},"geometry":{"type":"Polygon","coordinates":[[[32.1759,3.5272],[32.2687,3.3739],[32.3574,3.2867],[32.2185,3.1468],[32.1787,3.0532],[32.1764,2.9947],[32.1935,2.9527],[32.2161,2.7866],[32.2011,2.7295],[32.1018,2.7755],[32.0203,2.7791],[31.9849,2.8003],[31.7474,2.7968],[31.7191,2.772],[31.7049,2.733],[31.5879,2.733],[31.5454,2.7117],[31.4674,2.6302],[31.4235,2.6173],[31.4196,2.662],[31.4493,2.6939],[31.4372,2.7525],[31.3928,2.7855],[31.371,2.8211],[31.3676,2.8628],[31.4022,2.9555],[31.4435,2.9444],[31.4887,2.8968],[31.555,2.8691],[31.6251,2.9574],[31.7307,2.9741],[31.9309,3.0362],[31.9815,3.1768],[32.0245,3.2429],[32.0218,3.2851],[32.0416,3.3211],[32.0285,3.3767],[32.0493,3.4162],[32.0542,3.5596],[32.093,3.5245],[32.1558,3.5118],[32.1759,3.5272]]]}},{"type":"Feature","id":"Apac","properties":{"id":"Apac","iso_code":"UG-302","name":"Apac","name_full":"Apac","name_ja":"アパッチ県","center_lonlat":[32.5744,1.8831]},"geometry":{"type":"Polygon","coordinates":[[[32.3029,1.6486],[32.1776,1.6775],[32.1042,1.6478],[32.1015,1.6656],[32.1118,1.6971],[32.1042,1.7155],[32.1628,1.7782],[32.2705,1.8095],[32.2795,1.8433],[32.3415,1.8679],[32.3464,1.9339],[32.3655,1.9557],[32.3342,1.9675],[32.3314,1.9796],[32.3519,2.0314],[32.3468,2.0727],[32.4227,2.041],[32.4707,2.0506],[32.5497,2.1803],[32.6731,2.1786],[32.7111,2.1406],[32.7491,2.1377],[32.8128,2.1067],[32.8457,2.0812],[32.888,2.0747],[32.8643,1.9852],[32.8682,1.9499],[32.9468,1.9277],[32.9433,1.8672],[33.0247,1.8174],[32.9893,1.7155],[32.8883,1.8082],[32.7733,1.8015],[32.5947,1.6519],[32.3029,1.6486]]]}},{"type":"Feature","id":"Arua","properties":{"id":"Arua","iso_code":"UG-303","name":"Arua","name_full":"Arua","name_ja":"アルア県","center_lonlat":[31.1224,2.9633]},"geometry":{"type":"Polygon","coordinates":[[[30.7708,2.6758],[30.8016,2.7691],[30.8287,2.7861],[30.8534,2.8534],[30.8548,2.8932],[30.8209,2.9732],[30.7451,3.0363],[30.7634,3.1234],[30.9158,3.1172],[31.0209,3.2146],[31.028,3.266],[31.0537,3.313],[31.0748,3.2922],[31.1031,3.2979],[31.151,3.3481],[31.2055,3.3349],[31.2662,3.2843],[31.317,3.2698],[31.3478,3.23],[31.3985,3.2193],[31.4242,3.1307],[31.5124,3.1186],[31.4154,2.9938],[31.4022,2.9555],[31.3676,2.8628],[31.371,2.8211],[31.3928,2.7855],[31.3296,2.7538],[31.302,2.7136],[31.2984,2.678],[31.252,2.6356],[31.1548,2.6229],[31.1149,2.6002],[31.0483,2.5889],[30.9888,2.6148],[30.9889,2.6603],[30.966,2.7373],[30.7708,2.6758]]]}},{"type":"Feature","id":"Budaka","properties":{"id":"Budaka","iso_code":"UG-217","name":"Budaka","name_full":"Budaka","name_ja":"ブダカ県","center_lonlat":[33.969,1.0568]},"geometry":{"type":"Polygon","coordinates":[[[34.1298,1.1145],[34.1134,1.0686],[34.0773,1.051],[34.0692,1.034],[33.9547,0.9482],[33.9007,0.9272],[33.8436,0.939],[33.8488,1.029],[33.9154,1.0897],[33.8864,1.1216],[33.9038,1.1679],[33.9819,1.1708],[34.1298,1.1145]]]}},{"type":"Feature","id":"Bududa","properties":{"id":"Bududa","iso_code":"UG-223","name":"Bududa","name_full":"Bududa","name_ja":"ブドゥダ県","center_lonlat":[34.3901,1.0486]},"geometry":{"type":"Polygon","coordinates":[[[34.5075,1.1025],[34.4772,1.0646],[34.4633,1.0],[34.3491,1.0078],[34.3471,0.9864],[34.3296,0.9864],[34.3296,1.0],[34.2636,0.9992],[34.3166,1.0747],[34.3571,1.0864],[34.3887,1.1055],[34.5075,1.1025]]]}},{"type":"Feature","id":"Bugiri","properties":{"id":"Bugiri","iso_code":"UG-201","name":"Bugiri","name_full":"Bugiri","name_ja":"ブギリ県","center_lonlat":[33.7584,0.5316]},"geometry":{"type":"Polygon","coordinates":[[[33.6305,0.7329],[33.7255,0.6981],[33.7442,0.7226],[33.7751,0.6788],[33.8374,0.6896],[33.8651,0.6846],[33.8955,0.6087],[33.9571,0.5642],[33.8947,0.496],[33.8925,0.4739],[33.8388,0.4264],[33.829,0.3832],[33.7642,0.3714],[33.6847,0.3217],[33.6934,0.3684],[33.6404,0.3806],[33.597,0.4212],[33.6088,0.4422],[33.6175,0.5423],[33.6615,0.6001],[33.6686,0.6399],[33.666,0.68],[33.6305,0.7329]]]}},{"type":"Feature","id":"Buhweju","properties":{"id":"Buhweju","iso_code":"UG-325","name":"Buhweju","name_full":"Buhweju","name_ja":"ブフウェジュ県","center_lonlat":[30.3226,-0.3528]},"geometry":{"type":"Polygon","coordinates":[[[30.3234,-0.2116],[30.4259,-0.2903],[30.441,-0.2873],[30.4629,-0.2529],[30.5036,-0.2559],[30.4968,-0.3837],[30.467,-0.4124],[30.47,-0.446],[30.338,-0.4567],[30.3262,-0.492],[30.2124,-0.4371],[30.1378,-0.4174],[30.1457,-0.3075],[30.2163,-0.2605],[30.283,-0.2448],[30.3234,-0.2116]]]}},{"type":"Feature","id":"Buikwe","properties":{"id":"Buikwe","iso_code":"UG-117","name":"Buikwe","name_full":"Buikwe","name_ja":"ブイクウェ県","center_lonlat":[32.963,0.0977]},"geometry":{"type":"Polygon","coordinates":[[[33.0316,0.587],[33.0986,0.5442],[33.1807,0.4652],[33.1836,0.3923],[33.2729,0.3502],[33.1925,0.2987],[33.1741,0.2215],[33.1334,0.1817],[33.0783,0.091],[33.0138,-0.147],[32.8472,-0.4621],[32.8472,-0.1631],[32.605,-0.1631],[32.8607,0.1404],[32.8623,0.1743],[32.9188,0.2566],[33.0205,0.36],[33.0286,0.4149],[33.0012,0.4536],[32.985,0.5102],[32.9882,0.5586],[33.0316,0.587]]]}},{"type":"Feature","id":"Bukedea","properties":{"id":"Bukedea","iso_code":"UG-224","name":"Bukedea","name_full":"Bukedea","name_ja":"ブケデア県","center_lonlat":[34.1229,1.3504]},"geometry":{"type":"Polygon","coordinates":[[[34.1165,1.1779],[33.9424,1.2263],[33.9266,1.2462],[34.0022,1.2952],[33.9993,1.3937],[34.0485,1.4313],[34.0427,1.495],[34.0861,1.521],[34.2297,1.5557],[34.2296,1.4654],[34.2681,1.3997],[34.2428,1.2924],[34.2142,1.2416],[34.1918,1.193],[34.1569,1.1632],[34.1165,1.1779]]]}},{"type":"Feature","id":"Bukomansimbi","properties":{"id":"Bukomansimbi","iso_code":"UG-118","name":"Bukomansimbi","name_full":"Bukomansimbi","name_ja":"ブコマンシンビ県","center_lonlat":[31.6472,-0.1156]},"geometry":{"type":"Polygon","coordinates":[[[31.6072,-0.2622],[31.5504,0.0183],[31.5918,0.0494],[31.6488,0.0471],[31.6727,0.0111],[31.7552,-0.2053],[31.7211,-0.2622],[31.6072,-0.2622]]]}},{"type":"Feature","id":"Bukwo","properties":{"id":"Bukwo","iso_code":"UG-218","name":"Bukwo","name_full":"Bukwo","name_ja":"ブクウォ県","center_lonlat":[34.6841,1.2617]},"geometry":{"type":"Polygon","coordinates":[[[34.5601,1.0931],[34.5484,1.2004],[34.6037,1.2891],[34.6953,1.3281],[34.7272,1.369],[34.7422,1.4194],[34.7807,1.3718],[34.8105,1.2725],[34.7979,1.2319],[34.6838,1.2091],[34.6289,1.1636],[34.5805,1.1525],[34.5601,1.0931]]]}},{"type":"Feature","id":"Bulambuli","properties":{"id":"Bulambuli","iso_code":"UG-225","name":"Bulambuli","name_full":"Bulambuli","name_ja":"ブランブリ県","center_lonlat":[34.2974,1.3752]},"geometry":{"type":"Polygon","coordinates":[[[34.3777,1.5572],[34.4214,1.5283],[34.4528,1.4871],[34.4332,1.4456],[34.3549,1.4042],[34.3139,1.3513],[34.309,1.3213],[34.3285,1.3],[34.4985,1.2217],[34.5244,1.1965],[34.5242,1.1623],[34.4045,1.1824],[34.3784,1.2084],[34.2142,1.2416],[34.2428,1.2924],[34.2681,1.3997],[34.2296,1.4654],[34.2297,1.5557],[34.2609,1.5628],[34.2889,1.5476],[34.3777,1.5572]]]}},{"type":"Feature","id":"Buliisa","properties":{"id":"Buliisa","iso_code":"UG-419","name":"Buliisa","name_full":"Buliisa","name_ja":"ブリサ県","center_lonlat":[31.3994,1.9706]},"geometry":{"type":"Polygon","coordinates":[[[31.0755,1.8406],[31.2428,2.0512],[31.2715,2.103],[31.2801,2.1514],[31.3457,2.1796],[31.4486,2.2416],[31.5459,2.2778],[31.5396,2.065],[31.6452,1.921],[31.6356,1.897],[31.6068,1.8922],[31.578,1.8682],[31.578,1.801],[31.5492,1.7579],[31.482,1.7243],[31.3614,1.7382],[31.3606,1.7902],[31.327,1.821],[31.0755,1.8406]]]}},{"type":"Feature","id":"Bundibugyo","properties":{"id":"Bundibugyo","iso_code":"UG-401","name":"Bundibugyo","name_full":"Bundibugyo","name_ja":"ブンディブギョ県","center_lonlat":[30.0499,0.6984]},"geometry":{"type":"Polygon","coordinates":[[[30.1835,0.9546],[30.2062,0.895],[30.252,0.853],[30.2094,0.8182],[30.2024,0.7701],[30.1704,0.7147],[30.0679,0.5179],[30.0233,0.4786],[29.9981,0.4336],[29.9467,0.4058],[29.9039,0.4382],[29.9405,0.4983],[29.9195,0.6181],[29.9268,0.7749],[29.9473,0.8246],[30.0384,0.8789],[30.1451,0.9032],[30.1835,0.9546]]]}},{"type":"Feature","id":"Bushenyi","properties":{"id":"Bushenyi","iso_code":"UG-402","name":"Bushenyi","name_full":"Bushenyi","name_ja":"ブシェニ県","center_lonlat":[30.1299,-0.4984]},"geometry":{"type":"Polygon","coordinates":[[[29.9426,-0.505],[29.943,-0.4431],[29.9141,-0.4017],[30.024,-0.3507],[30.0554,-0.3586],[30.0907,-0.4017],[30.1378,-0.4174],[30.2124,-0.4371],[30.3262,-0.492],[30.3144,-0.6176],[30.1653,-0.6333],[30.126,-0.6215],[30.1064,-0.5627],[30.0829,-0.5391],[30.0201,-0.547],[29.9426,-0.505]]]}},{"type":"Feature","id":"Busia","properties":{"id":"Busia","iso_code":"UG-202","name":"Busia","name_full":"Busia","name_ja":"ブシア県","center_lonlat":[33.9958,0.4146]},"geometry":{"type":"Polygon","coordinates":[[[34.1316,0.5694],[34.1044,0.4622],[34.0757,0.4222],[34.0852,0.347],[33.9603,0.1987],[33.8815,0.3142],[33.877,0.3442],[33.9179,0.4039],[33.8925,0.4739],[33.8947,0.496],[33.9571,0.5642],[33.9954,0.5614],[34.0297,0.5769],[34.1316,0.5694]]]}},{"type":"Feature","id":"Butaleja","properties":{"id":"Butaleja","iso_code":"UG-219","name":"Butaleja","name_full":"Butaleja","name_ja":"ブタレジャ県","center_lonlat":[33.9138,0.8747]},"geometry":{"type":"Polygon","coordinates":[[[34.0692,1.034],[34.1161,1.0219],[34.085,0.9023],[34.0161,0.8726],[33.979,0.8702],[33.9467,0.8483],[33.8651,0.6846],[33.8374,0.6896],[33.8225,0.7238],[33.7986,0.7425],[33.7766,0.8083],[33.7665,0.9122],[33.7429,0.9361],[33.7906,0.9488],[33.8436,0.939],[33.9007,0.9272],[33.9547,0.9482],[34.0692,1.034]]]}},{"type":"Feature","id":"Butambala","properties":{"id":"Butambala","iso_code":"UG-119","name":"Butambala","name_full":"Butambala","name_ja":"ブタンバラ県","center_lonlat":[32.041,0.1423]},"geometry":{"type":"Polygon","coordinates":[[[32.2647,0.2672],[32.2676,0.2274],[32.2192,0.1847],[32.1281,0.1278],[32.0769,0.1363],[32.0256,0.1164],[31.926,0.0282],[31.8558,-0.0074],[31.7935,0.0501],[31.9659,0.1335],[32.0029,0.1819],[32.0683,0.2189],[32.1253,0.2331],[32.1413,0.2558],[32.2306,0.253],[32.2647,0.2672]]]}},{"type":"Feature","id":"Buvuma","properties":{"id":"Buvuma","iso_code":"UG-120","name":"Buvuma","name_full":"Buvuma","name_ja":"ブヴァマ県","center_lonlat":[33.1753,-0.4322]},"geometry":{"type":"Polygon","coordinates":[[[33.4264,-1.0026],[32.8472,-1.0026],[32.8472,-0.4621],[33.0138,-0.147],[33.0783,0.091],[33.1334,0.1817],[33.1741,0.2215],[33.1925,0.2987],[33.2729,0.3502],[33.387,0.3026],[33.4262,0.2137],[33.4264,-1.0026]]]}},{"type":"Feature","id":"Buyende","properties":{"id":"Buyende","iso_code":"UG-226","name":"Buyende","name_full":"Buyende","name_ja":"ブイェンデ県","center_lonlat":[33.1491,1.2514]},"geometry":{"type":"Polygon","coordinates":[[[33.3388,1.0793],[33.3209,1.057],[33.328,1.0293],[33.3005,0.9795],[33.2972,0.9437],[33.1339,1.055],[33.1136,1.1389],[33.0384,1.1737],[32.9613,1.1817],[32.8931,1.3114],[32.8512,1.3582],[32.8114,1.4752],[32.9642,1.4736],[33.0689,1.4321],[33.1333,1.3785],[33.208,1.3689],[33.2878,1.3554],[33.3783,1.3706],[33.405,1.3355],[33.4149,1.2992],[33.4425,1.2876],[33.4316,1.2346],[33.3653,1.1294],[33.3652,1.1011],[33.3388,1.0793]]]}},{"type":"Feature","id":"Dokolo","properties":{"id":"Dokolo","iso_code":"UG-318","name":"Dokolo","name_full":"Dokolo","name_ja":"ドコロ県","center_lonlat":[33.0832,1.9424]},"geometry":{"type":"Polygon","coordinates":[[[32.888,2.0747],[32.9655,2.0648],[33.0335,2.0252],[33.0636,2.0337],[33.0859,2.0663],[33.1181,2.0789],[33.1362,2.108],[33.1734,2.1115],[33.2622,2.0817],[33.2912,2.0395],[33.277,1.9488],[33.2404,1.9039],[33.1291,1.8332],[33.0945,1.7171],[33.027,1.7001],[32.9893,1.7155],[33.0247,1.8174],[32.9433,1.8672],[32.9468,1.9277],[32.8682,1.9499],[32.8643,1.9852],[32.888,2.0747]]]}},{"type":"Feature","id":"Gomba","properties":{"id":"Gomba","iso_code":"UG-121","name":"Gomba","name_full":"Gomba","name_ja":"ゴンバ県","center_lonlat":[31.6825,0.1897]},"geometry":{"type":"Polygon","coordinates":[[[31.8214,0.283],[31.8472,0.2751],[31.8705,0.2381],[31.9115,0.221],[31.9452,0.2336],[31.9676,0.2285],[31.9962,0.245],[32.1413,0.2558],[32.1253,0.2331],[32.0683,0.2189],[32.0029,0.1819],[31.9659,0.1335],[31.7935,0.0501],[31.6971,0.0755],[31.6488,0.0471],[31.5918,0.0494],[31.4191,0.1512],[31.3799,0.1972],[31.3348,0.2006],[31.3368,0.253],[31.4991,0.2986],[31.575,0.3376],[31.6186,0.3356],[31.7239,0.3014],[31.7728,0.2581],[31.8214,0.283]]]}},{"type":"Feature","id":"Gulu","properties":{"id":"Gulu","iso_code":"UG-304","name":"Gulu","name_full":"Gulu","name_ja":"グル県","center_lonlat":[32.4022,2.8507]},"geometry":{"type":"Polygon","coordinates":[[[32.5152,3.1358],[32.474,3.1158],[32.5383,3.0303],[32.6388,2.8423],[32.6788,2.8047],[32.7006,2.7567],[32.7324,2.7321],[32.6814,2.6898],[32.6933,2.6505],[32.6652,2.6221],[32.6637,2.6038],[32.5721,2.622],[32.486,2.608],[32.44,2.4784],[32.3624,2.4696],[32.2854,2.5145],[32.2651,2.5603],[32.2675,2.5927],[32.2044,2.5971],[32.1764,2.6135],[32.1623,2.6439],[32.2011,2.7295],[32.2161,2.7866],[32.1935,2.9527],[32.1764,2.9947],[32.1787,3.0532],[32.2185,3.1468],[32.3574,3.2867],[32.5095,3.1579],[32.5152,3.1358]]]}},{"type":"Feature","id":"Hoima","properties":{"id":"Hoima","iso_code":"UG-403","name":"Hoima","name_full":"Hoima","name_ja":"ホイマ県","center_lonlat":[31.0219,1.4287]},"geometry":{"type":"Polygon","coordinates":[[[30.5537,1.3356],[30.6817,1.5003],[31.0258,1.7782],[31.0755,1.8406],[31.327,1.821],[31.3606,1.7902],[31.3614,1.7382],[31.3749,1.699],[31.3635,1.6449],[31.3766,1.6076],[31.4222,1.6188],[31.4292,1.598],[31.4464,1.4081],[31.5138,1.3613],[31.4378,1.2855],[31.2905,1.2135],[31.2099,1.2195],[31.1743,1.1921],[31.1199,1.1929],[31.0975,1.1613],[31.0524,1.167],[30.8717,1.1053],[30.8051,1.1241],[30.6755,1.0543],[30.5931,1.0426],[30.5481,1.0742],[30.5537,1.3356]]]}},{"type":"Feature","id":"Ibanda","properties":{"id":"Ibanda","iso_code":"UG-416","name":"Ibanda","name_full":"Ibanda","name_ja":"イバンダ県","center_lonlat":[30.5159,-0.0692]},"geometry":{"type":"Polygon","coordinates":[[[30.6215,-0.2272],[30.5036,-0.2559],[30.4629,-0.2529],[30.441,-0.2873],[30.4259,-0.2903],[30.3234,-0.2116],[30.2821,-0.1924],[30.2497,-0.1199],[30.3067,-0.1277],[30.4165,-0.1728],[30.4641,-0.1559],[30.4276,-0.1208],[30.4007,-0.0283],[30.4749,0.1004],[30.6441,0.1634],[30.6676,0.1202],[30.7344,0.1202],[30.6889,0.034],[30.6402,-0.0132],[30.6048,-0.0721],[30.5852,-0.1388],[30.6701,-0.1663],[30.627,-0.199],[30.6215,-0.2272]]]}},{"type":"Feature","id":"Iganga","properties":{"id":"Iganga","iso_code":"UG-203","name":"Iganga","name_full":"Iganga","name_ja":"イガンガ県","center_lonlat":[33.5511,0.6803]},"geometry":{"type":"Polygon","coordinates":[[[33.5657,0.4507],[33.545,0.4816],[33.5427,0.524],[33.5171,0.5475],[33.513,0.6672],[33.4204,0.728],[33.4378,0.8148],[33.4273,0.8714],[33.493,0.8612],[33.5318,0.8809],[33.5421,0.8152],[33.5554,0.7972],[33.6227,0.7726],[33.6305,0.7329],[33.666,0.68],[33.6686,0.6399],[33.6615,0.6001],[33.6175,0.5423],[33.6088,0.4422],[33.5657,0.4507]]]}},{"type":"Feature","id":"Isingiro","properties":{"id":"Isingiro","iso_code":"UG-417","name":"Isingiro","name_full":"Isingiro","name_ja":"イシンギロ県","center_lonlat":[30.8652,-0.8535]},"geometry":{"type":"Polygon","coordinates":[[[30.4608,-1.0634],[30.5079,-0.9561],[30.5759,-0.8858],[30.5888,-0.8599],[30.59,-0.8057],[30.6402,-0.8138],[30.6355,-0.6835],[30.6475,-0.6121],[30.7652,-0.605],[30.8107,-0.6259],[30.8653,-0.6951],[30.9973,-0.6922],[31.0395,-0.6818],[31.0749,-0.6527],[31.1223,-0.6811],[31.1811,-0.7424],[31.2005,-0.8408],[31.1828,-0.8635],[31.2398,-0.9206],[31.251,-0.9712],[31.2805,-1.0026],[30.8284,-1.0026],[30.7771,-0.9858],[30.6871,-1.025],[30.6386,-1.0734],[30.4608,-1.0634]]]}},{"type":"Feature","id":"Jinja","properties":{"id":"Jinja","iso_code":"UG-204","name":"Jinja","name_full":"Jinja","name_ja":"ジンジャ県","center_lonlat":[33.3129,0.4983]},"geometry":{"type":"Polygon","coordinates":[[[33.2213,0.6718],[33.2728,0.6788],[33.3972,0.5946],[33.4089,0.559],[33.4701,0.5452],[33.499,0.5255],[33.5171,0.5475],[33.5427,0.524],[33.545,0.4816],[33.5657,0.4507],[33.5224,0.3962],[33.5043,0.3469],[33.387,0.3026],[33.2729,0.3502],[33.1836,0.3923],[33.1807,0.4652],[33.0986,0.5442],[33.049,0.6632],[33.075,0.652],[33.0969,0.6662],[33.1278,0.6605],[33.1333,0.6815],[33.1819,0.6849],[33.2213,0.6718]]]}},{"type":"Feature","id":"Kaabong","properties":{"id":"Kaabong","iso_code":"UG-315","name":"Kaabong","name_full":"Kaabong","name_ja":"カボング県","center_lonlat":[34.019,3.6028]},"geometry":{"type":"Polygon","coordinates":[[[33.5277,3.7714],[33.9771,4.2197],[34.006,4.2057],[34.0411,4.1648],[34.041,4.1204],[34.0693,4.088],[34.0611,4.0078],[34.1071,3.9595],[34.0848,3.8773],[34.108,3.8689],[34.1829,3.8861],[34.205,3.8745],[34.1967,3.8474],[34.149,3.8227],[34.179,3.7961],[34.1525,3.7756],[34.2409,3.7836],[34.2789,3.7097],[34.2904,3.7032],[34.3099,3.7267],[34.3371,3.7346],[34.4397,3.6677],[34.4439,3.5663],[34.4155,3.497],[34.3813,3.4769],[34.3986,3.4336],[34.384,3.3883],[34.4241,3.3048],[34.4449,3.1591],[34.5129,3.1324],[34.5456,3.0975],[34.5081,3.0787],[34.3863,3.0817],[34.3285,3.0829],[34.1576,3.1971],[34.0362,3.2394],[33.9062,3.2437],[33.9133,3.2737],[33.9035,3.2965],[33.875,3.3027],[33.8458,3.2902],[33.7434,3.3531],[33.6746,3.4575],[33.6299,3.5632],[33.5647,3.6554],[33.5277,3.7714]]]}},{"type":"Feature","id":"Kabale","properties":{"id":"Kabale","iso_code":"UG-404","name":"Kabale","name_full":"Kabale","name_ja":"カバレ県","center_lonlat":[29.9722,-1.2332]},"geometry":{"type":"Polygon","coordinates":[[[29.825,-1.3239],[29.7703,-1.2033],[29.7969,-1.1832],[29.7304,-1.1188],[29.7546,-1.0756],[29.7719,-1.025],[29.826,-1.0283],[29.8697,-1.064],[29.9001,-1.0441],[30.0684,-1.0867],[30.0887,-1.1402],[30.1793,-1.1643],[30.1774,-1.1935],[30.2096,-1.1849],[30.2344,-1.1608],[30.2909,-1.1526],[30.2567,-1.2172],[30.2122,-1.2595],[30.1656,-1.2775],[30.1363,-1.3552],[30.0608,-1.3897],[30.0387,-1.425],[29.9385,-1.4729],[29.8979,-1.4696],[29.8807,-1.4536],[29.8642,-1.3703],[29.825,-1.3239]]]}},{"type":"Feature","id":"Kabarole","properties":{"id":"Kabarole","iso_code":"UG-405","name":"Kabarole","name_full":"Kabarole","name_ja":"カバロレ県","center_lonlat":[30.2512,0.548]},"geometry":{"type":"Polygon","coordinates":[[[29.8326,0.337],[29.8511,0.3772],[29.9039,0.4382],[29.9467,0.4058],[29.9981,0.4336],[30.0233,0.4786],[30.0679,0.5179],[30.1704,0.7147],[30.2869,0.7835],[30.3105,0.8581],[30.3576,0.8188],[30.4714,0.9444],[30.5272,0.9859],[30.5453,0.9295],[30.4858,0.853],[30.4951,0.8397],[30.4826,0.8061],[30.4407,0.762],[30.4288,0.6754],[30.3969,0.6403],[30.3982,0.615],[30.4563,0.5681],[30.4281,0.5412],[30.3763,0.4853],[30.3805,0.4546],[30.3656,0.4234],[30.3865,0.3967],[30.3892,0.3708],[30.3618,0.2276],[30.2687,0.2635],[30.2163,0.3008],[30.1653,0.2969],[30.1378,0.344],[30.0593,0.3675],[29.9533,0.344],[29.8326,0.337]]]}},{"type":"Feature","id":"Kaberamaido","properties":{"id":"Kaberamaido","iso_code":"UG-213","name":"Kaberamaido","name_full":"Kaberamaido","name_ja":"カベラマイド県","center_lonlat":[33.196,1.6972]},"geometry":{"type":"Polygon","coordinates":[[[32.9642,1.4736],[32.9653,1.5624],[32.9433,1.6456],[32.979,1.6643],[32.9893,1.7155],[33.027,1.7001],[33.0945,1.7171],[33.1291,1.8332],[33.2404,1.9039],[33.277,1.9488],[33.2912,2.0395],[33.3331,2.0387],[33.3712,2.0193],[33.3843,1.98],[33.4164,1.9577],[33.4173,1.9174],[33.4438,1.8874],[33.4566,1.8444],[33.4389,1.8123],[33.4379,1.7739],[33.3542,1.7168],[33.3133,1.6992],[33.2548,1.6992],[33.2464,1.6158],[33.2147,1.572],[33.208,1.3689],[33.1333,1.3785],[33.0689,1.4321],[32.9642,1.4736]]]}},{"type":"Feature","id":"Kalangala","properties":{"id":"Kalangala","iso_code":"UG-101","name":"Kalangala","name_full":"Kalangala","name_ja":"カランガラ県","center_lonlat":[32.4185,-0.5828]},"geometry":{"type":"Polygon","coordinates":[[[31.9862,-1.0026],[31.9862,-0.7739],[31.9862,-0.4132],[32.0678,-0.35],[32.0653,-0.3237],[32.0359,-0.3114],[32.0062,-0.2467],[31.9745,-0.2304],[31.9805,-0.1894],[31.9714,-0.1826],[31.9267,-0.1956],[31.9403,-0.1404],[31.9198,-0.1342],[31.9357,-0.1268],[31.9976,-0.1581],[32.2482,-0.1584],[32.4931,-0.1631],[32.605,-0.1631],[32.8472,-0.1631],[32.8472,-0.4621],[32.8472,-1.0026],[31.9862,-1.0026]]]}},{"type":"Feature","id":"Kaliro","properties":{"id":"Kaliro","iso_code":"UG-220","name":"Kaliro","name_full":"Kaliro","name_ja":"カリロ県","center_lonlat":[33.4831,1.0595]},"geometry":{"type":"Polygon","coordinates":[[[33.5318,0.8809],[33.493,0.8612],[33.4273,0.8714],[33.3984,0.8844],[33.3922,0.9163],[33.4092,0.9852],[33.3736,1.0493],[33.3388,1.0793],[33.3652,1.1011],[33.3653,1.1294],[33.4316,1.2346],[33.4425,1.2876],[33.5242,1.2028],[33.5751,1.1758],[33.6329,1.0876],[33.5762,0.9936],[33.5318,0.8809]]]}},{"type":"Feature","id":"Kalungu","properties":{"id":"Kalungu","iso_code":"UG-122","name":"Kalungu","name_full":"Kalungu","name_ja":"カルング県","center_lonlat":[31.81,-0.11]},"geometry":{"type":"Polygon","coordinates":[[[31.8558,-0.0074],[31.9357,-0.1268],[31.9198,-0.1342],[31.9403,-0.1404],[31.9267,-0.1956],[31.9714,-0.1826],[31.9805,-0.1894],[31.9745,-0.2304],[31.8919,-0.265],[31.7211,-0.2622],[31.7552,-0.2053],[31.6727,0.0111],[31.6488,0.0471],[31.6971,0.0755],[31.7935,0.0501],[31.8558,-0.0074]]]}},{"type":"Feature","id":"Kampala","properties":{"id":"Kampala","iso_code":"UG-102","name":"Kampala","name_full":"Kampala","name_ja":"カンパラ県","center_lonlat":[32.6097,0.3805]},"geometry":{"type":"Polygon","coordinates":[[[32.6595,0.5037],[32.6716,0.482],[32.6677,0.3932],[32.6861,0.3346],[32.6642,0.2876],[32.5473,0.2737],[32.5235,0.3033],[32.5651,0.3888],[32.5595,0.4178],[32.5358,0.4426],[32.5491,0.4834],[32.5971,0.4665],[32.6186,0.4955],[32.6595,0.5037]]]}},{"type":"Feature","id":"Kamuli","properties":{"id":"Kamuli","iso_code":"UG-205","name":"Kamuli","name_full":"Kamuli","name_ja":"カムリ県","center_lonlat":[33.1082,0.9147]},"geometry":{"type":"Polygon","coordinates":[[[33.2972,0.9437],[33.2911,0.8437],[33.2766,0.7994],[33.2299,0.7472],[33.2213,0.6718],[33.1819,0.6849],[33.1333,0.6815],[33.1278,0.6605],[33.0969,0.6662],[33.075,0.652],[33.049,0.6632],[33.0336,0.7983],[32.9544,0.9501],[32.9361,1.0827],[32.9393,1.1042],[32.9609,1.1216],[32.9613,1.1817],[33.0384,1.1737],[33.1136,1.1389],[33.1339,1.055],[33.2972,0.9437]]]}},{"type":"Feature","id":"Kamwenge","properties":{"id":"Kamwenge","iso_code":"UG-413","name":"Kamwenge","name_full":"Kamwenge","name_ja":"カムウェンゲ県","center_lonlat":[30.5059,0.199]},"geometry":{"type":"Polygon","coordinates":[[[30.4281,0.5412],[30.4645,0.5122],[30.492,0.4452],[30.5237,0.4308],[30.5504,0.2975],[30.6311,0.3249],[30.7188,0.3954],[30.7806,0.4194],[30.8339,0.4023],[30.8837,0.4143],[30.9198,0.3988],[30.9181,0.3593],[30.9026,0.3387],[30.9198,0.2837],[30.9095,0.2648],[30.8734,0.2579],[30.8614,0.2425],[30.8528,0.1858],[30.6878,0.1841],[30.6441,0.1634],[30.4749,0.1004],[30.4007,-0.0283],[30.4276,-0.1208],[30.4641,-0.1559],[30.4165,-0.1728],[30.3067,-0.1277],[30.2497,-0.1199],[30.198,-0.0977],[30.2066,-0.0793],[30.2359,0.132],[30.2687,0.2635],[30.3618,0.2276],[30.3892,0.3708],[30.3865,0.3967],[30.3656,0.4234],[30.3805,0.4546],[30.3763,0.4853],[30.4281,0.5412]]]}},{"type":"Feature","id":"Kanungu","properties":{"id":"Kanungu","iso_code":"UG-414","name":"Kanungu","name_full":"Kanungu","name_ja":"カヌング県","center_lonlat":[29.7101,-0.8193]},"geometry":{"type":"Polygon","coordinates":[[[29.5515,-0.9903],[29.556,-0.9195],[29.5672,-0.9019],[29.5967,-0.8919],[29.6108,-0.864],[29.603,-0.7229],[29.6155,-0.6441],[29.6306,-0.622],[29.6188,-0.5994],[29.6509,-0.5796],[29.6531,-0.5656],[29.6497,-0.5043],[29.6294,-0.4424],[29.7101,-0.4323],[29.7088,-0.5829],[29.7272,-0.6097],[29.7758,-0.6137],[29.782,-0.6703],[29.8395,-0.7589],[29.8234,-0.8405],[29.8465,-0.8848],[29.8303,-0.924],[29.9001,-1.0441],[29.8697,-1.064],[29.826,-1.0283],[29.7719,-1.025],[29.7546,-1.0756],[29.604,-1.0261],[29.5515,-0.9903]]]}},{"type":"Feature","id":"Kapchorwa","properties":{"id":"Kapchorwa","iso_code":"UG-206","name":"Kapchorwa","name_full":"Kapchorwa","name_ja":"カプチョルワ県","center_lonlat":[34.4581,1.3131]},"geometry":{"type":"Polygon","coordinates":[[[34.5601,1.0931],[34.5075,1.1025],[34.5242,1.1623],[34.5244,1.1965],[34.4985,1.2217],[34.3285,1.3],[34.309,1.3213],[34.3139,1.3513],[34.3549,1.4042],[34.4332,1.4456],[34.4682,1.4139],[34.5318,1.3965],[34.5666,1.3734],[34.5695,1.3329],[34.5463,1.275],[34.5484,1.2004],[34.5601,1.0931]]]}},{"type":"Feature","id":"Kasese","properties":{"id":"Kasese","iso_code":"UG-406","name":"Kasese","name_full":"Kasese","name_ja":"カセセ県","center_lonlat":[29.978,0.0902]},"geometry":{"type":"Polygon","coordinates":[[[29.8326,0.337],[29.9533,0.344],[30.0593,0.3675],[30.1378,0.344],[30.1653,0.2969],[30.2163,0.3008],[30.2687,0.2635],[30.2359,0.132],[30.2066,-0.0793],[30.1328,-0.0755],[30.0044,-0.1741],[29.6813,-0.1379],[29.7143,-0.0075],[29.7031,0.0725],[29.7613,0.1721],[29.7872,0.1585],[29.7971,0.1648],[29.8326,0.337]]]}},{"type":"Feature","id":"Katakwi","properties":{"id":"Katakwi","iso_code":"UG-207","name":"Katakwi","name_full":"Katakwi","name_ja":"カタクイ県","center_lonlat":[34.0333,1.9142]},"geometry":{"type":"Polygon","coordinates":[[[33.809,1.7083],[33.8466,1.7351],[33.8699,1.7713],[33.8686,1.8107],[33.8517,1.8454],[33.897,1.8967],[33.8891,1.9978],[33.9016,2.0343],[33.8909,2.074],[33.9071,2.1127],[33.8958,2.1796],[33.8785,2.2095],[33.9057,2.3043],[34.2029,2.1114],[34.2118,1.9546],[34.2117,1.6313],[34.0422,1.6423],[33.9448,1.6233],[33.8958,1.6385],[33.8566,1.6641],[33.8106,1.6683],[33.809,1.7083]]]}},{"type":"Feature","id":"Kayunga","properties":{"id":"Kayunga","iso_code":"UG-112","name":"Kayunga","name_full":"Kayunga","name_ja":"カユンガ県","center_lonlat":[32.8802,1.0183]},"geometry":{"type":"Polygon","coordinates":[[[32.7803,1.0812],[32.7934,1.1827],[32.7762,1.3309],[32.7489,1.364],[32.6907,1.3879],[32.688,1.4705],[32.8114,1.4752],[32.8512,1.3582],[32.8931,1.3114],[32.9613,1.1817],[32.9609,1.1216],[32.9393,1.1042],[32.9361,1.0827],[32.9544,0.9501],[33.0336,0.7983],[33.049,0.6632],[33.0986,0.5442],[33.0316,0.587],[32.9818,0.6458],[32.8586,0.7234],[32.7927,0.8453],[32.7763,0.9627],[32.7803,1.0812]]]}},{"type":"Feature","id":"Kibaale","properties":{"id":"Kibaale","iso_code":"UG-407","name":"Kibaale","name_full":"Kibaale","name_ja":"キバレ県","center_lonlat":[31.0769,0.9416]},"geometry":{"type":"Polygon","coordinates":[[[31.4381,0.8615],[31.4247,0.818],[31.402,0.7916],[31.3918,0.7378],[31.3643,0.6988],[31.3185,0.7174],[31.2748,0.7077],[31.2144,0.6224],[31.0847,0.6686],[30.9373,0.6978],[30.8189,0.8357],[30.6325,0.8904],[30.5453,0.9295],[30.5272,0.9859],[30.5481,1.0742],[30.5931,1.0426],[30.6755,1.0543],[30.8051,1.1241],[30.8717,1.1053],[31.0524,1.167],[31.0975,1.1613],[31.1199,1.1929],[31.1743,1.1921],[31.2099,1.2195],[31.2905,1.2135],[31.3502,1.1749],[31.4074,1.1555],[31.4483,1.0951],[31.5213,1.0274],[31.5088,0.9856],[31.4767,0.9751],[31.4273,0.9262],[31.4381,0.8615]]]}},{"type":"Feature","id":"Kiboga","properties":{"id":"Kiboga","iso_code":"UG-103","name":"Kiboga","name_full":"Kiboga","name_ja":"キボガ県","center_lonlat":[31.9607,0.8465]},"geometry":{"type":"Polygon","coordinates":[[[32.1837,0.7024],[32.0719,0.6358],[31.9534,0.6485],[31.9192,0.674],[31.8355,0.8033],[31.7961,0.8187],[31.7414,0.819],[31.6747,0.8661],[31.757,0.9563],[31.8316,1.0073],[31.8433,1.0543],[31.8747,1.0857],[31.953,1.1039],[31.9995,1.021],[32.0006,0.9817],[32.0432,0.9096],[32.1074,0.8657],[32.1664,0.8546],[32.2192,0.8081],[32.222,0.7597],[32.1837,0.7024]]]}},{"type":"Feature","id":"Kibuku","properties":{"id":"Kibuku","iso_code":"UG-227","name":"Kibuku","name_full":"Kibuku","name_ja":"キブク県","center_lonlat":[33.7891,1.0454]},"geometry":{"type":"Polygon","coordinates":[[[33.8436,0.939],[33.7906,0.9488],[33.7429,0.9361],[33.6954,0.9888],[33.6956,1.0371],[33.6329,1.0876],[33.7099,1.0869],[33.9038,1.1679],[33.8864,1.1216],[33.9154,1.0897],[33.8488,1.029],[33.8436,0.939]]]}},{"type":"Feature","id":"Kiryandongo","properties":{"id":"Kiryandongo","iso_code":"UG-420","name":"Kiryandongo","name_full":"Kiryandongo","name_ja":"キリャンドンゴ県","center_lonlat":[32.0446,2.0279]},"geometry":{"type":"Polygon","coordinates":[[[32.3468,2.0727],[32.3519,2.0314],[32.3314,1.9796],[32.3342,1.9675],[32.3655,1.9557],[32.3464,1.9339],[32.3415,1.8679],[32.2795,1.8433],[32.2705,1.8095],[32.1628,1.7782],[32.1042,1.7155],[32.1118,1.6971],[32.1015,1.6656],[32.0676,1.6859],[32.0244,1.6811],[32.0244,1.6427],[31.9908,1.6379],[31.9716,1.6667],[31.9044,1.6907],[31.9044,1.7291],[31.866,1.8106],[31.8756,1.9642],[31.8372,2.0218],[31.77,2.0362],[31.7508,2.0602],[31.7554,2.2983],[31.8032,2.3461],[31.8789,2.3672],[31.9198,2.3597],[32.0161,2.2915],[32.1234,2.2575],[32.1567,2.2315],[32.1799,2.2306],[32.2141,2.2573],[32.2601,2.2568],[32.3103,2.1959],[32.3205,2.1259],[32.3468,2.0727]]]}},{"type":"Feature","id":"Kisoro","properties":{"id":"Kisoro","iso_code":"UG-408","name":"Kisoro","name_full":"Kisoro","name_ja":"キソロ県","center_lonlat":[29.67,-1.2124]},"geometry":{"type":"Polygon","coordinates":[[[29.825,-1.3239],[29.7982,-1.3309],[29.7749,-1.3663],[29.7348,-1.3482],[29.6391,-1.389],[29.5779,-1.3884],[29.5871,-1.3106],[29.5715,-1.2792],[29.5814,-1.2348],[29.557,-1.1818],[29.5701,-1.0779],[29.5515,-0.9903],[29.604,-1.0261],[29.7546,-1.0756],[29.7304,-1.1188],[29.7969,-1.1832],[29.7703,-1.2033],[29.825,-1.3239]]]}},{"type":"Feature","id":"Kitgum","properties":{"id":"Kitgum","iso_code":"UG-305","name":"Kitgum","name_full":"Kitgum","name_ja":"キトゥグム県","center_lonlat":[33.2697,3.3957]},"geometry":{"type":"Polygon","coordinates":[[[33.5277,3.7714],[33.5647,3.6554],[33.6299,3.5632],[33.6746,3.4575],[33.7434,3.3531],[33.7284,3.3274],[33.7347,3.2995],[33.6814,3.2514],[33.55,3.2687],[33.5049,3.2673],[33.4705,3.2911],[33.3893,3.2995],[33.4167,3.2601],[33.3515,3.2624],[33.36,3.196],[33.2729,3.1782],[33.2143,3.188],[33.1554,3.0177],[33.0645,3.1325],[32.989,3.1733],[32.9315,3.1796],[32.9281,3.1086],[32.8379,3.164],[32.7828,3.1799],[32.7783,3.2778],[32.7578,3.3188],[32.7695,3.3918],[32.904,3.4065],[32.9274,3.424],[32.9391,3.4679],[33.1086,3.4679],[33.1349,3.5234],[33.1554,3.5351],[33.1817,3.5351],[33.2256,3.4854],[33.2256,3.4328],[33.2811,3.4299],[33.284,3.5614],[33.2431,3.6813],[33.2637,3.7537],[33.4473,3.7444],[33.4906,3.7497],[33.5277,3.7714]]]}},{"type":"Feature","id":"Koboko","properties":{"id":"Koboko","iso_code":"UG-316","name":"Koboko","name_full":"Koboko","name_ja":"コボコ県","center_lonlat":[30.9767,3.5196]},"geometry":{"type":"Polygon","coordinates":[[[31.0687,3.7317],[31.0371,3.5328],[31.0537,3.313],[31.0125,3.3402],[30.9875,3.3204],[30.9563,3.3352],[30.9049,3.386],[30.9163,3.4148],[30.9029,3.4589],[30.9093,3.4961],[30.8964,3.52],[30.8395,3.4902],[30.8438,3.5059],[30.9444,3.6793],[31.0687,3.7317]]]}},{"type":"Feature","id":"Kole","properties":{"id":"Kole","iso_code":"UG-326","name":"Kole","name_full":"Kole","name_ja":"コレ県","center_lonlat":[32.7056,2.2844]},"geometry":{"type":"Polygon","coordinates":[[[32.8111,2.4749],[32.7608,2.3424],[32.8277,2.227],[32.8128,2.1067],[32.7491,2.1377],[32.7111,2.1406],[32.6731,2.1786],[32.5497,2.1803],[32.603,2.2458],[32.5817,2.3637],[32.6213,2.3747],[32.6904,2.4634],[32.776,2.4472],[32.8111,2.4749]]]}},{"type":"Feature","id":"Kotido","properties":{"id":"Kotido","iso_code":"UG-306","name":"Kotido","name_full":"Kotido","name_ja":"コティド県","center_lonlat":[33.98,3.0161]},"geometry":{"type":"Polygon","coordinates":[[[33.555,3.1957],[33.55,3.2687],[33.6814,3.2514],[33.7347,3.2995],[33.7284,3.3274],[33.7434,3.3531],[33.8458,3.2902],[33.875,3.3027],[33.9035,3.2965],[33.9133,3.2737],[33.9062,3.2437],[34.0362,3.2394],[34.1576,3.1971],[34.3285,3.0829],[34.3863,3.0817],[34.2745,2.9178],[34.2517,2.8328],[34.2261,2.7245],[34.1444,2.7518],[34.0113,2.7561],[33.9633,2.7225],[33.9506,2.6169],[33.8474,2.6685],[33.8424,2.9329],[33.7159,2.9944],[33.7047,3.029],[33.6705,3.0539],[33.6787,3.1784],[33.6378,3.1755],[33.555,3.1957]]]}},{"type":"Feature","id":"Kumi","properties":{"id":"Kumi","iso_code":"UG-208","name":"Kumi","name_full":"Kumi","name_ja":"クミ県","center_lonlat":[33.9683,1.4779]},"geometry":{"type":"Polygon","coordinates":[[[34.2297,1.5557],[34.0861,1.521],[34.0427,1.495],[34.0485,1.4313],[33.9993,1.3937],[34.0022,1.2952],[33.9266,1.2462],[33.8536,1.2727],[33.8168,1.3109],[33.7892,1.3136],[33.7822,1.3879],[33.8054,1.4168],[33.843,1.4313],[33.8401,1.5905],[33.8604,1.6252],[33.8958,1.6385],[33.9448,1.6233],[34.0422,1.6423],[34.2117,1.6313],[34.2345,1.6265],[34.2297,1.5557]]]}},{"type":"Feature","id":"Kween","properties":{"id":"Kween","iso_code":"UG-228","name":"Kween","name_full":"Kween","name_ja":"クウェエン県","center_lonlat":[34.5827,1.4414]},"geometry":{"type":"Polygon","coordinates":[[[34.6373,1.5409],[34.6812,1.514],[34.7422,1.4194],[34.7272,1.369],[34.6953,1.3281],[34.6037,1.2891],[34.5484,1.2004],[34.5463,1.275],[34.5695,1.3329],[34.5666,1.3734],[34.5318,1.3965],[34.4682,1.4139],[34.4332,1.4456],[34.4528,1.4871],[34.4214,1.5283],[34.3777,1.5572],[34.4332,1.5553],[34.5028,1.5918],[34.5545,1.5693],[34.5905,1.5695],[34.6373,1.5409]]]}},{"type":"Feature","id":"Kyankwanzi","properties":{"id":"Kyankwanzi","iso_code":"UG-123","name":"Kyankwanzi","name_full":"Kyankwanzi","name_ja":"キャンクァンジ県","center_lonlat":[31.6451,1.1292]},"geometry":{"type":"Polygon","coordinates":[[[31.8223,1.3571],[31.8959,1.2851],[31.9329,1.2214],[31.953,1.1039],[31.8747,1.0857],[31.8433,1.0543],[31.8316,1.0073],[31.757,0.9563],[31.6747,0.8661],[31.583,0.8452],[31.4381,0.8615],[31.4273,0.9262],[31.4767,0.9751],[31.5088,0.9856],[31.5213,1.0274],[31.4483,1.0951],[31.4074,1.1555],[31.3502,1.1749],[31.2905,1.2135],[31.4378,1.2855],[31.5138,1.3613],[31.7609,1.3236],[31.783,1.3477],[31.8223,1.3571]]]}},{"type":"Feature","id":"Kyegegwa","properties":{"id":"Kyegegwa","iso_code":"UG-421","name":"Kyegegwa","name_full":"Kyegegwa","name_ja":"キェゲグワ県","center_lonlat":[31.0294,0.4611]},"geometry":{"type":"Polygon","coordinates":[[[31.0088,0.2067],[31.0007,0.2023],[30.8528,0.1858],[30.8614,0.2425],[30.8734,0.2579],[30.9095,0.2648],[30.9198,0.2837],[30.9026,0.3387],[30.9181,0.3593],[30.9198,0.3988],[30.8837,0.4143],[30.8854,0.4624],[30.9198,0.4641],[30.9198,0.5552],[30.9524,0.5724],[30.9524,0.6325],[30.9026,0.6583],[30.8906,0.6789],[30.9373,0.6978],[31.0847,0.6686],[31.2144,0.6224],[31.2535,0.5666],[31.2441,0.5239],[31.1599,0.5044],[31.1378,0.4851],[31.1097,0.4178],[31.1264,0.3448],[31.0088,0.2067]]]}},{"type":"Feature","id":"Kyenjojo","properties":{"id":"Kyenjojo","iso_code":"UG-415","name":"Kyenjojo","name_full":"Kyenjojo","name_ja":"キエンジョジョ県","center_lonlat":[30.67,0.6224]},"geometry":{"type":"Polygon","coordinates":[[[30.5453,0.9295],[30.6325,0.8904],[30.8189,0.8357],[30.9373,0.6978],[30.8906,0.6789],[30.9026,0.6583],[30.9524,0.6325],[30.9524,0.5724],[30.9198,0.5552],[30.9198,0.4641],[30.8854,0.4624],[30.8837,0.4143],[30.8339,0.4023],[30.7806,0.4194],[30.7188,0.3954],[30.6311,0.3249],[30.5504,0.2975],[30.5237,0.4308],[30.492,0.4452],[30.4645,0.5122],[30.4281,0.5412],[30.4563,0.5681],[30.3982,0.615],[30.3969,0.6403],[30.4288,0.6754],[30.4407,0.762],[30.4826,0.8061],[30.4951,0.8397],[30.4858,0.853],[30.5453,0.9295]]]}},{"type":"Feature","id":"Lamwo","properties":{"id":"Lamwo","iso_code":"UG-327","name":"Lamwo","name_full":"Lamwo","name_ja":"ランウォ県","center_lonlat":[32.705,3.5309]},"geometry":{"type":"Polygon","coordinates":[[[33.2637,3.7537],[33.2431,3.6813],[33.284,3.5614],[33.2811,3.4299],[33.2256,3.4328],[33.2256,3.4854],[33.1817,3.5351],[33.1554,3.5351],[33.1349,3.5234],[33.1086,3.4679],[32.9391,3.4679],[32.9274,3.424],[32.904,3.4065],[32.7695,3.3918],[32.7578,3.3188],[32.7783,3.2778],[32.7828,3.1799],[32.7356,3.1702],[32.6801,3.1367],[32.5152,3.1358],[32.5095,3.1579],[32.3574,3.2867],[32.2687,3.3739],[32.1759,3.5272],[32.1759,3.6056],[32.1878,3.6192],[32.3718,3.7311],[32.7564,3.769],[32.8404,3.7943],[32.9972,3.8855],[33.1645,3.7631],[33.2637,3.7537]]]}},{"type":"Feature","id":"Lira","properties":{"id":"Lira","iso_code":"UG-307","name":"Lira","name_full":"Lira","name_ja":"リラ県","center_lonlat":[32.9161,2.3033]},"geometry":{"type":"Polygon","coordinates":[[[32.8111,2.4749],[32.8229,2.516],[32.7753,2.5786],[32.8063,2.6019],[32.8222,2.6377],[32.8352,2.6381],[32.8466,2.6226],[32.9347,2.5903],[32.9482,2.5407],[32.9825,2.5242],[33.0147,2.5332],[32.9975,2.4739],[32.9654,2.4534],[32.9654,2.4242],[32.9391,2.395],[32.8952,2.3774],[32.8894,2.354],[32.9683,2.3424],[32.9829,2.3073],[33.0589,2.2576],[33.0794,2.2225],[33.0859,2.0663],[33.0636,2.0337],[33.0335,2.0252],[32.9655,2.0648],[32.888,2.0747],[32.8457,2.0812],[32.8128,2.1067],[32.8277,2.227],[32.7608,2.3424],[32.8111,2.4749]]]}},{"type":"Feature","id":"Luuka","properties":{"id":"Luuka","iso_code":"UG-229","name":"Luuka","name_full":"Luuka","name_ja":"ルッカ県","center_lonlat":[33.3709,0.7698]},"geometry":{"type":"Polygon","coordinates":[[[33.2213,0.6718],[33.2299,0.7472],[33.2766,0.7994],[33.2911,0.8437],[33.2972,0.9437],[33.3005,0.9795],[33.328,1.0293],[33.3209,1.057],[33.3388,1.0793],[33.3736,1.0493],[33.4092,0.9852],[33.3922,0.9163],[33.3984,0.8844],[33.4273,0.8714],[33.4378,0.8148],[33.4204,0.728],[33.513,0.6672],[33.5171,0.5475],[33.499,0.5255],[33.4701,0.5452],[33.4089,0.559],[33.3972,0.5946],[33.2728,0.6788],[33.2213,0.6718]]]}},{"type":"Feature","id":"Luwero","properties":{"id":"Luwero","iso_code":"UG-104","name":"Luwero","name_full":"Luwero","name_ja":"ルウェロ県","center_lonlat":[32.6048,0.8062]},"geometry":{"type":"Polygon","coordinates":[[[32.7803,1.0812],[32.7763,0.9627],[32.7927,0.8453],[32.7887,0.7523],[32.7534,0.5876],[32.6702,0.5565],[32.5799,0.5714],[32.5416,0.5431],[32.3604,0.5633],[32.3304,0.5461],[32.3349,0.5853],[32.369,0.6369],[32.4108,0.6542],[32.4548,0.6533],[32.4898,0.6982],[32.464,0.7428],[32.4631,0.8661],[32.4121,0.9445],[32.4004,1.0073],[32.406,1.0904],[32.4687,1.0168],[32.5597,0.9763],[32.6239,0.968],[32.62,1.019],[32.6399,1.1358],[32.6749,1.1446],[32.7262,1.0752],[32.7803,1.0812]]]}},{"type":"Feature","id":"Lwengo","properties":{"id":"Lwengo","iso_code":"UG-124","name":"Lwengo","name_full":"Lwengo","name_ja":"ルウェンゴ県","center_lonlat":[31.4418,-0.4149]},"geometry":{"type":"Polygon","coordinates":[[[31.2782,-0.2609],[31.334,-0.2935],[31.4605,-0.3149],[31.6044,-0.2963],[31.6072,-0.2622],[31.7211,-0.2622],[31.6955,-0.2878],[31.6955,-0.3362],[31.6186,-0.3789],[31.6129,-0.4017],[31.63,-0.4358],[31.6215,-0.47],[31.5645,-0.5127],[31.5266,-0.5146],[31.5048,-0.5354],[31.4962,-0.5867],[31.4592,-0.6037],[31.3454,-0.561],[31.2799,-0.5155],[31.237,-0.4641],[31.223,-0.4216],[31.2609,-0.2795],[31.2782,-0.2609]]]}},{"type":"Feature","id":"Lyantonde","properties":{"id":"Lyantonde","iso_code":"UG-116","name":"Lyantonde","name_full":"Lyantonde","name_ja":"リャントンデ県","center_lonlat":[31.1782,-0.2483]},"geometry":{"type":"Polygon","coordinates":[[[31.2782,-0.2609],[31.2609,-0.2795],[31.223,-0.4216],[31.237,-0.4641],[31.2287,-0.524],[31.1348,-0.5284],[31.1479,-0.4927],[31.1396,-0.4562],[31.0655,-0.2763],[31.0644,-0.2107],[31.0842,-0.1275],[31.0776,-0.0444],[31.1133,-0.0274],[31.1367,-0.0319],[31.1905,-0.0496],[31.1937,-0.0671],[31.2466,-0.0925],[31.2595,-0.0579],[31.2877,-0.076],[31.309,-0.1004],[31.311,-0.1576],[31.2782,-0.2609]]]}},{"type":"Feature","id":"Manafwa","properties":{"id":"Manafwa","iso_code":"UG-221","name":"Manafwa","name_full":"Manafwa","name_ja":"マナフワ県","center_lonlat":[34.3168,0.8887]},"geometry":{"type":"Polygon","coordinates":[[[34.4633,1.0],[34.4312,0.8935],[34.388,0.8158],[34.3067,0.7681],[34.2963,0.7467],[34.2296,0.7754],[34.1637,0.8281],[34.1942,0.8566],[34.2248,0.9426],[34.2604,0.9597],[34.2636,0.9992],[34.3296,1.0],[34.3296,0.9864],[34.3471,0.9864],[34.3491,1.0078],[34.4633,1.0]]]}},{"type":"Feature","id":"Maracha","properties":{"id":"Maracha","iso_code":"UG-320","name":"Maracha","name_full":"Maracha","name_ja":"マラチャ県","center_lonlat":[30.9075,3.2342]},"geometry":{"type":"Polygon","coordinates":[[[30.7634,3.1234],[30.8221,3.2814],[30.8424,3.2887],[30.9049,3.386],[30.9563,3.3352],[30.9875,3.3204],[31.0125,3.3402],[31.0537,3.313],[31.028,3.266],[31.0209,3.2146],[30.9158,3.1172],[30.7634,3.1234]]]}},{"type":"Feature","id":"Masaka","properties":{"id":"Masaka","iso_code":"UG-105","name":"Masaka","name_full":"Masaka","name_ja":"マサカ県","center_lonlat":[31.8431,-0.4918]},"geometry":{"type":"Polygon","coordinates":[[[31.6215,-0.47],[31.63,-0.4358],[31.6129,-0.4017],[31.6186,-0.3789],[31.6955,-0.3362],[31.6955,-0.2878],[31.7211,-0.2622],[31.8919,-0.265],[31.9745,-0.2304],[32.0062,-0.2467],[32.0359,-0.3114],[32.0653,-0.3237],[32.0678,-0.35],[31.9862,-0.4132],[31.9862,-0.7739],[31.8599,-0.7713],[31.7519,-0.7319],[31.6764,-0.6121],[31.6897,-0.5203],[31.6602,-0.477],[31.6215,-0.47]]]}},{"type":"Feature","id":"Masindi","properties":{"id":"Masindi","iso_code":"UG-409","name":"Masindi","name_full":"Masindi","name_ja":"マシンディ県","center_lonlat":[31.7006,1.7223]},"geometry":{"type":"Polygon","coordinates":[[[32.1042,1.6478],[32.0405,1.551],[31.9948,1.5284],[31.9595,1.4759],[31.8223,1.3571],[31.783,1.3477],[31.7609,1.3236],[31.5138,1.3613],[31.4464,1.4081],[31.4292,1.598],[31.4222,1.6188],[31.3766,1.6076],[31.3635,1.6449],[31.3749,1.699],[31.3614,1.7382],[31.482,1.7243],[31.5492,1.7579],[31.578,1.801],[31.578,1.8682],[31.6068,1.8922],[31.6356,1.897],[31.6452,1.921],[31.5396,2.065],[31.5459,2.2778],[31.6144,2.2778],[31.6424,2.2642],[31.7554,2.2983],[31.7508,2.0602],[31.77,2.0362],[31.8372,2.0218],[31.8756,1.9642],[31.866,1.8106],[31.9044,1.7291],[31.9044,1.6907],[31.9716,1.6667],[31.9908,1.6379],[32.0244,1.6427],[32.0244,1.6811],[32.0676,1.6859],[32.1015,1.6656],[32.1042,1.6478]]]}},{"type":"Feature","id":"Mayuge","properties":{"id":"Mayuge","iso_code":"UG-214","name":"Mayuge","name_full":"Mayuge","name_ja":"マユゲ県","center_lonlat":[33.5396,-0.2729]},"geometry":{"type":"Polygon","coordinates":[[[33.6318,-1.0026],[33.4264,-1.0026],[33.4262,0.2137],[33.387,0.3026],[33.5043,0.3469],[33.5224,0.3962],[33.5657,0.4507],[33.6088,0.4422],[33.597,0.4212],[33.6404,0.3806],[33.6934,0.3684],[33.6847,0.3217],[33.6902,0.2797],[33.6606,0.2475],[33.6543,0.0731],[33.6936,-0.0014],[33.7407,-0.0407],[33.7376,-0.068],[33.6318,-0.1035],[33.6318,-1.0026]]]}},{"type":"Feature","id":"Mbale","properties":{"id":"Mbale","iso_code":"UG-209","name":"Mbale","name_full":"Mbale","name_ja":"ムバレ県","center_lonlat":[34.1854,1.0168]},"geometry":{"type":"Polygon","coordinates":[[[34.1298,1.1145],[34.1165,1.1779],[34.1569,1.1632],[34.2054,1.1584],[34.2324,1.1186],[34.2629,1.1043],[34.2918,1.107],[34.3571,1.0864],[34.3166,1.0747],[34.2636,0.9992],[34.2604,0.9597],[34.2248,0.9426],[34.1942,0.8566],[34.1637,0.8281],[34.1337,0.8768],[34.085,0.9023],[34.1161,1.0219],[34.0692,1.034],[34.0773,1.051],[34.1134,1.0686],[34.1298,1.1145]]]}},{"type":"Feature","id":"Mbarara","properties":{"id":"Mbarara","iso_code":"UG-410","name":"Mbarara","name_full":"Mbarara","name_ja":"ムバララ県","center_lonlat":[30.5535,-0.5705]},"geometry":{"type":"Polygon","coordinates":[[[30.5036,-0.2559],[30.6215,-0.2272],[30.6051,-0.2874],[30.638,-0.3228],[30.6658,-0.3293],[30.6794,-0.3509],[30.6753,-0.3868],[30.6994,-0.4127],[30.8097,-0.4977],[30.7797,-0.5435],[30.7652,-0.605],[30.6475,-0.6121],[30.6355,-0.6835],[30.6402,-0.8138],[30.59,-0.8057],[30.4829,-0.829],[30.4135,-0.7975],[30.3639,-0.8178],[30.2971,-0.8119],[30.2626,-0.8006],[30.2585,-0.7811],[30.2727,-0.7549],[30.3384,-0.7142],[30.4252,-0.6303],[30.4689,-0.4874],[30.47,-0.446],[30.467,-0.4124],[30.4968,-0.3837],[30.5036,-0.2559]]]}},{"type":"Feature","id":"Mbarara (UG-410)","properties":{"id":"Mbarara (UG-410)","iso_code":"UG-410","name":"Mbarara (UG-410)","name_full":"Mbarara","name_ja":"ムバララ県","center_lonlat":[30.8804,-0.2358]},"geometry":{"type":"Polygon","coordinates":[[[30.6441,0.1634],[30.6878,0.1841],[30.8528,0.1858],[31.0007,0.2023],[31.0387,0.1247],[31.0428,0.0849],[31.0436,0.0206],[31.0158,-0.0309],[31.0776,-0.0444],[31.0842,-0.1275],[31.0644,-0.2107],[31.0655,-0.2763],[31.1396,-0.4562],[31.1479,-0.4927],[31.1348,-0.5284],[31.0749,-0.6527],[31.0395,-0.6818],[30.9973,-0.6922],[30.8653,-0.6951],[30.8107,-0.6259],[30.7652,-0.605],[30.7797,-0.5435],[30.8097,-0.4977],[30.6994,-0.4127],[30.6753,-0.3868],[30.6794,-0.3509],[30.6658,-0.3293],[30.638,-0.3228],[30.6051,-0.2874],[30.6215,-0.2272],[30.627,-0.199],[30.6701,-0.1663],[30.5852,-0.1388],[30.6048,-0.0721],[30.6402,-0.0132],[30.6889,0.034],[30.7344,0.1202],[30.6676,0.1202],[30.6441,0.1634]]]}},{"type":"Feature","id":"Mitooma","properties":{"id":"Mitooma","iso_code":"UG-422","name":"Mitooma","name_full":"Mitooma","name_ja":"ミトマ県","center_lonlat":[30.0479,-0.6395]},"geometry":{"type":"Polygon","coordinates":[[[30.1873,-0.7248],[30.1569,-0.7163],[30.1098,-0.7576],[30.0582,-0.76],[29.9988,-0.7168],[29.9515,-0.6407],[29.9133,-0.6216],[29.8974,-0.5841],[29.926,-0.5708],[29.9426,-0.505],[30.0201,-0.547],[30.0829,-0.5391],[30.1064,-0.5627],[30.126,-0.6215],[30.1653,-0.6333],[30.1967,-0.6882],[30.1873,-0.7248]]]}},{"type":"Feature","id":"Mityana","properties":{"id":"Mityana","iso_code":"UG-114","name":"Mityana","name_full":"Mityana","name_ja":"ミティアナ県","center_lonlat":[32.0848,0.4416]},"geometry":{"type":"Polygon","coordinates":[[[32.1837,0.7024],[32.2227,0.5741],[32.2192,0.5035],[32.2631,0.4346],[32.2647,0.2672],[32.2306,0.253],[32.1413,0.2558],[31.9962,0.245],[31.9676,0.2285],[31.9452,0.2336],[31.9115,0.221],[31.8705,0.2381],[31.8472,0.2751],[31.8214,0.283],[31.9488,0.2957],[31.9665,0.3378],[31.9552,0.3841],[31.969,0.4256],[31.9228,0.5236],[31.9377,0.5609],[31.912,0.5694],[31.9023,0.5961],[31.916,0.6222],[31.9534,0.6485],[32.0719,0.6358],[32.1837,0.7024]]]}},{"type":"Feature","id":"Moroto","properties":{"id":"Moroto","iso_code":"UG-308","name":"Moroto","name_full":"Moroto","name_ja":"モロト県","center_lonlat":[34.6119,2.7256]},"geometry":{"type":"Polygon","coordinates":[[[34.5456,3.0975],[34.5847,2.9287],[34.6405,2.8601],[34.6603,2.8586],[34.685,2.881],[34.7301,2.8529],[34.7613,2.7725],[34.7765,2.6856],[34.8187,2.598],[34.8418,2.5878],[34.8656,2.6049],[34.8756,2.5912],[34.8871,2.5224],[34.9236,2.4773],[34.9209,2.4546],[34.8679,2.4115],[34.8591,2.3868],[34.9223,2.2107],[34.8848,2.1514],[34.8416,2.113],[34.8255,2.1677],[34.8176,2.3098],[34.7546,2.4841],[34.7408,2.521],[34.7024,2.5594],[34.6448,2.5786],[34.6448,2.6409],[34.5632,2.6649],[34.4385,2.7753],[34.2517,2.8328],[34.2745,2.9178],[34.3863,3.0817],[34.5081,3.0787],[34.5456,3.0975]]]}},{"type":"Feature","id":"Moyo","properties":{"id":"Moyo","iso_code":"UG-309","name":"Moyo","name_full":"Moyo","name_ja":"モヨ県","center_lonlat":[31.6803,3.5302]},"geometry":{"type":"Polygon","coordinates":[[[32.0222,3.5864],[31.9583,3.5634],[31.9419,3.5277],[31.9084,3.4995],[31.8131,3.5222],[31.8152,3.5352],[31.7486,3.4975],[31.6933,3.4864],[31.6642,3.4538],[31.6462,3.3876],[31.597,3.3345],[31.5245,3.1447],[31.4607,3.2193],[31.4637,3.458],[31.5868,3.6322],[31.6139,3.697],[31.6868,3.7128],[31.781,3.8158],[31.8307,3.7839],[31.9019,3.7043],[31.93,3.5984],[32.0222,3.5864]]]}},{"type":"Feature","id":"Mpigi","properties":{"id":"Mpigi","iso_code":"UG-106","name":"Mpigi","name_full":"Mpigi","name_ja":"ムピジ県","center_lonlat":[32.1676,0.0835]},"geometry":{"type":"Polygon","coordinates":[[[32.2647,0.2672],[32.2631,0.4346],[32.369,0.4346],[32.4396,0.36],[32.4099,0.2268],[32.3582,0.1836],[32.3373,0.141],[32.2783,0.1073],[32.2682,0.0795],[32.2269,0.0496],[32.2242,-0.018],[32.2486,-0.0588],[32.2482,-0.1584],[31.9976,-0.1581],[31.9357,-0.1268],[31.8558,-0.0074],[31.926,0.0282],[32.0256,0.1164],[32.0769,0.1363],[32.1281,0.1278],[32.2192,0.1847],[32.2676,0.2274],[32.2647,0.2672]]]}},{"type":"Feature","id":"Mubende","properties":{"id":"Mubende","iso_code":"UG-107","name":"Mubende","name_full":"Mubende","name_ja":"ムベンデ県","center_lonlat":[31.5418,0.5166]},"geometry":{"type":"Polygon","coordinates":[[[31.4381,0.8615],[31.583,0.8452],[31.6747,0.8661],[31.7414,0.819],[31.7961,0.8187],[31.8355,0.8033],[31.9192,0.674],[31.9534,0.6485],[31.916,0.6222],[31.9023,0.5961],[31.912,0.5694],[31.9377,0.5609],[31.9228,0.5236],[31.969,0.4256],[31.9552,0.3841],[31.9665,0.3378],[31.9488,0.2957],[31.8214,0.283],[31.7728,0.2581],[31.7239,0.3014],[31.6186,0.3356],[31.575,0.3376],[31.4991,0.2986],[31.3368,0.253],[31.3348,0.2006],[31.2894,0.1986],[31.2592,0.1691],[31.2178,0.1703],[31.1574,0.2277],[31.1195,0.2311],[31.0813,0.2117],[31.0088,0.2067],[31.1264,0.3448],[31.1097,0.4178],[31.1378,0.4851],[31.1599,0.5044],[31.2441,0.5239],[31.2535,0.5666],[31.2144,0.6224],[31.2748,0.7077],[31.3185,0.7174],[31.3643,0.6988],[31.3918,0.7378],[31.402,0.7916],[31.4247,0.818],[31.4381,0.8615]]]}},{"type":"Feature","id":"Mukono","properties":{"id":"Mukono","iso_code":"UG-108","name":"Mukono","name_full":"Mukono","name_ja":"ムコノ県","center_lonlat":[32.7938,0.3398]},"geometry":{"type":"Polygon","coordinates":[[[32.7927,0.8453],[32.8586,0.7234],[32.9818,0.6458],[33.0316,0.587],[32.9882,0.5586],[32.985,0.5102],[33.0012,0.4536],[33.0286,0.4149],[33.0205,0.36],[32.9188,0.2566],[32.8623,0.1743],[32.8607,0.1404],[32.605,-0.1631],[32.4931,-0.1631],[32.6217,0.0024],[32.6315,0.2154],[32.6642,0.2876],[32.6861,0.3346],[32.6677,0.3932],[32.6716,0.482],[32.6595,0.5037],[32.6702,0.5565],[32.7534,0.5876],[32.7887,0.7523],[32.7927,0.8453]]]}},{"type":"Feature","id":"Nakapiripirit","properties":{"id":"Nakapiripirit","iso_code":"UG-311","name":"Nakapiripirit","name_full":"Nakapiripirit","name_ja":"ナカピリピリ県","center_lonlat":[34.562,1.9066]},"geometry":{"type":"Polygon","coordinates":[[[34.3777,1.5572],[34.2889,1.5476],[34.2609,1.5628],[34.2297,1.5557],[34.2345,1.6265],[34.2117,1.6313],[34.2118,1.9546],[34.3473,1.9786],[34.3569,2.0122],[34.4481,2.0698],[34.6016,2.0794],[34.6304,2.1226],[34.6352,2.4778],[34.7546,2.4841],[34.8176,2.3098],[34.8255,2.1677],[34.8416,2.113],[34.8608,1.9978],[34.808,1.993],[34.8032,1.7771],[34.7888,1.6811],[34.7504,1.6139],[34.6373,1.5409],[34.5905,1.5695],[34.5545,1.5693],[34.5028,1.5918],[34.4332,1.5553],[34.3777,1.5572]]]}},{"type":"Feature","id":"Nakaseke","properties":{"id":"Nakaseke","iso_code":"UG-115","name":"Nakaseke","name_full":"Nakaseke","name_ja":"ナカセケ県","center_lonlat":[32.1887,1.0303]},"geometry":{"type":"Polygon","coordinates":[[[32.1837,0.7024],[32.222,0.7597],[32.2192,0.8081],[32.1664,0.8546],[32.1074,0.8657],[32.0432,0.9096],[32.0006,0.9817],[31.9995,1.021],[31.953,1.1039],[31.9329,1.2214],[31.8959,1.2851],[31.8223,1.3571],[31.9595,1.4759],[32.0816,1.413],[32.2474,1.2466],[32.3478,1.2002],[32.3964,1.1524],[32.406,1.0904],[32.4004,1.0073],[32.4121,0.9445],[32.4631,0.8661],[32.464,0.7428],[32.4898,0.6982],[32.4548,0.6533],[32.4108,0.6542],[32.369,0.6369],[32.3349,0.5853],[32.3304,0.5461],[32.3025,0.5392],[32.2227,0.5741],[32.1837,0.7024]]]}},{"type":"Feature","id":"Nakasongola","properties":{"id":"Nakasongola","iso_code":"UG-109","name":"Nakasongola","name_full":"Nakasongola","name_ja":"ナカソンゴラ県","center_lonlat":[32.4201,1.3496]},"geometry":{"type":"Polygon","coordinates":[[[32.3029,1.6486],[32.3177,1.6238],[32.4537,1.5672],[32.5061,1.5213],[32.5556,1.5205],[32.601,1.4627],[32.688,1.4705],[32.6907,1.3879],[32.7489,1.364],[32.7762,1.3309],[32.7934,1.1827],[32.7803,1.0812],[32.7262,1.0752],[32.6749,1.1446],[32.6399,1.1358],[32.62,1.019],[32.6239,0.968],[32.5597,0.9763],[32.4687,1.0168],[32.406,1.0904],[32.3964,1.1524],[32.3478,1.2002],[32.2474,1.2466],[32.0816,1.413],[31.9595,1.4759],[31.9948,1.5284],[32.0405,1.551],[32.1042,1.6478],[32.1776,1.6775],[32.3029,1.6486]]]}},{"type":"Feature","id":"Namayingo","properties":{"id":"Namayingo","iso_code":"UG-230","name":"Namayingo","name_full":"Namayingo","name_ja":"ナマインゴ県","center_lonlat":[33.7834,-0.3232]},"geometry":{"type":"Polygon","coordinates":[[[33.6318,-1.0026],[33.6318,-0.1035],[33.7376,-0.068],[33.7407,-0.0407],[33.6936,-0.0014],[33.6543,0.0731],[33.6606,0.2475],[33.6902,0.2797],[33.6847,0.3217],[33.7642,0.3714],[33.829,0.3832],[33.8388,0.4264],[33.8925,0.4739],[33.9179,0.4039],[33.877,0.3442],[33.8815,0.3142],[33.9603,0.1987],[33.8936,0.1098],[33.8905,0.0901],[33.9525,-0.1157],[33.9535,-0.1544],[33.8948,-0.6627],[33.9042,-1.0026],[33.6318,-1.0026]]]}},{"type":"Feature","id":"Namutumba","properties":{"id":"Namutumba","iso_code":"UG-222","name":"Namutumba","name_full":"Namutumba","name_ja":"ナムトゥンバ県","center_lonlat":[33.6691,0.865]},"geometry":{"type":"Polygon","coordinates":[[[33.6305,0.7329],[33.6227,0.7726],[33.5554,0.7972],[33.5421,0.8152],[33.5318,0.8809],[33.5762,0.9936],[33.6329,1.0876],[33.6956,1.0371],[33.6954,0.9888],[33.7429,0.9361],[33.7665,0.9122],[33.7766,0.8083],[33.7986,0.7425],[33.8225,0.7238],[33.8374,0.6896],[33.7751,0.6788],[33.7442,0.7226],[33.7255,0.6981],[33.6305,0.7329]]]}},{"type":"Feature","id":"Napak","properties":{"id":"Napak","iso_code":"UG-328","name":"Napak","name_full":"Napak","name_ja":"ナパック県","center_lonlat":[34.2746,2.4165]},"geometry":{"type":"Polygon","coordinates":[[[34.2517,2.8328],[34.4385,2.7753],[34.5632,2.6649],[34.6448,2.6409],[34.6448,2.5786],[34.7024,2.5594],[34.7408,2.521],[34.7546,2.4841],[34.6352,2.4778],[34.6304,2.1226],[34.6016,2.0794],[34.4481,2.0698],[34.3569,2.0122],[34.3473,1.9786],[34.2118,1.9546],[34.2029,2.1114],[33.9057,2.3043],[33.7237,2.4129],[33.6731,2.362],[33.6378,2.3604],[33.6568,2.4064],[33.6512,2.4564],[33.7112,2.467],[33.7717,2.5011],[33.9014,2.4929],[34.0061,2.5024],[34.02,2.5105],[34.0175,2.5225],[33.9506,2.6169],[33.9633,2.7225],[34.0113,2.7561],[34.1444,2.7518],[34.2261,2.7245],[34.2517,2.8328]]]}},{"type":"Feature","id":"Nebbi","properties":{"id":"Nebbi","iso_code":"UG-310","name":"Nebbi","name_full":"Nebbi","name_ja":"ネビ県","center_lonlat":[31.2646,2.46]},"geometry":{"type":"Polygon","coordinates":[[[30.968,2.4054],[30.9764,2.426],[31.0185,2.4318],[31.0243,2.4681],[31.0548,2.487],[31.0693,2.5247],[31.0483,2.5889],[31.1149,2.6002],[31.1548,2.6229],[31.252,2.6356],[31.2984,2.678],[31.302,2.7136],[31.3296,2.7538],[31.3928,2.7855],[31.4372,2.7525],[31.4493,2.6939],[31.4196,2.662],[31.4235,2.6173],[31.4778,2.5192],[31.4953,2.5043],[31.5247,2.5092],[31.5275,2.4897],[31.48,2.4451],[31.4669,2.3555],[31.3764,2.3023],[31.3396,2.2628],[31.332,2.236],[31.3457,2.1796],[31.2801,2.1514],[31.2675,2.1733],[31.1901,2.2215],[31.1776,2.3029],[31.1126,2.2821],[31.0552,2.2902],[31.0355,2.3069],[31.0413,2.3312],[30.968,2.4054]]]}},{"type":"Feature","id":"Ngora","properties":{"id":"Ngora","iso_code":"UG-231","name":"Ngora","name_full":"Ngora","name_ja":"ンゴラ県","center_lonlat":[33.75,1.4834]},"geometry":{"type":"Polygon","coordinates":[[[33.8106,1.6683],[33.8566,1.6641],[33.8958,1.6385],[33.8604,1.6252],[33.8401,1.5905],[33.843,1.4313],[33.8054,1.4168],[33.7822,1.3879],[33.7892,1.3136],[33.7592,1.3081],[33.7305,1.3405],[33.5593,1.3301],[33.5894,1.3768],[33.6669,1.4131],[33.7154,1.5917],[33.7338,1.6459],[33.7548,1.662],[33.7859,1.6564],[33.8106,1.6683]]]}},{"type":"Feature","id":"Ntoroko","properties":{"id":"Ntoroko","iso_code":"UG-423","name":"Ntoroko","name_full":"Ntoroko","name_ja":"ントロコ県","center_lonlat":[30.3718,1.0295]},"geometry":{"type":"Polygon","coordinates":[[[30.5537,1.3356],[30.5481,1.0742],[30.5272,0.9859],[30.4714,0.9444],[30.3576,0.8188],[30.3105,0.8581],[30.2869,0.7835],[30.1704,0.7147],[30.2024,0.7701],[30.2094,0.8182],[30.252,0.853],[30.2062,0.895],[30.1835,0.9546],[30.221,1.0171],[30.2153,1.0771],[30.2362,1.1295],[30.2693,1.1673],[30.2957,1.1726],[30.3238,1.1558],[30.3649,1.202],[30.4456,1.2128],[30.5537,1.3356]]]}},{"type":"Feature","id":"Ntungamo","properties":{"id":"Ntungamo","iso_code":"UG-411","name":"Ntungamo","name_full":"Ntungamo","name_ja":"ントゥンガモ県","center_lonlat":[30.2687,-0.945]},"geometry":{"type":"Polygon","coordinates":[[[30.4608,-1.0634],[30.3375,-1.0662],[30.3174,-1.137],[30.2909,-1.1526],[30.2344,-1.1608],[30.2096,-1.1849],[30.1774,-1.1935],[30.1793,-1.1643],[30.0887,-1.1402],[30.0684,-1.0867],[30.0487,-1.0665],[30.0442,-1.025],[30.0763,-0.9744],[30.0778,-0.9315],[30.0379,-0.9009],[30.0573,-0.8371],[30.0582,-0.76],[30.1098,-0.7576],[30.1569,-0.7163],[30.1873,-0.7248],[30.2091,-0.7496],[30.2727,-0.7549],[30.2585,-0.7811],[30.2626,-0.8006],[30.2971,-0.8119],[30.3639,-0.8178],[30.4135,-0.7975],[30.4829,-0.829],[30.59,-0.8057],[30.5888,-0.8599],[30.5759,-0.8858],[30.5079,-0.9561],[30.4608,-1.0634]]]}},{"type":"Feature","id":"Nwoya","properties":{"id":"Nwoya","iso_code":"UG-329","name":"Nwoya","name_full":"Nwoya","name_ja":"ナウォヤ県","center_lonlat":[31.8508,2.5132]},"geometry":{"type":"Polygon","coordinates":[[[32.3624,2.4696],[32.242,2.4605],[32.2414,2.3368],[32.2601,2.2568],[32.2141,2.2573],[32.1799,2.2306],[32.1567,2.2315],[32.1234,2.2575],[32.0161,2.2915],[31.9198,2.3597],[31.8789,2.3672],[31.8032,2.3461],[31.7554,2.2983],[31.6424,2.2642],[31.6144,2.2778],[31.5459,2.2778],[31.4486,2.2416],[31.3457,2.1796],[31.332,2.236],[31.3396,2.2628],[31.3764,2.3023],[31.4669,2.3555],[31.48,2.4451],[31.5275,2.4897],[31.5247,2.5092],[31.4953,2.5043],[31.4778,2.5192],[31.4235,2.6173],[31.4674,2.6302],[31.5454,2.7117],[31.5879,2.733],[31.7049,2.733],[31.7191,2.772],[31.7474,2.7968],[31.9849,2.8003],[32.0203,2.7791],[32.1018,2.7755],[32.2011,2.7295],[32.1623,2.6439],[32.1764,2.6135],[32.2044,2.5971],[32.2675,2.5927],[32.2651,2.5603],[32.2854,2.5145],[32.3624,2.4696]]]}},{"type":"Feature","id":"Otuke","properties":{"id":"Otuke","iso_code":"UG-330","name":"Otuke","name_full":"Otuke","name_ja":"オツケ県","center_lonlat":[33.3505,2.482]},"geometry":{"type":"Polygon","coordinates":[[[33.0147,2.5332],[33.0438,2.5686],[33.1287,2.6118],[33.1484,2.6161],[33.1799,2.5964],[33.2772,2.602],[33.3181,2.5886],[33.3536,2.6159],[33.3982,2.6046],[33.4321,2.6293],[33.4771,2.5938],[33.5342,2.5964],[33.6512,2.4564],[33.6568,2.4064],[33.6378,2.3604],[33.6101,2.3321],[33.5461,2.3559],[33.515,2.357],[33.4887,2.3394],[33.3922,2.3394],[33.3279,2.3687],[33.2051,2.3833],[33.17,2.4418],[33.1262,2.4593],[33.0882,2.4593],[33.0648,2.4418],[32.9654,2.4534],[32.9975,2.4739],[33.0147,2.5332]]]}},{"type":"Feature","id":"Oyam","properties":{"id":"Oyam","iso_code":"UG-321","name":"Oyam","name_full":"Oyam","name_ja":"オヤム県","center_lonlat":[32.4871,2.3617]},"geometry":{"type":"Polygon","coordinates":[[[32.8111,2.4749],[32.776,2.4472],[32.6904,2.4634],[32.6213,2.3747],[32.5817,2.3637],[32.603,2.2458],[32.5497,2.1803],[32.4707,2.0506],[32.4227,2.041],[32.3468,2.0727],[32.3205,2.1259],[32.3103,2.1959],[32.2601,2.2568],[32.2414,2.3368],[32.242,2.4605],[32.3624,2.4696],[32.44,2.4784],[32.486,2.608],[32.5721,2.622],[32.6637,2.6038],[32.7753,2.5786],[32.8229,2.516],[32.8111,2.4749]]]}},{"type":"Feature","id":"Pader","properties":{"id":"Pader","iso_code":"UG-312","name":"Pader","name_full":"Pader","name_ja":"パデル県","center_lonlat":[32.8808,2.8873]},"geometry":{"type":"Polygon","coordinates":[[[32.7753,2.5786],[32.6637,2.6038],[32.6652,2.6221],[32.6933,2.6505],[32.6814,2.6898],[32.7324,2.7321],[32.7006,2.7567],[32.6788,2.8047],[32.6388,2.8423],[32.5383,3.0303],[32.474,3.1158],[32.5152,3.1358],[32.6801,3.1367],[32.7356,3.1702],[32.7828,3.1799],[32.8379,3.164],[32.9281,3.1086],[32.9315,3.1796],[32.989,3.1733],[33.0645,3.1325],[33.1554,3.0177],[33.1554,2.9767],[33.1057,2.93],[33.1116,2.8949],[33.2285,2.8832],[33.249,2.8481],[33.2431,2.7809],[33.211,2.7458],[33.0823,2.7399],[33.056,2.7107],[33.1287,2.6118],[33.0438,2.5686],[33.0147,2.5332],[32.9825,2.5242],[32.9482,2.5407],[32.9347,2.5903],[32.8466,2.6226],[32.8352,2.6381],[32.8222,2.6377],[32.8063,2.6019],[32.7753,2.5786]]]}},{"type":"Feature","id":"Pallisa","properties":{"id":"Pallisa","iso_code":"UG-210","name":"Pallisa","name_full":"Pallisa","name_ja":"パリサ県","center_lonlat":[33.7272,1.2209]},"geometry":{"type":"Polygon","coordinates":[[[33.4425,1.2876],[33.4149,1.2992],[33.405,1.3355],[33.4283,1.3389],[33.4545,1.3155],[33.5593,1.3301],[33.7305,1.3405],[33.7592,1.3081],[33.7892,1.3136],[33.8168,1.3109],[33.8536,1.2727],[33.9266,1.2462],[33.9424,1.2263],[34.1165,1.1779],[34.1298,1.1145],[33.9819,1.1708],[33.9038,1.1679],[33.7099,1.0869],[33.6329,1.0876],[33.5751,1.1758],[33.5242,1.2028],[33.4425,1.2876]]]}},{"type":"Feature","id":"Rakai","properties":{"id":"Rakai","iso_code":"UG-110","name":"Rakai","name_full":"Rakai","name_ja":"ラカイ県","center_lonlat":[31.5242,-0.7804]},"geometry":{"type":"Polygon","coordinates":[[[31.9862,-1.0026],[31.2805,-1.0026],[31.251,-0.9712],[31.2398,-0.9206],[31.1828,-0.8635],[31.2005,-0.8408],[31.1811,-0.7424],[31.1223,-0.6811],[31.0749,-0.6527],[31.1348,-0.5284],[31.2287,-0.524],[31.237,-0.4641],[31.2799,-0.5155],[31.3454,-0.561],[31.4592,-0.6037],[31.4962,-0.5867],[31.5048,-0.5354],[31.5266,-0.5146],[31.5645,-0.5127],[31.6215,-0.47],[31.6602,-0.477],[31.6897,-0.5203],[31.6764,-0.6121],[31.7519,-0.7319],[31.8599,-0.7713],[31.9862,-0.7739],[31.9862,-1.0026]]]}},{"type":"Feature","id":"Rubirizi","properties":{"id":"Rubirizi","iso_code":"UG-424","name":"Rubirizi","name_full":"Rubirizi","name_ja":"ルビリジ県","center_lonlat":[29.9649,-0.2481]},"geometry":{"type":"Polygon","coordinates":[[[29.6439,-0.358],[29.6813,-0.1379],[30.0044,-0.1741],[30.1328,-0.0755],[30.2066,-0.0793],[30.198,-0.0977],[30.2497,-0.1199],[30.2821,-0.1924],[30.3234,-0.2116],[30.283,-0.2448],[30.2163,-0.2605],[30.1457,-0.3075],[30.1378,-0.4174],[30.0907,-0.4017],[30.0554,-0.3586],[30.024,-0.3507],[29.9141,-0.4017],[29.846,-0.3702],[29.6439,-0.358]]]}},{"type":"Feature","id":"Rukungiri","properties":{"id":"Rukungiri","iso_code":"UG-412","name":"Rukungiri","name_full":"Rukungiri","name_ja":"ルクンギリ県","center_lonlat":[29.884,-0.6995]},"geometry":{"type":"Polygon","coordinates":[[[29.6294,-0.4424],[29.6439,-0.358],[29.846,-0.3702],[29.9141,-0.4017],[29.943,-0.4431],[29.9426,-0.505],[29.926,-0.5708],[29.8974,-0.5841],[29.9133,-0.6216],[29.9515,-0.6407],[29.9988,-0.7168],[30.0582,-0.76],[30.0573,-0.8371],[30.0379,-0.9009],[30.0778,-0.9315],[30.0763,-0.9744],[30.0442,-1.025],[30.0487,-1.0665],[30.0684,-1.0867],[29.9001,-1.0441],[29.8303,-0.924],[29.8465,-0.8848],[29.8234,-0.8405],[29.8395,-0.7589],[29.782,-0.6703],[29.7758,-0.6137],[29.7272,-0.6097],[29.7088,-0.5829],[29.7101,-0.4323],[29.6294,-0.4424]]]}},{"type":"Feature","id":"Sembabule","properties":{"id":"Sembabule","iso_code":"UG-111","name":"Sembabule","name_full":"Sembabule","name_ja":"センバブレ県","center_lonlat":[31.3382,-0.027]},"geometry":{"type":"Polygon","coordinates":[[[31.0007,0.2023],[31.0088,0.2067],[31.0813,0.2117],[31.1195,0.2311],[31.1574,0.2277],[31.2178,0.1703],[31.2592,0.1691],[31.2894,0.1986],[31.3348,0.2006],[31.3799,0.1972],[31.4191,0.1512],[31.5918,0.0494],[31.5504,0.0183],[31.6072,-0.2622],[31.6044,-0.2963],[31.4605,-0.3149],[31.334,-0.2935],[31.2782,-0.2609],[31.311,-0.1576],[31.309,-0.1004],[31.2877,-0.076],[31.2595,-0.0579],[31.2466,-0.0925],[31.1937,-0.0671],[31.1905,-0.0496],[31.1367,-0.0319],[31.1133,-0.0274],[31.0776,-0.0444],[31.0158,-0.0309],[31.0436,0.0206],[31.0428,0.0849],[31.0387,0.1247],[31.0007,0.2023]]]}},{"type":"Feature","id":"Serere","properties":{"id":"Serere","iso_code":"UG-232","name":"Serere","name_full":"Serere","name_ja":"セレレ県","center_lonlat":[33.4277,1.499]},"geometry":{"type":"Polygon","coordinates":[[[33.405,1.3355],[33.3783,1.3706],[33.2878,1.3554],[33.208,1.3689],[33.2147,1.572],[33.2464,1.6158],[33.2548,1.6992],[33.3133,1.6992],[33.3542,1.7168],[33.3688,1.6934],[33.4361,1.6758],[33.4653,1.6144],[33.5091,1.5852],[33.5793,1.5677],[33.7154,1.5917],[33.6669,1.4131],[33.5894,1.3768],[33.5593,1.3301],[33.4545,1.3155],[33.4283,1.3389],[33.405,1.3355]]]}},{"type":"Feature","id":"Sheema","properties":{"id":"Sheema","iso_code":"UG-425","name":"Sheema","name_full":"Sheema","name_ja":"シェエマ県","center_lonlat":[30.3352,-0.6059]},"geometry":{"type":"Polygon","coordinates":[[[30.47,-0.446],[30.4689,-0.4874],[30.4252,-0.6303],[30.3384,-0.7142],[30.2727,-0.7549],[30.2091,-0.7496],[30.1873,-0.7248],[30.1967,-0.6882],[30.1653,-0.6333],[30.3144,-0.6176],[30.3262,-0.492],[30.338,-0.4567],[30.47,-0.446]]]}},{"type":"Feature","id":"Sironko","properties":{"id":"Sironko","iso_code":"UG-215","name":"Sironko","name_full":"Sironko","name_ja":"シロンコ県","center_lonlat":[34.337,1.1584]},"geometry":{"type":"Polygon","coordinates":[[[34.3571,1.0864],[34.2918,1.107],[34.2629,1.1043],[34.2324,1.1186],[34.2054,1.1584],[34.1569,1.1632],[34.1918,1.193],[34.2142,1.2416],[34.3784,1.2084],[34.4045,1.1824],[34.5242,1.1623],[34.5075,1.1025],[34.3887,1.1055],[34.3571,1.0864]]]}},{"type":"Feature","id":"Soroti","properties":{"id":"Soroti","iso_code":"UG-211","name":"Soroti","name_full":"Soroti","name_ja":"ソロティ県","center_lonlat":[33.5839,1.7619]},"geometry":{"type":"Polygon","coordinates":[[[33.3542,1.7168],[33.4379,1.7739],[33.4389,1.8123],[33.4566,1.8444],[33.4438,1.8874],[33.4684,2.0038],[33.4923,2.0214],[33.5309,2.0129],[33.5746,1.9497],[33.6492,1.9181],[33.6597,1.8837],[33.7527,1.8072],[33.7816,1.774],[33.79,1.7317],[33.809,1.7083],[33.8106,1.6683],[33.7859,1.6564],[33.7548,1.662],[33.7338,1.6459],[33.7154,1.5917],[33.5793,1.5677],[33.5091,1.5852],[33.4653,1.6144],[33.4361,1.6758],[33.3688,1.6934],[33.3542,1.7168]]]}},{"type":"Feature","id":"Tororo","properties":{"id":"Tororo","iso_code":"UG-212","name":"Tororo","name_full":"Tororo","name_ja":"トロロ県","center_lonlat":[34.0648,0.719]},"geometry":{"type":"Polygon","coordinates":[[[34.2963,0.7467],[34.2762,0.6808],[34.2521,0.655],[34.1496,0.6036],[34.1316,0.5694],[34.0297,0.5769],[33.9954,0.5614],[33.9571,0.5642],[33.8955,0.6087],[33.8651,0.6846],[33.9467,0.8483],[33.979,0.8702],[34.0161,0.8726],[34.085,0.9023],[34.1337,0.8768],[34.1637,0.8281],[34.2296,0.7754],[34.2963,0.7467]]]}},{"type":"Feature","id":"Wakiso","properties":{"id":"Wakiso","iso_code":"UG-113","name":"Wakiso","name_full":"Wakiso","name_ja":"ワキソ県","center_lonlat":[32.4443,0.1841]},"geometry":{"type":"Polygon","coordinates":[[[32.2631,0.4346],[32.2192,0.5035],[32.2227,0.5741],[32.3025,0.5392],[32.3304,0.5461],[32.3604,0.5633],[32.5416,0.5431],[32.5799,0.5714],[32.6702,0.5565],[32.6595,0.5037],[32.6186,0.4955],[32.5971,0.4665],[32.5491,0.4834],[32.5358,0.4426],[32.5595,0.4178],[32.5651,0.3888],[32.5235,0.3033],[32.5473,0.2737],[32.6642,0.2876],[32.6315,0.2154],[32.6217,0.0024],[32.4931,-0.1631],[32.2482,-0.1584],[32.2486,-0.0588],[32.2242,-0.018],[32.2269,0.0496],[32.2682,0.0795],[32.2783,0.1073],[32.3373,0.141],[32.3582,0.1836],[32.4099,0.2268],[32.4396,0.36],[32.369,0.4346],[32.2631,0.4346]]]}},{"type":"Feature","id":"Yumbe","properties":{"id":"Yumbe","iso_code":"UG-313","name":"Yumbe","name_full":"Yumbe","name_ja":"ユンベ県","center_lonlat":[31.2874,3.5101]},"geometry":{"type":"Polygon","coordinates":[[[31.6139,3.697],[31.5868,3.6322],[31.4637,3.458],[31.4607,3.2193],[31.5245,3.1447],[31.5124,3.1186],[31.4242,3.1307],[31.3985,3.2193],[31.3478,3.23],[31.317,3.2698],[31.2662,3.2843],[31.2055,3.3349],[31.151,3.3481],[31.1031,3.2979],[31.0748,3.2922],[31.0537,3.313],[31.0371,3.5328],[31.0687,3.7317],[31.1415,3.7851],[31.2148,3.7924],[31.295,3.7742],[31.5054,3.6599],[31.5237,3.6561],[31.5648,3.6898],[31.6139,3.697]]]}},{"type":"Feature","id":"Zombo","properties":{"id":"Zombo","iso_code":"UG-331","name":"Zombo","name_full":"Zombo","name_ja":"ゾンボ県","center_lonlat":[30.8865,2.541]},"geometry":{"type":"Polygon","coordinates":[[[30.7708,2.6758],[30.966,2.7373],[30.9889,2.6603],[30.9888,2.6148],[31.0483,2.5889],[31.0693,2.5247],[31.0548,2.487],[31.0243,2.4681],[31.0185,2.4318],[30.9764,2.426],[30.968,2.4054],[30.9309,2.4056],[30.9006,2.346],[30.8718,2.3321],[30.8198,2.376],[30.8049,2.4344],[30.7106,2.4451],[30.7077,2.4623],[30.737,2.5195],[30.7353,2.5931],[30.7708,2.6758]]]}}]}
