{"type":"FeatureCollection","features":[{"type":"Feature","id":"Cherkasy","properties":{"id":"Cherkasy","iso_code":"UA-71","name":"Cherkasy","name_full":"Cherkasy","name_ja":"チェルカースィ州","center_lonlat":[31.365,49.2603]},"geometry":{"type":"Polygon","coordinates":[[[32.0695,50.2387],[32.0946,50.2369],[32.1407,50.1823],[32.2094,50.15],[32.2697,50.1568],[32.2717,50.1314],[32.2306,50.1186],[32.2551,50.0628],[32.3294,50.0518],[32.3812,49.987],[32.4157,49.9675],[32.4071,49.8934],[32.3687,49.8875],[32.3727,49.8636],[32.431,49.8052],[32.4689,49.8066],[32.5035,49.78],[32.5297,49.7833],[32.5625,49.7666],[32.5715,49.7059],[32.693,49.6716],[32.7108,49.62],[32.7521,49.5938],[32.7544,49.5472],[32.7154,49.5252],[32.6759,49.4771],[32.7476,49.4061],[32.7893,49.3339],[32.7887,49.2618],[32.7526,49.1813],[32.7895,49.1468],[32.8004,49.076],[32.8247,49.0304],[32.8554,49.0184],[32.7824,48.9637],[32.6894,48.9874],[32.6343,48.946],[32.5678,48.9579],[32.5471,48.9296],[32.5198,48.9291],[32.5035,48.9731],[32.4545,49.0216],[32.4529,49.0561],[32.4084,49.0412],[32.3691,49.0458],[32.3319,49.0898],[32.2888,49.07],[32.2846,49.048],[32.2344,49.0478],[32.1887,48.9968],[32.1426,48.9756],[32.133,48.9611],[32.1458,48.944],[32.1292,48.9125],[32.0262,48.928],[31.9392,48.8962],[31.8867,48.8598],[31.8684,48.8656],[31.8416,48.9099],[31.7323,48.9426],[31.6836,48.943],[31.6511,48.9174],[31.5441,48.9242],[31.5295,48.904],[31.5273,48.8352],[31.4812,48.8035],[31.4623,48.7611],[31.3329,48.7238],[31.2936,48.7471],[31.2237,48.7539],[31.0674,48.7274],[30.9381,48.7562],[30.8201,48.7498],[30.7023,48.7652],[30.6068,48.7145],[30.5994,48.66],[30.5409,48.6193],[30.5761,48.6043],[30.5676,48.5619],[30.4844,48.5535],[30.4565,48.5708],[30.4147,48.5719],[30.3961,48.5606],[30.3849,48.5305],[30.2473,48.4776],[30.1848,48.4925],[30.1208,48.4564],[30.0761,48.4551],[30.0369,48.4738],[29.9579,48.4593],[29.9588,48.4736],[30.0217,48.5336],[29.9636,48.6099],[29.9582,48.6553],[29.8591,48.6983],[29.8575,48.7177],[29.884,48.7433],[29.8463,48.7648],[29.7725,48.7693],[29.7453,48.8485],[29.7036,48.8675],[29.7003,48.8804],[29.7224,48.897],[29.7161,48.9144],[29.6359,48.947],[29.6727,48.9835],[29.6708,49.0014],[29.5948,49.027],[29.6095,49.0621],[29.6707,49.0852],[29.6749,49.1146],[29.7072,49.1317],[29.7011,49.1615],[29.7106,49.1828],[29.6747,49.2025],[29.6972,49.2273],[29.7453,49.2134],[29.7295,49.1952],[29.7615,49.1746],[29.8623,49.1738],[29.9201,49.2462],[30.0069,49.2646],[30.0386,49.2851],[30.1115,49.275],[30.1044,49.3013],[30.1519,49.3295],[30.1829,49.3215],[30.1692,49.2841],[30.3495,49.2581],[30.3632,49.2366],[30.382,49.233],[30.4199,49.336],[30.4377,49.3485],[30.463,49.3474],[30.4982,49.3239],[30.5502,49.3407],[30.5927,49.3299],[30.6194,49.3585],[30.6846,49.3538],[30.7254,49.3208],[30.8682,49.3606],[30.908,49.3461],[30.9504,49.4143],[31.0773,49.4907],[31.1099,49.5327],[31.1559,49.5564],[31.1568,49.5852],[31.1298,49.5958],[31.1282,49.6144],[31.1746,49.6717],[31.1698,49.6955],[31.1969,49.7534],[31.1821,49.7738],[31.1989,49.8043],[31.1786,49.8183],[31.212,49.854],[31.336,49.8967],[31.4302,49.9061],[31.4471,49.9007],[31.4969,49.84],[31.5194,49.8665],[31.5709,49.8627],[31.5966,49.8976],[31.6131,49.8581],[31.7166,49.8485],[31.8068,49.9602],[31.81,50.0056],[31.872,50.0235],[31.8535,50.1],[31.9,50.1254],[31.9143,50.1473],[31.9544,50.1475],[31.9875,50.1693],[31.9953,50.1865],[31.9739,50.2201],[31.9994,50.2465],[32.0695,50.2387]]]}},{"type":"Feature","id":"Chernihiv","properties":{"id":"Chernihiv","iso_code":"UA-74","name":"Chernihiv","name_full":"Chernihiv","name_ja":"チェルニーヒウ州","center_lonlat":[31.9955,51.3492]},"geometry":{"type":"Polygon","coordinates":[[[33.4006,52.3443],[33.3594,52.2483],[33.3178,52.2098],[33.3259,52.1529],[33.3787,52.14],[33.444,52.089],[33.4847,52.0849],[33.4831,52.0666],[33.4436,52.0454],[33.3793,52.0569],[33.3729,52.0098],[33.3528,51.9882],[33.3746,51.969],[33.3663,51.9467],[33.2722,51.9288],[33.2251,51.9057],[33.1607,51.9042],[33.1677,51.8846],[33.1425,51.8806],[33.1215,51.8508],[33.0889,51.8357],[33.062,51.7929],[33.0916,51.7336],[33.1532,51.6931],[33.1349,51.6578],[33.1565,51.6389],[33.1623,51.5945],[33.1819,51.5767],[33.1535,51.5651],[33.1526,51.5463],[33.1869,51.5159],[33.166,51.4986],[33.1227,51.5103],[33.1309,51.4798],[33.1082,51.4558],[33.1309,51.4215],[33.1152,51.3745],[33.0611,51.3678],[33.021,51.3968],[33.0016,51.3812],[33.0227,51.3442],[33.0552,51.336],[33.0494,51.3073],[33.0732,51.2884],[33.0702,51.2489],[33.0333,51.2335],[33.0235,51.1951],[32.9633,51.1783],[32.9704,51.1398],[32.9395,51.0973],[33.0625,51.0763],[33.044,51.0492],[33.0839,51.0324],[33.1419,51.0256],[33.1733,51.0601],[33.2069,51.0484],[33.1555,50.9974],[33.185,50.9675],[33.1839,50.9176],[33.1475,50.8812],[33.1225,50.8135],[33.1251,50.7769],[33.167,50.743],[33.1306,50.7101],[33.1241,50.6756],[33.1029,50.664],[33.1047,50.6252],[33.0615,50.5384],[33.0092,50.48],[32.9059,50.4295],[32.8784,50.3974],[32.7273,50.3579],[32.5263,50.3657],[32.5004,50.3717],[32.477,50.4064],[32.407,50.3921],[32.3759,50.4089],[32.2883,50.3892],[32.2236,50.3432],[32.1392,50.3501],[32.0728,50.378],[32.0667,50.3835],[32.0895,50.4058],[32.0201,50.4198],[32.0076,50.4511],[31.9736,50.4753],[31.9949,50.5014],[32.0308,50.5044],[32.0284,50.5451],[31.962,50.5501],[31.8563,50.6214],[31.7967,50.6142],[31.7834,50.5764],[31.7484,50.5532],[31.6865,50.5528],[31.6135,50.5176],[31.5613,50.5091],[31.4966,50.5179],[31.4629,50.5002],[31.3282,50.5084],[31.2752,50.5208],[31.2584,50.5577],[31.2196,50.5615],[31.1799,50.5877],[31.1856,50.6061],[31.2185,50.6229],[31.213,50.6588],[31.1607,50.6993],[31.1585,50.7155],[31.1132,50.7237],[31.1136,50.7454],[31.0894,50.7673],[30.9309,50.7465],[30.8717,50.7553],[30.8363,50.737],[30.794,50.7596],[30.7409,50.7574],[30.7802,50.8436],[30.6551,50.892],[30.6639,50.9575],[30.6491,50.9856],[30.5558,51.0172],[30.5136,51.0132],[30.5112,51.108],[30.5314,51.1803],[30.5148,51.2203],[30.5538,51.2291],[30.5547,51.2425],[30.5799,51.3037],[30.6383,51.3359],[30.6324,51.3641],[30.6456,51.3675],[30.6182,51.4187],[30.5879,51.4274],[30.586,51.4518],[30.6182,51.4671],[30.5889,51.4818],[30.5854,51.5094],[30.5629,51.5218],[30.584,51.5423],[30.5226,51.5627],[30.5431,51.5826],[30.5151,51.6037],[30.5566,51.6236],[30.5499,51.6372],[30.5703,51.6515],[30.5703,51.6999],[30.625,51.7061],[30.6462,51.7545],[30.6182,51.7613],[30.6706,51.7905],[30.662,51.8194],[30.7345,51.8737],[30.7417,51.8979],[30.7882,51.9006],[30.8106,51.9184],[30.8031,51.9391],[30.858,51.9576],[30.8969,51.9983],[30.9412,51.9938],[30.9501,52.0068],[30.9405,52.0201],[30.9113,52.0226],[30.9247,52.0423],[30.9188,52.0592],[30.9344,52.0697],[31.1348,52.0767],[31.229,52.0382],[31.2524,52.0445],[31.3044,52.0975],[31.3831,52.1175],[31.4749,52.1178],[31.6499,52.0968],[31.8587,52.0999],[31.8821,52.0864],[31.892,52.0362],[31.9104,52.0291],[31.9806,52.0476],[32.0956,52.0407],[32.2777,52.1027],[32.3067,52.1412],[32.3282,52.2192],[32.367,52.2472],[32.3395,52.2872],[32.3536,52.3216],[32.3943,52.3268],[32.4806,52.3071],[32.5284,52.3162],[32.7254,52.2521],[32.8442,52.2623],[32.909,52.2411],[33.0301,52.3036],[33.0796,52.3056],[33.1829,52.3673],[33.359,52.3576],[33.4006,52.3443]]]}},{"type":"Feature","id":"Chernivtsi","properties":{"id":"Chernivtsi","iso_code":"UA-77","name":"Chernivtsi","name_full":"Chernivtsi","name_ja":"チェルニウツィー州","center_lonlat":[25.9833,48.269]},"geometry":{"type":"Polygon","coordinates":[[[24.9289,47.7139],[24.9325,47.754],[24.9848,47.8404],[24.9672,47.9067],[24.9348,47.9474],[24.9282,47.997],[24.9892,48.1002],[25.1404,48.1817],[25.1325,48.2072],[25.1409,48.2319],[25.1961,48.2568],[25.2926,48.3402],[25.3696,48.3802],[25.4928,48.4037],[25.5851,48.3929],[25.6004,48.4326],[25.6058,48.5216],[25.5654,48.6253],[25.6362,48.6781],[25.7151,48.6645],[25.7423,48.6297],[25.7935,48.6701],[25.8596,48.6187],[25.863,48.6008],[25.9116,48.5881],[25.9602,48.5964],[25.9856,48.6235],[26.0198,48.6161],[26.0334,48.6434],[26.0491,48.6477],[26.0623,48.6283],[26.0526,48.5717],[26.0798,48.5473],[26.1172,48.5419],[26.1297,48.5546],[26.1058,48.5809],[26.1023,48.6066],[26.1331,48.6092],[26.1458,48.5964],[26.1495,48.5396],[26.1809,48.5267],[26.2567,48.5334],[26.3266,48.5116],[26.3805,48.5171],[26.404,48.5341],[26.4706,48.5381],[26.5153,48.5149],[26.5528,48.4658],[26.6057,48.4516],[26.6219,48.4583],[26.607,48.4923],[26.6157,48.5068],[26.6541,48.4913],[26.709,48.4969],[26.6884,48.5184],[26.6144,48.5402],[26.6126,48.5509],[26.6328,48.5624],[26.7218,48.5352],[26.7392,48.5577],[26.7161,48.5778],[26.7172,48.5948],[26.7406,48.5889],[26.7497,48.5616],[26.7728,48.551],[26.7876,48.5683],[26.7876,48.6018],[26.8188,48.6066],[26.8292,48.6018],[26.828,48.5613],[26.8593,48.5403],[26.885,48.5435],[26.9453,48.5814],[27.0036,48.5751],[27.0234,48.5609],[27.1228,48.5608],[27.147,48.5819],[27.2476,48.5704],[27.2618,48.5957],[27.236,48.6055],[27.2344,48.6185],[27.335,48.6018],[27.3704,48.6297],[27.4382,48.6025],[27.5038,48.4724],[27.4035,48.4115],[27.3422,48.4361],[27.306,48.4237],[27.2465,48.3737],[27.2086,48.3606],[27.0374,48.3997],[27.0254,48.3899],[27.0331,48.3602],[26.9432,48.3513],[26.8319,48.3914],[26.8169,48.3717],[26.7881,48.376],[26.7775,48.3662],[26.7901,48.3071],[26.7744,48.2872],[26.7359,48.2918],[26.6798,48.3302],[26.6691,48.3088],[26.6251,48.2829],[26.6179,48.259],[26.5874,48.2494],[26.3035,48.212],[26.2975,48.1563],[26.2707,48.0936],[26.2048,48.0374],[26.1731,47.9931],[26.1257,47.9784],[25.9012,47.966],[25.7525,47.9346],[25.2617,47.8986],[25.219,47.8785],[25.1219,47.7703],[25.0803,47.7431],[24.9289,47.7139]]]}},{"type":"Feature","id":"Dnipropetrovsk","properties":{"id":"Dnipropetrovsk","iso_code":"UA-12","name":"Dnipropetrovsk","name_full":"Dnipropetrovsk","name_ja":"ドニプロペトロウシク州","center_lonlat":[34.8401,48.299]},"geometry":{"type":"Polygon","coordinates":[[[34.9839,49.1637],[35.1698,49.1472],[35.3613,49.022],[35.4625,48.9749],[35.5792,48.9758],[35.6192,48.9587],[35.7944,48.9342],[35.9307,48.9764],[35.9525,48.9687],[36.022,48.9001],[35.962,48.8549],[36.0053,48.8534],[36.0721,48.8291],[36.0793,48.8145],[36.1637,48.7673],[36.1707,48.7577],[36.1328,48.7237],[36.2857,48.6341],[36.2675,48.5978],[36.3076,48.5699],[36.274,48.541],[36.2843,48.5283],[36.3748,48.5416],[36.3645,48.5585],[36.3824,48.5805],[36.471,48.6459],[36.595,48.6016],[36.7254,48.6259],[36.7383,48.6016],[36.79,48.6012],[36.7493,48.564],[36.7512,48.5292],[36.7951,48.5348],[36.8192,48.5782],[36.8874,48.5736],[36.891,48.534],[36.8542,48.5165],[36.8586,48.4927],[36.8355,48.4763],[36.835,48.4455],[36.8472,48.434],[36.8089,48.4131],[36.819,48.3574],[36.8118,48.3257],[36.82,48.3144],[36.8586,48.3183],[36.904,48.2977],[36.9272,48.2015],[36.8719,48.1674],[36.8926,48.0676],[36.839,48.0345],[36.7506,48.0526],[36.7237,48.0756],[36.6651,48.0881],[36.5806,48.0732],[36.5766,47.9707],[36.6134,47.957],[36.634,47.9243],[36.5344,47.905],[36.533,47.8836],[36.5695,47.8674],[36.5761,47.8442],[36.392,47.8257],[36.3612,47.8399],[36.3184,47.8152],[36.286,47.8133],[36.2149,47.8303],[36.2067,47.8606],[36.1935,47.8635],[36.16,47.8397],[36.0982,47.8355],[36.0596,47.8706],[36.0984,47.8734],[36.1178,47.9094],[36.1176,47.9387],[36.0591,47.9511],[36.0531,47.993],[36.0213,48.0042],[36.0447,48.0433],[35.9746,48.0286],[35.9709,48.0805],[35.9592,48.0907],[35.8089,48.0668],[35.7862,48.0878],[35.7323,48.0959],[35.6741,48.127],[35.6043,48.1163],[35.5148,48.0794],[35.34,48.104],[35.2546,48.1297],[35.1646,48.1191],[35.1181,48.1291],[35.0174,48.1166],[34.9431,48.081],[34.886,48.0809],[34.8731,48.0903],[34.8699,48.1193],[34.8514,48.1227],[34.8359,48.1086],[34.8465,48.0773],[34.8402,48.0413],[34.8134,48.0155],[34.8422,48.0066],[34.857,47.9784],[34.9084,47.9667],[34.9163,47.9472],[34.9073,47.9344],[34.8198,47.9067],[34.8081,47.8775],[34.9019,47.8308],[34.8863,47.7601],[34.9444,47.7462],[34.8953,47.5973],[34.9298,47.5708],[34.9161,47.5309],[34.8326,47.5259],[34.5946,47.5686],[34.4459,47.5229],[34.2037,47.4784],[34.0582,47.4807],[33.9018,47.5145],[33.7525,47.491],[33.6428,47.4885],[33.6243,47.5116],[33.5844,47.5147],[33.5753,47.5376],[33.5888,47.56],[33.5629,47.5754],[33.4943,47.5642],[33.4853,47.5327],[33.366,47.5144],[33.3394,47.4951],[33.2834,47.5393],[33.0893,47.5829],[32.9921,47.5987],[33.0207,47.6426],[32.9838,47.71],[33.0877,47.7372],[33.0603,47.7756],[33.0608,47.8309],[33.0828,47.8959],[33.0317,47.9197],[33.0461,47.9602],[33.0353,47.9665],[33.0575,48.0258],[33.1113,48.0642],[33.1427,48.0801],[33.2223,48.0904],[33.242,48.1739],[33.2541,48.1695],[33.2545,48.1208],[33.2688,48.1027],[33.3481,48.1859],[33.3964,48.1732],[33.4705,48.228],[33.5134,48.2385],[33.5259,48.2974],[33.5,48.3112],[33.4885,48.4039],[33.4715,48.423],[33.4845,48.4439],[33.4616,48.4978],[33.4433,48.5043],[33.4454,48.5253],[33.5638,48.5637],[33.5804,48.5594],[33.8211,48.6684],[33.7697,48.6805],[33.7565,48.6977],[33.5985,48.7218],[33.5578,48.7623],[33.5722,48.7871],[33.5896,48.7949],[33.6194,48.7842],[33.6708,48.8074],[33.7089,48.7825],[33.7604,48.8071],[33.7737,48.8014],[33.7748,48.779],[33.8018,48.7961],[33.811,48.762],[33.8257,48.7595],[33.9195,48.8658],[34.0402,48.8078],[34.162,48.7844],[34.2375,48.7463],[34.2938,48.7783],[34.2759,48.81],[34.3159,48.8396],[34.3088,48.8674],[34.2743,48.8912],[34.2777,48.9223],[34.3082,48.971],[34.3679,48.9911],[34.3445,49.0085],[34.4028,49.0501],[34.4083,49.0765],[34.7265,49.146],[34.7841,49.1746],[34.8648,49.1734],[34.8708,49.1657],[34.8573,49.1496],[34.8674,49.1449],[34.8911,49.1483],[34.9262,49.183],[34.9839,49.1637]]]}},{"type":"Feature","id":"Donetsk","properties":{"id":"Donetsk","iso_code":"UA-14","name":"Donetsk","name_full":"Donetsk","name_ja":"ドネツィク州","center_lonlat":[37.6663,48.045]},"geometry":{"type":"Polygon","coordinates":[[[39.0362,47.857],[38.8772,47.8612],[38.8309,47.8482],[38.771,47.7808],[38.7345,47.6771],[38.6622,47.6833],[38.5622,47.6266],[38.3529,47.6071],[38.319,47.5913],[38.2603,47.4929],[38.258,47.3932],[38.2034,47.3346],[38.1887,47.301],[38.201,47.2906],[38.2919,47.287],[38.2982,47.256],[38.2225,47.2152],[38.2035,47.1923],[38.2014,47.1307],[38.2166,47.1033],[38.1423,47.0377],[38.1081,47.0264],[38.1301,47.0747],[38.0715,47.0998],[38.0262,47.0816],[37.8611,47.1015],[37.7103,47.0742],[37.5807,47.0904],[37.5464,47.0816],[37.4829,47.036],[37.3352,46.8825],[37.313,46.8756],[37.3174,46.9008],[37.2954,46.9202],[37.2271,46.937],[37.0378,46.8767],[37.0096,46.9268],[37.057,46.9595],[37.0912,46.955],[37.1145,46.9657],[37.0937,47.0],[37.1185,47.0282],[37.0708,47.0575],[37.0491,47.0448],[37.011,47.0656],[36.9625,47.1397],[36.889,47.1661],[36.8565,47.1937],[36.9387,47.209],[36.9362,47.2482],[36.914,47.2836],[36.9194,47.3013],[37.0289,47.2876],[37.0724,47.3006],[37.0767,47.3264],[37.1145,47.3715],[37.1399,47.3686],[37.1637,47.3459],[37.1792,47.3508],[37.1846,47.3879],[37.2209,47.4553],[37.1522,47.4639],[37.1287,47.4512],[36.9954,47.5475],[36.9442,47.5704],[36.8933,47.5509],[36.7979,47.6102],[36.7521,47.6017],[36.7524,47.6339],[36.7273,47.6405],[36.72,47.6578],[36.7473,47.6749],[36.7031,47.6908],[36.653,47.7878],[36.5837,47.7914],[36.5761,47.8442],[36.5695,47.8674],[36.533,47.8836],[36.5344,47.905],[36.634,47.9243],[36.6134,47.957],[36.5766,47.9707],[36.5806,48.0732],[36.6651,48.0881],[36.7237,48.0756],[36.7506,48.0526],[36.839,48.0345],[36.8926,48.0676],[36.8719,48.1674],[36.9272,48.2015],[36.904,48.2977],[36.8586,48.3183],[36.82,48.3144],[36.8118,48.3257],[36.819,48.3574],[36.8089,48.4131],[36.8472,48.434],[36.835,48.4455],[36.8355,48.4763],[36.8586,48.4927],[36.8542,48.5165],[36.891,48.534],[36.8874,48.5736],[36.8192,48.5782],[36.7951,48.5348],[36.7512,48.5292],[36.7493,48.564],[36.79,48.6012],[36.7383,48.6016],[36.7254,48.6259],[36.7085,48.6609],[36.697,48.7859],[36.8204,48.7724],[36.8909,48.8009],[37.0289,48.7608],[37.0309,48.7743],[36.9984,48.7883],[37.0185,48.8137],[37.0628,48.8116],[37.0887,48.8424],[37.1341,48.8222],[37.1705,48.8256],[37.1812,48.8315],[37.1807,48.8613],[37.2209,48.8976],[37.311,48.923],[37.3059,48.9636],[37.2918,48.9799],[37.3488,49.0156],[37.3738,49.0525],[37.6096,49.1502],[37.5902,49.1753],[37.5049,49.184],[37.541,49.2252],[37.6431,49.2283],[37.7712,49.2044],[37.8338,49.2075],[37.8473,49.2317],[37.9336,49.1996],[37.8913,49.1845],[37.8837,49.1641],[37.8953,49.1563],[37.9713,49.1315],[38.0207,49.1523],[38.0705,49.1481],[38.0621,49.0906],[38.041,49.07],[38.0773,48.9982],[38.0159,48.9716],[38.01,48.9543],[38.0578,48.9371],[38.2101,48.9239],[38.2311,48.8543],[38.2795,48.8392],[38.2966,48.7831],[38.2664,48.7327],[38.3065,48.7254],[38.2489,48.6674],[38.2537,48.6055],[38.27,48.5736],[38.2601,48.5443],[38.3139,48.5206],[38.302,48.4664],[38.3102,48.45],[38.3701,48.4318],[38.3991,48.4423],[38.4806,48.3576],[38.4713,48.3361],[38.4098,48.3241],[38.4236,48.2856],[38.4609,48.2724],[38.5663,48.2776],[38.6072,48.207],[38.6037,48.1791],[38.814,48.1114],[38.8227,48.0943],[38.8002,48.0567],[38.8401,48.028],[39.0271,48.0066],[39.0313,47.9498],[39.0555,47.9174],[39.0362,47.857]]]}},{"type":"Feature","id":"Ivano-Frankivsk","properties":{"id":"Ivano-Frankivsk","iso_code":"UA-26","name":"Ivano-Frankivsk","name_full":"Ivano-Frankivsk","name_ja":"イヴァーノ＝フランキーウシク州","center_lonlat":[24.6151,48.6913]},"geometry":{"type":"Polygon","coordinates":[[[24.9289,47.7139],[24.8778,47.7187],[24.7937,47.8045],[24.6791,47.8401],[24.6615,47.8539],[24.6493,47.8952],[24.5698,47.9373],[24.5882,47.9959],[24.6403,48.0568],[24.532,48.141],[24.5208,48.1668],[24.5432,48.2092],[24.4949,48.2666],[24.3849,48.3345],[24.3483,48.3375],[24.3357,48.3707],[24.3095,48.3874],[24.2566,48.3531],[24.1777,48.3546],[24.1511,48.3689],[24.1324,48.414],[24.1408,48.4753],[24.1293,48.5334],[24.0015,48.5001],[23.9524,48.4729],[23.9172,48.4744],[23.9074,48.4847],[23.9168,48.5154],[23.9068,48.538],[23.7915,48.5938],[23.7766,48.6421],[23.693,48.6447],[23.6124,48.7038],[23.5329,48.7237],[23.5753,48.8339],[23.5484,48.8849],[23.5765,48.9686],[23.6416,49.0108],[23.6936,49.0946],[23.7548,49.1149],[23.9057,49.1072],[23.9557,49.128],[24.0033,49.1164],[24.0845,49.1456],[24.1582,49.135],[24.3555,49.1815],[24.4249,49.1854],[24.4462,49.2085],[24.4177,49.2352],[24.3569,49.241],[24.3629,49.2974],[24.3396,49.3036],[24.2998,49.2852],[24.2819,49.301],[24.2908,49.3139],[24.3696,49.3261],[24.4232,49.3664],[24.3833,49.3938],[24.4265,49.4495],[24.4133,49.4834],[24.4273,49.5067],[24.5723,49.5247],[24.6498,49.4971],[24.707,49.4918],[24.8041,49.3889],[24.8329,49.3396],[24.8234,49.3138],[24.8383,49.2622],[24.867,49.2502],[24.8791,49.2294],[24.879,49.1983],[24.8512,49.1753],[24.86,49.1194],[24.8802,49.1112],[24.9171,49.1227],[24.9816,49.0992],[24.9927,49.0642],[24.9856,49.0517],[24.9036,49.0611],[24.8976,49.0398],[24.9503,49.0208],[24.9926,48.9696],[25.067,48.9725],[25.1196,48.9514],[25.1297,48.9344],[25.123,48.9076],[25.1656,48.8655],[25.1974,48.9177],[25.2458,48.9314],[25.2267,48.8868],[25.2253,48.842],[25.2501,48.8594],[25.3277,48.842],[25.2501,48.8177],[25.239,48.8011],[25.251,48.7752],[25.3277,48.8147],[25.3541,48.8139],[25.3561,48.8546],[25.4144,48.8469],[25.4308,48.8494],[25.4404,48.8699],[25.4711,48.8625],[25.45,48.8358],[25.4611,48.8253],[25.6294,48.7601],[25.6401,48.745],[25.6276,48.7183],[25.6463,48.6973],[25.6362,48.6781],[25.5654,48.6253],[25.6058,48.5216],[25.6004,48.4326],[25.5851,48.3929],[25.4928,48.4037],[25.3696,48.3802],[25.2926,48.3402],[25.1961,48.2568],[25.1409,48.2319],[25.1325,48.2072],[25.1404,48.1817],[24.9892,48.1002],[24.9282,47.997],[24.9348,47.9474],[24.9672,47.9067],[24.9848,47.8404],[24.9325,47.754],[24.9289,47.7139]]]}},{"type":"Feature","id":"Kharkiv","properties":{"id":"Kharkiv","iso_code":"UA-63","name":"Kharkiv","name_full":"Kharkiv","name_ja":"ハルキウ州","center_lonlat":[36.4912,49.6059]},"geometry":{"type":"Polygon","coordinates":[[[38.0229,49.9091],[38.0435,49.8694],[38.0801,49.8431],[38.0,49.8226],[38.0452,49.7848],[38.0048,49.7505],[37.9687,49.7527],[37.94,49.7269],[37.946,49.7148],[37.9983,49.7155],[38.0011,49.6606],[37.9445,49.5968],[37.9632,49.5665],[37.9532,49.551],[37.9632,49.5201],[37.9287,49.4997],[37.9105,49.4547],[37.8759,49.4425],[37.8607,49.4227],[37.8857,49.3901],[37.8851,49.3131],[37.9187,49.307],[37.9291,49.2909],[37.8982,49.2583],[37.8473,49.2317],[37.8338,49.2075],[37.7712,49.2044],[37.6431,49.2283],[37.541,49.2252],[37.5049,49.184],[37.5902,49.1753],[37.6096,49.1502],[37.3738,49.0525],[37.3488,49.0156],[37.2918,48.9799],[37.3059,48.9636],[37.311,48.923],[37.2209,48.8976],[37.1807,48.8613],[37.1812,48.8315],[37.1705,48.8256],[37.1341,48.8222],[37.0887,48.8424],[37.0628,48.8116],[37.0185,48.8137],[36.9984,48.7883],[37.0309,48.7743],[37.0289,48.7608],[36.8909,48.8009],[36.8204,48.7724],[36.697,48.7859],[36.7085,48.6609],[36.7254,48.6259],[36.595,48.6016],[36.471,48.6459],[36.3824,48.5805],[36.3645,48.5585],[36.3748,48.5416],[36.2843,48.5283],[36.274,48.541],[36.3076,48.5699],[36.2675,48.5978],[36.2857,48.6341],[36.1328,48.7237],[36.1707,48.7577],[36.1637,48.7673],[36.0793,48.8145],[36.0721,48.8291],[36.0053,48.8534],[35.962,48.8549],[36.022,48.9001],[35.9525,48.9687],[35.9307,48.9764],[35.7944,48.9342],[35.6192,48.9587],[35.5792,48.9758],[35.4625,48.9749],[35.3613,49.022],[35.1698,49.1472],[34.9839,49.1637],[34.9874,49.1892],[34.953,49.2474],[34.9729,49.2806],[35.0334,49.3202],[35.0902,49.2972],[35.1885,49.292],[35.2791,49.3198],[35.3606,49.392],[35.3514,49.4266],[35.3165,49.455],[35.3197,49.4805],[35.3568,49.4908],[35.4249,49.481],[35.4645,49.4944],[35.4648,49.507],[35.3906,49.5506],[35.4751,49.5604],[35.4163,49.6438],[35.4136,49.6569],[35.4287,49.6668],[35.4197,49.6863],[35.3764,49.687],[35.3545,49.6681],[35.2913,49.6793],[35.2769,49.6962],[35.239,49.7045],[35.2339,49.7279],[35.1984,49.7539],[35.1911,49.832],[35.1663,49.8512],[35.103,49.8477],[35.0086,49.8889],[34.9489,49.8915],[34.869,49.9364],[34.8415,50.0],[34.9132,50.0557],[34.9172,50.1324],[34.9082,50.146],[34.9509,50.1622],[34.9753,50.192],[35.0303,50.1718],[35.0513,50.2095],[35.093,50.2085],[35.1279,50.2432],[35.206,50.2317],[35.2498,50.2385],[35.2526,50.2689],[35.3089,50.2764],[35.3059,50.2896],[35.3208,50.302],[35.3854,50.2936],[35.3973,50.3324],[35.5025,50.3003],[35.5007,50.3215],[35.6625,50.3187],[35.6811,50.3241],[35.6922,50.3442],[35.7377,50.3816],[35.7744,50.3869],[35.8374,50.4232],[36.1058,50.4211],[36.1693,50.3837],[36.269,50.2814],[36.3158,50.2749],[36.388,50.3064],[36.41,50.3046],[36.5364,50.2675],[36.5346,50.2199],[36.5944,50.2044],[36.6358,50.214],[36.6826,50.2607],[36.8486,50.3237],[36.9141,50.3391],[37.0517,50.3353],[37.197,50.3624],[37.2852,50.4153],[37.4152,50.4319],[37.4353,50.4249],[37.48,50.34],[37.5682,50.3125],[37.5992,50.2909],[37.5903,50.2038],[37.7276,50.0787],[37.8817,50.023],[37.9466,49.9782],[38.0004,49.8998],[38.0229,49.9091]]]}},{"type":"Feature","id":"Kherson","properties":{"id":"Kherson","iso_code":"UA-65","name":"Kherson","name_full":"Kherson","name_ja":"ヘルソン州","center_lonlat":[33.604,46.6708]},"geometry":{"type":"MultiPolygon","coordinates":[[[[31.8163,46.483],[31.8517,46.522],[32.0335,46.5063],[32.1117,46.5124],[32.2215,46.4954],[32.2761,46.4709],[32.361,46.4669],[32.427,46.4988],[32.4084,46.5173],[32.4357,46.5432],[32.5247,46.5927],[32.5884,46.6043],[32.6455,46.6496],[32.409,46.5689],[32.3358,46.5622],[32.2482,46.6074],[32.1699,46.5808],[32.1463,46.5602],[32.1179,46.6069],[32.009,46.6398],[31.9798,46.6771],[31.9649,46.7221],[32.072,46.7468],[32.1122,46.7352],[32.1716,46.7467],[32.2349,46.8093],[32.3432,46.7946],[32.3893,46.8395],[32.4443,46.8471],[32.4697,46.8314],[32.5226,46.8331],[32.5426,46.8742],[32.6407,46.8596],[32.7086,46.8238],[32.8283,46.8279],[32.9408,46.8619],[32.8265,46.868],[32.807,46.8823],[32.9243,46.9027],[32.959,46.925],[33.0102,46.9362],[33.0055,46.9502],[32.9571,46.9536],[32.9512,46.9857],[32.9749,47.0002],[33.025,46.9699],[33.0617,47.0153],[33.0136,47.0511],[32.9218,47.0773],[32.915,47.1035],[32.9762,47.1868],[33.0359,47.1779],[33.0839,47.2089],[33.1206,47.2024],[33.1361,47.2243],[33.1051,47.2724],[33.1206,47.3494],[33.0963,47.3849],[33.0427,47.3901],[33.0261,47.4087],[33.0589,47.4522],[33.0851,47.4153],[33.1301,47.4226],[33.1112,47.5031],[33.1186,47.5237],[33.0893,47.548],[33.0893,47.5829],[33.2834,47.5393],[33.3394,47.4951],[33.366,47.5144],[33.4853,47.5327],[33.4943,47.5642],[33.5629,47.5754],[33.5888,47.56],[33.5753,47.5376],[33.5844,47.5147],[33.6243,47.5116],[33.6428,47.4885],[33.7525,47.491],[33.9018,47.5145],[34.0582,47.4807],[34.2037,47.4784],[34.2984,47.2721],[34.3891,47.2735],[34.4199,47.3102],[34.5065,47.3139],[34.4796,47.2939],[34.4751,47.2737],[34.5046,47.2465],[34.4917,47.2223],[34.4992,47.1414],[34.5096,47.1133],[34.5405,47.0997],[34.5597,47.0116],[34.5921,46.9982],[34.6084,46.9592],[34.722,46.9265],[34.7427,46.8818],[34.7844,46.8672],[34.7965,46.8395],[34.7943,46.8269],[34.7475,46.8117],[34.7427,46.7783],[34.718,46.7448],[34.6834,46.7222],[34.6303,46.7134],[34.6313,46.689],[34.7327,46.6623],[34.7444,46.6299],[34.7221,46.599],[34.7622,46.5472],[34.8576,46.5417],[34.8665,46.5306],[34.8538,46.5002],[34.9237,46.5003],[35.0294,46.4648],[35.0601,46.3845],[35.0596,46.306],[35.1051,46.2951],[35.0308,46.2518],[34.9265,46.2351],[34.9048,46.2557],[34.8936,46.2518],[34.8822,46.2217],[34.8389,46.2077],[34.8123,46.1767],[34.8242,46.0779],[34.8744,45.9261],[35.0019,45.729],[34.9757,45.7173],[34.8707,45.7733],[34.81,45.785],[34.789,45.8037],[34.7843,45.8993],[34.7633,45.932],[34.6886,45.974],[34.53,45.981],[34.5043,45.9507],[34.4646,45.9553],[34.4109,45.988],[34.3619,46.0557],[34.3339,46.0697],[34.3013,46.0697],[34.2359,46.0977],[34.1612,46.0907],[34.0679,46.1047],[33.8462,46.1957],[33.8019,46.2027],[33.7157,46.1957],[33.6703,46.2181],[33.6604,46.1482],[33.6285,46.1249],[33.5965,46.1557],[33.5498,46.1364],[33.5313,46.1069],[33.5579,46.0873],[33.5056,46.0803],[33.4958,46.0679],[33.5163,46.0463],[33.4238,46.0533],[33.3578,46.1038],[33.3311,46.1075],[33.3108,46.0873],[33.2903,46.0947],[33.3177,46.1197],[33.3157,46.131],[33.2146,46.1282],[33.2351,46.2238],[33.1751,46.1531],[33.1229,46.1359],[33.0234,46.1699],[33.0325,46.141],[33.0182,46.1277],[32.8993,46.1152],[32.7663,46.1357],[32.5882,46.1044],[32.5437,46.0805],[32.5034,46.0761],[32.3025,46.1167],[32.2625,46.1282],[32.242,46.1767],[32.2693,46.2046],[32.2131,46.1931],[32.1287,46.2097],[32.0501,46.2661],[32.0181,46.2575],[31.8858,46.32],[31.8823,46.2791],[31.7859,46.2924],[31.7673,46.3182],[31.7998,46.3422],[31.9683,46.3511],[32.0296,46.389],[32.0619,46.3938],[32.0078,46.449],[31.9107,46.4559],[31.8163,46.483]]],[[[35.2795,46.2551],[35.1618,46.1282],[35.0,46.0736],[34.9821,46.0778],[35.0519,46.1282],[35.0444,46.1419],[35.2004,46.183],[35.2648,46.2605],[35.2795,46.2551]]],[[[31.9403,46.2046],[32.0708,46.1824],[32.1663,46.1494],[31.7372,46.2208],[31.5803,46.2628],[31.522,46.3132],[31.5044,46.3734],[31.522,46.3685],[31.5544,46.2963],[31.6182,46.2592],[31.9403,46.2046]]],[[[32.9893,46.0426],[33.0451,46.0379],[33.0575,46.0252],[33.0401,46.0122],[32.6194,46.06],[32.7832,46.0463],[32.8817,46.0554],[32.9136,46.0388],[32.9787,46.0533],[32.9893,46.0426]]]]}},{"type":"Feature","id":"Khmelnytskyi","properties":{"id":"Khmelnytskyi","iso_code":"UA-68","name":"Khmelnytskyi","name_full":"Khmelnytskyi","name_ja":"フメリヌィーツィクィイ州","center_lonlat":[26.9334,49.5017]},"geometry":{"type":"Polygon","coordinates":[[[27.1923,50.5412],[27.2604,50.4901],[27.3046,50.478],[27.2506,50.4449],[27.2289,50.3949],[27.235,50.3797],[27.2887,50.3679],[27.3082,50.3403],[27.4038,50.2982],[27.4001,50.277],[27.4806,50.2479],[27.4948,50.2215],[27.5499,50.2184],[27.5825,50.2546],[27.6075,50.2493],[27.6078,50.2022],[27.6497,50.1606],[27.6272,50.1379],[27.6479,50.1167],[27.6212,50.0793],[27.6606,50.0577],[27.6637,50.0326],[27.6094,50.0037],[27.5439,50.0071],[27.5808,49.9514],[27.5456,49.941],[27.5445,49.9108],[27.5974,49.8928],[27.5991,49.8665],[27.6607,49.7989],[27.868,49.7601],[27.8501,49.7451],[27.8134,49.741],[27.8366,49.7257],[27.8218,49.7084],[27.769,49.7044],[27.7506,49.6832],[27.8156,49.6309],[27.7672,49.5666],[27.7843,49.5361],[27.7678,49.5243],[27.7321,49.5262],[27.7243,49.4999],[27.7635,49.4696],[27.7419,49.4551],[27.7431,49.4365],[27.826,49.4299],[27.8395,49.4163],[27.844,49.3961],[27.8033,49.379],[27.8192,49.3412],[27.8515,49.3308],[27.8521,49.3049],[27.8773,49.2769],[27.8553,49.2416],[27.8792,49.2066],[27.8877,49.1588],[27.8106,49.1418],[27.7726,49.1164],[27.6157,49.1599],[27.5737,49.1225],[27.4893,49.1177],[27.4707,49.0759],[27.4448,49.0643],[27.3806,48.9918],[27.3984,48.957],[27.3721,48.9301],[27.3988,48.8764],[27.4032,48.8152],[27.4261,48.7737],[27.3962,48.7609],[27.3993,48.7085],[27.3704,48.6297],[27.335,48.6018],[27.2344,48.6185],[27.236,48.6055],[27.2618,48.5957],[27.2476,48.5704],[27.147,48.5819],[27.1228,48.5608],[27.0234,48.5609],[27.0036,48.5751],[26.9453,48.5814],[26.885,48.5435],[26.8593,48.5403],[26.828,48.5613],[26.8292,48.6018],[26.8188,48.6066],[26.7876,48.6018],[26.7876,48.5683],[26.7728,48.551],[26.7497,48.5616],[26.7406,48.5889],[26.7172,48.5948],[26.7161,48.5778],[26.7392,48.5577],[26.7218,48.5352],[26.6328,48.5624],[26.6126,48.5509],[26.6144,48.5402],[26.6884,48.5184],[26.709,48.4969],[26.6541,48.4913],[26.6157,48.5068],[26.607,48.4923],[26.6219,48.4583],[26.6057,48.4516],[26.5528,48.4658],[26.5153,48.5149],[26.4706,48.5381],[26.404,48.5341],[26.3805,48.5171],[26.354,48.5616],[26.3715,48.5736],[26.3067,48.6056],[26.3163,48.6428],[26.285,48.6412],[26.2819,48.6616],[26.2373,48.6799],[26.2513,48.7524],[26.2285,48.7792],[26.2414,48.8005],[26.2642,48.8082],[26.2172,48.8373],[26.2229,48.8972],[26.1925,48.906],[26.2023,48.935],[26.1888,48.9569],[26.2041,48.9654],[26.1992,48.9885],[26.2212,49.0007],[26.1995,49.0413],[26.2315,49.0745],[26.2109,49.1191],[26.2208,49.1517],[26.1984,49.1849],[26.2078,49.2273],[26.2453,49.2444],[26.258,49.2899],[26.2344,49.3195],[26.2291,49.397],[26.195,49.4191],[26.1484,49.5165],[26.168,49.5484],[26.2087,49.5669],[26.2209,49.6166],[26.2538,49.6576],[26.2055,49.6963],[26.2308,49.7343],[26.2335,49.779],[26.1868,49.8219],[26.1926,49.8661],[26.1571,49.8938],[26.1657,49.9268],[26.1504,49.9614],[26.2338,49.9987],[26.2325,50.0112],[26.1964,50.023],[26.2319,50.0592],[26.2052,50.0863],[26.2598,50.0943],[26.2732,50.1134],[26.2066,50.1414],[26.2332,50.1523],[26.3034,50.1755],[26.3835,50.2441],[26.4799,50.2536],[26.6431,50.359],[26.6501,50.3844],[26.703,50.4141],[26.7398,50.4649],[26.7966,50.4615],[26.8071,50.5009],[26.9015,50.5317],[26.9764,50.5192],[27.0722,50.5587],[27.0976,50.5866],[27.1262,50.582],[27.138,50.551],[27.1923,50.5412]]]}},{"type":"Feature","id":"Kirovohrad","properties":{"id":"Kirovohrad","iso_code":"UA-35","name":"Kirovohrad","name_full":"Kirovohrad","name_ja":"キロヴォフラード州","center_lonlat":[32.0796,48.4683]},"geometry":{"type":"Polygon","coordinates":[[[32.7887,49.2618],[33.0382,49.182],[33.1493,49.1256],[33.2041,49.0709],[33.2971,49.0649],[33.3416,49.044],[33.346,49.0327],[33.3192,49.0256],[33.3186,49.0085],[33.2994,48.9955],[33.3788,48.94],[33.401,48.9535],[33.4251,48.9509],[33.5484,48.9019],[33.597,48.9224],[33.6516,48.8993],[33.6689,48.8691],[33.6946,48.9058],[33.7785,48.9225],[33.8074,48.9034],[33.892,48.8917],[33.9195,48.8658],[33.8257,48.7595],[33.811,48.762],[33.8018,48.7961],[33.7748,48.779],[33.7737,48.8014],[33.7604,48.8071],[33.7089,48.7825],[33.6708,48.8074],[33.6194,48.7842],[33.5896,48.7949],[33.5722,48.7871],[33.5578,48.7623],[33.5985,48.7218],[33.7565,48.6977],[33.7697,48.6805],[33.8211,48.6684],[33.5804,48.5594],[33.5638,48.5637],[33.4454,48.5253],[33.4433,48.5043],[33.4616,48.4978],[33.4845,48.4439],[33.4715,48.423],[33.4885,48.4039],[33.5,48.3112],[33.5259,48.2974],[33.5134,48.2385],[33.4705,48.228],[33.3964,48.1732],[33.3481,48.1859],[33.2688,48.1027],[33.2545,48.1208],[33.2541,48.1695],[33.242,48.1739],[33.2223,48.0904],[33.1427,48.0801],[33.1113,48.0642],[33.0575,48.0258],[33.0353,47.9665],[33.0157,47.9775],[33.0145,47.9992],[32.9793,48.0428],[32.8941,48.035],[32.882,48.0255],[32.8828,47.994],[32.8444,47.9862],[32.8293,47.9667],[32.7776,47.9893],[32.6897,47.9653],[32.6834,47.9399],[32.7147,47.9297],[32.7158,47.9152],[32.6627,47.9003],[32.6823,47.8459],[32.652,47.8373],[32.6446,47.8006],[32.467,47.7811],[32.3809,47.8013],[32.3429,47.7962],[32.2875,47.8225],[32.2344,47.8204],[32.1691,47.7577],[32.1387,47.7475],[32.0999,47.7584],[32.0683,47.7898],[32.0218,47.8098],[31.975,47.8119],[31.9553,47.7958],[31.8569,47.7977],[31.8391,47.846],[31.866,47.8804],[31.8634,47.8944],[31.8212,47.9452],[31.7682,47.9526],[31.7081,48.0198],[31.7693,48.047],[31.7722,48.0666],[31.7525,48.0975],[31.6986,48.0938],[31.6166,48.1187],[31.5913,48.1096],[31.5849,48.0862],[31.5337,48.0868],[31.5254,48.0585],[31.5118,48.0551],[31.4997,48.0639],[31.5126,48.103],[31.5037,48.1181],[31.4145,48.1077],[31.3843,48.1249],[31.3439,48.1118],[31.2503,48.1209],[31.2311,48.1316],[31.2282,48.1589],[31.1898,48.1715],[31.1835,48.208],[31.0626,48.221],[31.007,48.2112],[30.9761,48.1817],[30.9127,48.1576],[30.8851,48.161],[30.8632,48.1857],[30.817,48.1591],[30.789,48.1778],[30.7161,48.1825],[30.6452,48.1666],[30.6199,48.145],[30.5018,48.1636],[30.3475,48.1636],[30.3305,48.1363],[30.2931,48.1357],[30.0835,48.1437],[30.0478,48.1552],[29.9968,48.221],[29.9594,48.2096],[29.9241,48.2216],[29.8822,48.18],[29.8259,48.2101],[29.7748,48.2031],[29.7864,48.2508],[29.7382,48.2701],[29.7754,48.3169],[29.783,48.3569],[29.8834,48.4326],[29.917,48.4283],[29.9401,48.3756],[29.9981,48.4221],[30.0388,48.4277],[30.0761,48.4551],[30.1208,48.4564],[30.1848,48.4925],[30.2473,48.4776],[30.3849,48.5305],[30.3961,48.5606],[30.4147,48.5719],[30.4565,48.5708],[30.4844,48.5535],[30.5676,48.5619],[30.5761,48.6043],[30.5409,48.6193],[30.5994,48.66],[30.6068,48.7145],[30.7023,48.7652],[30.8201,48.7498],[30.9381,48.7562],[31.0674,48.7274],[31.2237,48.7539],[31.2936,48.7471],[31.3329,48.7238],[31.4623,48.7611],[31.4812,48.8035],[31.5273,48.8352],[31.5295,48.904],[31.5441,48.9242],[31.6511,48.9174],[31.6836,48.943],[31.7323,48.9426],[31.8416,48.9099],[31.8684,48.8656],[31.8867,48.8598],[31.9392,48.8962],[32.0262,48.928],[32.1292,48.9125],[32.1458,48.944],[32.133,48.9611],[32.1426,48.9756],[32.1887,48.9968],[32.2344,49.0478],[32.2846,49.048],[32.2888,49.07],[32.3319,49.0898],[32.3691,49.0458],[32.4084,49.0412],[32.4529,49.0561],[32.4545,49.0216],[32.5035,48.9731],[32.5198,48.9291],[32.5471,48.9296],[32.5678,48.9579],[32.6343,48.946],[32.6894,48.9874],[32.7824,48.9637],[32.8554,49.0184],[32.8247,49.0304],[32.8004,49.076],[32.7895,49.1468],[32.7526,49.1813],[32.7887,49.2618]]]}},{"type":"Feature","id":"Kyiv","properties":{"id":"Kyiv","iso_code":"UA-32","name":"Kyiv","name_full":"Kyiv","name_ja":"キエフ","center_lonlat":[30.4471,50.2898]},"geometry":{"type":"Polygon","coordinates":[[[30.5547,51.2425],[30.5538,51.2291],[30.5148,51.2203],[30.5314,51.1803],[30.5112,51.108],[30.5136,51.0132],[30.5558,51.0172],[30.6491,50.9856],[30.6639,50.9575],[30.6551,50.892],[30.7802,50.8436],[30.7409,50.7574],[30.794,50.7596],[30.8363,50.737],[30.8717,50.7553],[30.9309,50.7465],[31.0894,50.7673],[31.1136,50.7454],[31.1132,50.7237],[31.1585,50.7155],[31.1607,50.6993],[31.213,50.6588],[31.2185,50.6229],[31.1856,50.6061],[31.1799,50.5877],[31.2196,50.5615],[31.2584,50.5577],[31.2752,50.5208],[31.3282,50.5084],[31.4629,50.5002],[31.4966,50.5179],[31.5613,50.5091],[31.6135,50.5176],[31.6865,50.5528],[31.7484,50.5532],[31.7834,50.5764],[31.7967,50.6142],[31.8563,50.6214],[31.962,50.5501],[32.0284,50.5451],[32.0308,50.5044],[31.9949,50.5014],[31.9736,50.4753],[32.0076,50.4511],[32.0201,50.4198],[32.0895,50.4058],[32.0667,50.3835],[32.0728,50.378],[32.1392,50.3501],[32.0949,50.2886],[32.098,50.2667],[32.0695,50.2387],[31.9994,50.2465],[31.9739,50.2201],[31.9953,50.1865],[31.9875,50.1693],[31.9544,50.1475],[31.9143,50.1473],[31.9,50.1254],[31.8535,50.1],[31.872,50.0235],[31.81,50.0056],[31.8068,49.9602],[31.7166,49.8485],[31.6131,49.8581],[31.5966,49.8976],[31.5709,49.8627],[31.5194,49.8665],[31.4969,49.84],[31.4471,49.9007],[31.4302,49.9061],[31.336,49.8967],[31.212,49.854],[31.1786,49.8183],[31.1989,49.8043],[31.1821,49.7738],[31.1969,49.7534],[31.1698,49.6955],[31.1746,49.6717],[31.1282,49.6144],[31.1298,49.5958],[31.1568,49.5852],[31.1559,49.5564],[31.1099,49.5327],[31.0773,49.4907],[30.9504,49.4143],[30.908,49.3461],[30.8682,49.3606],[30.7254,49.3208],[30.6846,49.3538],[30.6194,49.3585],[30.5927,49.3299],[30.5502,49.3407],[30.4982,49.3239],[30.463,49.3474],[30.4377,49.3485],[30.4199,49.336],[30.382,49.233],[30.3632,49.2366],[30.3495,49.2581],[30.1692,49.2841],[30.1829,49.3215],[30.1519,49.3295],[30.1044,49.3013],[30.1115,49.275],[30.0386,49.2851],[30.0069,49.2646],[29.9201,49.2462],[29.8623,49.1738],[29.7615,49.1746],[29.7295,49.1952],[29.7453,49.2134],[29.6972,49.2273],[29.6877,49.2412],[29.6386,49.2475],[29.5895,49.3063],[29.5227,49.3262],[29.5001,49.3785],[29.5689,49.4216],[29.5696,49.4438],[29.54,49.4878],[29.5647,49.506],[29.5672,49.5281],[29.4963,49.5728],[29.5107,49.6403],[29.4472,49.6509],[29.4831,49.6974],[29.4784,49.709],[29.4184,49.7101],[29.4491,49.7586],[29.442,49.7984],[29.6301,49.8635],[29.7332,49.9353],[29.6719,50.0163],[29.6845,50.0368],[29.6691,50.0829],[29.6739,50.0968],[29.7344,50.1215],[29.7233,50.1611],[29.6914,50.1822],[29.6949,50.2669],[29.6422,50.3159],[29.6083,50.3215],[29.5673,50.4069],[29.5366,50.4242],[29.4449,50.4111],[29.4261,50.422],[29.4668,50.4413],[29.4441,50.4626],[29.4811,50.4635],[29.4989,50.4917],[29.4735,50.5271],[29.4966,50.5344],[29.5132,50.5674],[29.4808,50.6017],[29.5403,50.67],[29.5847,50.6916],[29.5923,50.7111],[29.5675,50.7721],[29.4899,50.7808],[29.5051,50.8703],[29.3931,50.9701],[29.4297,50.9797],[29.462,50.9697],[29.4646,51.0242],[29.4876,51.0665],[29.433,51.0897],[29.4123,51.1164],[29.3628,51.1416],[29.3425,51.1438],[29.3132,51.1171],[29.305,51.1278],[29.2705,51.2369],[29.3495,51.266],[29.3847,51.2982],[29.3914,51.3621],[29.3658,51.363],[29.3533,51.3771],[29.4027,51.3961],[29.4663,51.3851],[29.5055,51.4375],[29.5682,51.4496],[29.6378,51.4909],[29.7,51.4837],[29.7379,51.4395],[29.8286,51.43],[29.8863,51.4648],[29.9251,51.4579],[30.0087,51.4821],[30.1486,51.4844],[30.2054,51.4665],[30.2569,51.4251],[30.3202,51.4021],[30.33,51.3704],[30.3171,51.3406],[30.3551,51.3053],[30.4281,51.2918],[30.465,51.2619],[30.5081,51.2577],[30.5396,51.2352],[30.5547,51.2425]],[[30.7537,50.2892],[30.792,50.2926],[30.7902,50.3326],[30.8303,50.3327],[30.846,50.3535],[30.817,50.3672],[30.8152,50.3846],[30.7603,50.4399],[30.7571,50.4764],[30.7681,50.4887],[30.7506,50.5063],[30.7756,50.5442],[30.8423,50.584],[30.8349,50.6388],[30.7386,50.6682],[30.7156,50.6518],[30.7185,50.6235],[30.6643,50.6027],[30.6472,50.5752],[30.5518,50.5808],[30.5387,50.572],[30.5481,50.549],[30.4758,50.5959],[30.4625,50.6304],[30.4373,50.6342],[30.4327,50.6624],[30.334,50.663],[30.3335,50.6379],[30.2702,50.6334],[30.2913,50.6093],[30.2856,50.589],[30.2679,50.608],[30.2499,50.6007],[30.2586,50.5659],[30.2174,50.5424],[30.186,50.3872],[30.1966,50.3744],[30.2233,50.382],[30.2382,50.4147],[30.3188,50.4083],[30.3322,50.3688],[30.4137,50.3039],[30.4106,50.262],[30.4456,50.2636],[30.4558,50.2222],[30.4736,50.217],[30.4769,50.1998],[30.4938,50.2055],[30.5208,50.1901],[30.5111,50.1462],[30.5362,50.1456],[30.5417,50.0974],[30.5685,50.0911],[30.5856,50.0142],[30.6482,50.0337],[30.6391,50.05],[30.6503,50.0605],[30.6208,50.1227],[30.6398,50.1241],[30.6544,50.156],[30.6059,50.2675],[30.6423,50.2758],[30.648,50.261],[30.7181,50.2625],[30.7243,50.3096],[30.7537,50.2892]]]}},{"type":"Feature","id":"Kyiv (UA-30)","properties":{"id":"Kyiv (UA-30)","iso_code":"UA-30","name":"Kyiv (UA-30)","name_full":"Kyiv","name_ja":"キエフ","center_lonlat":[30.5339,50.4206]},"geometry":{"type":"Polygon","coordinates":[[[30.7386,50.6682],[30.8349,50.6388],[30.8423,50.584],[30.7756,50.5442],[30.7506,50.5063],[30.7681,50.4887],[30.7571,50.4764],[30.7603,50.4399],[30.8152,50.3846],[30.817,50.3672],[30.846,50.3535],[30.8303,50.3327],[30.7902,50.3326],[30.792,50.2926],[30.7537,50.2892],[30.7243,50.3096],[30.7181,50.2625],[30.648,50.261],[30.6423,50.2758],[30.6059,50.2675],[30.6544,50.156],[30.6398,50.1241],[30.6208,50.1227],[30.6503,50.0605],[30.6391,50.05],[30.6482,50.0337],[30.5856,50.0142],[30.5685,50.0911],[30.5417,50.0974],[30.5362,50.1456],[30.5111,50.1462],[30.5208,50.1901],[30.4938,50.2055],[30.4769,50.1998],[30.4736,50.217],[30.4558,50.2222],[30.4456,50.2636],[30.4106,50.262],[30.4137,50.3039],[30.3322,50.3688],[30.3188,50.4083],[30.2382,50.4147],[30.2233,50.382],[30.1966,50.3744],[30.186,50.3872],[30.2035,50.4449],[30.2003,50.4781],[30.2174,50.5057],[30.2174,50.5424],[30.2586,50.5659],[30.2499,50.6007],[30.2679,50.608],[30.2856,50.589],[30.2913,50.6093],[30.2702,50.6334],[30.3335,50.6379],[30.334,50.663],[30.4327,50.6624],[30.4373,50.6342],[30.4625,50.6304],[30.4758,50.5959],[30.5481,50.549],[30.5387,50.572],[30.5518,50.5808],[30.6472,50.5752],[30.6643,50.6027],[30.7185,50.6235],[30.7156,50.6518],[30.7386,50.6682]]]}},{"type":"Feature","id":"Luhansk","properties":{"id":"Luhansk","iso_code":"UA-09","name":"Luhansk","name_full":"Luhansk","name_ja":"ルハーンシク州","center_lonlat":[39.0097,48.9748]},"geometry":{"type":"Polygon","coordinates":[[[39.0362,47.857],[39.0555,47.9174],[39.0313,47.9498],[39.0271,48.0066],[38.8401,48.028],[38.8002,48.0567],[38.8227,48.0943],[38.814,48.1114],[38.6037,48.1791],[38.6072,48.207],[38.5663,48.2776],[38.4609,48.2724],[38.4236,48.2856],[38.4098,48.3241],[38.4713,48.3361],[38.4806,48.3576],[38.3991,48.4423],[38.3701,48.4318],[38.3102,48.45],[38.302,48.4664],[38.3139,48.5206],[38.2601,48.5443],[38.27,48.5736],[38.2537,48.6055],[38.2489,48.6674],[38.3065,48.7254],[38.2664,48.7327],[38.2966,48.7831],[38.2795,48.8392],[38.2311,48.8543],[38.2101,48.9239],[38.0578,48.9371],[38.01,48.9543],[38.0159,48.9716],[38.0773,48.9982],[38.041,49.07],[38.0621,49.0906],[38.0705,49.1481],[38.0207,49.1523],[37.9713,49.1315],[37.8953,49.1563],[37.8837,49.1641],[37.8913,49.1845],[37.9336,49.1996],[37.8473,49.2317],[37.8982,49.2583],[37.9291,49.2909],[37.9187,49.307],[37.8851,49.3131],[37.8857,49.3901],[37.8607,49.4227],[37.8759,49.4425],[37.9105,49.4547],[37.9287,49.4997],[37.9632,49.5201],[37.9532,49.551],[37.9632,49.5665],[37.9445,49.5968],[38.0011,49.6606],[37.9983,49.7155],[37.946,49.7148],[37.94,49.7269],[37.9687,49.7527],[38.0048,49.7505],[38.0452,49.7848],[38.0,49.8226],[38.0801,49.8431],[38.0435,49.8694],[38.0229,49.9091],[38.0792,49.9299],[38.119,49.9192],[38.1662,49.9406],[38.1739,50.0602],[38.2999,50.0605],[38.356,49.9806],[38.4975,49.9482],[38.6195,49.9508],[38.6646,49.9652],[38.6873,49.9138],[38.7478,49.8854],[38.8522,49.8658],[38.9374,49.8035],[39.0491,49.8106],[39.1171,49.8644],[39.1558,49.8736],[39.1828,49.8585],[39.2609,49.7445],[39.3277,49.7263],[39.4436,49.7495],[39.4991,49.7281],[39.5575,49.724],[39.6229,49.6135],[39.7292,49.5808],[39.8015,49.5422],[39.8894,49.5533],[39.9981,49.6082],[40.1307,49.5798],[40.1261,49.5591],[40.0543,49.5198],[40.0349,49.4871],[40.062,49.4258],[40.1595,49.3336],[40.1417,49.2458],[40.0384,49.1685],[39.9521,49.1245],[39.9309,49.1006],[39.9187,49.0478],[39.6811,49.0203],[39.674,48.9701],[39.726,48.937],[39.7587,48.8954],[39.9082,48.8784],[39.9504,48.8528],[40.0089,48.8878],[40.0538,48.8692],[40.0387,48.83],[39.9753,48.7897],[39.935,48.7867],[39.8242,48.8156],[39.7794,48.8077],[39.7363,48.7615],[39.7029,48.7466],[39.6317,48.5869],[39.6901,48.5937],[39.8353,48.5735],[39.8551,48.5561],[39.8695,48.5099],[39.8421,48.4991],[39.8447,48.4835],[39.8648,48.4698],[39.9241,48.3761],[39.8159,48.3082],[39.8848,48.279],[39.9574,48.2934],[39.9932,48.2732],[39.9776,48.2355],[39.8937,48.183],[39.8431,48.1198],[39.829,48.0768],[39.843,48.0364],[39.7788,48.0292],[39.7599,48.015],[39.7962,47.9614],[39.777,47.9137],[39.7756,47.858],[39.7338,47.816],[39.7008,47.8115],[39.57,47.8309],[39.3916,47.8226],[39.3197,47.846],[39.1135,47.8286],[39.0362,47.857]]]}},{"type":"Feature","id":"Lviv","properties":{"id":"Lviv","iso_code":"UA-46","name":"Lviv","name_full":"Lviv","name_ja":"リヴィウ州","center_lonlat":[23.9092,49.7137]},"geometry":{"type":"Polygon","coordinates":[[[24.1082,50.6303],[24.1259,50.6418],[24.1647,50.6402],[24.1709,50.6215],[24.2179,50.5892],[24.2589,50.5756],[24.3585,50.6097],[24.3976,50.5889],[24.4054,50.5674],[24.4343,50.549],[24.5008,50.5455],[24.5357,50.5183],[24.5354,50.5001],[24.4504,50.4698],[24.5038,50.4358],[24.5086,50.4079],[24.5418,50.4109],[24.5582,50.4385],[24.5835,50.4188],[24.6342,50.4134],[24.6394,50.3974],[24.6985,50.3702],[24.7052,50.3496],[24.7238,50.3437],[24.924,50.3495],[24.9319,50.3702],[25.0039,50.3457],[25.0438,50.3489],[25.0638,50.3345],[25.0635,50.2948],[25.1041,50.2794],[25.1634,50.2944],[25.1957,50.288],[25.2075,50.2501],[25.165,50.2172],[25.1926,50.187],[25.184,50.1401],[25.1932,50.1027],[25.3676,50.0131],[25.4336,49.9454],[25.3932,49.927],[25.3898,49.8801],[25.24,49.835],[25.0931,49.8157],[25.078,49.7799],[25.1068,49.7443],[25.1013,49.7253],[25.0667,49.7113],[25.0216,49.7176],[24.9482,49.6272],[24.7752,49.5634],[24.7334,49.5603],[24.707,49.4918],[24.6498,49.4971],[24.5723,49.5247],[24.4273,49.5067],[24.4133,49.4834],[24.4265,49.4495],[24.3833,49.3938],[24.4232,49.3664],[24.3696,49.3261],[24.2908,49.3139],[24.2819,49.301],[24.2998,49.2852],[24.3396,49.3036],[24.3629,49.2974],[24.3569,49.241],[24.4177,49.2352],[24.4462,49.2085],[24.4249,49.1854],[24.3555,49.1815],[24.1582,49.135],[24.0845,49.1456],[24.0033,49.1164],[23.9557,49.128],[23.9057,49.1072],[23.7548,49.1149],[23.6936,49.0946],[23.6416,49.0108],[23.5765,48.9686],[23.5484,48.8849],[23.5753,48.8339],[23.5329,48.7237],[23.3857,48.7343],[23.3505,48.772],[23.3085,48.7502],[23.2982,48.7812],[23.2016,48.7771],[23.1123,48.8701],[22.9821,48.859],[22.8954,48.9293],[22.8893,48.9588],[22.9013,48.9914],[22.865,49.0132],[22.8432,49.0431],[22.8534,49.0848],[22.8413,49.0949],[22.7057,49.1688],[22.6817,49.1612],[22.7378,49.2754],[22.7198,49.383],[22.6796,49.4189],[22.6409,49.5288],[22.6658,49.5674],[22.7417,49.6337],[22.7662,49.6742],[22.8266,49.6974],[22.8882,49.7697],[22.9331,49.7911],[22.9512,49.8266],[23.1015,49.9571],[23.4364,50.1935],[23.5653,50.2578],[23.6442,50.3127],[23.6957,50.3768],[23.7475,50.3894],[23.9287,50.3908],[23.9813,50.4048],[24.0078,50.4485],[24.0107,50.4928],[24.075,50.5143],[24.1065,50.5386],[24.0853,50.6044],[24.1082,50.6303]]]}},{"type":"Feature","id":"Mykolaiv","properties":{"id":"Mykolaiv","iso_code":"UA-48","name":"Mykolaiv","name_full":"Mykolaiv","name_ja":"ムィコラーイウ州","center_lonlat":[31.7818,47.4522]},"geometry":{"type":"MultiPolygon","coordinates":[[[[31.9649,46.7221],[31.9403,46.7589],[31.9362,46.8004],[32.0025,46.8955],[32.0067,46.9305],[31.9359,46.9548],[31.9769,47.0093],[31.8811,47.015],[31.8652,47.0264],[31.8968,47.0927],[31.8823,47.1186],[31.8456,47.134],[31.8306,47.1868],[31.7577,47.2162],[31.7521,47.2558],[31.7417,47.2591],[31.7206,47.2319],[31.7268,47.2205],[31.8062,47.1927],[31.8163,47.1809],[31.8156,47.1226],[31.8743,47.0938],[31.8447,47.0537],[31.8374,47.0085],[31.9471,46.9991],[31.8994,46.9438],[31.9077,46.9265],[31.9256,46.9229],[31.9683,46.937],[31.9728,46.9154],[31.9451,46.8595],[31.8986,46.8429],[31.8648,46.8066],[31.8652,46.78],[31.9067,46.7382],[31.8994,46.6496],[31.8147,46.623],[31.6741,46.6532],[31.5972,46.6432],[31.5789,46.6173],[31.485,46.6323],[31.4909,46.6634],[31.5598,46.7589],[31.6182,46.8135],[31.6061,46.8264],[31.584,46.7936],[31.5083,46.7452],[31.4407,46.8005],[31.4558,46.7546],[31.5059,46.7204],[31.4162,46.6291],[31.3377,46.6013],[31.1869,46.6291],[31.1622,46.8254],[31.0564,46.8974],[31.0315,46.9478],[31.0927,46.957],[31.1138,46.9754],[31.224,46.9774],[31.2602,47.0001],[31.2946,47.0505],[31.3042,47.1018],[31.2691,47.1104],[31.2235,47.1658],[31.1819,47.1577],[31.1164,47.1823],[31.1181,47.2069],[31.172,47.2406],[31.1537,47.2717],[31.0396,47.2509],[31.0106,47.2691],[30.9153,47.2767],[30.8339,47.4295],[30.8568,47.4998],[30.8716,47.5125],[30.8682,47.5435],[30.8315,47.5805],[30.7857,47.5866],[30.7799,47.6337],[30.7198,47.6231],[30.6948,47.5879],[30.6658,47.6256],[30.5929,47.6375],[30.5497,47.6176],[30.5266,47.6276],[30.4759,47.6221],[30.4203,47.6484],[30.4015,47.6869],[30.4138,47.7197],[30.3784,47.7517],[30.3994,47.7723],[30.3946,47.7922],[30.3314,47.8211],[30.2955,47.9496],[30.216,47.9988],[30.2262,48.0477],[30.2105,48.0678],[30.3153,48.093],[30.2954,48.1135],[30.2931,48.1357],[30.3305,48.1363],[30.3475,48.1636],[30.5018,48.1636],[30.6199,48.145],[30.6452,48.1666],[30.7161,48.1825],[30.789,48.1778],[30.817,48.1591],[30.8632,48.1857],[30.8851,48.161],[30.9127,48.1576],[30.9761,48.1817],[31.007,48.2112],[31.0626,48.221],[31.1835,48.208],[31.1898,48.1715],[31.2282,48.1589],[31.2311,48.1316],[31.2503,48.1209],[31.3439,48.1118],[31.3843,48.1249],[31.4145,48.1077],[31.5037,48.1181],[31.5126,48.103],[31.4997,48.0639],[31.5118,48.0551],[31.5254,48.0585],[31.5337,48.0868],[31.5849,48.0862],[31.5913,48.1096],[31.6166,48.1187],[31.6986,48.0938],[31.7525,48.0975],[31.7722,48.0666],[31.7693,48.047],[31.7081,48.0198],[31.7682,47.9526],[31.8212,47.9452],[31.8634,47.8944],[31.866,47.8804],[31.8391,47.846],[31.8569,47.7977],[31.9553,47.7958],[31.975,47.8119],[32.0218,47.8098],[32.0683,47.7898],[32.0999,47.7584],[32.1387,47.7475],[32.1691,47.7577],[32.2344,47.8204],[32.2875,47.8225],[32.3429,47.7962],[32.3809,47.8013],[32.467,47.7811],[32.6446,47.8006],[32.652,47.8373],[32.6823,47.8459],[32.6627,47.9003],[32.7158,47.9152],[32.7147,47.9297],[32.6834,47.9399],[32.6897,47.9653],[32.7776,47.9893],[32.8293,47.9667],[32.8444,47.9862],[32.8828,47.994],[32.882,48.0255],[32.8941,48.035],[32.9793,48.0428],[33.0145,47.9992],[33.0157,47.9775],[33.0353,47.9665],[33.0461,47.9602],[33.0317,47.9197],[33.0828,47.8959],[33.0608,47.8309],[33.0603,47.7756],[33.0877,47.7372],[32.9838,47.71],[33.0207,47.6426],[32.9921,47.5987],[33.0893,47.5829],[33.0893,47.548],[33.1186,47.5237],[33.1112,47.5031],[33.1301,47.4226],[33.0851,47.4153],[33.0589,47.4522],[33.0261,47.4087],[33.0427,47.3901],[33.0963,47.3849],[33.1206,47.3494],[33.1051,47.2724],[33.1361,47.2243],[33.1206,47.2024],[33.0839,47.2089],[33.0359,47.1779],[32.9762,47.1868],[32.915,47.1035],[32.9218,47.0773],[33.0136,47.0511],[33.0617,47.0153],[33.025,46.9699],[32.9749,47.0002],[32.9512,46.9857],[32.9571,46.9536],[33.0055,46.9502],[33.0102,46.9362],[32.959,46.925],[32.9243,46.9027],[32.807,46.8823],[32.8265,46.868],[32.9408,46.8619],[32.8283,46.8279],[32.7086,46.8238],[32.6407,46.8596],[32.5426,46.8742],[32.5226,46.8331],[32.4697,46.8314],[32.4443,46.8471],[32.3893,46.8395],[32.3432,46.7946],[32.2349,46.8093],[32.1716,46.7467],[32.1122,46.7352],[32.072,46.7468],[31.9649,46.7221]]],[[[31.8163,46.483],[31.7485,46.4999],[31.7107,46.4954],[31.6865,46.4709],[31.6865,46.4299],[31.6636,46.4721],[31.5244,46.5642],[31.5083,46.5876],[31.5816,46.5452],[31.7564,46.5543],[31.8517,46.522],[31.8163,46.483]]]]}},{"type":"Feature","id":"Odessa","properties":{"id":"Odessa","iso_code":"UA-51","name":"Odessa","name_full":"Odessa","name_ja":"オデッサ州","center_lonlat":[30.5617,46.734]},"geometry":{"type":"MultiPolygon","coordinates":[[[[28.8621,48.0005],[28.9642,48.0358],[29.0461,48.0831],[29.0424,48.1316],[29.0783,48.1445],[29.2463,48.0845],[29.3384,48.0862],[29.4497,48.1135],[29.5104,48.0904],[29.675,48.0903],[29.6982,48.1317],[29.6666,48.1731],[29.7748,48.2031],[29.8259,48.2101],[29.8822,48.18],[29.9241,48.2216],[29.9594,48.2096],[29.9968,48.221],[30.0478,48.1552],[30.0835,48.1437],[30.2931,48.1357],[30.2954,48.1135],[30.3153,48.093],[30.2105,48.0678],[30.2262,48.0477],[30.216,47.9988],[30.2955,47.9496],[30.3314,47.8211],[30.3946,47.7922],[30.3994,47.7723],[30.3784,47.7517],[30.4138,47.7197],[30.4015,47.6869],[30.4203,47.6484],[30.4759,47.6221],[30.5266,47.6276],[30.5497,47.6176],[30.5929,47.6375],[30.6658,47.6256],[30.6948,47.5879],[30.7198,47.6231],[30.7799,47.6337],[30.7857,47.5866],[30.8315,47.5805],[30.8682,47.5435],[30.8716,47.5125],[30.8568,47.4998],[30.8339,47.4295],[30.9153,47.2767],[31.0106,47.2691],[31.0396,47.2509],[31.1537,47.2717],[31.172,47.2406],[31.1181,47.2069],[31.1164,47.1823],[31.1819,47.1577],[31.2235,47.1658],[31.2691,47.1104],[31.3042,47.1018],[31.2946,47.0505],[31.2602,47.0001],[31.224,46.9774],[31.1138,46.9754],[31.0927,46.957],[31.0315,46.9478],[31.0564,46.8974],[31.1622,46.8254],[31.1869,46.6291],[30.9914,46.6013],[30.867,46.5558],[30.7907,46.5529],[30.7549,46.5159],[30.7982,46.4464],[30.7725,46.3964],[30.7145,46.348],[30.6519,46.3445],[30.6865,46.32],[30.6824,46.2995],[30.5619,46.1617],[30.5233,46.1338],[30.4942,46.0805],[30.3713,45.998],[30.2614,45.8955],[30.1384,45.8198],[30.1275,45.8913],[30.1106,45.8751],[30.0946,45.8148],[30.0612,45.8135],[29.9907,45.8471],[29.9685,45.8389],[29.9529,45.772],[29.9324,45.7924],[29.9391,45.8105],[29.9263,45.8138],[29.9177,45.7829],[29.9393,45.7515],[29.9324,45.7242],[29.8877,45.7651],[29.874,45.7515],[29.8024,45.7375],[29.8032,45.7042],[29.843,45.6907],[29.8601,45.6689],[29.8096,45.6486],[29.7891,45.6553],[29.7891,45.6354],[29.7337,45.6143],[29.724,45.6674],[29.6826,45.6968],[29.6792,45.7515],[29.6939,45.7813],[29.6382,45.8263],[29.6314,45.8135],[29.6519,45.789],[29.6239,45.7515],[29.6375,45.7099],[29.6032,45.6913],[29.5897,45.5591],[29.6484,45.5454],[29.707,45.5733],[29.6057,45.4782],[29.6408,45.4418],[29.6519,45.443],[29.656,45.4742],[29.6724,45.4771],[29.6753,45.4496],[29.7022,45.4566],[29.7132,45.4362],[29.7323,45.4757],[29.7546,45.4473],[29.7478,45.4143],[29.7277,45.4157],[29.7502,45.3858],[29.7549,45.3127],[29.7297,45.2377],[29.7088,45.2233],[29.659,45.2159],[29.6723,45.2729],[29.6503,45.3461],[29.5697,45.395],[29.3221,45.4438],[29.2818,45.4223],[29.2282,45.4237],[29.1743,45.389],[28.9737,45.3237],[28.9528,45.2851],[28.9299,45.2791],[28.8318,45.3223],[28.7897,45.3214],[28.7902,45.2921],[28.7597,45.2742],[28.7673,45.2578],[28.8027,45.2442],[28.7787,45.2311],[28.7101,45.227],[28.577,45.2481],[28.3302,45.3229],[28.2812,45.4018],[28.2864,45.4217],[28.2669,45.4405],[28.1995,45.4618],[28.2172,45.4932],[28.2704,45.5215],[28.4168,45.5038],[28.502,45.5087],[28.4982,45.5587],[28.5369,45.5798],[28.5113,45.635],[28.474,45.6579],[28.5152,45.702],[28.5614,45.7166],[28.5606,45.7432],[28.5767,45.7619],[28.6698,45.7773],[28.6698,45.812],[28.7383,45.8376],[28.7464,45.8706],[28.7284,45.922],[28.7402,45.9532],[28.9569,46.0014],[28.9388,46.0893],[29.0154,46.1826],[29.0098,46.2044],[28.9335,46.259],[28.9449,46.3207],[28.9192,46.4047],[28.9458,46.4548],[29.0203,46.4895],[29.1842,46.538],[29.2068,46.5025],[29.2056,46.4061],[29.1834,46.3776],[29.2007,46.3571],[29.2833,46.3974],[29.2891,46.4516],[29.3067,46.472],[29.3621,46.4159],[29.3747,46.4162],[29.4576,46.4847],[29.4864,46.4759],[29.4733,46.4398],[29.4809,46.4252],[29.5414,46.413],[29.583,46.3697],[29.6156,46.3618],[29.6455,46.3756],[29.6544,46.4227],[29.7029,46.4283],[29.7141,46.4712],[29.8003,46.3984],[29.8082,46.3547],[29.8281,46.3394],[29.9187,46.3737],[30.0811,46.3742],[30.1316,46.4228],[30.077,46.4228],[30.0141,46.462],[30.0217,46.4707],[30.0028,46.4942],[29.9706,46.4917],[29.9019,46.5308],[29.8988,46.5531],[29.9381,46.5573],[29.9497,46.5789],[29.9313,46.6192],[29.9511,46.7431],[29.9318,46.7724],[29.9282,46.8098],[29.8896,46.8072],[29.8722,46.8377],[29.8436,46.8541],[29.7541,46.858],[29.6962,46.9047],[29.6319,46.9144],[29.5587,46.9457],[29.5725,47.0118],[29.5954,47.0321],[29.6021,47.061],[29.5702,47.0914],[29.5514,47.0902],[29.5201,47.0599],[29.4779,47.1115],[29.5448,47.1356],[29.544,47.2343],[29.5802,47.2604],[29.5566,47.324],[29.521,47.3389],[29.4809,47.3383],[29.4592,47.2935],[29.4096,47.2798],[29.3676,47.3082],[29.3458,47.3658],[29.3008,47.3782],[29.2814,47.4115],[29.2326,47.4463],[29.2019,47.4466],[29.1821,47.4299],[29.1556,47.45],[29.1174,47.5333],[29.1821,47.6132],[29.197,47.7175],[29.2386,47.756],[29.222,47.7748],[29.1778,47.7897],[29.1867,47.8182],[29.236,47.8707],[29.1726,47.891],[29.148,47.9554],[29.124,47.976],[29.061,47.9698],[29.0172,47.9311],[28.9808,47.9264],[28.9148,47.9531],[28.8621,48.0005]]],[[[29.9187,45.6907],[30.0757,45.7924],[30.126,45.8115],[29.9081,45.6664],[29.8075,45.6143],[29.731,45.5914],[29.9187,45.6907]]]]}},{"type":"Feature","id":"Poltava","properties":{"id":"Poltava","iso_code":"UA-53","name":"Poltava","name_full":"Poltava","name_ja":"ポルタヴァ州","center_lonlat":[33.7743,49.7328]},"geometry":{"type":"Polygon","coordinates":[[[33.0615,50.5384],[33.194,50.5173],[33.2336,50.5403],[33.2848,50.546],[33.3401,50.5252],[33.645,50.4855],[33.7306,50.4617],[33.8416,50.4821],[33.8062,50.5074],[33.8982,50.5326],[33.971,50.4934],[34.0549,50.4707],[34.0705,50.4947],[34.1136,50.4937],[34.1217,50.5138],[34.2124,50.5424],[34.2525,50.5296],[34.2585,50.4357],[34.3758,50.3493],[34.3622,50.3134],[34.3691,50.273],[34.3867,50.2627],[34.4263,50.272],[34.4587,50.2257],[34.5024,50.2033],[34.504,50.1754],[34.4595,50.1596],[34.4741,50.1081],[34.5363,50.1244],[34.6694,50.1155],[34.7049,50.1509],[34.7394,50.1382],[34.8143,50.1596],[34.9082,50.146],[34.9172,50.1324],[34.9132,50.0557],[34.8415,50.0],[34.869,49.9364],[34.9489,49.8915],[35.0086,49.8889],[35.103,49.8477],[35.1663,49.8512],[35.1911,49.832],[35.1984,49.7539],[35.2339,49.7279],[35.239,49.7045],[35.2769,49.6962],[35.2913,49.6793],[35.3545,49.6681],[35.3764,49.687],[35.4197,49.6863],[35.4287,49.6668],[35.4136,49.6569],[35.4163,49.6438],[35.4751,49.5604],[35.3906,49.5506],[35.4648,49.507],[35.4645,49.4944],[35.4249,49.481],[35.3568,49.4908],[35.3197,49.4805],[35.3165,49.455],[35.3514,49.4266],[35.3606,49.392],[35.2791,49.3198],[35.1885,49.292],[35.0902,49.2972],[35.0334,49.3202],[34.9729,49.2806],[34.953,49.2474],[34.9874,49.1892],[34.9839,49.1637],[34.9262,49.183],[34.8911,49.1483],[34.8674,49.1449],[34.8573,49.1496],[34.8708,49.1657],[34.8648,49.1734],[34.7841,49.1746],[34.7265,49.146],[34.4083,49.0765],[34.4028,49.0501],[34.3445,49.0085],[34.3679,48.9911],[34.3082,48.971],[34.2777,48.9223],[34.2743,48.8912],[34.3088,48.8674],[34.3159,48.8396],[34.2759,48.81],[34.2938,48.7783],[34.2375,48.7463],[34.162,48.7844],[34.0402,48.8078],[33.9195,48.8658],[33.892,48.8917],[33.8074,48.9034],[33.7785,48.9225],[33.6946,48.9058],[33.6689,48.8691],[33.6516,48.8993],[33.597,48.9224],[33.5484,48.9019],[33.4251,48.9509],[33.401,48.9535],[33.3788,48.94],[33.2994,48.9955],[33.3186,49.0085],[33.3192,49.0256],[33.346,49.0327],[33.3416,49.044],[33.2971,49.0649],[33.2041,49.0709],[33.1493,49.1256],[33.0382,49.182],[32.7887,49.2618],[32.7893,49.3339],[32.7476,49.4061],[32.6759,49.4771],[32.7154,49.5252],[32.7544,49.5472],[32.7521,49.5938],[32.7108,49.62],[32.693,49.6716],[32.5715,49.7059],[32.5625,49.7666],[32.5297,49.7833],[32.5035,49.78],[32.4689,49.8066],[32.431,49.8052],[32.3727,49.8636],[32.3687,49.8875],[32.4071,49.8934],[32.4157,49.9675],[32.3812,49.987],[32.3294,50.0518],[32.2551,50.0628],[32.2306,50.1186],[32.2717,50.1314],[32.2697,50.1568],[32.2094,50.15],[32.1407,50.1823],[32.0946,50.2369],[32.0695,50.2387],[32.098,50.2667],[32.0949,50.2886],[32.1392,50.3501],[32.2236,50.3432],[32.2883,50.3892],[32.3759,50.4089],[32.407,50.3921],[32.477,50.4064],[32.5004,50.3717],[32.5263,50.3657],[32.7273,50.3579],[32.8784,50.3974],[32.9059,50.4295],[33.0092,50.48],[33.0615,50.5384]]]}},{"type":"Feature","id":"Rivne","properties":{"id":"Rivne","iso_code":"UA-56","name":"Rivne","name_full":"Rivne","name_ja":"リウネ州","center_lonlat":[26.3723,51.0394]},"geometry":{"type":"Polygon","coordinates":[[[25.5474,51.9194],[25.7679,51.9285],[26.0506,51.9048],[26.1753,51.8567],[26.4078,51.8506],[26.4198,51.8469],[26.4192,51.8209],[26.4456,51.8056],[26.6657,51.8014],[26.8548,51.7493],[26.9208,51.7425],[27.0216,51.7645],[27.1511,51.7568],[27.1779,51.7471],[27.189,51.6638],[27.2775,51.6511],[27.254,51.5954],[27.2675,51.5875],[27.409,51.5917],[27.4773,51.6237],[27.6927,51.5892],[27.7052,51.5684],[27.6661,51.4902],[27.5859,51.4723],[27.5768,51.4294],[27.6021,51.406],[27.6002,51.3918],[27.5439,51.4155],[27.52,51.441],[27.5021,51.4402],[27.4883,51.3753],[27.5095,51.3421],[27.4827,51.3168],[27.4167,51.3021],[27.4519,51.2531],[27.4491,51.2279],[27.3976,51.1922],[27.3582,51.142],[27.3496,51.0998],[27.2997,51.0472],[27.2232,51.0272],[27.1997,50.9959],[27.2364,50.9345],[27.216,50.9159],[27.2399,50.8904],[27.2253,50.8014],[27.2717,50.7374],[27.1935,50.622],[27.1969,50.6052],[27.2356,50.583],[27.1923,50.5412],[27.138,50.551],[27.1262,50.582],[27.0976,50.5866],[27.0722,50.5587],[26.9764,50.5192],[26.9015,50.5317],[26.8071,50.5009],[26.7966,50.4615],[26.7398,50.4649],[26.703,50.4141],[26.6501,50.3844],[26.6431,50.359],[26.4799,50.2536],[26.3835,50.2441],[26.3034,50.1755],[26.2332,50.1523],[26.2304,50.1824],[26.2018,50.2091],[26.231,50.2486],[26.2218,50.2617],[26.1606,50.2415],[26.0713,50.2647],[26.022,50.2534],[25.9472,50.2645],[25.809,50.1792],[25.6758,50.1706],[25.6359,50.1508],[25.6069,50.1609],[25.5667,50.1408],[25.4534,50.1627],[25.4415,50.1323],[25.4671,50.1052],[25.4163,50.0692],[25.4107,50.028],[25.3748,50.0355],[25.3676,50.0131],[25.1932,50.1027],[25.184,50.1401],[25.1926,50.187],[25.165,50.2172],[25.2075,50.2501],[25.1957,50.288],[25.1634,50.2944],[25.1041,50.2794],[25.0635,50.2948],[25.2036,50.3807],[25.0918,50.4618],[25.1368,50.4681],[25.1684,50.5004],[25.1232,50.5274],[25.1325,50.5488],[25.2866,50.543],[25.3055,50.5634],[25.2899,50.614],[25.3838,50.6149],[25.3525,50.632],[25.3634,50.6789],[25.4486,50.6547],[25.6029,50.7069],[25.6556,50.707],[25.6885,50.6945],[25.7123,50.6648],[25.8328,50.6332],[25.8696,50.6969],[25.8755,50.7926],[25.943,50.8259],[25.9883,50.8243],[26.0032,50.8346],[25.9658,50.8578],[26.0142,50.9033],[26.0111,50.9175],[25.9754,50.9407],[25.979,50.9525],[26.0679,50.9668],[26.0958,50.9852],[26.0739,51.0371],[26.0413,51.0663],[26.0127,51.0731],[25.9797,51.0637],[25.9467,51.0752],[25.9525,51.1141],[26.0476,51.136],[26.0606,51.1533],[26.0594,51.1811],[26.0054,51.2158],[25.9289,51.2396],[25.8618,51.2847],[25.8524,51.3069],[25.8165,51.3199],[25.8075,51.3321],[25.8203,51.3843],[25.7726,51.3704],[25.7388,51.3887],[25.7007,51.3622],[25.6312,51.3667],[25.583,51.3327],[25.5557,51.3493],[25.5661,51.4577],[25.5515,51.5254],[25.6029,51.5819],[25.5579,51.6125],[25.5116,51.6181],[25.5099,51.6987],[25.5237,51.7248],[25.6384,51.8168],[25.6309,51.8721],[25.6626,51.8906],[25.5639,51.897],[25.5474,51.9194]]]}},{"type":"Feature","id":"Sumy","properties":{"id":"Sumy","iso_code":"UA-59","name":"Sumy","name_full":"Sumy","name_ja":"スームィ州","center_lonlat":[34.1046,51.0977]},"geometry":{"type":"Polygon","coordinates":[[[35.6922,50.3442],[35.6811,50.3241],[35.6625,50.3187],[35.5007,50.3215],[35.5025,50.3003],[35.3973,50.3324],[35.3854,50.2936],[35.3208,50.302],[35.3059,50.2896],[35.3089,50.2764],[35.2526,50.2689],[35.2498,50.2385],[35.206,50.2317],[35.1279,50.2432],[35.093,50.2085],[35.0513,50.2095],[35.0303,50.1718],[34.9753,50.192],[34.9509,50.1622],[34.9082,50.146],[34.8143,50.1596],[34.7394,50.1382],[34.7049,50.1509],[34.6694,50.1155],[34.5363,50.1244],[34.4741,50.1081],[34.4595,50.1596],[34.504,50.1754],[34.5024,50.2033],[34.4587,50.2257],[34.4263,50.272],[34.3867,50.2627],[34.3691,50.273],[34.3622,50.3134],[34.3758,50.3493],[34.2585,50.4357],[34.2525,50.5296],[34.2124,50.5424],[34.1217,50.5138],[34.1136,50.4937],[34.0705,50.4947],[34.0549,50.4707],[33.971,50.4934],[33.8982,50.5326],[33.8062,50.5074],[33.8416,50.4821],[33.7306,50.4617],[33.645,50.4855],[33.3401,50.5252],[33.2848,50.546],[33.2336,50.5403],[33.194,50.5173],[33.0615,50.5384],[33.1047,50.6252],[33.1029,50.664],[33.1241,50.6756],[33.1306,50.7101],[33.167,50.743],[33.1251,50.7769],[33.1225,50.8135],[33.1475,50.8812],[33.1839,50.9176],[33.185,50.9675],[33.1555,50.9974],[33.2069,51.0484],[33.1733,51.0601],[33.1419,51.0256],[33.0839,51.0324],[33.044,51.0492],[33.0625,51.0763],[32.9395,51.0973],[32.9704,51.1398],[32.9633,51.1783],[33.0235,51.1951],[33.0333,51.2335],[33.0702,51.2489],[33.0732,51.2884],[33.0494,51.3073],[33.0552,51.336],[33.0227,51.3442],[33.0016,51.3812],[33.021,51.3968],[33.0611,51.3678],[33.1152,51.3745],[33.1309,51.4215],[33.1082,51.4558],[33.1309,51.4798],[33.1227,51.5103],[33.166,51.4986],[33.1869,51.5159],[33.1526,51.5463],[33.1535,51.5651],[33.1819,51.5767],[33.1623,51.5945],[33.1565,51.6389],[33.1349,51.6578],[33.1532,51.6931],[33.0916,51.7336],[33.062,51.7929],[33.0889,51.8357],[33.1215,51.8508],[33.1425,51.8806],[33.1677,51.8846],[33.1607,51.9042],[33.2251,51.9057],[33.2722,51.9288],[33.3663,51.9467],[33.3746,51.969],[33.3528,51.9882],[33.3729,52.0098],[33.3793,52.0569],[33.4436,52.0454],[33.4831,52.0666],[33.4847,52.0849],[33.444,52.089],[33.3787,52.14],[33.3259,52.1529],[33.3178,52.2098],[33.3594,52.2483],[33.4006,52.3443],[33.4373,52.3392],[33.4805,52.3578],[33.4994,52.341],[33.493,52.3031],[33.5101,52.2875],[33.5317,52.2888],[33.6002,52.3308],[33.6879,52.3558],[33.8041,52.3546],[33.8391,52.3139],[33.9007,52.2859],[33.9578,52.2247],[34.0219,52.1979],[34.0653,52.1586],[34.0739,52.1283],[34.0567,52.1058],[34.0626,52.0502],[34.1011,51.9925],[34.0962,51.9518],[34.1664,51.9423],[34.2284,51.8993],[34.2342,51.8783],[34.2767,51.8812],[34.3857,51.8177],[34.4127,51.7777],[34.4142,51.7365],[34.3763,51.7086],[34.128,51.6807],[34.0891,51.6666],[34.0795,51.6431],[34.1401,51.6212],[34.153,51.584],[34.2237,51.5148],[34.2171,51.4171],[34.187,51.4083],[34.1859,51.3942],[34.2473,51.3634],[34.3002,51.3684],[34.3087,51.3346],[34.2836,51.3012],[34.186,51.2489],[34.2818,51.2264],[34.3718,51.2568],[34.5135,51.2296],[34.6084,51.234],[34.6428,51.1806],[34.6749,51.1677],[34.8175,51.1747],[34.9461,51.2143],[34.9994,51.2021],[35.0787,51.2076],[35.0992,51.1832],[35.1436,51.0585],[35.1726,51.0406],[35.3087,51.0473],[35.3551,51.0256],[35.3326,50.9999],[35.2781,50.9927],[35.2822,50.9543],[35.3417,50.9159],[35.3414,50.8765],[35.3777,50.8337],[35.3791,50.7972],[35.4385,50.7624],[35.4454,50.6875],[35.4689,50.6685],[35.3762,50.6346],[35.4253,50.5005],[35.4464,50.476],[35.5408,50.45],[35.5702,50.3765],[35.5922,50.3605],[35.6521,50.3411],[35.6922,50.3442]]]}},{"type":"Feature","id":"Ternopil","properties":{"id":"Ternopil","iso_code":"UA-61","name":"Ternopil","name_full":"Ternopil","name_ja":"テルノーピリ州","center_lonlat":[25.6473,49.4001]},"geometry":{"type":"Polygon","coordinates":[[[26.2332,50.1523],[26.2066,50.1414],[26.2732,50.1134],[26.2598,50.0943],[26.2052,50.0863],[26.2319,50.0592],[26.1964,50.023],[26.2325,50.0112],[26.2338,49.9987],[26.1504,49.9614],[26.1657,49.9268],[26.1571,49.8938],[26.1926,49.8661],[26.1868,49.8219],[26.2335,49.779],[26.2308,49.7343],[26.2055,49.6963],[26.2538,49.6576],[26.2209,49.6166],[26.2087,49.5669],[26.168,49.5484],[26.1484,49.5165],[26.195,49.4191],[26.2291,49.397],[26.2344,49.3195],[26.258,49.2899],[26.2453,49.2444],[26.2078,49.2273],[26.1984,49.1849],[26.2208,49.1517],[26.2109,49.1191],[26.2315,49.0745],[26.1995,49.0413],[26.2212,49.0007],[26.1992,48.9885],[26.2041,48.9654],[26.1888,48.9569],[26.2023,48.935],[26.1925,48.906],[26.2229,48.8972],[26.2172,48.8373],[26.2642,48.8082],[26.2414,48.8005],[26.2285,48.7792],[26.2513,48.7524],[26.2373,48.6799],[26.2819,48.6616],[26.285,48.6412],[26.3163,48.6428],[26.3067,48.6056],[26.3715,48.5736],[26.354,48.5616],[26.3805,48.5171],[26.3266,48.5116],[26.2567,48.5334],[26.1809,48.5267],[26.1495,48.5396],[26.1458,48.5964],[26.1331,48.6092],[26.1023,48.6066],[26.1058,48.5809],[26.1297,48.5546],[26.1172,48.5419],[26.0798,48.5473],[26.0526,48.5717],[26.0623,48.6283],[26.0491,48.6477],[26.0334,48.6434],[26.0198,48.6161],[25.9856,48.6235],[25.9602,48.5964],[25.9116,48.5881],[25.863,48.6008],[25.8596,48.6187],[25.7935,48.6701],[25.7423,48.6297],[25.7151,48.6645],[25.6362,48.6781],[25.6463,48.6973],[25.6276,48.7183],[25.6401,48.745],[25.6294,48.7601],[25.4611,48.8253],[25.45,48.8358],[25.4711,48.8625],[25.4404,48.8699],[25.4308,48.8494],[25.4144,48.8469],[25.3561,48.8546],[25.3541,48.8139],[25.3277,48.8147],[25.251,48.7752],[25.239,48.8011],[25.2501,48.8177],[25.3277,48.842],[25.2501,48.8594],[25.2253,48.842],[25.2267,48.8868],[25.2458,48.9314],[25.1974,48.9177],[25.1656,48.8655],[25.123,48.9076],[25.1297,48.9344],[25.1196,48.9514],[25.067,48.9725],[24.9926,48.9696],[24.9503,49.0208],[24.8976,49.0398],[24.9036,49.0611],[24.9856,49.0517],[24.9927,49.0642],[24.9816,49.0992],[24.9171,49.1227],[24.8802,49.1112],[24.86,49.1194],[24.8512,49.1753],[24.879,49.1983],[24.8791,49.2294],[24.867,49.2502],[24.8383,49.2622],[24.8234,49.3138],[24.8329,49.3396],[24.8041,49.3889],[24.707,49.4918],[24.7334,49.5603],[24.7752,49.5634],[24.9482,49.6272],[25.0216,49.7176],[25.0667,49.7113],[25.1013,49.7253],[25.1068,49.7443],[25.078,49.7799],[25.0931,49.8157],[25.24,49.835],[25.3898,49.8801],[25.3932,49.927],[25.4336,49.9454],[25.3676,50.0131],[25.3748,50.0355],[25.4107,50.028],[25.4163,50.0692],[25.4671,50.1052],[25.4415,50.1323],[25.4534,50.1627],[25.5667,50.1408],[25.6069,50.1609],[25.6359,50.1508],[25.6758,50.1706],[25.809,50.1792],[25.9472,50.2645],[26.022,50.2534],[26.0713,50.2647],[26.1606,50.2415],[26.2218,50.2617],[26.231,50.2486],[26.2018,50.2091],[26.2304,50.1824],[26.2332,50.1523]]]}},{"type":"Feature","id":"Vinnytsia","properties":{"id":"Vinnytsia","iso_code":"UA-05","name":"Vinnytsia","name_full":"Vinnytsia","name_ja":"ヴィーンヌィツャ州","center_lonlat":[28.6894,48.9056]},"geometry":{"type":"Polygon","coordinates":[[[27.5038,48.4724],[27.4382,48.6025],[27.3704,48.6297],[27.3993,48.7085],[27.3962,48.7609],[27.4261,48.7737],[27.4032,48.8152],[27.3988,48.8764],[27.3721,48.9301],[27.3984,48.957],[27.3806,48.9918],[27.4448,49.0643],[27.4707,49.0759],[27.4893,49.1177],[27.5737,49.1225],[27.6157,49.1599],[27.7726,49.1164],[27.8106,49.1418],[27.8877,49.1588],[27.8792,49.2066],[27.8553,49.2416],[27.8773,49.2769],[27.8521,49.3049],[27.8515,49.3308],[27.8192,49.3412],[27.8033,49.379],[27.844,49.3961],[27.8395,49.4163],[27.826,49.4299],[27.7431,49.4365],[27.7419,49.4551],[27.7635,49.4696],[27.7243,49.4999],[27.7321,49.5262],[27.7678,49.5243],[27.7843,49.5361],[27.7672,49.5666],[27.8156,49.6309],[27.7506,49.6832],[27.769,49.7044],[27.8218,49.7084],[27.8366,49.7257],[27.8134,49.741],[27.8501,49.7451],[27.868,49.7601],[28.0581,49.7627],[28.2675,49.7882],[28.3534,49.7715],[28.3905,49.7771],[28.4309,49.8078],[28.519,49.8073],[28.571,49.7867],[28.6295,49.801],[28.7202,49.794],[28.7539,49.8349],[28.8033,49.8523],[28.8354,49.8814],[28.9096,49.8724],[28.91,49.8565],[28.9397,49.8311],[28.9423,49.788],[29.0045,49.7342],[28.9474,49.6785],[28.9957,49.6291],[28.9788,49.6038],[28.9929,49.5933],[29.2643,49.5845],[29.2818,49.6116],[29.3627,49.6189],[29.4117,49.648],[29.4472,49.6509],[29.5107,49.6403],[29.4963,49.5728],[29.5672,49.5281],[29.5647,49.506],[29.54,49.4878],[29.5696,49.4438],[29.5689,49.4216],[29.5001,49.3785],[29.5227,49.3262],[29.5895,49.3063],[29.6386,49.2475],[29.6877,49.2412],[29.6972,49.2273],[29.6747,49.2025],[29.7106,49.1828],[29.7011,49.1615],[29.7072,49.1317],[29.6749,49.1146],[29.6707,49.0852],[29.6095,49.0621],[29.5948,49.027],[29.6708,49.0014],[29.6727,48.9835],[29.6359,48.947],[29.7161,48.9144],[29.7224,48.897],[29.7003,48.8804],[29.7036,48.8675],[29.7453,48.8485],[29.7725,48.7693],[29.8463,48.7648],[29.884,48.7433],[29.8575,48.7177],[29.8591,48.6983],[29.9582,48.6553],[29.9636,48.6099],[30.0217,48.5336],[29.9588,48.4736],[29.9579,48.4593],[30.0369,48.4738],[30.0761,48.4551],[30.0388,48.4277],[29.9981,48.4221],[29.9401,48.3756],[29.917,48.4283],[29.8834,48.4326],[29.783,48.3569],[29.7754,48.3169],[29.7382,48.2701],[29.7864,48.2508],[29.7748,48.2031],[29.6666,48.1731],[29.6982,48.1317],[29.675,48.0903],[29.5104,48.0904],[29.4497,48.1135],[29.3384,48.0862],[29.2463,48.0845],[29.0783,48.1445],[29.0424,48.1316],[29.0461,48.0831],[28.9642,48.0358],[28.8621,48.0005],[28.8325,48.0248],[28.8059,48.1038],[28.7712,48.1245],[28.6656,48.1293],[28.5416,48.156],[28.5193,48.1491],[28.49,48.0655],[28.4796,48.0649],[28.4474,48.0828],[28.419,48.1222],[28.4369,48.1499],[28.4116,48.1707],[28.3886,48.1686],[28.3496,48.1297],[28.3174,48.1354],[28.3222,48.1632],[28.3634,48.191],[28.3682,48.2306],[28.3577,48.2386],[28.2945,48.2365],[28.217,48.2081],[28.1894,48.2231],[28.1785,48.2589],[28.0933,48.2374],[28.0787,48.2449],[28.0983,48.2841],[28.0764,48.3149],[27.9264,48.3394],[27.8648,48.3989],[27.7853,48.4416],[27.7518,48.452],[27.627,48.4513],[27.6069,48.4578],[27.6048,48.4841],[27.5038,48.4724]]]}},{"type":"Feature","id":"Volyn","properties":{"id":"Volyn","iso_code":"UA-07","name":"Volyn","name_full":"Volyn","name_ja":"ヴォルィーニ州","center_lonlat":[24.8528,51.1796]},"geometry":{"type":"Polygon","coordinates":[[[25.5474,51.9194],[25.5639,51.897],[25.6626,51.8906],[25.6309,51.8721],[25.6384,51.8168],[25.5237,51.7248],[25.5099,51.6987],[25.5116,51.6181],[25.5579,51.6125],[25.6029,51.5819],[25.5515,51.5254],[25.5661,51.4577],[25.5557,51.3493],[25.583,51.3327],[25.6312,51.3667],[25.7007,51.3622],[25.7388,51.3887],[25.7726,51.3704],[25.8203,51.3843],[25.8075,51.3321],[25.8165,51.3199],[25.8524,51.3069],[25.8618,51.2847],[25.9289,51.2396],[26.0054,51.2158],[26.0594,51.1811],[26.0606,51.1533],[26.0476,51.136],[25.9525,51.1141],[25.9467,51.0752],[25.9797,51.0637],[26.0127,51.0731],[26.0413,51.0663],[26.0739,51.0371],[26.0958,50.9852],[26.0679,50.9668],[25.979,50.9525],[25.9754,50.9407],[26.0111,50.9175],[26.0142,50.9033],[25.9658,50.8578],[26.0032,50.8346],[25.9883,50.8243],[25.943,50.8259],[25.8755,50.7926],[25.8696,50.6969],[25.8328,50.6332],[25.7123,50.6648],[25.6885,50.6945],[25.6556,50.707],[25.6029,50.7069],[25.4486,50.6547],[25.3634,50.6789],[25.3525,50.632],[25.3838,50.6149],[25.2899,50.614],[25.3055,50.5634],[25.2866,50.543],[25.1325,50.5488],[25.1232,50.5274],[25.1684,50.5004],[25.1368,50.4681],[25.0918,50.4618],[25.2036,50.3807],[25.0635,50.2948],[25.0638,50.3345],[25.0438,50.3489],[25.0039,50.3457],[24.9319,50.3702],[24.924,50.3495],[24.7238,50.3437],[24.7052,50.3496],[24.6985,50.3702],[24.6394,50.3974],[24.6342,50.4134],[24.5835,50.4188],[24.5582,50.4385],[24.5418,50.4109],[24.5086,50.4079],[24.5038,50.4358],[24.4504,50.4698],[24.5354,50.5001],[24.5357,50.5183],[24.5008,50.5455],[24.4343,50.549],[24.4054,50.5674],[24.3976,50.5889],[24.3585,50.6097],[24.2589,50.5756],[24.2179,50.5892],[24.1709,50.6215],[24.1647,50.6402],[24.1259,50.6418],[24.1082,50.6303],[24.0749,50.6902],[24.081,50.713],[24.0269,50.728],[24.0128,50.7433],[24.0259,50.767],[23.9743,50.7762],[23.9576,50.808],[23.9929,50.8362],[24.1005,50.835],[24.1309,50.8391],[24.1432,50.8564],[23.9793,50.9375],[23.9551,50.9836],[23.9117,51.0068],[23.9042,51.0627],[23.8545,51.1215],[23.8747,51.1361],[23.8636,51.1483],[23.7427,51.2163],[23.6873,51.2924],[23.6352,51.3047],[23.634,51.3393],[23.6839,51.3703],[23.6789,51.3941],[23.6976,51.4044],[23.6487,51.454],[23.6628,51.4802],[23.6148,51.4972],[23.6081,51.5112],[23.6287,51.5312],[23.5933,51.597],[23.6064,51.6181],[23.7497,51.6445],[23.8849,51.6199],[23.9413,51.5819],[23.9813,51.586],[24.2441,51.7182],[24.2723,51.7429],[24.3115,51.8276],[24.3908,51.88],[24.6398,51.8921],[24.7218,51.8823],[25.0027,51.9105],[25.138,51.9489],[25.352,51.9215],[25.5474,51.9194]]]}},{"type":"Feature","id":"Zakarpattia","properties":{"id":"Zakarpattia","iso_code":"UA-21","name":"Zakarpattia","name_full":"Zakarpattia","name_ja":"ザカルパッチャ州","center_lonlat":[23.2721,48.4007]},"geometry":{"type":"Polygon","coordinates":[[[22.865,49.0132],[22.9013,48.9914],[22.8893,48.9588],[22.8954,48.9293],[22.9821,48.859],[23.1123,48.8701],[23.2016,48.7771],[23.2982,48.7812],[23.3085,48.7502],[23.3505,48.772],[23.3857,48.7343],[23.5329,48.7237],[23.6124,48.7038],[23.693,48.6447],[23.7766,48.6421],[23.7915,48.5938],[23.9068,48.538],[23.9168,48.5154],[23.9074,48.4847],[23.9172,48.4744],[23.9524,48.4729],[24.0015,48.5001],[24.1293,48.5334],[24.1408,48.4753],[24.1324,48.414],[24.1511,48.3689],[24.1777,48.3546],[24.2566,48.3531],[24.3095,48.3874],[24.3357,48.3707],[24.3483,48.3375],[24.3849,48.3345],[24.4949,48.2666],[24.5432,48.2092],[24.5208,48.1668],[24.532,48.141],[24.6403,48.0568],[24.5882,47.9959],[24.5698,47.9373],[24.4092,47.9521],[24.3472,47.9209],[24.2093,47.8976],[24.0088,47.9612],[23.8552,47.9342],[23.8484,47.9497],[23.7801,47.9875],[23.7105,47.9851],[23.5632,48.0058],[23.5145,47.999],[23.4855,47.9742],[23.4608,47.9713],[23.3601,47.9931],[23.2314,48.0797],[23.1391,48.0981],[23.099,48.0712],[23.0631,48.0075],[23.0044,47.9831],[22.9241,48.0048],[22.9158,47.9592],[22.8776,47.9467],[22.8324,47.9789],[22.8616,48.0284],[22.8548,48.0473],[22.8014,48.091],[22.7457,48.1163],[22.6055,48.097],[22.5558,48.1772],[22.4814,48.2426],[22.3571,48.2431],[22.3081,48.2937],[22.2913,48.3576],[22.2568,48.3573],[22.2718,48.4035],[22.202,48.4182],[22.1328,48.4048],[22.1338,48.4768],[22.1483,48.5088],[22.1387,48.5696],[22.219,48.6209],[22.2432,48.6512],[22.3103,48.6817],[22.3308,48.7564],[22.3657,48.7944],[22.3689,48.8565],[22.4118,48.8878],[22.449,48.9714],[22.5205,48.9929],[22.5396,49.0722],[22.5607,49.0855],[22.6429,49.0432],[22.7553,49.0447],[22.8553,48.994],[22.865,49.0132]]]}},{"type":"Feature","id":"Zaporizhzhia","properties":{"id":"Zaporizhzhia","iso_code":"UA-23","name":"Zaporizhzhia","name_full":"Zaporizhzhia","name_ja":"ザポリージャ州","center_lonlat":[35.6914,47.2666]},"geometry":{"type":"Polygon","coordinates":[[[35.2795,46.2551],[35.2648,46.2605],[35.3421,46.3358],[35.346,46.361],[35.3115,46.3376],[35.2676,46.3511],[35.2586,46.3734],[35.2845,46.4374],[35.2146,46.4626],[35.1883,46.5124],[35.1667,46.4931],[35.202,46.4405],[35.2095,46.3964],[35.1051,46.2951],[35.0596,46.306],[35.0601,46.3845],[35.0294,46.4648],[34.9237,46.5003],[34.8538,46.5002],[34.8665,46.5306],[34.8576,46.5417],[34.7622,46.5472],[34.7221,46.599],[34.7444,46.6299],[34.7327,46.6623],[34.6313,46.689],[34.6303,46.7134],[34.6834,46.7222],[34.718,46.7448],[34.7427,46.7783],[34.7475,46.8117],[34.7943,46.8269],[34.7965,46.8395],[34.7844,46.8672],[34.7427,46.8818],[34.722,46.9265],[34.6084,46.9592],[34.5921,46.9982],[34.5597,47.0116],[34.5405,47.0997],[34.5096,47.1133],[34.4992,47.1414],[34.4917,47.2223],[34.5046,47.2465],[34.4751,47.2737],[34.4796,47.2939],[34.5065,47.3139],[34.4199,47.3102],[34.3891,47.2735],[34.2984,47.2721],[34.2037,47.4784],[34.4459,47.5229],[34.5946,47.5686],[34.8326,47.5259],[34.9161,47.5309],[34.9298,47.5708],[34.8953,47.5973],[34.9444,47.7462],[34.8863,47.7601],[34.9019,47.8308],[34.8081,47.8775],[34.8198,47.9067],[34.9073,47.9344],[34.9163,47.9472],[34.9084,47.9667],[34.857,47.9784],[34.8422,48.0066],[34.8134,48.0155],[34.8402,48.0413],[34.8465,48.0773],[34.8359,48.1086],[34.8514,48.1227],[34.8699,48.1193],[34.8731,48.0903],[34.886,48.0809],[34.9431,48.081],[35.0174,48.1166],[35.1181,48.1291],[35.1646,48.1191],[35.2546,48.1297],[35.34,48.104],[35.5148,48.0794],[35.6043,48.1163],[35.6741,48.127],[35.7323,48.0959],[35.7862,48.0878],[35.8089,48.0668],[35.9592,48.0907],[35.9709,48.0805],[35.9746,48.0286],[36.0447,48.0433],[36.0213,48.0042],[36.0531,47.993],[36.0591,47.9511],[36.1176,47.9387],[36.1178,47.9094],[36.0984,47.8734],[36.0596,47.8706],[36.0982,47.8355],[36.16,47.8397],[36.1935,47.8635],[36.2067,47.8606],[36.2149,47.8303],[36.286,47.8133],[36.3184,47.8152],[36.3612,47.8399],[36.392,47.8257],[36.5761,47.8442],[36.5837,47.7914],[36.653,47.7878],[36.7031,47.6908],[36.7473,47.6749],[36.72,47.6578],[36.7273,47.6405],[36.7524,47.6339],[36.7521,47.6017],[36.7979,47.6102],[36.8933,47.5509],[36.9442,47.5704],[36.9954,47.5475],[37.1287,47.4512],[37.1522,47.4639],[37.2209,47.4553],[37.1846,47.3879],[37.1792,47.3508],[37.1637,47.3459],[37.1399,47.3686],[37.1145,47.3715],[37.0767,47.3264],[37.0724,47.3006],[37.0289,47.2876],[36.9194,47.3013],[36.914,47.2836],[36.9362,47.2482],[36.9387,47.209],[36.8565,47.1937],[36.889,47.1661],[36.9625,47.1397],[37.011,47.0656],[37.0491,47.0448],[37.0708,47.0575],[37.1185,47.0282],[37.0937,47.0],[37.1145,46.9657],[37.0912,46.955],[37.057,46.9595],[37.0096,46.9268],[37.0378,46.8767],[36.9388,46.8395],[36.8862,46.804],[36.8537,46.8005],[36.8625,46.7769],[36.8296,46.7319],[36.8123,46.6806],[36.7693,46.6374],[36.7438,46.6496],[36.7717,46.6435],[36.8025,46.7248],[36.7581,46.7589],[36.6961,46.78],[36.634,46.78],[36.59,46.7589],[36.5241,46.7589],[36.4002,46.7239],[36.3035,46.6592],[36.2783,46.6074],[36.2676,46.6256],[36.2458,46.6108],[36.2443,46.6353],[36.1895,46.669],[36.062,46.6701],[35.9016,46.6527],[35.7712,46.6013],[35.6287,46.4985],[35.4915,46.448],[35.3801,46.3685],[35.2795,46.2551]]]}},{"type":"Feature","id":"Zhytomyr","properties":{"id":"Zhytomyr","iso_code":"UA-18","name":"Zhytomyr","name_full":"Zhytomyr","name_ja":"ジトームィル州","center_lonlat":[28.4697,50.6297]},"geometry":{"type":"Polygon","coordinates":[[[29.3533,51.3771],[29.3658,51.363],[29.3914,51.3621],[29.3847,51.2982],[29.3495,51.266],[29.2705,51.2369],[29.305,51.1278],[29.3132,51.1171],[29.3425,51.1438],[29.3628,51.1416],[29.4123,51.1164],[29.433,51.0897],[29.4876,51.0665],[29.4646,51.0242],[29.462,50.9697],[29.4297,50.9797],[29.3931,50.9701],[29.5051,50.8703],[29.4899,50.7808],[29.5675,50.7721],[29.5923,50.7111],[29.5847,50.6916],[29.5403,50.67],[29.4808,50.6017],[29.5132,50.5674],[29.4966,50.5344],[29.4735,50.5271],[29.4989,50.4917],[29.4811,50.4635],[29.4441,50.4626],[29.4668,50.4413],[29.4261,50.422],[29.4449,50.4111],[29.5366,50.4242],[29.5673,50.4069],[29.6083,50.3215],[29.6422,50.3159],[29.6949,50.2669],[29.6914,50.1822],[29.7233,50.1611],[29.7344,50.1215],[29.6739,50.0968],[29.6691,50.0829],[29.6845,50.0368],[29.6719,50.0163],[29.7332,49.9353],[29.6301,49.8635],[29.442,49.7984],[29.4491,49.7586],[29.4184,49.7101],[29.4784,49.709],[29.4831,49.6974],[29.4472,49.6509],[29.4117,49.648],[29.3627,49.6189],[29.2818,49.6116],[29.2643,49.5845],[28.9929,49.5933],[28.9788,49.6038],[28.9957,49.6291],[28.9474,49.6785],[29.0045,49.7342],[28.9423,49.788],[28.9397,49.8311],[28.91,49.8565],[28.9096,49.8724],[28.8354,49.8814],[28.8033,49.8523],[28.7539,49.8349],[28.7202,49.794],[28.6295,49.801],[28.571,49.7867],[28.519,49.8073],[28.4309,49.8078],[28.3905,49.7771],[28.3534,49.7715],[28.2675,49.7882],[28.0581,49.7627],[27.868,49.7601],[27.6607,49.7989],[27.5991,49.8665],[27.5974,49.8928],[27.5445,49.9108],[27.5456,49.941],[27.5808,49.9514],[27.5439,50.0071],[27.6094,50.0037],[27.6637,50.0326],[27.6606,50.0577],[27.6212,50.0793],[27.6479,50.1167],[27.6272,50.1379],[27.6497,50.1606],[27.6078,50.2022],[27.6075,50.2493],[27.5825,50.2546],[27.5499,50.2184],[27.4948,50.2215],[27.4806,50.2479],[27.4001,50.277],[27.4038,50.2982],[27.3082,50.3403],[27.2887,50.3679],[27.235,50.3797],[27.2289,50.3949],[27.2506,50.4449],[27.3046,50.478],[27.2604,50.4901],[27.1923,50.5412],[27.2356,50.583],[27.1969,50.6052],[27.1935,50.622],[27.2717,50.7374],[27.2253,50.8014],[27.2399,50.8904],[27.216,50.9159],[27.2364,50.9345],[27.1997,50.9959],[27.2232,51.0272],[27.2997,51.0472],[27.3496,51.0998],[27.3582,51.142],[27.3976,51.1922],[27.4491,51.2279],[27.4519,51.2531],[27.4167,51.3021],[27.4827,51.3168],[27.5095,51.3421],[27.4883,51.3753],[27.5021,51.4402],[27.52,51.441],[27.5439,51.4155],[27.6002,51.3918],[27.6021,51.406],[27.5768,51.4294],[27.5859,51.4723],[27.6661,51.4902],[27.7143,51.4637],[27.7406,51.4714],[27.7925,51.5173],[27.7995,51.5852],[27.8313,51.6129],[27.8756,51.608],[27.9548,51.5608],[28.0708,51.5576],[28.1142,51.5756],[28.1662,51.6331],[28.2304,51.6511],[28.2578,51.6018],[28.3109,51.5744],[28.3339,51.5284],[28.4612,51.5717],[28.6039,51.5535],[28.6373,51.4496],[28.6636,51.434],[28.704,51.4426],[28.7288,51.4013],[28.7516,51.4287],[28.7522,51.4837],[28.7999,51.5326],[28.8636,51.5589],[28.9808,51.5695],[29.0436,51.6262],[29.0837,51.6312],[29.1604,51.6033],[29.2265,51.5191],[29.221,51.467],[29.2649,51.4329],[29.297,51.3737],[29.3199,51.3656],[29.3533,51.3771]]]}}]}
