{"type":"FeatureCollection","features":[{"type":"Feature","id":"Saint Croix","properties":{"id":"Saint Croix","iso_code":"VI-X01~","name":"Saint Croix","name_full":"Saint Croix","name_ja":"セント・クロイ","center_lonlat":[-64.7653,17.7372]},"geometry":{"type":"Polygon","coordinates":[[[-64.5594,17.7516],[-64.6705,17.7172],[-64.8952,17.6828],[-64.8765,17.7759],[-64.8387,17.7648],[-64.7716,17.7926],[-64.6898,17.7448],[-64.631,17.7703],[-64.5594,17.7516]]]}},{"type":"Feature","id":"Saint John","properties":{"id":"Saint John","iso_code":"VI-X03~","name":"Saint John","name_full":"Saint John","name_ja":"セント・ジョン教区","center_lonlat":[-64.7363,18.34]},"geometry":{"type":"Polygon","coordinates":[[[-64.701,18.343],[-64.704,18.3033],[-64.7362,18.3198],[-64.7864,18.3152],[-64.8013,18.3283],[-64.747,18.3736],[-64.6825,18.356],[-64.6604,18.3367],[-64.701,18.343]]]}},{"type":"Feature","id":"Saint Thomas","properties":{"id":"Saint Thomas","iso_code":"VI-X02~","name":"Saint Thomas","name_full":"Saint Thomas","name_ja":"セント・トーマス","center_lonlat":[-64.9332,18.3451]},"geometry":{"type":"Polygon","coordinates":[[[-64.8716,18.3146],[-64.8788,18.3044],[-64.9219,18.3226],[-64.9308,18.3395],[-64.935,18.3305],[-64.9816,18.3356],[-64.9936,18.348],[-65.0253,18.3389],[-65.0415,18.3537],[-64.9866,18.3748],[-64.926,18.3662],[-64.95,18.3866],[-64.855,18.3401],[-64.8401,18.3175],[-64.8716,18.3146]]]}}]}
