{"type":"FeatureCollection","features":[{"type":"Feature","id":"Artigas","properties":{"id":"Artigas","iso_code":"UY-AR","name":"Artigas","name_full":"Artigas","name_ja":"アルティガス県","center_lonlat":[-56.9696,-30.6223]},"geometry":{"type":"Polygon","coordinates":[[[-56.017,-31.0743],[-56.1767,-30.9397],[-56.4155,-30.8871],[-56.4506,-30.8937],[-56.4806,-30.9385],[-56.549,-30.9818],[-56.6105,-30.9947],[-56.6986,-31.0499],[-56.7828,-31.0622],[-56.9345,-31.0427],[-57.0003,-31.0498],[-57.0714,-31.0779],[-57.1557,-31.0515],[-57.2361,-30.9894],[-57.424,-30.9115],[-57.4792,-30.8754],[-57.5721,-30.8633],[-57.715,-30.758],[-57.7633,-30.7526],[-57.7994,-30.7915],[-57.8262,-30.6897],[-57.8858,-30.5899],[-57.8898,-30.5508],[-57.8771,-30.5148],[-57.8496,-30.4853],[-57.6527,-30.3291],[-57.6237,-30.2581],[-57.6425,-30.1931],[-57.6028,-30.1905],[-57.5675,-30.2563],[-57.536,-30.2744],[-57.4431,-30.2695],[-57.3993,-30.2991],[-57.3538,-30.272],[-57.2965,-30.2933],[-57.2704,-30.2752],[-57.2451,-30.2933],[-57.1837,-30.2675],[-57.1296,-30.15],[-57.0771,-30.1061],[-57.0379,-30.1146],[-56.9746,-30.0975],[-56.9064,-30.1085],[-56.8313,-30.102],[-56.7952,-30.1238],[-56.767,-30.1614],[-56.6568,-30.2213],[-56.6326,-30.2475],[-56.6313,-30.2847],[-56.575,-30.3024],[-56.5238,-30.3573],[-56.4246,-30.4236],[-56.386,-30.4758],[-56.2151,-30.5819],[-56.1708,-30.6458],[-56.1317,-30.6719],[-56.0769,-30.7523],[-56.0114,-30.7982],[-55.989,-30.8558],[-56.0155,-30.9343],[-56.017,-31.0743]]]}},{"type":"Feature","id":"Canelones","properties":{"id":"Canelones","iso_code":"UY-CA","name":"Canelones","name_full":"Canelones","name_ja":"カネロネス県","center_lonlat":[-55.9212,-34.5439]},"geometry":{"type":"Polygon","coordinates":[[[-55.3738,-34.8029],[-55.5096,-34.7991],[-55.6018,-34.7724],[-55.6467,-34.7811],[-55.6934,-34.7647],[-55.7565,-34.7827],[-55.7921,-34.7741],[-55.8891,-34.8035],[-56.0384,-34.8858],[-56.0528,-34.8289],[-56.0359,-34.7796],[-56.0823,-34.7734],[-56.1324,-34.7262],[-56.167,-34.73],[-56.2185,-34.7642],[-56.253,-34.7516],[-56.2935,-34.715],[-56.3642,-34.7341],[-56.4595,-34.6644],[-56.4719,-34.5967],[-56.398,-34.5271],[-56.4084,-34.4832],[-56.4013,-34.433],[-56.3737,-34.3669],[-56.3507,-34.3573],[-56.2794,-34.3539],[-56.2123,-34.3786],[-56.1356,-34.3646],[-56.0975,-34.2998],[-55.9986,-34.2444],[-55.8823,-34.2725],[-55.7442,-34.2224],[-55.6191,-34.2077],[-55.5786,-34.331],[-55.5332,-34.4047],[-55.5442,-34.4999],[-55.4788,-34.5795],[-55.4733,-34.6219],[-55.4156,-34.6872],[-55.4186,-34.734],[-55.3738,-34.8029]]]}},{"type":"Feature","id":"Cerro Largo","properties":{"id":"Cerro Largo","iso_code":"UY-CL","name":"Cerro Largo","name_full":"Cerro Largo","name_ja":"セロ・ラルゴ県","center_lonlat":[-54.338,-32.4411]},"geometry":{"type":"Polygon","coordinates":[[[-54.4672,-31.6642],[-54.2742,-31.8234],[-54.1463,-31.9099],[-54.1073,-31.8839],[-54.0688,-31.8799],[-54.0087,-31.9265],[-53.9488,-31.937],[-53.9058,-31.9593],[-53.8581,-32.0212],[-53.7573,-32.055],[-53.75,-32.104],[-53.7214,-32.1624],[-53.6586,-32.2543],[-53.6439,-32.3556],[-53.5613,-32.4495],[-53.4156,-32.5642],[-53.2015,-32.6372],[-53.1198,-32.7074],[-53.114,-32.7406],[-53.1828,-32.7999],[-53.3288,-32.776],[-53.3931,-32.7881],[-53.4283,-32.7713],[-53.4682,-32.7703],[-53.5,-32.7502],[-53.844,-32.7651],[-53.9479,-32.7051],[-54.0294,-32.7476],[-54.0367,-32.7608],[-54.0233,-32.7889],[-54.0454,-32.7989],[-54.1242,-32.758],[-54.1727,-32.7563],[-54.3261,-32.7155],[-54.4113,-32.7497],[-54.4887,-32.7517],[-54.5138,-32.7848],[-54.5638,-32.7902],[-54.5967,-32.821],[-54.6842,-32.8142],[-54.8196,-32.8381],[-54.8785,-32.8635],[-55.0187,-32.9497],[-55.028,-32.9702],[-55.01,-33.025],[-55.1595,-33.0177],[-55.286,-32.9362],[-55.3158,-32.9017],[-55.3162,-32.8255],[-55.3448,-32.7766],[-55.3068,-32.7483],[-55.3355,-32.6799],[-55.303,-32.5604],[-55.3284,-32.4939],[-55.2396,-32.4589],[-55.2051,-32.4571],[-55.1059,-32.485],[-55.04,-32.4687],[-54.9569,-32.3887],[-54.9214,-32.3796],[-54.8396,-32.3105],[-54.8003,-32.2382],[-54.8145,-32.2051],[-54.8092,-32.1857],[-54.7557,-32.1019],[-54.6909,-32.1294],[-54.6545,-32.1228],[-54.5894,-32.1096],[-54.5716,-32.0769],[-54.5817,-32.0611],[-54.5401,-32.0195],[-54.5436,-32.0027],[-54.5885,-31.9854],[-54.5544,-31.9438],[-54.5041,-31.8424],[-54.5203,-31.7321],[-54.4672,-31.6642]]]}},{"type":"Feature","id":"Colonia","properties":{"id":"Colonia","iso_code":"UY-CO","name":"Colonia","name_full":"Colonia","name_ja":"コロニア県","center_lonlat":[-57.6494,-34.1346]},"geometry":{"type":"Polygon","coordinates":[[[-57.1675,-34.4483],[-57.3469,-34.4435],[-57.3652,-34.4304],[-57.437,-34.4446],[-57.4747,-34.4295],[-57.5379,-34.4536],[-57.5695,-34.4265],[-57.595,-34.4255],[-57.7641,-34.4743],[-57.8554,-34.471],[-57.8456,-34.463],[-57.854,-34.4479],[-57.882,-34.4407],[-57.9002,-34.4165],[-57.8976,-34.3763],[-58.0169,-34.2531],[-58.0498,-34.24],[-58.077,-34.192],[-58.1194,-34.1692],[-58.1962,-34.1594],[-58.2087,-34.1476],[-58.2318,-34.0888],[-58.3165,-33.9865],[-58.3888,-33.9421],[-58.4156,-33.8756],[-58.279,-33.836],[-58.1696,-33.778],[-58.0396,-33.804],[-57.9942,-33.8621],[-57.8502,-33.8619],[-57.7907,-33.8989],[-57.6542,-33.9381],[-57.5656,-33.9351],[-57.3932,-33.8961],[-57.293,-33.9464],[-57.0777,-33.963],[-57.0515,-34.026],[-56.985,-34.0787],[-56.9419,-34.1476],[-56.9965,-34.19],[-57.0956,-34.2323],[-57.1028,-34.2677],[-57.0733,-34.3016],[-57.0977,-34.3538],[-57.0993,-34.3936],[-57.1675,-34.4483]]]}},{"type":"Feature","id":"Durazno","properties":{"id":"Durazno","iso_code":"UY-DU","name":"Durazno","name_full":"Durazno","name_ja":"ドゥラスノ県","center_lonlat":[-56.0172,-33.0313]},"geometry":{"type":"Polygon","coordinates":[[[-55.3284,-32.4939],[-55.303,-32.5604],[-55.3355,-32.6799],[-55.3068,-32.7483],[-55.3448,-32.7766],[-55.3162,-32.8255],[-55.3158,-32.9017],[-55.286,-32.9362],[-55.1595,-33.0177],[-55.01,-33.025],[-55.0297,-33.0513],[-55.0945,-33.0882],[-55.1111,-33.1182],[-55.2473,-33.2037],[-55.3039,-33.1963],[-55.6224,-33.3611],[-55.7107,-33.3645],[-55.7684,-33.4028],[-55.8633,-33.4352],[-55.9282,-33.4224],[-56.0217,-33.4337],[-56.0502,-33.4692],[-56.0956,-33.4926],[-56.1721,-33.4776],[-56.236,-33.4803],[-56.2803,-33.429],[-56.3485,-33.4313],[-56.4113,-33.4015],[-56.4236,-33.4831],[-56.4539,-33.4971],[-56.533,-33.4955],[-56.5586,-33.4649],[-56.5688,-33.4148],[-56.6704,-33.3047],[-56.8267,-33.266],[-56.8717,-33.1967],[-56.9741,-33.1779],[-57.0391,-33.1821],[-57.1271,-33.1231],[-57.1302,-33.0753],[-57.1719,-33.071],[-57.1735,-33.0498],[-57.0831,-33.0064],[-56.9691,-33.0255],[-56.9852,-32.9936],[-56.9323,-32.9866],[-56.937,-32.9657],[-56.9254,-32.9586],[-56.8682,-32.9873],[-56.864,-32.9381],[-56.8151,-32.9335],[-56.8046,-32.8891],[-56.7822,-32.8705],[-56.6859,-32.838],[-56.6668,-32.8433],[-56.637,-32.8581],[-56.583,-32.8356],[-56.4706,-32.8308],[-56.4067,-32.8611],[-56.3616,-32.8148],[-56.2249,-32.823],[-56.2187,-32.7936],[-56.1695,-32.726],[-56.0138,-32.7],[-55.9033,-32.6036],[-55.8818,-32.6027],[-55.8304,-32.6338],[-55.7928,-32.6079],[-55.773,-32.5702],[-55.7795,-32.5258],[-55.768,-32.5205],[-55.6923,-32.5465],[-55.676,-32.5398],[-55.6501,-32.4968],[-55.5644,-32.5106],[-55.521,-32.5031],[-55.4962,-32.4447],[-55.4713,-32.4273],[-55.4451,-32.4385],[-55.4302,-32.471],[-55.3674,-32.4973],[-55.3284,-32.4939]]]}},{"type":"Feature","id":"Flores","properties":{"id":"Flores","iso_code":"UY-FS","name":"Flores","name_full":"Flores","name_ja":"フロレス県","center_lonlat":[-56.8882,-33.5765]},"geometry":{"type":"Polygon","coordinates":[[[-57.1271,-33.1231],[-57.0391,-33.1821],[-56.9741,-33.1779],[-56.8717,-33.1967],[-56.8267,-33.266],[-56.6704,-33.3047],[-56.5688,-33.4148],[-56.5586,-33.4649],[-56.533,-33.4955],[-56.4606,-33.6961],[-56.4218,-33.763],[-56.4285,-33.8626],[-56.4627,-33.9024],[-56.6029,-33.8497],[-56.664,-33.8876],[-56.7597,-33.9114],[-56.8207,-33.9671],[-56.8653,-33.9846],[-57.0777,-33.963],[-57.1062,-33.9274],[-57.1301,-33.8426],[-57.1864,-33.7523],[-57.1605,-33.6101],[-57.2179,-33.583],[-57.2552,-33.5455],[-57.3007,-33.4252],[-57.348,-33.3801],[-57.3367,-33.3549],[-57.1473,-33.1638],[-57.1271,-33.1231]]]}},{"type":"Feature","id":"Florida","properties":{"id":"Florida","iso_code":"UY-FD","name":"Florida","name_full":"Florida","name_ja":"フロリダ県","center_lonlat":[-55.8597,-33.7797]},"geometry":{"type":"Polygon","coordinates":[[[-55.1111,-33.1182],[-55.0911,-33.2524],[-55.1076,-33.2988],[-55.1484,-33.3438],[-55.1246,-33.3818],[-55.1096,-33.4086],[-55.1179,-33.4565],[-55.1985,-33.501],[-55.2448,-33.5788],[-55.3122,-33.6017],[-55.3254,-33.6179],[-55.3282,-33.6497],[-55.2917,-33.7194],[-55.3418,-33.873],[-55.3926,-33.9109],[-55.4475,-33.9873],[-55.4586,-34.0306],[-55.5252,-34.0828],[-55.555,-34.1404],[-55.6191,-34.2077],[-55.7442,-34.2224],[-55.8823,-34.2725],[-55.9986,-34.2444],[-56.0975,-34.2998],[-56.1356,-34.3646],[-56.2123,-34.3786],[-56.2794,-34.3539],[-56.3507,-34.3573],[-56.3737,-34.3669],[-56.4013,-34.433],[-56.4712,-34.3599],[-56.4245,-34.307],[-56.4213,-34.2312],[-56.4462,-34.1665],[-56.4146,-34.0967],[-56.4627,-33.9024],[-56.4285,-33.8626],[-56.4218,-33.763],[-56.4606,-33.6961],[-56.533,-33.4955],[-56.4539,-33.4971],[-56.4236,-33.4831],[-56.4113,-33.4015],[-56.3485,-33.4313],[-56.2803,-33.429],[-56.236,-33.4803],[-56.1721,-33.4776],[-56.0956,-33.4926],[-56.0502,-33.4692],[-56.0217,-33.4337],[-55.9282,-33.4224],[-55.8633,-33.4352],[-55.7684,-33.4028],[-55.7107,-33.3645],[-55.6224,-33.3611],[-55.3039,-33.1963],[-55.2473,-33.2037],[-55.1111,-33.1182]]]}},{"type":"Feature","id":"Lavalleja","properties":{"id":"Lavalleja","iso_code":"UY-LA","name":"Lavalleja","name_full":"Lavalleja","name_ja":"ラバジェハ県","center_lonlat":[-54.9713,-33.9233]},"geometry":{"type":"Polygon","coordinates":[[[-55.6191,-34.2077],[-55.555,-34.1404],[-55.5252,-34.0828],[-55.4586,-34.0306],[-55.4475,-33.9873],[-55.3926,-33.9109],[-55.3418,-33.873],[-55.2917,-33.7194],[-55.3282,-33.6497],[-55.3254,-33.6179],[-55.3122,-33.6017],[-55.2448,-33.5788],[-55.1985,-33.501],[-55.1179,-33.4565],[-55.1096,-33.4086],[-55.1246,-33.3818],[-55.0563,-33.3503],[-54.9989,-33.3423],[-54.914,-33.3668],[-54.8257,-33.337],[-54.7823,-33.3482],[-54.7147,-33.396],[-54.6033,-33.414],[-54.4926,-33.4492],[-54.4389,-33.4324],[-54.4135,-33.3909],[-54.3546,-33.3572],[-54.3062,-33.3479],[-54.2867,-33.3541],[-54.2343,-33.4185],[-54.1257,-33.4653],[-54.2084,-33.4872],[-54.2299,-33.549],[-54.3692,-33.6364],[-54.383,-33.6726],[-54.3751,-33.7381],[-54.4155,-33.8006],[-54.4233,-33.8583],[-54.4821,-33.926],[-54.5352,-33.9661],[-54.5742,-34.0398],[-54.6564,-34.0555],[-54.7051,-34.0856],[-54.777,-34.1939],[-54.7815,-34.2566],[-54.8141,-34.2944],[-54.8444,-34.3929],[-54.8924,-34.4192],[-54.9974,-34.4494],[-55.0831,-34.5116],[-55.1677,-34.5176],[-55.3122,-34.6103],[-55.4733,-34.6219],[-55.4788,-34.5795],[-55.5442,-34.4999],[-55.5332,-34.4047],[-55.5786,-34.331],[-55.6191,-34.2077]]]}},{"type":"Feature","id":"Maldonado","properties":{"id":"Maldonado","iso_code":"UY-MA","name":"Maldonado","name_full":"Maldonado","name_ja":"マルドナド県","center_lonlat":[-54.853,-34.5658]},"geometry":{"type":"Polygon","coordinates":[[[-54.5308,-34.8069],[-54.9137,-34.9452],[-54.9586,-34.9734],[-54.9518,-34.9529],[-54.9622,-34.9396],[-54.9936,-34.921],[-55.0331,-34.9168],[-55.0604,-34.8878],[-55.2602,-34.8976],[-55.3383,-34.8188],[-55.3738,-34.8029],[-55.4186,-34.734],[-55.4156,-34.6872],[-55.4733,-34.6219],[-55.3122,-34.6103],[-55.1677,-34.5176],[-55.0831,-34.5116],[-54.9974,-34.4494],[-54.8924,-34.4192],[-54.8444,-34.3929],[-54.8141,-34.2944],[-54.7815,-34.2566],[-54.777,-34.1939],[-54.7051,-34.0856],[-54.6564,-34.0555],[-54.5742,-34.0398],[-54.5352,-33.9661],[-54.4821,-33.926],[-54.4609,-34.095],[-54.4921,-34.2012],[-54.4837,-34.3027],[-54.4926,-34.3908],[-54.5268,-34.3968],[-54.5367,-34.4214],[-54.5189,-34.515],[-54.498,-34.5546],[-54.5327,-34.6332],[-54.5332,-34.6952],[-54.5172,-34.7491],[-54.5362,-34.7822],[-54.5308,-34.8069]]]}},{"type":"Feature","id":"Montevideo","properties":{"id":"Montevideo","iso_code":"UY-MO","name":"Montevideo","name_full":"Montevideo","name_ja":"モンテビデオ","center_lonlat":[-56.2174,-34.8231]},"geometry":{"type":"Polygon","coordinates":[[[-56.0384,-34.8858],[-56.0696,-34.901],[-56.1052,-34.8984],[-56.1499,-34.9203],[-56.1561,-34.9412],[-56.1773,-34.9163],[-56.213,-34.9077],[-56.2035,-34.8875],[-56.2146,-34.8796],[-56.2306,-34.8777],[-56.2563,-34.9062],[-56.3113,-34.9062],[-56.4184,-34.843],[-56.4208,-34.8282],[-56.3646,-34.7935],[-56.3542,-34.7696],[-56.3642,-34.7341],[-56.2935,-34.715],[-56.253,-34.7516],[-56.2185,-34.7642],[-56.167,-34.73],[-56.1324,-34.7262],[-56.0823,-34.7734],[-56.0359,-34.7796],[-56.0528,-34.8289],[-56.0384,-34.8858]]]}},{"type":"Feature","id":"Paysandu","properties":{"id":"Paysandu","iso_code":"UY-PA","name":"Paysandu","name_full":"Paysandú","name_ja":"パイサンドゥ県","center_lonlat":[-57.3451,-32.0827]},"geometry":{"type":"Polygon","coordinates":[[[-58.039,-31.5086],[-58.0044,-31.4964],[-57.955,-31.501],[-57.9483,-31.4811],[-57.9066,-31.4706],[-57.8621,-31.4806],[-57.7872,-31.5191],[-57.7497,-31.5808],[-57.5954,-31.6106],[-57.4796,-31.6677],[-57.3745,-31.6866],[-57.3269,-31.7363],[-57.225,-31.7652],[-57.1655,-31.7971],[-57.0593,-31.8092],[-57.0039,-31.7912],[-56.9393,-31.8098],[-56.8293,-31.7934],[-56.77,-31.8141],[-56.702,-31.8189],[-56.6388,-31.8498],[-56.492,-31.8711],[-56.4521,-31.8568],[-56.3893,-31.7727],[-56.3216,-31.7513],[-56.2841,-31.7937],[-56.2775,-31.8633],[-56.2456,-31.9142],[-56.2879,-31.9405],[-56.2946,-32.0427],[-56.3588,-32.2319],[-56.4892,-32.3346],[-56.5594,-32.4925],[-56.6705,-32.4258],[-56.7426,-32.4095],[-56.9031,-32.4102],[-57.0397,-32.3634],[-57.0893,-32.3885],[-57.1751,-32.393],[-57.2684,-32.4429],[-57.3359,-32.4331],[-57.4015,-32.4506],[-57.4703,-32.4451],[-57.5431,-32.4853],[-57.5835,-32.5362],[-57.7573,-32.5583],[-57.7728,-32.5966],[-57.7996,-32.6135],[-57.9956,-32.5821],[-58.0145,-32.5468],[-58.1025,-32.486],[-58.1915,-32.4919],[-58.1997,-32.4448],[-58.1016,-32.3114],[-58.0965,-32.281],[-58.1069,-32.2518],[-58.1865,-32.1529],[-58.1588,-32.1016],[-58.1453,-32.0179],[-58.1588,-31.9439],[-58.2026,-31.8931],[-58.196,-31.8726],[-58.1529,-31.836],[-58.0593,-31.8115],[-58.0489,-31.7971],[-57.9796,-31.5988],[-57.9868,-31.5541],[-58.039,-31.5086]]]}},{"type":"Feature","id":"Rio Negro","properties":{"id":"Rio Negro","iso_code":"UY-RN","name":"Rio Negro","name_full":"Río Negro","name_ja":"リオ・ネグロ県","center_lonlat":[-57.4268,-32.7832]},"geometry":{"type":"Polygon","coordinates":[[[-58.3915,-33.4244],[-58.4189,-33.3899],[-58.3507,-33.3058],[-58.3669,-33.1537],[-58.3514,-33.1217],[-58.3103,-33.1088],[-58.1744,-33.1104],[-58.1378,-33.0951],[-58.0837,-33.0475],[-58.0558,-32.9518],[-58.0485,-32.9117],[-58.0571,-32.8818],[-58.1308,-32.8027],[-58.1378,-32.6707],[-58.1572,-32.5751],[-58.1915,-32.4919],[-58.1025,-32.486],[-58.0145,-32.5468],[-57.9956,-32.5821],[-57.7996,-32.6135],[-57.7728,-32.5966],[-57.7573,-32.5583],[-57.5835,-32.5362],[-57.5431,-32.4853],[-57.4703,-32.4451],[-57.4015,-32.4506],[-57.3359,-32.4331],[-57.2684,-32.4429],[-57.1751,-32.393],[-57.0893,-32.3885],[-57.0397,-32.3634],[-56.9031,-32.4102],[-56.7426,-32.4095],[-56.6705,-32.4258],[-56.5594,-32.4925],[-56.5997,-32.6644],[-56.6295,-32.6992],[-56.6307,-32.75],[-56.6668,-32.8433],[-56.6859,-32.838],[-56.7822,-32.8705],[-56.8046,-32.8891],[-56.8151,-32.9335],[-56.864,-32.9381],[-56.8682,-32.9873],[-56.9254,-32.9586],[-56.937,-32.9657],[-56.9323,-32.9866],[-56.9852,-32.9936],[-56.9691,-33.0255],[-57.0831,-33.0064],[-57.1735,-33.0498],[-57.1719,-33.071],[-57.1302,-33.0753],[-57.1271,-33.1231],[-57.2168,-33.1573],[-57.2287,-33.1529],[-57.2401,-33.1157],[-57.2818,-33.1469],[-57.3049,-33.0955],[-57.3736,-33.0746],[-57.4288,-33.0952],[-57.4447,-33.0811],[-57.45,-33.05],[-57.5254,-33.0214],[-57.6069,-33.0474],[-57.6311,-33.0815],[-57.6505,-33.085],[-57.7333,-33.0564],[-57.7894,-33.061],[-57.8502,-33.0399],[-57.9049,-33.0753],[-57.9495,-33.087],[-57.9651,-33.131],[-58.0333,-33.1262],[-58.0598,-33.1372],[-58.0496,-33.1875],[-58.0284,-33.2051],[-58.0392,-33.2466],[-58.0836,-33.2187],[-58.1172,-33.2339],[-58.1309,-33.253],[-58.136,-33.3077],[-58.2236,-33.308],[-58.2959,-33.377],[-58.3915,-33.4244]]]}},{"type":"Feature","id":"Rivera","properties":{"id":"Rivera","iso_code":"UY-RV","name":"Rivera","name_full":"Rivera","name_ja":"リベラ県","center_lonlat":[-55.2602,-31.4839]},"geometry":{"type":"Polygon","coordinates":[[[-54.4672,-31.6642],[-54.5203,-31.7321],[-54.5041,-31.8424],[-54.5544,-31.9438],[-54.5885,-31.9854],[-54.5436,-32.0027],[-54.5401,-32.0195],[-54.5817,-32.0611],[-54.5716,-32.0769],[-54.5894,-32.1096],[-54.6545,-32.1228],[-54.8131,-31.9424],[-54.9097,-31.8651],[-55.1159,-31.8201],[-55.25,-31.8188],[-55.3766,-31.7952],[-55.6175,-31.8018],[-55.6493,-31.7576],[-55.661,-31.6994],[-55.6468,-31.6413],[-55.6656,-31.5838],[-55.7459,-31.5463],[-55.791,-31.5107],[-55.8348,-31.3827],[-55.9769,-31.3177],[-56.0641,-31.2594],[-56.1214,-31.2631],[-56.158,-31.3047],[-56.1859,-31.2748],[-56.1828,-31.25],[-56.0557,-31.1959],[-56.0099,-31.0819],[-55.8546,-31.0746],[-55.7636,-31.0084],[-55.7319,-30.9454],[-55.6658,-30.9493],[-55.6527,-30.939],[-55.6497,-30.861],[-55.634,-30.8476],[-55.5919,-30.8483],[-55.3686,-31.0374],[-55.338,-31.1256],[-55.2937,-31.1537],[-55.2443,-31.2446],[-55.0873,-31.3268],[-55.0294,-31.2688],[-54.9696,-31.3408],[-54.8499,-31.4251],[-54.6045,-31.4598],[-54.5624,-31.5159],[-54.495,-31.5656],[-54.4672,-31.6642]]]}},{"type":"Feature","id":"Rocha","properties":{"id":"Rocha","iso_code":"UY-RO","name":"Rocha","name_full":"Rocha","name_ja":"ロチャ県","center_lonlat":[-54.003,-33.9506]},"geometry":{"type":"Polygon","coordinates":[[[-53.5207,-33.125],[-53.5369,-33.1708],[-53.5361,-33.2446],[-53.514,-33.3949],[-53.5396,-33.6493],[-53.5115,-33.6903],[-53.4567,-33.6875],[-53.4113,-33.7423],[-53.3791,-33.7407],[-53.4148,-33.7644],[-53.4731,-33.8346],[-53.5299,-34.0481],[-53.711,-34.1988],[-53.756,-34.2677],[-53.7799,-34.336],[-53.7649,-34.3904],[-53.9722,-34.4872],[-54.1246,-34.6104],[-54.1459,-34.6676],[-54.2597,-34.686],[-54.2323,-34.6581],[-54.2528,-34.6308],[-54.2386,-34.5898],[-54.2803,-34.568],[-54.3286,-34.5618],[-54.2801,-34.5823],[-54.3446,-34.6306],[-54.3374,-34.6547],[-54.3226,-34.6447],[-54.2892,-34.6603],[-54.2801,-34.6823],[-54.2881,-34.695],[-54.5308,-34.8069],[-54.5362,-34.7822],[-54.5172,-34.7491],[-54.5332,-34.6952],[-54.5327,-34.6332],[-54.498,-34.5546],[-54.5189,-34.515],[-54.5367,-34.4214],[-54.5268,-34.3968],[-54.4926,-34.3908],[-54.4837,-34.3027],[-54.4921,-34.2012],[-54.4609,-34.095],[-54.4821,-33.926],[-54.4233,-33.8583],[-54.4155,-33.8006],[-54.3751,-33.7381],[-54.383,-33.6726],[-54.3692,-33.6364],[-54.2299,-33.549],[-54.2084,-33.4872],[-54.1257,-33.4653],[-54.009,-33.4103],[-53.9634,-33.3461],[-53.8954,-33.3161],[-53.8459,-33.2627],[-53.8083,-33.2472],[-53.7685,-33.1893],[-53.5207,-33.125]]]}},{"type":"Feature","id":"Salto","properties":{"id":"Salto","iso_code":"UY-SA","name":"Salto","name_full":"Salto","name_ja":"サルト県","center_lonlat":[-57.0275,-31.333]},"geometry":{"type":"Polygon","coordinates":[[[-57.7994,-30.7915],[-57.7633,-30.7526],[-57.715,-30.758],[-57.5721,-30.8633],[-57.4792,-30.8754],[-57.424,-30.9115],[-57.2361,-30.9894],[-57.1557,-31.0515],[-57.0714,-31.0779],[-57.0003,-31.0498],[-56.9345,-31.0427],[-56.7828,-31.0622],[-56.6986,-31.0499],[-56.6105,-30.9947],[-56.549,-30.9818],[-56.4806,-30.9385],[-56.4506,-30.8937],[-56.4155,-30.8871],[-56.1767,-30.9397],[-56.017,-31.0743],[-56.0099,-31.0819],[-56.0557,-31.1959],[-56.1828,-31.25],[-56.1859,-31.2748],[-56.158,-31.3047],[-56.1871,-31.3952],[-56.2574,-31.4427],[-56.3167,-31.5122],[-56.3511,-31.5894],[-56.3306,-31.6462],[-56.3216,-31.7513],[-56.3893,-31.7727],[-56.4521,-31.8568],[-56.492,-31.8711],[-56.6388,-31.8498],[-56.702,-31.8189],[-56.77,-31.8141],[-56.8293,-31.7934],[-56.9393,-31.8098],[-57.0039,-31.7912],[-57.0593,-31.8092],[-57.1655,-31.7971],[-57.225,-31.7652],[-57.3269,-31.7363],[-57.3745,-31.6866],[-57.4796,-31.6677],[-57.5954,-31.6106],[-57.7497,-31.5808],[-57.7872,-31.5191],[-57.8621,-31.4806],[-57.9066,-31.4706],[-57.9483,-31.4811],[-57.955,-31.501],[-58.0044,-31.4964],[-58.039,-31.5086],[-58.0752,-31.4752],[-58.0626,-31.4443],[-57.9902,-31.3993],[-57.9664,-31.3146],[-57.9356,-31.2903],[-57.9051,-31.241],[-57.9117,-31.1706],[-57.899,-31.1265],[-57.8552,-31.059],[-57.8633,-31.0123],[-57.9117,-30.9474],[-57.8853,-30.9188],[-57.8072,-30.9076],[-57.795,-30.858],[-57.7994,-30.7915]]]}},{"type":"Feature","id":"San Jose","properties":{"id":"San Jose","iso_code":"UY-SJ","name":"San Jose","name_full":"San José","name_ja":"サン・ホセ県","center_lonlat":[-56.7196,-34.3189]},"geometry":{"type":"Polygon","coordinates":[[[-56.3646,-34.7935],[-56.4484,-34.7583],[-56.558,-34.7651],[-56.6464,-34.7226],[-56.7953,-34.6985],[-56.8739,-34.6702],[-56.9197,-34.6232],[-57.0574,-34.5271],[-57.0559,-34.5134],[-57.102,-34.4758],[-57.1675,-34.4483],[-57.0993,-34.3936],[-57.0977,-34.3538],[-57.0733,-34.3016],[-57.1028,-34.2677],[-57.0956,-34.2323],[-56.9965,-34.19],[-56.9419,-34.1476],[-56.985,-34.0787],[-57.0515,-34.026],[-57.0777,-33.963],[-56.8653,-33.9846],[-56.8207,-33.9671],[-56.7597,-33.9114],[-56.664,-33.8876],[-56.6029,-33.8497],[-56.4627,-33.9024],[-56.4146,-34.0967],[-56.4462,-34.1665],[-56.4213,-34.2312],[-56.4245,-34.307],[-56.4712,-34.3599],[-56.4013,-34.433],[-56.4084,-34.4832],[-56.398,-34.5271],[-56.4719,-34.5967],[-56.4595,-34.6644],[-56.3642,-34.7341],[-56.3542,-34.7696],[-56.3646,-34.7935]]]}},{"type":"Feature","id":"Soriano","properties":{"id":"Soriano","iso_code":"UY-SO","name":"Soriano","name_full":"Soriano","name_ja":"ソリアノ県","center_lonlat":[-57.7466,-33.5186]},"geometry":{"type":"Polygon","coordinates":[[[-58.4156,-33.8756],[-58.4346,-33.7849],[-58.4394,-33.6985],[-58.4258,-33.6129],[-58.4383,-33.5514],[-58.4332,-33.5278],[-58.3854,-33.4703],[-58.3786,-33.4487],[-58.3915,-33.4244],[-58.2959,-33.377],[-58.2236,-33.308],[-58.136,-33.3077],[-58.1309,-33.253],[-58.1172,-33.2339],[-58.0836,-33.2187],[-58.0392,-33.2466],[-58.0284,-33.2051],[-58.0496,-33.1875],[-58.0598,-33.1372],[-58.0333,-33.1262],[-57.9651,-33.131],[-57.9495,-33.087],[-57.9049,-33.0753],[-57.8502,-33.0399],[-57.7894,-33.061],[-57.7333,-33.0564],[-57.6505,-33.085],[-57.6311,-33.0815],[-57.6069,-33.0474],[-57.5254,-33.0214],[-57.45,-33.05],[-57.4447,-33.0811],[-57.4288,-33.0952],[-57.3736,-33.0746],[-57.3049,-33.0955],[-57.2818,-33.1469],[-57.2401,-33.1157],[-57.2287,-33.1529],[-57.2168,-33.1573],[-57.1271,-33.1231],[-57.1473,-33.1638],[-57.3367,-33.3549],[-57.348,-33.3801],[-57.3007,-33.4252],[-57.2552,-33.5455],[-57.2179,-33.583],[-57.1605,-33.6101],[-57.1864,-33.7523],[-57.1301,-33.8426],[-57.1062,-33.9274],[-57.0777,-33.963],[-57.293,-33.9464],[-57.3932,-33.8961],[-57.5656,-33.9351],[-57.6542,-33.9381],[-57.7907,-33.8989],[-57.8502,-33.8619],[-57.9942,-33.8621],[-58.0396,-33.804],[-58.1696,-33.778],[-58.279,-33.836],[-58.4156,-33.8756]]]}},{"type":"Feature","id":"Tacuarembo","properties":{"id":"Tacuarembo","iso_code":"UY-TA","name":"Tacuarembo","name_full":"Tacuarembó","name_ja":"タクアレンボー県","center_lonlat":[-55.778,-32.1228]},"geometry":{"type":"Polygon","coordinates":[[[-56.5594,-32.4925],[-56.4892,-32.3346],[-56.3588,-32.2319],[-56.2946,-32.0427],[-56.2879,-31.9405],[-56.2456,-31.9142],[-56.2775,-31.8633],[-56.2841,-31.7937],[-56.3216,-31.7513],[-56.3306,-31.6462],[-56.3511,-31.5894],[-56.3167,-31.5122],[-56.2574,-31.4427],[-56.1871,-31.3952],[-56.158,-31.3047],[-56.1214,-31.2631],[-56.0641,-31.2594],[-55.9769,-31.3177],[-55.8348,-31.3827],[-55.791,-31.5107],[-55.7459,-31.5463],[-55.6656,-31.5838],[-55.6468,-31.6413],[-55.661,-31.6994],[-55.6493,-31.7576],[-55.6175,-31.8018],[-55.3766,-31.7952],[-55.25,-31.8188],[-55.1159,-31.8201],[-54.9097,-31.8651],[-54.8131,-31.9424],[-54.6545,-32.1228],[-54.6909,-32.1294],[-54.7557,-32.1019],[-54.8092,-32.1857],[-54.8145,-32.2051],[-54.8003,-32.2382],[-54.8396,-32.3105],[-54.9214,-32.3796],[-54.9569,-32.3887],[-55.04,-32.4687],[-55.1059,-32.485],[-55.2051,-32.4571],[-55.2396,-32.4589],[-55.3284,-32.4939],[-55.3674,-32.4973],[-55.4302,-32.471],[-55.4451,-32.4385],[-55.4713,-32.4273],[-55.4962,-32.4447],[-55.521,-32.5031],[-55.5644,-32.5106],[-55.6501,-32.4968],[-55.676,-32.5398],[-55.6923,-32.5465],[-55.768,-32.5205],[-55.7795,-32.5258],[-55.773,-32.5702],[-55.7928,-32.6079],[-55.8304,-32.6338],[-55.8818,-32.6027],[-55.9033,-32.6036],[-56.0138,-32.7],[-56.1695,-32.726],[-56.2187,-32.7936],[-56.2249,-32.823],[-56.3616,-32.8148],[-56.4067,-32.8611],[-56.4706,-32.8308],[-56.583,-32.8356],[-56.637,-32.8581],[-56.6668,-32.8433],[-56.6307,-32.75],[-56.6295,-32.6992],[-56.5997,-32.6644],[-56.5594,-32.4925]]]}},{"type":"Feature","id":"Treinta y Tres","properties":{"id":"Treinta y Tres","iso_code":"UY-TT","name":"Treinta y Tres","name_full":"Treinta y Tres","name_ja":"トレインタ・イ・トレス県","center_lonlat":[-54.25,-33.0602]},"geometry":{"type":"Polygon","coordinates":[[[-53.1828,-32.7999],[-53.2988,-32.8891],[-53.3273,-32.9736],[-53.4833,-33.0673],[-53.5207,-33.125],[-53.7685,-33.1893],[-53.8083,-33.2472],[-53.8459,-33.2627],[-53.8954,-33.3161],[-53.9634,-33.3461],[-54.009,-33.4103],[-54.1257,-33.4653],[-54.2343,-33.4185],[-54.2867,-33.3541],[-54.3062,-33.3479],[-54.3546,-33.3572],[-54.4135,-33.3909],[-54.4389,-33.4324],[-54.4926,-33.4492],[-54.6033,-33.414],[-54.7147,-33.396],[-54.7823,-33.3482],[-54.8257,-33.337],[-54.914,-33.3668],[-54.9989,-33.3423],[-55.0563,-33.3503],[-55.1246,-33.3818],[-55.1484,-33.3438],[-55.1076,-33.2988],[-55.0911,-33.2524],[-55.1111,-33.1182],[-55.0945,-33.0882],[-55.0297,-33.0513],[-55.01,-33.025],[-55.028,-32.9702],[-55.0187,-32.9497],[-54.8785,-32.8635],[-54.8196,-32.8381],[-54.6842,-32.8142],[-54.5967,-32.821],[-54.5638,-32.7902],[-54.5138,-32.7848],[-54.4887,-32.7517],[-54.4113,-32.7497],[-54.3261,-32.7155],[-54.1727,-32.7563],[-54.1242,-32.758],[-54.0454,-32.7989],[-54.0233,-32.7889],[-54.0367,-32.7608],[-54.0294,-32.7476],[-53.9479,-32.7051],[-53.844,-32.7651],[-53.5,-32.7502],[-53.4682,-32.7703],[-53.4283,-32.7713],[-53.3931,-32.7881],[-53.3288,-32.776],[-53.1828,-32.7999]]]}}]}
