{"type":"FeatureCollection","features":[{"type":"Feature","id":"Andijan","properties":{"id":"Andijan","iso_code":"UZ-AN","name":"Andijan","name_full":"Andijan","name_ja":"アンディジャン州","center_lonlat":[72.3205,40.7535]},"geometry":{"type":"Polygon","coordinates":[[[72.2283,40.4596],[72.216,40.5014],[72.2228,40.5554],[72.2076,40.57],[72.1443,40.5828],[72.1035,40.6168],[72.0658,40.5984],[71.9587,40.6201],[71.8771,40.6212],[71.8115,40.6853],[71.7481,40.7038],[71.6553,40.716],[71.6476,40.6953],[71.5818,40.7743],[71.6106,40.7958],[71.5819,40.8398],[71.6442,40.89],[71.7477,40.9109],[71.7809,40.8983],[71.8343,40.916],[71.9076,40.9166],[72.0562,40.8911],[72.1477,40.8975],[72.1659,40.9069],[72.1955,41.0064],[72.2898,41.0235],[72.3324,41.0728],[72.3952,41.022],[72.4819,41.0088],[72.4834,40.9706],[72.5456,40.9565],[72.6195,40.8801],[72.6582,40.8672],[72.8687,40.8641],[72.8703,40.8182],[73.0034,40.8702],[73.0536,40.8363],[73.1433,40.8339],[73.1486,40.8137],[73.118,40.7829],[73.0706,40.7625],[72.9768,40.7361],[72.891,40.6951],[72.7839,40.6697],[72.76,40.6418],[72.7484,40.5751],[72.7192,40.5649],[72.6642,40.5778],[72.6505,40.5322],[72.6255,40.5105],[72.5858,40.5087],[72.5153,40.5456],[72.4479,40.5605],[72.3816,40.6121],[72.3519,40.602],[72.3485,40.5854],[72.3701,40.5577],[72.3635,40.5123],[72.4157,40.4793],[72.4262,40.4593],[72.4144,40.4107],[72.3941,40.3894],[72.3705,40.3856],[72.2696,40.424],[72.2116,40.4256],[72.2636,40.4525],[72.2283,40.4596]]]}},{"type":"Feature","id":"Bukhara","properties":{"id":"Bukhara","iso_code":"UZ-BU","name":"Bukhara","name_full":"Bukhara","name_ja":"ブハラ州","center_lonlat":[63.7203,40.1784]},"geometry":{"type":"Polygon","coordinates":[[[62.1871,40.5055],[62.3956,40.7027],[62.4473,40.7883],[62.4027,40.8599],[62.2395,40.999],[62.4654,41.081],[62.4646,41.0947],[62.1804,41.3923],[62.5348,41.4933],[62.6191,41.4918],[62.6755,41.4038],[62.8437,41.2546],[62.9786,41.0746],[63.2223,41.0103],[63.3764,40.9447],[63.6773,40.8043],[63.7366,40.7458],[63.7351,40.7262],[63.8542,40.758],[63.9256,40.8386],[63.985,40.9328],[64.0429,40.9698],[64.1017,40.9305],[64.1085,40.8306],[64.1223,40.809],[64.1647,40.7975],[64.4355,40.773],[64.458,40.7889],[64.4884,40.8782],[64.5412,40.8956],[64.7171,40.907],[64.7491,40.9175],[64.7812,40.952],[64.7933,40.9508],[64.802,40.9269],[64.8465,40.7704],[64.9158,40.7335],[65.0144,40.7151],[65.3175,40.6991],[65.3654,40.7097],[65.337,40.6221],[65.3403,40.5275],[65.2475,40.5295],[65.2078,40.4407],[65.1674,40.4079],[65.134,40.3361],[65.0164,40.3371],[64.9327,40.3714],[64.8754,40.3668],[64.8496,40.3511],[64.8501,40.3043],[64.8751,40.285],[64.8442,40.2371],[64.9047,40.1712],[64.83,40.1496],[64.7688,40.0605],[64.6721,40.0162],[64.59,39.9078],[64.6782,39.8058],[64.753,39.7711],[64.7631,39.7477],[64.7964,39.7415],[64.8549,39.7544],[64.9832,39.6999],[65.0098,39.6539],[65.0214,39.5951],[65.0796,39.5732],[65.1134,39.5424],[65.1378,39.4643],[64.9778,39.3514],[64.9313,39.3412],[64.8454,39.2666],[64.8409,39.238],[64.8881,39.187],[64.8847,39.1638],[64.5213,39.0561],[64.4744,39.031],[64.3676,38.9404],[64.3136,38.9825],[64.1801,38.9451],[64.1206,38.9617],[63.7093,39.1909],[63.541,39.3561],[63.4776,39.4029],[62.5932,39.8902],[62.4528,40.0092],[62.4216,40.1151],[62.4358,40.1942],[62.4051,40.2452],[62.3965,40.312],[62.3626,40.3697],[62.3533,40.4304],[62.1871,40.5055]]]}},{"type":"Feature","id":"Fergana","properties":{"id":"Fergana","iso_code":"UZ-FA","name":"Fergana","name_full":"Fergana","name_ja":"フェルガナ州","center_lonlat":[71.2875,40.4666]},"geometry":{"type":"MultiPolygon","coordinates":[[[[70.7563,40.6956],[70.813,40.7365],[70.8844,40.7426],[70.9315,40.7747],[71.0138,40.7576],[71.127,40.7623],[71.0633,40.6963],[71.1155,40.686],[71.1512,40.6602],[71.271,40.6169],[71.2939,40.6204],[71.4103,40.7166],[71.5818,40.7743],[71.6476,40.6953],[71.6553,40.716],[71.7481,40.7038],[71.8115,40.6853],[71.8771,40.6212],[71.9587,40.6201],[72.0658,40.5984],[72.1035,40.6168],[72.1443,40.5828],[72.2076,40.57],[72.2228,40.5554],[72.216,40.5014],[72.2283,40.4596],[72.1659,40.4544],[72.0993,40.4264],[72.0696,40.3694],[71.9567,40.3157],[71.9582,40.2865],[72.0198,40.2587],[72.0189,40.24],[71.8365,40.2492],[71.7759,40.1799],[71.6933,40.1411],[71.6731,40.1479],[71.6602,40.2245],[71.6283,40.2589],[71.6101,40.2464],[71.593,40.1984],[71.5212,40.2037],[71.4771,40.2208],[71.4414,40.2609],[71.3966,40.2715],[71.3651,40.2941],[71.2832,40.2984],[71.2538,40.3244],[71.2396,40.3211],[71.201,40.2638],[71.0532,40.2742],[70.9951,40.2666],[70.959,40.2384],[70.8497,40.2338],[70.7072,40.2002],[70.6221,40.1996],[70.5818,40.2217],[70.5506,40.3105],[70.524,40.3437],[70.4422,40.3433],[70.3714,40.3649],[70.3849,40.3997],[70.357,40.4304],[70.3538,40.4561],[70.3994,40.4902],[70.4778,40.5055],[70.5255,40.5571],[70.5693,40.5704],[70.7563,40.6956]]],[[[71.0086,40.1578],[71.0312,40.1469],[71.0788,40.0786],[71.106,40.0649],[71.1694,40.0428],[71.2237,40.0579],[71.244,40.0468],[71.2373,40.0311],[71.1747,39.994],[71.177,39.9682],[71.2211,39.9317],[71.2084,39.8888],[71.0989,39.8755],[71.08,39.9034],[71.061,39.9041],[71.0219,39.8808],[71.0093,39.8857],[71.0076,39.9112],[71.0504,39.9629],[71.0458,39.992],[70.9945,40.0089],[70.953,40.0792],[70.9771,40.1446],[71.0086,40.1578]]],[[[71.7855,39.9897],[71.7573,39.9031],[71.6968,39.9138],[71.6655,39.9402],[71.7855,39.9897]]]]}},{"type":"Feature","id":"Jizzakh","properties":{"id":"Jizzakh","iso_code":"UZ-JI","name":"Jizzakh","name_full":"Jizzakh","name_ja":"ジザフ州","center_lonlat":[67.6414,40.374]},"geometry":{"type":"Polygon","coordinates":[[[68.6427,40.1837],[68.5811,40.1642],[68.6517,40.1208],[68.6965,40.1117],[68.6341,40.0357],[68.6583,39.9543],[68.6517,39.9159],[68.6293,39.9264],[68.6205,39.9186],[68.6529,39.8954],[68.6403,39.8481],[68.6262,39.8496],[68.6158,39.8281],[68.6003,39.6429],[68.5629,39.6036],[68.5202,39.5825],[68.5067,39.5676],[68.5174,39.5484],[68.4977,39.5414],[68.3376,39.5279],[68.2559,39.5506],[68.1062,39.5541],[67.7176,39.6234],[67.5874,39.5627],[67.5074,39.5529],[67.4876,39.538],[67.4912,39.4901],[67.4365,39.4857],[67.3051,39.579],[67.2948,39.5956],[67.297,39.6649],[67.306,39.6822],[67.3716,39.6936],[67.3695,39.763],[67.3816,39.7804],[67.4998,39.8164],[67.4767,39.9175],[67.4599,39.9382],[67.1797,39.9729],[67.1009,39.9895],[67.0891,40.0049],[67.0664,39.9991],[67.0316,40.0288],[67.0272,40.0687],[66.9479,40.0649],[66.9363,40.1247],[66.971,40.1428],[66.9759,40.175],[66.9487,40.2008],[66.9457,40.2333],[66.9066,40.2589],[66.8902,40.3275],[66.8888,40.3813],[66.9074,40.4371],[66.8936,40.4688],[66.883,40.4781],[66.8279,40.4726],[66.6202,40.4951],[66.8012,40.7752],[66.7685,40.827],[66.7653,40.8872],[66.6693,40.9093],[66.6355,40.9347],[66.6143,41.0842],[66.6352,41.1122],[66.7579,41.1531],[66.8153,41.1419],[67.7481,41.1841],[67.8349,41.1569],[67.9374,41.2004],[67.9589,41.1595],[68.0031,41.1156],[68.0344,41.0427],[68.0591,41.0548],[68.0821,41.0427],[68.096,41.0651],[68.1174,41.0667],[68.1189,41.034],[68.1313,41.0296],[68.0997,41.0136],[68.1209,40.9938],[68.1206,40.9653],[68.0806,40.873],[67.9909,40.8111],[68.0675,40.788],[68.1589,40.7191],[68.2665,40.6627],[68.2642,40.6224],[68.2509,40.6117],[68.1702,40.5922],[68.1646,40.5261],[68.2141,40.5288],[68.2167,40.5162],[68.0986,40.3093],[68.0918,40.2798],[68.106,40.2367],[68.3644,40.2257],[68.6685,40.2823],[68.6301,40.202],[68.6427,40.1837]]]}},{"type":"Feature","id":"Karakalpakstan","properties":{"id":"Karakalpakstan","iso_code":"UZ-QR","name":"Karakalpakstan","name_full":"Karakalpakstan","name_ja":"カラカルパクスタン共和国","center_lonlat":[58.8174,43.4203]},"geometry":{"type":"Polygon","coordinates":[[[62.0283,43.4809],[62.1352,43.3477],[62.1853,43.3139],[62.471,43.2528],[61.9367,42.4922],[61.8816,42.3969],[61.8591,42.177],[61.9959,41.98],[61.7431,41.861],[61.7516,41.8342],[62.1804,41.3923],[62.4646,41.0947],[62.4654,41.081],[62.2395,40.999],[62.1867,40.9859],[62.1576,40.9957],[62.034,41.1427],[61.8638,41.2846],[61.7113,41.3548],[61.4661,41.3897],[61.4129,41.3702],[61.3396,41.2881],[61.2687,41.3019],[61.2442,41.3455],[61.1911,41.39],[61.0918,41.4136],[60.7385,41.6395],[60.6803,41.7016],[60.652,41.7569],[60.55,41.7773],[60.4699,41.8851],[60.459,41.9666],[60.4448,41.9753],[60.2969,42.0034],[60.2209,41.9615],[60.1506,41.9479],[60.1648,41.9063],[60.1411,41.8742],[60.0888,41.9194],[59.9837,41.949],[59.9318,41.9476],[59.9065,41.9666],[59.9193,41.9897],[59.9972,42.0106],[59.9745,42.0992],[59.9837,42.1456],[60.037,42.1697],[60.0404,42.1865],[59.9257,42.2463],[59.8664,42.3042],[59.6895,42.3098],[59.4265,42.2868],[59.3616,42.3258],[59.2872,42.3359],[59.2452,42.3653],[59.2238,42.4609],[59.1461,42.5268],[59.122,42.538],[59.0092,42.5185],[58.8944,42.5478],[58.5879,42.7912],[58.5694,42.7685],[58.5557,42.6836],[58.5345,42.6545],[58.4418,42.6478],[58.2583,42.6895],[58.1488,42.649],[58.1213,42.6242],[58.1457,42.5926],[58.3062,42.5287],[58.4379,42.3577],[58.4896,42.3145],[58.4906,42.2976],[58.3976,42.2879],[58.3858,42.3013],[58.3949,42.3522],[58.3847,42.3878],[58.325,42.4319],[58.2038,42.4695],[58.1332,42.4546],[58.0799,42.4973],[58.016,42.4997],[57.9086,42.4304],[57.9375,42.3542],[57.8881,42.2616],[57.8273,42.2274],[57.8505,42.1914],[57.6198,42.1482],[57.4783,42.1665],[57.3823,42.1636],[57.2882,42.1294],[57.2078,42.0706],[57.1155,41.9521],[56.9784,41.8951],[56.9501,41.8661],[56.972,41.7485],[56.9605,41.6472],[57.0121,41.5578],[57.0196,41.4659],[57.0742,41.395],[57.1614,41.368],[57.148,41.3511],[57.0801,41.322],[57.0295,41.2626],[57.0102,41.2541],[56.7935,41.2883],[55.9784,41.3217],[55.9761,44.9951],[57.4783,45.3369],[58.5549,45.5572],[61.0363,44.3828],[61.0802,44.3355],[61.1029,44.2361],[61.1617,44.1681],[61.9857,43.4933],[62.0283,43.4809]]]}},{"type":"Feature","id":"Namangan","properties":{"id":"Namangan","iso_code":"UZ-NG","name":"Namangan","name_full":"Namangan","name_ja":"ナマンガン州","center_lonlat":[71.2477,41.0482]},"geometry":{"type":"Polygon","coordinates":[[[70.4708,41.4049],[70.6678,41.4714],[70.7036,41.4455],[70.7692,41.3521],[70.7563,41.2696],[70.7704,41.2385],[70.8285,41.2491],[70.9142,41.193],[71.0247,41.1898],[71.1231,41.1582],[71.1801,41.1081],[71.1899,41.1275],[71.1857,41.1802],[71.2064,41.1888],[71.2415,41.1752],[71.2761,41.1132],[71.2895,41.1139],[71.3252,41.1573],[71.3937,41.1127],[71.4161,41.1274],[71.4215,41.1621],[71.4188,41.3474],[71.5238,41.2967],[71.5579,41.3017],[71.5855,41.3235],[71.6374,41.4313],[71.5955,41.4937],[71.6274,41.5432],[71.6714,41.5474],[71.6895,41.4938],[71.6719,41.4255],[71.6814,41.4228],[71.6961,41.4474],[71.7216,41.4248],[71.7304,41.4512],[71.7452,41.4528],[71.847,41.3418],[71.8688,41.2792],[71.8716,41.1945],[71.8977,41.1849],[71.977,41.1952],[72.0338,41.1566],[72.1085,41.1964],[72.1584,41.1879],[72.1856,41.0606],[72.1651,40.9994],[72.1955,41.0064],[72.1659,40.9069],[72.1477,40.8975],[72.0562,40.8911],[71.9076,40.9166],[71.8343,40.916],[71.7809,40.8983],[71.7477,40.9109],[71.6442,40.89],[71.5819,40.8398],[71.6106,40.7958],[71.5818,40.7743],[71.4103,40.7166],[71.2939,40.6204],[71.271,40.6169],[71.1512,40.6602],[71.1155,40.686],[71.0633,40.6963],[71.127,40.7623],[71.0138,40.7576],[70.9315,40.7747],[70.8844,40.7426],[70.813,40.7365],[70.7563,40.6956],[70.7671,40.7376],[70.6374,40.7706],[70.6218,40.786],[70.6287,40.8159],[70.6487,40.8175],[70.7032,40.7889],[70.6969,40.8162],[70.458,41.0157],[70.4588,41.1352],[70.4098,41.1963],[70.438,41.2597],[70.4034,41.2743],[70.3972,41.3064],[70.4708,41.4049]],[[70.6451,40.9352],[70.6167,40.9935],[70.5659,41.0184],[70.5498,41.0152],[70.6084,40.9509],[70.6451,40.9352]]]}},{"type":"Feature","id":"Navoiy","properties":{"id":"Navoiy","iso_code":"UZ-NW","name":"Navoiy","name_full":"Navoiy","name_ja":"ナヴァーイー州","center_lonlat":[64.3596,41.9761]},"geometry":{"type":"Polygon","coordinates":[[[66.7579,41.1531],[66.6352,41.1122],[66.6143,41.0842],[66.6355,40.9347],[66.6693,40.9093],[66.7653,40.8872],[66.7685,40.827],[66.8012,40.7752],[66.6202,40.4951],[66.5837,40.5301],[66.5852,40.572],[66.5117,40.6256],[66.3978,40.578],[66.3617,40.5778],[66.2902,40.6082],[66.2507,40.5993],[66.2088,40.5379],[66.2056,40.5058],[66.2252,40.464],[66.1857,40.4341],[66.1998,40.3672],[66.1781,40.3165],[66.1983,40.2846],[66.1596,40.2374],[66.1177,40.1473],[66.1757,40.1386],[66.1841,40.1184],[66.0943,40.0512],[65.8786,40.0157],[65.8363,40.0224],[65.6929,40.0688],[65.6516,40.1092],[65.506,40.1444],[65.4913,40.1236],[65.4855,40.0761],[65.4548,40.0386],[65.482,40.0153],[65.4353,39.9057],[65.3571,39.9009],[65.2863,39.9263],[65.2526,39.8836],[65.1232,39.858],[65.1291,39.8405],[65.1948,39.7851],[65.2262,39.6932],[65.19,39.6037],[65.2556,39.4918],[65.1378,39.4643],[65.1134,39.5424],[65.0796,39.5732],[65.0214,39.5951],[65.0098,39.6539],[64.9832,39.6999],[64.8549,39.7544],[64.7964,39.7415],[64.7631,39.7477],[64.753,39.7711],[64.6782,39.8058],[64.59,39.9078],[64.6721,40.0162],[64.7688,40.0605],[64.83,40.1496],[64.9047,40.1712],[64.8442,40.2371],[64.8751,40.285],[64.8501,40.3043],[64.8496,40.3511],[64.8754,40.3668],[64.9327,40.3714],[65.0164,40.3371],[65.134,40.3361],[65.1674,40.4079],[65.2078,40.4407],[65.2475,40.5295],[65.3403,40.5275],[65.337,40.6221],[65.3654,40.7097],[65.3175,40.6991],[65.0144,40.7151],[64.9158,40.7335],[64.8465,40.7704],[64.802,40.9269],[64.7933,40.9508],[64.7812,40.952],[64.7491,40.9175],[64.7171,40.907],[64.5412,40.8956],[64.4884,40.8782],[64.458,40.7889],[64.4355,40.773],[64.1647,40.7975],[64.1223,40.809],[64.1085,40.8306],[64.1017,40.9305],[64.0429,40.9698],[63.985,40.9328],[63.9256,40.8386],[63.8542,40.758],[63.7351,40.7262],[63.7366,40.7458],[63.6773,40.8043],[63.3764,40.9447],[63.2223,41.0103],[62.9786,41.0746],[62.8437,41.2546],[62.6755,41.4038],[62.6191,41.4918],[62.5348,41.4933],[62.1804,41.3923],[61.7516,41.8342],[61.7431,41.861],[61.9959,41.98],[61.8591,42.177],[61.8816,42.3969],[61.9367,42.4922],[62.471,43.2528],[62.1853,43.3139],[62.1352,43.3477],[62.0283,43.4809],[63.208,43.6275],[64.4267,43.547],[64.855,43.7129],[64.9229,43.7191],[65.2714,43.417],[65.5169,43.2972],[65.7952,42.8772],[66.1013,42.9903],[66.0532,42.4409],[66.0137,42.403],[66.0087,42.0027],[66.5041,41.9935],[66.5389,41.7408],[66.6882,41.1992],[66.733,41.1581],[66.7579,41.1531]]]}},{"type":"Feature","id":"Qashqadaryo","properties":{"id":"Qashqadaryo","iso_code":"UZ-QA","name":"Qashqadaryo","name_full":"Qashqadaryo","name_ja":"カシュカダリヤ州","center_lonlat":[66.0955,38.8421]},"geometry":{"type":"Polygon","coordinates":[[[67.3587,39.2904],[67.3444,39.2738],[67.35,39.2201],[67.3782,39.1995],[67.499,39.166],[67.5803,39.1636],[67.6198,39.1513],[67.6377,39.1315],[67.6676,39.1318],[67.6786,39.1059],[67.6733,39.003],[67.6404,38.9885],[67.5551,38.9834],[67.5183,38.9599],[67.529,38.8851],[67.5568,38.8411],[67.5594,38.7703],[67.5321,38.7046],[67.4516,38.7319],[67.3943,38.7132],[67.319,38.6063],[67.2917,38.5861],[67.237,38.5723],[67.2179,38.5433],[67.1571,38.4975],[67.1237,38.3872],[67.0002,38.3064],[66.8871,38.2692],[66.8287,38.1739],[66.6985,38.0755],[66.6819,38.0061],[66.6662,37.9818],[66.6365,37.9666],[66.6243,37.9938],[66.5904,38.013],[66.5159,38.0351],[66.4083,38.0428],[66.3069,38.0804],[66.2311,38.1488],[66.1336,38.1753],[66.0435,38.2262],[65.9775,38.2346],[65.8767,38.273],[65.8144,38.2662],[65.7402,38.2241],[65.6716,38.2197],[65.6041,38.2374],[65.2053,38.4496],[64.9777,38.6123],[64.9105,38.6453],[64.7634,38.686],[64.6349,38.7441],[64.4243,38.883],[64.3676,38.9404],[64.4744,39.031],[64.5213,39.0561],[64.8847,39.1638],[64.8881,39.187],[64.8409,39.238],[64.8454,39.2666],[64.9313,39.3412],[64.9778,39.3514],[65.1378,39.4643],[65.2556,39.4918],[65.6826,39.4834],[65.7412,39.5108],[65.7486,39.5508],[65.7993,39.5559],[65.8283,39.543],[65.8595,39.4813],[65.9667,39.4109],[65.9795,39.3372],[66.0528,39.3195],[66.1042,39.3237],[66.2206,39.3709],[66.3888,39.3979],[66.4735,39.3486],[66.5106,39.3401],[66.5854,39.3635],[66.6336,39.4143],[66.6886,39.4306],[66.8737,39.4051],[66.8974,39.3616],[66.8908,39.3104],[66.914,39.2961],[67.0509,39.2992],[67.067,39.3141],[67.0664,39.3391],[67.3587,39.2904]]]}},{"type":"Feature","id":"Samarqand","properties":{"id":"Samarqand","iso_code":"UZ-SA","name":"Samarqand","name_full":"Samarqand","name_ja":"サマルカンド州","center_lonlat":[66.3991,39.8353]},"geometry":{"type":"Polygon","coordinates":[[[67.4365,39.4857],[67.4148,39.4381],[67.3869,39.2942],[67.3587,39.2904],[67.0664,39.3391],[67.067,39.3141],[67.0509,39.2992],[66.914,39.2961],[66.8908,39.3104],[66.8974,39.3616],[66.8737,39.4051],[66.6886,39.4306],[66.6336,39.4143],[66.5854,39.3635],[66.5106,39.3401],[66.4735,39.3486],[66.3888,39.3979],[66.2206,39.3709],[66.1042,39.3237],[66.0528,39.3195],[65.9795,39.3372],[65.9667,39.4109],[65.8595,39.4813],[65.8283,39.543],[65.7993,39.5559],[65.7486,39.5508],[65.7412,39.5108],[65.6826,39.4834],[65.2556,39.4918],[65.19,39.6037],[65.2262,39.6932],[65.1948,39.7851],[65.1291,39.8405],[65.1232,39.858],[65.2526,39.8836],[65.2863,39.9263],[65.3571,39.9009],[65.4353,39.9057],[65.482,40.0153],[65.4548,40.0386],[65.4855,40.0761],[65.4913,40.1236],[65.506,40.1444],[65.6516,40.1092],[65.6929,40.0688],[65.8363,40.0224],[65.8786,40.0157],[66.0943,40.0512],[66.1841,40.1184],[66.1757,40.1386],[66.1177,40.1473],[66.1596,40.2374],[66.1983,40.2846],[66.1781,40.3165],[66.1998,40.3672],[66.1857,40.4341],[66.2252,40.464],[66.2056,40.5058],[66.2088,40.5379],[66.2507,40.5993],[66.2902,40.6082],[66.3617,40.5778],[66.3978,40.578],[66.5117,40.6256],[66.5852,40.572],[66.5837,40.5301],[66.6202,40.4951],[66.8279,40.4726],[66.883,40.4781],[66.8936,40.4688],[66.9074,40.4371],[66.8888,40.3813],[66.8902,40.3275],[66.9066,40.2589],[66.9457,40.2333],[66.9487,40.2008],[66.9759,40.175],[66.971,40.1428],[66.9363,40.1247],[66.9479,40.0649],[67.0272,40.0687],[67.0316,40.0288],[67.0664,39.9991],[67.0891,40.0049],[67.1009,39.9895],[67.1797,39.9729],[67.4599,39.9382],[67.4767,39.9175],[67.4998,39.8164],[67.3816,39.7804],[67.3695,39.763],[67.3716,39.6936],[67.306,39.6822],[67.297,39.6649],[67.2948,39.5956],[67.3051,39.579],[67.4365,39.4857]]]}},{"type":"Feature","id":"Sirdaryo","properties":{"id":"Sirdaryo","iso_code":"UZ-SI","name":"Sirdaryo","name_full":"Sirdaryo","name_ja":"シルダリヤ州","center_lonlat":[68.6502,40.4825]},"geometry":{"type":"MultiPolygon","coordinates":[[[[69.0736,40.2169],[69.0192,40.2321],[68.8566,40.2127],[68.8019,40.1911],[68.7205,40.1965],[68.6427,40.1837],[68.6301,40.202],[68.6685,40.2823],[68.3644,40.2257],[68.106,40.2367],[68.0918,40.2798],[68.0986,40.3093],[68.2167,40.5162],[68.2141,40.5288],[68.1646,40.5261],[68.1702,40.5922],[68.2509,40.6117],[68.2642,40.6224],[68.2665,40.6627],[68.4617,40.5847],[68.5148,40.6191],[68.593,40.5995],[68.6142,40.6091],[68.6204,40.6222],[68.6011,40.63],[68.6274,40.6671],[68.6094,40.7158],[68.5663,40.7325],[68.5497,40.835],[68.5719,40.8705],[68.5709,40.9135],[68.5892,40.9066],[68.6001,40.9301],[68.6495,40.9517],[68.7081,40.9076],[68.7153,40.8665],[68.7338,40.869],[68.74,40.8451],[68.8,40.8397],[68.843,40.7979],[68.8875,40.777],[68.9032,40.7352],[68.9557,40.7072],[68.9448,40.6806],[68.9602,40.6735],[69.0035,40.688],[69.0129,40.6837],[68.9932,40.6533],[69.0538,40.6583],[69.0888,40.6123],[69.0683,40.5843],[69.1061,40.5986],[69.1214,40.5884],[69.0966,40.5726],[69.0758,40.5229],[69.1167,40.5155],[69.0979,40.5074],[69.124,40.4595],[69.0942,40.4191],[69.0706,40.3206],[69.0933,40.27],[69.0736,40.2169]]],[[[68.6403,39.8481],[68.6529,39.8954],[68.6205,39.9186],[68.6293,39.9264],[68.6517,39.9159],[68.6583,39.9543],[68.6341,40.0357],[68.6965,40.1117],[68.9307,40.1468],[68.9773,40.121],[68.987,40.0917],[68.9773,40.0649],[68.8818,40.0708],[68.8131,40.0389],[68.7747,40.0799],[68.7617,40.0615],[68.785,40.0339],[68.7894,39.994],[68.8774,39.9006],[68.8808,39.8783],[68.8383,39.8646],[68.7798,39.9694],[68.7589,39.9806],[68.7556,39.954],[68.7874,39.8817],[68.7575,39.8575],[68.7483,39.8261],[68.7282,39.825],[68.6851,39.868],[68.6403,39.8481]]]]}},{"type":"Feature","id":"Surxondaryo","properties":{"id":"Surxondaryo","iso_code":"UZ-SU","name":"Surxondaryo","name_full":"Surxondaryo","name_ja":"スルハンダリヤ州","center_lonlat":[67.4581,38.0207]},"geometry":{"type":"Polygon","coordinates":[[[67.6733,39.003],[67.6905,38.9896],[67.8184,38.9734],[67.9489,39.002],[68.0198,38.9797],[68.0773,38.9955],[68.1009,38.9793],[68.1637,38.8875],[68.1726,38.8453],[68.136,38.8045],[68.0667,38.788],[68.0759,38.7269],[68.0376,38.6916],[68.0537,38.6359],[68.0552,38.5363],[68.0869,38.494],[68.1076,38.4183],[68.2008,38.3217],[68.332,38.243],[68.3562,38.2126],[68.3607,38.1741],[68.3195,38.0602],[68.2487,37.949],[68.14,37.9227],[68.1222,37.9083],[68.0502,37.7604],[67.8719,37.5868],[67.8292,37.5279],[67.8012,37.4664],[67.7973,37.4244],[67.8206,37.3033],[67.7805,37.1889],[67.776,37.2075],[67.7466,37.2294],[67.6775,37.2335],[67.6332,37.2541],[67.5923,37.2472],[67.5614,37.2199],[67.5261,37.2729],[67.5031,37.282],[67.3912,37.2196],[67.2591,37.1851],[67.2368,37.1924],[67.1878,37.2582],[67.1233,37.282],[67.0974,37.3406],[67.0059,37.3844],[66.735,37.3633],[66.6941,37.3434],[66.5886,37.3685],[66.5196,37.3642],[66.4948,37.3794],[66.497,37.3977],[66.5466,37.4508],[66.4935,37.5222],[66.5191,37.6253],[66.5188,37.7827],[66.6458,37.9459],[66.6365,37.9666],[66.6662,37.9818],[66.6819,38.0061],[66.6985,38.0755],[66.8287,38.1739],[66.8871,38.2692],[67.0002,38.3064],[67.1237,38.3872],[67.1571,38.4975],[67.2179,38.5433],[67.237,38.5723],[67.2917,38.5861],[67.319,38.6063],[67.3943,38.7132],[67.4516,38.7319],[67.5321,38.7046],[67.5594,38.7703],[67.5568,38.8411],[67.529,38.8851],[67.5183,38.9599],[67.5551,38.9834],[67.6404,38.9885],[67.6733,39.003]]]}},{"type":"Feature","id":"Tashkent","properties":{"id":"Tashkent","iso_code":"UZ-TO","name":"Tashkent","name_full":"Tashkent","name_ja":"タシュケント州","center_lonlat":[69.7805,41.2521]},"geometry":{"type":"Polygon","coordinates":[[[70.4708,41.4049],[70.3972,41.3064],[70.4034,41.2743],[70.438,41.2597],[70.4098,41.1963],[70.4588,41.1352],[70.458,41.0157],[70.4012,41.04],[70.3635,41.0324],[70.3359,40.927],[70.2804,40.8777],[70.1042,40.8133],[70.0097,40.758],[69.8033,40.7056],[69.7177,40.6363],[69.6909,40.63],[69.6475,40.6474],[69.5092,40.7747],[69.4773,40.777],[69.4358,40.8027],[69.3693,40.7894],[69.3142,40.7293],[69.3093,40.5958],[69.2343,40.5853],[69.1984,40.5665],[69.198,40.5458],[69.2383,40.494],[69.3127,40.3428],[69.3053,40.2938],[69.2084,40.2983],[69.2125,40.2688],[69.2853,40.2186],[69.2853,40.195],[69.2477,40.1817],[69.1979,40.183],[69.0736,40.2169],[69.0933,40.27],[69.0706,40.3206],[69.0942,40.4191],[69.124,40.4595],[69.0979,40.5074],[69.1167,40.5155],[69.0758,40.5229],[69.0966,40.5726],[69.1214,40.5884],[69.1061,40.5986],[69.0683,40.5843],[69.0888,40.6123],[69.0538,40.6583],[68.9932,40.6533],[69.0129,40.6837],[69.0035,40.688],[68.9602,40.6735],[68.9448,40.6806],[68.9557,40.7072],[68.9032,40.7352],[68.8875,40.777],[68.843,40.7979],[68.8,40.8397],[68.74,40.8451],[68.7338,40.869],[68.7153,40.8665],[68.7081,40.9076],[68.6495,40.9517],[68.7095,40.9838],[68.7463,41.0638],[68.7738,41.0873],[68.8424,41.1101],[68.8802,41.1555],[68.9438,41.1649],[69.0312,41.2088],[69.0548,41.3154],[69.0362,41.374],[69.1095,41.4007],[69.1281,41.3951],[69.1627,41.4341],[69.2171,41.4601],[69.2629,41.4546],[69.3311,41.4779],[69.4024,41.4748],[69.3808,41.5188],[69.3938,41.545],[69.4773,41.5731],[69.6246,41.6683],[69.9124,41.7129],[69.972,41.7646],[70.028,41.78],[70.1111,41.826],[70.2042,41.9358],[70.2703,41.9656],[70.3151,42.0346],[70.3579,42.0622],[70.4702,42.0916],[70.5045,42.0685],[70.5342,42.025],[70.579,42.0162],[70.6102,42.0274],[70.7343,42.1973],[70.8424,42.1925],[71.014,42.2877],[71.0776,42.2812],[71.2532,42.1976],[71.2382,42.1602],[71.1184,42.1229],[70.9771,42.0442],[70.8455,42.0304],[70.814,41.9195],[70.6489,41.8874],[70.5065,41.7856],[70.4537,41.7121],[70.1693,41.5783],[70.1483,41.5525],[70.1665,41.5202],[70.2034,41.5056],[70.3444,41.4938],[70.399,41.465],[70.4381,41.4161],[70.4708,41.4049]],[[69.2434,41.2192],[69.3259,41.2843],[69.3638,41.2985],[69.3535,41.3065],[69.3607,41.3159],[69.3366,41.3341],[69.3519,41.354],[69.3482,41.3702],[69.2569,41.4036],[69.2232,41.4033],[69.1701,41.363],[69.1361,41.2828],[69.1559,41.2883],[69.1897,41.2433],[69.2057,41.2558],[69.2008,41.242],[69.2133,41.225],[69.2434,41.2192]]]}},{"type":"Feature","id":"Tashkent (UZ-TK)","properties":{"id":"Tashkent (UZ-TK)","iso_code":"UZ-TK","name":"Tashkent (UZ-TK)","name_full":"Tashkent","name_ja":"タシュケント","center_lonlat":[69.2491,41.3177]},"geometry":{"type":"Polygon","coordinates":[[[69.2569,41.4036],[69.3482,41.3702],[69.3519,41.354],[69.3366,41.3341],[69.3607,41.3159],[69.3535,41.3065],[69.3638,41.2985],[69.3259,41.2843],[69.2434,41.2192],[69.2133,41.225],[69.2008,41.242],[69.2057,41.2558],[69.1897,41.2433],[69.1559,41.2883],[69.1361,41.2828],[69.1701,41.363],[69.2232,41.4033],[69.2569,41.4036]]]}},{"type":"Feature","id":"Xorazm","properties":{"id":"Xorazm","iso_code":"UZ-XO","name":"Xorazm","name_full":"Xorazm","name_ja":"ホラズム州","center_lonlat":[61.0235,41.344]},"geometry":{"type":"Polygon","coordinates":[[[60.1411,41.8742],[60.1648,41.9063],[60.1506,41.9479],[60.2209,41.9615],[60.2969,42.0034],[60.4448,41.9753],[60.459,41.9666],[60.4699,41.8851],[60.55,41.7773],[60.652,41.7569],[60.6803,41.7016],[60.7385,41.6395],[61.0918,41.4136],[61.1911,41.39],[61.2442,41.3455],[61.2687,41.3019],[61.3396,41.2881],[61.4129,41.3702],[61.4661,41.3897],[61.7113,41.3548],[61.8638,41.2846],[62.034,41.1427],[62.1576,40.9957],[62.1867,40.9859],[62.2395,40.999],[62.4027,40.8599],[62.4473,40.7883],[62.3956,40.7027],[62.1871,40.5055],[62.1207,40.599],[62.1001,40.6604],[62.0448,40.715],[61.9827,40.8857],[61.9827,40.9784],[61.9708,41.0154],[61.8779,41.125],[61.6544,41.2494],[61.5673,41.2778],[61.4332,41.3003],[61.4108,41.292],[61.3875,41.2358],[61.363,41.2252],[61.344,41.1938],[61.2814,41.1573],[61.2026,41.1688],[61.0997,41.2241],[61.0228,41.2169],[61.0103,41.2372],[60.978,41.2028],[60.9303,41.2402],[60.8603,41.253],[60.6589,41.2438],[60.5381,41.2132],[60.4781,41.2121],[60.4145,41.2353],[60.2999,41.3098],[60.0942,41.3895],[60.0661,41.4105],[60.0592,41.4342],[60.0717,41.5144],[60.0926,41.5455],[60.1647,41.585],[60.0583,41.7186],[60.0492,41.7535],[60.1024,41.7953],[60.1713,41.7884],[60.2254,41.7655],[60.2527,41.7801],[60.2289,41.8196],[60.1411,41.8742]]]}}]}
