{"type":"FeatureCollection","features":[{"type":"Feature","id":"Amazonas","properties":{"id":"Amazonas","iso_code":"VE-Z","name":"Amazonas","name_full":"Amazonas","name_ja":"アマソナス州","center_lonlat":[-65.9525,3.3665]},"geometry":{"type":"Polygon","coordinates":[[[-64.648,4.2079],[-64.6999,4.2642],[-64.7459,4.2876],[-64.7916,4.2844],[-64.8129,4.2528],[-64.8013,4.1885],[-64.7271,4.1408],[-64.7074,4.083],[-64.6429,3.973],[-64.575,3.9142],[-64.5314,3.8535],[-64.4345,3.7785],[-64.3242,3.7241],[-64.203,3.5947],[-64.1979,3.5151],[-64.2456,3.4189],[-64.2163,3.2514],[-64.2229,3.124],[-64.106,2.9472],[-63.9976,2.7149],[-64.0122,2.6038],[-64.0578,2.5104],[-64.048,2.4713],[-63.9518,2.4615],[-63.8313,2.4286],[-63.5738,2.4344],[-63.3649,2.4131],[-63.3726,2.2668],[-63.4118,2.1494],[-63.5107,2.1246],[-63.562,2.1264],[-63.6175,2.1012],[-63.7832,1.975],[-63.9208,1.9743],[-63.995,1.958],[-64.0366,1.9273],[-64.0536,1.8937],[-64.076,1.7454],[-64.0725,1.6846],[-64.093,1.6226],[-64.1297,1.5781],[-64.3015,1.4467],[-64.3529,1.3658],[-64.3701,1.3587],[-64.3896,1.3693],[-64.3948,1.3922],[-64.3646,1.4971],[-64.409,1.5075],[-64.5512,1.4195],[-64.6042,1.3313],[-64.7309,1.2476],[-64.7713,1.2467],[-64.8393,1.2708],[-64.8974,1.2197],[-64.9665,1.2006],[-65.0174,1.163],[-65.0225,1.14],[-65.1368,1.1269],[-65.1602,1.0802],[-65.179,0.9554],[-65.203,0.9238],[-65.3272,0.9103],[-65.4,0.8165],[-65.4139,0.7416],[-65.4512,0.6901],[-65.4978,0.6587],[-65.5427,0.6493],[-65.5852,0.6915],[-65.5873,0.7391],[-65.5332,0.8163],[-65.5185,0.8865],[-65.5598,0.958],[-65.6081,0.9853],[-65.7454,0.9742],[-65.8918,0.8956],[-65.9741,0.807],[-66.0792,0.7776],[-66.1344,0.7311],[-66.2087,0.7631],[-66.2851,0.7458],[-66.3462,0.7594],[-66.8751,1.2225],[-66.9009,1.289],[-66.8835,1.3499],[-66.9017,1.3945],[-66.9327,1.4246],[-66.9336,1.5017],[-66.9742,1.58],[-66.9809,1.6659],[-67.0873,1.9388],[-67.1326,1.9908],[-67.1112,2.0488],[-67.1146,2.103],[-67.121,2.1191],[-67.1778,2.1545],[-67.2173,2.2661],[-67.2177,2.2845],[-67.1737,2.3364],[-67.1897,2.3944],[-67.3254,2.4746],[-67.3406,2.5105],[-67.4709,2.6271],[-67.5003,2.6753],[-67.5756,2.6911],[-67.5943,2.7761],[-67.6266,2.8134],[-67.6904,2.8063],[-67.751,2.8421],[-67.8233,2.8273],[-67.8559,2.7898],[-67.8553,2.8582],[-67.8386,2.8861],[-67.4522,3.2437],[-67.3958,3.2666],[-67.3095,3.3839],[-67.3046,3.4257],[-67.4039,3.5045],[-67.4714,3.6801],[-67.4998,3.7179],[-67.5374,3.7355],[-67.5948,3.7309],[-67.6318,3.7619],[-67.6444,3.8346],[-67.6939,3.9286],[-67.7206,4.075],[-67.7402,4.1187],[-67.7862,4.173],[-67.8049,4.2685],[-67.7794,4.3508],[-67.7999,4.3989],[-67.7931,4.429],[-67.8135,4.4433],[-67.8291,4.4914],[-67.8566,4.5042],[-67.8751,4.5326],[-67.8552,4.5662],[-67.8456,4.6897],[-67.8229,4.7436],[-67.8135,4.8405],[-67.8264,4.8948],[-67.7931,5.0633],[-67.8266,5.1204],[-67.8135,5.1866],[-67.8437,5.2972],[-67.8346,5.3393],[-67.7726,5.4097],[-67.7521,5.4097],[-67.647,5.4834],[-67.6143,5.5537],[-67.636,5.5776],[-67.6491,5.6561],[-67.6412,5.7448],[-67.6251,5.7845],[-67.4852,5.9441],[-67.4225,5.9782],[-67.4286,6.0385],[-67.4543,6.0568],[-67.4912,6.1145],[-67.487,6.1668],[-67.4563,6.1932],[-67.3909,6.1221],[-67.362,6.1224],[-67.3315,6.1463],[-67.2883,6.1166],[-67.1957,6.113],[-67.178,6.0998],[-67.1496,6.0099],[-67.1445,5.9343],[-67.2018,5.7822],[-67.204,5.7228],[-67.1712,5.705],[-67.0767,5.714],[-67.0549,5.6943],[-67.0358,5.6323],[-67.0,5.6191],[-66.8176,5.6943],[-66.6949,5.6991],[-66.5529,5.7428],[-66.3408,5.9242],[-66.2992,5.8897],[-66.2749,5.7815],[-66.2438,5.7333],[-66.1959,5.741],[-66.1289,5.7834],[-66.0275,5.7822],[-65.9793,5.8093],[-65.9673,5.8533],[-65.8271,6.1102],[-65.7609,6.1415],[-65.6333,6.1474],[-65.5968,6.1284],[-65.5809,6.0713],[-65.6383,5.8543],[-65.6367,5.7892],[-65.6089,5.7149],[-65.582,5.6894],[-65.5518,5.6905],[-65.4751,5.7655],[-65.4375,5.7752],[-65.2659,5.7739],[-65.2246,5.7586],[-65.2264,5.7195],[-65.2634,5.6781],[-65.2645,5.6617],[-65.2418,5.6132],[-65.1356,5.526],[-65.1444,5.4731],[-65.1836,5.434],[-65.1202,5.3784],[-65.1175,5.3554],[-65.1326,5.3152],[-65.159,5.2937],[-65.2744,5.2768],[-65.2884,5.2489],[-65.2823,5.226],[-65.2222,5.1439],[-65.1841,4.9998],[-65.0851,4.7992],[-64.942,4.6252],[-64.8286,4.5979],[-64.7022,4.5877],[-64.6677,4.5583],[-64.6269,4.33],[-64.648,4.2079]]]}},{"type":"Feature","id":"Anzoategui","properties":{"id":"Anzoategui","iso_code":"VE-B","name":"Anzoategui","name_full":"Anzoátegui","name_ja":"アンソアテギ州","center_lonlat":[-64.4132,8.942]},"geometry":{"type":"Polygon","coordinates":[[[-65.4258,10.1434],[-65.1695,10.0973],[-65.0802,10.0626],[-65.1757,10.0836],[-65.1489,10.0584],[-65.084,10.0475],[-64.9635,10.0973],[-64.7766,10.0904],[-64.7286,10.1361],[-64.717,10.2276],[-64.6761,10.2133],[-64.6966,10.1997],[-64.6852,10.186],[-64.6676,10.1873],[-64.6576,10.1967],[-64.6686,10.2071],[-64.6314,10.2481],[-64.5724,10.2617],[-64.5799,10.2481],[-64.5594,10.2543],[-64.5522,10.2423],[-64.5361,10.2523],[-64.5147,10.2235],[-64.4458,10.1932],[-64.4358,10.1462],[-64.3473,10.0946],[-64.3057,10.1014],[-64.247,10.071],[-64.1538,10.0793],[-64.0374,10.1291],[-63.9792,10.1151],[-63.9488,10.0826],[-63.9882,10.0622],[-64.0557,10.0538],[-64.0617,9.9686],[-64.0342,9.9356],[-63.9884,9.9353],[-63.9901,9.9162],[-63.9489,9.8994],[-63.9226,9.8698],[-63.9229,9.8548],[-63.9456,9.8408],[-63.9645,9.7622],[-63.943,9.702],[-63.8466,9.5506],[-63.9691,9.411],[-63.9732,9.3239],[-63.9204,9.2651],[-63.9063,9.2055],[-63.8397,9.2301],[-63.807,9.2238],[-63.7719,9.2363],[-63.6803,9.1816],[-63.6336,9.1675],[-63.5976,9.118],[-63.5557,9.1011],[-63.4736,9.0325],[-63.4181,9.0083],[-63.3713,8.9187],[-63.3385,8.8054],[-63.3009,8.7779],[-62.9493,8.7939],[-62.9444,8.7817],[-62.9679,8.7573],[-63.0243,8.7601],[-63.0554,8.7091],[-63.0407,8.5959],[-62.9883,8.5526],[-62.7428,8.4734],[-62.7469,8.4324],[-62.6858,8.3857],[-62.7706,8.3753],[-62.8455,8.2939],[-62.9069,8.2669],[-62.9617,8.2844],[-62.9769,8.3095],[-63.0758,8.3205],[-63.1746,8.3134],[-63.2496,8.2855],[-63.3308,8.2139],[-63.4,8.2219],[-63.4736,8.1502],[-63.6132,8.1479],[-63.6677,8.1598],[-63.7607,8.1212],[-63.812,8.131],[-63.8399,8.1104],[-63.8854,8.0182],[-63.9811,7.9674],[-64.0659,7.9813],[-64.1256,7.9659],[-64.1438,7.9967],[-64.2316,8.0714],[-64.2833,8.0814],[-64.3129,8.0655],[-64.3524,8.009],[-64.4501,7.9906],[-64.5062,7.9992],[-64.5371,7.9839],[-64.5525,7.9253],[-64.5462,7.8967],[-64.4816,7.8435],[-64.4782,7.8147],[-64.4955,7.7908],[-64.551,7.7653],[-64.6371,7.7717],[-64.8385,7.6602],[-64.8731,7.6661],[-64.9961,7.7707],[-65.1037,7.8344],[-65.1924,7.8459],[-65.2781,7.8743],[-65.3567,7.8694],[-65.3892,7.9206],[-65.4845,7.931],[-65.4943,7.9917],[-65.4805,8.0239],[-65.3951,8.113],[-65.3659,8.1849],[-65.2066,8.3694],[-65.1501,8.5566],[-65.1512,8.6051],[-65.1708,8.6466],[-65.1494,8.7247],[-65.1315,8.7422],[-65.0799,8.7569],[-65.0088,8.7388],[-64.9108,8.75],[-64.8641,8.741],[-64.846,8.7731],[-64.8463,8.8296],[-64.7899,8.8781],[-64.8096,8.9149],[-64.8858,8.9824],[-64.9373,9.0038],[-64.9452,9.0628],[-64.9776,9.1115],[-65.0209,9.1289],[-65.0732,9.1738],[-65.1649,9.1786],[-65.2583,9.2772],[-65.2846,9.3766],[-65.2067,9.4343],[-65.2052,9.4859],[-65.2182,9.5068],[-65.3696,9.5548],[-65.4306,9.6505],[-65.4888,9.5692],[-65.7004,9.6858],[-65.665,9.774],[-65.7026,9.8463],[-65.6966,9.9534],[-65.6645,9.9794],[-65.6383,9.9707],[-65.5622,10.0063],[-65.4489,10.0796],[-65.4258,10.1434]]]}},{"type":"Feature","id":"Apure","properties":{"id":"Apure","iso_code":"VE-C","name":"Apure","name_full":"Apure","name_ja":"アプレ州","center_lonlat":[-68.8045,7.1485]},"geometry":{"type":"Polygon","coordinates":[[[-72.3958,7.4075],[-72.3197,7.4484],[-72.2437,7.4399],[-72.1885,7.4498],[-72.0688,7.375],[-71.9903,7.3655],[-71.8812,7.416],[-71.8416,7.4948],[-71.8094,7.4974],[-71.7488,7.4783],[-71.7159,7.4425],[-71.6603,7.4322],[-71.6396,7.4323],[-71.6276,7.4534],[-71.6072,7.4383],[-71.5631,7.4526],[-71.5209,7.4383],[-71.4544,7.4639],[-71.2677,7.4451],[-71.2489,7.4545],[-71.1892,7.4042],[-71.1447,7.3861],[-71.0614,7.3787],[-70.9811,7.3386],[-70.9468,7.308],[-70.9301,7.3132],[-70.8742,7.2875],[-70.7953,7.3148],[-70.6669,7.2874],[-70.6309,7.2943],[-70.6035,7.3284],[-70.5478,7.3337],[-70.5005,7.3837],[-70.48,7.3762],[-70.4602,7.4231],[-70.4043,7.4309],[-70.3683,7.4505],[-70.3209,7.5169],[-70.2889,7.6038],[-70.233,7.6165],[-70.1995,7.6028],[-70.1572,7.615],[-70.1335,7.6293],[-70.0866,7.7107],[-70.0139,7.7543],[-69.9355,7.7578],[-69.863,7.812],[-69.8351,7.8076],[-69.7907,7.8323],[-69.7337,7.8444],[-69.577,7.951],[-69.441,8.0717],[-69.3312,8.0619],[-69.1887,8.0707],[-69.1334,8.0416],[-69.1126,8.0069],[-69.0543,7.9802],[-69.0338,7.9932],[-68.9703,7.9994],[-68.9451,7.9318],[-68.8235,7.9025],[-68.7298,7.9158],[-68.6339,7.9694],[-68.5717,7.9659],[-68.4851,7.9386],[-68.4259,7.9794],[-68.3747,7.9913],[-68.3417,7.9659],[-68.2756,7.9709],[-68.2566,7.9565],[-68.0544,8.0485],[-67.9544,8.0547],[-67.8848,8.0267],[-67.8626,8.0348],[-67.6292,7.9932],[-67.6053,7.9994],[-67.5442,7.9588],[-67.5381,7.917],[-67.4681,7.9038],[-67.3958,7.9113],[-67.3379,7.8891],[-67.3045,7.8429],[-67.2265,7.7985],[-67.1397,7.7722],[-67.0568,7.7975],[-67.0157,7.7695],[-66.9508,7.7884],[-66.9318,7.7763],[-66.7648,7.7551],[-66.663,7.783],[-66.5461,7.7952],[-66.5455,7.8111],[-66.5275,7.8163],[-66.4758,7.7778],[-66.4778,7.7605],[-66.4565,7.7462],[-66.3948,7.7279],[-66.3526,7.7358],[-66.3246,7.6876],[-66.3305,7.6484],[-66.3707,7.6398],[-66.4273,7.5985],[-66.4822,7.5019],[-66.5206,7.4658],[-66.5345,7.4274],[-66.6145,7.3229],[-66.6928,7.3013],[-66.7218,7.275],[-66.7947,7.259],[-66.9312,7.1697],[-66.9952,7.1568],[-67.0742,7.0938],[-67.0898,7.0657],[-67.0816,7.0232],[-67.0344,6.9131],[-67.0619,6.8515],[-67.0429,6.822],[-67.0418,6.7826],[-67.0495,6.7553],[-67.1034,6.7015],[-67.1285,6.6383],[-67.1488,6.5285],[-67.1311,6.4755],[-67.1378,6.4586],[-67.2823,6.3622],[-67.3369,6.2542],[-67.4124,6.2406],[-67.451,6.198],[-67.4905,6.2016],[-67.574,6.2662],[-67.8272,6.3134],[-67.8681,6.2799],[-67.9043,6.2751],[-67.9241,6.2346],[-67.978,6.2178],[-68.1465,6.2238],[-68.3042,6.177],[-68.449,6.195],[-68.5225,6.1733],[-68.5847,6.17],[-68.6353,6.1359],[-68.8079,6.1843],[-68.8929,6.1843],[-69.0369,6.2188],[-69.0802,6.2094],[-69.1892,6.1126],[-69.2461,6.0807],[-69.3314,6.1564],[-69.4436,6.1222],[-70.1292,6.9725],[-70.195,6.9776],[-70.2876,6.9369],[-70.3191,6.9383],[-70.4517,7.0077],[-70.5107,7.0097],[-70.5786,7.0858],[-70.6393,7.0735],[-70.7033,7.0999],[-70.8955,7.0685],[-70.9613,7.0094],[-71.0113,6.9909],[-71.136,6.9921],[-71.184,6.9626],[-71.2755,6.9844],[-71.2925,7.0258],[-71.3494,7.0195],[-71.4139,7.031],[-71.4677,7.0124],[-71.5099,7.0346],[-71.5486,7.0283],[-71.5584,7.0412],[-71.5947,7.0301],[-71.6204,7.0521],[-71.6543,7.0534],[-71.6735,7.0442],[-71.6696,7.0277],[-71.774,7.0289],[-71.7778,7.0075],[-71.7996,7.0092],[-71.8326,6.9864],[-71.881,6.9866],[-71.9938,7.0129],[-72.0983,7.0868],[-72.1641,7.2208],[-72.1742,7.2796],[-72.164,7.3289],[-72.2062,7.3819],[-72.3958,7.4075]]]}},{"type":"Feature","id":"Aragua","properties":{"id":"Aragua","iso_code":"VE-D","name":"Aragua","name_full":"Aragua","name_ja":"アラグア州","center_lonlat":[-67.1593,10.0152]},"geometry":{"type":"Polygon","coordinates":[[[-67.8692,10.4613],[-67.8654,10.4522],[-67.8484,10.4741],[-67.7776,10.496],[-67.3918,10.5431],[-67.4051,10.5153],[-67.3568,10.4465],[-67.3396,10.3959],[-67.2895,10.4281],[-67.2387,10.4306],[-67.2202,10.4167],[-67.1743,10.3548],[-67.1875,10.3385],[-67.1865,10.313],[-67.1087,10.2649],[-67.1342,10.1545],[-67.1191,10.1115],[-67.0883,10.0828],[-67.0416,10.0531],[-67.0029,10.0749],[-66.9786,10.0716],[-66.9237,10.01],[-66.8785,9.9998],[-66.7914,10.0128],[-66.7482,9.9911],[-66.6128,9.9664],[-66.5838,9.7988],[-66.6227,9.7548],[-66.6211,9.721],[-66.6113,9.6968],[-66.5543,9.6502],[-66.5431,9.6227],[-66.5742,9.5277],[-66.5566,9.4709],[-66.5755,9.4095],[-66.6232,9.3916],[-66.6858,9.3948],[-66.8595,9.4569],[-66.9973,9.4523],[-66.9805,9.5093],[-66.899,9.5366],[-66.8764,9.5618],[-66.8559,9.6046],[-66.8587,9.6723],[-66.9039,9.6732],[-66.9485,9.6917],[-66.9862,9.75],[-67.0264,9.7574],[-67.0511,9.7847],[-67.1016,9.7995],[-67.1813,9.9198],[-67.2254,9.9237],[-67.2638,9.9111],[-67.2856,9.9314],[-67.3406,9.9264],[-67.4281,9.9874],[-67.5341,9.9515],[-67.5658,10.0018],[-67.6622,10.0329],[-67.6902,10.0244],[-67.6874,10.0633],[-67.6545,10.1039],[-67.6701,10.2444],[-67.6563,10.3061],[-67.6812,10.3297],[-67.7515,10.3433],[-67.8187,10.3224],[-67.8742,10.3794],[-67.8692,10.4613]]]}},{"type":"Feature","id":"Area_20","properties":{"id":"Area_20","iso_code":"VE-X01~","name":"Area_20","name_full":"Area_20","name_ja":"Area_20","center_lonlat":[-63.6381,15.6987]},"geometry":{"type":"Polygon","coordinates":[[[-63.6399,15.696],[-63.6436,15.7006],[-63.6396,15.7029],[-63.6346,15.7006],[-63.6339,15.6962],[-63.6355,15.694],[-63.6399,15.696]]]}},{"type":"Feature","id":"Barinas","properties":{"id":"Barinas","iso_code":"VE-E","name":"Barinas","name_full":"Barinas","name_ja":"バリナス州","center_lonlat":[-69.9229,8.165]},"geometry":{"type":"Polygon","coordinates":[[[-68.0365,8.5385],[-67.9747,8.4756],[-67.9796,8.4489],[-67.9598,8.4391],[-67.9446,8.4043],[-67.9104,8.4041],[-67.8831,8.37],[-67.8557,8.3768],[-67.8626,8.329],[-67.8466,8.3339],[-67.821,8.3154],[-67.8176,8.288],[-67.7937,8.2744],[-67.78,8.2949],[-67.7679,8.2391],[-67.7152,8.2402],[-67.6774,8.2095],[-67.6224,8.0962],[-67.5746,8.0826],[-67.5746,8.0485],[-67.5969,8.0545],[-67.5636,7.9952],[-67.5167,7.9813],[-67.5442,7.9588],[-67.6053,7.9994],[-67.6292,7.9932],[-67.8626,8.0348],[-67.8848,8.0267],[-67.9544,8.0547],[-68.0544,8.0485],[-68.2566,7.9565],[-68.2756,7.9709],[-68.3417,7.9659],[-68.3747,7.9913],[-68.4259,7.9794],[-68.4851,7.9386],[-68.5717,7.9659],[-68.6339,7.9694],[-68.7298,7.9158],[-68.8235,7.9025],[-68.9451,7.9318],[-68.9703,7.9994],[-69.0338,7.9932],[-69.0543,7.9802],[-69.1126,8.0069],[-69.1334,8.0416],[-69.1887,8.0707],[-69.3312,8.0619],[-69.441,8.0717],[-69.577,7.951],[-69.7337,7.8444],[-69.7907,7.8323],[-69.8351,7.8076],[-69.863,7.812],[-69.9355,7.7578],[-70.0139,7.7543],[-70.0866,7.7107],[-70.1335,7.6293],[-70.1572,7.615],[-70.1995,7.6028],[-70.233,7.6165],[-70.2889,7.6038],[-70.3209,7.5169],[-70.3683,7.4505],[-70.4043,7.4309],[-70.4602,7.4231],[-70.48,7.3762],[-70.5005,7.3837],[-70.5478,7.3337],[-70.6035,7.3284],[-70.6309,7.2943],[-70.6669,7.2874],[-70.7953,7.3148],[-70.8742,7.2875],[-70.9301,7.3132],[-70.9468,7.308],[-70.9811,7.3386],[-71.0614,7.3787],[-71.1447,7.3861],[-71.1892,7.4042],[-71.2489,7.4545],[-71.2677,7.4451],[-71.4544,7.4639],[-71.5209,7.4383],[-71.5631,7.4526],[-71.6072,7.4383],[-71.6276,7.4534],[-71.6396,7.4323],[-71.6603,7.4322],[-71.7159,7.4425],[-71.7488,7.4783],[-71.8094,7.4974],[-71.8416,7.4948],[-71.8477,7.5153],[-71.8379,7.5332],[-71.692,7.5493],[-71.4565,7.5136],[-71.3607,7.4862],[-71.3198,7.4964],[-71.3283,7.5115],[-71.378,7.524],[-71.4909,7.6298],[-71.4836,7.6845],[-71.4567,7.7024],[-71.4621,7.7695],[-71.4297,7.8023],[-71.2538,7.9228],[-71.2074,7.9761],[-71.0905,8.0675],[-71.0599,8.11],[-71.0118,8.2198],[-71.0315,8.279],[-71.0651,8.3078],[-71.0775,8.3763],[-71.0384,8.4243],[-71.0274,8.4653],[-70.9804,8.5067],[-70.9697,8.5919],[-70.93,8.6293],[-70.9101,8.6241],[-70.8377,8.7255],[-70.7686,8.7815],[-70.7523,8.784],[-70.7277,8.7647],[-70.6869,8.8236],[-70.5775,8.8567],[-70.5347,8.9553],[-70.4961,8.9993],[-70.4267,9.0225],[-70.2713,9.0234],[-70.1825,9.0079],[-70.0411,8.8917],[-70.0041,8.8471],[-69.8196,8.7513],[-69.7711,8.7501],[-69.7054,8.7238],[-69.6231,8.7779],[-69.6027,8.7466],[-69.4669,8.6704],[-69.2918,8.6432],[-69.2587,8.5843],[-69.1756,8.5005],[-69.1625,8.4417],[-69.1144,8.4319],[-69.1393,8.3788],[-69.1276,8.351],[-69.0763,8.2929],[-68.9861,8.2394],[-68.9484,8.186],[-68.8894,8.1526],[-68.8739,8.1218],[-68.8537,8.1123],[-68.821,8.1267],[-68.8285,8.2005],[-68.7922,8.3171],[-68.6785,8.3925],[-68.6542,8.4229],[-68.6036,8.4998],[-68.5735,8.6354],[-68.4231,8.6037],[-68.3956,8.6178],[-68.3262,8.602],[-68.1654,8.6089],[-68.0634,8.5754],[-68.0365,8.5385]]]}},{"type":"Feature","id":"Bolivar","properties":{"id":"Bolivar","iso_code":"VE-F","name":"Bolivar","name_full":"Bolívar","name_ja":"ボリバル州","center_lonlat":[-63.5274,6.2387]},"geometry":{"type":"Polygon","coordinates":[[[-60.268,7.9213],[-60.3424,7.8648],[-60.3748,7.8236],[-60.5258,7.8134],[-60.587,7.7271],[-60.5845,7.6885],[-60.6013,7.6338],[-60.6317,7.6246],[-60.6711,7.5661],[-60.7165,7.5516],[-60.7306,7.5254],[-60.7007,7.4535],[-60.6606,7.4361],[-60.6532,7.3985],[-60.629,7.3844],[-60.6018,7.3301],[-60.6022,7.3065],[-60.6436,7.2507],[-60.6284,7.1911],[-60.548,7.1255],[-60.5349,7.1258],[-60.5129,7.1652],[-60.4753,7.1885],[-60.372,7.1723],[-60.2999,7.121],[-60.2916,7.0883],[-60.3036,7.0541],[-60.3597,7.0049],[-60.3773,6.9385],[-60.3942,6.9485],[-60.421,6.9422],[-60.5487,6.8631],[-60.6395,6.8377],[-60.7003,6.7671],[-60.7215,6.7597],[-60.7935,6.7938],[-60.8376,6.7864],[-60.9076,6.8152],[-60.8995,6.7686],[-60.9338,6.7317],[-61.0003,6.7344],[-61.0187,6.7204],[-61.0612,6.7301],[-61.0704,6.7119],[-61.1298,6.7158],[-61.1902,6.6329],[-61.212,6.5614],[-61.2097,6.541],[-61.1709,6.5092],[-61.1398,6.4413],[-61.1609,6.3424],[-61.1467,6.2942],[-61.1148,6.264],[-61.1216,6.1867],[-61.1611,6.1829],[-61.1945,6.1329],[-61.2694,6.1072],[-61.3381,5.9868],[-61.3967,5.9456],[-61.3796,5.9053],[-60.7399,5.2021],[-60.6849,5.1883],[-60.6643,5.1703],[-60.5987,4.9969],[-60.5919,4.9497],[-60.6126,4.9006],[-60.6801,4.8179],[-60.7637,4.7551],[-60.86,4.7124],[-60.8958,4.7085],[-60.9478,4.5736],[-60.9773,4.535],[-61.012,4.5183],[-61.1686,4.4902],[-61.2381,4.5159],[-61.3156,4.5208],[-61.3229,4.5088],[-61.2931,4.4481],[-61.3332,4.4239],[-61.4582,4.4191],[-61.5019,4.4019],[-61.5164,4.3748],[-61.5224,4.2978],[-61.5522,4.255],[-61.6405,4.2419],[-61.7189,4.2547],[-61.7564,4.2464],[-61.831,4.1769],[-61.8881,4.1502],[-61.9315,4.1464],[-61.9902,4.1664],[-62.035,4.1599],[-62.1111,4.1048],[-62.1536,4.0903],[-62.1927,4.0947],[-62.4281,4.1832],[-62.463,4.1747],[-62.4837,4.1392],[-62.537,4.1254],[-62.561,4.0378],[-62.5887,4.0307],[-62.6707,4.0437],[-62.7444,4.034],[-62.7662,4.0207],[-62.7663,3.9647],[-62.7888,3.8994],[-62.7404,3.7419],[-62.7496,3.6604],[-62.7863,3.6044],[-62.8316,3.5949],[-62.8894,3.5608],[-62.9511,3.5702],[-62.9971,3.5991],[-63.1308,3.7621],[-63.1932,3.8067],[-63.2512,3.8866],[-63.3517,3.9587],[-63.4254,3.9684],[-63.4482,3.9394],[-63.4689,3.8672],[-63.5107,3.8545],[-63.5542,3.8754],[-63.6228,3.9352],[-63.6716,3.9462],[-63.771,3.9288],[-63.8311,3.9495],[-63.8751,3.9498],[-63.9964,3.8808],[-64.0377,3.8825],[-64.0638,3.9116],[-64.1081,4.0581],[-64.1467,4.1106],[-64.2406,4.142],[-64.365,4.1519],[-64.5897,4.1189],[-64.6082,4.1265],[-64.648,4.2079],[-64.6269,4.33],[-64.6677,4.5583],[-64.7022,4.5877],[-64.8286,4.5979],[-64.942,4.6252],[-65.0851,4.7992],[-65.1841,4.9998],[-65.2222,5.1439],[-65.2823,5.226],[-65.2884,5.2489],[-65.2744,5.2768],[-65.159,5.2937],[-65.1326,5.3152],[-65.1175,5.3554],[-65.1202,5.3784],[-65.1836,5.434],[-65.1444,5.4731],[-65.1356,5.526],[-65.2418,5.6132],[-65.2645,5.6617],[-65.2634,5.6781],[-65.2264,5.7195],[-65.2246,5.7586],[-65.2659,5.7739],[-65.4375,5.7752],[-65.4751,5.7655],[-65.5518,5.6905],[-65.582,5.6894],[-65.6089,5.7149],[-65.6367,5.7892],[-65.6383,5.8543],[-65.5809,6.0713],[-65.5968,6.1284],[-65.6333,6.1474],[-65.7609,6.1415],[-65.8271,6.1102],[-65.9673,5.8533],[-65.9793,5.8093],[-66.0275,5.7822],[-66.1289,5.7834],[-66.1959,5.741],[-66.2438,5.7333],[-66.2749,5.7815],[-66.2992,5.8897],[-66.3408,5.9242],[-66.5529,5.7428],[-66.6949,5.6991],[-66.8176,5.6943],[-67.0,5.6191],[-67.0358,5.6323],[-67.0549,5.6943],[-67.0767,5.714],[-67.1712,5.705],[-67.204,5.7228],[-67.2018,5.7822],[-67.1445,5.9343],[-67.1496,6.0099],[-67.178,6.0998],[-67.1957,6.113],[-67.2883,6.1166],[-67.3315,6.1463],[-67.362,6.1224],[-67.3909,6.1221],[-67.4563,6.1932],[-67.451,6.198],[-67.4124,6.2406],[-67.3369,6.2542],[-67.2823,6.3622],[-67.1378,6.4586],[-67.1311,6.4755],[-67.1488,6.5285],[-67.1285,6.6383],[-67.1034,6.7015],[-67.0495,6.7553],[-67.0418,6.7826],[-67.0429,6.822],[-67.0619,6.8515],[-67.0344,6.9131],[-67.0816,7.0232],[-67.0898,7.0657],[-67.0742,7.0938],[-66.9952,7.1568],[-66.9312,7.1697],[-66.7947,7.259],[-66.7218,7.275],[-66.6928,7.3013],[-66.6145,7.3229],[-66.5345,7.4274],[-66.5206,7.4658],[-66.4822,7.5019],[-66.4273,7.5985],[-66.3707,7.6398],[-66.3305,7.6484],[-66.2363,7.6361],[-66.1309,7.6838],[-65.9597,7.6715],[-65.834,7.7572],[-65.7685,7.8411],[-65.6482,7.8999],[-65.5978,7.9097],[-65.5429,7.9],[-65.4468,7.8615],[-65.3567,7.8694],[-65.2781,7.8743],[-65.1924,7.8459],[-65.1037,7.8344],[-64.9961,7.7707],[-64.8731,7.6661],[-64.8385,7.6602],[-64.6371,7.7717],[-64.551,7.7653],[-64.4955,7.7908],[-64.4782,7.8147],[-64.4816,7.8435],[-64.5462,7.8967],[-64.5525,7.9253],[-64.5371,7.9839],[-64.5062,7.9992],[-64.4501,7.9906],[-64.3524,8.009],[-64.3129,8.0655],[-64.2833,8.0814],[-64.2316,8.0714],[-64.1438,7.9967],[-64.1256,7.9659],[-64.0659,7.9813],[-63.9811,7.9674],[-63.8854,8.0182],[-63.8399,8.1104],[-63.812,8.131],[-63.7607,8.1212],[-63.6677,8.1598],[-63.6132,8.1479],[-63.4736,8.1502],[-63.4,8.2219],[-63.3308,8.2139],[-63.2496,8.2855],[-63.1746,8.3134],[-63.0758,8.3205],[-62.9769,8.3095],[-62.9617,8.2844],[-62.9069,8.2669],[-62.8455,8.2939],[-62.7706,8.3753],[-62.6858,8.3857],[-62.5976,8.448],[-62.2472,8.3138],[-61.6352,8.287],[-61.6434,8.208],[-61.6092,8.1185],[-61.3941,7.8775],[-61.3192,7.8206],[-61.209,7.8525],[-61.1304,7.897],[-61.0657,7.9062],[-61.0245,7.9407],[-60.971,7.946],[-60.7846,7.7518],[-60.7068,7.8183],[-60.5444,7.9155],[-60.268,7.9213]]]}},{"type":"Feature","id":"Capital","properties":{"id":"Capital","iso_code":"VE-A","name":"Capital","name_full":"Capital","name_ja":"首都地区","center_lonlat":[-66.9878,10.4758]},"geometry":{"type":"Polygon","coordinates":[[[-66.8738,10.547],[-66.8536,10.5146],[-66.881,10.4814],[-66.8974,10.4162],[-66.9437,10.4214],[-67.0077,10.3952],[-67.0515,10.3945],[-67.1475,10.4287],[-67.1532,10.4407],[-67.1167,10.4638],[-67.0533,10.4788],[-67.0532,10.5255],[-67.0158,10.5443],[-67.0217,10.5537],[-67.0068,10.5751],[-66.9515,10.5495],[-66.9125,10.557],[-66.8738,10.547]]]}},{"type":"Feature","id":"Carabobo","properties":{"id":"Carabobo","iso_code":"VE-G","name":"Carabobo","name_full":"Carabobo","name_ja":"カラボボ州","center_lonlat":[-68.0192,10.1761]},"geometry":{"type":"Polygon","coordinates":[[[-68.2517,10.5951],[-68.2096,10.5373],[-68.1711,10.5037],[-68.1295,10.4877],[-68.0065,10.4885],[-67.9412,10.4665],[-67.8806,10.48],[-67.8692,10.4613],[-67.8742,10.3794],[-67.8187,10.3224],[-67.7515,10.3433],[-67.6812,10.3297],[-67.6563,10.3061],[-67.6701,10.2444],[-67.6545,10.1039],[-67.6874,10.0633],[-67.6902,10.0244],[-67.6622,10.0329],[-67.5658,10.0018],[-67.5341,9.9515],[-67.529,9.9068],[-67.5667,9.9169],[-67.5973,9.8602],[-67.6273,9.8716],[-67.6908,9.8429],[-67.7073,9.8477],[-67.7044,9.883],[-67.7366,9.893],[-67.7654,9.9263],[-67.7992,9.9305],[-67.8141,9.9176],[-67.7888,9.827],[-67.8798,9.8191],[-67.9776,9.8319],[-68.0028,9.8539],[-67.9866,9.8787],[-67.9953,9.8893],[-68.0653,9.8554],[-68.0812,9.8625],[-68.2417,9.987],[-68.2535,10.0215],[-68.2052,10.0629],[-68.2417,10.1287],[-68.3027,10.0698],[-68.3283,10.0131],[-68.3705,9.99],[-68.3968,10.0184],[-68.4151,10.0739],[-68.4232,10.1729],[-68.3616,10.2609],[-68.3941,10.3582],[-68.3895,10.4935],[-68.3627,10.5486],[-68.3096,10.5404],[-68.2517,10.5951]]]}},{"type":"Feature","id":"Cojedes","properties":{"id":"Cojedes","iso_code":"VE-H","name":"Cojedes","name_full":"Cojedes","name_ja":"コヘデス州","center_lonlat":[-68.3486,9.3516]},"geometry":{"type":"Polygon","coordinates":[[[-67.7888,9.827],[-67.7563,9.6827],[-67.8483,9.6272],[-67.8992,9.6301],[-67.931,9.5964],[-67.9314,9.5686],[-67.9633,9.5464],[-67.9316,9.5042],[-67.9167,9.4497],[-67.9193,9.3786],[-67.9422,9.31],[-67.871,9.1826],[-67.854,9.0852],[-67.9033,8.9674],[-67.9634,8.9151],[-67.9927,8.8311],[-68.0137,8.7361],[-67.9986,8.6546],[-68.0133,8.5999],[-67.996,8.5555],[-68.0244,8.5328],[-68.0365,8.5385],[-68.0634,8.5754],[-68.1654,8.6089],[-68.3262,8.602],[-68.3956,8.6178],[-68.4231,8.6037],[-68.5735,8.6354],[-68.648,8.6821],[-68.6828,8.7146],[-68.704,8.7691],[-68.7503,8.7922],[-68.6845,8.813],[-68.6637,8.8046],[-68.5824,8.8528],[-68.6362,8.8975],[-68.6521,8.9454],[-68.6067,9.1783],[-68.6109,9.2436],[-68.821,9.4197],[-68.8721,9.4395],[-68.9751,9.7105],[-68.9924,9.7283],[-68.9808,9.7823],[-68.9777,9.8573],[-68.8589,9.8532],[-68.8043,9.9609],[-68.6697,9.9688],[-68.6299,10.0104],[-68.5822,10.005],[-68.5821,9.9521],[-68.5283,9.923],[-68.543,9.9044],[-68.5226,9.8959],[-68.3705,9.99],[-68.3283,10.0131],[-68.3027,10.0698],[-68.2417,10.1287],[-68.2052,10.0629],[-68.2535,10.0215],[-68.2417,9.987],[-68.0812,9.8625],[-68.0653,9.8554],[-67.9953,9.8893],[-67.9866,9.8787],[-68.0028,9.8539],[-67.9776,9.8319],[-67.8798,9.8191],[-67.7888,9.827]]]}},{"type":"Feature","id":"Delta Amacuro","properties":{"id":"Delta Amacuro","iso_code":"VE-Y","name":"Delta Amacuro","name_full":"Delta Amacuro","name_ja":"デルタアマクロ州","center_lonlat":[-61.349,8.7913]},"geometry":{"type":"MultiPolygon","coordinates":[[[[-60.268,7.9213],[-60.5444,7.9155],[-60.7068,7.8183],[-60.7846,7.7518],[-60.971,7.946],[-61.0245,7.9407],[-61.0657,7.9062],[-61.1304,7.897],[-61.209,7.8525],[-61.3192,7.8206],[-61.3941,7.8775],[-61.6092,8.1185],[-61.6434,8.208],[-61.6352,8.287],[-62.2472,8.3138],[-62.5976,8.448],[-62.5153,8.5194],[-62.4359,8.5138],[-62.3664,8.5457],[-62.3232,8.5894],[-62.2395,8.598],[-62.1818,8.6804],[-62.0752,8.7344],[-62.0642,8.7992],[-62.0051,8.8728],[-62.0086,8.8955],[-62.0556,8.9051],[-62.0842,8.9448],[-62.0878,8.9682],[-62.0552,9.0637],[-62.0886,9.0718],[-62.1287,9.0564],[-62.1453,9.0976],[-62.2097,9.0724],[-62.2663,9.1319],[-62.3213,9.1406],[-62.3047,9.1966],[-62.3205,9.3573],[-62.3744,9.3996],[-62.3961,9.4814],[-62.4309,9.4968],[-62.4461,9.5254],[-62.3787,9.6156],[-62.3671,9.6559],[-62.3236,9.7023],[-62.3254,9.7189],[-62.3187,9.7062],[-62.2908,9.7333],[-62.243,9.8428],[-62.2572,9.9744],[-62.222,9.9384],[-62.1787,9.8461],[-62.1759,9.705],[-62.1876,9.6627],[-62.2157,9.6379],[-62.1819,9.6489],[-62.1543,9.7261],[-62.1605,9.8502],[-62.1952,9.9328],[-62.1195,9.9215],[-62.099,9.8837],[-62.0287,9.8707],[-62.0463,9.8879],[-62.089,9.8981],[-62.1356,9.9406],[-62.2214,9.9518],[-62.2368,9.9669],[-62.1965,10.0197],[-62.1109,9.9977],[-62.0254,9.9574],[-61.8315,9.7919],[-61.8104,9.7482],[-61.8458,9.651],[-61.8116,9.7062],[-61.7974,9.7609],[-61.7801,9.7592],[-61.7433,9.6994],[-61.7433,9.5964],[-61.731,9.694],[-61.7632,9.7609],[-61.7974,9.7746],[-61.8282,9.8272],[-61.7901,9.8307],[-61.5925,9.782],[-61.5738,9.7946],[-61.5781,9.8088],[-61.671,9.8965],[-61.6367,9.8988],[-61.4757,9.8017],[-61.4223,9.7363],[-61.458,9.8125],[-61.5031,9.8396],[-61.4392,9.8184],[-61.3378,9.7121],[-61.2365,9.6322],[-61.206,9.5774],[-61.192,9.5833],[-61.2083,9.6038],[-61.1842,9.6041],[-61.1301,9.5725],[-61.1121,9.5833],[-61.0532,9.5813],[-60.9606,9.5387],[-60.9551,9.5213],[-60.9687,9.535],[-60.9706,9.5019],[-60.9613,9.4875],[-60.9207,9.4903],[-60.8623,9.4561],[-60.8179,9.3947],[-60.7974,9.3847],[-60.7854,9.3135],[-60.7974,9.2947],[-60.8104,9.3159],[-60.8219,9.2728],[-60.9184,9.2385],[-60.938,9.2161],[-60.9687,9.206],[-61.0242,9.1533],[-61.0668,9.1323],[-61.0854,9.1024],[-61.1121,9.0415],[-61.0845,9.0594],[-61.0663,9.0951],[-60.9591,9.1825],[-60.9551,9.165],[-60.9823,9.1308],[-61.0066,9.0488],[-61.0785,8.9975],[-61.0997,8.9604],[-61.1177,8.9037],[-61.1121,8.8571],[-61.1268,8.8145],[-61.1801,8.7358],[-61.2095,8.609],[-61.2333,8.5893],[-61.2772,8.589],[-61.3485,8.6101],[-61.5231,8.5966],[-61.6254,8.6302],[-61.659,8.6165],[-61.6608,8.5964],[-61.5987,8.5555],[-61.5519,8.545],[-61.5373,8.5276],[-61.4997,8.5344],[-61.4342,8.4792],[-61.3591,8.4866],[-61.3318,8.4382],[-61.284,8.3972],[-61.2401,8.4321],[-61.2284,8.4606],[-61.181,8.4934],[-61.0266,8.5009],[-61.0239,8.4866],[-61.0402,8.4728],[-61.078,8.4665],[-61.0858,8.4156],[-61.0719,8.4033],[-61.0666,8.4563],[-61.0204,8.4688],[-60.9924,8.5122],[-60.9872,8.5649],[-60.9756,8.576],[-60.9566,8.569],[-60.6925,8.6047],[-60.6261,8.5555],[-60.4789,8.5324],[-60.4616,8.5344],[-60.4037,8.6225],[-60.3719,8.6354],[-60.1978,8.6238],[-60.0644,8.5651],[-60.021,8.558],[-59.9597,8.4682],[-59.8556,8.3521],[-59.8156,8.2878],[-59.8167,8.2672],[-59.8485,8.2277],[-59.9397,8.2084],[-59.9933,8.1685],[-59.9993,8.1154],[-60.0296,8.0428],[-60.1292,8.0288],[-60.1831,7.9827],[-60.2311,7.9641],[-60.268,7.9213]]],[[[-60.9514,8.8278],[-60.8833,8.8405],[-60.8617,8.8702],[-60.7781,8.8701],[-60.7324,8.8922],[-60.7376,8.8666],[-60.7178,8.8529],[-60.686,8.789],[-60.7697,8.7415],[-60.8069,8.6726],[-60.8466,8.6377],[-61.0939,8.6337],[-61.1699,8.5953],[-61.1671,8.6994],[-61.1264,8.7565],[-61.06,8.7982],[-60.9514,8.8278]]],[[[-61.0165,8.6101],[-60.996,8.6027],[-60.9925,8.5767],[-61.0277,8.5431],[-61.0506,8.5555],[-61.0416,8.5185],[-61.1264,8.5071],[-61.2704,8.5146],[-61.2276,8.5716],[-61.1802,8.5696],[-61.1264,8.5344],[-61.1378,8.5598],[-61.0985,8.6027],[-61.0165,8.6101]]],[[[-60.9203,9.0285],[-60.8755,9.028],[-60.8384,9.0006],[-60.8657,8.9943],[-60.8508,8.9706],[-60.865,8.9412],[-60.9336,8.8839],[-61.0916,8.8224],[-61.0167,8.8803],[-60.9203,9.0285]]],[[[-61.3903,8.5806],[-61.3146,8.5713],[-61.3027,8.515],[-61.2603,8.4864],[-61.2637,8.4561],[-61.2934,8.4569],[-61.3384,8.51],[-61.4337,8.5142],[-61.4686,8.541],[-61.5401,8.5654],[-61.5358,8.5755],[-61.4762,8.5671],[-61.3903,8.5806]]],[[[-60.745,8.7194],[-60.6761,8.7629],[-60.6872,8.71],[-60.666,8.6864],[-60.6116,8.6838],[-60.6048,8.6712],[-60.6177,8.6367],[-60.8081,8.6329],[-60.7603,8.7177],[-60.745,8.7194]]],[[[-61.0854,8.8907],[-61.0966,8.9006],[-61.0693,8.9788],[-61.0023,9.0006],[-60.9308,9.0756],[-60.852,9.0961],[-60.8756,9.0436],[-60.943,9.0258],[-61.0271,8.9487],[-61.0438,8.9118],[-61.0854,8.8907]]],[[[-60.8732,9.1166],[-60.8897,9.0986],[-60.9613,9.0694],[-60.9438,9.104],[-60.9368,9.1646],[-60.9073,9.1855],[-60.8533,9.194],[-60.8475,9.163],[-60.8732,9.1166]]],[[[-60.8179,9.206],[-60.7579,9.2304],[-60.7285,9.1929],[-60.7695,9.1892],[-60.7974,9.1718],[-60.8238,9.1223],[-60.8452,9.1166],[-60.8179,9.206]]],[[[-62.2408,10.0515],[-62.2353,10.0139],[-62.298,9.9837],[-62.2864,10.0244],[-62.2676,10.0449],[-62.2408,10.0515]]]]}},{"type":"Feature","id":"Falcon","properties":{"id":"Falcon","iso_code":"VE-I","name":"Falcon","name_full":"Falcón","name_ja":"ファルコン州","center_lonlat":[-69.7953,11.0762]},"geometry":{"type":"Polygon","coordinates":[[[-71.282,10.9914],[-71.0624,11.0904],[-70.8697,11.1963],[-70.6856,11.248],[-70.6298,11.2392],[-70.5139,11.2532],[-70.4801,11.289],[-70.5074,11.2617],[-70.5106,11.2864],[-70.4864,11.2951],[-70.4339,11.2876],[-70.288,11.3571],[-70.2311,11.3516],[-70.18,11.3764],[-70.159,11.4014],[-70.1452,11.4289],[-70.146,11.4544],[-70.1644,11.4629],[-70.1545,11.47],[-70.1268,11.462],[-70.0994,11.4295],[-70.079,11.4573],[-70.0365,11.4409],[-70.0539,11.5065],[-70.1199,11.5224],[-70.0963,11.5311],[-70.1616,11.5685],[-70.0244,11.5141],[-69.9756,11.5029],[-69.946,11.5198],[-69.9259,11.5131],[-69.9206,11.4973],[-69.8992,11.4958],[-69.8926,11.4786],[-69.8565,11.4587],[-69.8446,11.4362],[-69.8141,11.4256],[-69.76,11.4681],[-69.7436,11.5034],[-69.816,11.6937],[-69.825,11.6752],[-69.8495,11.6937],[-69.9277,11.6584],[-69.9501,11.6567],[-69.9451,11.6732],[-70.0738,11.6319],[-70.1383,11.626],[-70.1865,11.6027],[-70.2299,11.6279],[-70.2331,11.6527],[-70.2124,11.6872],[-70.2331,11.7484],[-70.2058,11.7347],[-70.2059,11.7625],[-70.2239,11.7884],[-70.2406,11.7619],[-70.2845,11.8573],[-70.302,11.8581],[-70.2836,11.9396],[-70.2546,12.0068],[-70.2132,12.0568],[-70.2058,12.112],[-70.1443,12.118],[-70.0646,12.1815],[-70.0177,12.1989],[-69.9254,12.1596],[-69.8353,12.0152],[-69.8086,11.8036],[-69.7471,11.6323],[-69.7003,11.5402],[-69.6236,11.4678],[-69.5887,11.463],[-69.5373,11.4987],[-69.5001,11.5087],[-69.3767,11.494],[-69.2704,11.536],[-69.2295,11.5156],[-69.1854,11.5156],[-69.109,11.4914],[-69.0619,11.4535],[-68.8632,11.4529],[-68.7544,11.3741],[-68.6557,11.3479],[-68.6152,11.3034],[-68.518,11.2493],[-68.4835,11.2069],[-68.4176,11.1791],[-68.4033,11.2003],[-68.3903,11.1791],[-68.3979,11.154],[-68.3887,11.1282],[-68.2784,10.9255],[-68.2873,10.9128],[-68.3351,10.9396],[-68.3766,10.9191],[-68.2627,10.9031],[-68.2388,10.885],[-68.2662,10.8581],[-68.3266,10.8493],[-68.3319,10.8296],[-68.3183,10.7452],[-68.2738,10.6342],[-68.5194,10.6386],[-68.5914,10.6783],[-68.5964,10.7205],[-68.6678,10.7359],[-68.7692,10.7325],[-68.8093,10.6862],[-68.8855,10.6595],[-68.9241,10.6973],[-69.1263,10.6813],[-69.4261,10.7119],[-69.4986,10.6951],[-69.5372,10.742],[-69.6639,10.7647],[-69.7899,10.7014],[-69.8212,10.7018],[-69.8061,10.7204],[-69.8238,10.7303],[-69.8666,10.698],[-69.9693,10.6905],[-70.0472,10.6453],[-70.1575,10.6517],[-70.2472,10.5584],[-70.3303,10.5581],[-70.3875,10.52],[-70.4145,10.4838],[-70.4923,10.4474],[-70.5354,10.363],[-70.6132,10.3415],[-70.6581,10.3048],[-70.729,10.332],[-70.7452,10.4151],[-70.7787,10.4536],[-70.855,10.4568],[-70.9031,10.4429],[-70.9573,10.4603],[-71.0148,10.5189],[-71.0397,10.5896],[-71.081,10.6386],[-71.0805,10.7568],[-71.246,10.9084],[-71.282,10.9914]]]}},{"type":"Feature","id":"Federal Dependencies","properties":{"id":"Federal Dependencies","iso_code":"VE-W","name":"Federal Dependencies","name_full":"Federal Dependencies","name_ja":"連邦保護領","center_lonlat":[-65.3047,10.9316]},"geometry":{"type":"MultiPolygon","coordinates":[[[[-65.2276,10.9538],[-65.2082,10.9499],[-65.2167,10.9396],[-65.2049,10.9044],[-65.2446,10.885],[-65.2379,10.8986],[-65.3166,10.8911],[-65.3722,10.911],[-65.3881,10.9055],[-65.4118,10.9247],[-65.3767,10.9661],[-65.3299,10.9776],[-65.2276,10.9538]]],[[[-64.6072,11.8991],[-64.5568,11.8573],[-64.5528,11.8237],[-64.5629,11.8166],[-64.6488,11.8303],[-64.6488,11.8513],[-64.6072,11.8991]]],[[[-66.1322,11.824],[-66.1029,11.8193],[-66.114,11.7799],[-66.1431,11.7818],[-66.1943,11.8177],[-66.1322,11.824]]],[[[-66.6083,11.7831],[-66.5878,11.7831],[-66.6418,11.7615],[-66.7045,11.7831],[-66.6509,11.7802],[-66.6151,11.824],[-66.6014,11.8067],[-66.6083,11.7831]]],[[[-66.75,11.7776],[-66.728,11.782],[-66.8278,11.7462],[-66.8546,11.7514],[-66.8096,11.753],[-66.75,11.7776]]],[[[-66.7334,11.8699],[-66.7118,11.8679],[-66.8179,11.8711],[-66.7334,11.8699]]]]}},{"type":"Feature","id":"Guarico State","properties":{"id":"Guarico State","iso_code":"VE-J","name":"Guarico State","name_full":"Guárico State","name_ja":"グアリコ州","center_lonlat":[-66.529,8.835]},"geometry":{"type":"Polygon","coordinates":[[[-65.6966,9.9534],[-65.7026,9.8463],[-65.665,9.774],[-65.7004,9.6858],[-65.4888,9.5692],[-65.4306,9.6505],[-65.3696,9.5548],[-65.2182,9.5068],[-65.2052,9.4859],[-65.2067,9.4343],[-65.2846,9.3766],[-65.2583,9.2772],[-65.1649,9.1786],[-65.0732,9.1738],[-65.0209,9.1289],[-64.9776,9.1115],[-64.9452,9.0628],[-64.9373,9.0038],[-64.8858,8.9824],[-64.8096,8.9149],[-64.7899,8.8781],[-64.8463,8.8296],[-64.846,8.7731],[-64.8641,8.741],[-64.9108,8.75],[-65.0088,8.7388],[-65.0799,8.7569],[-65.1315,8.7422],[-65.1494,8.7247],[-65.1708,8.6466],[-65.1512,8.6051],[-65.1501,8.5566],[-65.2066,8.3694],[-65.3659,8.1849],[-65.3951,8.113],[-65.4805,8.0239],[-65.4943,7.9917],[-65.4845,7.931],[-65.3892,7.9206],[-65.3567,7.8694],[-65.4468,7.8615],[-65.5429,7.9],[-65.5978,7.9097],[-65.6482,7.8999],[-65.7685,7.8411],[-65.834,7.7572],[-65.9597,7.6715],[-66.1309,7.6838],[-66.2363,7.6361],[-66.3305,7.6484],[-66.3246,7.6876],[-66.3526,7.7358],[-66.3948,7.7279],[-66.4565,7.7462],[-66.4778,7.7605],[-66.4758,7.7778],[-66.5275,7.8163],[-66.5455,7.8111],[-66.5461,7.7952],[-66.663,7.783],[-66.7648,7.7551],[-66.9318,7.7763],[-66.9508,7.7884],[-67.0157,7.7695],[-67.0568,7.7975],[-67.1397,7.7722],[-67.2265,7.7985],[-67.3045,7.8429],[-67.3379,7.8891],[-67.3958,7.9113],[-67.4681,7.9038],[-67.5381,7.917],[-67.5442,7.9588],[-67.5167,7.9813],[-67.5636,7.9952],[-67.5969,8.0545],[-67.5746,8.0485],[-67.5746,8.0826],[-67.6224,8.0962],[-67.6774,8.2095],[-67.7152,8.2402],[-67.7679,8.2391],[-67.78,8.2949],[-67.7937,8.2744],[-67.8176,8.288],[-67.821,8.3154],[-67.8466,8.3339],[-67.8626,8.329],[-67.8557,8.3768],[-67.8831,8.37],[-67.9104,8.4041],[-67.9446,8.4043],[-67.9598,8.4391],[-67.9796,8.4489],[-67.9747,8.4756],[-68.0365,8.5385],[-68.0244,8.5328],[-67.996,8.5555],[-68.0133,8.5999],[-67.9986,8.6546],[-68.0137,8.7361],[-67.9927,8.8311],[-67.9634,8.9151],[-67.9033,8.9674],[-67.854,9.0852],[-67.871,9.1826],[-67.9422,9.31],[-67.9193,9.3786],[-67.9167,9.4497],[-67.9316,9.5042],[-67.9633,9.5464],[-67.9314,9.5686],[-67.931,9.5964],[-67.8992,9.6301],[-67.8483,9.6272],[-67.7563,9.6827],[-67.7888,9.827],[-67.8141,9.9176],[-67.7992,9.9305],[-67.7654,9.9263],[-67.7366,9.893],[-67.7044,9.883],[-67.7073,9.8477],[-67.6908,9.8429],[-67.6273,9.8716],[-67.5973,9.8602],[-67.5667,9.9169],[-67.529,9.9068],[-67.5341,9.9515],[-67.4281,9.9874],[-67.3406,9.9264],[-67.2856,9.9314],[-67.2638,9.9111],[-67.2254,9.9237],[-67.1813,9.9198],[-67.1016,9.7995],[-67.0511,9.7847],[-67.0264,9.7574],[-66.9862,9.75],[-66.9485,9.6917],[-66.9039,9.6732],[-66.8587,9.6723],[-66.8559,9.6046],[-66.8764,9.5618],[-66.899,9.5366],[-66.9805,9.5093],[-66.9973,9.4523],[-66.8595,9.4569],[-66.6858,9.3948],[-66.6232,9.3916],[-66.5755,9.4095],[-66.5566,9.4709],[-66.5742,9.5277],[-66.5431,9.6227],[-66.5543,9.6502],[-66.6113,9.6968],[-66.6211,9.721],[-66.6227,9.7548],[-66.5838,9.7988],[-66.6128,9.9664],[-66.4501,9.982],[-66.4206,10.0111],[-66.3925,10.0194],[-66.2984,9.9801],[-66.2448,9.9779],[-66.1905,9.9487],[-66.1327,9.9666],[-66.1117,9.9478],[-66.0618,9.9564],[-65.971,9.9289],[-65.8705,9.9561],[-65.766,9.9367],[-65.6966,9.9534]]]}},{"type":"Feature","id":"Lara","properties":{"id":"Lara","iso_code":"VE-K","name":"Lara","name_full":"Lara","name_ja":"ララ州","center_lonlat":[-69.7791,10.1581]},"geometry":{"type":"Polygon","coordinates":[[[-68.9777,9.8573],[-68.9808,9.7823],[-69.0668,9.7099],[-69.1251,9.6931],[-69.2122,9.6892],[-69.2676,9.7373],[-69.2605,9.7707],[-69.2786,9.8443],[-69.3372,9.7686],[-69.3784,9.6579],[-69.4306,9.6306],[-69.5919,9.6182],[-69.6044,9.6058],[-69.6252,9.5681],[-69.6156,9.5106],[-69.63,9.4715],[-69.6279,9.4265],[-69.6438,9.4147],[-69.7069,9.3957],[-69.7281,9.4318],[-69.7634,9.4175],[-69.8673,9.4151],[-69.8591,9.4617],[-69.7909,9.539],[-69.7887,9.5589],[-69.8411,9.5677],[-69.899,9.5524],[-69.9265,9.574],[-70.0068,9.4976],[-70.033,9.4303],[-70.0622,9.4927],[-70.1093,9.5171],[-70.134,9.5981],[-70.1189,9.6352],[-70.0694,9.6681],[-70.0372,9.6658],[-70.0131,9.6905],[-70.0899,9.773],[-70.1608,9.7853],[-70.2133,9.8458],[-70.2474,9.8267],[-70.2797,9.8739],[-70.3293,9.8863],[-70.3516,9.926],[-70.4025,9.9211],[-70.4547,9.8962],[-70.5168,9.9285],[-70.5614,9.9893],[-70.5664,10.0303],[-70.5801,10.0365],[-70.6086,10.0316],[-70.6384,10.003],[-70.662,9.9558],[-70.6612,9.9045],[-70.8068,9.9839],[-70.8548,10.0435],[-70.8581,10.07],[-70.825,10.1213],[-70.7108,10.1942],[-70.6581,10.3048],[-70.6132,10.3415],[-70.5354,10.363],[-70.4923,10.4474],[-70.4145,10.4838],[-70.3875,10.52],[-70.3303,10.5581],[-70.2472,10.5584],[-70.1575,10.6517],[-70.0472,10.6453],[-69.9693,10.6905],[-69.8666,10.698],[-69.8238,10.7303],[-69.8061,10.7204],[-69.8212,10.7018],[-69.7899,10.7014],[-69.6639,10.7647],[-69.5372,10.742],[-69.4986,10.6951],[-69.4261,10.7119],[-69.1263,10.6813],[-68.9241,10.6973],[-68.8855,10.6595],[-68.8925,10.6061],[-68.9644,10.5569],[-69.0201,10.5548],[-69.0486,10.4777],[-69.0702,10.4615],[-69.0684,10.4246],[-69.0272,10.4231],[-69.0327,10.3674],[-69.0134,10.2946],[-69.015,10.2484],[-69.118,10.2027],[-69.1621,10.1281],[-69.1819,10.133],[-69.2196,10.1718],[-69.2376,10.1471],[-69.2275,10.1101],[-69.1415,10.0053],[-69.1392,9.9334],[-69.1024,9.8791],[-69.0847,9.8794],[-69.0734,9.9],[-69.072,9.9582],[-68.9791,10.0098],[-68.9588,10.0002],[-68.9249,9.9308],[-68.9777,9.8573]]]}},{"type":"Feature","id":"Merida","properties":{"id":"Merida","iso_code":"VE-L","name":"Merida","name_full":"Merida","name_ja":"メリダ州","center_lonlat":[-71.2715,8.5662]},"geometry":{"type":"Polygon","coordinates":[[[-71.2185,9.187],[-71.2064,9.2322],[-71.1517,9.2885],[-71.0728,9.3135],[-71.0587,9.3379],[-71.0332,9.3525],[-70.9736,9.3513],[-70.9277,9.3128],[-70.8631,9.139],[-70.7891,9.0912],[-70.7766,9.0668],[-70.7315,9.0535],[-70.6952,8.9851],[-70.6441,9.0004],[-70.58,9.0402],[-70.5419,9.0053],[-70.5347,8.9553],[-70.5775,8.8567],[-70.6869,8.8236],[-70.7277,8.7647],[-70.7523,8.784],[-70.7686,8.7815],[-70.8377,8.7255],[-70.9101,8.6241],[-70.93,8.6293],[-70.9697,8.5919],[-70.9804,8.5067],[-71.0274,8.4653],[-71.0384,8.4243],[-71.0775,8.3763],[-71.0651,8.3078],[-71.0315,8.279],[-71.0118,8.2198],[-71.0599,8.11],[-71.0905,8.0675],[-71.2074,7.9761],[-71.2538,7.9228],[-71.4297,7.8023],[-71.4621,7.7695],[-71.4567,7.7024],[-71.4836,7.6845],[-71.4965,7.7247],[-71.5328,7.7583],[-71.5061,7.83],[-71.5222,7.9299],[-71.4999,7.9699],[-71.5077,8.0054],[-71.5889,8.0573],[-71.6808,8.0612],[-71.7114,8.0491],[-71.8213,8.1705],[-71.8971,8.1755],[-71.8865,8.2321],[-71.8185,8.3104],[-71.8108,8.3392],[-71.8296,8.3954],[-71.7711,8.4809],[-71.8171,8.587],[-71.9449,8.6114],[-71.8333,8.6732],[-71.8026,8.6583],[-71.8081,8.6196],[-71.7585,8.6302],[-71.726,8.6172],[-71.7051,8.6766],[-71.6735,8.7188],[-71.2963,9.0136],[-71.2256,9.0484],[-71.1946,8.9962],[-71.1573,9.0111],[-71.1424,9.0893],[-71.1474,9.1278],[-71.2185,9.187]]]}},{"type":"Feature","id":"Miranda","properties":{"id":"Miranda","iso_code":"VE-M","name":"Miranda","name_full":"Miranda","name_ja":"ミランダ州","center_lonlat":[-66.3782,10.2339]},"geometry":{"type":"Polygon","coordinates":[[[-66.3136,10.6295],[-66.2952,10.6467],[-66.2518,10.6486],[-66.1906,10.6174],[-66.1246,10.602],[-66.1044,10.5844],[-66.0465,10.5765],[-66.0762,10.5489],[-66.1217,10.543],[-66.1222,10.507],[-65.9529,10.3516],[-65.8821,10.3096],[-65.9299,10.3232],[-65.9442,10.3096],[-65.923,10.2822],[-65.897,10.288],[-65.8021,10.2257],[-65.7176,10.2202],[-65.8473,10.2814],[-65.8685,10.3096],[-65.5804,10.1855],[-65.4258,10.1434],[-65.4489,10.0796],[-65.5622,10.0063],[-65.6383,9.9707],[-65.6645,9.9794],[-65.6966,9.9534],[-65.766,9.9367],[-65.8705,9.9561],[-65.971,9.9289],[-66.0618,9.9564],[-66.1117,9.9478],[-66.1327,9.9666],[-66.1905,9.9487],[-66.2448,9.9779],[-66.2984,9.9801],[-66.3925,10.0194],[-66.4206,10.0111],[-66.4501,9.982],[-66.6128,9.9664],[-66.7482,9.9911],[-66.7914,10.0128],[-66.8785,9.9998],[-66.9237,10.01],[-66.9786,10.0716],[-67.0029,10.0749],[-67.0416,10.0531],[-67.0883,10.0828],[-67.1191,10.1115],[-67.1342,10.1545],[-67.1087,10.2649],[-67.1865,10.313],[-67.1875,10.3385],[-67.1743,10.3548],[-67.2202,10.4167],[-67.1532,10.4407],[-67.1475,10.4287],[-67.0515,10.3945],[-67.0077,10.3952],[-66.9437,10.4214],[-66.8974,10.4162],[-66.881,10.4814],[-66.8536,10.5146],[-66.8738,10.547],[-66.6025,10.5442],[-66.5779,10.5605],[-66.4397,10.5371],[-66.3543,10.5453],[-66.3251,10.5307],[-66.3116,10.5403],[-66.3136,10.6295]]]}},{"type":"Feature","id":"Monagas","properties":{"id":"Monagas","iso_code":"VE-N","name":"Monagas","name_full":"Monagas","name_ja":"モナガス州","center_lonlat":[-63.0254,9.4092]},"geometry":{"type":"MultiPolygon","coordinates":[[[[-63.0131,10.0974],[-62.9822,10.0691],[-62.953,10.0881],[-62.936,10.0082],[-62.9208,10.008],[-62.9325,10.0227],[-62.9317,10.065],[-62.9146,10.0836],[-62.9112,10.0523],[-62.8956,10.044],[-62.8531,10.0556],[-62.7979,10.029],[-62.8098,10.0037],[-62.8011,9.996],[-62.7774,10.0185],[-62.785,10.0698],[-62.7643,10.0762],[-62.7167,10.0484],[-62.6636,10.0609],[-62.6185,10.0916],[-62.6059,10.1332],[-62.6266,10.1963],[-62.6195,10.2244],[-62.6022,10.2309],[-62.5583,10.2133],[-62.4949,10.1518],[-62.4294,9.9809],[-62.4416,9.9328],[-62.4089,9.924],[-62.3776,9.8847],[-62.3187,9.7683],[-62.3254,9.7189],[-62.3236,9.7023],[-62.3671,9.6559],[-62.3787,9.6156],[-62.4461,9.5254],[-62.4309,9.4968],[-62.3961,9.4814],[-62.3744,9.3996],[-62.3205,9.3573],[-62.3047,9.1966],[-62.3213,9.1406],[-62.2663,9.1319],[-62.2097,9.0724],[-62.1453,9.0976],[-62.1287,9.0564],[-62.0886,9.0718],[-62.0552,9.0637],[-62.0878,8.9682],[-62.0842,8.9448],[-62.0556,8.9051],[-62.0086,8.8955],[-62.0051,8.8728],[-62.0642,8.7992],[-62.0752,8.7344],[-62.1818,8.6804],[-62.2395,8.598],[-62.3232,8.5894],[-62.3664,8.5457],[-62.4359,8.5138],[-62.5153,8.5194],[-62.5976,8.448],[-62.6858,8.3857],[-62.7469,8.4324],[-62.7428,8.4734],[-62.9883,8.5526],[-63.0407,8.5959],[-63.0554,8.7091],[-63.0243,8.7601],[-62.9679,8.7573],[-62.9444,8.7817],[-62.9493,8.7939],[-63.3009,8.7779],[-63.3385,8.8054],[-63.3713,8.9187],[-63.4181,9.0083],[-63.4736,9.0325],[-63.5557,9.1011],[-63.5976,9.118],[-63.6336,9.1675],[-63.6803,9.1816],[-63.7719,9.2363],[-63.807,9.2238],[-63.8397,9.2301],[-63.9063,9.2055],[-63.9204,9.2651],[-63.9732,9.3239],[-63.9691,9.411],[-63.8466,9.5506],[-63.943,9.702],[-63.9645,9.7622],[-63.9456,9.8408],[-63.9229,9.8548],[-63.9226,9.8698],[-63.9489,9.8994],[-63.9901,9.9162],[-63.9884,9.9353],[-64.0342,9.9356],[-64.0617,9.9686],[-64.0557,10.0538],[-63.9882,10.0622],[-63.9488,10.0826],[-63.8008,10.1278],[-63.767,10.1776],[-63.7302,10.2053],[-63.555,10.2296],[-63.5323,10.2817],[-63.4634,10.3147],[-63.4077,10.2837],[-63.4028,10.258],[-63.3798,10.2447],[-63.3347,10.2382],[-63.3207,10.2175],[-63.2695,10.2126],[-63.2519,10.1951],[-63.2206,10.1938],[-63.192,10.1676],[-63.1128,10.2187],[-63.1024,10.184],[-63.0635,10.1873],[-63.0438,10.1199],[-63.0131,10.0974]]],[[[-62.3311,9.9206],[-62.3164,9.8856],[-62.3258,9.8442],[-62.3386,9.8457],[-62.3494,9.8723],[-62.3488,9.9137],[-62.3311,9.9206]]],[[[-62.4033,10.0063],[-62.3911,9.9934],[-62.4089,9.9726],[-62.4362,10.0466],[-62.4269,10.0492],[-62.4033,10.0063]]]]}},{"type":"Feature","id":"Nueva Esparta","properties":{"id":"Nueva Esparta","iso_code":"VE-O","name":"Nueva Esparta","name_full":"Nueva Esparta","name_ja":"ヌエバ・エスパルタ州","center_lonlat":[-64.2555,11.003]},"geometry":{"type":"MultiPolygon","coordinates":[[[[-63.8468,11.1354],[-63.7877,10.9738],[-63.8196,10.9805],[-63.8196,10.9538],[-63.8429,10.9678],[-63.8981,10.885],[-63.9766,10.8911],[-64.0597,10.8576],[-64.0569,10.8871],[-64.0961,10.8909],[-64.1164,10.9286],[-64.1759,10.9675],[-64.2244,10.9394],[-64.4086,10.9675],[-64.3706,11.0625],[-64.2201,11.0915],[-64.1888,11.0736],[-64.1816,11.0341],[-64.1107,11.0002],[-64.0491,10.9907],[-64.0176,11.0153],[-64.0176,11.0562],[-63.9766,11.1183],[-63.9356,11.1251],[-63.881,11.1791],[-63.8774,11.1612],[-63.8468,11.1354]]],[[[-63.9766,10.8092],[-63.9036,10.7773],[-63.8946,10.7546],[-63.9092,10.7355],[-63.9355,10.7337],[-63.9568,10.7441],[-63.9561,10.762],[-64.0045,10.7757],[-63.9989,10.7993],[-63.9766,10.8092]]],[[[-64.1686,10.8279],[-64.1559,10.812],[-64.1748,10.7992],[-64.2209,10.8065],[-64.2034,10.8273],[-64.1686,10.8279]]]]}},{"type":"Feature","id":"Portuguesa","properties":{"id":"Portuguesa","iso_code":"VE-P","name":"Portuguesa","name_full":"Portuguesa","name_ja":"ポルトゥゲサ州","center_lonlat":[-69.271,9.0414]},"geometry":{"type":"Polygon","coordinates":[[[-68.9808,9.7823],[-68.9924,9.7283],[-68.9751,9.7105],[-68.8721,9.4395],[-68.821,9.4197],[-68.6109,9.2436],[-68.6067,9.1783],[-68.6521,8.9454],[-68.6362,8.8975],[-68.5824,8.8528],[-68.6637,8.8046],[-68.6845,8.813],[-68.7503,8.7922],[-68.704,8.7691],[-68.6828,8.7146],[-68.648,8.6821],[-68.5735,8.6354],[-68.6036,8.4998],[-68.6542,8.4229],[-68.6785,8.3925],[-68.7922,8.3171],[-68.8285,8.2005],[-68.821,8.1267],[-68.8537,8.1123],[-68.8739,8.1218],[-68.8894,8.1526],[-68.9484,8.186],[-68.9861,8.2394],[-69.0763,8.2929],[-69.1276,8.351],[-69.1393,8.3788],[-69.1144,8.4319],[-69.1625,8.4417],[-69.1756,8.5005],[-69.2587,8.5843],[-69.2918,8.6432],[-69.4669,8.6704],[-69.6027,8.7466],[-69.6231,8.7779],[-69.7054,8.7238],[-69.7711,8.7501],[-69.8196,8.7513],[-70.0041,8.8471],[-70.0411,8.8917],[-70.1825,9.0079],[-70.1183,9.0241],[-70.0627,9.1437],[-70.0654,9.2523],[-70.0923,9.2392],[-70.1378,9.258],[-70.0646,9.3563],[-70.033,9.4303],[-70.0068,9.4976],[-69.9265,9.574],[-69.899,9.5524],[-69.8411,9.5677],[-69.7887,9.5589],[-69.7909,9.539],[-69.8591,9.4617],[-69.8673,9.4151],[-69.7634,9.4175],[-69.7281,9.4318],[-69.7069,9.3957],[-69.6438,9.4147],[-69.6279,9.4265],[-69.63,9.4715],[-69.6156,9.5106],[-69.6252,9.5681],[-69.6044,9.6058],[-69.5919,9.6182],[-69.4306,9.6306],[-69.3784,9.6579],[-69.3372,9.7686],[-69.2786,9.8443],[-69.2605,9.7707],[-69.2676,9.7373],[-69.2122,9.6892],[-69.1251,9.6931],[-69.0668,9.7099],[-68.9808,9.7823]]]}},{"type":"Feature","id":"Sucre","properties":{"id":"Sucre","iso_code":"VE-R","name":"Sucre","name_full":"Sucre","name_ja":"スクレ州","center_lonlat":[-63.3632,10.4216]},"geometry":{"type":"MultiPolygon","coordinates":[[[[-64.5361,10.2523],[-64.4905,10.2407],[-64.3767,10.3008],[-64.3822,10.317],[-64.4328,10.306],[-64.47,10.3232],[-64.4634,10.3328],[-64.4291,10.3232],[-64.3806,10.3437],[-64.3806,10.371],[-64.4024,10.371],[-64.3813,10.3862],[-64.3574,10.3387],[-64.3397,10.3642],[-64.3392,10.3907],[-64.2106,10.4393],[-64.1885,10.4776],[-64.1277,10.4776],[-64.0518,10.4479],[-63.943,10.4604],[-63.8636,10.4461],[-63.8204,10.4476],[-63.655,10.4945],[-63.7297,10.4975],[-63.8231,10.5494],[-63.9237,10.5603],[-63.9667,10.5814],[-64.0455,10.5703],[-64.0319,10.5901],[-64.0862,10.5671],[-64.1691,10.5703],[-64.2154,10.5438],[-64.2339,10.515],[-64.2491,10.5205],[-64.2667,10.5791],[-64.2977,10.6199],[-64.2707,10.6727],[-64.2408,10.6461],[-64.1448,10.6174],[-64.0489,10.6522],[-64.0319,10.6379],[-63.9151,10.631],[-63.8468,10.6522],[-63.8121,10.7136],[-63.7997,10.6911],[-63.7569,10.6656],[-63.5533,10.6291],[-63.4662,10.6676],[-63.449,10.6584],[-63.439,10.6714],[-63.4049,10.6658],[-63.3876,10.6994],[-63.3398,10.6727],[-63.3315,10.6854],[-63.2851,10.6727],[-63.2717,10.6879],[-63.2513,10.6806],[-63.1616,10.7347],[-63.1374,10.7068],[-63.0995,10.7211],[-63.0142,10.7211],[-62.9282,10.6994],[-62.7057,10.762],[-62.6381,10.7426],[-62.5416,10.741],[-62.1542,10.6863],[-62.1024,10.7136],[-62.0362,10.714],[-61.9823,10.7347],[-61.9713,10.7231],[-61.9442,10.7318],[-61.9352,10.7211],[-61.8922,10.7404],[-61.8458,10.741],[-61.8769,10.7227],[-61.8867,10.6801],[-61.8977,10.6904],[-61.9625,10.6522],[-62.0889,10.6313],[-62.1745,10.6423],[-62.2527,10.6324],[-62.3349,10.5302],[-62.3791,10.5451],[-62.4416,10.5355],[-62.6623,10.567],[-62.9233,10.5308],[-63.0108,10.4536],[-62.8941,10.5293],[-62.857,10.5316],[-62.8412,10.5118],[-62.8311,10.4068],[-62.8661,10.3915],[-62.8978,10.412],[-62.9952,10.4079],[-63.004,10.3847],[-62.976,10.3983],[-62.9562,10.3574],[-62.9971,10.3232],[-62.9786,10.311],[-63.004,10.2754],[-62.9316,10.2856],[-62.9272,10.3034],[-62.9476,10.3427],[-62.9425,10.3642],[-62.9571,10.3838],[-62.9425,10.4052],[-62.9078,10.3971],[-62.8798,10.371],[-62.8016,10.4052],[-62.7645,10.3953],[-62.7364,10.3785],[-62.729,10.3437],[-62.675,10.2934],[-62.675,10.2133],[-62.6266,10.1308],[-62.6566,10.0822],[-62.7126,10.0693],[-62.7775,10.0865],[-62.8227,10.0421],[-62.8514,10.0804],[-62.8941,10.0693],[-62.9015,10.1035],[-62.9351,10.0836],[-62.963,10.1103],[-63.0131,10.0974],[-63.0438,10.1199],[-63.0635,10.1873],[-63.1024,10.184],[-63.1128,10.2187],[-63.192,10.1676],[-63.2206,10.1938],[-63.2519,10.1951],[-63.2695,10.2126],[-63.3207,10.2175],[-63.3347,10.2382],[-63.3798,10.2447],[-63.4028,10.258],[-63.4077,10.2837],[-63.4634,10.3147],[-63.5323,10.2817],[-63.555,10.2296],[-63.7302,10.2053],[-63.767,10.1776],[-63.8008,10.1278],[-63.9488,10.0826],[-63.9792,10.1151],[-64.0374,10.1291],[-64.1538,10.0793],[-64.247,10.071],[-64.3057,10.1014],[-64.3473,10.0946],[-64.4358,10.1462],[-64.4458,10.1932],[-64.5147,10.2235],[-64.5361,10.2523]]],[[[-62.6652,10.3664],[-62.6494,10.3449],[-62.6598,10.31],[-62.7103,10.372],[-62.7876,10.4301],[-62.7811,10.4929],[-62.6652,10.3664]]]]}},{"type":"Feature","id":"Tachira","properties":{"id":"Tachira","iso_code":"VE-S","name":"Tachira","name_full":"Tachira","name_ja":"タチラ州","center_lonlat":[-72.0206,7.9152]},"geometry":{"type":"Polygon","coordinates":[[[-72.4156,8.3827],[-72.3881,8.4355],[-72.3691,8.4323],[-72.353,8.454],[-72.342,8.4955],[-72.2812,8.5417],[-72.2629,8.5416],[-72.2532,8.5273],[-72.2353,8.3994],[-72.1727,8.458],[-72.1298,8.4568],[-72.0797,8.4828],[-72.0422,8.4868],[-71.9938,8.5321],[-71.9449,8.6114],[-71.8171,8.587],[-71.7711,8.4809],[-71.8296,8.3954],[-71.8108,8.3392],[-71.8185,8.3104],[-71.8865,8.2321],[-71.8971,8.1755],[-71.8213,8.1705],[-71.7114,8.0491],[-71.6808,8.0612],[-71.5889,8.0573],[-71.5077,8.0054],[-71.4999,7.9699],[-71.5222,7.9299],[-71.5061,7.83],[-71.5328,7.7583],[-71.4965,7.7247],[-71.4836,7.6845],[-71.4909,7.6298],[-71.378,7.524],[-71.3283,7.5115],[-71.3198,7.4964],[-71.3607,7.4862],[-71.4565,7.5136],[-71.692,7.5493],[-71.8379,7.5332],[-71.8477,7.5153],[-71.8416,7.4948],[-71.8812,7.416],[-71.9903,7.3655],[-72.0688,7.375],[-72.1885,7.4498],[-72.2437,7.4399],[-72.3197,7.4484],[-72.3958,7.4075],[-72.4513,7.4402],[-72.4787,7.4845],[-72.4634,7.5708],[-72.4833,7.6494],[-72.4741,7.7542],[-72.4518,7.8328],[-72.4586,7.8935],[-72.4912,7.9375],[-72.4301,7.9905],[-72.4071,8.0438],[-72.3501,8.0426],[-72.3338,8.0655],[-72.3573,8.1721],[-72.396,8.2566],[-72.3868,8.3386],[-72.4156,8.3827]]]}},{"type":"Feature","id":"Trujillo","properties":{"id":"Trujillo","iso_code":"VE-T","name":"Trujillo","name_full":"Trujillo","name_ja":"トルヒージョ州","center_lonlat":[-70.5035,9.444]},"geometry":{"type":"Polygon","coordinates":[[[-71.0587,9.3379],[-71.0908,9.5441],[-71.0624,9.6174],[-70.89,9.5982],[-70.8422,9.608],[-70.794,9.6786],[-70.7569,9.6924],[-70.7615,9.7165],[-70.7377,9.7617],[-70.6949,9.7467],[-70.6413,9.792],[-70.6363,9.8399],[-70.6612,9.9045],[-70.662,9.9558],[-70.6384,10.003],[-70.6086,10.0316],[-70.5801,10.0365],[-70.5664,10.0303],[-70.5614,9.9893],[-70.5168,9.9285],[-70.4547,9.8962],[-70.4025,9.9211],[-70.3516,9.926],[-70.3293,9.8863],[-70.2797,9.8739],[-70.2474,9.8267],[-70.2133,9.8458],[-70.1608,9.7853],[-70.0899,9.773],[-70.0131,9.6905],[-70.0372,9.6658],[-70.0694,9.6681],[-70.1189,9.6352],[-70.134,9.5981],[-70.1093,9.5171],[-70.0622,9.4927],[-70.033,9.4303],[-70.0646,9.3563],[-70.1378,9.258],[-70.0923,9.2392],[-70.0654,9.2523],[-70.0627,9.1437],[-70.1183,9.0241],[-70.1825,9.0079],[-70.2713,9.0234],[-70.4267,9.0225],[-70.4961,8.9993],[-70.5347,8.9553],[-70.5419,9.0053],[-70.58,9.0402],[-70.6441,9.0004],[-70.6952,8.9851],[-70.7315,9.0535],[-70.7766,9.0668],[-70.7891,9.0912],[-70.8631,9.139],[-70.9277,9.3128],[-70.9736,9.3513],[-71.0332,9.3525],[-71.0587,9.3379]]]}},{"type":"Feature","id":"Vargas state","properties":{"id":"Vargas state","iso_code":"VE-X","name":"Vargas state","name_full":"Vargas state","name_ja":"バルガス州","center_lonlat":[-66.7381,10.5487]},"geometry":{"type":"Polygon","coordinates":[[[-67.3918,10.5431],[-67.17,10.556],[-67.113,10.5855],[-67.0124,10.6112],[-66.5416,10.6327],[-66.4278,10.6308],[-66.334,10.6112],[-66.3136,10.6295],[-66.3116,10.5403],[-66.3251,10.5307],[-66.3543,10.5453],[-66.4397,10.5371],[-66.5779,10.5605],[-66.6025,10.5442],[-66.8738,10.547],[-66.9125,10.557],[-66.9515,10.5495],[-67.0068,10.5751],[-67.0217,10.5537],[-67.0158,10.5443],[-67.0532,10.5255],[-67.0533,10.4788],[-67.1167,10.4638],[-67.1532,10.4407],[-67.2202,10.4167],[-67.2387,10.4306],[-67.2895,10.4281],[-67.3396,10.3959],[-67.3568,10.4465],[-67.4051,10.5153],[-67.3918,10.5431]]]}},{"type":"Feature","id":"Yaracuy","properties":{"id":"Yaracuy","iso_code":"VE-U","name":"Yaracuy","name_full":"Yaracuy","name_ja":"ヤラクイ州","center_lonlat":[-68.7313,10.2934]},"geometry":{"type":"Polygon","coordinates":[[[-68.2738,10.6342],[-68.2517,10.5951],[-68.3096,10.5404],[-68.3627,10.5486],[-68.3895,10.4935],[-68.3941,10.3582],[-68.3616,10.2609],[-68.4232,10.1729],[-68.4151,10.0739],[-68.3968,10.0184],[-68.3705,9.99],[-68.5226,9.8959],[-68.543,9.9044],[-68.5283,9.923],[-68.5821,9.9521],[-68.5822,10.005],[-68.6299,10.0104],[-68.6697,9.9688],[-68.8043,9.9609],[-68.8589,9.8532],[-68.9777,9.8573],[-68.9249,9.9308],[-68.9588,10.0002],[-68.9791,10.0098],[-69.072,9.9582],[-69.0734,9.9],[-69.0847,9.8794],[-69.1024,9.8791],[-69.1392,9.9334],[-69.1415,10.0053],[-69.2275,10.1101],[-69.2376,10.1471],[-69.2196,10.1718],[-69.1819,10.133],[-69.1621,10.1281],[-69.118,10.2027],[-69.015,10.2484],[-69.0134,10.2946],[-69.0327,10.3674],[-69.0272,10.4231],[-69.0684,10.4246],[-69.0702,10.4615],[-69.0486,10.4777],[-69.0201,10.5548],[-68.9644,10.5569],[-68.8925,10.6061],[-68.8855,10.6595],[-68.8093,10.6862],[-68.7692,10.7325],[-68.6678,10.7359],[-68.5964,10.7205],[-68.5914,10.6783],[-68.5194,10.6386],[-68.2738,10.6342]]]}},{"type":"Feature","id":"Zulia","properties":{"id":"Zulia","iso_code":"VE-V","name":"Zulia","name_full":"Zulia","name_ja":"スリア州","center_lonlat":[-72.304,9.8532]},"geometry":{"type":"MultiPolygon","coordinates":[[[[-71.2185,9.187],[-71.1474,9.1278],[-71.1424,9.0893],[-71.1573,9.0111],[-71.1946,8.9962],[-71.2256,9.0484],[-71.2963,9.0136],[-71.6735,8.7188],[-71.7051,8.6766],[-71.726,8.6172],[-71.7585,8.6302],[-71.8081,8.6196],[-71.8026,8.6583],[-71.8333,8.6732],[-71.9449,8.6114],[-71.9938,8.5321],[-72.0422,8.4868],[-72.0797,8.4828],[-72.1298,8.4568],[-72.1727,8.458],[-72.2353,8.3994],[-72.2532,8.5273],[-72.2629,8.5416],[-72.2812,8.5417],[-72.342,8.4955],[-72.353,8.454],[-72.3691,8.4323],[-72.3881,8.4355],[-72.4156,8.3827],[-72.4563,8.4039],[-72.6754,8.6515],[-72.7831,9.0599],[-72.8,9.0794],[-72.7856,9.1024],[-72.791,9.1139],[-72.8267,9.1417],[-72.874,9.1334],[-72.9364,9.0992],[-72.9553,9.104],[-72.9732,9.1284],[-72.9801,9.2165],[-73.0097,9.2954],[-73.0327,9.2946],[-73.076,9.2543],[-73.2122,9.1734],[-73.3778,9.1647],[-73.3911,9.1728],[-73.3908,9.1945],[-73.3244,9.2559],[-73.2774,9.3618],[-73.1784,9.523],[-73.1077,9.578],[-73.0719,9.6641],[-72.9855,9.8122],[-72.9776,9.8381],[-72.997,9.9007],[-72.9877,9.9994],[-72.9356,10.1752],[-72.9149,10.4329],[-72.8614,10.5081],[-72.843,10.5606],[-72.7544,10.6749],[-72.683,10.8556],[-72.5765,10.9574],[-72.5421,11.0411],[-72.5075,11.083],[-72.4993,11.1208],[-72.3413,11.1621],[-72.2671,11.1549],[-72.0079,11.6246],[-71.9711,11.6619],[-71.4495,11.7955],[-71.3576,11.8508],[-71.3275,11.85],[-71.3439,11.8075],[-71.336,11.7893],[-71.3714,11.7831],[-71.3782,11.7584],[-71.5071,11.7098],[-71.6744,11.6847],[-71.9007,11.6213],[-71.9605,11.5913],[-71.9701,11.5114],[-71.9393,11.3808],[-71.8569,11.217],[-71.7698,11.1064],[-71.6265,11.015],[-71.6247,11.001],[-71.6793,10.988],[-71.6753,11.0036],[-71.6971,11.0256],[-71.7442,11.036],[-71.7687,11.0153],[-71.7157,10.9578],[-71.7104,10.8786],[-71.6741,10.8024],[-71.6183,10.7435],[-71.5763,10.7211],[-71.6104,10.6379],[-71.6056,10.5819],[-71.6309,10.5185],[-71.6295,10.454],[-71.7545,10.371],[-71.8977,10.1392],[-71.9691,10.1057],[-72.0437,9.9296],[-72.1244,9.8261],[-72.0902,9.7546],[-71.9989,9.6547],[-71.9468,9.5412],[-71.9648,9.5511],[-71.9879,9.6101],[-71.9879,9.5895],[-72.0083,9.5759],[-71.9779,9.5559],[-71.9605,9.5179],[-71.9675,9.4982],[-71.9837,9.4975],[-72.0151,9.5213],[-72.0193,9.5029],[-71.9952,9.4592],[-71.9364,9.5002],[-71.9189,9.4803],[-71.9189,9.5002],[-71.8444,9.4394],[-71.8747,9.4453],[-71.9007,9.4346],[-71.9138,9.4126],[-71.9053,9.3847],[-71.8916,9.4257],[-71.8336,9.4257],[-71.7609,9.3647],[-71.7345,9.3847],[-71.7408,9.3636],[-71.728,9.3481],[-71.7482,9.3432],[-71.7358,9.3249],[-71.74,9.2894],[-71.8165,9.2333],[-71.807,9.2255],[-71.7851,9.2403],[-71.7755,9.2265],[-71.7545,9.247],[-71.7447,9.2376],[-71.7494,9.2163],[-71.7345,9.206],[-71.7532,9.2043],[-71.7518,9.1907],[-71.7345,9.165],[-71.7619,9.1308],[-71.7135,9.0932],[-71.7086,9.0767],[-71.6022,9.0423],[-71.5148,9.049],[-71.2735,9.1351],[-71.2185,9.187]]],[[[-71.0624,9.6174],[-71.0487,9.7199],[-71.0351,9.7404],[-71.0862,9.812],[-71.0902,9.8366],[-71.0728,9.8416],[-71.0724,9.8579],[-71.1625,9.9709],[-71.1839,9.9853],[-71.2069,9.9806],[-71.2285,10.0701],[-71.2678,10.1519],[-71.3284,10.2067],[-71.3639,10.22],[-71.4226,10.3432],[-71.4694,10.4018],[-71.4663,10.5021],[-71.5416,10.5649],[-71.5375,10.598],[-71.5001,10.628],[-71.5329,10.6765],[-71.5279,10.741],[-71.5831,10.803],[-71.51,10.8126],[-71.4459,10.7962],[-71.4353,10.8189],[-71.4534,10.8719],[-71.4125,10.9191],[-71.4477,10.9204],[-71.5011,10.96],[-71.4583,10.9749],[-71.282,10.9914],[-71.246,10.9084],[-71.0805,10.7568],[-71.081,10.6386],[-71.0397,10.5896],[-71.0148,10.5189],[-70.9573,10.4603],[-70.9031,10.4429],[-70.855,10.4568],[-70.7787,10.4536],[-70.7452,10.4151],[-70.729,10.332],[-70.6581,10.3048],[-70.7108,10.1942],[-70.825,10.1213],[-70.8581,10.07],[-70.8548,10.0435],[-70.8068,9.9839],[-70.6612,9.9045],[-70.6363,9.8399],[-70.6413,9.792],[-70.6949,9.7467],[-70.7377,9.7617],[-70.7615,9.7165],[-70.7569,9.6924],[-70.794,9.6786],[-70.8422,9.608],[-70.89,9.5982],[-71.0624,9.6174]]]]}}]}
