{"type":"FeatureCollection","features":[{"type":"Feature","id":"An Giang","properties":{"id":"An Giang","iso_code":"VN-44","name":"An Giang","name_full":"An Giang","name_ja":"アンザン省","center_lonlat":[105.1838,10.5192]},"geometry":{"type":"Polygon","coordinates":[[[105.2091,10.8916],[105.2198,10.8303],[105.2854,10.7385],[105.2938,10.7076],[105.3693,10.7027],[105.3872,10.5992],[105.5149,10.5298],[105.558,10.464],[105.583,10.4465],[105.5341,10.4028],[105.4734,10.2753],[105.43,10.2735],[105.3775,10.2331],[105.3203,10.2769],[105.3031,10.2535],[105.2656,10.2347],[105.2415,10.1996],[104.8877,10.3825],[104.7244,10.5213],[104.8188,10.5172],[104.8544,10.5313],[104.9314,10.6307],[105.0667,10.7139],[105.0662,10.7464],[105.0148,10.8492],[105.0114,10.8838],[105.0428,10.9264],[105.0779,10.9469],[105.0975,10.9143],[105.2091,10.8916]]]}},{"type":"Feature","id":"Ba Ria-Vung Tau","properties":{"id":"Ba Ria-Vung Tau","iso_code":"VN-43","name":"Ba Ria-Vung Tau","name_full":"Bà Rịa-Vũng Tàu","name_ja":"バリア＝ブンタウ省","center_lonlat":[107.3067,10.5936]},"geometry":{"type":"MultiPolygon","coordinates":[[[[107.0202,10.5119],[107.0342,10.5359],[107.0319,10.6075],[107.0114,10.6379],[107.0253,10.6353],[107.1167,10.6651],[107.1436,10.6862],[107.151,10.7277],[107.2545,10.7738],[107.281,10.7689],[107.2917,10.7077],[107.3267,10.6827],[107.3583,10.6913],[107.4579,10.8015],[107.4827,10.7984],[107.5166,10.7561],[107.5865,10.5735],[107.5114,10.5017],[107.4475,10.4733],[107.3342,10.4536],[107.272,10.3785],[107.1902,10.4052],[107.217,10.4345],[107.176,10.4774],[107.1418,10.4809],[107.1355,10.4666],[107.1028,10.4899],[107.0598,10.4809],[107.0598,10.5082],[107.0319,10.4741],[107.0256,10.5014],[107.0202,10.5119]]],[[[107.172,10.4646],[107.2112,10.4256],[107.1902,10.4331],[107.1659,10.3911],[107.1355,10.3785],[107.0872,10.3232],[107.0794,10.391],[107.1497,10.4166],[107.172,10.4646]]],[[[107.0025,10.6249],[107.0251,10.6039],[107.0114,10.5628],[107.0269,10.5442],[107.0191,10.5339],[106.9915,10.5703],[106.9978,10.6249],[107.0025,10.6249]]]]}},{"type":"Feature","id":"Bac Giang","properties":{"id":"Bac Giang","iso_code":"VN-54","name":"Bac Giang","name_full":"Bắc Giang","name_ja":"バクザン省","center_lonlat":[106.4964,21.3595]},"geometry":{"type":"Polygon","coordinates":[[[107.0653,21.3605],[106.9986,21.3147],[106.9806,21.2306],[106.9479,21.1897],[106.8244,21.1622],[106.7592,21.1617],[106.5458,21.1937],[106.4879,21.228],[106.3858,21.2228],[106.3295,21.188],[106.298,21.1341],[106.2276,21.1779],[106.0466,21.2064],[105.945,21.2475],[105.9208,21.3281],[105.9711,21.4088],[106.0355,21.4195],[106.0671,21.4614],[106.0719,21.5026],[106.0415,21.6284],[106.1438,21.621],[106.1675,21.5708],[106.1598,21.5309],[106.178,21.5082],[106.2919,21.4775],[106.3529,21.4239],[106.3987,21.4111],[106.4358,21.4176],[106.478,21.4483],[106.5221,21.5449],[106.5804,21.5991],[106.6587,21.6074],[106.7477,21.5493],[106.8279,21.5972],[106.922,21.445],[107.0068,21.4418],[107.0241,21.3762],[107.0653,21.3605]]]}},{"type":"Feature","id":"Bac Lieu","properties":{"id":"Bac Lieu","iso_code":"VN-55","name":"Bac Lieu","name_full":"Bạc Liêu","name_ja":"バクリエウ省","center_lonlat":[105.5081,9.3267]},"geometry":{"type":"Polygon","coordinates":[[[105.8683,9.2547],[105.5387,9.1293],[105.4436,9.0415],[105.426,9.008],[105.4139,9.0439],[105.3406,9.0855],[105.3167,9.1911],[105.2833,9.2052],[105.281,9.2362],[105.3169,9.2972],[105.2872,9.3307],[105.3048,9.3722],[105.2799,9.4058],[105.2988,9.4251],[105.2784,9.4595],[105.3102,9.5155],[105.296,9.6003],[105.3923,9.5868],[105.4626,9.5875],[105.5693,9.6104],[105.5776,9.4593],[105.5997,9.418],[105.6924,9.3839],[105.736,9.3799],[105.7859,9.3941],[105.823,9.378],[105.8683,9.2547]]]}},{"type":"Feature","id":"Bac Ninh","properties":{"id":"Bac Ninh","iso_code":"VN-56","name":"Bac Ninh","name_full":"Bắc Ninh","name_ja":"バクニン省","center_lonlat":[106.1155,21.1027]},"geometry":{"type":"Polygon","coordinates":[[[106.1522,20.9978],[106.0047,20.9913],[106.0103,21.0457],[105.9391,21.1089],[105.922,21.1505],[105.921,21.2087],[105.945,21.2475],[106.0466,21.2064],[106.2276,21.1779],[106.298,21.1341],[106.3158,21.0505],[106.295,21.0005],[106.2265,20.9855],[106.1522,20.9978]]]}},{"type":"Feature","id":"Ben Tre","properties":{"id":"Ben Tre","iso_code":"VN-50","name":"Ben Tre","name_full":"Bến Tre","name_ja":"ベンチェ省","center_lonlat":[106.4567,10.1291]},"geometry":{"type":"MultiPolygon","coordinates":[[[[106.4224,10.317],[106.4803,10.2808],[106.7209,10.1997],[106.7976,10.1572],[106.7913,10.1102],[106.7371,10.0541],[106.7041,10.0489],[106.7083,10.0753],[106.6966,10.0836],[106.6687,10.0324],[106.6841,10.012],[106.6642,10.0061],[106.6489,9.9744],[106.6074,9.9748],[106.4689,10.059],[106.3599,10.2207],[106.3312,10.2495],[106.292,10.2617],[106.3494,10.2148],[106.3685,10.1559],[106.4617,10.0357],[106.6963,9.8966],[106.6687,9.8428],[106.6764,9.8668],[106.6626,9.8837],[106.6579,9.8486],[106.6379,9.826],[106.5868,9.8229],[106.5044,9.9055],[106.395,9.9744],[106.1449,10.2286],[106.1182,10.2381],[106.073,10.2606],[105.9549,10.2885],[105.9732,10.3133],[106.0034,10.3211],[106.1072,10.2963],[106.2793,10.3172],[106.3543,10.339],[106.4224,10.317]]],[[[106.4981,9.8912],[106.5441,9.838],[106.5357,9.8292],[106.4224,9.939],[106.4981,9.8912]]]]}},{"type":"Feature","id":"Binh Duong","properties":{"id":"Binh Duong","iso_code":"VN-57","name":"Binh Duong","name_full":"Bình Dương","name_ja":"ビンズオン省","center_lonlat":[106.6485,11.2107]},"geometry":{"type":"Polygon","coordinates":[[[106.4296,11.1242],[106.4214,11.1564],[106.3852,11.1898],[106.3523,11.2579],[106.3433,11.3444],[106.3789,11.4372],[106.4308,11.4933],[106.4643,11.5533],[106.5064,11.5183],[106.5247,11.4818],[106.5722,11.4664],[106.6191,11.4314],[106.615,11.3697],[106.6383,11.3196],[106.6776,11.3253],[106.6962,11.3608],[106.7254,11.3373],[106.7182,11.3069],[106.7913,11.3353],[106.9648,11.2836],[106.9311,11.1984],[106.9746,11.1224],[106.9547,11.064],[106.9021,11.026],[106.8273,11.0555],[106.784,11.0259],[106.7875,10.9807],[106.8323,10.9173],[106.836,10.8878],[106.7994,10.8945],[106.7218,10.8754],[106.6191,11.0102],[106.6161,11.031],[106.5834,11.0377],[106.5224,11.1306],[106.4296,11.1242]]]}},{"type":"Feature","id":"Binh Phuoc","properties":{"id":"Binh Phuoc","iso_code":"VN-58","name":"Binh Phuoc","name_full":"Bình Phước","name_ja":"ビンフオック省","center_lonlat":[106.9072,11.7505]},"geometry":{"type":"Polygon","coordinates":[[[107.2278,12.3106],[107.2581,12.0201],[107.3597,11.9182],[107.3738,11.8505],[107.4002,11.7975],[107.3904,11.7518],[107.3276,11.7178],[107.2844,11.6549],[107.2816,11.6279],[107.3085,11.5662],[107.1192,11.4879],[107.0571,11.368],[106.9648,11.2836],[106.7913,11.3353],[106.7182,11.3069],[106.7254,11.3373],[106.6962,11.3608],[106.6776,11.3253],[106.6383,11.3196],[106.615,11.3697],[106.6191,11.4314],[106.5722,11.4664],[106.5247,11.4818],[106.5064,11.5183],[106.4643,11.5533],[106.4893,11.5612],[106.487,11.5926],[106.4714,11.6536],[106.4346,11.6784],[106.3978,11.7621],[106.4388,11.8637],[106.394,11.9698],[106.4421,11.9749],[106.4737,11.9521],[106.5045,11.9734],[106.6386,11.9611],[106.6306,11.9762],[106.7016,11.9708],[106.7492,12.0523],[106.772,12.0658],[106.8793,12.0627],[106.9534,12.0811],[107.1525,12.277],[107.2278,12.3106]]]}},{"type":"Feature","id":"Binh Thuan","properties":{"id":"Binh Thuan","iso_code":"VN-40","name":"Binh Thuan","name_full":"Bình Thuận","name_ja":"ビントゥアン省","center_lonlat":[108.066,11.1098]},"geometry":{"type":"MultiPolygon","coordinates":[[[[108.906,11.3234],[108.8381,11.3308],[108.7879,11.3007],[108.7661,11.2759],[108.7293,11.1815],[108.6563,11.1928],[108.5774,11.1791],[108.5313,11.1533],[108.5003,11.1208],[108.4723,11.0532],[108.3688,11.0228],[108.345,10.9538],[108.3154,10.9443],[108.3001,10.9128],[108.2853,10.9433],[108.2586,10.9518],[108.1065,10.9182],[108.0657,10.868],[107.9983,10.6994],[107.9363,10.7187],[107.8823,10.717],[107.8239,10.6924],[107.7683,10.6502],[107.5865,10.5735],[107.5166,10.7561],[107.563,10.8018],[107.5908,10.8509],[107.5884,10.9118],[107.545,10.9921],[107.477,11.0014],[107.4309,11.0381],[107.5482,11.2892],[107.5802,11.3417],[107.6095,11.3617],[107.7268,11.3195],[108.0319,11.2943],[108.0526,11.271],[108.0529,11.211],[108.066,11.2034],[108.0926,11.2187],[108.1318,11.2694],[108.2505,11.3065],[108.3249,11.3563],[108.3387,11.3793],[108.3154,11.4314],[108.3147,11.4669],[108.3412,11.5079],[108.3865,11.5238],[108.5137,11.5277],[108.5804,11.5052],[108.6202,11.564],[108.6669,11.5628],[108.697,11.5478],[108.7215,11.4766],[108.7629,11.4586],[108.7719,11.4078],[108.8679,11.388],[108.8988,11.3521],[108.906,11.3234]]],[[[108.9426,10.5519],[108.959,10.5375],[108.9608,10.5029],[108.9302,10.5146],[108.9295,10.5448],[108.9426,10.5519]]]]}},{"type":"Feature","id":"Binh Đinh","properties":{"id":"Binh Đinh","iso_code":"VN-31","name":"Binh Đinh","name_full":"Bình Định","name_ja":"ビンディン省","center_lonlat":[108.9494,14.1196]},"geometry":{"type":"Polygon","coordinates":[[[109.0773,14.6725],[109.0882,14.5893],[109.061,14.5637],[109.0671,14.5507],[109.0745,14.5786],[109.1257,14.4654],[109.1365,14.3668],[109.1906,14.2912],[109.2012,14.236],[109.1909,14.2205],[109.239,14.133],[109.2202,14.1352],[109.1975,14.1678],[109.1745,14.1721],[109.1726,14.1566],[109.2254,14.104],[109.2527,14.0326],[109.2664,13.9207],[109.3074,13.8764],[109.304,13.7593],[109.2698,13.7556],[109.2732,13.8245],[109.2515,13.8909],[109.239,13.8798],[109.2207,13.8061],[109.2322,13.8109],[109.2395,13.7877],[109.259,13.7773],[109.2262,13.7436],[109.2371,13.6986],[109.1631,13.6733],[109.0623,13.5742],[108.9778,13.5426],[108.9097,13.5378],[108.8256,13.5575],[108.8076,13.7468],[108.7158,13.907],[108.715,14.0085],[108.6591,14.0775],[108.6355,14.1525],[108.6347,14.2175],[108.6871,14.4572],[108.6669,14.596],[108.8142,14.6733],[109.0504,14.683],[109.0773,14.6725]]]}},{"type":"Feature","id":"Ca Mau","properties":{"id":"Ca Mau","iso_code":"VN-59","name":"Ca Mau","name_full":"Cà Mau","name_ja":"カマウ省","center_lonlat":[105.0567,9.0616]},"geometry":{"type":"Polygon","coordinates":[[[105.426,9.008],[105.4082,9.0006],[105.4082,8.98],[105.3151,8.8122],[105.2588,8.7605],[105.184,8.7409],[105.1015,8.6343],[104.8562,8.5656],[104.7229,8.6027],[104.7202,8.6138],[104.7593,8.6156],[104.8351,8.6605],[104.8342,8.681],[104.8195,8.6909],[104.8328,8.6989],[104.9116,8.6852],[104.9631,8.7194],[104.9075,8.6996],[104.8533,8.7126],[104.8528,8.7292],[104.929,8.7473],[104.9216,8.8093],[104.8167,8.7713],[104.7917,8.7841],[104.7746,8.8179],[104.8117,8.937],[104.8071,9.0456],[104.8341,9.5344],[104.8779,9.5061],[104.9694,9.5299],[105.0239,9.5283],[105.2799,9.4058],[105.3048,9.3722],[105.2872,9.3307],[105.3169,9.2972],[105.281,9.2362],[105.2833,9.2052],[105.3167,9.1911],[105.3406,9.0855],[105.4139,9.0439],[105.426,9.008]]]}},{"type":"Feature","id":"Can Tho","properties":{"id":"Can Tho","iso_code":"VN-CT","name":"Can Tho","name_full":"Cần Thơ","name_ja":"カントー","center_lonlat":[105.5895,10.2298]},"geometry":{"type":"Polygon","coordinates":[[[105.4228,10.0436],[105.3241,10.1419],[105.2415,10.1996],[105.2656,10.2347],[105.3031,10.2535],[105.3203,10.2769],[105.3775,10.2331],[105.43,10.2735],[105.4734,10.2753],[105.5341,10.4028],[105.583,10.4465],[105.6317,10.4171],[105.7116,10.4023],[105.7824,10.3308],[105.849,10.3014],[105.8829,10.2389],[105.9146,10.214],[105.901,10.1601],[105.8679,10.1407],[105.819,10.1431],[105.7275,10.1856],[105.7079,10.1745],[105.7087,10.1431],[105.6922,10.1232],[105.4228,10.0436]]]}},{"type":"Feature","id":"Cao Bang","properties":{"id":"Cao Bang","iso_code":"VN-04","name":"Cao Bang","name_full":"Cao Bằng","name_ja":"カオバン省","center_lonlat":[106.0689,22.7347]},"geometry":{"type":"Polygon","coordinates":[[[105.5352,23.099],[105.5516,23.0597],[105.6903,23.044],[105.7547,23.0057],[105.8539,22.9047],[105.876,22.9283],[105.9612,22.9324],[105.9992,22.9754],[106.1321,22.975],[106.2024,22.947],[106.223,22.9124],[106.2271,22.8756],[106.2554,22.8547],[106.3157,22.8538],[106.458,22.889],[106.4878,22.9254],[106.5817,22.8953],[106.6104,22.8529],[106.6327,22.8496],[106.6479,22.867],[106.6675,22.8675],[106.7304,22.7976],[106.7898,22.7972],[106.7987,22.7844],[106.7915,22.7721],[106.7466,22.7443],[106.6802,22.5795],[106.6463,22.5688],[106.6076,22.61],[106.5771,22.5953],[106.5269,22.4383],[106.533,22.4034],[106.4759,22.379],[106.3986,22.3781],[106.258,22.4462],[106.193,22.4067],[106.1467,22.4197],[106.1325,22.4801],[106.109,22.5019],[106.1079,22.5306],[106.0823,22.5423],[105.9964,22.5254],[105.895,22.4747],[105.8431,22.4817],[105.8151,22.5053],[105.7653,22.6173],[105.7611,22.6444],[105.7776,22.6968],[105.7678,22.7177],[105.7249,22.7241],[105.693,22.7111],[105.5676,22.5922],[105.4519,22.7748],[105.2959,22.8657],[105.3591,22.9141],[105.4329,23.0008],[105.4885,23.0084],[105.5101,23.0868],[105.5352,23.099]]]}},{"type":"Feature","id":"Da Nang","properties":{"id":"Da Nang","iso_code":"VN-DN","name":"Da Nang","name_full":"Da Nang","name_ja":"ダナン","center_lonlat":[108.0884,16.1031]},"geometry":{"type":"Polygon","coordinates":[[[108.2001,16.2116],[108.1423,16.1484],[108.1428,16.1194],[108.1975,16.072],[108.2283,16.0897],[108.2332,16.0371],[108.1975,16.0037],[108.2498,16.0233],[108.259,16.0106],[108.242,16.0758],[108.2473,16.1232],[108.2249,16.1273],[108.2454,16.162],[108.3174,16.1347],[108.3314,16.1553],[108.3484,16.1347],[108.3142,16.0999],[108.2658,16.1074],[108.2586,16.071],[108.2823,15.9901],[108.1917,15.9978],[108.0553,15.9781],[108.0159,16.0027],[108.0009,16.09],[107.9339,16.0794],[107.8562,16.0876],[107.8859,16.1125],[107.9531,16.2159],[108.0223,16.2231],[108.1328,16.2016],[108.2001,16.2116]]]}},{"type":"Feature","id":"Gia Lai","properties":{"id":"Gia Lai","iso_code":"VN-30","name":"Gia Lai","name_full":"Gia Lai","name_ja":"ザライ省","center_lonlat":[108.2323,13.791]},"geometry":{"type":"Polygon","coordinates":[[[107.5616,13.262],[107.607,13.3698],[107.6043,13.4985],[107.5969,13.5351],[107.5143,13.6926],[107.4432,13.7835],[107.4462,13.8394],[107.4354,13.8697],[107.446,13.9216],[107.5717,14.0112],[107.6085,14.05],[107.6583,14.1381],[107.72,14.1856],[108.1532,14.33],[108.2606,14.3789],[108.3364,14.4307],[108.411,14.5161],[108.4262,14.5658],[108.408,14.6111],[108.4164,14.6245],[108.4939,14.6092],[108.6182,14.6406],[108.6669,14.596],[108.6871,14.4572],[108.6347,14.2175],[108.6355,14.1525],[108.6591,14.0775],[108.715,14.0085],[108.7158,13.907],[108.8076,13.7468],[108.8256,13.5575],[108.8217,13.4305],[108.8539,13.3364],[108.8535,13.2806],[108.8748,13.2113],[108.845,13.1746],[108.6878,13.0713],[108.6655,13.039],[108.6608,12.9962],[108.5146,13.0327],[108.4721,13.0739],[108.4342,13.2018],[108.3874,13.2789],[108.1075,13.3842],[108.0309,13.3837],[107.9284,13.3453],[107.8019,13.3494],[107.6809,13.3329],[107.5616,13.262]]]}},{"type":"Feature","id":"Ha Giang","properties":{"id":"Ha Giang","iso_code":"VN-03","name":"Ha Giang","name_full":"Hà Giang","name_ja":"ハザン省","center_lonlat":[104.9842,22.7595]},"geometry":{"type":"Polygon","coordinates":[[[105.5352,23.099],[105.5101,23.0868],[105.4885,23.0084],[105.4329,23.0008],[105.3591,22.9141],[105.2959,22.8657],[105.4519,22.7748],[105.5676,22.5922],[105.5004,22.5809],[105.3436,22.601],[105.2351,22.6389],[105.1796,22.6453],[105.1353,22.5257],[105.0731,22.4414],[105.0489,22.357],[105.032,22.3422],[104.9761,22.3557],[104.9457,22.3447],[104.9292,22.268],[104.8483,22.1702],[104.7702,22.1814],[104.6895,22.2644],[104.6509,22.2686],[104.6285,22.2579],[104.5986,22.2339],[104.5947,22.3317],[104.4709,22.4187],[104.4402,22.5535],[104.442,22.5665],[104.4787,22.5829],[104.4223,22.6513],[104.37,22.6684],[104.3619,22.6925],[104.449,22.7452],[104.5535,22.836],[104.5884,22.8069],[104.6098,22.823],[104.6627,22.8109],[104.7153,22.8271],[104.7742,22.8962],[104.8236,22.9241],[104.827,22.9543],[104.7979,23.0856],[104.8613,23.1196],[104.8701,23.1635],[104.8948,23.1703],[104.9351,23.1543],[105.0611,23.2325],[105.1556,23.2669],[105.2009,23.254],[105.2175,23.2654],[105.2359,23.3198],[105.2937,23.3663],[105.3122,23.3658],[105.3323,23.318],[105.3596,23.2916],[105.4309,23.2678],[105.4739,23.1945],[105.5283,23.1555],[105.5352,23.099]]]}},{"type":"Feature","id":"Ha Nam","properties":{"id":"Ha Nam","iso_code":"VN-63","name":"Ha Nam","name_full":"Hà Nam","name_ja":"ハナム省","center_lonlat":[105.962,20.5385]},"geometry":{"type":"Polygon","coordinates":[[[105.9512,20.3368],[105.9022,20.3626],[105.8413,20.4195],[105.7858,20.5683],[105.8255,20.6603],[105.8659,20.6567],[105.9211,20.6785],[105.9765,20.681],[106.0072,20.7132],[106.0302,20.7081],[106.027,20.6633],[106.0597,20.6166],[106.1124,20.6316],[106.1253,20.6251],[106.1367,20.5752],[106.1678,20.5464],[106.1845,20.4909],[106.0709,20.4833],[106.014,20.4054],[105.979,20.4263],[105.9524,20.3908],[105.9512,20.3368]]]}},{"type":"Feature","id":"Ha Tinh","properties":{"id":"Ha Tinh","iso_code":"VN-23","name":"Ha Tinh","name_full":"Hà Tĩnh","name_ja":"ハティン省","center_lonlat":[105.7248,18.2873]},"geometry":{"type":"Polygon","coordinates":[[[105.1695,18.6183],[105.2743,18.6258],[105.4123,18.5875],[105.5035,18.5971],[105.6618,18.5702],[105.6958,18.6014],[105.689,18.6219],[105.7507,18.6628],[105.77,18.6716],[105.7644,18.759],[105.7835,18.7473],[105.7909,18.6897],[105.8259,18.5939],[105.8792,18.5109],[105.9153,18.4731],[105.9495,18.471],[105.9773,18.4021],[106.1101,18.2755],[106.1122,18.2629],[106.0934,18.2587],[106.1033,18.2515],[106.1658,18.2656],[106.2708,18.2041],[106.346,18.1327],[106.354,18.1147],[106.3241,18.1181],[106.3063,18.1005],[106.3403,18.1005],[106.3467,18.0595],[106.3602,18.1005],[106.395,18.1005],[106.4224,18.1284],[106.4348,18.1235],[106.4224,18.0942],[106.4277,18.0729],[106.5186,17.957],[106.35,17.9674],[106.3009,17.913],[106.2785,17.9084],[106.1387,17.9289],[106.0626,17.9556],[106.0536,18.0085],[106.0285,18.0386],[105.9867,18.0607],[105.9272,18.0708],[105.86,18.0639],[105.7366,18.0229],[105.6823,17.9813],[105.6034,17.9692],[105.5898,17.9958],[105.5593,18.0153],[105.5465,18.059],[105.476,18.1273],[105.4667,18.181],[105.41,18.2019],[105.392,18.1942],[105.3683,18.15],[105.3219,18.1701],[105.2951,18.1956],[105.2925,18.2527],[105.2359,18.2495],[105.1567,18.3198],[105.1629,18.366],[105.0908,18.4265],[105.08,18.4544],[105.1136,18.5808],[105.1281,18.5989],[105.1621,18.5982],[105.1695,18.6183]]]}},{"type":"Feature","id":"Hai Duong","properties":{"id":"Hai Duong","iso_code":"VN-61","name":"Hai Duong","name_full":"Hải Dương","name_ja":"ハイズオン省","center_lonlat":[106.3667,20.9342]},"geometry":{"type":"Polygon","coordinates":[[[106.4172,20.7193],[106.2574,20.6959],[106.1266,20.8135],[106.1257,20.8512],[106.1596,20.9262],[106.1522,20.9978],[106.2265,20.9855],[106.295,21.0005],[106.3158,21.0505],[106.298,21.1341],[106.3295,21.188],[106.3858,21.2228],[106.4879,21.228],[106.5458,21.1937],[106.5056,21.1388],[106.4464,21.1076],[106.4406,21.0742],[106.4569,21.0575],[106.5776,21.0418],[106.6053,21.0254],[106.593,20.9735],[106.5444,20.9482],[106.5348,20.8884],[106.4907,20.8443],[106.5407,20.804],[106.5356,20.7823],[106.4605,20.7212],[106.4172,20.7193]]]}},{"type":"Feature","id":"Haiphong","properties":{"id":"Haiphong","iso_code":"VN-HP","name":"Haiphong","name_full":"Haiphong","name_ja":"ハイフォン","center_lonlat":[106.6124,20.7915]},"geometry":{"type":"Polygon","coordinates":[[[106.6507,21.018],[106.683,21.0058],[106.6558,21.0058],[106.6763,20.9587],[106.7551,20.9385],[106.7445,20.883],[106.7178,20.9035],[106.7,20.8828],[106.7445,20.8489],[106.7492,20.8043],[106.7366,20.795],[106.7178,20.8078],[106.7556,20.7512],[106.7725,20.739],[106.7786,20.7464],[106.8059,20.6776],[106.7671,20.7134],[106.717,20.6913],[106.6626,20.698],[106.7029,20.6716],[106.7031,20.6597],[106.6697,20.6365],[106.6209,20.6298],[106.5868,20.6633],[106.5936,20.6467],[106.5553,20.6379],[106.5288,20.6087],[106.469,20.6007],[106.4172,20.7193],[106.4605,20.7212],[106.5356,20.7823],[106.5407,20.804],[106.4907,20.8443],[106.5348,20.8884],[106.5444,20.9482],[106.593,20.9735],[106.6053,21.0254],[106.6507,21.018]]]}},{"type":"Feature","id":"Hanoi","properties":{"id":"Hanoi","iso_code":"VN-HN","name":"Hanoi","name_full":"Hanoi","name_ja":"ハノイ","center_lonlat":[105.6952,20.9896]},"geometry":{"type":"Polygon","coordinates":[[[105.7858,20.5683],[105.7543,20.6007],[105.6798,20.6377],[105.6297,20.7421],[105.516,20.8286],[105.5057,20.8625],[105.5335,20.9271],[105.5045,20.9872],[105.4371,21.0186],[105.3079,21.0119],[105.2849,21.0544],[105.306,21.1267],[105.2821,21.1707],[105.2849,21.1915],[105.3432,21.2382],[105.3402,21.2735],[105.3538,21.3014],[105.4147,21.3072],[105.4294,21.2764],[105.4558,21.2086],[105.4945,21.1737],[105.6702,21.1576],[105.7627,21.105],[105.7799,21.1791],[105.7664,21.2631],[105.7721,21.3625],[105.805,21.3731],[105.8484,21.3636],[105.9208,21.3281],[105.945,21.2475],[105.921,21.2087],[105.922,21.1505],[105.9391,21.1089],[106.0103,21.0457],[106.0047,20.9913],[105.9239,20.9745],[105.8953,20.9144],[105.9247,20.8867],[105.9151,20.8096],[105.9561,20.7868],[105.9813,20.7172],[106.0072,20.7132],[105.9765,20.681],[105.9211,20.6785],[105.8659,20.6567],[105.8255,20.6603],[105.7858,20.5683]]]}},{"type":"Feature","id":"Hau Giang","properties":{"id":"Hau Giang","iso_code":"VN-73","name":"Hau Giang","name_full":"Hậu Giang","name_ja":"ハウザン省","center_lonlat":[105.638,9.8476]},"geometry":{"type":"Polygon","coordinates":[[[105.8385,10.0048],[105.819,10.008],[105.9021,9.9167],[105.8263,9.7237],[105.6741,9.6409],[105.5693,9.6104],[105.4626,9.5875],[105.3923,9.5868],[105.3932,9.6426],[105.3616,9.6835],[105.3676,9.7019],[105.504,9.8343],[105.5285,9.9079],[105.5189,9.9522],[105.4228,10.0436],[105.6922,10.1232],[105.7795,10.0642],[105.8385,10.0048]]]}},{"type":"Feature","id":"Ho Chi Minh","properties":{"id":"Ho Chi Minh","iso_code":"VN-SG","name":"Ho Chi Minh","name_full":"Ho Chi Minh","name_ja":"ホーチミン市","center_lonlat":[106.6393,10.8443]},"geometry":{"type":"MultiPolygon","coordinates":[[[[106.9841,10.5669],[107.0114,10.5219],[106.9636,10.4666],[106.9636,10.5014],[106.9378,10.5487],[106.9431,10.6007],[106.8816,10.6522],[106.8286,10.6303],[106.7725,10.6863],[106.7368,10.6581],[106.7588,10.6413],[106.7725,10.6037],[106.7441,10.5522],[106.7437,10.618],[106.7247,10.6437],[106.6974,10.6546],[106.6453,10.639],[106.5045,10.7232],[106.4968,10.7489],[106.5268,10.8256],[106.5117,10.8856],[106.4769,10.925],[106.3637,10.9821],[106.4117,11.0456],[106.4296,11.1242],[106.5224,11.1306],[106.5834,11.0377],[106.6161,11.031],[106.6191,11.0102],[106.7218,10.8754],[106.7994,10.8945],[106.836,10.8878],[106.8807,10.8137],[106.8812,10.7625],[106.829,10.7709],[106.7938,10.7526],[106.7511,10.7725],[106.757,10.7054],[106.8365,10.6608],[106.8925,10.6701],[106.9641,10.6054],[106.9841,10.5669]]],[[[106.8743,10.4604],[106.8196,10.4666],[106.8333,10.4666],[106.8596,10.4318],[106.8589,10.4131],[106.8401,10.4052],[106.8164,10.4147],[106.7707,10.4643],[106.7551,10.5036],[106.752,10.5666],[106.7786,10.5765],[106.7859,10.6014],[106.752,10.6658],[106.7842,10.6629],[106.8081,10.6336],[106.8478,10.6138],[106.8538,10.5839],[106.8401,10.5594],[106.8718,10.5152],[106.8401,10.4945],[106.8639,10.487],[106.8743,10.4604]]],[[[106.9363,10.4393],[106.9773,10.4052],[106.888,10.371],[106.8743,10.4256],[106.8953,10.4809],[106.888,10.4666],[106.8794,10.4901],[106.9275,10.5212],[106.9481,10.507],[106.922,10.4256],[106.9363,10.4393]]],[[[106.9089,10.5324],[106.8899,10.5255],[106.8538,10.5628],[106.8713,10.6077],[106.8538,10.631],[106.888,10.6345],[106.9295,10.5976],[106.922,10.543],[106.8953,10.5765],[106.9089,10.5324]]],[[[107.0256,10.5014],[106.9915,10.4809],[106.9944,10.4966],[107.0202,10.5119],[107.0256,10.5014]]]]}},{"type":"Feature","id":"Hoa Binh","properties":{"id":"Hoa Binh","iso_code":"VN-14","name":"Hoa Binh","name_full":"Hòa Bình","name_ja":"ホアビン省","center_lonlat":[105.3418,20.6885]},"geometry":{"type":"Polygon","coordinates":[[[105.8413,20.4195],[105.7594,20.4415],[105.7135,20.4196],[105.7046,20.4072],[105.7156,20.3353],[105.695,20.321],[105.6559,20.3343],[105.5859,20.3846],[105.5627,20.3856],[105.5426,20.3671],[105.4554,20.3859],[105.3088,20.4563],[105.2131,20.5187],[105.1521,20.5865],[105.0667,20.5754],[104.9392,20.5909],[104.8429,20.6257],[104.8397,20.6967],[104.8574,20.7279],[104.9944,20.7329],[105.0771,20.7722],[105.0931,20.7943],[105.0867,20.8132],[105.0137,20.8604],[104.9135,20.9638],[104.8801,21.0225],[104.8817,21.0615],[104.9086,21.1014],[104.9423,21.0536],[105.042,21.0086],[105.1381,20.9405],[105.3327,20.9188],[105.3299,20.9814],[105.3079,21.0119],[105.4371,21.0186],[105.5045,20.9872],[105.5335,20.9271],[105.5057,20.8625],[105.516,20.8286],[105.6297,20.7421],[105.6798,20.6377],[105.7543,20.6007],[105.7858,20.5683],[105.8413,20.4195]]]}},{"type":"Feature","id":"Khanh Hoa","properties":{"id":"Khanh Hoa","iso_code":"VN-34","name":"Khanh Hoa","name_full":"Khánh Hòa","name_ja":"カインホア省","center_lonlat":[109.0342,12.3439]},"geometry":{"type":"MultiPolygon","coordinates":[[[[109.3846,12.834],[109.3688,12.8246],[109.3762,12.7762],[109.4207,12.6913],[109.4724,12.6564],[109.4513,12.639],[109.4513,12.5707],[109.4403,12.5646],[109.4051,12.618],[109.4241,12.6527],[109.4035,12.6874],[109.396,12.6731],[109.3762,12.6738],[109.3762,12.639],[109.3421,12.6601],[109.3899,12.7116],[109.3626,12.7625],[109.3589,12.7973],[109.2336,12.6871],[109.2049,12.6464],[109.2049,12.5502],[109.2185,12.5434],[109.239,12.5776],[109.2322,12.5913],[109.249,12.5855],[109.2322,12.5404],[109.2372,12.5223],[109.2983,12.478],[109.2943,12.439],[109.3367,12.4101],[109.3421,12.3789],[109.3346,12.3721],[109.3225,12.3861],[109.2974,12.351],[109.1851,12.4589],[109.1565,12.4547],[109.1702,12.4335],[109.1497,12.4404],[109.1769,12.3994],[109.1963,12.4028],[109.2141,12.3329],[109.242,12.3054],[109.2363,12.2911],[109.2185,12.2964],[109.2049,12.2629],[109.1769,12.2765],[109.2112,12.2486],[109.2048,12.2334],[109.2248,12.2008],[109.1985,12.208],[109.1843,12.194],[109.2044,12.1938],[109.2268,12.1379],[109.21,12.1097],[109.2206,12.0506],[109.2492,11.9974],[109.2868,11.9674],[109.2659,11.9099],[109.2942,11.8786],[109.2778,11.8648],[109.239,11.8854],[109.2248,11.8786],[109.2185,12.0158],[109.1768,12.1295],[109.1633,12.112],[109.1821,12.081],[109.1769,12.053],[109.2112,12.0056],[109.2082,11.9766],[109.1818,11.9217],[109.1372,11.8961],[109.1258,11.8636],[109.1316,11.83],[109.1633,11.824],[109.2049,11.8681],[109.1929,11.8275],[109.2039,11.7887],[109.1141,11.798],[109.086,11.8194],[109.0504,11.898],[108.891,11.9431],[108.8098,12.1243],[108.7777,12.1581],[108.7192,12.1811],[108.7071,12.2708],[108.6815,12.303],[108.6646,12.4124],[108.6766,12.4788],[108.7665,12.497],[108.8226,12.4736],[108.848,12.4754],[108.879,12.5556],[108.8746,12.6095],[108.8982,12.6699],[108.9153,12.6858],[108.9704,12.6955],[109.0373,12.7527],[109.0886,12.761],[109.1549,12.8278],[109.1957,12.8468],[109.3427,12.8531],[109.3846,12.834]]],[[[109.3934,12.6019],[109.4002,12.5579],[109.312,12.6143],[109.3203,12.628],[109.3689,12.6278],[109.3934,12.6019]]],[[[109.3284,12.2213],[109.3489,12.2008],[109.3284,12.1872],[109.3005,12.194],[109.3074,12.1872],[109.2693,12.1987],[109.2453,12.2281],[109.2732,12.2213],[109.2732,12.2355],[109.3284,12.2213]]]]}},{"type":"Feature","id":"Kien Giang","properties":{"id":"Kien Giang","iso_code":"VN-47","name":"Kien Giang","name_full":"Kiên Giang","name_ja":"キエンザン省","center_lonlat":[105.299,9.9712]},"geometry":{"type":"MultiPolygon","coordinates":[[[[104.7244,10.5213],[104.8877,10.3825],[105.2415,10.1996],[105.3241,10.1419],[105.4228,10.0436],[105.5189,9.9522],[105.5285,9.9079],[105.504,9.8343],[105.3676,9.7019],[105.3616,9.6835],[105.3932,9.6426],[105.3923,9.5868],[105.296,9.6003],[105.3102,9.5155],[105.2784,9.4595],[105.2988,9.4251],[105.2799,9.4058],[105.0239,9.5283],[104.9694,9.5299],[104.8779,9.5061],[104.8341,9.5344],[104.8566,9.738],[104.8928,9.8511],[104.97,9.8537],[104.9933,9.8881],[105.0767,9.9434],[105.1133,9.8571],[105.1071,9.9527],[105.0877,9.9967],[105.0033,10.0921],[104.9639,10.1059],[104.9011,10.0973],[104.8689,10.1161],[104.8049,10.2071],[104.772,10.2266],[104.7074,10.2223],[104.6509,10.1445],[104.613,10.1445],[104.5889,10.2609],[104.5515,10.2959],[104.5374,10.2822],[104.5359,10.3096],[104.499,10.3706],[104.5251,10.3898],[104.5249,10.4194],[104.4858,10.3833],[104.4536,10.3798],[104.4513,10.4197],[104.4943,10.4277],[104.5668,10.5281],[104.7244,10.5213]]],[[[104.082,10.371],[104.0855,10.2481],[104.0335,10.096],[104.0513,10.0693],[104.0513,10.008],[104.0106,10.0305],[103.957,10.2338],[103.9372,10.2661],[103.8574,10.3209],[103.846,10.3713],[103.9338,10.3664],[103.9681,10.4023],[103.9834,10.4422],[104.0047,10.451],[104.082,10.371]]]]}},{"type":"Feature","id":"Kon Tum","properties":{"id":"Kon Tum","iso_code":"VN-28","name":"Kon Tum","name_full":"Kon Tum","name_ja":"コントゥム省","center_lonlat":[107.8855,14.6625]},"geometry":{"type":"Polygon","coordinates":[[[107.5764,15.4031],[107.6026,15.4101],[107.6497,15.3989],[107.7017,15.3564],[107.7215,15.3048],[107.7767,15.296],[107.8622,15.222],[107.9292,15.2301],[108.0062,15.1944],[108.0702,15.1351],[108.0695,15.0522],[108.1385,14.9565],[108.19,14.9872],[108.2029,15.0639],[108.2966,15.0481],[108.3925,14.9643],[108.429,14.894],[108.4648,14.8573],[108.5487,14.8256],[108.6182,14.6406],[108.4939,14.6092],[108.4164,14.6245],[108.408,14.6111],[108.4262,14.5658],[108.411,14.5161],[108.3364,14.4307],[108.2606,14.3789],[108.1532,14.33],[107.72,14.1856],[107.6583,14.1381],[107.6085,14.05],[107.5717,14.0112],[107.446,13.9216],[107.4245,13.9941],[107.3546,14.0024],[107.3431,14.0206],[107.3447,14.0813],[107.3199,14.1198],[107.3586,14.2386],[107.3638,14.2832],[107.3518,14.342],[107.3869,14.4219],[107.4078,14.433],[107.4238,14.419],[107.4431,14.4237],[107.4647,14.449],[107.5053,14.541],[107.504,14.6021],[107.5324,14.6779],[107.5223,14.7187],[107.4981,14.7459],[107.5093,14.7586],[107.4909,14.8042],[107.5582,14.8867],[107.4619,14.9568],[107.4456,15.0254],[107.519,15.0488],[107.578,15.0472],[107.59,15.0689],[107.5805,15.0968],[107.6158,15.1355],[107.6273,15.1965],[107.6568,15.2057],[107.6641,15.2686],[107.5866,15.3434],[107.5764,15.4031]]]}},{"type":"Feature","id":"Lai Chau","properties":{"id":"Lai Chau","iso_code":"VN-01","name":"Lai Chau","name_full":"Lai Châu","name_ja":"ライチャウ省","center_lonlat":[103.1744,22.394]},"geometry":{"type":"Polygon","coordinates":[[[103.5499,22.6487],[103.5715,22.6316],[103.6096,22.5559],[103.6102,22.5171],[103.578,22.4825],[103.5879,22.4519],[103.6528,22.4177],[103.7473,22.4198],[103.7792,22.3994],[103.8018,22.3632],[103.7717,22.2879],[103.7262,22.236],[103.6343,22.1921],[103.6012,22.1509],[103.5694,22.0336],[103.5356,21.9828],[103.5504,21.8869],[103.4975,21.9678],[103.4617,21.9903],[103.4522,22.0484],[103.4165,22.0814],[103.4001,22.1363],[103.3832,22.15],[103.3609,22.1581],[103.324,22.1495],[103.2631,22.076],[103.2842,22.0543],[103.2644,22.048],[103.1773,22.088],[103.1401,22.0856],[103.0403,22.1477],[102.9347,22.1374],[102.9084,22.2029],[102.8897,22.2125],[102.8455,22.2054],[102.8285,22.2283],[102.8176,22.2971],[102.7768,22.3604],[102.7014,22.4144],[102.6449,22.4362],[102.5232,22.562],[102.3792,22.5756],[102.3246,22.5651],[102.3843,22.6289],[102.3559,22.6699],[102.395,22.6805],[102.4256,22.7453],[102.4427,22.7652],[102.4678,22.7686],[102.5158,22.7452],[102.5358,22.6958],[102.5584,22.6949],[102.5867,22.7161],[102.6125,22.6916],[102.6927,22.6705],[102.7519,22.6253],[102.8318,22.5997],[102.9026,22.4772],[103.0089,22.4303],[103.0451,22.4405],[103.0442,22.4865],[103.142,22.5378],[103.13,22.578],[103.1417,22.607],[103.2449,22.6687],[103.3096,22.7879],[103.3571,22.776],[103.4017,22.7378],[103.4109,22.6747],[103.4854,22.5841],[103.5143,22.5874],[103.5499,22.6487]]]}},{"type":"Feature","id":"Lam Đong","properties":{"id":"Lam Đong","iso_code":"VN-35","name":"Lam Đong","name_full":"Lâm Đồng","name_ja":"ラムドン省","center_lonlat":[108.1041,11.7312]},"geometry":{"type":"Polygon","coordinates":[[[108.7192,12.1811],[108.6867,12.1404],[108.6928,12.0635],[108.6813,11.9732],[108.6374,11.8392],[108.6397,11.8089],[108.6807,11.7523],[108.6833,11.7271],[108.6548,11.68],[108.6101,11.6401],[108.6202,11.564],[108.5804,11.5052],[108.5137,11.5277],[108.3865,11.5238],[108.3412,11.5079],[108.3147,11.4669],[108.3154,11.4314],[108.3387,11.3793],[108.3249,11.3563],[108.2505,11.3065],[108.1318,11.2694],[108.0926,11.2187],[108.066,11.2034],[108.0529,11.211],[108.0526,11.271],[108.0319,11.2943],[107.7268,11.3195],[107.6095,11.3617],[107.5268,11.4025],[107.4567,11.4104],[107.4432,11.4412],[107.4588,11.4825],[107.398,11.506],[107.3825,11.5595],[107.3085,11.5662],[107.2816,11.6279],[107.2844,11.6549],[107.3276,11.7178],[107.3904,11.7518],[107.4435,11.7444],[107.5634,11.7869],[107.6758,11.8731],[107.693,11.903],[107.7183,11.9096],[107.7358,11.906],[107.7462,11.8697],[107.7717,11.85],[107.8848,11.8618],[107.8994,11.8515],[107.9149,11.7932],[107.9708,11.7951],[107.9979,11.7696],[108.0085,11.7736],[108.0795,11.8505],[108.0928,11.9224],[108.0231,12.0078],[108.0142,12.0461],[107.9855,12.0647],[107.9868,12.0914],[107.9986,12.1257],[108.0142,12.1211],[108.0538,12.1462],[108.0948,12.1403],[108.1176,12.1519],[108.1483,12.1712],[108.2425,12.157],[108.2625,12.1975],[108.3226,12.2327],[108.4091,12.2354],[108.4995,12.2986],[108.6035,12.2714],[108.6815,12.303],[108.7071,12.2708],[108.7192,12.1811]]]}},{"type":"Feature","id":"Lang Son","properties":{"id":"Lang Son","iso_code":"VN-09","name":"Lang Son","name_full":"Lạng Sơn","name_ja":"ランソン省","center_lonlat":[106.6092,21.8376]},"geometry":{"type":"Polygon","coordinates":[[[106.533,22.4034],[106.5418,22.3451],[106.6338,22.3094],[106.6629,22.2233],[106.6397,22.1909],[106.6722,22.0925],[106.6482,21.9955],[106.6589,21.9628],[106.6746,21.9622],[106.7288,22.0083],[106.7815,21.975],[106.8648,21.9681],[106.9204,21.917],[106.9712,21.9358],[107.0094,21.9274],[107.0211,21.8923],[106.9871,21.8448],[107.0029,21.8106],[107.0658,21.7958],[107.1724,21.7151],[107.2121,21.7052],[107.2727,21.7183],[107.3032,21.6887],[107.3336,21.6125],[107.2331,21.5443],[107.2245,21.5278],[107.2491,21.4717],[107.2317,21.422],[107.191,21.3933],[107.0653,21.3605],[107.0241,21.3762],[107.0068,21.4418],[106.922,21.445],[106.8279,21.5972],[106.7477,21.5493],[106.6587,21.6074],[106.5804,21.5991],[106.5221,21.5449],[106.478,21.4483],[106.4358,21.4176],[106.3987,21.4111],[106.3529,21.4239],[106.2919,21.4775],[106.178,21.5082],[106.1598,21.5309],[106.1675,21.5708],[106.2567,21.6849],[106.1814,21.7854],[106.1419,21.8053],[106.114,21.9481],[106.1235,22.0543],[106.1904,22.1118],[106.2405,22.1982],[106.26,22.2621],[106.2203,22.3208],[106.193,22.4067],[106.258,22.4462],[106.3986,22.3781],[106.4759,22.379],[106.533,22.4034]]]}},{"type":"Feature","id":"Lao Cai","properties":{"id":"Lao Cai","iso_code":"VN-02","name":"Lao Cai","name_full":"Lào Cai","name_ja":"ラオカイ省","center_lonlat":[104.0603,22.2948]},"geometry":{"type":"Polygon","coordinates":[[[104.3619,22.6925],[104.37,22.6684],[104.4223,22.6513],[104.4787,22.5829],[104.442,22.5665],[104.4402,22.5535],[104.4709,22.4187],[104.5947,22.3317],[104.5986,22.2339],[104.6285,22.2579],[104.6454,22.1724],[104.6088,22.1539],[104.5654,22.1],[104.5419,22.0996],[104.453,22.1488],[104.3989,22.1348],[104.3848,22.1174],[104.3886,22.0793],[104.4439,21.9708],[104.4361,21.9341],[104.4107,21.9053],[104.3508,21.9064],[104.2322,21.9602],[104.2167,21.9093],[104.197,21.8871],[104.15,21.9114],[104.0518,21.9284],[103.9839,21.9742],[103.9115,21.8611],[103.9537,21.7797],[103.9253,21.7198],[103.8779,21.7092],[103.8348,21.733],[103.711,21.8612],[103.6349,22.0242],[103.6055,22.042],[103.5694,22.0336],[103.6012,22.1509],[103.6343,22.1921],[103.7262,22.236],[103.7717,22.2879],[103.8018,22.3632],[103.7792,22.3994],[103.7473,22.4198],[103.6528,22.4177],[103.5879,22.4519],[103.578,22.4825],[103.6102,22.5171],[103.6096,22.5559],[103.5715,22.6316],[103.5499,22.6487],[103.5471,22.7007],[103.59,22.768],[103.6469,22.799],[103.7942,22.6594],[103.8363,22.6028],[103.8668,22.5754],[103.8946,22.5692],[103.917,22.5333],[103.9595,22.5071],[103.9854,22.5272],[103.9856,22.5703],[104.0238,22.7192],[104.0869,22.7916],[104.2412,22.8244],[104.2288,22.7834],[104.2368,22.7421],[104.3402,22.6864],[104.3619,22.6925]]]}},{"type":"Feature","id":"Long An","properties":{"id":"Long An","iso_code":"VN-41","name":"Long An","name_full":"Long An","name_ja":"ロンアン省","center_lonlat":[106.1875,10.7301]},"geometry":{"type":"Polygon","coordinates":[[[106.1704,10.9706],[106.2024,10.9607],[106.2849,10.9856],[106.3028,11.0246],[106.3637,10.9821],[106.4769,10.925],[106.5117,10.8856],[106.5268,10.8256],[106.4968,10.7489],[106.5045,10.7232],[106.6453,10.639],[106.6974,10.6546],[106.7247,10.6437],[106.7437,10.618],[106.7441,10.5522],[106.7334,10.5224],[106.6888,10.5036],[106.6558,10.5219],[106.6687,10.4945],[106.5942,10.4393],[106.5799,10.4877],[106.5868,10.4387],[106.6154,10.4366],[106.5847,10.4144],[106.4522,10.4164],[106.4406,10.4718],[106.3559,10.5068],[106.3142,10.5654],[106.271,10.5864],[106.1458,10.5899],[106.0784,10.5439],[105.9627,10.5535],[105.866,10.6079],[105.5375,10.9197],[105.5236,10.9513],[105.6322,10.974],[105.7261,11.0184],[105.7529,11.0156],[105.8214,10.9197],[105.8475,10.8554],[105.8787,10.8281],[105.9087,10.8384],[105.9313,10.8964],[106.0179,10.8198],[106.0722,10.7969],[106.1551,10.7848],[106.1773,10.7669],[106.1218,10.9252],[106.1314,10.9693],[106.1704,10.9706]]]}},{"type":"Feature","id":"Nam Đinh","properties":{"id":"Nam Đinh","iso_code":"VN-67","name":"Nam Đinh","name_full":"Nam Định","name_ja":"ナムディン省","center_lonlat":[106.2118,20.2712]},"geometry":{"type":"Polygon","coordinates":[[[106.5029,20.3005],[106.513,20.2944],[106.5247,20.3083],[106.5485,20.2914],[106.5696,20.232],[106.395,20.2046],[106.4019,20.2182],[106.3807,20.212],[106.388,20.1975],[106.3533,20.1768],[106.2593,20.0613],[106.197,20.0128],[106.2107,20.0401],[106.2033,20.0475],[106.176,19.9923],[106.1071,19.965],[106.1145,20.0333],[106.1525,20.1267],[106.1623,20.1737],[106.1551,20.2176],[106.094,20.2524],[106.0573,20.2396],[106.0199,20.264],[105.9771,20.2714],[105.9638,20.2826],[105.9512,20.3368],[105.9524,20.3908],[105.979,20.4263],[106.014,20.4054],[106.0709,20.4833],[106.1845,20.4909],[106.2178,20.4686],[106.2196,20.4137],[106.2617,20.411],[106.2795,20.3926],[106.2676,20.3316],[106.3494,20.3645],[106.4553,20.2845],[106.4811,20.2842],[106.5029,20.3005]]]}},{"type":"Feature","id":"Nghe An","properties":{"id":"Nghe An","iso_code":"VN-22","name":"Nghe An","name_full":"Nghệ An","name_ja":"ゲアン省","center_lonlat":[104.9315,19.2384]},"geometry":{"type":"Polygon","coordinates":[[[104.9457,19.9924],[105.1518,19.9149],[105.1796,19.891],[105.14,19.8275],[105.1382,19.7868],[105.1681,19.714],[105.2622,19.62],[105.277,19.5142],[105.3174,19.5459],[105.3424,19.5482],[105.4161,19.4732],[105.5068,19.4703],[105.5344,19.4542],[105.5766,19.3971],[105.687,19.3095],[105.8062,19.2743],[105.781,19.2649],[105.7723,19.236],[105.7434,19.2319],[105.7312,19.1702],[105.7371,19.1085],[105.6956,19.0811],[105.6683,19.0895],[105.6438,19.0654],[105.6143,18.9986],[105.6348,18.9098],[105.6699,18.8749],[105.7166,18.8546],[105.7029,18.8341],[105.6751,18.8546],[105.6887,18.8266],[105.7201,18.8236],[105.752,18.7863],[105.7427,18.7308],[105.7561,18.716],[105.7507,18.6628],[105.689,18.6219],[105.6958,18.6014],[105.6618,18.5702],[105.5035,18.5971],[105.4123,18.5875],[105.2743,18.6258],[105.1695,18.6183],[105.1127,18.6983],[105.0646,18.6966],[104.9902,18.733],[104.9197,18.7356],[104.8994,18.7706],[104.8729,18.778],[104.8016,18.7751],[104.7103,18.7961],[104.6856,18.8248],[104.6462,18.8325],[104.5561,18.8965],[104.4977,18.968],[104.4132,18.9831],[104.3552,19.0479],[104.3029,19.0687],[104.2599,19.1041],[104.2106,19.1007],[104.1981,19.1469],[104.1477,19.1829],[104.0367,19.2302],[103.9728,19.2253],[103.9109,19.263],[103.8927,19.2939],[103.8484,19.2999],[103.87,19.3269],[103.9213,19.3528],[103.9528,19.391],[104.0383,19.4129],[104.0605,19.4713],[104.09,19.4837],[104.0716,19.5591],[104.0174,19.6004],[103.9977,19.6525],[104.001,19.6807],[104.0887,19.6519],[104.1092,19.6549],[104.1363,19.6875],[104.229,19.706],[104.277,19.6839],[104.2953,19.6549],[104.3419,19.683],[104.3801,19.6853],[104.4154,19.6508],[104.5058,19.6028],[104.5462,19.6019],[104.5792,19.618],[104.6143,19.6074],[104.676,19.7247],[104.7367,19.7457],[104.805,19.7909],[104.8166,19.8481],[104.7555,19.867],[104.7807,19.9081],[104.8579,19.9552],[104.8738,19.9827],[104.9457,19.9924]]]}},{"type":"Feature","id":"Ninh Binh","properties":{"id":"Ninh Binh","iso_code":"VN-18","name":"Ninh Binh","name_full":"Ninh Bình","name_ja":"ニンビン省","center_lonlat":[105.9014,20.2339]},"geometry":{"type":"Polygon","coordinates":[[[106.1145,20.0333],[106.0835,19.965],[106.0342,19.9957],[106.0684,20.0278],[106.06,20.0602],[105.9826,20.0782],[105.9189,20.1189],[105.8195,20.1556],[105.5426,20.3671],[105.5627,20.3856],[105.5859,20.3846],[105.6559,20.3343],[105.695,20.321],[105.7156,20.3353],[105.7046,20.4072],[105.7135,20.4196],[105.7594,20.4415],[105.8413,20.4195],[105.9022,20.3626],[105.9512,20.3368],[105.9638,20.2826],[105.9771,20.2714],[106.0199,20.264],[106.0573,20.2396],[106.094,20.2524],[106.1551,20.2176],[106.1623,20.1737],[106.1525,20.1267],[106.1145,20.0333]]]}},{"type":"Feature","id":"Ninh Thuan","properties":{"id":"Ninh Thuan","iso_code":"VN-36","name":"Ninh Thuan","name_full":"Ninh Thuận","name_ja":"ニントゥアン省","center_lonlat":[108.8786,11.719]},"geometry":{"type":"Polygon","coordinates":[[[109.2039,11.7887],[109.2429,11.7357],[109.2322,11.7142],[109.2178,11.7141],[109.1843,11.6385],[109.136,11.5702],[109.0671,11.5838],[109.0435,11.6385],[109.0203,11.6328],[109.0404,11.6015],[109.0404,11.5429],[109.0125,11.5429],[109.0278,11.5175],[109.0181,11.3559],[108.9517,11.3101],[108.906,11.3234],[108.8988,11.3521],[108.8679,11.388],[108.7719,11.4078],[108.7629,11.4586],[108.7215,11.4766],[108.697,11.5478],[108.6669,11.5628],[108.6202,11.564],[108.6101,11.6401],[108.6548,11.68],[108.6833,11.7271],[108.6807,11.7523],[108.6397,11.8089],[108.6374,11.8392],[108.6813,11.9732],[108.6928,12.0635],[108.6867,12.1404],[108.7192,12.1811],[108.7777,12.1581],[108.8098,12.1243],[108.891,11.9431],[109.0504,11.898],[109.086,11.8194],[109.1141,11.798],[109.2039,11.7887]]]}},{"type":"Feature","id":"Northeast Vietnam","properties":{"id":"Northeast Vietnam","iso_code":"VN-53","name":"Northeast Vietnam","name_full":"Northeast Vietnam","name_ja":"東北部","center_lonlat":[105.8513,22.2412]},"geometry":{"type":"Polygon","coordinates":[[[105.5575,21.9509],[105.5007,22.0775],[105.4886,22.1544],[105.4998,22.2952],[105.6093,22.47],[105.607,22.5176],[105.5676,22.5922],[105.693,22.7111],[105.7249,22.7241],[105.7678,22.7177],[105.7776,22.6968],[105.7611,22.6444],[105.7653,22.6173],[105.8151,22.5053],[105.8431,22.4817],[105.895,22.4747],[105.9964,22.5254],[106.0823,22.5423],[106.1079,22.5306],[106.109,22.5019],[106.1325,22.4801],[106.1467,22.4197],[106.193,22.4067],[106.2203,22.3208],[106.26,22.2621],[106.2405,22.1982],[106.1904,22.1118],[106.1235,22.0543],[106.114,21.9481],[106.0359,21.928],[106.0015,21.8878],[105.9155,21.8347],[105.8392,21.8142],[105.8137,21.7793],[105.7871,21.8277],[105.7729,21.9778],[105.7349,22.0197],[105.6998,22.0331],[105.6451,22.0195],[105.5844,21.957],[105.5575,21.9509]]]}},{"type":"Feature","id":"Phu Tho","properties":{"id":"Phu Tho","iso_code":"VN-68","name":"Phu Tho","name_full":"Phú Thọ","name_ja":"フート省","center_lonlat":[105.1189,21.3119]},"geometry":{"type":"Polygon","coordinates":[[[105.3174,21.5141],[105.3437,21.4347],[105.3922,21.4088],[105.4575,21.3117],[105.4516,21.2914],[105.4294,21.2764],[105.4147,21.3072],[105.3538,21.3014],[105.3402,21.2735],[105.3432,21.2382],[105.2849,21.1915],[105.2821,21.1707],[105.306,21.1267],[105.2849,21.0544],[105.3079,21.0119],[105.3299,20.9814],[105.3327,20.9188],[105.1381,20.9405],[105.042,21.0086],[104.9423,21.0536],[104.9086,21.1014],[104.8736,21.1376],[104.8658,21.2502],[104.8285,21.3296],[104.8951,21.3654],[104.9193,21.3979],[104.8881,21.523],[104.903,21.596],[104.9466,21.6403],[105.0722,21.6787],[105.1118,21.7039],[105.2332,21.6187],[105.3174,21.5141]]]}},{"type":"Feature","id":"Phu Yen","properties":{"id":"Phu Yen","iso_code":"VN-32","name":"Phu Yen","name_full":"Phú Yên","name_ja":"フーイエン省","center_lonlat":[109.0614,13.1609]},"geometry":{"type":"Polygon","coordinates":[[[109.2371,13.6986],[109.2476,13.6227],[109.3039,13.5688],[109.2868,13.5576],[109.2942,13.5303],[109.2185,13.647],[109.2101,13.6308],[109.2322,13.6122],[109.2868,13.5092],[109.3142,13.5229],[109.3037,13.4799],[109.3397,13.4655],[109.3074,13.4068],[109.2732,13.4311],[109.2982,13.4484],[109.2944,13.4682],[109.2625,13.4893],[109.2385,13.4768],[109.2346,13.4371],[109.2453,13.4272],[109.2322,13.3931],[109.28,13.3528],[109.2993,13.3647],[109.3088,13.3415],[109.2868,13.331],[109.2942,13.2976],[109.2732,13.3106],[109.259,13.2976],[109.2942,13.2355],[109.3037,13.3032],[109.3142,13.2976],[109.3211,13.259],[109.3074,13.2287],[109.3074,13.133],[109.3284,13.0847],[109.465,12.9133],[109.4582,12.8519],[109.4309,12.8451],[109.45,12.8732],[109.4382,12.8786],[109.4035,12.8382],[109.3846,12.834],[109.3427,12.8531],[109.1957,12.8468],[109.1549,12.8278],[109.0886,12.761],[109.0373,12.7527],[108.8616,12.807],[108.7597,12.8644],[108.7254,12.8956],[108.6608,12.9962],[108.6655,13.039],[108.6878,13.0713],[108.845,13.1746],[108.8748,13.2113],[108.8535,13.2806],[108.8539,13.3364],[108.8217,13.4305],[108.8256,13.5575],[108.9097,13.5378],[108.9778,13.5426],[109.0623,13.5742],[109.1631,13.6733],[109.2371,13.6986]]]}},{"type":"Feature","id":"Quang Binh","properties":{"id":"Quang Binh","iso_code":"VN-24","name":"Quang Binh","name_full":"Quảng Bình","name_ja":"クアンビン省","center_lonlat":[106.2779,17.5285]},"geometry":{"type":"Polygon","coordinates":[[[105.6034,17.9692],[105.6823,17.9813],[105.7366,18.0229],[105.86,18.0639],[105.9272,18.0708],[105.9867,18.0607],[106.0285,18.0386],[106.0536,18.0085],[106.0626,17.9556],[106.1387,17.9289],[106.2785,17.9084],[106.3009,17.913],[106.35,17.9674],[106.5186,17.957],[106.5247,17.9434],[106.4551,17.8818],[106.436,17.882],[106.451,17.8657],[106.4429,17.8466],[106.4701,17.7482],[106.4981,17.7106],[106.4895,17.7026],[106.3745,17.7653],[106.2852,17.7721],[106.4292,17.7311],[106.3831,17.7192],[106.3796,17.6988],[106.4087,17.6828],[106.395,17.7032],[106.4175,17.713],[106.5044,17.6828],[106.6148,17.5187],[106.6346,17.4704],[106.7639,17.3355],[107.0075,17.1622],[106.9026,17.1005],[106.8169,16.9788],[106.7491,16.9613],[106.5882,16.9722],[106.5336,16.9506],[106.5245,16.9892],[106.4968,16.9639],[106.4114,16.9957],[106.3871,17.0472],[106.3949,17.068],[106.3064,17.1765],[106.3105,17.2271],[106.288,17.2538],[106.2846,17.2848],[106.26,17.2892],[106.2218,17.2449],[106.1854,17.2574],[106.0193,17.3945],[105.8199,17.6216],[105.7231,17.6735],[105.644,17.8201],[105.6052,17.8543],[105.5942,17.8881],[105.6034,17.9692]]]}},{"type":"Feature","id":"Quang Nam","properties":{"id":"Quang Nam","iso_code":"VN-27","name":"Quang Nam","name_full":"Quảng Nam","name_ja":"クアンナム省","center_lonlat":[107.9441,15.6222]},"geometry":{"type":"Polygon","coordinates":[[[107.4333,16.0555],[107.5971,16.0562],[107.6623,16.0914],[107.6879,16.0773],[107.7299,16.0141],[107.8025,16.0843],[107.8562,16.0876],[107.9339,16.0794],[108.0009,16.09],[108.0159,16.0027],[108.0553,15.9781],[108.1917,15.9978],[108.2823,15.9901],[108.3059,15.9552],[108.3882,15.8984],[108.3962,15.8808],[108.3752,15.8695],[108.4099,15.8808],[108.4241,15.8057],[108.4553,15.747],[108.6187,15.5292],[108.6463,15.5139],[108.6834,15.5178],[108.6677,15.4827],[108.6563,15.4966],[108.6294,15.4865],[108.6209,15.4748],[108.6289,15.4557],[108.6525,15.4388],[108.6971,15.4904],[108.7039,15.4451],[108.7616,15.3966],[108.666,15.3833],[108.4856,15.3252],[108.3581,15.3058],[108.2788,15.1967],[108.2803,15.16],[108.326,15.0965],[108.2966,15.0481],[108.2029,15.0639],[108.19,14.9872],[108.1385,14.9565],[108.0695,15.0522],[108.0702,15.1351],[108.0062,15.1944],[107.9292,15.2301],[107.8622,15.222],[107.7767,15.296],[107.7215,15.3048],[107.7017,15.3564],[107.6497,15.3989],[107.6026,15.4101],[107.5764,15.4031],[107.5556,15.4158],[107.5126,15.4094],[107.4939,15.42],[107.4875,15.4814],[107.4608,15.4844],[107.4479,15.5081],[107.4051,15.5086],[107.3816,15.4885],[107.3693,15.4961],[107.3164,15.5887],[107.2391,15.6451],[107.2257,15.7168],[107.1488,15.7735],[107.1863,15.8594],[107.2357,15.8555],[107.3051,15.8991],[107.3755,15.9191],[107.4447,16.01],[107.4333,16.0555]]]}},{"type":"Feature","id":"Quang Ngai","properties":{"id":"Quang Ngai","iso_code":"VN-29","name":"Quang Ngai","name_full":"Quảng Ngãi","name_ja":"クアンガイ省","center_lonlat":[108.6792,15.0206]},"geometry":{"type":"Polygon","coordinates":[[[108.7616,15.3966],[108.773,15.3868],[108.7798,15.3253],[108.7871,15.3459],[108.8213,15.3459],[108.7962,15.3564],[108.7886,15.3742],[108.8145,15.4079],[108.8001,15.429],[108.8275,15.429],[108.839,15.3743],[108.8828,15.3362],[108.8866,15.2862],[108.9517,15.2502],[108.933,15.2272],[108.9033,15.2229],[108.9243,15.2018],[108.91,15.2093],[108.8977,15.154],[108.8625,15.1525],[108.8698,15.1404],[108.8923,15.1413],[108.8977,15.1199],[108.91,15.1466],[108.9426,14.9796],[109.0056,14.8388],[108.9855,14.8366],[109.0125,14.822],[109.0808,14.7295],[109.0951,14.6674],[109.0764,14.6856],[109.0773,14.6725],[109.0504,14.683],[108.8142,14.6733],[108.6669,14.596],[108.6182,14.6406],[108.5487,14.8256],[108.4648,14.8573],[108.429,14.894],[108.3925,14.9643],[108.2966,15.0481],[108.326,15.0965],[108.2803,15.16],[108.2788,15.1967],[108.3581,15.3058],[108.4856,15.3252],[108.666,15.3833],[108.7616,15.3966]]]}},{"type":"Feature","id":"Quang Ninh","properties":{"id":"Quang Ninh","iso_code":"VN-13","name":"Quang Ninh","name_full":"Quảng Ninh","name_ja":"クアンニン省","center_lonlat":[107.2285,21.277]},"geometry":{"type":"MultiPolygon","coordinates":[[[[107.3336,21.6125],[107.3482,21.5994],[107.426,21.6521],[107.457,21.6315],[107.461,21.5964],[107.5099,21.5818],[107.5331,21.6087],[107.6132,21.6056],[107.6903,21.6247],[107.7448,21.6575],[107.7779,21.656],[107.8324,21.6394],[107.8555,21.6003],[107.9912,21.4857],[107.9297,21.4426],[107.916,21.4584],[107.9286,21.4905],[107.9097,21.5265],[107.8819,21.5341],[107.8684,21.5136],[107.8628,21.5302],[107.8359,21.4883],[107.8267,21.5267],[107.813,21.5205],[107.8206,21.4931],[107.8069,21.5068],[107.8001,21.4993],[107.7962,21.5195],[107.7669,21.5202],[107.7522,21.5068],[107.7886,21.4945],[107.7926,21.4801],[107.7789,21.4857],[107.7864,21.4584],[107.7618,21.4508],[107.7485,21.4112],[107.6981,21.3984],[107.669,21.4112],[107.6634,21.3781],[107.635,21.3832],[107.6423,21.3628],[107.6312,21.3545],[107.6423,21.3423],[107.6213,21.3355],[107.6288,21.3287],[107.6082,21.3355],[107.5906,21.2939],[107.554,21.3045],[107.5352,21.3454],[107.5223,21.3485],[107.5252,21.3076],[107.5374,21.3019],[107.5266,21.2988],[107.4722,21.3037],[107.4153,21.3287],[107.409,21.315],[107.4431,21.2877],[107.3674,21.2734],[107.3733,21.259],[107.3606,21.2392],[107.3543,21.1915],[107.3884,21.1846],[107.3755,21.1162],[107.3606,21.1021],[107.3674,21.0879],[107.3543,21.0822],[107.3743,21.0276],[107.3338,21.0058],[107.2112,20.9923],[107.2311,20.9792],[107.1934,20.9527],[107.197,20.9376],[107.1492,20.9308],[107.1338,20.9448],[107.0661,20.9587],[107.0952,21.0005],[107.1492,21.0406],[107.1112,21.0331],[107.0838,21.0058],[107.0872,21.0276],[107.0803,21.0338],[107.0632,21.0093],[107.053,21.0338],[107.0462,20.9997],[107.0446,21.0251],[107.0256,21.0338],[107.0393,20.9997],[106.9978,21.0202],[106.9955,21.0064],[107.0256,20.9724],[107.001,20.9511],[106.947,20.9543],[106.8846,20.9932],[106.8538,20.9923],[106.9431,20.9103],[106.9017,20.9079],[106.8743,20.9376],[106.888,20.9103],[106.8679,20.8827],[106.8333,20.9376],[106.806,20.9321],[106.7725,20.9574],[106.8206,20.976],[106.7987,21.0019],[106.8122,21.0134],[106.7981,21.0248],[106.7786,21.0276],[106.7854,21.0134],[106.7308,21.0299],[106.7103,21.0202],[106.7178,21.0058],[106.6421,21.0202],[106.6507,21.018],[106.6053,21.0254],[106.5776,21.0418],[106.4569,21.0575],[106.4406,21.0742],[106.4464,21.1076],[106.5056,21.1388],[106.5458,21.1937],[106.7592,21.1617],[106.8244,21.1622],[106.9479,21.1897],[106.9806,21.2306],[106.9986,21.3147],[107.0653,21.3605],[107.191,21.3933],[107.2317,21.422],[107.2491,21.4717],[107.2245,21.5278],[107.2331,21.5443],[107.3336,21.6125]]],[[[107.5806,21.212],[107.6062,21.2174],[107.5471,21.1567],[107.5242,21.16],[107.4707,21.0959],[107.3887,21.0475],[107.3729,21.0596],[107.4183,21.1967],[107.4324,21.1885],[107.4502,21.2051],[107.4553,21.2757],[107.5232,21.2309],[107.5327,21.1989],[107.5806,21.212]]],[[[107.0803,20.8004],[107.094,20.7874],[107.0661,20.8141],[107.0735,20.7806],[107.0505,20.7759],[107.0319,20.7874],[107.0369,20.7663],[107.0674,20.7497],[107.0735,20.7322],[107.0598,20.739],[107.0462,20.7042],[107.0462,20.726],[107.0182,20.726],[107.0393,20.7322],[107.0319,20.7464],[107.0182,20.739],[106.9978,20.7532],[107.0051,20.7322],[106.9099,20.8185],[106.9129,20.8369],[106.9431,20.8489],[106.9574,20.8768],[106.95,20.8693],[106.9636,20.8561],[107.0051,20.842],[107.0125,20.8588],[107.036,20.8574],[107.043,20.8314],[107.0872,20.8215],[107.1077,20.8004],[107.0803,20.8004]]],[[[106.8401,20.8799],[106.8816,20.8215],[106.8865,20.7961],[106.8735,20.7895],[106.8475,20.7973],[106.8196,20.8768],[106.8196,20.842],[106.7707,20.8586],[106.7656,20.8768],[106.7854,20.9308],[106.8246,20.9152],[106.8401,20.8799]]],[[[107.5327,21.0202],[107.5584,21.0347],[107.5117,20.924],[107.395,20.8973],[107.4743,20.9467],[107.4917,20.9649],[107.5047,21.0202],[107.5198,21.0134],[107.5327,21.0406],[107.5327,21.0202]]],[[[107.8687,21.3901],[107.9983,21.4038],[107.9442,21.3681],[107.9299,21.3764],[107.8412,21.3485],[107.8482,21.3703],[107.855,21.3559],[107.8728,21.3742],[107.8269,21.3764],[107.8687,21.3901]]],[[[107.5254,20.9103],[107.5532,20.9724],[107.5594,20.9587],[107.5452,20.9191],[107.4846,20.8217],[107.4639,20.8141],[107.4819,20.8654],[107.4707,20.883],[107.5056,20.8874],[107.5254,20.9103]]],[[[107.6213,21.116],[107.6318,21.112],[107.5796,20.9831],[107.5594,20.986],[107.5701,20.9899],[107.5669,21.0167],[107.5842,21.0397],[107.5942,21.0891],[107.6213,21.116]]],[[[107.7451,21.0202],[107.7928,20.986],[107.773,20.9923],[107.7708,20.9572],[107.7383,20.9376],[107.7588,20.9826],[107.7376,21.0032],[107.7451,21.0202]]],[[[107.8135,21.3605],[107.8171,21.3485],[107.7114,21.3076],[107.7839,21.3563],[107.8135,21.3605]]],[[[107.3822,20.8879],[107.3952,20.8786],[107.39,20.8674],[107.3677,20.8584],[107.3325,20.8833],[107.3822,20.8879]]],[[[107.8257,21.025],[107.8563,21.0333],[107.8177,20.9883],[107.8257,21.025]]],[[[107.3696,20.8259],[107.3845,20.8128],[107.3802,20.7976],[107.3503,20.8109],[107.3411,20.8426],[107.3696,20.8259]]]]}},{"type":"Feature","id":"Quang Tri","properties":{"id":"Quang Tri","iso_code":"VN-25","name":"Quang Tri","name_full":"Quảng Trị","name_ja":"クアンチ省","center_lonlat":[106.9339,16.7353]},"geometry":{"type":"Polygon","coordinates":[[[106.5336,16.9506],[106.5882,16.9722],[106.7491,16.9613],[106.8169,16.9788],[106.9026,17.1005],[107.0075,17.1622],[107.1118,17.0883],[107.1272,17.0598],[107.1213,17.0185],[107.2039,16.9193],[107.1418,16.8677],[107.1902,16.8746],[107.1895,16.8923],[107.2165,16.9079],[107.4116,16.75],[107.3384,16.6467],[107.2879,16.6063],[107.1741,16.5875],[107.1146,16.5643],[107.119,16.516],[107.167,16.4641],[107.0689,16.3571],[107.068,16.2908],[106.9673,16.2999],[106.946,16.3461],[106.8977,16.3785],[106.8763,16.418],[106.8559,16.4147],[106.8641,16.5041],[106.8467,16.5301],[106.8229,16.531],[106.7973,16.4795],[106.7591,16.4525],[106.7424,16.4215],[106.7257,16.4171],[106.7227,16.4325],[106.6929,16.4279],[106.6707,16.4444],[106.6412,16.5104],[106.6402,16.5866],[106.5724,16.6136],[106.5407,16.6591],[106.5336,16.9506]]]}},{"type":"Feature","id":"Red River Delta","properties":{"id":"Red River Delta","iso_code":"VN-66","name":"Red River Delta","name_full":"Red River Delta","name_ja":"紅河デルタ","center_lonlat":[106.059,20.824]},"geometry":{"type":"Polygon","coordinates":[[[106.2574,20.6959],[106.2065,20.6672],[106.1387,20.6668],[106.1129,20.6496],[106.1124,20.6316],[106.0597,20.6166],[106.027,20.6633],[106.0302,20.7081],[106.0072,20.7132],[105.9813,20.7172],[105.9561,20.7868],[105.9151,20.8096],[105.9247,20.8867],[105.8953,20.9144],[105.9239,20.9745],[106.0047,20.9913],[106.1522,20.9978],[106.1596,20.9262],[106.1257,20.8512],[106.1266,20.8135],[106.2574,20.6959]]]}},{"type":"Feature","id":"Soc Trang","properties":{"id":"Soc Trang","iso_code":"VN-52","name":"Soc Trang","name_full":"Sóc Trăng","name_ja":"ソクチャン省","center_lonlat":[105.9066,9.5452]},"geometry":{"type":"MultiPolygon","coordinates":[[[[105.9021,9.9167],[106.0735,9.748],[106.0929,9.6929],[106.197,9.5412],[106.2107,9.47],[106.1692,9.4182],[106.1946,9.399],[106.1839,9.3622],[106.0182,9.3153],[105.8683,9.2547],[105.823,9.378],[105.7859,9.3941],[105.736,9.3799],[105.6924,9.3839],[105.5997,9.418],[105.5776,9.4593],[105.5693,9.6104],[105.6741,9.6409],[105.8263,9.7237],[105.9021,9.9167]]],[[[106.2107,9.6209],[106.292,9.5864],[106.2844,9.5437],[106.2442,9.535],[106.2492,9.5601],[106.197,9.6101],[106.1896,9.6038],[106.2266,9.5652],[106.1966,9.5717],[106.126,9.6724],[106.0934,9.7609],[106.2107,9.6209]]],[[[106.6626,8.7398],[106.6392,8.7375],[106.6558,8.6989],[106.6023,8.6947],[106.603,8.6557],[106.5784,8.6555],[106.5596,8.6818],[106.571,8.706],[106.6584,8.7667],[106.6682,8.7597],[106.6558,8.7535],[106.6626,8.7398]]]]}},{"type":"Feature","id":"Son La","properties":{"id":"Son La","iso_code":"VN-05","name":"Son La","name_full":"Sơn La","name_ja":"ソンラ省","center_lonlat":[104.0886,21.1863]},"geometry":{"type":"Polygon","coordinates":[[[103.2258,20.8264],[103.2486,20.9775],[103.2915,21.0249],[103.2877,21.078],[103.3184,21.0809],[103.3799,21.0525],[103.4171,21.0549],[103.4377,21.0728],[103.4186,21.1459],[103.4472,21.2282],[103.4464,21.2895],[103.3951,21.3424],[103.3934,21.3773],[103.3763,21.3954],[103.3859,21.4187],[103.4455,21.4525],[103.4663,21.505],[103.5616,21.6105],[103.5693,21.674],[103.5504,21.8869],[103.5356,21.9828],[103.5694,22.0336],[103.6055,22.042],[103.6349,22.0242],[103.711,21.8612],[103.8348,21.733],[103.8779,21.7092],[103.9253,21.7198],[104.0164,21.6852],[104.1698,21.6593],[104.2321,21.6697],[104.2704,21.6995],[104.3072,21.7097],[104.3498,21.671],[104.3177,21.5636],[104.311,21.4955],[104.3284,21.4442],[104.3571,21.4164],[104.4697,21.3623],[104.5823,21.4132],[104.6736,21.3826],[104.7356,21.391],[104.7794,21.3348],[104.8285,21.3296],[104.8658,21.2502],[104.8736,21.1376],[104.9086,21.1014],[104.8817,21.0615],[104.8801,21.0225],[104.9135,20.9638],[105.0137,20.8604],[105.0867,20.8132],[105.0931,20.7943],[105.0771,20.7722],[104.9944,20.7329],[104.8574,20.7279],[104.8397,20.6967],[104.8429,20.6257],[104.8101,20.5904],[104.7598,20.5741],[104.6431,20.6423],[104.6141,20.6426],[104.6007,20.6605],[104.4923,20.7021],[104.4526,20.7636],[104.3891,20.771],[104.2789,20.8915],[104.2211,20.892],[104.1939,20.9299],[104.1226,20.9432],[104.0923,20.9612],[104.0567,20.9588],[104.0106,20.9081],[103.8586,20.8696],[103.8268,20.8477],[103.7853,20.846],[103.7567,20.796],[103.7586,20.7497],[103.7072,20.7218],[103.7143,20.6717],[103.6854,20.6577],[103.6611,20.6608],[103.5779,20.7329],[103.4894,20.7525],[103.4404,20.8157],[103.4266,20.8207],[103.3583,20.7877],[103.2634,20.8264],[103.2258,20.8264]]]}},{"type":"Feature","id":"Tay Ninh","properties":{"id":"Tay Ninh","iso_code":"VN-37","name":"Tay Ninh","name_full":"Tây Ninh","name_ja":"タイニン省","center_lonlat":[106.1527,11.3978]},"geometry":{"type":"Polygon","coordinates":[[[106.4346,11.6784],[106.4714,11.6536],[106.487,11.5926],[106.4893,11.5612],[106.4643,11.5533],[106.4308,11.4933],[106.3789,11.4372],[106.3433,11.3444],[106.3523,11.2579],[106.3852,11.1898],[106.4214,11.1564],[106.4296,11.1242],[106.4117,11.0456],[106.3637,10.9821],[106.3028,11.0246],[106.2849,10.9856],[106.2024,10.9607],[106.1704,10.9706],[106.1879,10.9763],[106.1487,11.0707],[106.1135,11.0869],[106.0866,11.0563],[105.9888,11.177],[105.8999,11.2186],[105.8867,11.2679],[105.8444,11.2899],[105.8738,11.4282],[105.8578,11.5356],[105.8421,11.555],[105.8033,11.5662],[105.7934,11.6073],[105.8409,11.6582],[105.9341,11.6429],[106.0154,11.7705],[106.2236,11.725],[106.2741,11.6768],[106.3543,11.6901],[106.4128,11.6618],[106.4346,11.6784]]]}},{"type":"Feature","id":"Thai Binh","properties":{"id":"Thai Binh","iso_code":"VN-20","name":"Thai Binh","name_full":"Thái Bình","name_ja":"タイビン省","center_lonlat":[106.3823,20.5107]},"geometry":{"type":"Polygon","coordinates":[[[106.5936,20.6467],[106.6272,20.6166],[106.6248,20.5946],[106.5186,20.541],[106.5506,20.5324],[106.5799,20.5472],[106.5677,20.5249],[106.5845,20.496],[106.5799,20.4783],[106.537,20.4621],[106.5186,20.4373],[106.5617,20.4551],[106.5942,20.4482],[106.5842,20.3818],[106.5731,20.3685],[106.5664,20.3827],[106.5596,20.3759],[106.5776,20.359],[106.5926,20.2754],[106.5817,20.2642],[106.5217,20.3135],[106.4981,20.3083],[106.5029,20.3005],[106.4811,20.2842],[106.4553,20.2845],[106.3494,20.3645],[106.2676,20.3316],[106.2795,20.3926],[106.2617,20.411],[106.2196,20.4137],[106.2178,20.4686],[106.1845,20.4909],[106.1678,20.5464],[106.1367,20.5752],[106.1253,20.6251],[106.1124,20.6316],[106.1129,20.6496],[106.1387,20.6668],[106.2065,20.6672],[106.2574,20.6959],[106.4172,20.7193],[106.469,20.6007],[106.5288,20.6087],[106.5553,20.6379],[106.5936,20.6467]]]}},{"type":"Feature","id":"Thai Nguyen","properties":{"id":"Thai Nguyen","iso_code":"VN-69","name":"Thai Nguyen","name_full":"Thái Nguyên","name_ja":"タイグエン省","center_lonlat":[105.841,21.6821]},"geometry":{"type":"Polygon","coordinates":[[[105.5777,21.5438],[105.5371,21.5787],[105.5183,21.6355],[105.5344,21.8668],[105.5575,21.9509],[105.5844,21.957],[105.6451,22.0195],[105.6998,22.0331],[105.7349,22.0197],[105.7729,21.9778],[105.7871,21.8277],[105.8137,21.7793],[105.8392,21.8142],[105.9155,21.8347],[106.0015,21.8878],[106.0359,21.928],[106.114,21.9481],[106.1419,21.8053],[106.1814,21.7854],[106.2567,21.6849],[106.1675,21.5708],[106.1438,21.621],[106.0415,21.6284],[106.0719,21.5026],[106.0671,21.4614],[106.0355,21.4195],[105.9711,21.4088],[105.9208,21.3281],[105.8484,21.3636],[105.805,21.3731],[105.7721,21.3625],[105.74,21.4176],[105.5777,21.5438]]]}},{"type":"Feature","id":"Thanh Hoa","properties":{"id":"Thanh Hoa","iso_code":"VN-21","name":"Thanh Hoa","name_full":"Thanh Hóa","name_ja":"タインホア省","center_lonlat":[105.3314,20.0493]},"geometry":{"type":"Polygon","coordinates":[[[104.6141,20.6426],[104.6431,20.6423],[104.7598,20.5741],[104.8101,20.5904],[104.8429,20.6257],[104.9392,20.5909],[105.0667,20.5754],[105.1521,20.5865],[105.2131,20.5187],[105.3088,20.4563],[105.4554,20.3859],[105.5426,20.3671],[105.8195,20.1556],[105.9189,20.1189],[105.9826,20.0782],[106.06,20.0602],[106.0684,20.0278],[106.0342,19.9957],[106.0252,19.9992],[105.9556,19.9255],[105.9568,19.8756],[105.9358,19.8483],[105.9289,19.7936],[105.9153,19.8073],[105.8674,19.7732],[105.8737,19.7657],[105.9289,19.78],[105.8953,19.7213],[105.867,19.7211],[105.8259,19.6422],[105.819,19.5876],[105.8176,19.61],[105.7909,19.6035],[105.7918,19.5876],[105.8054,19.6087],[105.819,19.5739],[105.8128,19.4232],[105.7986,19.4306],[105.7849,19.4033],[105.7713,19.4033],[105.8101,19.3215],[105.8128,19.307],[105.7918,19.3207],[105.7986,19.2996],[105.8108,19.2996],[105.8062,19.2743],[105.687,19.3095],[105.5766,19.3971],[105.5344,19.4542],[105.5068,19.4703],[105.4161,19.4732],[105.3424,19.5482],[105.3174,19.5459],[105.277,19.5142],[105.2622,19.62],[105.1681,19.714],[105.1382,19.7868],[105.14,19.8275],[105.1796,19.891],[105.1518,19.9149],[104.9457,19.9924],[104.944,20.0671],[104.9644,20.0761],[104.9049,20.1346],[104.908,20.1753],[104.8192,20.221],[104.6908,20.1965],[104.6571,20.2127],[104.6574,20.2796],[104.6886,20.301],[104.6809,20.341],[104.6123,20.3767],[104.5755,20.4141],[104.4324,20.4111],[104.3598,20.4397],[104.3664,20.4585],[104.4238,20.4954],[104.445,20.5346],[104.4958,20.5119],[104.5426,20.5357],[104.6141,20.6426]]]}},{"type":"Feature","id":"Thua Thien Hue","properties":{"id":"Thua Thien Hue","iso_code":"VN-26","name":"Thua Thien Hue","name_full":"Thừa Thiên Huế","name_ja":"トゥアティエン＝フエ省","center_lonlat":[107.5034,16.3313]},"geometry":{"type":"Polygon","coordinates":[[[107.068,16.2908],[107.0689,16.3571],[107.167,16.4641],[107.119,16.516],[107.1146,16.5643],[107.1741,16.5875],[107.2879,16.6063],[107.3384,16.6467],[107.4116,16.75],[107.6353,16.5798],[107.4736,16.6531],[107.4434,16.648],[107.564,16.5827],[107.5942,16.5872],[107.6353,16.5593],[107.6146,16.5593],[107.6084,16.545],[107.6631,16.5518],[107.6489,16.5214],[107.6631,16.4972],[107.6971,16.5201],[107.8216,16.3875],[107.8412,16.3798],[107.8269,16.3737],[107.7966,16.3874],[107.7944,16.3792],[107.8071,16.3227],[107.8241,16.3048],[107.8482,16.2917],[107.8726,16.2959],[107.8822,16.2781],[107.8965,16.2781],[107.9375,16.3121],[107.9299,16.3532],[107.9452,16.3568],[108.012,16.319],[108.043,16.3464],[108.0945,16.2365],[108.052,16.2621],[108.054,16.236],[108.2001,16.2116],[108.1328,16.2016],[108.0223,16.2231],[107.9531,16.2159],[107.8859,16.1125],[107.8562,16.0876],[107.8025,16.0843],[107.7299,16.0141],[107.6879,16.0773],[107.6623,16.0914],[107.5971,16.0562],[107.4333,16.0555],[107.431,16.0737],[107.3269,16.0561],[107.299,16.0642],[107.2388,16.1298],[107.142,16.177],[107.1169,16.2546],[107.068,16.2908]]]}},{"type":"Feature","id":"Tien Giang","properties":{"id":"Tien Giang","iso_code":"VN-46","name":"Tien Giang","name_full":"Tiền Giang","name_ja":"ティエンザン省","center_lonlat":[106.285,10.4103]},"geometry":{"type":"MultiPolygon","coordinates":[[[[106.6154,10.4366],[106.6489,10.4741],[106.6702,10.4326],[106.6898,10.4331],[106.7241,10.4741],[106.7411,10.468],[106.7881,10.3931],[106.7908,10.2849],[106.7756,10.2754],[106.7041,10.289],[106.5983,10.2885],[106.4224,10.317],[106.3543,10.339],[106.2793,10.3172],[106.1072,10.2963],[106.0034,10.3211],[105.9732,10.3133],[105.9549,10.2885],[105.849,10.3014],[105.8426,10.3525],[105.9486,10.4807],[105.9627,10.5535],[106.0784,10.5439],[106.1458,10.5899],[106.271,10.5864],[106.3142,10.5654],[106.3559,10.5068],[106.4406,10.4718],[106.4522,10.4164],[106.5847,10.4144],[106.6154,10.4366]]],[[[106.7241,10.2686],[106.7555,10.2576],[106.7525,10.2361],[106.7241,10.2265],[106.69,10.2518],[106.5596,10.2754],[106.5117,10.2959],[106.5879,10.2769],[106.7241,10.2686]]]]}},{"type":"Feature","id":"Tra Vinh","properties":{"id":"Tra Vinh","iso_code":"VN-51","name":"Tra Vinh","name_full":"Trà Vinh","name_ja":"チャーヴィン省","center_lonlat":[106.3125,9.7916]},"geometry":{"type":"Polygon","coordinates":[[[106.2464,10.0775],[106.501,9.8341],[106.5379,9.7512],[106.575,9.7391],[106.5755,9.6486],[106.5632,9.6143],[106.5186,9.5629],[106.4849,9.5471],[106.4644,9.5548],[106.4395,9.5412],[106.3982,9.5421],[106.2503,9.6312],[106.0647,9.8043],[105.9966,9.8886],[106.062,9.9261],[106.1326,9.9458],[106.134,9.9937],[106.1877,10.0219],[106.2151,10.0649],[106.2464,10.0775]]]}},{"type":"Feature","id":"Tuyen Quang","properties":{"id":"Tuyen Quang","iso_code":"VN-07","name":"Tuyen Quang","name_full":"Tuyên Quang","name_ja":"トゥエンクアン省","center_lonlat":[105.2772,22.0964]},"geometry":{"type":"Polygon","coordinates":[[[105.1118,21.7039],[105.0855,21.7501],[105.1001,21.7952],[105.0934,21.8145],[104.9969,21.924],[104.9983,21.9742],[104.9826,22.0074],[104.8838,22.0894],[104.8483,22.1702],[104.9292,22.268],[104.9457,22.3447],[104.9761,22.3557],[105.032,22.3422],[105.0489,22.357],[105.0731,22.4414],[105.1353,22.5257],[105.1796,22.6453],[105.2351,22.6389],[105.3436,22.601],[105.5004,22.5809],[105.5676,22.5922],[105.607,22.5176],[105.6093,22.47],[105.4998,22.2952],[105.4886,22.1544],[105.5007,22.0775],[105.5575,21.9509],[105.5344,21.8668],[105.5183,21.6355],[105.5371,21.5787],[105.5777,21.5438],[105.4604,21.4972],[105.3931,21.4955],[105.3174,21.5141],[105.2332,21.6187],[105.1118,21.7039]]]}},{"type":"Feature","id":"Vinh Long","properties":{"id":"Vinh Long","iso_code":"VN-49","name":"Vinh Long","name_full":"Vĩnh Long","name_ja":"ヴィンロン省","center_lonlat":[105.9894,10.0999]},"geometry":{"type":"Polygon","coordinates":[[[105.9966,9.8886],[105.9329,9.9554],[105.8385,10.0048],[105.7795,10.0642],[105.6922,10.1232],[105.7087,10.1431],[105.7079,10.1745],[105.7275,10.1856],[105.819,10.1431],[105.8679,10.1407],[105.901,10.1601],[105.9146,10.214],[105.8829,10.2389],[105.849,10.3014],[105.9549,10.2885],[106.073,10.2606],[106.1182,10.2381],[106.1579,10.1954],[106.1821,10.133],[106.2464,10.0775],[106.2151,10.0649],[106.1877,10.0219],[106.134,9.9937],[106.1326,9.9458],[106.062,9.9261],[105.9966,9.8886]]]}},{"type":"Feature","id":"Vinh Phuc","properties":{"id":"Vinh Phuc","iso_code":"VN-70","name":"Vinh Phuc","name_full":"Vĩnh Phúc","name_ja":"ヴィンフック省","center_lonlat":[105.5844,21.3368]},"geometry":{"type":"Polygon","coordinates":[[[105.4294,21.2764],[105.4516,21.2914],[105.4575,21.3117],[105.3922,21.4088],[105.3437,21.4347],[105.3174,21.5141],[105.3931,21.4955],[105.4604,21.4972],[105.5777,21.5438],[105.74,21.4176],[105.7721,21.3625],[105.7664,21.2631],[105.7799,21.1791],[105.7627,21.105],[105.6702,21.1576],[105.4945,21.1737],[105.4558,21.2086],[105.4294,21.2764]]]}},{"type":"Feature","id":"Yen Bai","properties":{"id":"Yen Bai","iso_code":"VN-06","name":"Yen Bai","name_full":"Yên Bái","name_ja":"イエンバイ省","center_lonlat":[104.5833,21.7732]},"geometry":{"type":"Polygon","coordinates":[[[104.8483,22.1702],[104.8838,22.0894],[104.9826,22.0074],[104.9983,21.9742],[104.9969,21.924],[105.0934,21.8145],[105.1001,21.7952],[105.0855,21.7501],[105.1118,21.7039],[105.0722,21.6787],[104.9466,21.6403],[104.903,21.596],[104.8881,21.523],[104.9193,21.3979],[104.8951,21.3654],[104.8285,21.3296],[104.7794,21.3348],[104.7356,21.391],[104.6736,21.3826],[104.5823,21.4132],[104.4697,21.3623],[104.3571,21.4164],[104.3284,21.4442],[104.311,21.4955],[104.3177,21.5636],[104.3498,21.671],[104.3072,21.7097],[104.2704,21.6995],[104.2321,21.6697],[104.1698,21.6593],[104.0164,21.6852],[103.9253,21.7198],[103.9537,21.7797],[103.9115,21.8611],[103.9839,21.9742],[104.0518,21.9284],[104.15,21.9114],[104.197,21.8871],[104.2167,21.9093],[104.2322,21.9602],[104.3508,21.9064],[104.4107,21.9053],[104.4361,21.9341],[104.4439,21.9708],[104.3886,22.0793],[104.3848,22.1174],[104.3989,22.1348],[104.453,22.1488],[104.5419,22.0996],[104.5654,22.1],[104.6088,22.1539],[104.6454,22.1724],[104.6285,22.2579],[104.6509,22.2686],[104.6895,22.2644],[104.7702,22.1814],[104.8483,22.1702]]]}},{"type":"Feature","id":"Đak Lak","properties":{"id":"Đak Lak","iso_code":"VN-33","name":"Đak Lak","name_full":"Đắk Lắk","name_ja":"ダクラク省","center_lonlat":[108.1835,12.8125]},"geometry":{"type":"Polygon","coordinates":[[[107.5401,12.7167],[107.5359,12.7996],[107.4874,12.8706],[107.4661,12.9522],[107.4811,12.9888],[107.4604,13.0216],[107.5616,13.262],[107.6809,13.3329],[107.8019,13.3494],[107.9284,13.3453],[108.0309,13.3837],[108.1075,13.3842],[108.3874,13.2789],[108.4342,13.2018],[108.4721,13.0739],[108.5146,13.0327],[108.6608,12.9962],[108.7254,12.8956],[108.7597,12.8644],[108.8616,12.807],[109.0373,12.7527],[108.9704,12.6955],[108.9153,12.6858],[108.8982,12.6699],[108.8746,12.6095],[108.879,12.5556],[108.848,12.4754],[108.8226,12.4736],[108.7665,12.497],[108.6766,12.4788],[108.6646,12.4124],[108.6815,12.303],[108.6035,12.2714],[108.4995,12.2986],[108.4091,12.2354],[108.3226,12.2327],[108.2625,12.1975],[108.2425,12.157],[108.1483,12.1712],[108.1176,12.1519],[108.1287,12.2008],[108.1013,12.2213],[108.0766,12.2642],[108.0296,12.2983],[107.9788,12.3071],[107.9412,12.3538],[107.9353,12.425],[107.964,12.4404],[107.9778,12.4335],[108.0059,12.4868],[107.9763,12.5124],[107.9102,12.5379],[107.9116,12.5662],[107.8743,12.5922],[107.8636,12.6833],[107.8422,12.7207],[107.5401,12.7167]]]}},{"type":"Feature","id":"Đak Nong","properties":{"id":"Đak Nong","iso_code":"VN-72","name":"Đak Nong","name_full":"Đắk Nông","name_ja":"ダクノン省","center_lonlat":[107.6868,12.1942]},"geometry":{"type":"Polygon","coordinates":[[[107.5401,12.7167],[107.8422,12.7207],[107.8636,12.6833],[107.8743,12.5922],[107.9116,12.5662],[107.9102,12.5379],[107.9763,12.5124],[108.0059,12.4868],[107.9778,12.4335],[107.964,12.4404],[107.9353,12.425],[107.9412,12.3538],[107.9788,12.3071],[108.0296,12.2983],[108.0766,12.2642],[108.1013,12.2213],[108.1287,12.2008],[108.1176,12.1519],[108.0948,12.1403],[108.0538,12.1462],[108.0142,12.1211],[107.9986,12.1257],[107.9868,12.0914],[107.9855,12.0647],[108.0142,12.0461],[108.0231,12.0078],[108.0928,11.9224],[108.0795,11.8505],[108.0085,11.7736],[107.9979,11.7696],[107.9708,11.7951],[107.9149,11.7932],[107.8994,11.8515],[107.8848,11.8618],[107.7717,11.85],[107.7462,11.8697],[107.7358,11.906],[107.7183,11.9096],[107.693,11.903],[107.6758,11.8731],[107.5634,11.7869],[107.4435,11.7444],[107.3904,11.7518],[107.4002,11.7975],[107.3738,11.8505],[107.3597,11.9182],[107.2581,12.0201],[107.2278,12.3106],[107.3202,12.3292],[107.393,12.2528],[107.4159,12.2541],[107.4496,12.299],[107.5143,12.3438],[107.5567,12.4727],[107.5496,12.5092],[107.567,12.5739],[107.5401,12.7167]]]}},{"type":"Feature","id":"Đien Bien","properties":{"id":"Đien Bien","iso_code":"VN-71","name":"Đien Bien","name_full":"Điện Biên","name_ja":"ディエンビエン省","center_lonlat":[102.966,21.7872]},"geometry":{"type":"Polygon","coordinates":[[[102.3246,22.5651],[102.3792,22.5756],[102.5232,22.562],[102.6449,22.4362],[102.7014,22.4144],[102.7768,22.3604],[102.8176,22.2971],[102.8285,22.2283],[102.8455,22.2054],[102.8897,22.2125],[102.9084,22.2029],[102.9347,22.1374],[103.0403,22.1477],[103.1401,22.0856],[103.1773,22.088],[103.2644,22.048],[103.2842,22.0543],[103.2631,22.076],[103.324,22.1495],[103.3609,22.1581],[103.3832,22.15],[103.4001,22.1363],[103.4165,22.0814],[103.4522,22.0484],[103.4617,21.9903],[103.4975,21.9678],[103.5504,21.8869],[103.5693,21.674],[103.5616,21.6105],[103.4663,21.505],[103.4455,21.4525],[103.3859,21.4187],[103.3763,21.3954],[103.3934,21.3773],[103.3951,21.3424],[103.4464,21.2895],[103.4472,21.2282],[103.4186,21.1459],[103.4377,21.0728],[103.4171,21.0549],[103.3799,21.0525],[103.3184,21.0809],[103.2877,21.078],[103.2915,21.0249],[103.2486,20.9775],[103.2258,20.8264],[103.147,20.846],[103.1153,20.8684],[103.0682,20.9313],[103.0145,21.0405],[102.9992,21.0574],[102.9516,21.069],[102.9256,21.1417],[102.8891,21.1664],[102.8879,21.2269],[102.8502,21.2517],[102.8013,21.2548],[102.8292,21.2859],[102.8752,21.3053],[102.8838,21.3884],[102.918,21.4501],[102.8497,21.4254],[102.895,21.4953],[102.9741,21.5753],[102.9618,21.7015],[102.9478,21.7371],[102.8472,21.7045],[102.8351,21.7165],[102.8265,21.8213],[102.8067,21.8361],[102.7892,21.8203],[102.7867,21.7399],[102.7522,21.6809],[102.7212,21.6617],[102.6507,21.6578],[102.6319,21.7063],[102.6251,21.8286],[102.591,21.9014],[102.4781,21.9576],[102.4664,21.9954],[102.4829,22.0214],[102.4222,22.0622],[102.3894,22.1171],[102.2864,22.2],[102.2262,22.2284],[102.1544,22.3047],[102.1561,22.3281],[102.1187,22.3975],[102.1645,22.4255],[102.218,22.4107],[102.2525,22.4955],[102.3246,22.5651]]]}},{"type":"Feature","id":"Đong Nam Bo","properties":{"id":"Đong Nam Bo","iso_code":"VN-39","name":"Đong Nam Bo","name_full":"Đông Nam Bộ","name_ja":"東南部","center_lonlat":[107.2035,11.0632]},"geometry":{"type":"Polygon","coordinates":[[[106.9978,10.6249],[106.9841,10.5669],[106.9641,10.6054],[106.8925,10.6701],[106.8365,10.6608],[106.757,10.7054],[106.7511,10.7725],[106.7938,10.7526],[106.829,10.7709],[106.8812,10.7625],[106.8807,10.8137],[106.836,10.8878],[106.8323,10.9173],[106.7875,10.9807],[106.784,11.0259],[106.8273,11.0555],[106.9021,11.026],[106.9547,11.064],[106.9746,11.1224],[106.9311,11.1984],[106.9648,11.2836],[107.0571,11.368],[107.1192,11.4879],[107.3085,11.5662],[107.3825,11.5595],[107.398,11.506],[107.4588,11.4825],[107.4432,11.4412],[107.4567,11.4104],[107.5268,11.4025],[107.6095,11.3617],[107.5802,11.3417],[107.5482,11.2892],[107.4309,11.0381],[107.477,11.0014],[107.545,10.9921],[107.5884,10.9118],[107.5908,10.8509],[107.563,10.8018],[107.5166,10.7561],[107.4827,10.7984],[107.4579,10.8015],[107.3583,10.6913],[107.3267,10.6827],[107.2917,10.7077],[107.281,10.7689],[107.2545,10.7738],[107.151,10.7277],[107.1436,10.6862],[107.1167,10.6651],[107.0253,10.6353],[107.0132,10.6727],[106.9841,10.6994],[106.9797,10.6848],[107.0114,10.6553],[107.0025,10.6249],[106.9978,10.6249]]]}},{"type":"Feature","id":"Đong Thap","properties":{"id":"Đong Thap","iso_code":"VN-45","name":"Đong Thap","name_full":"Đồng Tháp","name_ja":"ドンタップ省","center_lonlat":[105.6005,10.6496]},"geometry":{"type":"Polygon","coordinates":[[[105.5236,10.9513],[105.5375,10.9197],[105.866,10.6079],[105.9627,10.5535],[105.9486,10.4807],[105.8426,10.3525],[105.849,10.3014],[105.7824,10.3308],[105.7116,10.4023],[105.6317,10.4171],[105.583,10.4465],[105.558,10.464],[105.5149,10.5298],[105.3872,10.5992],[105.3693,10.7027],[105.2938,10.7076],[105.2854,10.7385],[105.2198,10.8303],[105.2091,10.8916],[105.2533,10.8835],[105.3179,10.8388],[105.3573,10.908],[105.4105,10.963],[105.4739,10.9409],[105.5236,10.9513]]]}}]}
