{"type":"FeatureCollection","features":[{"type":"Feature","id":"'Adan","properties":{"id":"'Adan","iso_code":"YE-AD","name":"'Adan","name_full":"'Adan","name_ja":"アデン県","center_lonlat":[44.8498,12.8258]},"geometry":{"type":"Polygon","coordinates":[[[45.0932,12.9247],[45.0588,12.8271],[45.0586,12.762],[45.0178,12.7598],[44.9793,12.7823],[44.981,12.7973],[45.0352,12.8037],[45.0425,12.8209],[45.0151,12.8587],[44.9981,12.8314],[44.9446,12.834],[44.9168,12.7995],[44.8983,12.7962],[44.8848,12.8109],[44.8716,12.8035],[44.8718,12.77],[44.9209,12.7714],[44.9128,12.7482],[44.8814,12.7299],[44.8396,12.7435],[44.8226,12.7651],[44.7852,12.7723],[44.7278,12.742],[44.7192,12.7801],[44.6936,12.8035],[44.6106,12.8196],[44.5428,12.7973],[44.4147,12.6733],[44.4842,12.7776],[44.5278,12.8036],[44.6189,12.8357],[44.8259,12.8707],[45.009,12.9184],[45.0932,12.9247]]]}},{"type":"Feature","id":"'Amran","properties":{"id":"'Amran","iso_code":"YE-AM","name":"'Amran","name_full":"'Amran","name_ja":"アムラーン県","center_lonlat":[43.9823,16.1542]},"geometry":{"type":"Polygon","coordinates":[[[44.1888,16.6315],[44.3289,16.5339],[44.3349,16.5177],[44.32,16.4734],[44.3694,16.3352],[44.3618,16.2972],[44.3746,16.2599],[44.3525,16.1955],[44.3636,16.1374],[44.3689,16.1108],[44.4258,16.0283],[44.3706,16.0246],[44.2545,15.9738],[44.2361,15.9252],[44.2528,15.8014],[44.2265,15.7545],[44.1796,15.7083],[44.1672,15.6206],[44.0786,15.5605],[44.0075,15.5594],[43.9842,15.5047],[43.8626,15.5637],[43.7991,15.5328],[43.7053,15.5263],[43.7253,15.5638],[43.7132,15.6011],[43.7219,15.6382],[43.7436,15.655],[43.7935,15.655],[43.8167,15.7305],[43.7921,15.7544],[43.7852,15.893],[43.7502,15.9701],[43.7276,15.9856],[43.6799,15.9388],[43.6565,15.9476],[43.699,16.0119],[43.66,16.0892],[43.6562,16.1661],[43.6086,16.2142],[43.5955,16.4361],[43.5999,16.6085],[43.7298,16.6386],[43.8179,16.679],[43.9277,16.6615],[44.0752,16.6118],[44.1177,16.6109],[44.1888,16.6315]]]}},{"type":"Feature","id":"Abyan","properties":{"id":"Abyan","iso_code":"YE-AB","name":"Abyan","name_full":"Abyan","name_ja":"アビヤン県","center_lonlat":[46.2291,13.7196]},"geometry":{"type":"Polygon","coordinates":[[[47.3245,13.6328],[47.1668,13.5856],[46.9119,13.5333],[46.8242,13.4763],[46.6838,13.4272],[46.6047,13.4409],[46.52,13.413],[46.313,13.4136],[46.2345,13.4363],[46.1113,13.4068],[45.9406,13.3994],[45.8757,13.3795],[45.8154,13.3795],[45.6658,13.342],[45.6321,13.3249],[45.4942,13.1946],[45.4815,13.1575],[45.403,13.0701],[45.1935,13.0127],[45.1541,12.9921],[45.0995,12.9362],[45.1313,13.163],[45.1974,13.3404],[45.245,13.3737],[45.2535,13.3954],[45.2115,13.4435],[45.211,13.5122],[45.3037,13.6282],[45.2809,13.6442],[45.2306,13.6474],[45.2155,13.667],[45.2729,13.7049],[45.2793,13.7677],[45.3575,13.8039],[45.3684,13.8866],[45.405,13.8966],[45.5555,13.8784],[45.5862,13.8682],[45.6019,13.8402],[45.637,13.8228],[45.7366,13.8441],[45.986,14.0236],[46.029,14.1083],[46.0438,14.1917],[46.1351,14.1995],[46.2479,14.2536],[46.3966,14.3024],[46.4923,14.1251],[46.6083,14.1437],[46.6884,14.1771],[46.865,14.2139],[47.0684,14.1675],[47.2061,14.1608],[47.2419,14.1376],[47.2556,14.0958],[47.2585,14.0182],[47.2228,13.952],[47.275,13.8449],[47.3245,13.6328]]]}},{"type":"Feature","id":"Ad Dali'","properties":{"id":"Ad Dali'","iso_code":"YE-DA","name":"Ad Dali'","name_full":"Ad Dali'","name_ja":"ダーリウ県","center_lonlat":[44.7888,13.8797]},"geometry":{"type":"Polygon","coordinates":[[[45.1805,13.9644],[45.1187,13.8302],[45.083,13.7967],[44.9966,13.7484],[44.9136,13.716],[44.8576,13.7081],[44.8531,13.5909],[44.791,13.6026],[44.7585,13.5736],[44.6281,13.5168],[44.5733,13.563],[44.5332,13.5771],[44.5253,13.6101],[44.4943,13.6249],[44.4293,13.6273],[44.4142,13.6432],[44.4282,13.7111],[44.4069,13.761],[44.4187,13.8106],[44.4351,13.8208],[44.4504,13.8607],[44.4837,13.8728],[44.5097,13.9455],[44.5603,13.9724],[44.6225,13.981],[44.6319,13.9991],[44.6075,14.0371],[44.615,14.0584],[44.6425,14.1092],[44.6915,14.1191],[44.718,14.1617],[44.9066,14.2217],[45.0075,14.2052],[45.0748,14.1137],[45.1741,14.0148],[45.1805,13.9644]]]}},{"type":"Feature","id":"Al Bayda'","properties":{"id":"Al Bayda'","iso_code":"YE-BA","name":"Al Bayda'","name_full":"Al Bayda'","name_ja":"バイダー県","center_lonlat":[45.3684,14.3023]},"geometry":{"type":"Polygon","coordinates":[[[45.0059,14.8143],[45.0588,14.8043],[45.1066,14.7681],[45.1428,14.5496],[45.1639,14.5094],[45.1831,14.4984],[45.215,14.4977],[45.2821,14.5444],[45.3237,14.5354],[45.3345,14.5664],[45.4151,14.5938],[45.5149,14.5917],[45.4984,14.6546],[45.5071,14.6657],[45.5397,14.641],[45.5538,14.6478],[45.5686,14.6893],[45.6809,14.689],[45.7218,14.6632],[45.6958,14.5796],[45.7807,14.5365],[45.8592,14.3553],[46.0016,14.2937],[46.0221,14.212],[46.0438,14.1917],[46.029,14.1083],[45.986,14.0236],[45.7366,13.8441],[45.637,13.8228],[45.6019,13.8402],[45.5862,13.8682],[45.5555,13.8784],[45.405,13.8966],[45.4117,13.9727],[45.3991,14.0232],[45.3836,14.0318],[45.3609,14.0287],[45.2554,13.9606],[45.1805,13.9644],[45.1741,14.0148],[45.0748,14.1137],[45.0075,14.2052],[44.9066,14.2217],[44.718,14.1617],[44.6717,14.1856],[44.6635,14.2566],[44.6304,14.2766],[44.6538,14.3302],[44.724,14.3797],[44.7491,14.4276],[44.7925,14.6668],[44.8687,14.7562],[44.9637,14.7797],[45.0059,14.8143]]]}},{"type":"Feature","id":"Al Hudaydah","properties":{"id":"Al Hudaydah","iso_code":"YE-HU","name":"Al Hudaydah","name_full":"Al Hudaydah","name_ja":"フダイダ県","center_lonlat":[43.2146,14.8473]},"geometry":{"type":"MultiPolygon","coordinates":[[[[43.2843,13.6649],[43.2809,13.7221],[43.2435,13.7943],[43.2332,13.8764],[43.1617,13.954],[43.0955,14.084],[43.0758,14.1948],[42.9873,14.4892],[42.9593,14.5135],[42.966,14.5303],[42.9837,14.5203],[43.0061,14.4548],[43.0215,14.4421],[43.014,14.4968],[43.0287,14.538],[42.9873,14.6339],[42.9998,14.6633],[42.9617,14.7086],[42.9422,14.7889],[42.8945,14.8475],[42.8836,14.8837],[42.8833,14.9155],[42.8958,14.906],[42.8911,14.8803],[42.9104,14.8414],[42.9456,14.8114],[42.9523,14.8795],[42.9373,14.9485],[42.8801,15.0248],[42.8775,15.1199],[42.7334,15.2093],[42.6914,15.2143],[42.6714,15.1854],[42.6377,15.1909],[42.618,15.2075],[42.6101,15.2436],[42.6546,15.2372],[42.6826,15.2465],[42.6919,15.2707],[42.6782,15.3083],[42.7124,15.3663],[42.7151,15.337],[42.6994,15.3117],[42.7743,15.2604],[42.7786,15.2216],[42.7949,15.2093],[42.7881,15.2297],[42.8091,15.2678],[42.8069,15.3443],[42.7772,15.4219],[42.7743,15.491],[42.7192,15.57],[42.7334,15.5922],[42.7083,15.6278],[42.7136,15.6947],[42.6919,15.7021],[42.7417,15.7532],[42.7525,15.8164],[42.82,15.8749],[42.8346,15.9141],[42.9972,15.8202],[43.1072,15.8262],[43.1826,15.8559],[43.2853,15.8636],[43.3114,15.8445],[43.3217,15.7853],[43.3005,15.7293],[43.312,15.6783],[43.2993,15.5969],[43.3139,15.5097],[43.3322,15.3056],[43.359,15.2658],[43.4062,15.2289],[43.4483,15.2174],[43.515,15.0873],[43.571,15.0442],[43.6351,14.9982],[43.7003,14.9946],[43.7246,14.9731],[43.702,14.9334],[43.673,14.9217],[43.6315,14.934],[43.5569,14.8484],[43.541,14.8044],[43.5538,14.7305],[43.5376,14.7002],[43.5345,14.6336],[43.5971,14.4344],[43.5583,14.3743],[43.5388,14.3734],[43.5316,14.3598],[43.5794,14.1556],[43.7257,14.076],[43.7976,14.114],[43.799,14.0417],[43.7605,13.9813],[43.7446,13.9715],[43.72,13.9843],[43.7018,13.9761],[43.7222,13.9176],[43.6843,13.912],[43.541,13.8755],[43.4444,13.7468],[43.3581,13.7218],[43.2843,13.6649]]],[[[42.7603,14.0647],[42.7676,14.0715],[42.8018,14.0231],[42.7817,13.92],[42.7541,13.9207],[42.7676,13.9486],[42.7215,13.9694],[42.6919,14.0132],[42.721,14.046],[42.7603,14.0647]]],[[[42.636,15.4455],[42.5816,15.3916],[42.6282,15.3987],[42.6141,15.3081],[42.5822,15.2682],[42.5684,15.2689],[42.5457,15.2944],[42.5589,15.393],[42.6019,15.4463],[42.6239,15.4573],[42.636,15.4455]]],[[[42.7192,13.7426],[42.7826,13.7799],[42.7949,13.7699],[42.7541,13.6979],[42.6885,13.6638],[42.6935,13.6992],[42.7192,13.7426]]]]}},{"type":"Feature","id":"Al Jawf","properties":{"id":"Al Jawf","iso_code":"YE-JA","name":"Al Jawf","name_full":"Al Jawf","name_ja":"ジャウフ県","center_lonlat":[45.6485,16.6052]},"geometry":{"type":"Polygon","coordinates":[[[44.9725,17.4297],[45.1654,17.4284],[45.2221,17.4174],[45.4304,17.312],[46.3226,17.2241],[46.7101,17.2754],[46.7472,17.2548],[46.9703,16.9568],[46.997,16.9485],[47.0387,16.3454],[46.8327,16.1497],[45.9945,16.0],[45.6928,15.8977],[45.5642,15.7904],[45.4496,15.7801],[45.239,15.813],[44.9978,15.9355],[44.661,16.0114],[44.5948,16.0508],[44.5095,16.057],[44.4258,16.0283],[44.3689,16.1108],[44.3636,16.1374],[44.3525,16.1955],[44.3746,16.2599],[44.3618,16.2972],[44.3694,16.3352],[44.32,16.4734],[44.3349,16.5177],[44.3289,16.5339],[44.1888,16.6315],[44.2154,16.7165],[44.2485,16.7703],[44.4014,16.8643],[44.4909,16.9792],[44.6782,17.0618],[44.7449,17.0761],[44.8676,17.0715],[44.9502,17.1114],[44.9725,17.4297]]]}},{"type":"Feature","id":"Al Mahrah","properties":{"id":"Al Mahrah","iso_code":"YE-MR","name":"Al Mahrah","name_full":"Al Mahrah","name_ja":"マフラ県","center_lonlat":[51.5998,16.6962]},"geometry":{"type":"Polygon","coordinates":[[[51.9857,18.9797],[52.7301,17.2999],[52.7215,17.2982],[52.791,17.2812],[52.8016,17.2674],[53.0903,16.6424],[53.0218,16.6195],[52.9849,16.6282],[52.8511,16.5561],[52.5326,16.4473],[52.2927,16.2638],[52.2214,16.1609],[52.2244,16.1136],[52.1555,15.9839],[52.1865,15.9191],[52.1755,15.8779],[52.2244,15.8467],[52.2214,15.717],[52.2449,15.6577],[52.2284,15.6161],[52.0471,15.57],[52.0257,15.5512],[51.9131,15.5153],[51.8742,15.4915],[51.8654,15.4501],[51.8293,15.4687],[51.7588,15.4456],[51.6672,15.3914],[51.6764,15.3403],[51.5305,15.3168],[51.4743,15.2707],[51.3678,15.2297],[51.3425,15.2377],[51.2688,15.2018],[50.805,15.0974],[50.7468,15.2363],[50.7058,15.2718],[50.5845,15.2974],[50.3414,15.2735],[50.2791,15.294],[50.2571,15.3277],[50.2594,15.3638],[50.3319,15.4591],[50.3364,15.4996],[50.3208,15.529],[50.2188,15.5525],[50.1924,15.6093],[50.2175,15.6953],[50.2114,15.7647],[50.2299,15.8534],[50.2636,15.8995],[50.3019,16.0017],[50.2847,16.063],[50.2333,16.1083],[50.3132,16.4347],[50.2925,16.5148],[50.3097,16.554],[50.3545,16.599],[50.5722,16.6946],[50.6534,16.7467],[50.7301,16.8347],[51.1324,17.1528],[51.2624,17.3381],[51.3849,17.6003],[51.4792,17.8844],[51.541,18.1839],[51.7123,18.5962],[51.9857,18.9797]]]}},{"type":"Feature","id":"Al Mahwit","properties":{"id":"Al Mahwit","iso_code":"YE-MW","name":"Al Mahwit","name_full":"Al Mahwit","name_ja":"マフウィート県","center_lonlat":[43.6115,15.3724]},"geometry":{"type":"Polygon","coordinates":[[[43.571,15.0442],[43.515,15.0873],[43.4483,15.2174],[43.4062,15.2289],[43.359,15.2658],[43.3322,15.3056],[43.3139,15.5097],[43.3701,15.5289],[43.5453,15.5456],[43.7053,15.5263],[43.7991,15.5328],[43.8626,15.5637],[43.9842,15.5047],[43.9658,15.4177],[43.9489,15.4002],[43.7797,15.2782],[43.7132,15.2652],[43.6401,15.217],[43.6151,15.1695],[43.6187,15.1199],[43.571,15.0442]]]}},{"type":"Feature","id":"Dhamar","properties":{"id":"Dhamar","iso_code":"YE-DH","name":"Dhamar","name_full":"Dhamar","name_ja":"ザマール県","center_lonlat":[44.262,14.6001]},"geometry":{"type":"Polygon","coordinates":[[[43.5583,14.3743],[43.5986,14.3773],[43.7208,14.4582],[43.7876,14.4497],[43.8303,14.458],[43.9076,14.506],[43.9726,14.5742],[43.9814,14.5987],[43.9723,14.6172],[43.9251,14.6953],[43.8365,14.7976],[43.824,14.8504],[43.8379,14.8633],[43.9467,14.8687],[44.0975,14.9738],[44.1327,14.9855],[44.1919,14.9933],[44.2808,14.931],[44.3565,14.9153],[44.3866,14.9243],[44.4147,14.977],[44.4388,14.974],[44.4828,14.9358],[44.5092,14.9329],[44.5713,14.959],[44.635,15.0262],[44.7073,15.0291],[44.7551,15.012],[44.7845,14.9715],[44.7987,14.9039],[44.8676,14.7905],[44.8687,14.7562],[44.7925,14.6668],[44.7491,14.4276],[44.724,14.3797],[44.6538,14.3302],[44.6304,14.2766],[44.6102,14.2682],[44.3534,14.3738],[44.253,14.4436],[44.2407,14.441],[44.2089,14.3767],[44.1635,14.3594],[44.1377,14.3649],[44.1161,14.4307],[44.1015,14.4337],[44.0094,14.351],[43.9857,14.3517],[43.9625,14.3353],[43.9729,14.2566],[43.9459,14.2085],[43.896,14.1908],[43.8797,14.1979],[43.8794,14.237],[43.8657,14.2455],[43.7976,14.114],[43.7257,14.076],[43.5794,14.1556],[43.5316,14.3598],[43.5388,14.3734],[43.5583,14.3743]]]}},{"type":"Feature","id":"Hadhramaut","properties":{"id":"Hadhramaut","iso_code":"YE-HD","name":"Hadhramaut","name_full":"Hadhramaut","name_ja":"ハドラマウト県","center_lonlat":[49.1899,16.7059]},"geometry":{"type":"MultiPolygon","coordinates":[[[[51.9857,18.9797],[51.7123,18.5962],[51.541,18.1839],[51.4792,17.8844],[51.3849,17.6003],[51.2624,17.3381],[51.1324,17.1528],[50.7301,16.8347],[50.6534,16.7467],[50.5722,16.6946],[50.3545,16.599],[50.3097,16.554],[50.2925,16.5148],[50.3132,16.4347],[50.2333,16.1083],[50.2847,16.063],[50.3019,16.0017],[50.2636,15.8995],[50.2299,15.8534],[50.2114,15.7647],[50.2175,15.6953],[50.1924,15.6093],[50.2188,15.5525],[50.3208,15.529],[50.3364,15.4996],[50.3319,15.4591],[50.2594,15.3638],[50.2571,15.3277],[50.2791,15.294],[50.3414,15.2735],[50.5845,15.2974],[50.7058,15.2718],[50.7468,15.2363],[50.805,15.0974],[50.6615,15.0585],[50.554,15.0486],[50.4595,15.0104],[50.3582,14.9333],[50.3023,14.9175],[50.1795,14.8433],[50.1463,14.8498],[50.0418,14.8183],[50.0298,14.8503],[49.9421,14.8388],[49.5781,14.7373],[49.4605,14.6736],[49.3724,14.6498],[49.2289,14.5753],[49.1902,14.5486],[49.1819,14.5166],[49.1135,14.5302],[49.078,14.5061],[49.0281,14.4363],[49.0003,14.3596],[49.0037,14.3248],[48.9417,14.2944],[48.9358,14.2705],[48.887,14.2503],[48.8801,14.2121],[48.8526,14.167],[48.7976,14.1404],[48.7383,14.0682],[48.6815,14.0436],[48.6725,14.0439],[48.6172,14.1868],[48.5804,14.2331],[48.4888,14.2747],[48.4038,14.2958],[48.2603,14.3003],[48.1869,14.3353],[48.1375,14.3837],[48.0493,14.5352],[47.9989,14.5576],[47.8218,14.5743],[47.7445,14.6008],[47.486,14.7939],[47.4784,14.8189],[47.5018,14.8468],[47.6643,14.9812],[47.6793,15.0102],[47.679,15.0396],[47.6126,15.1188],[47.6151,15.1714],[47.6776,15.3645],[47.8517,15.6127],[47.8398,15.645],[47.7492,15.6752],[46.3397,15.5707],[46.8327,16.1497],[47.0387,16.3454],[46.997,16.9485],[47.1613,16.9474],[47.4276,17.0918],[47.458,17.1309],[47.589,17.4633],[48.1619,18.1489],[49.0358,18.5797],[49.1288,18.6121],[51.9786,18.9956],[51.9857,18.9797]]],[[[54.4707,12.5436],[54.5161,12.5584],[54.5403,12.5502],[54.4574,12.5192],[54.4447,12.4847],[54.4023,12.4672],[54.2459,12.4335],[54.2188,12.3994],[54.1405,12.3513],[54.0475,12.353],[54.0082,12.3299],[53.97,12.3419],[53.7312,12.3004],[53.5721,12.3346],[53.5056,12.4163],[53.3342,12.5155],[53.3069,12.5434],[53.363,12.5449],[53.3894,12.5608],[53.4032,12.598],[53.396,12.6565],[53.4701,12.6714],[53.4999,12.7121],[53.5189,12.7144],[53.6062,12.7],[53.6548,12.7048],[53.7629,12.6197],[53.8461,12.5986],[53.876,12.6473],[54.0081,12.6457],[54.093,12.6989],[54.1194,12.7011],[54.1679,12.665],[54.1955,12.6754],[54.2188,12.6527],[54.26,12.6475],[54.2693,12.6321],[54.3601,12.6027],[54.4707,12.5436]]],[[[52.2892,12.2008],[52.3194,12.1883],[52.3896,12.1973],[52.3947,12.1873],[52.3711,12.1716],[52.3885,12.1489],[52.2402,12.1569],[52.2244,12.1803],[52.1799,12.1728],[52.1624,12.1974],[52.1123,12.1986],[52.0685,12.222],[52.0641,12.2355],[52.1184,12.2415],[52.2004,12.2064],[52.2892,12.2008]]],[[[53.0531,12.1749],[53.0829,12.1648],[53.0864,12.1343],[53.0566,12.1283],[52.9853,12.1627],[53.004,12.1769],[53.0531,12.1749]]],[[[53.2483,12.1213],[53.2869,12.1273],[53.3103,12.1114],[53.2483,12.1213]]]]}},{"type":"Feature","id":"Hajjah","properties":{"id":"Hajjah","iso_code":"YE-HJ","name":"Hajjah","name_full":"Hajjah","name_ja":"ハッジャ県","center_lonlat":[43.3108,16.1116]},"geometry":{"type":"Polygon","coordinates":[[[43.1857,16.6848],[43.3923,16.6164],[43.5999,16.6085],[43.5955,16.4361],[43.6086,16.2142],[43.6562,16.1661],[43.66,16.0892],[43.699,16.0119],[43.6565,15.9476],[43.6799,15.9388],[43.7276,15.9856],[43.7502,15.9701],[43.7852,15.893],[43.7921,15.7544],[43.8167,15.7305],[43.7935,15.655],[43.7436,15.655],[43.7219,15.6382],[43.7132,15.6011],[43.7253,15.5638],[43.7053,15.5263],[43.5453,15.5456],[43.3701,15.5289],[43.3139,15.5097],[43.2993,15.5969],[43.312,15.6783],[43.3005,15.7293],[43.3217,15.7853],[43.3114,15.8445],[43.2853,15.8636],[43.1826,15.8559],[43.1072,15.8262],[42.9972,15.8202],[42.8346,15.9141],[42.8401,16.0978],[42.803,16.3474],[42.7895,16.371],[42.8982,16.4189],[42.9068,16.4794],[42.9709,16.4958],[43.0363,16.5363],[43.0746,16.6188],[43.0849,16.6726],[43.1629,16.6615],[43.18,16.6646],[43.1857,16.6848]]]}},{"type":"Feature","id":"Ibb","properties":{"id":"Ibb","iso_code":"YE-IB","name":"Ibb","name_full":"Ibb","name_ja":"イッブ県","center_lonlat":[44.2101,14.0696]},"geometry":{"type":"Polygon","coordinates":[[[43.7976,14.114],[43.8657,14.2455],[43.8794,14.237],[43.8797,14.1979],[43.896,14.1908],[43.9459,14.2085],[43.9729,14.2566],[43.9625,14.3353],[43.9857,14.3517],[44.0094,14.351],[44.1015,14.4337],[44.1161,14.4307],[44.1377,14.3649],[44.1635,14.3594],[44.2089,14.3767],[44.2407,14.441],[44.253,14.4436],[44.3534,14.3738],[44.6102,14.2682],[44.6304,14.2766],[44.6635,14.2566],[44.6717,14.1856],[44.718,14.1617],[44.6915,14.1191],[44.6425,14.1092],[44.615,14.0584],[44.6075,14.0371],[44.6319,13.9991],[44.6225,13.981],[44.5603,13.9724],[44.5097,13.9455],[44.4837,13.8728],[44.4504,13.8607],[44.4351,13.8208],[44.4187,13.8106],[44.4069,13.761],[44.3453,13.7054],[44.3213,13.703],[44.1306,13.7643],[43.9634,13.8018],[43.961,13.8468],[43.9461,13.8532],[43.9008,13.8351],[43.8865,13.8777],[43.8193,13.8626],[43.7118,13.8612],[43.6843,13.912],[43.7222,13.9176],[43.7018,13.9761],[43.72,13.9843],[43.7446,13.9715],[43.7605,13.9813],[43.799,14.0417],[43.7976,14.114]]]}},{"type":"Feature","id":"Lahij","properties":{"id":"Lahij","iso_code":"YE-LA","name":"Lahij","name_full":"Lahij","name_ja":"ラヒジュ県","center_lonlat":[44.5723,13.1706]},"geometry":{"type":"Polygon","coordinates":[[[44.4147,12.6733],[44.407,12.6852],[44.2896,12.639],[44.2285,12.6387],[44.1912,12.6191],[44.1494,12.625],[44.138,12.639],[44.19,12.6321],[44.1984,12.6391],[44.1912,12.6605],[44.1535,12.656],[44.0623,12.6117],[44.0171,12.6037],[43.9917,12.6121],[43.9463,12.598],[43.8948,12.6527],[43.6096,12.7543],[43.5877,12.7514],[43.5307,12.6955],[43.6435,12.8826],[43.735,12.9903],[43.7259,13.0568],[43.8621,13.1158],[44.0207,13.0473],[44.0218,13.1122],[44.0292,13.1186],[44.0922,13.0922],[44.1174,13.1427],[44.1638,13.1569],[44.1624,13.1875],[44.1965,13.2274],[44.2817,13.2214],[44.3337,13.2338],[44.3568,13.2513],[44.361,13.2741],[44.3546,13.368],[44.4417,13.3758],[44.4516,13.3868],[44.4375,13.4175],[44.3773,13.4358],[44.3767,13.4673],[44.4388,13.4885],[44.449,13.5157],[44.4921,13.5264],[44.5332,13.5771],[44.5733,13.563],[44.6281,13.5168],[44.7585,13.5736],[44.791,13.6026],[44.8531,13.5909],[44.8576,13.7081],[44.9136,13.716],[44.9966,13.7484],[45.083,13.7967],[45.1187,13.8302],[45.1805,13.9644],[45.2554,13.9606],[45.3609,14.0287],[45.3836,14.0318],[45.3991,14.0232],[45.4117,13.9727],[45.405,13.8966],[45.3684,13.8866],[45.3575,13.8039],[45.2793,13.7677],[45.2729,13.7049],[45.2155,13.667],[45.2306,13.6474],[45.2809,13.6442],[45.3037,13.6282],[45.211,13.5122],[45.2115,13.4435],[45.2535,13.3954],[45.245,13.3737],[45.1974,13.3404],[45.1313,13.163],[45.0995,12.9362],[45.0932,12.9247],[45.009,12.9184],[44.8259,12.8707],[44.6189,12.8357],[44.5278,12.8036],[44.4842,12.7776],[44.4147,12.6733]]]}},{"type":"Feature","id":"Ma'rib","properties":{"id":"Ma'rib","iso_code":"YE-MA","name":"Ma'rib","name_full":"Ma'rib","name_ja":"マアリブ県","center_lonlat":[45.5701,15.4763]},"geometry":{"type":"Polygon","coordinates":[[[46.8327,16.1497],[46.3397,15.5707],[45.7532,15.1734],[45.6143,15.0602],[45.5621,14.9538],[45.5501,14.8837],[45.5372,14.8754],[45.5254,14.7434],[45.5346,14.7156],[45.5686,14.6893],[45.5538,14.6478],[45.5397,14.641],[45.5071,14.6657],[45.4984,14.6546],[45.5149,14.5917],[45.4151,14.5938],[45.3345,14.5664],[45.3237,14.5354],[45.2821,14.5444],[45.215,14.4977],[45.1831,14.4984],[45.1639,14.5094],[45.1428,14.5496],[45.1066,14.7681],[45.0588,14.8043],[45.0059,14.8143],[45.0121,14.909],[45.0013,14.9305],[45.0725,15.0505],[45.1392,15.0841],[45.1536,15.1079],[45.1643,15.204],[45.1347,15.2576],[45.0239,15.2832],[44.921,15.3741],[44.8876,15.3831],[44.843,15.3297],[44.8091,15.3193],[44.7761,15.3316],[44.7081,15.399],[44.647,15.4147],[44.6425,15.4307],[44.7818,15.5292],[44.8282,15.5956],[44.7421,15.7084],[44.71,15.9162],[44.661,16.0114],[44.9978,15.9355],[45.239,15.813],[45.4496,15.7801],[45.5642,15.7904],[45.6928,15.8977],[45.9945,16.0],[46.8327,16.1497]]]}},{"type":"Feature","id":"Raymah","properties":{"id":"Raymah","iso_code":"YE-RA","name":"Raymah","name_full":"Raymah","name_ja":"ライマ県","center_lonlat":[43.7243,14.657]},"geometry":{"type":"Polygon","coordinates":[[[43.702,14.9334],[43.7257,14.88],[43.7778,14.8727],[43.824,14.8504],[43.8365,14.7976],[43.9251,14.6953],[43.9723,14.6172],[43.9814,14.5987],[43.9726,14.5742],[43.9076,14.506],[43.8303,14.458],[43.7876,14.4497],[43.7208,14.4582],[43.5986,14.3773],[43.5583,14.3743],[43.5971,14.4344],[43.5345,14.6336],[43.5376,14.7002],[43.5538,14.7305],[43.541,14.8044],[43.5569,14.8484],[43.6315,14.934],[43.673,14.9217],[43.702,14.9334]]]}},{"type":"Feature","id":"Sa'dah","properties":{"id":"Sa'dah","iso_code":"YE-SD","name":"Sa'dah","name_full":"Sa'dah","name_ja":"サアダ","center_lonlat":[43.9241,17.0704]},"geometry":{"type":"Polygon","coordinates":[[[44.9725,17.4297],[44.9502,17.1114],[44.8676,17.0715],[44.7449,17.0761],[44.6782,17.0618],[44.4909,16.9792],[44.4014,16.8643],[44.2485,16.7703],[44.2154,16.7165],[44.1888,16.6315],[44.1177,16.6109],[44.0752,16.6118],[43.9277,16.6615],[43.8179,16.679],[43.7298,16.6386],[43.5999,16.6085],[43.3923,16.6164],[43.1857,16.6848],[43.1685,16.7372],[43.2086,16.7734],[43.2115,16.7969],[43.1458,16.8345],[43.1126,16.91],[43.1359,17.0096],[43.1184,17.0862],[43.1453,17.1466],[43.1562,17.2097],[43.2486,17.2519],[43.2522,17.272],[43.2222,17.3078],[43.165,17.3259],[43.2159,17.3872],[43.391,17.512],[43.435,17.5229],[43.5034,17.5135],[43.6195,17.4588],[43.7306,17.3524],[43.8867,17.3537],[43.894,17.3122],[43.9151,17.3018],[43.9387,17.3052],[44.0039,17.3678],[44.0853,17.3434],[44.149,17.4048],[44.2115,17.3906],[44.4041,17.4187],[44.562,17.4045],[44.6465,17.4318],[44.9725,17.4297]]]}},{"type":"Feature","id":"Sanaa","properties":{"id":"Sanaa","iso_code":"YE-SN","name":"Sanaa","name_full":"Sanaa","name_ja":"サヌア","center_lonlat":[44.3996,15.3345]},"geometry":{"type":"Polygon","coordinates":[[[44.661,16.0114],[44.71,15.9162],[44.7421,15.7084],[44.8282,15.5956],[44.7818,15.5292],[44.6425,15.4307],[44.647,15.4147],[44.7081,15.399],[44.7761,15.3316],[44.8091,15.3193],[44.843,15.3297],[44.8876,15.3831],[44.921,15.3741],[45.0239,15.2832],[45.1347,15.2576],[45.1643,15.204],[45.1536,15.1079],[45.1392,15.0841],[45.0725,15.0505],[45.0013,14.9305],[45.0121,14.909],[45.0059,14.8143],[44.9637,14.7797],[44.8687,14.7562],[44.8676,14.7905],[44.7987,14.9039],[44.7845,14.9715],[44.7551,15.012],[44.7073,15.0291],[44.635,15.0262],[44.5713,14.959],[44.5092,14.9329],[44.4828,14.9358],[44.4388,14.974],[44.4147,14.977],[44.3866,14.9243],[44.3565,14.9153],[44.2808,14.931],[44.1919,14.9933],[44.1327,14.9855],[44.0975,14.9738],[43.9467,14.8687],[43.8379,14.8633],[43.824,14.8504],[43.7778,14.8727],[43.7257,14.88],[43.702,14.9334],[43.7246,14.9731],[43.7003,14.9946],[43.6351,14.9982],[43.571,15.0442],[43.6187,15.1199],[43.6151,15.1695],[43.6401,15.217],[43.7132,15.2652],[43.7797,15.2782],[43.9489,15.4002],[43.9658,15.4177],[43.9842,15.5047],[44.0075,15.5594],[44.0786,15.5605],[44.1672,15.6206],[44.1796,15.7083],[44.2265,15.7545],[44.2528,15.8014],[44.2361,15.9252],[44.2545,15.9738],[44.3706,16.0246],[44.4258,16.0283],[44.5095,16.057],[44.5948,16.0508],[44.661,16.0114]],[[44.3684,15.5334],[44.3994,15.5492],[44.3908,15.5665],[44.3526,15.5989],[44.3065,15.6112],[44.2574,15.5708],[44.2099,15.5521],[44.2034,15.5096],[44.1796,15.4851],[44.122,15.4649],[44.1256,15.4454],[44.1652,15.4123],[44.1385,15.369],[44.1421,15.3518],[44.1767,15.3287],[44.1811,15.2934],[44.2366,15.2948],[44.2394,15.3143],[44.2582,15.3208],[44.2618,15.3482],[44.2438,15.3647],[44.2329,15.4289],[44.2783,15.4707],[44.2827,15.5125],[44.3331,15.5197],[44.3533,15.5564],[44.3648,15.5535],[44.3684,15.5334]]]}},{"type":"Feature","id":"Sanaa (YE-SA)","properties":{"id":"Sanaa (YE-SA)","iso_code":"YE-SA","name":"Sanaa (YE-SA)","name_full":"Sanaa","name_ja":"サヌア","center_lonlat":[44.2375,15.4618]},"geometry":{"type":"Polygon","coordinates":[[[44.3194,15.6119],[44.3526,15.5989],[44.3994,15.5492],[44.3684,15.5334],[44.3648,15.5535],[44.3533,15.5564],[44.3331,15.5197],[44.2827,15.5125],[44.2783,15.4707],[44.2329,15.4289],[44.2438,15.3647],[44.2618,15.3482],[44.2582,15.3208],[44.2394,15.3143],[44.2366,15.2948],[44.1811,15.2934],[44.1767,15.3287],[44.1421,15.3518],[44.1385,15.369],[44.1652,15.4123],[44.1256,15.4454],[44.122,15.4649],[44.1796,15.4851],[44.2034,15.5096],[44.2099,15.5521],[44.2574,15.5708],[44.2827,15.6011],[44.3194,15.6119]]]}},{"type":"Feature","id":"Shabwah","properties":{"id":"Shabwah","iso_code":"YE-SH","name":"Shabwah","name_full":"Shabwah","name_ja":"シャブワ県","center_lonlat":[46.9474,14.7558]},"geometry":{"type":"Polygon","coordinates":[[[48.6815,14.0436],[48.5648,14.046],[48.4688,13.989],[48.4504,14.0106],[48.3382,14.0163],[48.3457,14.0026],[48.1887,13.9691],[48.1936,13.9934],[48.1404,14.0306],[48.1336,14.0231],[48.0169,14.0573],[47.9312,14.0306],[47.8665,13.9617],[47.821,13.9385],[47.6672,13.8872],[47.436,13.678],[47.3245,13.6328],[47.275,13.8449],[47.2228,13.952],[47.2585,14.0182],[47.2556,14.0958],[47.2419,14.1376],[47.2061,14.1608],[47.0684,14.1675],[46.865,14.2139],[46.6884,14.1771],[46.6083,14.1437],[46.4923,14.1251],[46.3966,14.3024],[46.2479,14.2536],[46.1351,14.1995],[46.0438,14.1917],[46.0221,14.212],[46.0016,14.2937],[45.8592,14.3553],[45.7807,14.5365],[45.6958,14.5796],[45.7218,14.6632],[45.6809,14.689],[45.5686,14.6893],[45.5346,14.7156],[45.5254,14.7434],[45.5372,14.8754],[45.5501,14.8837],[45.5621,14.9538],[45.6143,15.0602],[45.7532,15.1734],[46.3397,15.5707],[47.7492,15.6752],[47.8398,15.645],[47.8517,15.6127],[47.6776,15.3645],[47.6151,15.1714],[47.6126,15.1188],[47.679,15.0396],[47.6793,15.0102],[47.6643,14.9812],[47.5018,14.8468],[47.4784,14.8189],[47.486,14.7939],[47.7445,14.6008],[47.8218,14.5743],[47.9989,14.5576],[48.0493,14.5352],[48.1375,14.3837],[48.1869,14.3353],[48.2603,14.3003],[48.4038,14.2958],[48.4888,14.2747],[48.5804,14.2331],[48.6172,14.1868],[48.6725,14.0439],[48.6815,14.0436]]]}},{"type":"Feature","id":"Ta'izz","properties":{"id":"Ta'izz","iso_code":"YE-TA","name":"Ta'izz","name_full":"Ta'izz","name_ja":"タイズ県","center_lonlat":[43.7881,13.4102]},"geometry":{"type":"MultiPolygon","coordinates":[[[[43.5307,12.6955],[43.4907,12.6806],[43.4622,12.6933],[43.4812,12.7734],[43.4732,12.8466],[43.4014,12.9434],[43.3864,13.0073],[43.3418,13.0626],[43.3088,13.1393],[43.2489,13.2127],[43.2263,13.2839],[43.2483,13.3489],[43.2542,13.5266],[43.2952,13.5856],[43.282,13.6171],[43.2843,13.6649],[43.3581,13.7218],[43.4444,13.7468],[43.541,13.8755],[43.6843,13.912],[43.7118,13.8612],[43.8193,13.8626],[43.8865,13.8777],[43.9008,13.8351],[43.9461,13.8532],[43.961,13.8468],[43.9634,13.8018],[44.1306,13.7643],[44.3213,13.703],[44.3453,13.7054],[44.4069,13.761],[44.4282,13.7111],[44.4142,13.6432],[44.4293,13.6273],[44.4943,13.6249],[44.5253,13.6101],[44.5332,13.5771],[44.4921,13.5264],[44.449,13.5157],[44.4388,13.4885],[44.3767,13.4673],[44.3773,13.4358],[44.4375,13.4175],[44.4516,13.3868],[44.4417,13.3758],[44.3546,13.368],[44.361,13.2741],[44.3568,13.2513],[44.3337,13.2338],[44.2817,13.2214],[44.1965,13.2274],[44.1624,13.1875],[44.1638,13.1569],[44.1174,13.1427],[44.0922,13.0922],[44.0292,13.1186],[44.0218,13.1122],[44.0207,13.0473],[43.8621,13.1158],[43.7259,13.0568],[43.735,12.9903],[43.6435,12.8826],[43.5307,12.6955]]],[[[43.429,12.6738],[43.449,12.653],[43.4358,12.6321],[43.3928,12.6531],[43.3901,12.6663],[43.429,12.6738]]]]}}]}
