{"type":"FeatureCollection","features":[{"type":"Feature","id":"Central","properties":{"id":"Central","iso_code":"ZM-02","name":"Central","name_full":"Central","name_ja":"中央州","center_lonlat":[28.6041,-14.1857]},"geometry":{"type":"Polygon","coordinates":[[[29.7996,-12.159],[29.8389,-12.1338],[29.8627,-12.0445],[29.9475,-12.0081],[29.9973,-12.0005],[30.0298,-12.0343],[30.0785,-12.1398],[30.1421,-12.1746],[30.1618,-12.2023],[30.3614,-12.2722],[30.4129,-12.2734],[30.4486,-12.3085],[30.5001,-12.3094],[30.5131,-12.3409],[30.4973,-12.4507],[30.5699,-12.509],[30.5645,-12.574],[30.6348,-12.6252],[30.6866,-12.5885],[30.7167,-12.6362],[30.763,-12.6681],[30.7653,-12.6916],[30.7273,-12.7603],[30.7502,-12.8715],[30.8497,-12.9335],[30.9066,-12.9278],[31.0205,-12.9508],[31.1208,-13.0407],[31.1599,-13.0342],[31.1838,-12.9663],[31.2196,-12.948],[31.2826,-12.9492],[31.3402,-12.9815],[31.365,-13.2286],[31.4258,-13.3248],[31.4291,-13.4357],[31.3594,-13.4611],[31.2832,-13.5174],[31.2589,-13.5136],[31.2224,-13.5823],[31.1833,-13.5782],[31.1352,-13.6075],[31.0986,-13.7138],[31.0561,-13.7576],[31.0616,-13.7735],[30.9707,-13.8122],[30.9593,-13.8526],[30.9369,-13.86],[30.8825,-13.9272],[30.0977,-13.9319],[30.1488,-13.9512],[30.1844,-14.0472],[30.303,-14.1],[30.3198,-14.15],[30.2915,-14.2068],[30.2188,-14.2579],[30.123,-14.3726],[30.0836,-14.3779],[30.0695,-14.4151],[30.0346,-14.4424],[29.9942,-14.6071],[30.0512,-14.6712],[30.0001,-14.6678],[29.9711,-14.6491],[29.923,-14.6629],[29.9042,-14.6544],[29.8772,-14.6972],[29.8125,-14.6969],[29.7813,-14.7194],[29.7481,-14.7194],[29.669,-14.7498],[29.5763,-14.8089],[29.5218,-14.8164],[29.4598,-14.9631],[29.3116,-14.9774],[29.2281,-14.9567],[29.0011,-15.0185],[28.9468,-15.0415],[28.8231,-15.1494],[28.7439,-15.1757],[28.5691,-15.1883],[28.4043,-15.1457],[28.3756,-15.1625],[28.2908,-15.3417],[28.2599,-15.3526],[28.0335,-15.2873],[27.8625,-15.2606],[27.828,-15.2664],[27.7777,-15.2995],[27.767,-15.3206],[27.7734,-15.3349],[27.8918,-15.3743],[27.9177,-15.4236],[27.9343,-15.5009],[27.9056,-15.5317],[27.7993,-15.561],[27.7568,-15.6489],[27.7431,-15.6631],[27.7081,-15.6563],[27.6919,-15.6693],[27.6511,-15.6215],[27.6654,-15.6003],[27.6598,-15.5577],[27.6368,-15.544],[27.6263,-15.5189],[27.5698,-15.5003],[27.5677,-15.4817],[27.5465,-15.4799],[27.5045,-15.5407],[27.4592,-15.5793],[27.4098,-15.5681],[27.3176,-15.7348],[27.3009,-15.7444],[27.2795,-15.7271],[27.2277,-15.4971],[27.2022,-15.4822],[26.9586,-15.4677],[26.9873,-15.4352],[26.8439,-15.3516],[26.8042,-15.343],[25.3248,-15.2989],[25.3242,-15.1787],[25.3679,-15.1375],[25.4106,-15.1314],[25.4141,-15.0806],[25.456,-15.0196],[25.4565,-14.9706],[25.4257,-14.9136],[25.4251,-14.8663],[25.45,-14.8066],[25.4801,-14.7845],[25.4787,-14.6835],[25.5231,-14.6028],[25.5484,-14.5852],[25.5856,-14.5594],[25.621,-14.5554],[26.1737,-14.6211],[26.1979,-14.6545],[26.2941,-14.6886],[26.3248,-14.7166],[26.3698,-14.6992],[26.3874,-14.627],[26.4922,-14.5316],[26.5555,-14.4507],[26.7361,-14.449],[26.8046,-14.4149],[26.9277,-14.4099],[26.956,-14.374],[26.9522,-14.2531],[26.9789,-14.2095],[26.9814,-14.1799],[26.9134,-14.0761],[26.8577,-14.0377],[26.9075,-14.0096],[26.9122,-13.91],[26.9546,-13.8217],[26.9063,-13.7903],[26.8816,-13.7412],[26.8526,-13.7166],[27.3471,-13.7403],[27.3529,-13.7931],[27.3768,-13.8234],[27.3937,-13.8979],[27.4168,-13.9196],[27.4839,-13.8679],[27.4899,-13.7948],[27.5232,-13.7891],[27.5416,-13.8175],[27.5543,-13.8134],[27.5547,-13.7917],[27.5957,-13.7365],[27.5957,-13.7092],[27.6237,-13.7024],[27.6219,-13.6631],[27.6367,-13.6477],[27.7046,-13.673],[27.8083,-13.6851],[27.9002,-13.88],[27.9439,-13.9195],[28.1404,-13.8912],[28.1902,-13.8661],[28.2809,-13.8851],[28.3601,-13.8747],[28.4352,-13.8909],[28.5004,-13.8856],[28.5392,-13.8692],[28.6695,-13.8561],[28.6712,-13.7312],[28.8185,-13.6204],[28.8719,-13.5602],[28.9541,-13.5199],[29.0654,-13.3887],[29.1221,-13.3843],[29.1841,-13.4369],[29.3083,-13.3537],[29.4496,-13.3003],[29.528,-13.2341],[29.5744,-13.2254],[29.6291,-13.2615],[29.6575,-13.2601],[29.6692,-13.2812],[29.6589,-13.3095],[29.6266,-13.3264],[29.6251,-13.3642],[29.6017,-13.3744],[29.6174,-13.4212],[29.7029,-13.4576],[29.7822,-13.4557],[29.7976,-13.4242],[29.7996,-12.159]]]}},{"type":"Feature","id":"Copperbelt","properties":{"id":"Copperbelt","iso_code":"ZM-08","name":"Copperbelt","name_full":"Copperbelt","name_ja":"カッパーベルト州","center_lonlat":[27.8467,-13.1246]},"geometry":{"type":"Polygon","coordinates":[[[27.5898,-12.243],[27.6382,-12.2936],[27.7107,-12.3063],[27.7883,-12.2965],[27.8314,-12.2599],[27.8567,-12.2624],[27.9339,-12.3033],[27.9587,-12.3678],[28.0877,-12.3775],[28.1313,-12.4292],[28.1858,-12.4024],[28.2375,-12.4371],[28.3037,-12.4354],[28.3397,-12.4505],[28.4227,-12.5213],[28.4683,-12.6146],[28.5123,-12.6684],[28.5116,-12.6944],[28.474,-12.7365],[28.4809,-12.7621],[28.5394,-12.8338],[28.5428,-12.8856],[28.5534,-12.8949],[28.584,-12.8887],[28.6212,-12.8394],[28.6679,-12.8493],[28.8006,-13.0024],[28.8094,-13.0384],[28.8309,-13.0518],[28.8258,-13.0928],[28.8442,-13.1024],[28.8537,-13.1371],[28.8919,-13.1473],[28.9034,-13.1623],[28.9504,-13.351],[28.994,-13.3959],[29.0654,-13.3887],[28.9541,-13.5199],[28.8719,-13.5602],[28.8185,-13.6204],[28.6712,-13.7312],[28.6695,-13.8561],[28.5392,-13.8692],[28.5004,-13.8856],[28.4352,-13.8909],[28.3601,-13.8747],[28.2809,-13.8851],[28.1902,-13.8661],[28.1404,-13.8912],[27.9439,-13.9195],[27.9002,-13.88],[27.8083,-13.6851],[27.7046,-13.673],[27.6367,-13.6477],[27.6219,-13.6631],[27.6237,-13.7024],[27.5957,-13.7092],[27.5957,-13.7365],[27.5547,-13.7917],[27.5543,-13.8134],[27.5416,-13.8175],[27.5232,-13.7891],[27.4899,-13.7948],[27.4839,-13.8679],[27.4168,-13.9196],[27.3937,-13.8979],[27.3768,-13.8234],[27.3529,-13.7931],[27.3471,-13.7403],[26.8526,-13.7166],[26.7946,-13.6674],[26.7972,-13.5628],[26.8382,-13.5089],[26.8591,-13.4393],[26.9061,-13.4168],[26.9252,-13.3806],[26.9521,-13.3666],[26.9736,-13.3348],[26.9806,-13.3096],[26.9614,-13.2443],[26.9651,-13.211],[27.061,-13.1303],[27.0942,-13.0008],[27.0439,-12.9969],[27.0096,-12.9557],[26.9303,-12.9267],[26.8831,-12.8923],[26.9069,-12.8197],[26.845,-12.7388],[26.8675,-12.6631],[26.8862,-12.6376],[26.9467,-12.6181],[27.0092,-12.538],[27.0768,-12.516],[27.0549,-12.4627],[27.0661,-12.3874],[27.0515,-12.3342],[27.2765,-12.3457],[27.4134,-12.2478],[27.4277,-12.2439],[27.466,-12.2704],[27.4674,-12.2889],[27.5105,-12.3007],[27.5898,-12.243]]]}},{"type":"Feature","id":"Eastern","properties":{"id":"Eastern","iso_code":"ZM-03","name":"Eastern","name_full":"Eastern","name_ja":"東部州","center_lonlat":[31.888,-13.5865]},"geometry":{"type":"Polygon","coordinates":[[[33.305,-11.644],[33.314,-11.7722],[33.2975,-11.8625],[33.3127,-11.8987],[33.2942,-11.9813],[33.2549,-12.0726],[33.2527,-12.1395],[33.3,-12.1959],[33.3495,-12.3279],[33.3846,-12.34],[33.4583,-12.3181],[33.5256,-12.3353],[33.5271,-12.3556],[33.4653,-12.4091],[33.4511,-12.453],[33.4208,-12.465],[33.3504,-12.5327],[33.2551,-12.5319],[33.227,-12.5791],[33.1733,-12.62],[33.1304,-12.5837],[33.0813,-12.6048],[33.0577,-12.5834],[33.0248,-12.6127],[32.9411,-12.7699],[32.947,-12.8432],[33.005,-12.893],[33.0136,-12.9172],[32.9815,-13.0061],[32.9659,-13.1168],[32.9982,-13.2024],[32.9379,-13.2559],[32.8921,-13.4048],[32.8743,-13.4432],[32.8191,-13.4717],[32.8131,-13.5282],[32.7632,-13.5425],[32.7228,-13.5734],[32.6773,-13.5678],[32.6633,-13.5963],[32.6751,-13.6281],[32.7699,-13.6469],[32.8134,-13.7112],[32.7574,-13.7502],[32.763,-13.7772],[32.8741,-13.8206],[32.9239,-13.8804],[32.9362,-13.9262],[32.9763,-13.9445],[32.9713,-14.0059],[32.9998,-14.0505],[33.0182,-14.0462],[33.063,-13.9817],[33.1116,-13.9646],[33.1403,-13.925],[33.2027,-14.0139],[31.6584,-14.5196],[31.4109,-14.6336],[30.8158,-14.7682],[30.4856,-14.886],[30.3184,-14.967],[30.2144,-14.982],[30.2065,-14.8307],[30.0959,-14.7162],[30.062,-14.6984],[30.0512,-14.6712],[29.9942,-14.6071],[30.0346,-14.4424],[30.0695,-14.4151],[30.0836,-14.3779],[30.123,-14.3726],[30.2188,-14.2579],[30.2915,-14.2068],[30.3198,-14.15],[30.303,-14.1],[30.1844,-14.0472],[30.1488,-13.9512],[30.0977,-13.9319],[30.8825,-13.9272],[30.9369,-13.86],[30.9593,-13.8526],[30.9707,-13.8122],[31.0616,-13.7735],[31.0561,-13.7576],[31.0986,-13.7138],[31.1352,-13.6075],[31.1833,-13.5782],[31.2224,-13.5823],[31.2589,-13.5136],[31.2832,-13.5174],[31.3594,-13.4611],[31.4291,-13.4357],[31.4614,-13.4218],[31.5183,-13.4319],[31.6138,-13.3666],[31.6381,-13.3356],[31.6751,-13.2005],[31.7145,-13.1744],[31.7239,-13.1447],[31.7528,-13.1161],[31.7556,-13.0922],[31.7693,-13.1065],[31.8365,-13.0593],[31.8647,-13.0526],[31.8723,-13.037],[31.9132,-13.0308],[31.9132,-12.9352],[31.9344,-12.9284],[31.9548,-12.9011],[32.0071,-12.8862],[32.0442,-12.7974],[32.0678,-12.7846],[32.0907,-12.654],[32.1385,-12.4951],[32.1408,-12.4434],[32.1938,-12.3462],[32.2764,-12.2636],[32.2913,-12.2012],[32.4329,-12.2191],[32.4833,-12.1687],[32.5001,-12.1099],[32.5421,-12.0679],[32.727,-12.0595],[33.0882,-11.9503],[33.1974,-11.7486],[33.1974,-11.7016],[33.2163,-11.6733],[33.305,-11.644]]]}},{"type":"Feature","id":"Luapula","properties":{"id":"Luapula","iso_code":"ZM-04","name":"Luapula","name_full":"Luapula","name_ja":"ルアプラ州","center_lonlat":[29.2057,-10.6903]},"geometry":{"type":"Polygon","coordinates":[[[29.5758,-8.3727],[29.5239,-8.4729],[29.4967,-8.4948],[29.419,-8.5208],[29.3931,-8.5506],[29.3056,-8.7212],[29.2505,-8.9012],[29.2284,-8.9282],[29.1761,-8.9488],[29.1473,-9.037],[29.119,-9.047],[29.1099,-9.091],[29.1934,-9.1525],[29.2435,-9.1576],[29.2739,-9.1972],[29.3085,-9.2173],[29.3341,-9.2165],[29.3588,-9.3564],[29.3491,-9.3821],[29.3281,-9.3959],[29.3246,-9.4333],[29.369,-9.537],[29.3849,-9.5486],[29.4381,-9.5466],[29.4784,-9.6012],[29.5433,-9.6506],[29.6387,-9.6696],[29.7375,-9.7082],[29.7998,-9.7087],[29.857,-9.7761],[29.8763,-9.8195],[29.9194,-9.8386],[29.9379,-9.8911],[29.9053,-9.9919],[29.9376,-10.0725],[29.8992,-10.1146],[29.8794,-10.1996],[29.8535,-10.2299],[29.828,-10.2372],[29.7712,-10.221],[29.6977,-10.2228],[29.6157,-10.2862],[29.5108,-10.3269],[29.4413,-10.3808],[29.43,-10.4338],[29.396,-10.4805],[29.4145,-10.5269],[29.3573,-10.6304],[29.3076,-10.6409],[29.1639,-10.7421],[29.1614,-10.8728],[29.0843,-10.9578],[29.1802,-10.9993],[29.2737,-11.0902],[29.3183,-11.091],[29.3821,-11.1191],[29.3971,-11.0424],[29.3656,-10.9987],[29.3642,-10.9589],[29.3378,-10.908],[29.3653,-10.8839],[29.6549,-10.7383],[29.7807,-10.8036],[29.8128,-10.8631],[29.857,-10.8993],[29.8858,-10.9495],[29.8926,-11.0193],[29.8347,-11.3953],[29.8507,-11.3723],[29.88,-11.3614],[29.8955,-11.3222],[29.9366,-11.2907],[29.9599,-11.2464],[30.1047,-11.2424],[30.138,-11.2544],[30.4492,-11.4755],[30.4558,-11.5017],[30.4402,-11.5651],[30.4476,-11.59],[30.2614,-11.8189],[29.7895,-11.899],[29.7733,-11.9248],[29.7782,-12.0203],[29.8166,-12.0855],[29.8166,-12.1333],[29.7994,-12.1558],[29.7349,-12.1648],[29.6319,-12.216],[29.5767,-12.1881],[29.4743,-12.2427],[29.4466,-12.3351],[29.4805,-12.3805],[29.5234,-12.3925],[29.5247,-12.4292],[29.4997,-12.4531],[29.4326,-12.4413],[29.3644,-12.4093],[29.3049,-12.4048],[29.255,-12.3662],[29.1734,-12.3676],[29.1111,-12.3935],[29.1002,-12.374],[29.0672,-12.3848],[29.0351,-12.3789],[28.9447,-12.2061],[28.9187,-12.1743],[28.8595,-12.1418],[28.8215,-12.0757],[28.7599,-12.0352],[28.7511,-11.9922],[28.686,-11.9841],[28.6239,-11.9478],[28.5927,-11.9005],[28.5692,-11.9137],[28.5406,-11.872],[28.5079,-11.8728],[28.4889,-11.8087],[28.4525,-11.7808],[28.4427,-11.7116],[28.4184,-11.6789],[28.4055,-11.6052],[28.3557,-11.5182],[28.357,-11.4469],[28.4086,-11.3724],[28.4396,-11.3482],[28.4362,-11.2891],[28.4737,-11.2257],[28.4737,-11.1812],[28.4873,-11.1534],[28.4768,-11.078],[28.5079,-11.0236],[28.5079,-10.9821],[28.5472,-10.9138],[28.5544,-10.835],[28.6232,-10.7169],[28.6659,-10.6974],[28.6996,-10.6432],[28.6655,-10.609],[28.6723,-10.5643],[28.6349,-10.5195],[28.6305,-10.481],[28.6461,-10.4384],[28.6209,-10.3733],[28.6239,-10.2764],[28.5699,-10.2196],[28.6196,-10.1419],[28.6285,-10.1027],[28.6279,-9.9294],[28.6685,-9.8216],[28.6985,-9.792],[28.6313,-9.7156],[28.6218,-9.6383],[28.5836,-9.5638],[28.6178,-9.5433],[28.5741,-9.5392],[28.5628,-9.4849],[28.5197,-9.4456],[28.516,-9.3783],[28.4605,-9.335],[28.3685,-9.3086],[28.3525,-9.272],[28.3723,-9.2351],[28.5062,-9.1644],[28.5991,-9.0964],[28.7654,-8.934],[28.8931,-8.7658],[28.9305,-8.6799],[28.9355,-8.5908],[28.8892,-8.4831],[29.5758,-8.3727]]]}},{"type":"Feature","id":"Lusaka","properties":{"id":"Lusaka","iso_code":"ZM-09","name":"Lusaka","name_full":"Lusaka","name_ja":"ルサカ州","center_lonlat":[29.2162,-15.37]},"geometry":{"type":"Polygon","coordinates":[[[28.9469,-15.9572],[28.8873,-15.9264],[28.8706,-15.9431],[28.8486,-15.9365],[28.8086,-15.9567],[28.7539,-15.9519],[28.6769,-15.8953],[28.5836,-15.8903],[28.5066,-15.8237],[28.3911,-15.7844],[28.2915,-15.7907],[28.2361,-15.8186],[28.1783,-15.7778],[28.0406,-15.7318],[28.0072,-15.683],[27.9707,-15.6659],[27.9296,-15.6643],[27.8564,-15.6898],[27.823,-15.6517],[27.7568,-15.6489],[27.7993,-15.561],[27.9056,-15.5317],[27.9343,-15.5009],[27.9177,-15.4236],[27.8918,-15.3743],[27.7734,-15.3349],[27.767,-15.3206],[27.7777,-15.2995],[27.828,-15.2664],[27.8625,-15.2606],[28.0335,-15.2873],[28.2599,-15.3526],[28.2908,-15.3417],[28.3756,-15.1625],[28.4043,-15.1457],[28.5691,-15.1883],[28.7439,-15.1757],[28.8231,-15.1494],[28.9468,-15.0415],[29.0011,-15.0185],[29.2281,-14.9567],[29.3116,-14.9774],[29.4598,-14.9631],[29.5218,-14.8164],[29.5763,-14.8089],[29.669,-14.7498],[29.7481,-14.7194],[29.7813,-14.7194],[29.8125,-14.6969],[29.8772,-14.6972],[29.9042,-14.6544],[29.923,-14.6629],[29.9711,-14.6491],[30.0001,-14.6678],[30.0512,-14.6712],[30.062,-14.6984],[30.0959,-14.7162],[30.2065,-14.8307],[30.2144,-14.982],[30.2258,-15.1063],[30.2631,-15.2313],[30.2879,-15.2789],[30.3349,-15.3047],[30.3649,-15.3542],[30.3718,-15.4398],[30.3929,-15.4808],[30.3674,-15.5613],[30.4012,-15.5985],[30.4104,-15.6304],[30.3281,-15.6524],[30.2549,-15.6289],[30.2072,-15.6532],[30.1301,-15.6237],[30.0107,-15.6462],[29.8373,-15.6148],[29.6728,-15.6633],[29.5872,-15.6557],[29.5085,-15.7036],[29.407,-15.7142],[29.1863,-15.8128],[29.151,-15.8488],[29.0862,-15.8846],[29.0423,-15.9463],[28.9469,-15.9572]]]}},{"type":"Feature","id":"Muchinga","properties":{"id":"Muchinga","iso_code":"ZM-10","name":"Muchinga","name_full":"Muchinga","name_ja":"ムチンガ州","center_lonlat":[31.9422,-11.2007]},"geometry":{"type":"Polygon","coordinates":[[[33.305,-11.644],[33.2163,-11.6733],[33.1974,-11.7016],[33.1974,-11.7486],[33.0882,-11.9503],[32.727,-12.0595],[32.5421,-12.0679],[32.5001,-12.1099],[32.4833,-12.1687],[32.4329,-12.2191],[32.2913,-12.2012],[32.2764,-12.2636],[32.1938,-12.3462],[32.1408,-12.4434],[32.1385,-12.4951],[32.0907,-12.654],[32.0678,-12.7846],[32.0442,-12.7974],[32.0071,-12.8862],[31.9548,-12.9011],[31.9344,-12.9284],[31.9132,-12.9352],[31.9132,-13.0308],[31.8723,-13.037],[31.8647,-13.0526],[31.8365,-13.0593],[31.7693,-13.1065],[31.7556,-13.0922],[31.7528,-13.1161],[31.7239,-13.1447],[31.7145,-13.1744],[31.6751,-13.2005],[31.6381,-13.3356],[31.6138,-13.3666],[31.5183,-13.4319],[31.4614,-13.4218],[31.4291,-13.4357],[31.4258,-13.3248],[31.365,-13.2286],[31.3402,-12.9815],[31.2826,-12.9492],[31.2196,-12.948],[31.1838,-12.9663],[31.1599,-13.0342],[31.1208,-13.0407],[31.0205,-12.9508],[30.9066,-12.9278],[30.8497,-12.9335],[30.7502,-12.8715],[30.7273,-12.7603],[30.7653,-12.6916],[30.763,-12.6681],[30.7167,-12.6362],[30.6866,-12.5885],[30.6348,-12.6252],[30.5645,-12.574],[30.5699,-12.509],[30.4973,-12.4507],[30.5131,-12.3409],[30.5001,-12.3094],[30.4486,-12.3085],[30.4129,-12.2734],[30.3614,-12.2722],[30.1618,-12.2023],[30.1421,-12.1746],[30.0785,-12.1398],[30.0298,-12.0343],[29.9973,-12.0005],[29.9475,-12.0081],[29.8627,-12.0445],[29.8389,-12.1338],[29.7996,-12.159],[29.7994,-12.1558],[29.8166,-12.1333],[29.8166,-12.0855],[29.7782,-12.0203],[29.7733,-11.9248],[29.7895,-11.899],[30.2614,-11.8189],[30.4476,-11.59],[30.4402,-11.5651],[30.4558,-11.5017],[30.5221,-11.4611],[30.5488,-11.3998],[30.5881,-11.3857],[30.6177,-11.3307],[30.662,-11.3307],[30.7063,-11.2905],[30.7422,-11.2133],[30.8237,-11.1122],[30.8486,-11.0566],[30.8673,-11.043],[30.8938,-11.0591],[30.8987,-11.0506],[30.8789,-11.0297],[30.9706,-10.9994],[31.001,-10.9201],[31.0217,-10.9199],[31.0108,-10.9325],[31.0376,-10.9489],[31.0527,-10.9444],[31.0588,-10.9111],[31.0767,-10.9417],[31.0634,-10.9614],[31.0854,-10.9614],[31.1453,-10.9168],[31.1709,-10.8732],[31.1436,-10.8267],[31.2042,-10.8107],[31.1921,-10.7831],[31.1575,-10.7881],[31.1306,-10.75],[31.2073,-10.7082],[31.2755,-10.728],[31.3097,-10.7013],[31.3097,-10.6498],[31.339,-10.6371],[31.335,-10.6125],[31.437,-10.5778],[31.4612,-10.5505],[31.4884,-10.571],[31.5528,-10.558],[31.5498,-10.3088],[31.5162,-10.2752],[31.4156,-10.2333],[31.3402,-10.183],[31.2648,-9.9567],[31.1893,-9.831],[31.1139,-9.7555],[31.1809,-9.6717],[31.2061,-9.613],[31.3653,-9.5041],[31.4324,-9.546],[31.5081,-9.5401],[31.5749,-9.5711],[31.6001,-9.5041],[31.6755,-9.5292],[31.7509,-9.5208],[31.9018,-9.437],[32.0192,-9.4202],[32.3293,-9.4621],[32.3209,-9.3616],[32.2314,-9.1338],[32.4234,-9.1438],[32.4597,-9.168],[32.518,-9.2582],[32.7132,-9.2858],[32.7397,-9.3073],[32.7523,-9.3374],[32.7843,-9.3397],[32.9209,-9.4079],[32.9278,-9.4798],[32.9619,-9.4803],[32.992,-9.5018],[32.9747,-9.6013],[32.9869,-9.6285],[33.0357,-9.617],[33.0583,-9.6543],[33.0804,-9.6623],[33.0983,-9.5885],[33.1954,-9.6163],[33.2143,-9.6547],[33.2073,-9.7129],[33.2878,-9.8038],[33.337,-9.8237],[33.3592,-9.8709],[33.3656,-9.8988],[33.31,-10.0127],[33.3041,-10.0638],[33.3175,-10.0821],[33.3992,-10.1179],[33.4805,-10.1771],[33.5333,-10.2312],[33.5293,-10.3186],[33.5592,-10.4043],[33.6032,-10.4492],[33.6382,-10.5116],[33.6654,-10.5151],[33.6742,-10.577],[33.6423,-10.6153],[33.5769,-10.6576],[33.5283,-10.7116],[33.501,-10.7692],[33.434,-10.8081],[33.3855,-10.8009],[33.3191,-10.8181],[33.2881,-10.8567],[33.2414,-10.8657],[33.2326,-10.8833],[33.2396,-10.9031],[33.2659,-10.9011],[33.2803,-10.9133],[33.3037,-11.0346],[33.3909,-11.1648],[33.3685,-11.2227],[33.2983,-11.3292],[33.2989,-11.3531],[33.2735,-11.3696],[33.2652,-11.4231],[33.2397,-11.4024],[33.2303,-11.4166],[33.2338,-11.514],[33.2126,-11.5638],[33.2327,-11.5777],[33.2832,-11.5784],[33.3026,-11.6097],[33.305,-11.644]]]}},{"type":"Feature","id":"Northern","properties":{"id":"Northern","iso_code":"ZM-05","name":"Northern","name_full":"Northern","name_ja":"北部州","center_lonlat":[30.4936,-9.6839]},"geometry":{"type":"Polygon","coordinates":[[[32.2314,-9.1338],[32.3209,-9.3616],[32.3293,-9.4621],[32.0192,-9.4202],[31.9018,-9.437],[31.7509,-9.5208],[31.6755,-9.5292],[31.6001,-9.5041],[31.5749,-9.5711],[31.5081,-9.5401],[31.4324,-9.546],[31.3653,-9.5041],[31.2061,-9.613],[31.1809,-9.6717],[31.1139,-9.7555],[31.1893,-9.831],[31.2648,-9.9567],[31.3402,-10.183],[31.4156,-10.2333],[31.5162,-10.2752],[31.5498,-10.3088],[31.5528,-10.558],[31.4884,-10.571],[31.4612,-10.5505],[31.437,-10.5778],[31.335,-10.6125],[31.339,-10.6371],[31.3097,-10.6498],[31.3097,-10.7013],[31.2755,-10.728],[31.2073,-10.7082],[31.1306,-10.75],[31.1575,-10.7881],[31.1921,-10.7831],[31.2042,-10.8107],[31.1436,-10.8267],[31.1709,-10.8732],[31.1453,-10.9168],[31.0854,-10.9614],[31.0634,-10.9614],[31.0767,-10.9417],[31.0588,-10.9111],[31.0527,-10.9444],[31.0376,-10.9489],[31.0108,-10.9325],[31.0217,-10.9199],[31.001,-10.9201],[30.9706,-10.9994],[30.8789,-11.0297],[30.8987,-11.0506],[30.8938,-11.0591],[30.8673,-11.043],[30.8486,-11.0566],[30.8237,-11.1122],[30.7422,-11.2133],[30.7063,-11.2905],[30.662,-11.3307],[30.6177,-11.3307],[30.5881,-11.3857],[30.5488,-11.3998],[30.5221,-11.4611],[30.4558,-11.5017],[30.4492,-11.4755],[30.138,-11.2544],[30.1047,-11.2424],[29.9599,-11.2464],[29.9366,-11.2907],[29.8955,-11.3222],[29.88,-11.3614],[29.8507,-11.3723],[29.8347,-11.3953],[29.8926,-11.0193],[29.8858,-10.9495],[29.857,-10.8993],[29.8128,-10.8631],[29.7807,-10.8036],[29.6549,-10.7383],[29.3653,-10.8839],[29.3378,-10.908],[29.3642,-10.9589],[29.3656,-10.9987],[29.3971,-11.0424],[29.3821,-11.1191],[29.3183,-11.091],[29.2737,-11.0902],[29.1802,-10.9993],[29.0843,-10.9578],[29.1614,-10.8728],[29.1639,-10.7421],[29.3076,-10.6409],[29.3573,-10.6304],[29.4145,-10.5269],[29.396,-10.4805],[29.43,-10.4338],[29.4413,-10.3808],[29.5108,-10.3269],[29.6157,-10.2862],[29.6977,-10.2228],[29.7712,-10.221],[29.828,-10.2372],[29.8535,-10.2299],[29.8794,-10.1996],[29.8992,-10.1146],[29.9376,-10.0725],[29.9053,-9.9919],[29.9379,-9.8911],[29.9194,-9.8386],[29.8763,-9.8195],[29.857,-9.7761],[29.7998,-9.7087],[29.7375,-9.7082],[29.6387,-9.6696],[29.5433,-9.6506],[29.4784,-9.6012],[29.4381,-9.5466],[29.3849,-9.5486],[29.369,-9.537],[29.3246,-9.4333],[29.3281,-9.3959],[29.3491,-9.3821],[29.3588,-9.3564],[29.3341,-9.2165],[29.3085,-9.2173],[29.2739,-9.1972],[29.2435,-9.1576],[29.1934,-9.1525],[29.1099,-9.091],[29.119,-9.047],[29.1473,-9.037],[29.1761,-8.9488],[29.2284,-8.9282],[29.2505,-8.9012],[29.3056,-8.7212],[29.3931,-8.5506],[29.419,-8.5208],[29.4967,-8.4948],[29.5239,-8.4729],[29.5758,-8.3727],[30.7521,-8.1941],[30.7783,-8.2891],[30.8283,-8.3881],[30.8919,-8.4792],[30.9924,-8.5759],[31.0778,-8.6163],[31.1198,-8.6166],[31.1827,-8.5808],[31.2068,-8.5808],[31.2609,-8.624],[31.3533,-8.5872],[31.386,-8.6325],[31.4275,-8.6335],[31.539,-8.7035],[31.5533,-8.8091],[31.6727,-8.913],[31.7098,-8.9197],[31.7876,-8.8922],[31.9366,-8.9326],[31.9178,-8.9731],[31.9177,-9.0225],[31.9381,-9.0618],[31.9806,-9.0719],[32.0317,-9.046],[32.0964,-9.0691],[32.1341,-9.0641],[32.2314,-9.1338]]]}},{"type":"Feature","id":"Northwestern","properties":{"id":"Northwestern","iso_code":"ZM-06","name":"Northwestern","name_full":"Northwestern","name_ja":"北西州","center_lonlat":[25.0507,-13.0313]},"geometry":{"type":"Polygon","coordinates":[[[21.9804,-13.6948],[21.9799,-13.0015],[24.0006,-13.0015],[23.9718,-12.9334],[23.8951,-12.8498],[23.8657,-12.7897],[23.9287,-12.5616],[24.0308,-12.3851],[24.0169,-12.2789],[23.9596,-12.1967],[23.9543,-12.1519],[23.967,-11.8829],[23.9902,-11.8241],[23.9813,-11.7248],[23.9546,-11.6369],[24.0097,-11.5234],[24.0099,-11.4595],[24.0617,-11.407],[24.0112,-11.2729],[24.0153,-11.1305],[23.9958,-11.1274],[23.9901,-11.1135],[24.0037,-10.9825],[23.9743,-10.9214],[23.9675,-10.8723],[24.0484,-10.8823],[24.1142,-10.9192],[24.108,-10.955],[24.1242,-11.0433],[24.1813,-11.0345],[24.2938,-11.0503],[24.3705,-11.1002],[24.3818,-11.1206],[24.3617,-11.1647],[24.3966,-11.2174],[24.3922,-11.2791],[24.3399,-11.3581],[24.2855,-11.3812],[24.3101,-11.4066],[24.3702,-11.4102],[24.4465,-11.4636],[24.5647,-11.4447],[24.5933,-11.3996],[24.6352,-11.3859],[24.6741,-11.3416],[24.7125,-11.326],[24.8267,-11.3176],[24.9429,-11.2686],[25.184,-11.2467],[25.3103,-11.1948],[25.3225,-11.2054],[25.3249,-11.2837],[25.2847,-11.3073],[25.3065,-11.3331],[25.278,-11.3718],[25.279,-11.3963],[25.3167,-11.473],[25.2977,-11.5079],[25.3004,-11.535],[25.3449,-11.6422],[25.3864,-11.6498],[25.4812,-11.7153],[25.4741,-11.7562],[25.4956,-11.7765],[25.561,-11.7533],[25.5757,-11.7273],[25.6215,-11.7289],[25.7256,-11.8005],[25.8507,-11.7938],[25.9498,-11.864],[25.9636,-11.8951],[25.9811,-11.903],[26.1667,-11.9024],[26.2296,-11.9331],[26.298,-11.9412],[26.3391,-11.919],[26.4146,-11.9118],[26.4891,-11.9608],[26.6435,-11.9855],[26.6971,-12.0175],[26.7174,-12.013],[26.7594,-11.9687],[26.8742,-11.9643],[26.9477,-11.9091],[26.9673,-11.8704],[26.9811,-11.749],[27.0215,-11.6979],[27.0103,-11.6098],[27.0238,-11.5956],[27.0644,-11.5971],[27.1801,-11.5696],[27.2076,-11.6394],[27.21,-11.722],[27.2342,-11.8091],[27.4207,-11.922],[27.4676,-12.0016],[27.5205,-12.1796],[27.5898,-12.243],[27.5105,-12.3007],[27.4674,-12.2889],[27.466,-12.2704],[27.4277,-12.2439],[27.4134,-12.2478],[27.2765,-12.3457],[27.0515,-12.3342],[27.0661,-12.3874],[27.0549,-12.4627],[27.0768,-12.516],[27.0092,-12.538],[26.9467,-12.6181],[26.8862,-12.6376],[26.8675,-12.6631],[26.845,-12.7388],[26.9069,-12.8197],[26.8831,-12.8923],[26.9303,-12.9267],[27.0096,-12.9557],[27.0439,-12.9969],[27.0942,-13.0008],[27.061,-13.1303],[26.9651,-13.211],[26.9614,-13.2443],[26.9806,-13.3096],[26.9736,-13.3348],[26.9521,-13.3666],[26.9252,-13.3806],[26.9061,-13.4168],[26.8591,-13.4393],[26.8382,-13.5089],[26.7972,-13.5628],[26.7946,-13.6674],[26.8526,-13.7166],[26.8816,-13.7412],[26.9063,-13.7903],[26.9546,-13.8217],[26.9122,-13.91],[26.9075,-14.0096],[26.8577,-14.0377],[26.9134,-14.0761],[26.9814,-14.1799],[26.9789,-14.2095],[26.9522,-14.2531],[26.956,-14.374],[26.9277,-14.4099],[26.8046,-14.4149],[26.7361,-14.449],[26.5555,-14.4507],[26.4922,-14.5316],[26.3874,-14.627],[26.3698,-14.6992],[26.3248,-14.7166],[26.2941,-14.6886],[26.1979,-14.6545],[26.1737,-14.6211],[25.621,-14.5554],[25.5856,-14.5594],[25.5484,-14.5852],[25.4512,-14.6037],[25.3938,-14.5828],[25.3153,-14.5774],[25.1516,-14.6285],[25.0402,-14.636],[25.0102,-14.6238],[24.9629,-14.5643],[24.9635,-14.4832],[25.0511,-14.4218],[25.0591,-14.3502],[25.0875,-14.2904],[25.0818,-14.2321],[25.0638,-14.2143],[25.0082,-14.2177],[24.8782,-14.1562],[24.7458,-14.1203],[24.7266,-14.0884],[24.7134,-14.0128],[24.6613,-13.9585],[24.6356,-13.9698],[24.6195,-14.0001],[24.6158,-13.9656],[24.591,-13.9634],[24.587,-13.9885],[24.5539,-13.9829],[24.4886,-13.9179],[24.4654,-13.9324],[24.4707,-13.9525],[24.4164,-13.9633],[24.4041,-13.9464],[24.3815,-13.9582],[24.3349,-13.9422],[24.3266,-13.9122],[24.3053,-13.8922],[24.2905,-13.9127],[24.3,-13.9382],[24.2749,-13.9369],[24.2224,-13.9059],[24.1566,-13.9302],[24.1267,-13.9556],[24.0879,-13.9462],[24.0716,-13.9765],[24.048,-13.9663],[24.0015,-14.0003],[23.9478,-13.9872],[23.9107,-14.0003],[23.8557,-13.9909],[23.8331,-13.9757],[23.8337,-13.9562],[23.7333,-14.0123],[23.6835,-13.9904],[23.6677,-13.9948],[23.5922,-14.0232],[23.5395,-14.0592],[23.4367,-14.0857],[23.3676,-14.1337],[23.3232,-14.1337],[23.2646,-14.1685],[23.2236,-14.1685],[23.2236,-14.1406],[23.1826,-14.1548],[23.227,-14.0763],[23.1252,-14.059],[23.1064,-14.036],[23.0999,-13.9927],[23.0822,-13.9803],[23.0007,-13.9928],[22.9648,-13.9356],[22.8529,-13.8695],[22.8054,-13.8997],[22.748,-13.9053],[22.7287,-13.9777],[22.7103,-13.9904],[22.6323,-13.961],[22.61,-13.9277],[22.5163,-13.8936],[22.4994,-13.8661],[22.2508,-13.6866],[22.2216,-13.6834],[22.1685,-13.7426],[22.1192,-13.7616],[22.0857,-13.7585],[22.0285,-13.7123],[21.9804,-13.6948]]]}},{"type":"Feature","id":"Southern","properties":{"id":"Southern","iso_code":"ZM-07","name":"Southern","name_full":"Southern","name_ja":"南部州","center_lonlat":[26.6657,-16.5875]},"geometry":{"type":"Polygon","coordinates":[[[28.9469,-15.9572],[28.8989,-15.9955],[28.8572,-16.0605],[28.871,-16.0872],[28.8471,-16.2027],[28.8642,-16.2312],[28.8368,-16.3063],[28.8572,-16.3882],[28.8089,-16.4863],[28.7328,-16.5581],[28.6433,-16.5688],[28.2801,-16.7065],[28.1139,-16.8276],[27.8169,-16.9596],[27.6412,-17.1985],[27.5773,-17.3631],[27.1571,-17.7693],[27.1453,-17.7941],[27.149,-17.8425],[27.0213,-17.9585],[26.9592,-17.9647],[26.912,-17.992],[26.8883,-17.9846],[26.7536,-18.033],[26.7,-18.0692],[26.6288,-18.0492],[26.5702,-18.0029],[26.4855,-17.9793],[26.4086,-17.939],[26.3183,-17.9344],[26.2943,-17.9185],[26.2392,-17.9102],[26.2119,-17.8828],[26.1586,-17.9183],[26.0952,-17.9381],[26.0952,-17.9585],[26.0466,-17.9663],[26.0406,-17.9785],[26.0337,-17.9716],[25.9785,-17.999],[25.9245,-17.999],[25.8535,-17.96],[25.8475,-17.9294],[25.8636,-17.9238],[25.8497,-17.9067],[25.8044,-17.8882],[25.766,-17.8498],[25.6814,-17.8115],[25.5165,-17.8623],[25.3355,-17.8412],[25.2667,-17.8009],[25.2424,-17.7703],[25.1907,-17.7553],[25.1568,-17.7252],[25.1385,-17.6861],[25.1226,-17.6979],[25.0988,-17.6768],[25.0885,-17.6427],[25.0339,-17.6085],[25.037,-17.5812],[24.9985,-17.588],[24.97,-17.56],[24.9861,-17.4699],[25.0253,-17.4199],[25.0253,-17.3166],[25.0984,-17.2219],[25.0842,-17.1752],[25.0914,-17.1383],[25.1553,-17.0795],[25.1592,-17.0139],[25.2379,-16.9759],[25.279,-16.9055],[25.2417,-16.7901],[25.2514,-16.7057],[25.2124,-16.6852],[25.1009,-16.6704],[25.0751,-16.6091],[25.0008,-16.551],[24.9978,-16.5322],[25.0414,-16.512],[25.1499,-16.3739],[25.2899,-16.2926],[25.3558,-16.1642],[25.4281,-16.0929],[25.3496,-16.0441],[25.3344,-16.009],[25.3586,-15.9697],[25.3504,-15.9275],[25.3816,-15.8762],[25.3962,-15.7509],[25.3608,-15.7235],[25.3201,-15.7601],[25.2784,-15.7487],[25.2518,-15.6985],[25.2778,-15.6683],[25.2778,-15.6448],[25.2233,-15.5938],[25.2689,-15.5382],[25.2447,-15.4849],[25.2967,-15.468],[25.3178,-15.4201],[25.3187,-15.3816],[25.3432,-15.3527],[25.3248,-15.2989],[26.8042,-15.343],[26.8439,-15.3516],[26.9873,-15.4352],[26.9586,-15.4677],[27.2022,-15.4822],[27.2277,-15.4971],[27.2795,-15.7271],[27.3009,-15.7444],[27.3176,-15.7348],[27.4098,-15.5681],[27.4592,-15.5793],[27.5045,-15.5407],[27.5465,-15.4799],[27.5677,-15.4817],[27.5698,-15.5003],[27.6263,-15.5189],[27.6368,-15.544],[27.6598,-15.5577],[27.6654,-15.6003],[27.6511,-15.6215],[27.6919,-15.6693],[27.7081,-15.6563],[27.7431,-15.6631],[27.7568,-15.6489],[27.823,-15.6517],[27.8564,-15.6898],[27.9296,-15.6643],[27.9707,-15.6659],[28.0072,-15.683],[28.0406,-15.7318],[28.1783,-15.7778],[28.2361,-15.8186],[28.2915,-15.7907],[28.3911,-15.7844],[28.5066,-15.8237],[28.5836,-15.8903],[28.6769,-15.8953],[28.7539,-15.9519],[28.8086,-15.9567],[28.8486,-15.9365],[28.8706,-15.9431],[28.8873,-15.9264],[28.9469,-15.9572]]]}},{"type":"Feature","id":"Western","properties":{"id":"Western","iso_code":"ZM-01","name":"Western","name_full":"Western","name_ja":"西部州","center_lonlat":[23.6634,-15.6478]},"geometry":{"type":"Polygon","coordinates":[[[21.9804,-13.6948],[22.0285,-13.7123],[22.0857,-13.7585],[22.1192,-13.7616],[22.1685,-13.7426],[22.2216,-13.6834],[22.2508,-13.6866],[22.4994,-13.8661],[22.5163,-13.8936],[22.61,-13.9277],[22.6323,-13.961],[22.7103,-13.9904],[22.7287,-13.9777],[22.748,-13.9053],[22.8054,-13.8997],[22.8529,-13.8695],[22.9648,-13.9356],[23.0007,-13.9928],[23.0822,-13.9803],[23.0999,-13.9927],[23.1064,-14.036],[23.1252,-14.059],[23.227,-14.0763],[23.1826,-14.1548],[23.2236,-14.1406],[23.2236,-14.1685],[23.2646,-14.1685],[23.3232,-14.1337],[23.3676,-14.1337],[23.4367,-14.0857],[23.5395,-14.0592],[23.5922,-14.0232],[23.6677,-13.9948],[23.6835,-13.9904],[23.7333,-14.0123],[23.8337,-13.9562],[23.8331,-13.9757],[23.8557,-13.9909],[23.9107,-14.0003],[23.9478,-13.9872],[24.0015,-14.0003],[24.048,-13.9663],[24.0716,-13.9765],[24.0879,-13.9462],[24.1267,-13.9556],[24.1566,-13.9302],[24.2224,-13.9059],[24.2749,-13.9369],[24.3,-13.9382],[24.2905,-13.9127],[24.3053,-13.8922],[24.3266,-13.9122],[24.3349,-13.9422],[24.3815,-13.9582],[24.4041,-13.9464],[24.4164,-13.9633],[24.4707,-13.9525],[24.4654,-13.9324],[24.4886,-13.9179],[24.5539,-13.9829],[24.587,-13.9885],[24.591,-13.9634],[24.6158,-13.9656],[24.6195,-14.0001],[24.6356,-13.9698],[24.6613,-13.9585],[24.7134,-14.0128],[24.7266,-14.0884],[24.7458,-14.1203],[24.8782,-14.1562],[25.0082,-14.2177],[25.0638,-14.2143],[25.0818,-14.2321],[25.0875,-14.2904],[25.0591,-14.3502],[25.0511,-14.4218],[24.9635,-14.4832],[24.9629,-14.5643],[25.0102,-14.6238],[25.0402,-14.636],[25.1516,-14.6285],[25.3153,-14.5774],[25.3938,-14.5828],[25.4512,-14.6037],[25.5484,-14.5852],[25.5231,-14.6028],[25.4787,-14.6835],[25.4801,-14.7845],[25.45,-14.8066],[25.4251,-14.8663],[25.4257,-14.9136],[25.4565,-14.9706],[25.456,-15.0196],[25.4141,-15.0806],[25.4106,-15.1314],[25.3679,-15.1375],[25.3242,-15.1787],[25.3248,-15.2989],[25.3432,-15.3527],[25.3187,-15.3816],[25.3178,-15.4201],[25.2967,-15.468],[25.2447,-15.4849],[25.2689,-15.5382],[25.2233,-15.5938],[25.2778,-15.6448],[25.2778,-15.6683],[25.2518,-15.6985],[25.2784,-15.7487],[25.3201,-15.7601],[25.3608,-15.7235],[25.3962,-15.7509],[25.3816,-15.8762],[25.3504,-15.9275],[25.3586,-15.9697],[25.3344,-16.009],[25.3496,-16.0441],[25.4281,-16.0929],[25.3558,-16.1642],[25.2899,-16.2926],[25.1499,-16.3739],[25.0414,-16.512],[24.9978,-16.5322],[25.0008,-16.551],[25.0751,-16.6091],[25.1009,-16.6704],[25.2124,-16.6852],[25.2514,-16.7057],[25.2417,-16.7901],[25.279,-16.9055],[25.2379,-16.9759],[25.1592,-17.0139],[25.1553,-17.0795],[25.0914,-17.1383],[25.0842,-17.1752],[25.0984,-17.2219],[25.0253,-17.3166],[25.0253,-17.4199],[24.9861,-17.4699],[24.97,-17.56],[24.958,-17.5517],[24.9376,-17.5607],[24.8983,-17.5311],[24.6844,-17.4924],[24.6297,-17.4955],[24.5712,-17.5335],[24.5236,-17.5078],[24.3889,-17.4713],[24.3213,-17.4887],[24.2388,-17.4782],[23.3817,-17.6411],[23.3823,-17.601],[23.3202,-17.5464],[23.2584,-17.5328],[23.1897,-17.5366],[23.1775,-17.524],[23.1762,-17.4782],[23.0976,-17.4322],[23.0404,-17.3371],[22.9986,-17.2938],[22.8762,-17.2481],[22.7652,-17.1696],[22.7448,-17.1083],[22.7105,-17.0554],[22.6517,-16.9987],[22.5734,-16.971],[22.5545,-16.9242],[22.5085,-16.9062],[22.4166,-16.7545],[22.378,-16.7348],[22.3337,-16.6737],[22.2908,-16.6564],[22.2377,-16.6655],[22.1517,-16.5977],[22.1381,-16.5526],[22.1081,-16.5439],[22.1073,-16.5123],[22.0799,-16.4578],[22.1056,-16.3794],[22.0558,-16.3646],[22.052,-16.3268],[22.0117,-16.2523],[22.0452,-16.2523],[21.9838,-16.1659],[21.9815,-16.1443],[21.9804,-13.6948]]]}}]}
