{"type":"FeatureCollection","features":[{"type":"Feature","id":"Bulawayo","properties":{"id":"Bulawayo","iso_code":"ZW-BU","name":"Bulawayo","name_full":"Bulawayo","name_ja":"ブラワヨ","center_lonlat":[28.5494,-20.1403]},"geometry":{"type":"Polygon","coordinates":[[[28.5999,-20.2367],[28.5597,-20.224],[28.5217,-20.2495],[28.4997,-20.2298],[28.5125,-20.2023],[28.4937,-20.1714],[28.392,-20.1617],[28.4175,-20.1343],[28.4192,-20.0296],[28.4976,-20.0627],[28.578,-20.0366],[28.5795,-20.0777],[28.6191,-20.0954],[28.6582,-20.091],[28.6609,-20.1068],[28.6813,-20.1182],[28.6693,-20.16],[28.6994,-20.184],[28.6993,-20.1992],[28.6668,-20.2227],[28.5999,-20.2367]]]}},{"type":"Feature","id":"Harare","properties":{"id":"Harare","iso_code":"ZW-HA","name":"Harare","name_full":"Harare","name_ja":"ハラレ州","center_lonlat":[31.0605,-17.8631]},"geometry":{"type":"Polygon","coordinates":[[[31.0887,-17.6661],[31.1121,-17.6689],[31.1312,-17.6974],[31.1965,-17.7067],[31.1959,-17.7633],[31.2218,-17.8483],[31.1936,-17.9025],[31.1484,-17.9236],[31.1476,-17.9792],[31.1203,-18.0039],[31.1332,-18.0218],[31.0572,-18.0525],[30.879,-17.949],[30.9429,-17.9281],[30.9367,-17.9062],[30.9026,-17.8791],[30.9036,-17.81],[30.9426,-17.7841],[30.9821,-17.7217],[31.0085,-17.7404],[31.0713,-17.7315],[31.0857,-17.7093],[31.0887,-17.6661]]]}},{"type":"Feature","id":"Manicaland","properties":{"id":"Manicaland","iso_code":"ZW-MA","name":"Manicaland","name_full":"Manicaland","name_ja":"マニカランド州","center_lonlat":[32.3862,-19.0719]},"geometry":{"type":"Polygon","coordinates":[[[32.4085,-21.2903],[32.2969,-21.2132],[32.2553,-21.0934],[32.1801,-21.0556],[32.1886,-21.0306],[32.1606,-21.0051],[32.1355,-20.9283],[32.2733,-20.5932],[32.2866,-20.4043],[32.3362,-20.1231],[32.3283,-20.0051],[32.1913,-19.921],[32.1122,-19.9149],[32.019,-19.8643],[31.9834,-19.8217],[31.9395,-19.7973],[31.9161,-19.7448],[31.8491,-19.6771],[31.8343,-19.6432],[31.7538,-19.5909],[31.6967,-19.4955],[31.6201,-19.4673],[31.5904,-19.4705],[31.5342,-19.4231],[31.4794,-19.3963],[31.4234,-19.3956],[31.1987,-19.2484],[31.3083,-19.2326],[31.3193,-19.1199],[31.3383,-19.0989],[31.4135,-19.1096],[31.4432,-19.0924],[31.4763,-19.1167],[31.4831,-19.1421],[31.5419,-19.1543],[31.5888,-19.0873],[31.6046,-19.0472],[31.5962,-19.0236],[31.6609,-19.0433],[31.7463,-19.0356],[31.83,-19.0977],[31.9067,-19.1253],[31.9852,-19.1322],[31.991,-18.9875],[31.9421,-18.9183],[31.9,-18.7737],[31.8437,-18.7532],[31.8268,-18.7079],[31.7706,-18.6315],[31.7618,-18.5989],[31.7705,-18.5675],[31.7435,-18.5091],[31.762,-18.4933],[31.7725,-18.4474],[31.8513,-18.4209],[31.8497,-18.3915],[31.8676,-18.3531],[31.8622,-18.2731],[31.9089,-18.2064],[31.9117,-18.1663],[32.1462,-17.9386],[32.1656,-17.847],[32.2415,-17.8141],[32.2795,-17.7644],[32.3768,-17.6892],[32.4453,-17.6804],[32.4876,-17.6376],[32.5912,-17.5987],[32.633,-17.5558],[32.646,-17.5099],[32.7215,-17.4751],[32.7673,-17.375],[32.8674,-17.3004],[32.9691,-17.2661],[32.9836,-17.3178],[33.0147,-17.3367],[33.0225,-17.3615],[32.9367,-17.5094],[32.9517,-17.5514],[33.0066,-17.581],[33.0245,-17.6192],[33.0041,-17.6756],[32.9991,-17.7943],[32.9461,-17.8347],[32.9369,-17.875],[32.9521,-17.9402],[32.9274,-17.9729],[32.9412,-17.9963],[32.9371,-18.0471],[32.9723,-18.1503],[32.9749,-18.1908],[32.9523,-18.233],[32.955,-18.2563],[33.0428,-18.352],[32.9854,-18.4125],[33.003,-18.4469],[32.9964,-18.4671],[32.8707,-18.5358],[32.8717,-18.5732],[32.9223,-18.6932],[32.9025,-18.7745],[32.8852,-18.7878],[32.7876,-18.7913],[32.6914,-18.8343],[32.6968,-18.8972],[32.7158,-18.9198],[32.6811,-18.955],[32.699,-19.0222],[32.8142,-19.0238],[32.8559,-19.0837],[32.8623,-19.1181],[32.8287,-19.2846],[32.7688,-19.3636],[32.7634,-19.464],[32.7739,-19.4759],[32.8254,-19.4792],[32.8322,-19.5009],[32.8196,-19.6743],[32.8722,-19.6902],[32.9432,-19.6493],[32.961,-19.6588],[32.9624,-19.7354],[33.0328,-19.7842],[33.002,-19.927],[33.0073,-20.032],[32.9537,-20.0302],[32.9265,-20.0865],[32.8853,-20.103],[32.8571,-20.2006],[32.8656,-20.2289],[32.853,-20.2739],[32.7359,-20.4142],[32.6718,-20.5318],[32.6465,-20.558],[32.5131,-20.5646],[32.4816,-20.603],[32.4691,-20.6868],[32.4972,-20.8981],[32.491,-20.9363],[32.4677,-20.9802],[32.3398,-21.1341],[32.3806,-21.1655],[32.3717,-21.1879],[32.4472,-21.3137],[32.4085,-21.2903]]]}},{"type":"Feature","id":"Mashonaland Central","properties":{"id":"Mashonaland Central","iso_code":"ZW-MC","name":"Mashonaland Central","name_full":"Mashonaland Central","name_ja":"中央マショナランド州","center_lonlat":[31.1896,-16.7114]},"geometry":{"type":"Polygon","coordinates":[[[30.2962,-15.639],[30.3281,-15.6524],[30.3963,-15.636],[30.4026,-16.0012],[30.8574,-15.9981],[30.9019,-16.0071],[30.9898,-16.0643],[31.0569,-16.0176],[31.0809,-16.0259],[31.1141,-15.9969],[31.26,-16.0235],[31.2953,-16.0417],[31.3409,-16.1067],[31.3703,-16.1237],[31.384,-16.1488],[31.4043,-16.1499],[31.4046,-16.1623],[31.4657,-16.1677],[31.5192,-16.1965],[31.7107,-16.2179],[31.8181,-16.3196],[31.8719,-16.3504],[31.8944,-16.4215],[32.0141,-16.4449],[32.2118,-16.4402],[32.2905,-16.4518],[32.6718,-16.5998],[32.6879,-16.6243],[32.6987,-16.6868],[32.7309,-16.7087],[32.7008,-16.7354],[32.6651,-16.7452],[32.413,-16.7123],[32.3135,-16.7581],[32.2477,-16.7601],[32.1808,-16.794],[32.0701,-16.7986],[32.0224,-16.8408],[31.9988,-16.9142],[31.9299,-16.965],[31.8805,-17.0795],[31.7586,-17.1864],[31.7451,-17.3042],[31.6071,-17.4559],[31.516,-17.5028],[31.4772,-17.562],[31.4589,-17.5577],[31.3846,-17.6219],[31.3393,-17.6129],[31.2963,-17.6299],[31.2797,-17.5911],[31.3166,-17.4837],[31.1511,-17.4683],[31.0877,-17.5433],[31.1085,-17.5824],[31.0887,-17.6661],[31.0857,-17.7093],[31.0713,-17.7315],[31.0085,-17.7404],[30.9821,-17.7217],[30.9546,-17.6776],[30.936,-17.6711],[30.9059,-17.6912],[30.774,-17.6275],[30.7816,-17.5635],[30.626,-17.5569],[30.6379,-17.4363],[30.6227,-17.3635],[30.6787,-17.2609],[30.6663,-17.2338],[30.7201,-17.172],[30.7347,-17.0733],[30.7054,-17.055],[30.6727,-17.0663],[30.6585,-17.0429],[30.618,-17.0633],[30.5494,-17.0497],[30.5448,-16.9998],[30.56,-16.9848],[30.5308,-16.955],[30.5229,-16.8591],[30.5502,-16.808],[30.548,-16.7861],[30.5127,-16.7517],[30.518,-16.7286],[30.5003,-16.6927],[30.4062,-16.6479],[30.3791,-16.6045],[30.4355,-16.4101],[30.4145,-16.342],[30.3342,-16.3369],[30.2973,-16.2744],[30.2667,-16.2657],[30.2133,-16.281],[30.2164,-16.3238],[30.2022,-16.3438],[30.1525,-16.3697],[30.1033,-16.3689],[30.0828,-16.3977],[30.0487,-16.3838],[30.067,-16.3355],[30.097,-16.3034],[30.0985,-16.2264],[30.1469,-16.176],[30.1437,-16.1604],[30.1042,-16.1426],[30.0849,-16.0902],[30.0883,-16.0471],[30.0519,-16.0248],[30.0451,-16.0017],[30.3117,-15.7768],[30.3233,-15.7501],[30.294,-15.6903],[30.2962,-15.639]]]}},{"type":"Feature","id":"Mashonaland East","properties":{"id":"Mashonaland East","iso_code":"ZW-ME","name":"Mashonaland East","name_full":"Mashonaland East","name_ja":"東マショナランド州","center_lonlat":[31.6777,-18.0053]},"geometry":{"type":"Polygon","coordinates":[[[32.7309,-16.7087],[32.7693,-16.6955],[32.8934,-16.7124],[32.9685,-16.6816],[32.9162,-16.8479],[32.8288,-16.9351],[32.9541,-17.1672],[32.9691,-17.2661],[32.8674,-17.3004],[32.7673,-17.375],[32.7215,-17.4751],[32.646,-17.5099],[32.633,-17.5558],[32.5912,-17.5987],[32.4876,-17.6376],[32.4453,-17.6804],[32.3768,-17.6892],[32.2795,-17.7644],[32.2415,-17.8141],[32.1656,-17.847],[32.1462,-17.9386],[31.9117,-18.1663],[31.9089,-18.2064],[31.8622,-18.2731],[31.8676,-18.3531],[31.8497,-18.3915],[31.8513,-18.4209],[31.7725,-18.4474],[31.762,-18.4933],[31.7435,-18.5091],[31.7705,-18.5675],[31.7618,-18.5989],[31.7706,-18.6315],[31.8268,-18.7079],[31.8437,-18.7532],[31.9,-18.7737],[31.9421,-18.9183],[31.991,-18.9875],[31.9852,-19.1322],[31.9067,-19.1253],[31.83,-19.0977],[31.7463,-19.0356],[31.6609,-19.0433],[31.5962,-19.0236],[31.6046,-19.0472],[31.5888,-19.0873],[31.5419,-19.1543],[31.4831,-19.1421],[31.4763,-19.1167],[31.4432,-19.0924],[31.4135,-19.1096],[31.3383,-19.0989],[31.3193,-19.1199],[31.3083,-19.2326],[31.1987,-19.2484],[30.9983,-19.2464],[31.0063,-19.1609],[30.9644,-19.1557],[30.9012,-19.1926],[30.9026,-19.2345],[30.8593,-19.2724],[30.805,-19.2518],[30.7189,-19.172],[30.7164,-19.1417],[30.7333,-19.1125],[30.6758,-19.0154],[30.6891,-18.9838],[30.5802,-18.9631],[30.4338,-18.8817],[30.3631,-18.8615],[30.3808,-18.8451],[30.3985,-18.7751],[30.4499,-18.6814],[30.4626,-18.6867],[30.4987,-18.767],[30.5397,-18.7554],[30.544,-18.7258],[30.6068,-18.7444],[30.609,-18.706],[30.6514,-18.7207],[30.702,-18.641],[30.7515,-18.5924],[30.7668,-18.426],[30.7963,-18.3849],[30.7066,-18.2854],[30.7026,-18.2331],[30.7585,-18.174],[30.7724,-18.1048],[30.7982,-18.0761],[30.7813,-18.0238],[30.7892,-18.0011],[30.8194,-17.9813],[30.8184,-17.9252],[30.879,-17.949],[31.0572,-18.0525],[31.1332,-18.0218],[31.1203,-18.0039],[31.1476,-17.9792],[31.1484,-17.9236],[31.1936,-17.9025],[31.2218,-17.8483],[31.1959,-17.7633],[31.1965,-17.7067],[31.1312,-17.6974],[31.1121,-17.6689],[31.0887,-17.6661],[31.1085,-17.5824],[31.0877,-17.5433],[31.1511,-17.4683],[31.3166,-17.4837],[31.2797,-17.5911],[31.2963,-17.6299],[31.3393,-17.6129],[31.3846,-17.6219],[31.4589,-17.5577],[31.4772,-17.562],[31.516,-17.5028],[31.6071,-17.4559],[31.7451,-17.3042],[31.7586,-17.1864],[31.8805,-17.0795],[31.9299,-16.965],[31.9988,-16.9142],[32.0224,-16.8408],[32.0701,-16.7986],[32.1808,-16.794],[32.2477,-16.7601],[32.3135,-16.7581],[32.413,-16.7123],[32.6651,-16.7452],[32.7008,-16.7354],[32.7309,-16.7087]]]}},{"type":"Feature","id":"Mashonaland West","properties":{"id":"Mashonaland West","iso_code":"ZW-MW","name":"Mashonaland West","name_full":"Mashonaland West","name_ja":"西マショナランド州","center_lonlat":[29.7082,-17.1834]},"geometry":{"type":"Polygon","coordinates":[[[30.2962,-15.639],[30.294,-15.6903],[30.3233,-15.7501],[30.3117,-15.7768],[30.0451,-16.0017],[30.0519,-16.0248],[30.0883,-16.0471],[30.0849,-16.0902],[30.1042,-16.1426],[30.1437,-16.1604],[30.1469,-16.176],[30.0985,-16.2264],[30.097,-16.3034],[30.067,-16.3355],[30.0487,-16.3838],[30.0828,-16.3977],[30.1033,-16.3689],[30.1525,-16.3697],[30.2022,-16.3438],[30.2164,-16.3238],[30.2133,-16.281],[30.2667,-16.2657],[30.2973,-16.2744],[30.3342,-16.3369],[30.4145,-16.342],[30.4355,-16.4101],[30.3791,-16.6045],[30.4062,-16.6479],[30.5003,-16.6927],[30.518,-16.7286],[30.5127,-16.7517],[30.548,-16.7861],[30.5502,-16.808],[30.5229,-16.8591],[30.5308,-16.955],[30.56,-16.9848],[30.5448,-16.9998],[30.5494,-17.0497],[30.618,-17.0633],[30.6585,-17.0429],[30.6727,-17.0663],[30.7054,-17.055],[30.7347,-17.0733],[30.7201,-17.172],[30.6663,-17.2338],[30.6787,-17.2609],[30.6227,-17.3635],[30.6379,-17.4363],[30.626,-17.5569],[30.7816,-17.5635],[30.774,-17.6275],[30.9059,-17.6912],[30.936,-17.6711],[30.9546,-17.6776],[30.9821,-17.7217],[30.9426,-17.7841],[30.9036,-17.81],[30.9026,-17.8791],[30.9367,-17.9062],[30.9429,-17.9281],[30.879,-17.949],[30.8184,-17.9252],[30.8194,-17.9813],[30.7892,-18.0011],[30.7813,-18.0238],[30.7982,-18.0761],[30.7724,-18.1048],[30.7585,-18.174],[30.7026,-18.2331],[30.7066,-18.2854],[30.7963,-18.3849],[30.7668,-18.426],[30.7515,-18.5924],[30.702,-18.641],[30.6514,-18.7207],[30.609,-18.706],[30.6068,-18.7444],[30.544,-18.7258],[30.5397,-18.7554],[30.4987,-18.767],[30.4626,-18.6867],[30.4499,-18.6814],[30.3985,-18.7751],[30.3808,-18.8451],[30.3631,-18.8615],[30.3195,-18.8227],[30.2303,-18.7922],[30.1674,-18.7468],[30.0749,-18.7354],[29.9779,-18.7013],[29.9384,-18.7179],[29.8951,-18.7113],[29.8355,-18.6898],[29.8144,-18.6678],[29.7596,-18.6577],[29.7267,-18.6335],[29.6589,-18.6286],[29.581,-18.5922],[29.5613,-18.5595],[29.5599,-18.476],[29.5764,-18.455],[29.5878,-18.3785],[29.3731,-18.2613],[29.248,-18.137],[29.2158,-18.0805],[29.2007,-18.001],[29.2883,-17.8058],[29.3206,-17.7669],[29.3035,-17.7329],[29.3319,-17.7042],[29.3393,-17.6434],[29.319,-17.5817],[29.4024,-17.4854],[29.3591,-17.4628],[29.2922,-17.3887],[29.2784,-17.3432],[29.2546,-17.3158],[29.1905,-17.3121],[28.9801,-17.224],[28.917,-17.1301],[28.876,-17.1568],[28.8157,-17.1556],[28.7607,-17.173],[28.7003,-17.223],[28.656,-17.2242],[28.5473,-17.3622],[28.5072,-17.395],[28.4834,-17.3818],[28.4231,-17.3814],[28.28,-17.4152],[28.2476,-17.4096],[28.231,-17.3599],[28.1646,-17.3094],[28.1422,-17.229],[28.1386,-17.1493],[28.0914,-17.1375],[28.0751,-17.1071],[28.0441,-17.0885],[28.0581,-17.0184],[28.0324,-17.0003],[28.0426,-16.946],[28.023,-16.8654],[28.1139,-16.8276],[28.2801,-16.7065],[28.6433,-16.5688],[28.7414,-16.5507],[28.8225,-16.4708],[28.8572,-16.3882],[28.8368,-16.3063],[28.8642,-16.2312],[28.8471,-16.2027],[28.871,-16.0872],[28.8603,-16.0494],[28.9324,-15.9637],[29.0423,-15.9463],[29.0862,-15.8846],[29.151,-15.8488],[29.1863,-15.8128],[29.407,-15.7142],[29.5085,-15.7036],[29.5634,-15.6621],[29.6728,-15.6633],[29.8373,-15.6148],[30.0107,-15.6462],[30.1301,-15.6237],[30.2072,-15.6532],[30.2549,-15.6289],[30.2962,-15.639]]]}},{"type":"Feature","id":"Masvingo","properties":{"id":"Masvingo","iso_code":"ZW-MV","name":"Masvingo","name_full":"Masvingo","name_ja":"マシンゴ州","center_lonlat":[31.2309,-20.7855]},"geometry":{"type":"Polygon","coordinates":[[[31.097,-22.3349],[31.0788,-22.305],[31.0486,-22.2978],[31.0091,-22.1934],[30.9766,-22.1897],[30.968,-22.1666],[30.9327,-22.1524],[30.9056,-22.0829],[30.8733,-22.0798],[30.8291,-22.0267],[30.7836,-22.0095],[30.7928,-21.9711],[30.7651,-21.9517],[30.7572,-21.9186],[30.7046,-21.8527],[30.6696,-21.8289],[30.6348,-21.7486],[30.6067,-21.7529],[30.5501,-21.7343],[30.5076,-21.6819],[30.5118,-21.6584],[30.4531,-21.6436],[30.3755,-21.6005],[30.25,-21.5906],[30.2396,-21.5556],[30.185,-21.5319],[30.1732,-21.5082],[30.1116,-21.497],[30.0195,-21.3981],[29.9607,-21.3583],[29.914,-21.2793],[29.8911,-21.2681],[29.8854,-21.2264],[29.8473,-21.1988],[29.8361,-21.1589],[29.7956,-21.1358],[29.7505,-21.0864],[29.728,-21.0242],[29.7981,-21.0283],[29.9367,-20.9259],[29.9697,-20.9148],[29.9958,-20.9214],[30.1576,-21.0312],[30.2377,-21.041],[30.2794,-21.0228],[30.3329,-21.0374],[30.4396,-20.9403],[30.4368,-20.8515],[30.475,-20.7731],[30.4714,-20.7346],[30.4906,-20.6898],[30.4579,-20.6303],[30.4581,-20.5444],[30.4171,-20.5009],[30.4075,-20.4681],[30.323,-20.4023],[30.3173,-20.372],[30.2681,-20.3592],[30.2346,-20.3217],[30.2394,-20.2406],[30.2258,-20.2049],[30.18,-20.1908],[30.153,-20.2019],[30.1769,-20.0757],[30.1671,-20.0473],[30.259,-20.0008],[30.4332,-19.9911],[30.4296,-19.949],[30.4644,-19.9167],[30.4512,-19.8774],[30.4725,-19.847],[30.5673,-19.8451],[30.6446,-19.8707],[30.7018,-19.8561],[30.691,-19.8113],[30.7232,-19.6421],[30.7156,-19.5915],[30.7282,-19.4562],[30.765,-19.4232],[30.7583,-19.4099],[30.7093,-19.3935],[30.8593,-19.2724],[30.9026,-19.2345],[30.9012,-19.1926],[30.9644,-19.1557],[31.0063,-19.1609],[30.9983,-19.2464],[31.1987,-19.2484],[31.4234,-19.3956],[31.4794,-19.3963],[31.5342,-19.4231],[31.5904,-19.4705],[31.6201,-19.4673],[31.6967,-19.4955],[31.7538,-19.5909],[31.8343,-19.6432],[31.8491,-19.6771],[31.9161,-19.7448],[31.9395,-19.7973],[31.9834,-19.8217],[32.019,-19.8643],[32.1122,-19.9149],[32.1913,-19.921],[32.3283,-20.0051],[32.3362,-20.1231],[32.2866,-20.4043],[32.2733,-20.5932],[32.1355,-20.9283],[32.1606,-21.0051],[32.1886,-21.0306],[32.1801,-21.0556],[32.2553,-21.0934],[32.2969,-21.2132],[32.4085,-21.2903],[31.4338,-22.302],[31.2889,-22.3973],[31.2556,-22.358],[31.2135,-22.3619],[31.1526,-22.3164],[31.097,-22.3349]]]}},{"type":"Feature","id":"Matabeleland North","properties":{"id":"Matabeleland North","iso_code":"ZW-MN","name":"Matabeleland North","name_full":"Matabeleland North","name_ja":"北マタベレランド州","center_lonlat":[27.3948,-18.8208]},"geometry":{"type":"Polygon","coordinates":[[[28.023,-16.8654],[28.0426,-16.946],[28.0324,-17.0003],[28.0581,-17.0184],[28.0441,-17.0885],[28.0751,-17.1071],[28.0914,-17.1375],[28.1386,-17.1493],[28.1422,-17.229],[28.1646,-17.3094],[28.231,-17.3599],[28.2476,-17.4096],[28.2122,-17.54],[28.2161,-17.5835],[28.1958,-17.6406],[28.201,-17.6851],[28.1472,-17.7364],[28.1221,-17.7278],[28.0872,-17.7545],[28.0766,-17.7876],[28.0881,-17.8509],[28.0665,-17.9305],[28.0089,-18.0027],[28.024,-18.0542],[28.0651,-18.0615],[28.0744,-18.1257],[28.0507,-18.1628],[28.1069,-18.1971],[28.0092,-18.2223],[28.0107,-18.5434],[28.0437,-18.561],[28.1157,-18.5545],[28.3407,-18.5812],[28.5016,-18.5787],[28.672,-18.5551],[28.7333,-18.5692],[29.1237,-18.5709],[29.1419,-18.6151],[29.1282,-18.6328],[28.8887,-18.7201],[28.8812,-18.7474],[28.9438,-19.0121],[28.9835,-19.0456],[29.0163,-19.0994],[28.998,-19.1439],[28.9982,-19.1837],[29.1155,-19.3061],[29.0984,-19.3734],[29.2239,-19.4874],[29.1923,-19.5183],[29.1195,-19.4943],[29.0915,-19.5056],[29.1251,-19.559],[29.1224,-19.5906],[29.0576,-19.657],[29.102,-19.705],[29.1004,-19.7641],[29.085,-19.8118],[29.0553,-19.8358],[28.9621,-19.8358],[28.9912,-19.9354],[28.9711,-19.9712],[28.8411,-20.0377],[28.8389,-20.0935],[28.6726,-20.2762],[28.6515,-20.2764],[28.5999,-20.2367],[28.6668,-20.2227],[28.6993,-20.1992],[28.6994,-20.184],[28.6693,-20.16],[28.6813,-20.1182],[28.6609,-20.1068],[28.6582,-20.091],[28.6191,-20.0954],[28.5795,-20.0777],[28.578,-20.0366],[28.4976,-20.0627],[28.4192,-20.0296],[28.4175,-20.1343],[28.392,-20.1617],[28.4937,-20.1714],[28.5125,-20.2023],[28.4997,-20.2298],[28.3323,-20.3371],[28.2762,-20.2426],[28.2076,-20.1756],[28.1865,-20.1221],[28.1423,-20.0838],[27.9981,-20.1213],[27.952,-20.0612],[27.9145,-20.1873],[27.8287,-20.1765],[27.6454,-20.032],[27.5716,-19.9494],[27.5611,-19.8975],[27.5261,-19.8605],[27.4567,-19.8456],[27.3692,-19.8012],[27.3079,-19.7953],[27.2621,-19.8164],[27.1356,-19.7988],[26.9963,-19.8149],[26.9384,-19.8102],[26.7428,-19.8547],[26.6772,-19.8868],[26.5956,-19.8556],[26.5493,-19.7841],[26.4319,-19.7365],[26.3852,-19.6791],[26.3122,-19.6514],[26.3335,-19.613],[26.3035,-19.5773],[26.1945,-19.5602],[26.1555,-19.5372],[26.1303,-19.5011],[26.0344,-19.2437],[25.9486,-19.1033],[25.9481,-19.0587],[25.9678,-19.001],[25.9407,-18.9213],[25.8153,-18.814],[25.7795,-18.7388],[25.7619,-18.6303],[25.6695,-18.566],[25.6221,-18.5011],[25.5085,-18.3991],[25.4732,-18.3034],[25.3875,-18.139],[25.2964,-18.0686],[25.255,-18.0011],[25.2261,-17.9319],[25.2194,-17.8798],[25.2598,-17.7941],[25.3355,-17.8412],[25.5165,-17.8623],[25.6814,-17.8115],[25.766,-17.8498],[25.8044,-17.8882],[25.8497,-17.9067],[25.8636,-17.9238],[25.8475,-17.9294],[25.8535,-17.96],[25.9245,-17.999],[25.9785,-17.999],[26.0337,-17.9716],[26.0406,-17.9785],[26.0466,-17.9663],[26.0952,-17.9585],[26.0952,-17.9381],[26.1586,-17.9183],[26.2119,-17.8828],[26.2392,-17.9102],[26.2943,-17.9185],[26.3183,-17.9344],[26.4086,-17.939],[26.4855,-17.9793],[26.5702,-18.0029],[26.6288,-18.0492],[26.7,-18.0692],[26.7536,-18.033],[26.8883,-17.9846],[26.912,-17.992],[26.9592,-17.9647],[27.0213,-17.9585],[27.149,-17.8425],[27.1453,-17.7941],[27.1571,-17.7693],[27.5773,-17.3631],[27.6412,-17.1985],[27.7773,-17.0012],[27.8169,-16.9596],[27.8686,-16.9297],[28.023,-16.8654]]]}},{"type":"Feature","id":"Matabeleland South","properties":{"id":"Matabeleland South","iso_code":"ZW-MS","name":"Matabeleland South","name_full":"Matabeleland South","name_ja":"南マタベレランド州","center_lonlat":[28.9762,-21.006]},"geometry":{"type":"Polygon","coordinates":[[[26.6772,-19.8868],[26.7428,-19.8547],[26.9384,-19.8102],[26.9963,-19.8149],[27.1356,-19.7988],[27.2621,-19.8164],[27.3079,-19.7953],[27.3692,-19.8012],[27.4567,-19.8456],[27.5261,-19.8605],[27.5611,-19.8975],[27.5716,-19.9494],[27.6454,-20.032],[27.8287,-20.1765],[27.9145,-20.1873],[27.952,-20.0612],[27.9981,-20.1213],[28.1423,-20.0838],[28.1865,-20.1221],[28.2076,-20.1756],[28.2762,-20.2426],[28.3323,-20.3371],[28.4997,-20.2298],[28.5217,-20.2495],[28.5597,-20.224],[28.5999,-20.2367],[28.6515,-20.2764],[28.6726,-20.2762],[28.8389,-20.0935],[28.8411,-20.0377],[28.9711,-19.9712],[28.9912,-19.9354],[28.9621,-19.8358],[29.0553,-19.8358],[29.085,-19.8118],[29.1004,-19.7641],[29.102,-19.705],[29.0576,-19.657],[29.1224,-19.5906],[29.1251,-19.559],[29.0915,-19.5056],[29.1195,-19.4943],[29.1923,-19.5183],[29.2239,-19.4874],[29.2886,-19.5481],[29.3221,-19.6184],[29.4118,-19.7413],[29.4241,-19.7761],[29.413,-19.8369],[29.4292,-19.877],[29.4979,-19.8703],[29.6149,-19.9372],[29.6918,-19.922],[29.707,-19.9754],[29.8,-19.962],[29.8131,-19.9978],[29.843,-19.991],[29.8741,-20.0408],[29.8046,-20.1934],[29.7962,-20.2533],[29.737,-20.3892],[29.7261,-20.4736],[29.6862,-20.5183],[29.6291,-20.4918],[29.618,-20.5888],[29.5936,-20.6123],[29.6186,-20.6675],[29.6827,-20.6631],[29.6266,-20.9048],[29.4674,-21.0129],[29.501,-21.0312],[29.5702,-21.042],[29.728,-21.0242],[29.7505,-21.0864],[29.7956,-21.1358],[29.8361,-21.1589],[29.8473,-21.1988],[29.8854,-21.2264],[29.8911,-21.2681],[29.914,-21.2793],[29.9607,-21.3583],[30.0195,-21.3981],[30.1116,-21.497],[30.1732,-21.5082],[30.185,-21.5319],[30.2396,-21.5556],[30.25,-21.5906],[30.3755,-21.6005],[30.4531,-21.6436],[30.5118,-21.6584],[30.5076,-21.6819],[30.5501,-21.7343],[30.6067,-21.7529],[30.6348,-21.7486],[30.6696,-21.8289],[30.7046,-21.8527],[30.7572,-21.9186],[30.7651,-21.9517],[30.7928,-21.9711],[30.7836,-22.0095],[30.8291,-22.0267],[30.8733,-22.0798],[30.9056,-22.0829],[30.9327,-22.1524],[30.968,-22.1666],[30.9766,-22.1897],[31.0091,-22.1934],[31.0486,-22.2978],[31.0788,-22.305],[31.097,-22.3349],[30.8379,-22.2823],[30.6939,-22.3028],[30.6324,-22.3307],[30.6011,-22.3164],[30.4885,-22.3102],[30.4127,-22.3369],[30.335,-22.3447],[30.2217,-22.2909],[30.1351,-22.2936],[30.0826,-22.2629],[30.0381,-22.2538],[30.0053,-22.2223],[29.8373,-22.1724],[29.7589,-22.1309],[29.6796,-22.1383],[29.6411,-22.1292],[29.604,-22.1451],[29.551,-22.146],[29.5318,-22.1724],[29.4569,-22.1588],[29.378,-22.1929],[29.3569,-22.1909],[29.2736,-22.1251],[29.2393,-22.0726],[29.108,-22.0692],[29.0405,-22.0209],[29.0138,-21.9404],[29.0179,-21.8981],[29.0576,-21.8292],[29.0387,-21.7979],[28.9808,-21.7748],[28.8609,-21.7574],[28.6684,-21.68],[28.6157,-21.6471],[28.554,-21.6366],[28.4646,-21.6603],[28.3219,-21.6035],[28.0166,-21.5729],[27.9706,-21.5144],[27.9532,-21.5105],[27.9544,-21.4878],[27.9399,-21.478],[27.9502,-21.4383],[27.8978,-21.3554],[27.885,-21.3102],[27.7938,-21.1974],[27.7092,-21.1345],[27.6666,-21.0712],[27.6804,-20.9796],[27.676,-20.8667],[27.6944,-20.8377],[27.7096,-20.7567],[27.6825,-20.6373],[27.7026,-20.5661],[27.6981,-20.5091],[27.666,-20.4891],[27.5909,-20.4733],[27.5341,-20.483],[27.3407,-20.473],[27.2684,-20.4958],[27.284,-20.3515],[27.266,-20.2342],[27.2018,-20.093],[27.0973,-20.0689],[27.0267,-20.0101],[26.9251,-20.0009],[26.8119,-19.9464],[26.731,-19.9359],[26.6772,-19.8868]]]}},{"type":"Feature","id":"Midlands","properties":{"id":"Midlands","iso_code":"ZW-MI","name":"Midlands","name_full":"Midlands","name_ja":"ミッドランズ州","center_lonlat":[29.4609,-18.9819]},"geometry":{"type":"Polygon","coordinates":[[[30.3631,-18.8615],[30.4338,-18.8817],[30.5802,-18.9631],[30.6891,-18.9838],[30.6758,-19.0154],[30.7333,-19.1125],[30.7164,-19.1417],[30.7189,-19.172],[30.805,-19.2518],[30.8593,-19.2724],[30.7093,-19.3935],[30.7583,-19.4099],[30.765,-19.4232],[30.7282,-19.4562],[30.7156,-19.5915],[30.7232,-19.6421],[30.691,-19.8113],[30.7018,-19.8561],[30.6446,-19.8707],[30.5673,-19.8451],[30.4725,-19.847],[30.4512,-19.8774],[30.4644,-19.9167],[30.4296,-19.949],[30.4332,-19.9911],[30.259,-20.0008],[30.1671,-20.0473],[30.1769,-20.0757],[30.153,-20.2019],[30.18,-20.1908],[30.2258,-20.2049],[30.2394,-20.2406],[30.2346,-20.3217],[30.2681,-20.3592],[30.3173,-20.372],[30.323,-20.4023],[30.4075,-20.4681],[30.4171,-20.5009],[30.4581,-20.5444],[30.4579,-20.6303],[30.4906,-20.6898],[30.4714,-20.7346],[30.475,-20.7731],[30.4368,-20.8515],[30.4396,-20.9403],[30.3329,-21.0374],[30.2794,-21.0228],[30.2377,-21.041],[30.1576,-21.0312],[29.9958,-20.9214],[29.9697,-20.9148],[29.9367,-20.9259],[29.7981,-21.0283],[29.728,-21.0242],[29.5702,-21.042],[29.501,-21.0312],[29.4674,-21.0129],[29.6266,-20.9048],[29.6827,-20.6631],[29.6186,-20.6675],[29.5936,-20.6123],[29.618,-20.5888],[29.6291,-20.4918],[29.6862,-20.5183],[29.7261,-20.4736],[29.737,-20.3892],[29.7962,-20.2533],[29.8046,-20.1934],[29.8741,-20.0408],[29.843,-19.991],[29.8131,-19.9978],[29.8,-19.962],[29.707,-19.9754],[29.6918,-19.922],[29.6149,-19.9372],[29.4979,-19.8703],[29.4292,-19.877],[29.413,-19.8369],[29.4241,-19.7761],[29.4118,-19.7413],[29.3221,-19.6184],[29.2886,-19.5481],[29.2239,-19.4874],[29.0984,-19.3734],[29.1155,-19.3061],[28.9982,-19.1837],[28.998,-19.1439],[29.0163,-19.0994],[28.9835,-19.0456],[28.9438,-19.0121],[28.8812,-18.7474],[28.8887,-18.7201],[29.1282,-18.6328],[29.1419,-18.6151],[29.1237,-18.5709],[28.7333,-18.5692],[28.672,-18.5551],[28.5016,-18.5787],[28.3407,-18.5812],[28.1157,-18.5545],[28.0437,-18.561],[28.0107,-18.5434],[28.0092,-18.2223],[28.1069,-18.1971],[28.0507,-18.1628],[28.0744,-18.1257],[28.0651,-18.0615],[28.024,-18.0542],[28.0089,-18.0027],[28.0665,-17.9305],[28.0881,-17.8509],[28.0766,-17.7876],[28.0872,-17.7545],[28.1221,-17.7278],[28.1472,-17.7364],[28.201,-17.6851],[28.1958,-17.6406],[28.2161,-17.5835],[28.2122,-17.54],[28.2476,-17.4096],[28.28,-17.4152],[28.4231,-17.3814],[28.4834,-17.3818],[28.5072,-17.395],[28.5473,-17.3622],[28.656,-17.2242],[28.7003,-17.223],[28.7607,-17.173],[28.8157,-17.1556],[28.876,-17.1568],[28.917,-17.1301],[28.9801,-17.224],[29.1905,-17.3121],[29.2546,-17.3158],[29.2784,-17.3432],[29.2922,-17.3887],[29.3591,-17.4628],[29.4024,-17.4854],[29.319,-17.5817],[29.3393,-17.6434],[29.3319,-17.7042],[29.3035,-17.7329],[29.3206,-17.7669],[29.2883,-17.8058],[29.2007,-18.001],[29.2158,-18.0805],[29.248,-18.137],[29.3731,-18.2613],[29.5878,-18.3785],[29.5764,-18.455],[29.5599,-18.476],[29.5613,-18.5595],[29.581,-18.5922],[29.6589,-18.6286],[29.7267,-18.6335],[29.7596,-18.6577],[29.8144,-18.6678],[29.8355,-18.6898],[29.8951,-18.7113],[29.9384,-18.7179],[29.9779,-18.7013],[30.0749,-18.7354],[30.1674,-18.7468],[30.2303,-18.7922],[30.3195,-18.8227],[30.3631,-18.8615]]]}}]}
